"Station Name","KILLARNEY (AUT)"
"Province","ONTARIO"
"Latitude","45.97"
"Longitude","-81.48"
"Elevation","196.30"
"Climate Identifier","605DJ25"
"WMO Identifier","71460"
"TC Identifier","WBE"
"All times are specified in Local Standard Time (LST). Add 1 hour to adjust for Daylight Saving Time where and when it is observed."

"Legend"
"E","Estimated"
"M","Missing"
"NA","Not Available"

"Date/Time","Year","Month","Day","Time","Temp (°C)","Temp Flag","Dew Point Temp (°C)","Dew Point Temp Flag","Rel Hum (%)","Rel Hum Flag","Wind Dir (10s deg)","Wind Dir Flag","Wind Spd (km/h)","Wind Spd Flag","Visibility (km)","Visibility Flag","Stn Press (kPa)","Stn Press Flag","Hmdx","Hmdx Flag","Wind Chill","Wind Chill Flag","Weather"
"2017-12-01 00:00","2017","12","01","00:00","3.3","","-2.9","","63","","31","","11","","","","99.26","","","","","","NA"
"2017-12-01 01:00","2017","12","01","01:00","3.4","","-2.7","","64","","31","","15","","","","99.33","","","","","","NA"
"2017-12-01 02:00","2017","12","01","02:00","3.0","","-2.8","","66","","32","","11","","","","99.46","","","","","","NA"
"2017-12-01 03:00","2017","12","01","03:00","2.8","","-3.3","","64","","32","","8","","","","99.56","","","","","","NA"
"2017-12-01 04:00","2017","12","01","04:00","2.6","","-3.9","","62","","31","","10","","","","99.61","","","","","","NA"
"2017-12-01 05:00","2017","12","01","05:00","2.7","","-4.0","","62","","31","","7","","","","99.71","","","","","","NA"
"2017-12-01 06:00","2017","12","01","06:00","2.3","","-3.8","","64","","3","","5","","","","99.75","","","","","","NA"
"2017-12-01 07:00","2017","12","01","07:00","2.3","","-3.8","","64","","10","","2","","","","99.79","","","","","","NA"
"2017-12-01 08:00","2017","12","01","08:00","2.5","","-4.0","","62","","11","","3","","","","99.84","","","","","","NA"
"2017-12-01 09:00","2017","12","01","09:00","2.6","","-4.2","","61","","8","","3","","","","99.90","","","","","","NA"
"2017-12-01 10:00","2017","12","01","10:00","2.7","","-2.9","","67","","35","","4","","","","99.98","","","","","","NA"
"2017-12-01 11:00","2017","12","01","11:00","3.5","","-2.3","","66","","28","","14","","","","99.98","","","","","","NA"
"2017-12-01 12:00","2017","12","01","12:00","3.5","","-3.8","","59","","27","","17","","","","99.96","","","","","","NA"
"2017-12-01 13:00","2017","12","01","13:00","3.9","","-3.3","","59","","27","","14","","","","99.92","","","","","","NA"
"2017-12-01 14:00","2017","12","01","14:00","4.4","","-3.1","","58","","25","","13","","","","99.88","","","","","","NA"
"2017-12-01 15:00","2017","12","01","15:00","4.6","","-2.0","","62","","25","","19","","","","99.87","","","","","","NA"
"2017-12-01 16:00","2017","12","01","16:00","4.5","","-2.6","","60","","23","","18","","","","99.89","","","","","","NA"
"2017-12-01 17:00","2017","12","01","17:00","4.3","","-1.4","","66","","23","","24","","","","99.89","","","","","","NA"
"2017-12-01 18:00","2017","12","01","18:00","3.9","","-1.4","","68","","24","","18","","","","99.92","","","","","","NA"
"2017-12-01 19:00","2017","12","01","19:00","4.0","","0.1","","75","","24","","18","","","","99.93","","","","","","NA"
"2017-12-01 20:00","2017","12","01","20:00","3.7","","-0.3","","75","","25","","8","","","","99.95","","","","","","NA"
"2017-12-01 21:00","2017","12","01","21:00","4.2","","1.0","","79","","23","","7","","","","99.89","","","","","","NA"
"2017-12-01 22:00","2017","12","01","22:00","4.2","","0.9","","79","","26","","5","","","","99.90","","","","","","NA"
"2017-12-01 23:00","2017","12","01","23:00","4.2","","1.0","","80","","32","","2","","","","99.86","","","","","","NA"
"2017-12-02 00:00","2017","12","02","00:00","4.3","","0.9","","79","","26","","4","","","","99.87","","","","","","NA"
"2017-12-02 01:00","2017","12","02","01:00","4.4","","1.1","","79","","23","","3","","","","99.86","","","","","","NA"
"2017-12-02 02:00","2017","12","02","02:00","4.2","","1.1","","80","","6","","3","","","","99.83","","","","","","NA"
"2017-12-02 03:00","2017","12","02","03:00","4.2","","1.5","","82","","0","","1","","","","99.82","","","","","","NA"
"2017-12-02 04:00","2017","12","02","04:00","2.8","","0.7","","86","","7","","5","","","","99.78","","","","","","NA"
"2017-12-02 05:00","2017","12","02","05:00","3.2","","1.4","","88","","4","","6","","","","99.76","","","","","","NA"
"2017-12-02 06:00","2017","12","02","06:00","3.2","","1.2","","87","","7","","7","","","","99.74","","","","","","NA"
"2017-12-02 07:00","2017","12","02","07:00","3.2","","1.3","","88","","36","","5","","","","99.80","","","","","","NA"
"2017-12-02 08:00","2017","12","02","08:00","4.4","","2.4","","87","","7","","5","","","","99.81","","","","","","NA"
"2017-12-02 09:00","2017","12","02","09:00","4.5","","2.2","","85","","7","","6","","","","99.82","","","","","","NA"
"2017-12-02 10:00","2017","12","02","10:00","4.2","","2.6","","90","","8","","13","","","","99.81","","","","","","NA"
"2017-12-02 11:00","2017","12","02","11:00","5.5","","4.1","","91","","13","","15","","","","99.75","","","","","","NA"
"2017-12-02 12:00","2017","12","02","12:00","5.7","","4.1","","89","","14","","17","","","","99.64","","","","","","NA"
"2017-12-02 13:00","2017","12","02","13:00","5.7","","4.2","","90","","14","","16","","","","99.57","","","","","","NA"
"2017-12-02 14:00","2017","12","02","14:00","5.9","","4.1","","88","","16","","19","","","","99.54","","","","","","NA"
"2017-12-02 15:00","2017","12","02","15:00","6.1","","3.9","","86","","18","","20","","","","99.53","","","","","","NA"
"2017-12-02 16:00","2017","12","02","16:00","6.1","","3.5","","83","","17","","21","","","","99.51","","","","","","NA"
"2017-12-02 17:00","2017","12","02","17:00","5.9","","4.1","","88","","17","","16","","","","99.51","","","","","","NA"
"2017-12-02 18:00","2017","12","02","18:00","5.9","","4.1","","89","","16","","22","","","","99.52","","","","","","NA"
"2017-12-02 19:00","2017","12","02","19:00","5.9","","4.0","","87","","17","","23","","","","99.51","","","","","","NA"
"2017-12-02 20:00","2017","12","02","20:00","5.9","","4.2","","89","","18","","19","","","","99.53","","","","","","NA"
"2017-12-02 21:00","2017","12","02","21:00","5.8","","4.3","","90","","23","","2","","","","99.53","","","","","","NA"
"2017-12-02 22:00","2017","12","02","22:00","5.9","","4.3","","89","","13","","8","","","","99.50","","","","","","NA"
"2017-12-02 23:00","2017","12","02","23:00","5.8","","4.3","","90","","11","","12","","","","99.49","","","","","","NA"
"2017-12-03 00:00","2017","12","03","00:00","5.5","","4.2","","91","","9","","9","","","","99.45","","","","","","NA"
"2017-12-03 01:00","2017","12","03","01:00","5.7","","4.3","","90","","9","","4","","","","99.42","","","","","","NA"
"2017-12-03 02:00","2017","12","03","02:00","5.3","","3.8","","90","","11","","2","","","","99.43","","","","","","NA"
"2017-12-03 03:00","2017","12","03","03:00","4.5","","3.3","","92","","1","","5","","","","99.44","","","","","","NA"
"2017-12-03 04:00","2017","12","03","04:00","4.0","","2.9","","93","","32","","1","","","","99.46","","","","","","NA"
"2017-12-03 05:00","2017","12","03","05:00","3.9","","2.9","","93","","0","","1","","","","99.47","","","","","","NA"
"2017-12-03 06:00","2017","12","03","06:00","2.9","","2.0","","94","","30","","6","","","","99.51","","","","","","NA"
"2017-12-03 07:00","2017","12","03","07:00","3.6","","2.8","","95","","32","","10","","","","99.55","","","","","","NA"
"2017-12-03 08:00","2017","12","03","08:00","2.9","","2.1","","95","","34","","4","","","","99.60","","","","","","NA"
"2017-12-03 09:00","2017","12","03","09:00","3.3","","2.6","","95","","29","","7","","","","99.67","","","","","","NA"
"2017-12-03 10:00","2017","12","03","10:00","4.1","","3.3","","95","","30","","11","","","","99.72","","","","","","NA"
"2017-12-03 11:00","2017","12","03","11:00","4.9","","1.8","","81","","29","","13","","","","99.73","","","","","","NA"
"2017-12-03 12:00","2017","12","03","12:00","4.5","","0.9","","78","","30","","15","","","","99.71","","","","","","NA"
"2017-12-03 13:00","2017","12","03","13:00","4.8","","0.9","","75","","32","","5","","","","99.71","","","","","","NA"
"2017-12-03 14:00","2017","12","03","14:00","4.8","","0.5","","74","","29","","7","","","","99.69","","","","","","NA"
"2017-12-03 15:00","2017","12","03","15:00","4.7","","0.7","","75","","27","","11","","","","99.72","","","","","","NA"
"2017-12-03 16:00","2017","12","03","16:00","4.7","","0.7","","76","","27","","16","","","","99.82","","","","","","NA"
"2017-12-03 17:00","2017","12","03","17:00","4.2","","0.7","","78","","27","","8","","","","99.85","","","","","","NA"
"2017-12-03 18:00","2017","12","03","18:00","3.4","","0.2","","80","","28","","9","","","","99.93","","","","","","NA"
"2017-12-03 19:00","2017","12","03","19:00","2.9","","0.1","","82","","29","","9","","","","99.98","","","","","","NA"
"2017-12-03 20:00","2017","12","03","20:00","2.8","","-0.1","","81","","32","","6","","","","100.00","","","","","","NA"
"2017-12-03 21:00","2017","12","03","21:00","2.1","","-1.0","","80","","32","","4","","","","100.00","","","","","","NA"
"2017-12-03 22:00","2017","12","03","22:00","2.8","","-0.6","","78","","31","","3","","","","100.01","","","","","","NA"
"2017-12-03 23:00","2017","12","03","23:00","1.7","","-0.5","","86","","10","","6","","","","99.98","","","","","","NA"
"2017-12-04 00:00","2017","12","04","00:00","2.3","","-0.1","","84","","9","","4","","","","100.03","","","","","","NA"
"2017-12-04 01:00","2017","12","04","01:00","2.3","","-0.6","","81","","8","","5","","","","100.02","","","","","","NA"
"2017-12-04 02:00","2017","12","04","02:00","2.7","","0.1","","83","","7","","7","","","","100.03","","","","","","NA"
"2017-12-04 03:00","2017","12","04","03:00","4.8","","1.1","","77","","17","","15","","","","100.10","","","","","","NA"
"2017-12-04 04:00","2017","12","04","04:00","4.6","","1.5","","80","","17","","19","","","","100.06","","","","","","NA"
"2017-12-04 05:00","2017","12","04","05:00","4.6","","1.6","","81","","14","","23","","","","99.97","","","","","","NA"
"2017-12-04 06:00","2017","12","04","06:00","4.8","","2.1","","83","","12","","27","","","","99.96","","","","","","NA"
"2017-12-04 07:00","2017","12","04","07:00","5.4","","3.1","","85","","13","","33","","","","99.89","","","","","","NA"
"2017-12-04 08:00","2017","12","04","08:00","5.5","","3.2","","85","","13","","39","","","","99.76","","","","","","NA"
"2017-12-04 09:00","2017","12","04","09:00","5.7","","3.3","","85","","13","","38","","","","99.69","","","","","","NA"
"2017-12-04 10:00","2017","12","04","10:00","5.9","","3.0","","82","","14","","37","","","","99.65","","","","","","NA"
"2017-12-04 11:00","2017","12","04","11:00","5.9","","3.2","","83","","13","","38","","","","99.58","","","","","","NA"
"2017-12-04 12:00","2017","12","04","12:00","5.8","","3.3","","84","","13","","40","","","","99.43","","","","","","NA"
"2017-12-04 13:00","2017","12","04","13:00","5.8","","3.2","","84","","14","","38","","","","99.35","","","","","","NA"
"2017-12-04 14:00","2017","12","04","14:00","5.7","","3.1","","83","","14","","46","","","","99.22","","","","","","NA"
"2017-12-04 15:00","2017","12","04","15:00","5.6","","3.8","","88","","12","","48","","","","98.95","","","","","","NA"
"2017-12-04 16:00","2017","12","04","16:00","6.3","","3.4","","82","","13","","52","","","","98.86","","","","","","NA"
"2017-12-04 17:00","2017","12","04","17:00","6.2","","3.8","","85","","12","","50","","","","98.64","","","","","","NA"
"2017-12-04 18:00","2017","12","04","18:00","6.3","","3.6","","83","","14","","53","","","","98.49","","","","","","NA"
"2017-12-04 19:00","2017","12","04","19:00","5.9","","4.3","","90","","14","","38","","","","98.52","","","","","","NA"
"2017-12-04 20:00","2017","12","04","20:00","6.0","","4.7","","91","","12","","31","","","","98.45","","","","","","NA"
"2017-12-04 21:00","2017","12","04","21:00","5.9","","4.5","","91","","11","","27","","","","98.37","","","","","","NA"
"2017-12-04 22:00","2017","12","04","22:00","6.3","","4.5","","88","","11","","28","","","","98.22","","","","","","NA"
"2017-12-04 23:00","2017","12","04","23:00","6.3","","4.7","","89","","10","","18","","","","98.13","","","","","","NA"
"2017-12-05 00:00","2017","12","05","00:00","8.5","","4.6","","76","","17","","29","","","","97.96","","","","","","NA"
"2017-12-05 01:00","2017","12","05","01:00","8.4","","4.8","","78","","20","","42","","","","97.80","","","","","","NA"
"2017-12-05 02:00","2017","12","05","02:00","8.1","","5.2","","82","","20","","41","","","","97.66","","","","","","NA"
"2017-12-05 03:00","2017","12","05","03:00","8.0","","5.1","","82","","20","","45","","","","97.63","","","","","","NA"
"2017-12-05 04:00","2017","12","05","04:00","7.8","","5.6","","86","","20","","35","","","","97.53","","","","","","NA"
"2017-12-05 05:00","2017","12","05","05:00","8.5","","5.0","","79","","17","","27","","","","97.41","","","","","","NA"
"2017-12-05 06:00","2017","12","05","06:00","8.5","","5.2","","80","","19","","34","","","","97.28","","","","","","NA"
"2017-12-05 07:00","2017","12","05","07:00","9.1","","5.9","","81","","19","","57","","","","97.13","","","","","","NA"
"2017-12-05 08:00","2017","12","05","08:00","9.0","","6.0","","82","","20","","61","","","","97.13","","","","","","NA"
"2017-12-05 09:00","2017","12","05","09:00","7.7","","0.5","","60","","24","","48","","","","97.30","","","","","","NA"
"2017-12-05 10:00","2017","12","05","10:00","6.7","","-0.4","","60","","24","","41","","","","97.43","","","","","","NA"
"2017-12-05 11:00","2017","12","05","11:00","5.8","","0.2","","67","","23","","38","","","","97.50","","","","","","NA"
"2017-12-05 12:00","2017","12","05","12:00","5.5","","-1.4","","61","","25","","37","","","","97.46","","","","","","NA"
"2017-12-05 13:00","2017","12","05","13:00","5.1","","-1.5","","62","","24","","40","","","","97.48","","","","","","NA"
"2017-12-05 14:00","2017","12","05","14:00","4.5","","-2.2","","62","","24","","48","","","","97.51","","","","","","NA"
"2017-12-05 15:00","2017","12","05","15:00","4.7","","-3.0","","57","","24","","50","","","","97.50","","","","","","NA"
"2017-12-05 16:00","2017","12","05","16:00","4.2","","-3.4","","58","","24","","50","","","","97.51","","","","","","NA"
"2017-12-05 17:00","2017","12","05","17:00","3.4","","-4.1","","58","","25","","40","","","","97.56","","","","","","NA"
"2017-12-05 18:00","2017","12","05","18:00","2.7","","-4.0","","61","","24","","38","","","","97.60","","","","","","NA"
"2017-12-05 19:00","2017","12","05","19:00","1.9","","-4.6","","62","","25","","42","","","","97.64","","","","","","NA"
"2017-12-05 20:00","2017","12","05","20:00","0.1","","-1.5","","89","","25","","33","","","","97.72","","","","","","NA"
"2017-12-05 21:00","2017","12","05","21:00","0.6","","-5.2","","65","","26","","46","","","","97.76","","","","","","NA"
"2017-12-05 22:00","2017","12","05","22:00","0.3","","-6.9","","58","","24","","45","","","","97.82","","","","","","NA"
"2017-12-05 23:00","2017","12","05","23:00","-0.3","","-7.4","","59","","25","","49","","","","97.88","","","","-8","","NA"
"2017-12-06 00:00","2017","12","06","00:00","-0.8","","-8.9","","54","","25","","46","","","","97.90","","","","-9","","NA"
"2017-12-06 01:00","2017","12","06","01:00","-1.4","","-7.1","","65","","25","","42","","","","97.93","","","","-9","","NA"
"2017-12-06 02:00","2017","12","06","02:00","-1.7","","-7.7","","63","","25","","43","","","","97.96","","","","-10","","NA"
"2017-12-06 03:00","2017","12","06","03:00","-1.6","","-9.2","","56","","25","","40","","","","98.01","","","","-10","","NA"
"2017-12-06 04:00","2017","12","06","04:00","-1.8","","-10.2","","53","","25","","45","","","","97.99","","","","-10","","NA"
"2017-12-06 05:00","2017","12","06","05:00","-1.9","","-9.6","","55","","25","","43","","","","97.99","","","","-10","","NA"
"2017-12-06 06:00","2017","12","06","06:00","-2.0","","-9.5","","57","","25","","39","","","","98.00","","","","-10","","NA"
"2017-12-06 07:00","2017","12","06","07:00","-1.7","","-9.4","","56","","24","","43","","","","98.00","","","","-10","","NA"
"2017-12-06 08:00","2017","12","06","08:00","-2.5","","-8.5","","63","","25","","39","","","","98.03","","","","-11","","NA"
"2017-12-06 09:00","2017","12","06","09:00","-2.0","","-9.3","","57","","25","","40","","","","98.03","","","","-10","","NA"
"2017-12-06 10:00","2017","12","06","10:00","-1.8","","-6.3","","71","","25","","36","","","","98.02","","","","-9","","NA"
"2017-12-06 11:00","2017","12","06","11:00","-2.7","","-5.3","","82","","27","","33","","","","98.08","","","","-10","","NA"
"2017-12-06 12:00","2017","12","06","12:00","-3.5","","-4.8","","91","","27","","27","","","","98.10","","","","-11","","NA"
"2017-12-06 13:00","2017","12","06","13:00","-3.2","","-5.9","","82","","27","","32","","","","98.08","","","","-11","","NA"
"2017-12-06 14:00","2017","12","06","14:00","-3.1","","-7.0","","74","","26","","34","","","","98.09","","","","-11","","NA"
"2017-12-06 15:00","2017","12","06","15:00","-2.6","","-7.4","","70","","26","","35","","","","98.13","","","","-10","","NA"
"2017-12-06 16:00","2017","12","06","16:00","-2.5","","-8.1","","65","","26","","34","","","","98.19","","","","-10","","NA"
"2017-12-06 17:00","2017","12","06","17:00","-2.4","","-8.7","","62","","27","","31","","","","98.26","","","","-10","","NA"
"2017-12-06 18:00","2017","12","06","18:00","-2.4","","-7.7","","67","","27","","29","","","","98.33","","","","-9","","NA"
"2017-12-06 19:00","2017","12","06","19:00","-2.8","","-6.3","","77","","27","","30","","","","98.38","","","","-10","","NA"
"2017-12-06 20:00","2017","12","06","20:00","-3.0","","-6.2","","79","","27","","34","","","","98.44","","","","-11","","NA"
"2017-12-06 21:00","2017","12","06","21:00","-2.6","","-6.2","","76","","27","","30","","","","98.46","","","","-10","","NA"
"2017-12-06 22:00","2017","12","06","22:00","-3.1","","-5.5","","83","","29","","20","","","","98.48","","","","-9","","NA"
"2017-12-06 23:00","2017","12","06","23:00","-2.3","","-6.5","","73","","27","","25","","","","98.49","","","","-9","","NA"
"2017-12-07 00:00","2017","12","07","00:00","-2.1","","-6.1","","74","","27","","26","","","","98.52","","","","-9","","NA"
"2017-12-07 01:00","2017","12","07","01:00","-2.4","","-5.9","","77","","28","","21","","","","98.54","","","","-8","","NA"
"2017-12-07 02:00","2017","12","07","02:00","-2.8","","-7.5","","70","","30","","15","","","","98.59","","","","-8","","NA"
"2017-12-07 03:00","2017","12","07","03:00","-3.0","","-8.0","","69","","31","","15","","","","98.64","","","","-8","","NA"
"2017-12-07 04:00","2017","12","07","04:00","-3.5","","-7.7","","73","","32","","15","","","","98.66","","","","-9","","NA"
"2017-12-07 05:00","2017","12","07","05:00","-4.0","","-9.1","","68","","32","","16","","","","98.67","","","","-10","","NA"
"2017-12-07 06:00","2017","12","07","06:00","-4.7","","-9.4","","69","","35","","10","","","","98.71","","","","-9","","NA"
"2017-12-07 07:00","2017","12","07","07:00","-5.4","","-10.7","","66","","34","","9","","","","98.76","","","","-9","","NA"
"2017-12-07 08:00","2017","12","07","08:00","-5.9","","-11.5","","65","","34","","9","","","","98.79","","","","-10","","NA"
"2017-12-07 09:00","2017","12","07","09:00","-6.1","","-11.4","","66","","36","","9","","","","98.81","","","","-10","","NA"
"2017-12-07 10:00","2017","12","07","10:00","-6.3","","-11.4","","67","","36","","10","","","","98.83","","","","-11","","NA"
"2017-12-07 11:00","2017","12","07","11:00","-6.2","","-11.2","","68","","31","","10","","","","98.83","","","","-11","","NA"
"2017-12-07 12:00","2017","12","07","12:00","-6.6","","-10.5","","74","","32","","13","","","","98.80","","","","-12","","NA"
"2017-12-07 13:00","2017","12","07","13:00","-6.3","","-10.9","","70","","31","","16","","","","98.75","","","","-12","","NA"
"2017-12-07 14:00","2017","12","07","14:00","-5.8","","-10.0","","72","","31","","13","","","","98.72","","","","-11","","NA"
"2017-12-07 15:00","2017","12","07","15:00","-5.6","","-8.7","","79","","31","","12","","","","98.70","","","","-11","","NA"
"2017-12-07 16:00","2017","12","07","16:00","-5.7","","-9.0","","77","","32","","15","","","","98.74","","","","-11","","NA"
"2017-12-07 17:00","2017","12","07","17:00","-5.1","","-9.8","","70","","31","","19","","","","98.78","","","","-12","","NA"
"2017-12-07 18:00","2017","12","07","18:00","-4.6","","-10.8","","62","","31","","17","","","","98.79","","","","-10","","NA"
"2017-12-07 19:00","2017","12","07","19:00","-4.9","","-11.3","","61","","32","","14","","","","98.83","","","","-10","","NA"
"2017-12-07 20:00","2017","12","07","20:00","-5.0","","-10.7","","64","","33","","8","","","","98.84","","","","-9","","NA"
"2017-12-07 21:00","2017","12","07","21:00","-4.6","","-10.2","","65","","30","","9","","","","98.81","","","","-8","","NA"
"2017-12-07 22:00","2017","12","07","22:00","-4.5","","-8.7","","72","","29","","4","","","","98.75","","","","-6","","NA"
"2017-12-07 23:00","2017","12","07","23:00","-3.1","","-9.6","","61","","26","","14","","","","98.71","","","","-8","","NA"
"2017-12-08 00:00","2017","12","08","00:00","-2.7","","-7.3","","70","","26","","18","","","","98.65","","","","-8","","NA"
"2017-12-08 01:00","2017","12","08","01:00","-3.3","","-5.8","","83","","24","","24","","","","98.60","","","","-10","","NA"
"2017-12-08 02:00","2017","12","08","02:00","-2.8","","-4.8","","86","","24","","27","","","","98.52","","","","-10","","NA"
"2017-12-08 03:00","2017","12","08","03:00","-2.5","","-5.6","","79","","25","","25","","","","98.48","","","","-9","","NA"
"2017-12-08 04:00","2017","12","08","04:00","-2.3","","-4.7","","84","","25","","25","","","","98.42","","","","-9","","NA"
"2017-12-08 05:00","2017","12","08","05:00","-1.9","","-4.1","","85","","23","","41","","","","98.36","","","","-10","","NA"
"2017-12-08 06:00","2017","12","08","06:00","-2.0","","-4.3","","84","","23","","43","","","","98.27","","","","-10","","NA"
"2017-12-08 07:00","2017","12","08","07:00","-1.4","","-3.6","","85","","23","","42","","","","98.19","","","","-9","","NA"
"2017-12-08 08:00","2017","12","08","08:00","-2.2","","-4.3","","85","","24","","33","","","","98.17","","","","-10","","NA"
"2017-12-08 09:00","2017","12","08","09:00","-1.9","","-5.1","","78","","25","","35","","","","98.15","","","","-9","","NA"
"2017-12-08 10:00","2017","12","08","10:00","-1.9","","-4.9","","80","","24","","34","","","","98.15","","","","-9","","NA"
"2017-12-08 11:00","2017","12","08","11:00","-2.1","","-4.1","","86","","27","","25","","","","98.16","","","","-9","","NA"
"2017-12-08 12:00","2017","12","08","12:00","-3.1","","-4.1","","93","","26","","28","","","","98.10","","","","-10","","NA"
"2017-12-08 13:00","2017","12","08","13:00","-2.8","","-4.0","","91","","27","","27","","","","98.09","","","","-10","","NA"
"2017-12-08 14:00","2017","12","08","14:00","-2.2","","-6.5","","72","","28","","31","","","","98.07","","","","-9","","NA"
"2017-12-08 15:00","2017","12","08","15:00","-3.1","","-7.9","","70","","30","","21","","","","98.16","","","","-9","","NA"
"2017-12-08 16:00","2017","12","08","16:00","-4.2","","-9.7","","66","","31","","20","","","","98.33","","","","-11","","NA"
"2017-12-08 17:00","2017","12","08","17:00","-4.3","","-12.1","","54","","29","","31","","","","98.43","","","","-12","","NA"
"2017-12-08 18:00","2017","12","08","18:00","-5.8","","-12.9","","57","","31","","27","","","","98.54","","","","-14","","NA"
"2017-12-08 19:00","2017","12","08","19:00","-7.8","","-13.9","","61","","32","","17","","","","98.69","","","","-14","","NA"
"2017-12-08 20:00","2017","12","08","20:00","-9.3","","-14.7","","65","","34","","13","","","","98.76","","","","-15","","NA"
"2017-12-08 21:00","2017","12","08","21:00","-10.5","","-16.2","","63","","35","","7","","","","98.82","","","","-15","","NA"
"2017-12-08 22:00","2017","12","08","22:00","-11.0","","-16.2","","66","","2","","7","","","","98.79","","","","-15","","NA"
"2017-12-08 23:00","2017","12","08","23:00","-11.5","","-16.8","","65","","1","","11","","","","98.79","","","","-17","","NA"
"2017-12-09 00:00","2017","12","09","00:00","-12.1","","-17.2","","66","","4","","8","","","","98.81","","","","-17","","NA"
"2017-12-09 01:00","2017","12","09","01:00","-12.0","","-16.6","","69","","5","","10","","","","98.85","","","","-18","","NA"
"2017-12-09 02:00","2017","12","09","02:00","-11.4","","-15.8","","70","","7","","19","","","","98.83","","","","-19","","NA"
"2017-12-09 03:00","2017","12","09","03:00","-11.9","","-17.2","","65","","6","","17","","","","98.81","","","","-20","","NA"
"2017-12-09 04:00","2017","12","09","04:00","-12.0","","-16.4","","70","","6","","14","","","","98.80","","","","-19","","NA"
"2017-12-09 05:00","2017","12","09","05:00","-12.0","","-16.6","","69","","5","","12","","","","98.83","","","","-18","","NA"
"2017-12-09 06:00","2017","12","09","06:00","-11.1","","-14.4","","76","","6","","13","","","","98.77","","","","-18","","NA"
"2017-12-09 07:00","2017","12","09","07:00","-10.7","","-14.0","","77","","6","","14","","","","98.81","","","","-17","","NA"
"2017-12-09 08:00","2017","12","09","08:00","-10.4","","-13.5","","78","","6","","12","","","","98.83","","","","-16","","NA"
"2017-12-09 09:00","2017","12","09","09:00","-9.9","","-12.7","","80","","5","","11","","","","98.81","","","","-15","","NA"
"2017-12-09 10:00","2017","12","09","10:00","-8.6","","-11.2","","81","","2","","8","","","","98.81","","","","-13","","NA"
"2017-12-09 11:00","2017","12","09","11:00","-7.2","","-10.7","","76","","4","","7","","","","98.80","","","","-11","","NA"
"2017-12-09 12:00","2017","12","09","12:00","-6.1","","-10.8","","69","","3","","10","","","","98.72","","","","-11","","NA"
"2017-12-09 13:00","2017","12","09","13:00","-5.8","","-11.1","","66","","4","","9","","","","98.68","","","","-10","","NA"
"2017-12-09 14:00","2017","12","09","14:00","-5.7","","-11.1","","66","","6","","13","","","","98.62","","","","-11","","NA"
"2017-12-09 15:00","2017","12","09","15:00","-5.4","","-11.0","","64","","4","","8","","","","98.62","","","","-9","","NA"
"2017-12-09 16:00","2017","12","09","16:00","-5.4","","-10.6","","67","","5","","9","","","","98.66","","","","-9","","NA"
"2017-12-09 17:00","2017","12","09","17:00","-6.2","","-11.1","","68","","1","","7","","","","98.74","","","","-10","","NA"
"2017-12-09 18:00","2017","12","09","18:00","-6.5","","-11.1","","70","","36","","6","","","","98.75","","","","-9","","NA"
"2017-12-09 19:00","2017","12","09","19:00","-6.8","","-10.8","","73","","36","","6","","","","98.75","","","","-10","","NA"
"2017-12-09 20:00","2017","12","09","20:00","-6.7","","-10.8","","72","","33","","7","","","","98.76","","","","-10","","NA"
"2017-12-09 21:00","2017","12","09","21:00","-7.4","","-11.5","","72","","34","","9","","","","98.73","","","","-12","","NA"
"2017-12-09 22:00","2017","12","09","22:00","-7.8","","-12.2","","71","","1","","5","","","","98.70","","","","-10","","NA"
"2017-12-09 23:00","2017","12","09","23:00","-7.0","","-12.7","","64","","32","","6","","","","98.71","","","","-10","","NA"
"2017-12-10 00:00","2017","12","10","00:00","-7.2","","-10.6","","77","","33","","6","","","","98.66","","","","-10","","NA"
"2017-12-10 01:00","2017","12","10","01:00","-6.5","","-9.2","","81","","32","","11","","","","98.59","","","","-11","","NA"
"2017-12-10 02:00","2017","12","10","02:00","-7.5","","-10.8","","77","","32","","17","","","","98.59","","","","-14","","NA"
"2017-12-10 03:00","2017","12","10","03:00","-8.7","","-12.3","","75","","34","","9","","","","98.60","","","","-13","","NA"
"2017-12-10 04:00","2017","12","10","04:00","-9.1","","-12.7","","75","","32","","7","","","","98.58","","","","-13","","NA"
"2017-12-10 05:00","2017","12","10","05:00","-8.8","","-12.6","","74","","1","","7","","","","98.54","","","","-13","","NA"
"2017-12-10 06:00","2017","12","10","06:00","-8.4","","-12.8","","70","","34","","7","","","","98.50","","","","-12","","NA"
"2017-12-10 07:00","2017","12","10","07:00","-8.5","","-12.1","","75","","1","","5","","","","98.45","","","","-11","","NA"
"2017-12-10 08:00","2017","12","10","08:00","-7.5","","-10.8","","78","","34","","4","","","","98.42","","","","-10","","NA"
"2017-12-10 09:00","2017","12","10","09:00","-6.3","","-8.9","","81","","30","","5","","","","98.40","","","","-9","","NA"
"2017-12-10 10:00","2017","12","10","10:00","-6.1","","-9.0","","80","","1","","6","","","","98.39","","","","-9","","NA"
"2017-12-10 11:00","2017","12","10","11:00","-6.1","","-8.2","","85","","33","","12","","","","98.41","","","","-11","","NA"
"2017-12-10 12:00","2017","12","10","12:00","-6.5","","-8.7","","84","","33","","12","","","","98.39","","","","-12","","NA"
"2017-12-10 13:00","2017","12","10","13:00","-6.6","","-10.8","","72","","34","","13","","","","98.42","","","","-12","","NA"
"2017-12-10 14:00","2017","12","10","14:00","-6.1","","-11.6","","65","","35","","11","","","","98.44","","","","-11","","NA"
"2017-12-10 15:00","2017","12","10","15:00","-6.1","","-12.9","","59","","36","","16","","","","98.50","","","","-12","","NA"
"2017-12-10 16:00","2017","12","10","16:00","-7.4","","-13.8","","60","","36","","15","","","","98.65","","","","-14","","NA"
"2017-12-10 17:00","2017","12","10","17:00","-9.1","","-15.6","","59","","36","","16","","","","98.76","","","","-16","","NA"
"2017-12-10 18:00","2017","12","10","18:00","-10.6","","-17.2","","58","","1","","14","","","","98.88","","","","-17","","NA"
"2017-12-10 19:00","2017","12","10","19:00","-11.6","","-17.9","","59","","1","","13","","","","99.00","","","","-18","","NA"
"2017-12-10 20:00","2017","12","10","20:00","-12.7","","-18.8","","60","","1","","4","","","","99.09","","","","-15","","NA"
"2017-12-10 21:00","2017","12","10","21:00","-13.6","","-19.6","","60","","35","","12","","","","99.19","","","","-20","","NA"
"2017-12-10 22:00","2017","12","10","22:00","-14.5","","-20.3","","61","","36","","16","","","","99.21","","","","-23","","NA"
"2017-12-10 23:00","2017","12","10","23:00","-15.5","","-20.3","","67","","35","","11","","","","99.24","","","","-22","","NA"
"2017-12-11 00:00","2017","12","11","00:00","-16.1","","-20.6","","68","","35","","13","","","","99.35","","","","-24","","NA"
"2017-12-11 01:00","2017","12","11","01:00","-16.9","","-20.8","","72","","36","","9","","","","99.38","","","","-23","","NA"
"2017-12-11 02:00","2017","12","11","02:00","-17.5","","-20.9","","75","","36","","9","","","","99.43","","","","-24","","NA"
"2017-12-11 03:00","2017","12","11","03:00","-17.9","","-21.5","","74","","34","","3","","","","99.49","","","","-20","","NA"
"2017-12-11 04:00","2017","12","11","04:00","-18.6","","-22.2","","73","","3","","7","","","","99.47","","","","-24","","NA"
"2017-12-11 05:00","2017","12","11","05:00","-18.8","","-22.3","","74","","3","","5","","","","99.47","","","","-23","","NA"
"2017-12-11 06:00","2017","12","11","06:00","-19.0","","-22.5","","74","","2","","9","","","","99.45","","","","-26","","NA"
"2017-12-11 07:00","2017","12","11","07:00","-18.8","","-22.1","","75","","5","","7","","","","99.51","","","","-24","","NA"
"2017-12-11 08:00","2017","12","11","08:00","-18.3","","-21.5","","76","","5","","7","","","","99.48","","","","-24","","NA"
"2017-12-11 09:00","2017","12","11","09:00","-17.6","","-20.7","","77","","4","","9","","","","99.50","","","","-24","","NA"
"2017-12-11 10:00","2017","12","11","10:00","-16.9","","-20.7","","72","","6","","12","","","","99.52","","","","-24","","NA"
"2017-12-11 11:00","2017","12","11","11:00","-15.9","","-18.8","","78","","9","","14","","","","99.43","","","","-24","","NA"
"2017-12-11 12:00","2017","12","11","12:00","-14.3","","-17.0","","80","","8","","11","","","","99.31","","","","-21","","NA"
"2017-12-11 13:00","2017","12","11","13:00","-13.0","","-16.1","","77","","8","","13","","","","99.19","","","","-20","","NA"
"2017-12-11 14:00","2017","12","11","14:00","-12.3","","-15.4","","77","","7","","18","","","","99.09","","","","-20","","NA"
"2017-12-11 15:00","2017","12","11","15:00","-11.9","","-14.9","","78","","6","","15","","","","98.95","","","","-19","","NA"
"2017-12-11 16:00","2017","12","11","16:00","-11.5","","-13.7","","84","","7","","17","","","","98.85","","","","-19","","NA"
"2017-12-11 17:00","2017","12","11","17:00","-11.1","","-13.1","","85","","9","","28","","","","98.77","","","","-21","","NA"
"2017-12-11 18:00","2017","12","11","18:00","-10.7","","-12.4","","87","","8","","28","","","","98.70","","","","-20","","NA"
"2017-12-11 19:00","2017","12","11","19:00","-10.9","","-12.6","","87","","8","","30","","","","98.62","","","","-21","","NA"
"2017-12-11 20:00","2017","12","11","20:00","-11.3","","-13.0","","87","","7","","25","","","","98.55","","","","-20","","NA"
"2017-12-11 21:00","2017","12","11","21:00","-11.1","","-12.9","","87","","6","","19","","","","98.44","","","","-19","","NA"
"2017-12-11 22:00","2017","12","11","22:00","-11.1","","-12.9","","87","","6","","19","","","","98.34","","","","-19","","NA"
"2017-12-11 23:00","2017","12","11","23:00","-10.2","","-11.9","","87","","7","","25","","","","98.19","","","","-19","","NA"
"2017-12-12 00:00","2017","12","12","00:00","-9.6","","-11.2","","88","","6","","24","","","","98.06","","","","-18","","NA"
"2017-12-12 01:00","2017","12","12","01:00","-9.0","","-10.6","","88","","6","","20","","","","97.95","","","","-17","","NA"
"2017-12-12 02:00","2017","12","12","02:00","-8.8","","-10.3","","89","","5","","16","","","","97.88","","","","-16","","NA"
"2017-12-12 03:00","2017","12","12","03:00","-8.4","","-9.9","","89","","1","","9","","","","97.86","","","","-13","","NA"
"2017-12-12 04:00","2017","12","12","04:00","-9.8","","-11.5","","87","","36","","18","","","","97.87","","","","-17","","NA"
"2017-12-12 05:00","2017","12","12","05:00","-10.6","","-12.5","","86","","35","","16","","","","97.91","","","","-18","","NA"
"2017-12-12 06:00","2017","12","12","06:00","-11.5","","-13.8","","83","","35","","20","","","","97.95","","","","-20","","NA"
"2017-12-12 07:00","2017","12","12","07:00","-12.3","","-15.2","","79","","35","","20","","","","98.04","","","","-21","","NA"
"2017-12-12 08:00","2017","12","12","08:00","-12.5","","-15.8","","76","","35","","24","","","","98.09","","","","-22","","NA"
"2017-12-12 09:00","2017","12","12","09:00","-13.0","","-16.5","","75","","36","","22","","","","98.17","","","","-22","","NA"
"2017-12-12 10:00","2017","12","12","10:00","-14.0","","-17.8","","73","","35","","22","","","","98.22","","","","-23","","NA"
"2017-12-12 11:00","2017","12","12","11:00","-14.5","","-18.9","","69","","35","","19","","","","98.25","","","","-23","","NA"
"2017-12-12 12:00","2017","12","12","12:00","-14.6","","-19.2","","68","","35","","21","","","","98.25","","","","-24","","NA"
"2017-12-12 13:00","2017","12","12","13:00","-14.0","","-19.4","","63","","35","","16","","","","98.27","","","","-22","","NA"
"2017-12-12 14:00","2017","12","12","14:00","-14.0","","-19.5","","63","","35","","21","","","","98.31","","","","-23","","NA"
"2017-12-12 15:00","2017","12","12","15:00","-15.2","","-20.0","","67","","35","","20","","","","98.40","","","","-24","","NA"
"2017-12-12 16:00","2017","12","12","16:00","-15.5","","-18.7","","77","","34","","13","","","","98.41","","","","-23","","NA"
"2017-12-12 17:00","2017","12","12","17:00","-15.4","","-18.9","","75","","34","","21","","","","98.50","","","","-25","","NA"
"2017-12-12 18:00","2017","12","12","18:00","-15.4","","-18.8","","75","","34","","19","","","","98.56","","","","-24","","NA"
"2017-12-12 19:00","2017","12","12","19:00","-15.7","","-19.9","","70","","34","","20","","","","98.61","","","","-25","","NA"
"2017-12-12 20:00","2017","12","12","20:00","-16.6","","-20.7","","70","","35","","18","","","","98.66","","","","-26","","NA"
"2017-12-12 21:00","2017","12","12","21:00","-17.3","","-21.4","","71","","34","","9","","","","98.69","","","","-24","","NA"
"2017-12-12 22:00","2017","12","12","22:00","-18.0","","-22.0","","71","","33","","12","","","","98.70","","","","-26","","NA"
"2017-12-12 23:00","2017","12","12","23:00","-18.3","","-21.6","","76","","31","","10","","","","98.67","","","","-25","","NA"
"2017-12-13 00:00","2017","12","13","00:00","-19.1","","-23.3","","69","","33","","11","","","","98.65","","","","-27","","NA"
"2017-12-13 01:00","2017","12","13","01:00","-19.3","","-23.2","","71","","35","","12","","","","98.61","","","","-27","","NA"
"2017-12-13 02:00","2017","12","13","02:00","-19.5","","-23.3","","72","","34","","11","","","","98.62","","","","-27","","NA"
"2017-12-13 03:00","2017","12","13","03:00","-19.4","","-22.5","","76","","27","","4","","","","98.63","","","","-23","","NA"
"2017-12-13 04:00","2017","12","13","04:00","-19.8","","-23.3","","74","","34","","13","","","","98.63","","","","-28","","NA"
"2017-12-13 05:00","2017","12","13","05:00","-19.4","","-22.1","","79","","31","","8","","","","98.65","","","","-26","","NA"
"2017-12-13 06:00","2017","12","13","06:00","-20.1","","-23.3","","76","","33","","12","","","","98.64","","","","-28","","NA"
"2017-12-13 07:00","2017","12","13","07:00","-19.9","","-22.6","","79","","30","","8","","","","98.64","","","","-26","","NA"
"2017-12-13 08:00","2017","12","13","08:00","-19.9","","-23.2","","75","","31","","5","","","","98.64","","","","-24","","NA"
"2017-12-13 09:00","2017","12","13","09:00","-19.0","","-23.0","","70","","1","","5","","","","98.61","","","","-23","","NA"
"2017-12-13 10:00","2017","12","13","10:00","-17.2","","-22.7","","62","","4","","5","","","","98.58","","","","-21","","NA"
"2017-12-13 11:00","2017","12","13","11:00","-15.4","","-21.7","","58","","2","","3","","","","98.55","","","","-18","","NA"
"2017-12-13 12:00","2017","12","13","12:00","-13.8","","-19.8","","60","","22","","3","","","","98.44","","","","-16","","NA"
"2017-12-13 13:00","2017","12","13","13:00","-13.4","","-19.2","","62","","27","","8","","","","98.39","","","","-18","","NA"
"2017-12-13 14:00","2017","12","13","14:00","-12.1","","-18.9","","57","","32","","6","","","","98.30","","","","-16","","NA"
"2017-12-13 15:00","2017","12","13","15:00","-10.7","","-18.5","","53","","8","","2","","","","98.27","","","","-12","","NA"
"2017-12-13 16:00","2017","12","13","16:00","-12.4","","-19.4","","56","","36","","6","","","","98.24","","","","-16","","NA"
"2017-12-13 17:00","2017","12","13","17:00","-14.2","","-19.1","","66","","2","","10","","","","98.22","","","","-20","","NA"
"2017-12-13 18:00","2017","12","13","18:00","-15.0","","-19.8","","67","","3","","8","","","","98.23","","","","-20","","NA"
"2017-12-13 19:00","2017","12","13","19:00","-15.3","","-20.0","","67","","2","","5","","","","98.26","","","","-19","","NA"
"2017-12-13 20:00","2017","12","13","20:00","-15.7","","-19.9","","70","","1","","14","","","","98.29","","","","-23","","NA"
"2017-12-13 21:00","2017","12","13","21:00","-16.5","","-20.8","","69","","1","","8","","","","98.32","","","","-22","","NA"
"2017-12-13 22:00","2017","12","13","22:00","-17.4","","-21.5","","70","","6","","6","","","","98.36","","","","-22","","NA"
"2017-12-13 23:00","2017","12","13","23:00","-18.0","","-22.1","","70","","2","","7","","","","98.38","","","","-23","","NA"
"2017-12-14 00:00","2017","12","14","00:00","-19.2","","-23.4","","70","","1","","14","","","","98.41","","","","-28","","NA"
"2017-12-14 01:00","2017","12","14","01:00","-19.9","","-23.9","","71","","36","","18","","","","98.44","","","","-30","","NA"
"2017-12-14 02:00","2017","12","14","02:00","-20.6","","-24.2","","73","","36","","12","","","","98.48","","","","-29","","NA"
"2017-12-14 03:00","2017","12","14","03:00","-21.3","","-24.7","","74","","34","","10","","","","98.57","","","","-29","","NA"
"2017-12-14 04:00","2017","12","14","04:00","-21.6","","-25.4","","72","","1","","4","","","","98.65","","","","-25","","NA"
"2017-12-14 05:00","2017","12","14","05:00","-21.5","","-25.0","","74","","32","","7","","","","98.69","","","","-27","","NA"
"2017-12-14 06:00","2017","12","14","06:00","-22.0","","-25.9","","71","","34","","9","","","","98.79","","","","-29","","NA"
"2017-12-14 07:00","2017","12","14","07:00","-22.1","","-26.1","","70","","34","","14","","","","98.86","","","","-31","","NA"
"2017-12-14 08:00","2017","12","14","08:00","-22.1","","-25.5","","74","","32","","10","","","","98.92","","","","-30","","NA"
"2017-12-14 09:00","2017","12","14","09:00","-21.9","","-25.9","","70","","31","","11","","","","99.00","","","","-30","","NA"
"2017-12-14 10:00","2017","12","14","10:00","-21.4","","-25.9","","67","","33","","10","","","","99.06","","","","-29","","NA"
"2017-12-14 11:00","2017","12","14","11:00","-20.2","","-25.0","","66","","32","","14","","","","99.12","","","","-29","","NA"
"2017-12-14 12:00","2017","12","14","12:00","-19.8","","-24.7","","65","","30","","16","","","","99.10","","","","-29","","NA"
"2017-12-14 13:00","2017","12","14","13:00","-17.7","","-22.9","","64","","30","","10","","","","99.12","","","","-24","","NA"
"2017-12-14 14:00","2017","12","14","14:00","-16.4","","-23.3","","55","","33","","11","","","","99.07","","","","-23","","NA"
"2017-12-14 15:00","2017","12","14","15:00","-14.7","","-20.8","","60","","31","","12","","","","99.09","","","","-22","","NA"
"2017-12-14 16:00","2017","12","14","16:00","-13.4","","-19.3","","61","","1","","5","","","","99.10","","","","-17","","NA"
"2017-12-14 17:00","2017","12","14","17:00","-13.4","","-18.7","","64","","33","","12","","","","99.11","","","","-20","","NA"
"2017-12-14 18:00","2017","12","14","18:00","-13.2","","-18.8","","63","","32","","11","","","","99.13","","","","-19","","NA"
"2017-12-14 19:00","2017","12","14","19:00","-12.1","","-18.3","","60","","31","","8","","","","99.17","","","","-17","","NA"
"2017-12-14 20:00","2017","12","14","20:00","-12.5","","-18.3","","62","","1","","14","","","","99.13","","","","-20","","NA"
"2017-12-14 21:00","2017","12","14","21:00","-11.0","","-16.1","","66","","34","","10","","","","99.10","","","","-16","","NA"
"2017-12-14 22:00","2017","12","14","22:00","-10.5","","-15.0","","69","","31","","13","","","","99.09","","","","-17","","NA"
"2017-12-14 23:00","2017","12","14","23:00","-10.5","","-14.8","","71","","32","","7","","","","99.07","","","","-15","","NA"
"2017-12-15 00:00","2017","12","15","00:00","-9.7","","-13.9","","71","","33","","6","","","","99.05","","","","-13","","NA"
"2017-12-15 01:00","2017","12","15","01:00","-10.9","","-14.8","","73","","3","","10","","","","99.01","","","","-16","","NA"
"2017-12-15 02:00","2017","12","15","02:00","-9.9","","-13.6","","74","","2","","8","","","","99.00","","","","-14","","NA"
"2017-12-15 03:00","2017","12","15","03:00","-10.0","","-13.3","","77","","1","","9","","","","98.99","","","","-15","","NA"
"2017-12-15 04:00","2017","12","15","04:00","-8.7","","-11.3","","82","","8","","10","","","","98.90","","","","-14","","NA"
"2017-12-15 05:00","2017","12","15","05:00","-10.4","","-13.2","","80","","4","","11","","","","98.84","","","","-16","","NA"
"2017-12-15 06:00","2017","12","15","06:00","-10.2","","-11.9","","87","","7","","14","","","","98.81","","","","-17","","NA"
"2017-12-15 07:00","2017","12","15","07:00","-11.7","","-14.3","","80","","6","","10","","","","98.80","","","","-17","","NA"
"2017-12-15 08:00","2017","12","15","08:00","-10.7","","-12.4","","87","","8","","23","","","","98.73","","","","-19","","NA"
"2017-12-15 09:00","2017","12","15","09:00","-10.5","","-12.8","","83","","8","","21","","","","98.67","","","","-19","","NA"
"2017-12-15 10:00","2017","12","15","10:00","-10.6","","-13.7","","78","","7","","20","","","","98.58","","","","-19","","NA"
"2017-12-15 11:00","2017","12","15","11:00","-8.5","","-10.8","","83","","8","","23","","","","98.48","","","","-17","","NA"
"2017-12-15 12:00","2017","12","15","12:00","-7.1","","-9.3","","85","","7","","20","","","","98.34","","","","-14","","NA"
"2017-12-15 13:00","2017","12","15","13:00","-6.7","","-8.4","","88","","8","","21","","","","98.21","","","","-14","","NA"
"2017-12-15 14:00","2017","12","15","14:00","-6.1","","-8.2","","85","","7","","20","","","","98.08","","","","-13","","NA"
"2017-12-15 15:00","2017","12","15","15:00","-5.8","","-7.7","","87","","7","","17","","","","98.01","","","","-12","","NA"
"2017-12-15 16:00","2017","12","15","16:00","-6.4","","-7.7","","90","","6","","14","","","","98.00","","","","-12","","NA"
"2017-12-15 17:00","2017","12","15","17:00","-6.8","","-8.2","","90","","3","","4","","","","98.03","","","","-9","","NA"
"2017-12-15 18:00","2017","12","15","18:00","-6.6","","-7.8","","91","","32","","9","","","","98.06","","","","-11","","NA"
"2017-12-15 19:00","2017","12","15","19:00","-7.6","","-8.9","","90","","30","","8","","","","98.10","","","","-12","","NA"
"2017-12-15 20:00","2017","12","15","20:00","-8.7","","-10.2","","89","","33","","10","","","","98.16","","","","-14","","NA"
"2017-12-15 21:00","2017","12","15","21:00","-8.8","","-10.4","","88","","32","","10","","","","98.18","","","","-14","","NA"
"2017-12-15 22:00","2017","12","15","22:00","-7.6","","-9.6","","85","","31","","16","","","","98.30","","","","-14","","NA"
"2017-12-15 23:00","2017","12","15","23:00","-8.8","","-12.0","","78","","33","","14","","","","98.37","","","","-15","","NA"
"2017-12-16 00:00","2017","12","16","00:00","-9.7","","-13.7","","72","","30","","13","","","","98.48","","","","-16","","NA"
"2017-12-16 01:00","2017","12","16","01:00","-10.8","","-14.7","","73","","31","","17","","","","98.57","","","","-18","","NA"
"2017-12-16 02:00","2017","12","16","02:00","-12.5","","-16.7","","71","","32","","21","","","","98.65","","","","-21","","NA"
"2017-12-16 03:00","2017","12","16","03:00","-13.8","","-17.2","","76","","34","","19","","","","98.75","","","","-22","","NA"
"2017-12-16 04:00","2017","12","16","04:00","-14.8","","-18.8","","72","","32","","11","","","","98.84","","","","-21","","NA"
"2017-12-16 05:00","2017","12","16","05:00","-16.0","","-19.2","","76","","31","","7","","","","98.94","","","","-21","","NA"
"2017-12-16 06:00","2017","12","16","06:00","-16.9","","-20.2","","75","","31","","14","","","","99.09","","","","-25","","NA"
"2017-12-16 07:00","2017","12","16","07:00","-17.9","","-22.0","","70","","1","","6","","","","99.20","","","","-23","","NA"
"2017-12-16 08:00","2017","12","16","08:00","-18.7","","-23.3","","67","","1","","12","","","","99.29","","","","-26","","NA"
"2017-12-16 09:00","2017","12","16","09:00","-18.7","","-24.3","","62","","1","","14","","","","99.42","","","","-27","","NA"
"2017-12-16 10:00","2017","12","16","10:00","-18.1","","-24.3","","58","","1","","13","","","","99.53","","","","-26","","NA"
"2017-12-16 11:00","2017","12","16","11:00","-16.8","","-22.7","","61","","32","","9","","","","99.58","","","","-23","","NA"
"2017-12-16 12:00","2017","12","16","12:00","-16.5","","-22.6","","59","","33","","15","","","","99.61","","","","-25","","NA"
"2017-12-16 13:00","2017","12","16","13:00","-15.7","","-23.4","","52","","36","","10","","","","99.60","","","","-22","","NA"
"2017-12-16 14:00","2017","12","16","14:00","-15.1","","-22.5","","53","","32","","11","","","","99.67","","","","-22","","NA"
"2017-12-16 15:00","2017","12","16","15:00","-14.7","","-22.5","","51","","35","","12","","","","99.74","","","","-22","","NA"
"2017-12-16 16:00","2017","12","16","16:00","-15.3","","-23.1","","51","","1","","9","","","","99.80","","","","-21","","NA"
"2017-12-16 17:00","2017","12","16","17:00","-16.4","","-23.0","","57","","36","","6","","","","99.93","","","","-21","","NA"
"2017-12-16 18:00","2017","12","16","18:00","-16.9","","-22.8","","60","","1","","7","","","","100.04","","","","-22","","NA"
"2017-12-16 19:00","2017","12","16","19:00","-17.5","","-22.9","","63","","3","","7","","","","100.10","","","","-23","","NA"
"2017-12-16 20:00","2017","12","16","20:00","-17.8","","-22.9","","65","","2","","8","","","","100.19","","","","-24","","NA"
"2017-12-16 21:00","2017","12","16","21:00","-17.9","","-22.8","","65","","4","","5","","","","100.31","","","","-22","","NA"
"2017-12-16 22:00","2017","12","16","22:00","-17.8","","-22.5","","66","","1","","7","","","","100.32","","","","-23","","NA"
"2017-12-16 23:00","2017","12","16","23:00","-18.2","","-22.5","","69","","3","","5","","","","100.37","","","","-22","","NA"
"2017-12-17 00:00","2017","12","17","00:00","-18.5","","-22.6","","70","","3","","7","","","","100.38","","","","-24","","NA"
"2017-12-17 01:00","2017","12","17","01:00","-18.2","","-22.5","","69","","4","","10","","","","100.38","","","","-25","","NA"
"2017-12-17 02:00","2017","12","17","02:00","-18.5","","-22.8","","69","","4","","10","","","","100.40","","","","-25","","NA"
"2017-12-17 03:00","2017","12","17","03:00","-18.7","","-22.8","","70","","5","","11","","","","100.50","","","","-26","","NA"
"2017-12-17 04:00","2017","12","17","04:00","-18.9","","-23.2","","69","","5","","12","","","","100.47","","","","-27","","NA"
"2017-12-17 05:00","2017","12","17","05:00","-18.7","","-22.4","","72","","5","","12","","","","100.40","","","","-26","","NA"
"2017-12-17 06:00","2017","12","17","06:00","-19.1","","-22.3","","76","","5","","12","","","","100.40","","","","-27","","NA"
"2017-12-17 07:00","2017","12","17","07:00","-19.2","","-22.0","","79","","5","","11","","","","100.49","","","","-27","","NA"
"2017-12-17 08:00","2017","12","17","08:00","-19.6","","-22.3","","79","","5","","12","","","","100.47","","","","-28","","NA"
"2017-12-17 09:00","2017","12","17","09:00","-19.2","","-21.9","","79","","5","","10","","","","100.48","","","","-26","","NA"
"2017-12-17 10:00","2017","12","17","10:00","-17.0","","-20.4","","75","","5","","10","","","","100.46","","","","-24","","NA"
"2017-12-17 11:00","2017","12","17","11:00","-14.5","","-18.5","","72","","7","","15","","","","100.43","","","","-22","","NA"
"2017-12-17 12:00","2017","12","17","12:00","-13.3","","-18.1","","67","","8","","13","","","","100.35","","","","-20","","NA"
"2017-12-17 13:00","2017","12","17","13:00","-12.1","","-16.7","","68","","9","","13","","","","100.19","","","","-19","","NA"
"2017-12-17 14:00","2017","12","17","14:00","-11.3","","-15.8","","69","","13","","10","","","","100.15","","","","-17","","NA"
"2017-12-17 15:00","2017","12","17","15:00","-10.7","","-14.2","","75","","12","","13","","","","100.10","","","","-17","","NA"
"2017-12-17 16:00","2017","12","17","16:00","-10.9","","-14.8","","73","","11","","19","","","","100.03","","","","-19","","NA"
"2017-12-17 17:00","2017","12","17","17:00","-11.4","","-15.8","","70","","8","","15","","","","100.00","","","","-18","","NA"
"2017-12-17 18:00","2017","12","17","18:00","-11.9","","-16.1","","71","","8","","18","","","","99.93","","","","-20","","NA"
"2017-12-17 19:00","2017","12","17","19:00","-11.5","","-16.0","","69","","8","","19","","","","99.89","","","","-20","","NA"
"2017-12-17 20:00","2017","12","17","20:00","-11.5","","-14.8","","76","","8","","14","","","","99.87","","","","-18","","NA"
"2017-12-17 21:00","2017","12","17","21:00","-12.2","","-15.8","","74","","6","","12","","","","99.71","","","","-19","","NA"
"2017-12-17 22:00","2017","12","17","22:00","-12.0","","-15.4","","76","","6","","12","","","","99.68","","","","-18","","NA"
"2017-12-17 23:00","2017","12","17","23:00","-11.5","","-14.7","","77","","5","","12","","","","99.66","","","","-18","","NA"
"2017-12-18 00:00","2017","12","18","00:00","-10.2","","-13.2","","79","","7","","12","","","","99.54","","","","-16","","NA"
"2017-12-18 01:00","2017","12","18","01:00","-8.6","","-13.3","","69","","8","","17","","","","99.43","","","","-15","","NA"
"2017-12-18 02:00","2017","12","18","02:00","-9.0","","-14.6","","64","","7","","14","","","","99.33","","","","-15","","NA"
"2017-12-18 03:00","2017","12","18","03:00","-9.5","","-12.4","","79","","8","","19","","","","99.28","","","","-17","","NA"
"2017-12-18 04:00","2017","12","18","04:00","-9.1","","-11.2","","85","","7","","15","","","","99.18","","","","-16","","NA"
"2017-12-18 05:00","2017","12","18","05:00","-9.1","","-11.1","","85","","7","","14","","","","99.12","","","","-15","","NA"
"2017-12-18 06:00","2017","12","18","06:00","-7.9","","-9.5","","88","","8","","18","","","","99.05","","","","-15","","NA"
"2017-12-18 07:00","2017","12","18","07:00","-8.1","","-9.8","","87","","8","","17","","","","99.02","","","","-15","","NA"
"2017-12-18 08:00","2017","12","18","08:00","-7.8","","-9.3","","89","","8","","17","","","","98.95","","","","-14","","NA"
"2017-12-18 09:00","2017","12","18","09:00","-8.0","","-9.7","","87","","6","","15","","","","98.96","","","","-14","","NA"
"2017-12-18 10:00","2017","12","18","10:00","-7.0","","-8.7","","88","","6","","14","","","","98.91","","","","-13","","NA"
"2017-12-18 11:00","2017","12","18","11:00","-6.1","","-7.2","","92","","8","","17","","","","98.81","","","","-12","","NA"
"2017-12-18 12:00","2017","12","18","12:00","-5.7","","-6.8","","92","","7","","7","","","","98.74","","","","-9","","NA"
"2017-12-18 13:00","2017","12","18","13:00","-5.3","","-6.4","","92","","5","","6","","","","98.65","","","","-8","","NA"
"2017-12-18 14:00","2017","12","18","14:00","-4.2","","-5.4","","92","","6","","5","","","","98.56","","","","-6","","NA"
"2017-12-18 15:00","2017","12","18","15:00","-3.4","","-4.7","","91","","2","","2","","","","98.54","","","","-4","","NA"
"2017-12-18 16:00","2017","12","18","16:00","-3.1","","-4.4","","91","","33","","4","","","","98.53","","","","-5","","NA"
"2017-12-18 17:00","2017","12","18","17:00","-2.8","","-3.9","","92","","9","","5","","","","98.49","","","","-5","","NA"
"2017-12-18 18:00","2017","12","18","18:00","-2.2","","-3.2","","93","","15","","7","","","","98.52","","","","-5","","NA"
"2017-12-18 19:00","2017","12","18","19:00","-2.7","","-3.8","","92","","4","","7","","","","98.49","","","","-6","","NA"
"2017-12-18 20:00","2017","12","18","20:00","-2.4","","-3.4","","93","","7","","9","","","","98.39","","","","-6","","NA"
"2017-12-18 21:00","2017","12","18","21:00","-2.2","","-3.2","","93","","8","","7","","","","98.36","","","","-5","","NA"
"2017-12-18 22:00","2017","12","18","22:00","-2.2","","-3.1","","93","","6","","3","","","","98.27","","","","-3","","NA"
"2017-12-18 23:00","2017","12","18","23:00","-1.1","","-1.9","","94","","10","","5","","","","98.15","","","","-3","","NA"
"2017-12-19 00:00","2017","12","19","00:00","0.9","","-0.3","","92","","25","","12","","","","98.13","","","","","","NA"
"2017-12-19 01:00","2017","12","19","01:00","1.6","","-0.2","","87","","24","","19","","","","98.00","","","","","","NA"
"2017-12-19 02:00","2017","12","19","02:00","1.1","","-0.1","","92","","24","","19","","","","97.93","","","","","","NA"
"2017-12-19 03:00","2017","12","19","03:00","0.9","","-0.2","","93","","24","","20","","","","97.87","","","","","","NA"
"2017-12-19 04:00","2017","12","19","04:00","1.6","","0.1","","90","","24","","19","","","","97.76","","","","","","NA"
"2017-12-19 05:00","2017","12","19","05:00","2.5","","0.6","","87","","25","","23","","","","97.69","","","","","","NA"
"2017-12-19 06:00","2017","12","19","06:00","2.9","","0.7","","86","","27","","28","","","","97.70","","","","","","NA"
"2017-12-19 07:00","2017","12","19","07:00","2.7","","-0.2","","81","","27","","26","","","","97.70","","","","","","NA"
"2017-12-19 08:00","2017","12","19","08:00","2.6","","-0.7","","79","","28","","30","","","","97.73","","","","","","NA"
"2017-12-19 09:00","2017","12","19","09:00","2.6","","-0.7","","79","","27","","26","","","","97.73","","","","","","NA"
"2017-12-19 10:00","2017","12","19","10:00","2.7","","-0.8","","78","","26","","25","","","","97.80","","","","","","NA"
"2017-12-19 11:00","2017","12","19","11:00","2.7","","-0.5","","80","","28","","42","","","","97.80","","","","","","NA"
"2017-12-19 12:00","2017","12","19","12:00","2.7","","-1.0","","77","","29","","37","","","","97.80","","","","","","NA"
"2017-12-19 13:00","2017","12","19","13:00","3.2","","-0.8","","75","","28","","35","","","","97.81","","","","","","NA"
"2017-12-19 14:00","2017","12","19","14:00","3.3","","-1.6","","70","","28","","40","","","","97.80","","","","","","NA"
"2017-12-19 15:00","2017","12","19","15:00","4.0","","-2.5","","62","","28","","30","","","","97.80","","","","","","NA"
"2017-12-19 16:00","2017","12","19","16:00","0.9","","-2.0","","81","","30","","31","","","","97.88","","","","","","NA"
"2017-12-19 17:00","2017","12","19","17:00","1.6","","-2.4","","75","","28","","41","","","","97.93","","","","","","NA"
"2017-12-19 18:00","2017","12","19","18:00","1.1","","-2.6","","76","","27","","33","","","","98.01","","","","","","NA"
"2017-12-19 19:00","2017","12","19","19:00","0.5","","-4.2","","71","","29","","48","","","","98.09","","","","","","NA"
"2017-12-19 20:00","2017","12","19","20:00","0.7","","-4.5","","68","","29","","38","","","","98.12","","","","","","NA"
"2017-12-19 21:00","2017","12","19","21:00","0.4","","-5.3","","66","","29","","33","","","","98.16","","","","","","NA"
"2017-12-19 22:00","2017","12","19","22:00","0.0","","-4.9","","69","","29","","39","","","","98.23","","","","-7","","NA"
"2017-12-19 23:00","2017","12","19","23:00","-0.5","","-4.6","","74","","29","","33","","","","98.34","","","","-7","","NA"
"2017-12-20 00:00","2017","12","20","00:00","-1.4","","-7.0","","65","","31","","22","","","","98.42","","","","-7","","NA"
"2017-12-20 01:00","2017","12","20","01:00","-1.9","","-8.4","","61","","31","","27","","","","98.50","","","","-9","","NA"
"2017-12-20 02:00","2017","12","20","02:00","-2.3","","-7.2","","69","","30","","22","","","","98.64","","","","-8","","NA"
"2017-12-20 03:00","2017","12","20","03:00","-3.0","","-9.2","","63","","31","","31","","","","98.78","","","","-11","","NA"
"2017-12-20 04:00","2017","12","20","04:00","-4.0","","-11.7","","55","","32","","27","","","","98.89","","","","-11","","NA"
"2017-12-20 05:00","2017","12","20","05:00","-5.3","","-13.0","","55","","30","","32","","","","99.00","","","","-14","","NA"
"2017-12-20 06:00","2017","12","20","06:00","-6.5","","-13.5","","57","","31","","29","","","","99.09","","","","-15","","NA"
"2017-12-20 07:00","2017","12","20","07:00","-7.1","","-13.3","","61","","31","","15","","","","99.24","","","","-13","","NA"
"2017-12-20 08:00","2017","12","20","08:00","-7.7","","-13.4","","64","","33","","10","","","","99.30","","","","-13","","NA"
"2017-12-20 09:00","2017","12","20","09:00","-7.7","","-13.9","","61","","30","","19","","","","99.40","","","","-15","","NA"
"2017-12-20 10:00","2017","12","20","10:00","-7.9","","-14.0","","62","","33","","17","","","","99.50","","","","-15","","NA"
"2017-12-20 11:00","2017","12","20","11:00","-7.6","","-14.2","","59","","33","","16","","","","99.53","","","","-14","","NA"
"2017-12-20 12:00","2017","12","20","12:00","-6.7","","-13.5","","59","","33","","12","","","","99.50","","","","-12","","NA"
"2017-12-20 13:00","2017","12","20","13:00","-6.6","","-14.0","","56","","30","","18","","","","99.46","","","","-13","","NA"
"2017-12-20 14:00","2017","12","20","14:00","-5.4","","-13.9","","51","","31","","14","","","","99.48","","","","-11","","NA"
"2017-12-20 15:00","2017","12","20","15:00","-5.3","","-14.1","","50","","32","","14","","","","99.49","","","","-11","","NA"
"2017-12-20 16:00","2017","12","20","16:00","-5.2","","-13.9","","50","","33","","10","","","","99.57","","","","-10","","NA"
"2017-12-20 17:00","2017","12","20","17:00","-6.2","","-13.7","","56","","33","","9","","","","99.67","","","","-10","","NA"
"2017-12-20 18:00","2017","12","20","18:00","-6.9","","-13.7","","59","","32","","7","","","","99.75","","","","-10","","NA"
"2017-12-20 19:00","2017","12","20","19:00","-8.4","","-14.1","","64","","3","","9","","","","99.78","","","","-13","","NA"
"2017-12-20 20:00","2017","12","20","20:00","-9.8","","-14.1","","70","","3","","6","","","","99.83","","","","-13","","NA"
"2017-12-20 21:00","2017","12","20","21:00","-10.8","","-14.9","","72","","2","","16","","","","99.78","","","","-18","","NA"
"2017-12-20 22:00","2017","12","20","22:00","-11.4","","-15.4","","72","","1","","8","","","","99.88","","","","-16","","NA"
"2017-12-20 23:00","2017","12","20","23:00","-11.4","","-15.3","","73","","1","","5","","","","99.92","","","","-15","","NA"
"2017-12-21 00:00","2017","12","21","00:00","-11.8","","-15.5","","74","","1","","5","","","","100.02","","","","-15","","NA"
"2017-12-21 01:00","2017","12","21","01:00","-12.0","","-16.0","","72","","3","","6","","","","100.07","","","","-16","","NA"
"2017-12-21 02:00","2017","12","21","02:00","-12.0","","-15.9","","73","","2","","7","","","","100.06","","","","-16","","NA"
"2017-12-21 03:00","2017","12","21","03:00","-12.1","","-15.8","","74","","2","","5","","","","100.08","","","","-15","","NA"
"2017-12-21 04:00","2017","12","21","04:00","-12.1","","-16.1","","72","","4","","8","","","","100.09","","","","-17","","NA"
"2017-12-21 05:00","2017","12","21","05:00","-12.5","","-16.3","","73","","5","","9","","","","100.12","","","","-18","","NA"
"2017-12-21 06:00","2017","12","21","06:00","-13.0","","-16.9","","72","","5","","10","","","","100.14","","","","-19","","NA"
"2017-12-21 07:00","2017","12","21","07:00","-13.1","","-17.2","","71","","5","","11","","","","100.23","","","","-19","","NA"
"2017-12-21 08:00","2017","12","21","08:00","-13.1","","-17.4","","70","","5","","12","","","","100.22","","","","-20","","NA"
"2017-12-21 09:00","2017","12","21","09:00","-12.3","","-15.9","","75","","8","","20","","","","100.24","","","","-21","","NA"
"2017-12-21 10:00","2017","12","21","10:00","-12.2","","-16.6","","70","","7","","15","","","","100.29","","","","-19","","NA"
"2017-12-21 11:00","2017","12","21","11:00","-12.0","","-16.0","","72","","8","","16","","","","100.31","","","","-19","","NA"
"2017-12-21 12:00","2017","12","21","12:00","-11.8","","-16.1","","70","","7","","13","","","","100.27","","","","-18","","NA"
"2017-12-21 13:00","2017","12","21","13:00","-11.1","","-16.2","","66","","5","","7","","","","100.23","","","","-15","","NA"
"2017-12-21 14:00","2017","12","21","14:00","-10.4","","-15.6","","66","","8","","7","","","","100.21","","","","-14","","NA"
"2017-12-21 15:00","2017","12","21","15:00","-10.0","","-15.4","","65","","9","","6","","","","100.22","","","","-14","","NA"
"2017-12-21 16:00","2017","12","21","16:00","-9.8","","-15.7","","62","","6","","6","","","","100.25","","","","-13","","NA"
"2017-12-21 17:00","2017","12","21","17:00","-9.7","","-15.6","","62","","5","","6","","","","100.25","","","","-13","","NA"
"2017-12-21 18:00","2017","12","21","18:00","-9.7","","-16.2","","59","","7","","15","","","","100.22","","","","-16","","NA"
"2017-12-21 19:00","2017","12","21","19:00","-10.3","","-16.9","","58","","6","","11","","","","100.25","","","","-16","","NA"
"2017-12-21 20:00","2017","12","21","20:00","-10.9","","-17.1","","60","","6","","16","","","","100.23","","","","-18","","NA"
"2017-12-21 21:00","2017","12","21","21:00","-11.2","","-17.9","","58","","7","","16","","","","100.23","","","","-18","","NA"
"2017-12-21 22:00","2017","12","21","22:00","-11.4","","-17.7","","60","","7","","19","","","","100.21","","","","-19","","NA"
"2017-12-21 23:00","2017","12","21","23:00","-12.1","","-18.2","","60","","6","","16","","","","100.20","","","","-20","","NA"
"2017-12-22 00:00","2017","12","22","00:00","-12.1","","-17.8","","63","","5","","15","","","","100.14","","","","-19","","NA"
"2017-12-22 01:00","2017","12","22","01:00","-11.9","","-17.2","","65","","6","","14","","","","100.10","","","","-19","","NA"
"2017-12-22 02:00","2017","12","22","02:00","-11.8","","-17.2","","64","","6","","17","","","","100.03","","","","-19","","NA"
"2017-12-22 03:00","2017","12","22","03:00","-11.6","","-16.6","","66","","6","","14","","","","100.02","","","","-18","","NA"
"2017-12-22 04:00","2017","12","22","04:00","-11.4","","-15.9","","69","","6","","15","","","","99.95","","","","-18","","NA"
"2017-12-22 05:00","2017","12","22","05:00","-11.1","","-16.1","","67","","6","","16","","","","99.92","","","","-18","","NA"
"2017-12-22 06:00","2017","12","22","06:00","-11.5","","-14.9","","76","","6","","14","","","","99.89","","","","-18","","NA"
"2017-12-22 07:00","2017","12","22","07:00","-11.5","","-14.4","","79","","6","","16","","","","99.88","","","","-19","","NA"
"2017-12-22 08:00","2017","12","22","08:00","-11.3","","-14.1","","80","","7","","17","","","","99.86","","","","-19","","NA"
"2017-12-22 09:00","2017","12","22","09:00","-11.0","","-14.0","","79","","7","","19","","","","99.84","","","","-19","","NA"
"2017-12-22 10:00","2017","12","22","10:00","-10.5","","-13.6","","78","","6","","17","","","","99.85","","","","-18","","NA"
"2017-12-22 11:00","2017","12","22","11:00","-9.3","","-12.7","","76","","7","","17","","","","99.84","","","","-16","","NA"
"2017-12-22 12:00","2017","12","22","12:00","-8.6","","-12.2","","75","","7","","17","","","","99.78","","","","-15","","NA"
"2017-12-22 13:00","2017","12","22","13:00","-7.5","","-10.9","","76","","7","","12","","","","99.71","","","","-13","","NA"
"2017-12-22 14:00","2017","12","22","14:00","-6.9","","-10.8","","74","","6","","9","","","","99.66","","","","-11","","NA"
"2017-12-22 15:00","2017","12","22","15:00","-6.5","","-10.6","","72","","7","","13","","","","99.61","","","","-12","","NA"
"2017-12-22 16:00","2017","12","22","16:00","-6.8","","-11.3","","70","","6","","10","","","","99.60","","","","-11","","NA"
"2017-12-22 17:00","2017","12","22","17:00","-6.6","","-10.6","","73","","7","","13","","","","99.62","","","","-12","","NA"
"2017-12-22 18:00","2017","12","22","18:00","-7.3","","-11.8","","70","","7","","13","","","","99.67","","","","-13","","NA"
"2017-12-22 19:00","2017","12","22","19:00","-7.5","","-11.9","","71","","7","","12","","","","99.64","","","","-13","","NA"
"2017-12-22 20:00","2017","12","22","20:00","-7.5","","-11.9","","71","","6","","14","","","","99.56","","","","-13","","NA"
"2017-12-22 21:00","2017","12","22","21:00","-6.9","","-10.8","","74","","7","","20","","","","99.49","","","","-14","","NA"
"2017-12-22 22:00","2017","12","22","22:00","-6.9","","-10.8","","74","","7","","14","","","","99.44","","","","-13","","NA"
"2017-12-22 23:00","2017","12","22","23:00","-6.3","","-9.8","","77","","8","","21","","","","99.41","","","","-13","","NA"
"2017-12-23 00:00","2017","12","23","00:00","-6.6","","-10.0","","77","","8","","19","","","","99.34","","","","-13","","NA"
"2017-12-23 01:00","2017","12","23","01:00","-6.3","","-9.3","","80","","9","","21","","","","99.27","","","","-13","","NA"
"2017-12-23 02:00","2017","12","23","02:00","-6.5","","-9.0","","82","","7","","17","","","","99.23","","","","-13","","NA"
"2017-12-23 03:00","2017","12","23","03:00","-6.9","","-8.7","","87","","6","","15","","","","99.21","","","","-13","","NA"
"2017-12-23 04:00","2017","12","23","04:00","-6.6","","-7.9","","90","","7","","17","","","","99.10","","","","-13","","NA"
"2017-12-23 05:00","2017","12","23","05:00","-6.5","","-7.9","","90","","7","","18","","","","99.02","","","","-13","","NA"
"2017-12-23 06:00","2017","12","23","06:00","-6.4","","-7.7","","90","","7","","14","","","","99.03","","","","-12","","NA"
"2017-12-23 07:00","2017","12","23","07:00","-6.5","","-7.8","","90","","7","","13","","","","98.99","","","","-12","","NA"
"2017-12-23 08:00","2017","12","23","08:00","-6.5","","-7.9","","90","","6","","10","","","","98.95","","","","-11","","NA"
"2017-12-23 09:00","2017","12","23","09:00","-5.9","","-7.3","","90","","31","","7","","","","98.99","","","","-9","","NA"
"2017-12-23 10:00","2017","12","23","10:00","-4.5","","-6.0","","89","","29","","8","","","","98.97","","","","-8","","NA"
"2017-12-23 11:00","2017","12","23","11:00","-4.2","","-6.2","","86","","31","","16","","","","98.97","","","","-10","","NA"
"2017-12-23 12:00","2017","12","23","12:00","-4.4","","-6.5","","85","","30","","16","","","","98.89","","","","-10","","NA"
"2017-12-23 13:00","2017","12","23","13:00","-2.6","","-5.3","","81","","29","","18","","","","98.83","","","","-8","","NA"
"2017-12-23 14:00","2017","12","23","14:00","-1.4","","-5.4","","74","","28","","18","","","","98.78","","","","-7","","NA"
"2017-12-23 15:00","2017","12","23","15:00","-1.4","","-5.5","","74","","29","","21","","","","98.83","","","","-7","","NA"
"2017-12-23 16:00","2017","12","23","16:00","-1.7","","-6.3","","71","","28","","27","","","","98.90","","","","-8","","NA"
"2017-12-23 17:00","2017","12","23","17:00","-2.0","","-8.1","","63","","28","","27","","","","98.98","","","","-9","","NA"
"2017-12-23 18:00","2017","12","23","18:00","-2.9","","-10.7","","55","","31","","21","","","","99.07","","","","-9","","NA"
"2017-12-23 19:00","2017","12","23","19:00","-3.4","","-10.8","","56","","30","","17","","","","99.17","","","","-9","","NA"
"2017-12-23 20:00","2017","12","23","20:00","-3.6","","-10.3","","60","","30","","19","","","","99.27","","","","-10","","NA"
"2017-12-23 21:00","2017","12","23","21:00","-4.0","","-10.3","","62","","30","","21","","","","99.38","","","","-10","","NA"
"2017-12-23 22:00","2017","12","23","22:00","-5.0","","-11.8","","59","","30","","29","","","","99.51","","","","-13","","NA"
"2017-12-23 23:00","2017","12","23","23:00","-6.2","","-13.6","","56","","30","","20","","","","99.60","","","","-13","","NA"
"2017-12-24 00:00","2017","12","24","00:00","-6.7","","-14.1","","56","","30","","13","","","","99.71","","","","-12","","NA"
"2017-12-24 01:00","2017","12","24","01:00","-7.7","","-14.0","","60","","31","","11","","","","99.78","","","","-13","","NA"
"2017-12-24 02:00","2017","12","24","02:00","-8.9","","-14.3","","65","","35","","9","","","","99.79","","","","-14","","NA"
"2017-12-24 03:00","2017","12","24","03:00","-9.6","","-14.1","","70","","33","","8","","","","99.84","","","","-14","","NA"
"2017-12-24 04:00","2017","12","24","04:00","-8.7","","-12.9","","72","","23","","4","","","","99.85","","","","-11","","NA"
"2017-12-24 05:00","2017","12","24","05:00","-8.4","","-13.9","","64","","30","","2","","","","99.90","","","","-9","","NA"
"2017-12-24 06:00","2017","12","24","06:00","-10.5","","-14.5","","72","","34","","3","","","","99.96","","","","-12","","NA"
"2017-12-24 07:00","2017","12","24","07:00","-9.6","","-13.0","","76","","6","","1","","","","99.91","","","","-10","","NA"
"2017-12-24 08:00","2017","12","24","08:00","-9.2","","-10.8","","89","","3","","3","","","","99.91","","","","-11","","NA"
"2017-12-24 09:00","2017","12","24","09:00","-8.9","","-11.8","","79","","5","","5","","","","99.94","","","","-12","","NA"
"2017-12-24 10:00","2017","12","24","10:00","-7.4","","-11.6","","72","","35","","4","","","","99.90","","","","-9","","NA"
"2017-12-24 11:00","2017","12","24","11:00","-4.3","","-11.0","","59","","22","","20","","","","99.88","","","","-11","","NA"
"2017-12-24 12:00","2017","12","24","12:00","-3.7","","-10.8","","58","","20","","23","","","","99.77","","","","-10","","NA"
"2017-12-24 13:00","2017","12","24","13:00","-3.4","","-10.8","","57","","23","","20","","","","99.66","","","","-10","","NA"
"2017-12-24 14:00","2017","12","24","14:00","-3.4","","-9.8","","61","","22","","22","","","","99.58","","","","-10","","NA"
"2017-12-24 15:00","2017","12","24","15:00","-3.3","","-9.8","","61","","22","","19","","","","99.53","","","","-9","","NA"
"2017-12-24 16:00","2017","12","24","16:00","-3.2","","-10.3","","58","","22","","22","","","","99.48","","","","-10","","NA"
"2017-12-24 17:00","2017","12","24","17:00","-3.4","","-10.0","","60","","21","","17","","","","99.45","","","","-9","","NA"
"2017-12-24 18:00","2017","12","24","18:00","-3.6","","-9.2","","65","","22","","18","","","","99.42","","","","-9","","NA"
"2017-12-24 19:00","2017","12","24","19:00","-4.6","","-8.0","","77","","35","","3","","","","99.34","","","","-6","","NA"
"2017-12-24 20:00","2017","12","24","20:00","-5.3","","-7.3","","86","","2","","7","","","","99.23","","","","-9","","NA"
"2017-12-24 21:00","2017","12","24","21:00","-5.5","","-7.2","","87","","5","","6","","","","99.11","","","","-8","","NA"
"2017-12-24 22:00","2017","12","24","22:00","-5.8","","-7.1","","91","","5","","8","","","","98.98","","","","-10","","NA"
"2017-12-24 23:00","2017","12","24","23:00","-6.0","","-7.2","","91","","5","","9","","","","98.87","","","","-10","","NA"
"2017-12-25 00:00","2017","12","25","00:00","-6.2","","-7.4","","91","","4","","9","","","","98.79","","","","-10","","NA"
"2017-12-25 01:00","2017","12","25","01:00","-6.4","","-7.6","","91","","4","","10","","","","98.70","","","","-11","","NA"
"2017-12-25 02:00","2017","12","25","02:00","-6.5","","-7.7","","91","","4","","9","","","","98.62","","","","-11","","NA"
"2017-12-25 03:00","2017","12","25","03:00","-6.7","","-7.9","","91","","1","","8","","","","98.59","","","","-11","","NA"
"2017-12-25 04:00","2017","12","25","04:00","-7.0","","-8.3","","91","","35","","4","","","","98.54","","","","-9","","NA"
"2017-12-25 05:00","2017","12","25","05:00","-7.3","","-8.6","","91","","33","","8","","","","98.51","","","","-11","","NA"
"2017-12-25 06:00","2017","12","25","06:00","-7.3","","-8.6","","91","","31","","7","","","","98.54","","","","-11","","NA"
"2017-12-25 07:00","2017","12","25","07:00","-7.6","","-8.8","","91","","31","","10","","","","98.57","","","","-12","","NA"
"2017-12-25 08:00","2017","12","25","08:00","-7.6","","-8.8","","91","","30","","6","","","","98.56","","","","-11","","NA"
"2017-12-25 09:00","2017","12","25","09:00","-7.1","","-9.1","","86","","30","","14","","","","98.58","","","","-13","","NA"
"2017-12-25 10:00","2017","12","25","10:00","-6.6","","-12.4","","64","","31","","12","","","","98.58","","","","-12","","NA"
"2017-12-25 11:00","2017","12","25","11:00","-6.6","","-8.8","","84","","27","","18","","","","98.55","","","","-13","","NA"
"2017-12-25 12:00","2017","12","25","12:00","-6.1","","-9.1","","79","","29","","11","","","","98.49","","","","-11","","NA"
"2017-12-25 13:00","2017","12","25","13:00","-6.6","","-9.8","","78","","28","","38","","","","98.44","","","","-16","","NA"
"2017-12-25 14:00","2017","12","25","14:00","-7.5","","-9.4","","87","","28","","34","","","","98.48","","","","-17","","NA"
"2017-12-25 15:00","2017","12","25","15:00","-6.9","","-11.5","","70","","29","","36","","","","98.56","","","","-16","","NA"
"2017-12-25 16:00","2017","12","25","16:00","-7.6","","-13.0","","65","","31","","23","","","","98.64","","","","-15","","NA"
"2017-12-25 17:00","2017","12","25","17:00","-9.1","","-11.7","","81","","31","","25","","","","98.80","","","","-18","","NA"
"2017-12-25 18:00","2017","12","25","18:00","-9.5","","-16.1","","59","","30","","21","","","","98.93","","","","-17","","NA"
"2017-12-25 19:00","2017","12","25","19:00","-10.1","","-16.9","","57","","31","","19","","","","99.05","","","","-18","","NA"
"2017-12-25 20:00","2017","12","25","20:00","-11.5","","-18.4","","56","","31","","16","","","","99.16","","","","-19","","NA"
"2017-12-25 21:00","2017","12","25","21:00","-12.7","","-19.7","","56","","32","","12","","","","99.29","","","","-19","","NA"
"2017-12-25 22:00","2017","12","25","22:00","-13.8","","-22.2","","49","","34","","20","","","","99.36","","","","-23","","NA"
"2017-12-25 23:00","2017","12","25","23:00","-14.5","","-23.1","","48","","33","","16","","","","99.47","","","","-23","","NA"
"2017-12-26 00:00","2017","12","26","00:00","-15.4","","-23.3","","51","","33","","14","","","","99.53","","","","-23","","NA"
"2017-12-26 01:00","2017","12","26","01:00","-16.7","","-23.5","","56","","33","","12","","","","99.61","","","","-24","","NA"
"2017-12-26 02:00","2017","12","26","02:00","-17.4","","-22.9","","62","","33","","9","","","","99.71","","","","-24","","NA"
"2017-12-26 03:00","2017","12","26","03:00","-17.9","","-23.4","","62","","31","","10","","","","99.81","","","","-25","","NA"
"2017-12-26 04:00","2017","12","26","04:00","-18.2","","-22.7","","68","","32","","7","","","","99.89","","","","-24","","NA"
"2017-12-26 05:00","2017","12","26","05:00","-19.1","","-24.3","","64","","33","","9","","","","99.94","","","","-26","","NA"
"2017-12-26 06:00","2017","12","26","06:00","-20.1","","-25.4","","63","","34","","10","","","","100.01","","","","-27","","NA"
"2017-12-26 07:00","2017","12","26","07:00","-21.1","","-26.6","","61","","34","","9","","","","100.09","","","","-28","","NA"
"2017-12-26 08:00","2017","12","26","08:00","-21.3","","-27.3","","58","","35","","8","","","","100.14","","","","-28","","NA"
"2017-12-26 09:00","2017","12","26","09:00","-20.5","","-26.9","","56","","3","","7","","","","100.24","","","","-26","","NA"
"2017-12-26 10:00","2017","12","26","10:00","-19.0","","-27.3","","48","","5","","4","","","","100.34","","","","-22","","NA"
"2017-12-26 11:00","2017","12","26","11:00","-17.7","","-27.5","","42","","1","","3","","","","100.37","","","","-20","","NA"
"2017-12-26 12:00","2017","12","26","12:00","-16.6","","-24.3","","51","","10","","4","","","","100.37","","","","-20","","NA"
"2017-12-26 13:00","2017","12","26","13:00","-16.2","","-24.9","","47","","6","","6","","","","100.33","","","","-21","","NA"
"2017-12-26 14:00","2017","12","26","14:00","-16.0","","-23.3","","54","","29","","11","","","","100.34","","","","-23","","NA"
"2017-12-26 15:00","2017","12","26","15:00","-14.8","","-21.0","","59","","28","","9","","","","100.37","","","","-21","","NA"
"2017-12-26 16:00","2017","12","26","16:00","-15.5","","-22.5","","55","","3","","4","","","","100.39","","","","-18","","NA"
"2017-12-26 17:00","2017","12","26","17:00","-15.8","","-22.9","","54","","34","","2","","","","100.41","","","","-17","","NA"
"2017-12-26 18:00","2017","12","26","18:00","-17.0","","-24.1","","54","","4","","9","","","","100.46","","","","-23","","NA"
"2017-12-26 19:00","2017","12","26","19:00","-18.0","","-24.8","","56","","4","","9","","","","100.49","","","","-24","","NA"
"2017-12-26 20:00","2017","12","26","20:00","-18.3","","-24.9","","56","","5","","11","","","","100.52","","","","-26","","NA"
"2017-12-26 21:00","2017","12","26","21:00","-19.1","","-25.7","","56","","5","","10","","","","100.54","","","","-26","","NA"
"2017-12-26 22:00","2017","12","26","22:00","-19.4","","-26.7","","52","","4","","11","","","","100.58","","","","-27","","NA"
"2017-12-26 23:00","2017","12","26","23:00","-19.6","","-27.2","","51","","5","","12","","","","100.63","","","","-28","","NA"
"2017-12-27 00:00","2017","12","27","00:00","-20.1","","-27.2","","53","","4","","8","","","","100.69","","","","-26","","NA"
"2017-12-27 01:00","2017","12","27","01:00","-19.8","","-26.6","","55","","1","","11","","","","100.74","","","","-27","","NA"
"2017-12-27 02:00","2017","12","27","02:00","-19.8","","-27.6","","50","","1","","14","","","","100.78","","","","-29","","NA"
"2017-12-27 03:00","2017","12","27","03:00","-20.9","","-27.5","","55","","5","","8","","","","100.86","","","","-27","","NA"
"2017-12-27 04:00","2017","12","27","04:00","-23.4","","-28.6","","62","","6","","9","","","","100.90","","","","-31","","NA"
"2017-12-27 05:00","2017","12","27","05:00","-24.5","","-30.3","","59","","5","","9","","","","100.96","","","","-32","","NA"
"2017-12-27 06:00","2017","12","27","06:00","-25.7","","-31.0","","61","","36","","9","","","","101.02","","","","-33","","NA"
"2017-12-27 07:00","2017","12","27","07:00","-26.3","","-32.0","","59","","1","","8","","","","101.08","","","","-34","","NA"
"2017-12-27 08:00","2017","12","27","08:00","-26.8","","-32.4","","59","","4","","6","","","","101.14","","","","-33","","NA"
"2017-12-27 09:00","2017","12","27","09:00","-26.0","","-32.4","","55","","3","","7","","","","101.22","","","","-33","","NA"
"2017-12-27 10:00","2017","12","27","10:00","-25.1","","-32.5","","50","","2","","7","","","","101.29","","","","-32","","NA"
"2017-12-27 11:00","2017","12","27","11:00","-24.1","","-32.2","","47","","1","","7","","","","101.35","","","","-30","","NA"
"2017-12-27 12:00","2017","12","27","12:00","-22.8","","-31.5","","45","","36","","9","","","","101.30","","","","-30","","NA"
"2017-12-27 13:00","2017","12","27","13:00","-21.7","","-30.7","","44","","34","","9","","","","101.27","","","","-29","","NA"
"2017-12-27 14:00","2017","12","27","14:00","-21.3","","-30.8","","42","","35","","13","","","","101.26","","","","-30","","NA"
"2017-12-27 15:00","2017","12","27","15:00","-21.0","","-30.6","","42","","35","","10","","","","101.30","","","","-28","","NA"
"2017-12-27 16:00","2017","12","27","16:00","-20.7","","-29.3","","46","","30","","9","","","","101.34","","","","-28","","NA"
"2017-12-27 17:00","2017","12","27","17:00","-21.4","","-29.5","","48","","31","","6","","","","101.37","","","","-27","","NA"
"2017-12-27 18:00","2017","12","27","18:00","-21.7","","-29.2","","51","","31","","6","","","","101.40","","","","-27","","NA"
"2017-12-27 19:00","2017","12","27","19:00","-21.7","","-28.2","","56","","32","","3","","","","101.44","","","","-24","","NA"
"2017-12-27 20:00","2017","12","27","20:00","-21.9","","-28.1","","58","","33","","8","","","","101.43","","","","-28","","NA"
"2017-12-27 21:00","2017","12","27","21:00","-21.8","","-28.3","","56","","32","","11","","","","101.44","","","","-30","","NA"
"2017-12-27 22:00","2017","12","27","22:00","-21.7","","-28.2","","56","","33","","13","","","","101.43","","","","-30","","NA"
"2017-12-27 23:00","2017","12","27","23:00","-22.2","","-28.2","","58","","32","","10","","","","101.45","","","","-30","","NA"
"2017-12-28 00:00","2017","12","28","00:00","-22.2","","-28.6","","56","","32","","2","","","","101.46","","","","-24","","NA"
"2017-12-28 01:00","2017","12","28","01:00","-22.5","","-29.0","","56","","29","","5","","","","101.46","","","","-27","","NA"
"2017-12-28 02:00","2017","12","28","02:00","-22.7","","-29.2","","55","","33","","5","","","","101.47","","","","-27","","NA"
"2017-12-28 03:00","2017","12","28","03:00","-22.8","","-29.1","","56","","35","","3","","","","101.49","","","","-26","","NA"
"2017-12-28 04:00","2017","12","28","04:00","-22.9","","-29.2","","56","","29","","5","","","","101.47","","","","-28","","NA"
"2017-12-28 05:00","2017","12","28","05:00","-23.7","","-29.5","","59","","33","","6","","","","101.50","","","","-29","","NA"
"2017-12-28 06:00","2017","12","28","06:00","-23.1","","-29.2","","57","","10","","2","","","","101.52","","","","-25","","NA"
"2017-12-28 07:00","2017","12","28","07:00","-23.9","","-29.9","","58","","6","","5","","","","101.55","","","","-29","","NA"
"2017-12-28 08:00","2017","12","28","08:00","-24.6","","-30.1","","61","","32","","12","","","","101.59","","","","-34","","NA"
"2017-12-28 09:00","2017","12","28","09:00","-23.6","","-29.9","","56","","34","","5","","","","101.60","","","","-28","","NA"
"2017-12-28 10:00","2017","12","28","10:00","-21.9","","-29.5","","50","","35","","3","","","","101.63","","","","-25","","NA"
"2017-12-28 11:00","2017","12","28","11:00","-19.6","","-27.3","","51","","35","","3","","","","101.61","","","","-22","","NA"
"2017-12-28 12:00","2017","12","28","12:00","-19.2","","-27.0","","50","","9","","9","","","","101.52","","","","-26","","NA"
"2017-12-28 13:00","2017","12","28","13:00","-17.7","","-24.8","","54","","16","","6","","","","101.43","","","","-22","","NA"
"2017-12-28 14:00","2017","12","28","14:00","-16.1","","-23.0","","55","","19","","3","","","","101.37","","","","-18","","NA"
"2017-12-28 15:00","2017","12","28","15:00","-17.1","","-21.8","","67","","17","","7","","","","101.34","","","","-22","","NA"
"2017-12-28 16:00","2017","12","28","16:00","-16.9","","-21.3","","69","","32","","2","","","","101.28","","","","-18","","NA"
"2017-12-28 17:00","2017","12","28","17:00","-17.9","","-25.1","","54","","35","","5","","","","101.24","","","","-22","","NA"
"2017-12-28 18:00","2017","12","28","18:00","-18.4","","-23.0","","67","","5","","10","","","","101.18","","","","-25","","NA"
"2017-12-28 19:00","2017","12","28","19:00","-18.1","","-25.0","","55","","5","","10","","","","101.15","","","","-25","","NA"
"2017-12-28 20:00","2017","12","28","20:00","-18.4","","-25.2","","55","","6","","11","","","","101.09","","","","-26","","NA"
"2017-12-28 21:00","2017","12","28","21:00","-17.6","","-23.5","","60","","7","","15","","","","101.03","","","","-26","","NA"
"2017-12-28 22:00","2017","12","28","22:00","-18.4","","-24.7","","57","","6","","12","","","","100.96","","","","-26","","NA"
"2017-12-28 23:00","2017","12","28","23:00","-18.5","","-24.5","","59","","6","","16","","","","100.90","","","","-28","","NA"
"2017-12-29 00:00","2017","12","29","00:00","-18.5","","-24.9","","57","","6","","16","","","","100.80","","","","-28","","NA"
"2017-12-29 01:00","2017","12","29","01:00","-18.5","","-24.7","","58","","6","","17","","","","100.71","","","","-28","","NA"
"2017-12-29 02:00","2017","12","29","02:00","-18.3","","-24.5","","58","","7","","19","","","","100.63","","","","-28","","NA"
"2017-12-29 03:00","2017","12","29","03:00","-18.5","","-24.4","","60","","7","","19","","","","100.56","","","","-28","","NA"
"2017-12-29 04:00","2017","12","29","04:00","-18.6","","-24.1","","62","","7","","21","","","","100.49","","","","-29","","NA"
"2017-12-29 05:00","2017","12","29","05:00","-18.7","","-23.6","","65","","7","","21","","","","100.39","","","","-29","","NA"
"2017-12-29 06:00","2017","12","29","06:00","-19.0","","-24.3","","63","","6","","20","","","","100.33","","","","-29","","NA"
"2017-12-29 07:00","2017","12","29","07:00","-18.9","","-23.7","","66","","6","","17","","","","100.27","","","","-28","","NA"
"2017-12-29 08:00","2017","12","29","08:00","-18.9","","-22.7","","72","","6","","20","","","","100.25","","","","-29","","NA"
"2017-12-29 09:00","2017","12","29","09:00","-19.2","","-22.9","","73","","7","","22","","","","100.21","","","","-30","","NA"
"2017-12-29 10:00","2017","12","29","10:00","-19.2","","-22.9","","73","","6","","16","","","","100.24","","","","-28","","NA"
"2017-12-29 11:00","2017","12","29","11:00","-18.4","","-22.2","","72","","5","","14","","","","100.21","","","","-27","","NA"
"2017-12-29 12:00","2017","12","29","12:00","-15.9","","-20.7","","67","","6","","16","","","","100.13","","","","-24","","NA"
"2017-12-29 13:00","2017","12","29","13:00","-14.3","","-19.6","","64","","6","","16","","","","100.03","","","","-22","","NA"
"2017-12-29 14:00","2017","12","29","14:00","-13.7","","-20.0","","59","","6","","14","","","","99.98","","","","-21","","NA"
"2017-12-29 15:00","2017","12","29","15:00","-13.1","","-19.5","","59","","6","","16","","","","99.92","","","","-21","","NA"
"2017-12-29 16:00","2017","12","29","16:00","-13.7","","-19.5","","62","","5","","12","","","","99.94","","","","-20","","NA"
"2017-12-29 17:00","2017","12","29","17:00","-14.8","","-19.7","","66","","5","","12","","","","99.95","","","","-22","","NA"
"2017-12-29 18:00","2017","12","29","18:00","-14.9","","-19.7","","67","","4","","12","","","","99.90","","","","-22","","NA"
"2017-12-29 19:00","2017","12","29","19:00","-15.8","","-20.6","","67","","5","","18","","","","99.88","","","","-25","","NA"
"2017-12-29 20:00","2017","12","29","20:00","-15.8","","-20.6","","66","","5","","17","","","","99.83","","","","-24","","NA"
"2017-12-29 21:00","2017","12","29","21:00","-16.0","","-21.1","","65","","5","","17","","","","99.74","","","","-25","","NA"
"2017-12-29 22:00","2017","12","29","22:00","-16.0","","-20.6","","67","","5","","14","","","","99.67","","","","-24","","NA"
"2017-12-29 23:00","2017","12","29","23:00","-15.7","","-19.7","","72","","3","","11","","","","99.58","","","","-22","","NA"
"2017-12-30 00:00","2017","12","30","00:00","-16.7","","-20.3","","74","","1","","5","","","","99.53","","","","-21","","NA"
"2017-12-30 01:00","2017","12","30","01:00","-17.3","","-20.7","","75","","36","","8","","","","99.45","","","","-23","","NA"
"2017-12-30 02:00","2017","12","30","02:00","-17.3","","-20.8","","74","","1","","6","","","","99.39","","","","-22","","NA"
"2017-12-30 03:00","2017","12","30","03:00","-17.4","","-20.7","","75","","34","","6","","","","99.41","","","","-22","","NA"
"2017-12-30 04:00","2017","12","30","04:00","-18.0","","-21.8","","72","","1","","13","","","","99.37","","","","-26","","NA"
"2017-12-30 05:00","2017","12","30","05:00","-18.2","","-21.9","","72","","2","","9","","","","99.33","","","","-25","","NA"
"2017-12-30 06:00","2017","12","30","06:00","-18.5","","-22.4","","72","","2","","14","","","","99.32","","","","-27","","NA"
"2017-12-30 07:00","2017","12","30","07:00","-18.7","","-22.6","","71","","3","","11","","","","99.31","","","","-26","","NA"
"2017-12-30 08:00","2017","12","30","08:00","-19.0","","-22.9","","71","","2","","11","","","","99.35","","","","-26","","NA"
"2017-12-30 09:00","2017","12","30","09:00","-18.4","","-23.0","","67","","2","","14","","","","99.39","","","","-27","","NA"
"2017-12-30 10:00","2017","12","30","10:00","-17.9","","-23.1","","64","","2","","18","","","","99.44","","","","-27","","NA"
"2017-12-30 11:00","2017","12","30","11:00","-16.9","","-22.9","","59","","36","","19","","","","99.48","","","","-26","","NA"
"2017-12-30 12:00","2017","12","30","12:00","-16.5","","-23.2","","56","","1","","20","","","","99.48","","","","-26","","NA"
"2017-12-30 13:00","2017","12","30","13:00","-16.2","","-23.3","","54","","1","","18","","","","99.46","","","","-25","","NA"
"2017-12-30 14:00","2017","12","30","14:00","-15.4","","-24.5","","46","","36","","21","","","","99.52","","","","-25","","NA"
"2017-12-30 15:00","2017","12","30","15:00","-14.9","","-23.9","","46","","35","","10","","","","99.57","","","","-21","","NA"
"2017-12-30 16:00","2017","12","30","16:00","-15.4","","-24.9","","44","","36","","12","","","","99.71","","","","-22","","NA"
"2017-12-30 17:00","2017","12","30","17:00","-16.9","","-25.8","","46","","1","","15","","","","99.85","","","","-25","","NA"
"2017-12-30 18:00","2017","12","30","18:00","-17.6","","-25.2","","52","","36","","9","","","","99.97","","","","-24","","NA"
"2017-12-30 19:00","2017","12","30","19:00","-18.2","","-24.9","","56","","34","","9","","","","100.06","","","","-25","","NA"
"2017-12-30 20:00","2017","12","30","20:00","-18.9","","-25.3","","57","","35","","14","","","","100.16","","","","-27","","NA"
"2017-12-30 21:00","2017","12","30","21:00","-19.7","","-25.6","","59","","35","","18","","","","100.22","","","","-30","","NA"
"2017-12-30 22:00","2017","12","30","22:00","-20.2","","-25.7","","61","","34","","17","","","","100.31","","","","-30","","NA"
"2017-12-30 23:00","2017","12","30","23:00","-20.5","","-25.7","","63","","32","","15","","","","100.38","","","","-30","","NA"
"2017-12-31 00:00","2017","12","31","00:00","-21.2","","-26.4","","63","","33","","16","","","","100.43","","","","-31","","NA"
"2017-12-31 01:00","2017","12","31","01:00","-21.8","","-27.0","","63","","34","","16","","","","100.48","","","","-32","","NA"
"2017-12-31 02:00","2017","12","31","02:00","-22.2","","-27.3","","63","","34","","10","","","","100.54","","","","-30","","NA"
"2017-12-31 03:00","2017","12","31","03:00","-22.5","","-27.2","","65","","1","","5","","","","100.58","","","","-27","","NA"
"2017-12-31 04:00","2017","12","31","04:00","-22.7","","-27.1","","67","","36","","4","","","","100.61","","","","-26","","NA"
"2017-12-31 05:00","2017","12","31","05:00","-23.4","","-28.0","","66","","33","","10","","","","100.66","","","","-31","","NA"
"2017-12-31 06:00","2017","12","31","06:00","-23.9","","-28.7","","65","","34","","12","","","","100.72","","","","-33","","NA"
"2017-12-31 07:00","2017","12","31","07:00","-24.4","","-28.8","","67","","33","","6","","","","100.74","","","","-30","","NA"
"2017-12-31 08:00","2017","12","31","08:00","-24.1","","-28.5","","67","","29","","6","","","","100.80","","","","-30","","NA"
"2017-12-31 09:00","2017","12","31","09:00","-23.7","","-28.9","","62","","33","","10","","","","100.86","","","","-32","","NA"
"2017-12-31 10:00","2017","12","31","10:00","-22.7","","-28.5","","59","","34","","12","","","","100.88","","","","-31","","NA"
"2017-12-31 11:00","2017","12","31","11:00","-21.3","","-27.9","","55","","32","","9","","","","100.87","","","","-28","","NA"
"2017-12-31 12:00","2017","12","31","12:00","-19.5","","-26.6","","53","","32","","7","","","","100.83","","","","-25","","NA"
"2017-12-31 13:00","2017","12","31","13:00","-19.5","","-26.4","","54","","30","","12","","","","100.75","","","","-27","","NA"
"2017-12-31 14:00","2017","12","31","14:00","-19.0","","-26.1","","54","","28","","13","","","","100.73","","","","-27","","NA"
"2017-12-31 15:00","2017","12","31","15:00","-18.6","","-26.4","","50","","31","","13","","","","100.74","","","","-27","","NA"
"2017-12-31 16:00","2017","12","31","16:00","-17.9","","-24.7","","55","","28","","11","","","","100.72","","","","-25","","NA"
"2017-12-31 17:00","2017","12","31","17:00","-19.2","","-24.7","","61","","29","","9","","","","100.73","","","","-26","","NA"
"2017-12-31 18:00","2017","12","31","18:00","-19.4","","-23.7","","69","","27","","11","","","","100.76","","","","-27","","NA"
"2017-12-31 19:00","2017","12","31","19:00","-19.3","","-23.1","","72","","27","","9","","","","100.76","","","","-26","","NA"
"2017-12-31 20:00","2017","12","31","20:00","-20.2","","-23.9","","72","","30","","8","","","","100.73","","","","-26","","NA"
"2017-12-31 21:00","2017","12","31","21:00","-19.8","","-23.5","","72","","30","","9","","","","100.71","","","","-27","","NA"
"2017-12-31 22:00","2017","12","31","22:00","-20.0","","-23.3","","75","","32","","4","","","","100.64","","","","-23","","NA"
"2017-12-31 23:00","2017","12","31","23:00","-19.0","","-22.7","","73","","7","","3","","","","100.58","","","","-21","","NA"
