"Station Name","KILLARNEY (AUT)"
"Province","ONTARIO"
"Current Station Operator","Environment and Climate Change Canada - Meteorological Service of Canada"
"Latitude","45.97"
"Longitude","-81.48"
"Elevation","196.30"
"Climate Identifier","605DJ25"
"WMO Identifier","71460"
"TC Identifier","WBE"
"All times are specified in Local Standard Time (LST). Add 1 hour to adjust for Daylight Saving Time where and when it is observed."

"Legend"
"E","Estimated"
"M","Missing"
"NA","Not Available"

"Date/Time","Year","Month","Day","Time","Temp (°C)","Temp Flag","Dew Point Temp (°C)","Dew Point Temp Flag","Rel Hum (%)","Rel Hum Flag","Wind Dir (10s deg)","Wind Dir Flag","Wind Spd (km/h)","Wind Spd Flag","Visibility (km)","Visibility Flag","Stn Press (kPa)","Stn Press Flag","Hmdx","Hmdx Flag","Wind Chill","Wind Chill Flag","Weather"
"2018-12-01 00:00","2018","12","01","00:00","1.2","","-1.3","","84","","32","","6","","","","99.73","","","","","","NA"
"2018-12-01 01:00","2018","12","01","01:00","1.3","","-1.1","","84","","30","","7","","","","99.71","","","","","","NA"
"2018-12-01 02:00","2018","12","01","02:00","1.2","","-1.5","","83","","32","","6","","","","99.69","","","","","","NA"
"2018-12-01 03:00","2018","12","01","03:00","1.4","","-0.9","","85","","15","","2","","","","99.66","","","","","","NA"
"2018-12-01 04:00","2018","12","01","04:00","1.7","","-1.5","","79","","28","","5","","","","99.63","","","","","","NA"
"2018-12-01 05:00","2018","12","01","05:00","2.3","","-1.3","","77","","25","","12","","","","99.71","","","","","","NA"
"2018-12-01 06:00","2018","12","01","06:00","2.2","","-1.3","","78","","27","","10","","","","99.75","","","","","","NA"
"2018-12-01 07:00","2018","12","01","07:00","2.1","","-1.0","","80","","27","","6","","","","99.74","","","","","","NA"
"2018-12-01 08:00","2018","12","01","08:00","2.1","","-1.0","","80","","29","","4","","","","99.70","","","","","","NA"
"2018-12-01 09:00","2018","12","01","09:00","2.3","","-0.7","","80","","26","","4","","","","99.64","","","","","","NA"
"2018-12-01 10:00","2018","12","01","10:00","1.8","","-0.5","","85","","7","","4","","","","99.60","","","","","","NA"
"2018-12-01 11:00","2018","12","01","11:00","3.2","","-0.4","","78","","20","","11","","","","99.65","","","","","","NA"
"2018-12-01 12:00","2018","12","01","12:00","1.6","","-0.1","","89","","8","","12","","","","99.61","","","","","","NA"
"2018-12-01 13:00","2018","12","01","13:00","1.8","","-0.1","","87","","7","","10","","","","99.51","","","","","","NA"
"2018-12-01 14:00","2018","12","01","14:00","3.9","","-0.3","","74","","15","","17","","","","99.40","","","","","","NA"
"2018-12-01 15:00","2018","12","01","15:00","2.0","","0.3","","89","","7","","13","","","","99.36","","","","","","NA"
"2018-12-01 16:00","2018","12","01","16:00","2.4","","0.0","","84","","12","","29","","","","99.35","","","","","","NA"
"2018-12-01 17:00","2018","12","01","17:00","1.3","","-0.5","","88","","9","","25","","","","99.35","","","","","","NA"
"2018-12-01 18:00","2018","12","01","18:00","1.0","","-0.7","","89","","9","","27","","","","99.28","","","","","","NA"
"2018-12-01 19:00","2018","12","01","19:00","0.8","","-0.9","","88","","10","","35","","","","99.24","","","","","","NA"
"2018-12-01 20:00","2018","12","01","20:00","0.8","","-0.7","","90","","9","","27","","","","99.12","","","","","","NA"
"2018-12-01 21:00","2018","12","01","21:00","0.8","","-1.3","","86","","8","","24","","","","99.03","","","","","","NA"
"2018-12-01 22:00","2018","12","01","22:00","0.7","","-1.7","","84","","8","","26","","","","98.91","","","","","","NA"
"2018-12-01 23:00","2018","12","01","23:00","0.8","","-1.8","","83","","7","","29","","","","98.77","","","","","","NA"
"2018-12-02 00:00","2018","12","02","00:00","1.0","","-1.6","","83","","8","","22","","","","98.76","","","","","","NA"
"2018-12-02 01:00","2018","12","02","01:00","0.9","","-1.9","","82","","8","","26","","","","98.65","","","","","","NA"
"2018-12-02 02:00","2018","12","02","02:00","0.6","","-1.9","","83","","7","","32","","","","98.43","","","","","","NA"
"2018-12-02 03:00","2018","12","02","03:00","0.5","","-2.0","","84","","6","","28","","","","98.26","","","","","","NA"
"2018-12-02 04:00","2018","12","02","04:00","0.8","","-1.7","","84","","7","","30","","","","98.18","","","","","","NA"
"2018-12-02 05:00","2018","12","02","05:00","0.3","","-1.3","","89","","7","","22","","","","98.09","","","","","","NA"
"2018-12-02 06:00","2018","12","02","06:00","-0.3","","-1.1","","95","","6","","19","","","","98.00","","","","-5","","NA"
"2018-12-02 07:00","2018","12","02","07:00","-0.1","","-0.8","","95","","7","","33","","","","97.90","","","","-7","","NA"
"2018-12-02 08:00","2018","12","02","08:00","-0.3","","-1.0","","95","","6","","24","","","","97.81","","","","-6","","NA"
"2018-12-02 09:00","2018","12","02","09:00","-0.4","","-1.0","","96","","6","","21","","","","97.67","","","","-6","","NA"
"2018-12-02 10:00","2018","12","02","10:00","-0.2","","-0.8","","96","","7","","19","","","","97.65","","","","-5","","NA"
"2018-12-02 11:00","2018","12","02","11:00","-0.1","","-0.7","","96","","6","","16","","","","97.58","","","","-5","","NA"
"2018-12-02 12:00","2018","12","02","12:00","0.0","","-0.7","","96","","6","","14","","","","97.49","","","","-4","","NA"
"2018-12-02 13:00","2018","12","02","13:00","0.0","","-0.6","","96","","4","","10","","","","97.47","","","","-3","","NA"
"2018-12-02 14:00","2018","12","02","14:00","0.1","","-0.5","","96","","5","","13","","","","97.41","","","","","","NA"
"2018-12-02 15:00","2018","12","02","15:00","0.0","","-0.6","","96","","4","","13","","","","97.44","","","","-4","","NA"
"2018-12-02 16:00","2018","12","02","16:00","-0.1","","-0.7","","96","","4","","13","","","","97.45","","","","-4","","NA"
"2018-12-02 17:00","2018","12","02","17:00","-0.3","","-0.8","","96","","4","","17","","","","97.46","","","","-5","","NA"
"2018-12-02 18:00","2018","12","02","18:00","-0.4","","-1.0","","96","","4","","15","","","","97.52","","","","-5","","NA"
"2018-12-02 19:00","2018","12","02","19:00","-0.5","","-1.3","","94","","4","","17","","","","97.52","","","","-5","","NA"
"2018-12-02 20:00","2018","12","02","20:00","-0.6","","-1.8","","92","","4","","18","","","","97.57","","","","-6","","NA"
"2018-12-02 21:00","2018","12","02","21:00","-0.7","","-1.8","","92","","2","","17","","","","97.65","","","","-6","","NA"
"2018-12-02 22:00","2018","12","02","22:00","-0.8","","-2.4","","89","","3","","21","","","","97.58","","","","-6","","NA"
"2018-12-02 23:00","2018","12","02","23:00","-0.7","","-3.0","","85","","3","","23","","","","97.62","","","","-7","","NA"
"2018-12-03 00:00","2018","12","03","00:00","-0.5","","-3.4","","80","","3","","23","","","","97.74","","","","-6","","NA"
"2018-12-03 01:00","2018","12","03","01:00","-0.8","","-3.0","","85","","2","","12","","","","97.80","","","","-5","","NA"
"2018-12-03 02:00","2018","12","03","02:00","-0.7","","-3.3","","83","","2","","13","","","","97.88","","","","-5","","NA"
"2018-12-03 03:00","2018","12","03","03:00","-0.7","","-3.7","","80","","2","","17","","","","97.98","","","","-6","","NA"
"2018-12-03 04:00","2018","12","03","04:00","-0.7","","-3.9","","79","","2","","19","","","","98.06","","","","-6","","NA"
"2018-12-03 05:00","2018","12","03","05:00","-0.9","","-4.3","","78","","36","","16","","","","98.19","","","","-6","","NA"
"2018-12-03 06:00","2018","12","03","06:00","-1.5","","-4.1","","82","","36","","15","","","","98.30","","","","-6","","NA"
"2018-12-03 07:00","2018","12","03","07:00","-1.9","","-4.5","","83","","36","","19","","","","98.42","","","","-7","","NA"
"2018-12-03 08:00","2018","12","03","08:00","-2.0","","-5.1","","80","","1","","16","","","","98.54","","","","-7","","NA"
"2018-12-03 09:00","2018","12","03","09:00","-2.0","","-5.5","","76","","36","","22","","","","98.66","","","","-8","","NA"
"2018-12-03 10:00","2018","12","03","10:00","-1.7","","-5.6","","75","","36","","18","","","","98.77","","","","-7","","NA"
"2018-12-03 11:00","2018","12","03","11:00","-1.5","","-6.1","","71","","36","","19","","","","98.84","","","","-7","","NA"
"2018-12-03 12:00","2018","12","03","12:00","-1.8","","-6.5","","71","","36","","23","","","","98.89","","","","-8","","NA"
"2018-12-03 13:00","2018","12","03","13:00","-1.6","","-6.5","","69","","36","","17","","","","98.91","","","","-7","","NA"
"2018-12-03 14:00","2018","12","03","14:00","-1.8","","-6.5","","70","","35","","18","","","","98.97","","","","-7","","NA"
"2018-12-03 15:00","2018","12","03","15:00","-2.1","","-6.6","","71","","34","","15","","","","99.04","","","","-7","","NA"
"2018-12-03 16:00","2018","12","03","16:00","-2.3","","-6.4","","73","","34","","10","","","","99.15","","","","-6","","NA"
"2018-12-03 17:00","2018","12","03","17:00","-2.8","","-7.9","","68","","35","","16","","","","99.26","","","","-8","","NA"
"2018-12-03 18:00","2018","12","03","18:00","-3.9","","-8.3","","71","","35","","19","","","","99.36","","","","-10","","NA"
"2018-12-03 19:00","2018","12","03","19:00","-4.7","","-8.9","","73","","1","","12","","","","99.45","","","","-9","","NA"
"2018-12-03 20:00","2018","12","03","20:00","-5.2","","-9.2","","74","","35","","16","","","","99.52","","","","-11","","NA"
"2018-12-03 21:00","2018","12","03","21:00","-5.6","","-9.8","","73","","1","","12","","","","99.55","","","","-11","","NA"
"2018-12-03 22:00","2018","12","03","22:00","-6.6","","-10.4","","74","","3","","8","","","","99.57","","","","-10","","NA"
"2018-12-03 23:00","2018","12","03","23:00","-7.0","","-10.6","","76","","2","","9","","","","99.59","","","","-11","","NA"
"2018-12-04 00:00","2018","12","04","00:00","-7.8","","-11.1","","77","","34","","10","","","","99.64","","","","-13","","NA"
"2018-12-04 01:00","2018","12","04","01:00","-9.3","","-12.8","","76","","2","","9","","","","99.69","","","","-14","","NA"
"2018-12-04 02:00","2018","12","04","02:00","-10.3","","-13.6","","77","","3","","6","","","","99.72","","","","-14","","NA"
"2018-12-04 03:00","2018","12","04","03:00","-10.9","","-13.8","","79","","1","","5","","","","99.76","","","","-14","","NA"
"2018-12-04 04:00","2018","12","04","04:00","-10.9","","-13.9","","79","","35","","5","","","","99.78","","","","-14","","NA"
"2018-12-04 05:00","2018","12","04","05:00","-11.0","","-13.7","","81","","36","","6","","","","99.80","","","","-15","","NA"
"2018-12-04 06:00","2018","12","04","06:00","-11.6","","-13.6","","85","","35","","9","","","","99.81","","","","-17","","NA"
"2018-12-04 07:00","2018","12","04","07:00","-11.7","","-14.2","","82","","35","","7","","","","99.81","","","","-16","","NA"
"2018-12-04 08:00","2018","12","04","08:00","-11.6","","-13.8","","84","","35","","6","","","","99.83","","","","-15","","NA"
"2018-12-04 09:00","2018","12","04","09:00","-10.5","","-13.2","","81","","32","","7","","","","99.84","","","","-15","","NA"
"2018-12-04 10:00","2018","12","04","10:00","-8.9","","-12.6","","75","","31","","10","","","","99.83","","","","-14","","NA"
"2018-12-04 11:00","2018","12","04","11:00","-8.0","","-11.8","","74","","32","","16","","","","99.85","","","","-15","","NA"
"2018-12-04 12:00","2018","12","04","12:00","-7.1","","-9.5","","83","","33","","13","","","","99.76","","","","-13","","NA"
"2018-12-04 13:00","2018","12","04","13:00","-5.8","","-8.9","","79","","25","","8","","","","99.64","","","","-10","","NA"
"2018-12-04 14:00","2018","12","04","14:00","-4.9","","-7.1","","85","","24","","8","","","","99.60","","","","-8","","NA"
"2018-12-04 15:00","2018","12","04","15:00","-3.8","","-6.5","","82","","25","","9","","","","99.54","","","","-8","","NA"
"2018-12-04 16:00","2018","12","04","16:00","-3.5","","-5.8","","84","","31","","4","","","","99.50","","","","-5","","NA"
"2018-12-04 17:00","2018","12","04","17:00","-1.8","","-4.7","","81","","26","","10","","","","99.46","","","","-5","","NA"
"2018-12-04 18:00","2018","12","04","18:00","-0.5","","-3.8","","79","","27","","17","","","","99.43","","","","-5","","NA"
"2018-12-04 19:00","2018","12","04","19:00","-0.2","","-3.4","","79","","27","","20","","","","99.43","","","","-5","","NA"
"2018-12-04 20:00","2018","12","04","20:00","-0.1","","-2.6","","83","","27","","16","","","","99.41","","","","-5","","NA"
"2018-12-04 21:00","2018","12","04","21:00","0.2","","-2.3","","83","","28","","18","","","","99.39","","","","","","NA"
"2018-12-04 22:00","2018","12","04","22:00","0.4","","-2.4","","81","","28","","17","","","","99.39","","","","","","NA"
"2018-12-04 23:00","2018","12","04","23:00","-0.4","","-2.8","","84","","32","","11","","","","99.37","","","","-4","","NA"
"2018-12-05 00:00","2018","12","05","00:00","-0.2","","-2.8","","82","","30","","11","","","","99.34","","","","-4","","NA"
"2018-12-05 01:00","2018","12","05","01:00","-0.6","","-2.8","","85","","32","","9","","","","99.32","","","","-4","","NA"
"2018-12-05 02:00","2018","12","05","02:00","-0.7","","-3.7","","80","","32","","8","","","","99.27","","","","-4","","NA"
"2018-12-05 03:00","2018","12","05","03:00","-0.6","","-4.0","","78","","29","","9","","","","99.29","","","","-4","","NA"
"2018-12-05 04:00","2018","12","05","04:00","-0.9","","-4.7","","76","","31","","16","","","","99.27","","","","-6","","NA"
"2018-12-05 05:00","2018","12","05","05:00","-1.3","","-5.2","","74","","31","","12","","","","99.27","","","","-5","","NA"
"2018-12-05 06:00","2018","12","05","06:00","-1.5","","-5.3","","75","","32","","7","","","","99.27","","","","-4","","NA"
"2018-12-05 07:00","2018","12","05","07:00","-1.5","","-5.1","","77","","32","","6","","","","99.28","","","","-4","","NA"
"2018-12-05 08:00","2018","12","05","08:00","-1.4","","-5.1","","76","","31","","3","","","","99.26","","","","-2","","NA"
"2018-12-05 09:00","2018","12","05","09:00","-1.6","","-5.2","","76","","32","","4","","","","99.26","","","","-3","","NA"
"2018-12-05 10:00","2018","12","05","10:00","-1.5","","-4.8","","78","","33","","4","","","","99.28","","","","-3","","NA"
"2018-12-05 11:00","2018","12","05","11:00","-1.2","","-4.4","","79","","35","","4","","","","99.25","","","","-3","","NA"
"2018-12-05 12:00","2018","12","05","12:00","-0.7","","-3.7","","80","","26","","6","","","","99.21","","","","-3","","NA"
"2018-12-05 13:00","2018","12","05","13:00","-0.3","","-3.6","","78","","26","","12","","","","99.15","","","","-4","","NA"
"2018-12-05 14:00","2018","12","05","14:00","-0.3","","-4.2","","75","","27","","14","","","","99.12","","","","-5","","NA"
"2018-12-05 15:00","2018","12","05","15:00","-0.2","","-5.1","","69","","24","","23","","","","99.10","","","","-6","","NA"
"2018-12-05 16:00","2018","12","05","16:00","-0.7","","-3.2","","83","","23","","25","","","","99.11","","","","-7","","NA"
"2018-12-05 17:00","2018","12","05","17:00","-0.4","","-3.6","","79","","28","","17","","","","99.11","","","","-5","","NA"
"2018-12-05 18:00","2018","12","05","18:00","-1.1","","-3.4","","85","","26","","25","","","","99.12","","","","-7","","NA"
"2018-12-05 19:00","2018","12","05","19:00","-1.4","","-3.3","","87","","27","","14","","","","99.14","","","","-6","","NA"
"2018-12-05 20:00","2018","12","05","20:00","-1.1","","-4.7","","76","","26","","19","","","","99.14","","","","-6","","NA"
"2018-12-05 21:00","2018","12","05","21:00","-0.9","","-4.6","","76","","28","","19","","","","99.08","","","","-6","","NA"
"2018-12-05 22:00","2018","12","05","22:00","-0.9","","-5.1","","73","","26","","19","","","","99.07","","","","-6","","NA"
"2018-12-05 23:00","2018","12","05","23:00","-0.8","","-4.1","","79","","27","","23","","","","99.06","","","","-7","","NA"
"2018-12-06 00:00","2018","12","06","00:00","-1.1","","-3.4","","85","","25","","17","","","","99.05","","","","-6","","NA"
"2018-12-06 01:00","2018","12","06","01:00","-1.0","","-3.8","","81","","25","","23","","","","98.99","","","","-7","","NA"
"2018-12-06 02:00","2018","12","06","02:00","-0.9","","-3.8","","81","","24","","27","","","","98.95","","","","-7","","NA"
"2018-12-06 03:00","2018","12","06","03:00","-0.5","","-2.3","","88","","22","","32","","","","98.91","","","","-7","","NA"
"2018-12-06 04:00","2018","12","06","04:00","-0.9","","-2.0","","92","","25","","18","","","","98.84","","","","-6","","NA"
"2018-12-06 05:00","2018","12","06","05:00","-1.1","","-2.8","","88","","26","","25","","","","98.82","","","","-7","","NA"
"2018-12-06 06:00","2018","12","06","06:00","-1.1","","-4.2","","79","","27","","18","","","","98.83","","","","-6","","NA"
"2018-12-06 07:00","2018","12","06","07:00","-1.0","","-5.0","","74","","27","","17","","","","98.87","","","","-6","","NA"
"2018-12-06 08:00","2018","12","06","08:00","-1.8","","-4.6","","82","","31","","15","","","","98.94","","","","-7","","NA"
"2018-12-06 09:00","2018","12","06","09:00","-1.0","","-4.9","","75","","30","","17","","","","99.01","","","","-6","","NA"
"2018-12-06 10:00","2018","12","06","10:00","-1.8","","-5.5","","76","","32","","19","","","","99.06","","","","-7","","NA"
"2018-12-06 11:00","2018","12","06","11:00","-2.2","","-6.2","","74","","33","","11","","","","99.11","","","","-6","","NA"
"2018-12-06 12:00","2018","12","06","12:00","-2.2","","-7.5","","67","","33","","15","","","","99.12","","","","-7","","NA"
"2018-12-06 13:00","2018","12","06","13:00","-2.2","","-8.3","","63","","33","","20","","","","99.16","","","","-8","","NA"
"2018-12-06 14:00","2018","12","06","14:00","-2.7","","-9.1","","61","","33","","20","","","","99.23","","","","-9","","NA"
"2018-12-06 15:00","2018","12","06","15:00","-2.8","","-9.0","","63","","35","","14","","","","99.32","","","","-8","","NA"
"2018-12-06 16:00","2018","12","06","16:00","-3.6","","-9.9","","62","","34","","13","","","","99.41","","","","-8","","NA"
"2018-12-06 17:00","2018","12","06","17:00","-5.1","","-9.6","","70","","35","","15","","","","99.54","","","","-11","","NA"
"2018-12-06 18:00","2018","12","06","18:00","-6.3","","-10.6","","71","","36","","16","","","","99.69","","","","-12","","NA"
"2018-12-06 19:00","2018","12","06","19:00","-7.9","","-12.1","","72","","36","","16","","","","99.84","","","","-14","","NA"
"2018-12-06 20:00","2018","12","06","20:00","-9.1","","-13.4","","71","","35","","12","","","","99.94","","","","-15","","NA"
"2018-12-06 21:00","2018","12","06","21:00","-10.5","","-14.4","","73","","35","","15","","","","100.02","","","","-17","","NA"
"2018-12-06 22:00","2018","12","06","22:00","-11.7","","-15.5","","73","","35","","17","","","","100.11","","","","-19","","NA"
"2018-12-06 23:00","2018","12","06","23:00","-12.0","","-15.5","","75","","36","","6","","","","100.20","","","","-16","","NA"
"2018-12-07 00:00","2018","12","07","00:00","-12.6","","-16.1","","75","","35","","16","","","","100.29","","","","-20","","NA"
"2018-12-07 01:00","2018","12","07","01:00","-14.6","","-18.1","","75","","36","","8","","","","100.38","","","","-20","","NA"
"2018-12-07 02:00","2018","12","07","02:00","-15.5","","-19.3","","73","","35","","9","","","","100.48","","","","-21","","NA"
"2018-12-07 03:00","2018","12","07","03:00","-16.2","","-20.8","","67","","35","","7","","","","100.59","","","","-21","","NA"
"2018-12-07 04:00","2018","12","07","04:00","-16.9","","-21.2","","69","","3","","6","","","","100.62","","","","-21","","NA"
"2018-12-07 05:00","2018","12","07","05:00","-17.4","","-21.3","","71","","3","","8","","","","100.65","","","","-23","","NA"
"2018-12-07 06:00","2018","12","07","06:00","-17.6","","-21.9","","69","","2","","7","","","","100.65","","","","-23","","NA"
"2018-12-07 07:00","2018","12","07","07:00","-17.7","","-21.9","","69","","1","","7","","","","100.73","","","","-23","","NA"
"2018-12-07 08:00","2018","12","07","08:00","-17.9","","-21.5","","73","","1","","11","","","","100.78","","","","-25","","NA"
"2018-12-07 09:00","2018","12","07","09:00","-16.9","","-21.2","","69","","3","","8","","","","100.82","","","","-23","","NA"
"2018-12-07 10:00","2018","12","07","10:00","-14.9","","-18.3","","75","","8","","13","","","","100.86","","","","-22","","NA"
"2018-12-07 11:00","2018","12","07","11:00","-14.2","","-18.9","","67","","7","","5","","","","100.89","","","","-18","","NA"
"2018-12-07 12:00","2018","12","07","12:00","-13.1","","-17.4","","70","","11","","7","","","","100.84","","","","-18","","NA"
"2018-12-07 13:00","2018","12","07","13:00","-12.0","","-15.8","","73","","9","","9","","","","100.77","","","","-17","","NA"
"2018-12-07 14:00","2018","12","07","14:00","-11.3","","-15.2","","73","","10","","12","","","","100.70","","","","-17","","NA"
"2018-12-07 15:00","2018","12","07","15:00","-10.6","","-15.5","","67","","10","","9","","","","100.67","","","","-16","","NA"
"2018-12-07 16:00","2018","12","07","16:00","-10.0","","-13.3","","77","","9","","15","","","","100.64","","","","-17","","NA"
"2018-12-07 17:00","2018","12","07","17:00","-10.0","","-13.5","","76","","8","","17","","","","100.62","","","","-17","","NA"
"2018-12-07 18:00","2018","12","07","18:00","-10.0","","-12.7","","81","","7","","16","","","","100.60","","","","-17","","NA"
"2018-12-07 19:00","2018","12","07","19:00","-10.3","","-12.9","","81","","7","","16","","","","100.60","","","","-17","","NA"
"2018-12-07 20:00","2018","12","07","20:00","-10.9","","-13.1","","84","","7","","15","","","","100.57","","","","-18","","NA"
"2018-12-07 21:00","2018","12","07","21:00","-10.5","","-12.8","","83","","7","","16","","","","100.54","","","","-18","","NA"
"2018-12-07 22:00","2018","12","07","22:00","-11.3","","-14.7","","76","","6","","14","","","","100.49","","","","-18","","NA"
"2018-12-07 23:00","2018","12","07","23:00","-10.8","","-14.1","","77","","5","","13","","","","100.49","","","","-17","","NA"
"2018-12-08 00:00","2018","12","08","00:00","-11.0","","-13.7","","80","","5","","11","","","","100.48","","","","-17","","NA"
"2018-12-08 01:00","2018","12","08","01:00","-9.7","","-11.9","","84","","5","","11","","","","100.45","","","","-15","","NA"
"2018-12-08 02:00","2018","12","08","02:00","-9.0","","-11.2","","84","","4","","9","","","","100.44","","","","-14","","NA"
"2018-12-08 03:00","2018","12","08","03:00","-8.6","","-10.6","","85","","3","","6","","","","100.51","","","","-12","","NA"
"2018-12-08 04:00","2018","12","08","04:00","-7.9","","-9.8","","87","","33","","10","","","","100.53","","","","-13","","NA"
"2018-12-08 05:00","2018","12","08","05:00","-8.4","","-10.8","","82","","31","","10","","","","100.55","","","","-13","","NA"
"2018-12-08 06:00","2018","12","08","06:00","-8.5","","-11.6","","78","","31","","8","","","","100.57","","","","-13","","NA"
"2018-12-08 07:00","2018","12","08","07:00","-8.1","","-10.8","","81","","30","","5","","","","100.59","","","","-11","","NA"
"2018-12-08 08:00","2018","12","08","08:00","-6.6","","-8.8","","85","","28","","7","","","","100.60","","","","-10","","NA"
"2018-12-08 09:00","2018","12","08","09:00","-5.6","","-8.2","","82","","29","","9","","","","100.65","","","","-10","","NA"
"2018-12-08 10:00","2018","12","08","10:00","-4.6","","-7.8","","78","","30","","18","","","","100.69","","","","-11","","NA"
"2018-12-08 11:00","2018","12","08","11:00","-3.8","","-7.4","","76","","30","","15","","","","100.73","","","","-9","","NA"
"2018-12-08 12:00","2018","12","08","12:00","-2.6","","-7.1","","71","","29","","29","","","","100.67","","","","-10","","NA"
"2018-12-08 13:00","2018","12","08","13:00","-1.7","","-5.6","","75","","29","","26","","","","100.58","","","","-8","","NA"
"2018-12-08 14:00","2018","12","08","14:00","-1.8","","-6.1","","72","","27","","32","","","","100.59","","","","-9","","NA"
"2018-12-08 15:00","2018","12","08","15:00","-1.4","","-6.2","","70","","27","","26","","","","100.57","","","","-8","","NA"
"2018-12-08 16:00","2018","12","08","16:00","-1.3","","-5.4","","73","","28","","28","","","","100.59","","","","-8","","NA"
"2018-12-08 17:00","2018","12","08","17:00","-1.4","","-5.2","","75","","27","","21","","","","100.61","","","","-7","","NA"
"2018-12-08 18:00","2018","12","08","18:00","-1.6","","-5.2","","76","","26","","21","","","","100.65","","","","-7","","NA"
"2018-12-08 19:00","2018","12","08","19:00","-1.2","","-5.0","","75","","27","","18","","","","100.67","","","","-6","","NA"
"2018-12-08 20:00","2018","12","08","20:00","-1.0","","-5.0","","75","","27","","23","","","","100.67","","","","-7","","NA"
"2018-12-08 21:00","2018","12","08","21:00","-1.0","","-5.4","","72","","26","","25","","","","100.64","","","","-7","","NA"
"2018-12-08 22:00","2018","12","08","22:00","-1.0","","-5.9","","69","","26","","25","","","","100.61","","","","-7","","NA"
"2018-12-08 23:00","2018","12","08","23:00","-1.2","","-5.7","","71","","26","","26","","","","100.54","","","","-8","","NA"
"2018-12-09 00:00","2018","12","09","00:00","-1.4","","-5.8","","72","","25","","24","","","","100.50","","","","-8","","NA"
"2018-12-09 01:00","2018","12","09","01:00","-1.5","","-5.9","","72","","26","","25","","","","100.43","","","","-8","","NA"
"2018-12-09 02:00","2018","12","09","02:00","-1.3","","-5.9","","71","","27","","29","","","","100.35","","","","-8","","NA"
"2018-12-09 03:00","2018","12","09","03:00","-1.2","","-5.7","","71","","26","","29","","","","100.27","","","","-8","","NA"
"2018-12-09 04:00","2018","12","09","04:00","-1.3","","-5.3","","74","","27","","27","","","","100.18","","","","-8","","NA"
"2018-12-09 05:00","2018","12","09","05:00","-1.4","","-5.2","","75","","25","","25","","","","100.11","","","","-8","","NA"
"2018-12-09 06:00","2018","12","09","06:00","-1.1","","-4.6","","77","","26","","24","","","","100.04","","","","-7","","NA"
"2018-12-09 07:00","2018","12","09","07:00","-0.7","","-5.2","","72","","25","","32","","","","99.97","","","","-8","","NA"
"2018-12-09 08:00","2018","12","09","08:00","-0.7","","-5.4","","70","","25","","34","","","","99.90","","","","-8","","NA"
"2018-12-09 09:00","2018","12","09","09:00","-1.0","","-5.6","","71","","26","","30","","","","99.92","","","","-8","","NA"
"2018-12-09 10:00","2018","12","09","10:00","-1.4","","-5.5","","74","","29","","32","","","","99.89","","","","-9","","NA"
"2018-12-09 11:00","2018","12","09","11:00","-2.0","","-5.7","","76","","28","","40","","","","99.94","","","","-10","","NA"
"2018-12-09 12:00","2018","12","09","12:00","-1.7","","-5.7","","74","","28","","26","","","","99.88","","","","-8","","NA"
"2018-12-09 13:00","2018","12","09","13:00","-1.8","","-5.2","","77","","26","","22","","","","99.83","","","","-8","","NA"
"2018-12-09 14:00","2018","12","09","14:00","-1.1","","-4.5","","77","","28","","21","","","","99.82","","","","-7","","NA"
"2018-12-09 15:00","2018","12","09","15:00","-0.6","","-3.7","","80","","28","","25","","","","99.80","","","","-7","","NA"
"2018-12-09 16:00","2018","12","09","16:00","-0.1","","-3.3","","79","","29","","23","","","","99.82","","","","-6","","NA"
"2018-12-09 17:00","2018","12","09","17:00","-0.2","","-3.4","","79","","29","","23","","","","99.85","","","","-6","","NA"
"2018-12-09 18:00","2018","12","09","18:00","-0.1","","-4.1","","75","","30","","18","","","","99.89","","","","-5","","NA"
"2018-12-09 19:00","2018","12","09","19:00","-0.1","","-4.3","","73","","30","","14","","","","99.93","","","","-4","","NA"
"2018-12-09 20:00","2018","12","09","20:00","-0.4","","-4.4","","74","","30","","14","","","","99.94","","","","-5","","NA"
"2018-12-09 21:00","2018","12","09","21:00","-1.1","","-4.5","","78","","32","","10","","","","99.95","","","","-5","","NA"
"2018-12-09 22:00","2018","12","09","22:00","-1.8","","-4.6","","81","","33","","7","","","","99.94","","","","-4","","NA"
"2018-12-09 23:00","2018","12","09","23:00","-1.9","","-4.6","","82","","34","","8","","","","99.94","","","","-5","","NA"
"2018-12-10 00:00","2018","12","10","00:00","-2.2","","-4.6","","84","","2","","8","","","","99.97","","","","-5","","NA"
"2018-12-10 01:00","2018","12","10","01:00","-2.7","","-5.8","","79","","6","","8","","","","99.93","","","","-6","","NA"
"2018-12-10 02:00","2018","12","10","02:00","-3.3","","-7.7","","71","","5","","7","","","","99.93","","","","-6","","NA"
"2018-12-10 03:00","2018","12","10","03:00","-3.7","","-7.7","","74","","5","","5","","","","99.98","","","","-6","","NA"
"2018-12-10 04:00","2018","12","10","04:00","-4.0","","-8.6","","70","","6","","10","","","","99.94","","","","-8","","NA"
"2018-12-10 05:00","2018","12","10","05:00","-4.2","","-8.4","","73","","6","","7","","","","99.93","","","","-7","","NA"
"2018-12-10 06:00","2018","12","10","06:00","-4.2","","-8.3","","73","","9","","13","","","","99.94","","","","-9","","NA"
"2018-12-10 07:00","2018","12","10","07:00","-4.4","","-8.5","","73","","8","","14","","","","99.96","","","","-10","","NA"
"2018-12-10 08:00","2018","12","10","08:00","-4.7","","-8.6","","74","","8","","15","","","","99.98","","","","-10","","NA"
"2018-12-10 09:00","2018","12","10","09:00","-5.0","","-8.6","","76","","8","","16","","","","100.00","","","","-11","","NA"
"2018-12-10 10:00","2018","12","10","10:00","-5.1","","-8.6","","76","","9","","17","","","","100.00","","","","-11","","NA"
"2018-12-10 11:00","2018","12","10","11:00","-4.9","","-8.4","","77","","9","","19","","","","99.98","","","","-11","","NA"
"2018-12-10 12:00","2018","12","10","12:00","-4.6","","-7.5","","80","","10","","22","","","","99.89","","","","-11","","NA"
"2018-12-10 13:00","2018","12","10","13:00","-3.8","","-6.4","","82","","11","","25","","","","99.80","","","","-11","","NA"
"2018-12-10 14:00","2018","12","10","14:00","-3.2","","-5.9","","82","","12","","24","","","","99.72","","","","-10","","NA"
"2018-12-10 15:00","2018","12","10","15:00","-2.7","","-5.1","","83","","11","","25","","","","99.64","","","","-9","","NA"
"2018-12-10 16:00","2018","12","10","16:00","-2.3","","-4.4","","85","","11","","30","","","","99.58","","","","-9","","NA"
"2018-12-10 17:00","2018","12","10","17:00","-3.9","","-6.2","","84","","6","","13","","","","99.57","","","","-9","","NA"
"2018-12-10 18:00","2018","12","10","18:00","-4.2","","-6.7","","83","","7","","17","","","","99.53","","","","-10","","NA"
"2018-12-10 19:00","2018","12","10","19:00","-4.5","","-7.1","","82","","6","","10","","","","99.47","","","","-9","","NA"
"2018-12-10 20:00","2018","12","10","20:00","-4.2","","-6.9","","82","","5","","10","","","","99.40","","","","-8","","NA"
"2018-12-10 21:00","2018","12","10","21:00","-3.2","","-5.8","","82","","3","","6","","","","99.35","","","","-6","","NA"
"2018-12-10 22:00","2018","12","10","22:00","-0.2","","-3.2","","80","","26","","6","","","","99.27","","","","-2","","NA"
"2018-12-10 23:00","2018","12","10","23:00","1.3","","-2.5","","76","","22","","25","","","","99.17","","","","","","NA"
"2018-12-11 00:00","2018","12","11","00:00","1.4","","-2.4","","75","","21","","23","","","","99.14","","","","","","NA"
"2018-12-11 01:00","2018","12","11","01:00","1.5","","-2.5","","75","","20","","22","","","","99.06","","","","","","NA"
"2018-12-11 02:00","2018","12","11","02:00","1.5","","-3.6","","69","","23","","24","","","","99.03","","","","","","NA"
"2018-12-11 03:00","2018","12","11","03:00","1.1","","-3.5","","71","","24","","17","","","","99.02","","","","","","NA"
"2018-12-11 04:00","2018","12","11","04:00","0.8","","-3.8","","71","","24","","18","","","","98.97","","","","","","NA"
"2018-12-11 05:00","2018","12","11","05:00","0.5","","-3.3","","75","","24","","12","","","","98.93","","","","","","NA"
"2018-12-11 06:00","2018","12","11","06:00","0.7","","-3.3","","75","","25","","11","","","","98.92","","","","","","NA"
"2018-12-11 07:00","2018","12","11","07:00","0.9","","-3.3","","74","","24","","11","","","","98.93","","","","","","NA"
"2018-12-11 08:00","2018","12","11","08:00","0.7","","-3.5","","73","","30","","6","","","","98.93","","","","","","NA"
"2018-12-11 09:00","2018","12","11","09:00","0.6","","-3.0","","76","","29","","5","","","","98.94","","","","","","NA"
"2018-12-11 10:00","2018","12","11","10:00","0.3","","-2.8","","79","","31","","10","","","","98.97","","","","","","NA"
"2018-12-11 11:00","2018","12","11","11:00","-0.5","","-2.5","","86","","33","","11","","","","98.97","","","","-4","","NA"
"2018-12-11 12:00","2018","12","11","12:00","-0.3","","-2.9","","83","","30","","8","","","","98.92","","","","-3","","NA"
"2018-12-11 13:00","2018","12","11","13:00","-0.2","","-3.6","","78","","32","","10","","","","98.91","","","","-4","","NA"
"2018-12-11 14:00","2018","12","11","14:00","-0.1","","-3.7","","77","","31","","7","","","","98.90","","","","-3","","NA"
"2018-12-11 15:00","2018","12","11","15:00","-0.2","","-3.1","","81","","33","","8","","","","98.96","","","","-3","","NA"
"2018-12-11 16:00","2018","12","11","16:00","-0.6","","-3.5","","81","","2","","5","","","","99.05","","","","-2","","NA"
"2018-12-11 17:00","2018","12","11","17:00","-0.9","","-3.7","","81","","36","","8","","","","99.13","","","","-4","","NA"
"2018-12-11 18:00","2018","12","11","18:00","-1.0","","-3.8","","81","","1","","10","","","","99.20","","","","-5","","NA"
"2018-12-11 19:00","2018","12","11","19:00","-1.0","","-4.1","","79","","1","","16","","","","99.28","","","","-6","","NA"
"2018-12-11 20:00","2018","12","11","20:00","-1.2","","-4.5","","78","","2","","11","","","","99.34","","","","-5","","NA"
"2018-12-11 21:00","2018","12","11","21:00","-1.8","","-5.1","","78","","2","","9","","","","99.38","","","","-5","","NA"
"2018-12-11 22:00","2018","12","11","22:00","-2.5","","-5.8","","78","","1","","6","","","","99.42","","","","-5","","NA"
"2018-12-11 23:00","2018","12","11","23:00","-3.0","","-6.0","","80","","3","","5","","","","99.49","","","","-5","","NA"
"2018-12-12 00:00","2018","12","12","00:00","-3.0","","-6.2","","79","","29","","2","","","","99.56","","","","-4","","NA"
"2018-12-12 01:00","2018","12","12","01:00","-3.7","","-6.5","","81","","4","","6","","","","99.59","","","","-6","","NA"
"2018-12-12 02:00","2018","12","12","02:00","-4.2","","-6.8","","82","","5","","7","","","","99.57","","","","-7","","NA"
"2018-12-12 03:00","2018","12","12","03:00","-3.6","","-5.9","","84","","7","","13","","","","99.58","","","","-8","","NA"
"2018-12-12 04:00","2018","12","12","04:00","-4.2","","-6.7","","83","","3","","7","","","","99.67","","","","-7","","NA"
"2018-12-12 05:00","2018","12","12","05:00","-4.4","","-6.8","","83","","4","","5","","","","99.68","","","","-7","","NA"
"2018-12-12 06:00","2018","12","12","06:00","-5.3","","-8.1","","80","","7","","17","","","","99.68","","","","-11","","NA"
"2018-12-12 07:00","2018","12","12","07:00","-6.6","","-8.4","","87","","7","","15","","","","99.71","","","","-13","","NA"
"2018-12-12 08:00","2018","12","12","08:00","-6.3","","-8.3","","86","","7","","15","","","","99.70","","","","-12","","NA"
"2018-12-12 09:00","2018","12","12","09:00","-6.7","","-8.5","","87","","6","","14","","","","99.70","","","","-12","","NA"
"2018-12-12 10:00","2018","12","12","10:00","-6.5","","-8.4","","87","","6","","14","","","","99.70","","","","-12","","NA"
"2018-12-12 11:00","2018","12","12","11:00","-5.9","","-7.9","","86","","7","","17","","","","99.67","","","","-12","","NA"
"2018-12-12 12:00","2018","12","12","12:00","-5.1","","-7.3","","85","","8","","18","","","","99.61","","","","-11","","NA"
"2018-12-12 13:00","2018","12","12","13:00","-4.6","","-7.4","","81","","8","","21","","","","99.54","","","","-11","","NA"
"2018-12-12 14:00","2018","12","12","14:00","-4.1","","-7.1","","79","","7","","24","","","","99.44","","","","-11","","NA"
"2018-12-12 15:00","2018","12","12","15:00","-3.6","","-6.9","","78","","8","","21","","","","99.46","","","","-10","","NA"
"2018-12-12 16:00","2018","12","12","16:00","-3.5","","-7.2","","76","","8","","20","","","","99.48","","","","-10","","NA"
"2018-12-12 17:00","2018","12","12","17:00","-3.7","","-6.8","","79","","8","","22","","","","99.51","","","","-10","","NA"
"2018-12-12 18:00","2018","12","12","18:00","-3.8","","-6.4","","83","","7","","25","","","","99.46","","","","-11","","NA"
"2018-12-12 19:00","2018","12","12","19:00","-2.9","","-5.5","","82","","8","","31","","","","99.46","","","","-10","","NA"
"2018-12-12 20:00","2018","12","12","20:00","-2.6","","-5.1","","83","","9","","31","","","","99.53","","","","-10","","NA"
"2018-12-12 21:00","2018","12","12","21:00","-2.6","","-5.0","","83","","8","","26","","","","99.53","","","","-9","","NA"
"2018-12-12 22:00","2018","12","12","22:00","-2.4","","-5.0","","82","","9","","30","","","","99.54","","","","-10","","NA"
"2018-12-12 23:00","2018","12","12","23:00","-2.3","","-5.1","","81","","9","","34","","","","99.50","","","","-10","","NA"
"2018-12-13 00:00","2018","12","13","00:00","-2.0","","-4.5","","83","","10","","39","","","","99.52","","","","-10","","NA"
"2018-12-13 01:00","2018","12","13","01:00","-2.0","","-4.3","","84","","9","","35","","","","99.54","","","","-10","","NA"
"2018-12-13 02:00","2018","12","13","02:00","-1.6","","-4.2","","83","","10","","41","","","","99.58","","","","-10","","NA"
"2018-12-13 03:00","2018","12","13","03:00","-2.7","","-5.2","","83","","8","","26","","","","99.67","","","","-10","","NA"
"2018-12-13 04:00","2018","12","13","04:00","-3.0","","-5.5","","83","","8","","23","","","","99.73","","","","-9","","NA"
"2018-12-13 05:00","2018","12","13","05:00","-3.1","","-5.6","","83","","8","","24","","","","99.75","","","","-10","","NA"
"2018-12-13 06:00","2018","12","13","06:00","-3.3","","-5.9","","83","","7","","19","","","","99.79","","","","-9","","NA"
"2018-12-13 07:00","2018","12","13","07:00","-3.4","","-6.0","","82","","8","","22","","","","99.83","","","","-10","","NA"
"2018-12-13 08:00","2018","12","13","08:00","-3.6","","-6.4","","81","","9","","22","","","","99.93","","","","-10","","NA"
"2018-12-13 09:00","2018","12","13","09:00","-3.8","","-6.4","","82","","9","","24","","","","99.92","","","","-11","","NA"
"2018-12-13 10:00","2018","12","13","10:00","-3.7","","-6.5","","81","","9","","15","","","","100.07","","","","-9","","NA"
"2018-12-13 11:00","2018","12","13","11:00","-3.4","","-6.0","","82","","8","","21","","","","100.00","","","","-10","","NA"
"2018-12-13 12:00","2018","12","13","12:00","-3.0","","-5.5","","83","","9","","25","","","","99.97","","","","-10","","NA"
"2018-12-13 13:00","2018","12","13","13:00","-2.4","","-4.7","","84","","9","","24","","","","99.97","","","","-9","","NA"
"2018-12-13 14:00","2018","12","13","14:00","-1.8","","-3.8","","86","","8","","23","","","","99.92","","","","-8","","NA"
"2018-12-13 15:00","2018","12","13","15:00","-1.3","","-3.3","","86","","9","","28","","","","99.94","","","","-8","","NA"
"2018-12-13 16:00","2018","12","13","16:00","-1.2","","-3.3","","85","","9","","24","","","","99.98","","","","-7","","NA"
"2018-12-13 17:00","2018","12","13","17:00","-1.1","","-2.9","","87","","8","","24","","","","99.94","","","","-7","","NA"
"2018-12-13 18:00","2018","12","13","18:00","2.0","","0.7","","91","","11","","16","","","","99.99","","","","","","NA"
"2018-12-13 19:00","2018","12","13","19:00","2.8","","0.5","","85","","16","","22","","","","100.01","","","","","","NA"
"2018-12-13 20:00","2018","12","13","20:00","3.0","","0.3","","82","","16","","27","","","","100.01","","","","","","NA"
"2018-12-13 21:00","2018","12","13","21:00","2.9","","0.0","","81","","18","","27","","","","99.98","","","","","","NA"
"2018-12-13 22:00","2018","12","13","22:00","3.0","","0.2","","82","","18","","29","","","","99.94","","","","","","NA"
"2018-12-13 23:00","2018","12","13","23:00","2.9","","0.5","","84","","18","","30","","","","99.90","","","","","","NA"
"2018-12-14 00:00","2018","12","14","00:00","3.0","","0.3","","82","","17","","27","","","","99.82","","","","","","NA"
"2018-12-14 01:00","2018","12","14","01:00","3.0","","0.3","","83","","22","","17","","","","99.82","","","","","","NA"
"2018-12-14 02:00","2018","12","14","02:00","2.7","","0.4","","84","","21","","12","","","","99.83","","","","","","NA"
"2018-12-14 03:00","2018","12","14","03:00","3.1","","-1.0","","75","","21","","22","","","","99.85","","","","","","NA"
"2018-12-14 04:00","2018","12","14","04:00","2.2","","-0.3","","83","","23","","7","","","","99.83","","","","","","NA"
"2018-12-14 05:00","2018","12","14","05:00","2.4","","-0.3","","83","","23","","11","","","","99.77","","","","","","NA"
"2018-12-14 06:00","2018","12","14","06:00","2.6","","-0.6","","79","","25","","17","","","","99.83","","","","","","NA"
"2018-12-14 07:00","2018","12","14","07:00","0.9","","-0.5","","90","","24","","18","","","","99.84","","","","","","NA"
"2018-12-14 08:00","2018","12","14","08:00","0.4","","-0.5","","93","","25","","11","","","","99.85","","","","","","NA"
"2018-12-14 09:00","2018","12","14","09:00","0.7","","-0.2","","94","","27","","8","","","","99.87","","","","","","NA"
"2018-12-14 10:00","2018","12","14","10:00","1.2","","0.0","","92","","24","","13","","","","99.83","","","","","","NA"
"2018-12-14 11:00","2018","12","14","11:00","1.3","","0.3","","93","","24","","13","","","","99.77","","","","","","NA"
"2018-12-14 12:00","2018","12","14","12:00","1.8","","0.6","","92","","26","","16","","","","99.72","","","","","","NA"
"2018-12-14 13:00","2018","12","14","13:00","2.0","","0.3","","89","","23","","16","","","","99.64","","","","","","NA"
"2018-12-14 14:00","2018","12","14","14:00","2.5","","0.8","","89","","24","","10","","","","99.62","","","","","","NA"
"2018-12-14 15:00","2018","12","14","15:00","2.5","","1.1","","90","","22","","10","","","","99.62","","","","","","NA"
"2018-12-14 16:00","2018","12","14","16:00","3.0","","1.3","","89","","25","","10","","","","99.65","","","","","","NA"
"2018-12-14 17:00","2018","12","14","17:00","3.0","","1.2","","88","","24","","17","","","","99.61","","","","","","NA"
"2018-12-14 18:00","2018","12","14","18:00","2.5","","1.1","","91","","23","","18","","","","99.61","","","","","","NA"
"2018-12-14 19:00","2018","12","14","19:00","2.8","","1.2","","89","","27","","15","","","","99.64","","","","","","NA"
"2018-12-14 20:00","2018","12","14","20:00","2.3","","1.0","","91","","26","","18","","","","99.63","","","","","","NA"
"2018-12-14 21:00","2018","12","14","21:00","1.7","","0.6","","92","","26","","16","","","","99.64","","","","","","NA"
"2018-12-14 22:00","2018","12","14","22:00","1.3","","0.3","","93","","25","","13","","","","99.61","","","","","","NA"
"2018-12-14 23:00","2018","12","14","23:00","1.8","","-0.6","","84","","25","","14","","","","99.64","","","","","","NA"
"2018-12-15 00:00","2018","12","15","00:00","1.8","","-0.8","","83","","30","","15","","","","99.66","","","","","","NA"
"2018-12-15 01:00","2018","12","15","01:00","1.9","","-0.5","","85","","30","","19","","","","99.72","","","","","","NA"
"2018-12-15 02:00","2018","12","15","02:00","1.4","","-0.7","","86","","31","","16","","","","99.80","","","","","","NA"
"2018-12-15 03:00","2018","12","15","03:00","0.7","","-1.5","","85","","31","","15","","","","99.86","","","","","","NA"
"2018-12-15 04:00","2018","12","15","04:00","0.7","","-1.7","","84","","30","","12","","","","99.88","","","","","","NA"
"2018-12-15 05:00","2018","12","15","05:00","0.7","","-1.7","","84","","29","","11","","","","99.96","","","","","","NA"
"2018-12-15 06:00","2018","12","15","06:00","0.2","","-1.5","","88","","31","","8","","","","100.05","","","","","","NA"
"2018-12-15 07:00","2018","12","15","07:00","0.5","","-2.0","","83","","31","","13","","","","100.06","","","","","","NA"
"2018-12-15 08:00","2018","12","15","08:00","0.8","","-2.2","","80","","36","","7","","","","100.08","","","","","","NA"
"2018-12-15 09:00","2018","12","15","09:00","1.0","","-2.2","","80","","14","","3","","","","100.12","","","","","","NA"
"2018-12-15 10:00","2018","12","15","10:00","2.4","","-1.9","","73","","11","","2","","","","100.20","","","","","","NA"
"2018-12-15 11:00","2018","12","15","11:00","1.3","","-1.1","","84","","8","","7","","","","100.19","","","","","","NA"
"2018-12-15 12:00","2018","12","15","12:00","0.8","","-1.1","","88","","13","","9","","","","100.16","","","","","","NA"
"2018-12-15 13:00","2018","12","15","13:00","1.5","","-1.0","","83","","12","","6","","","","100.12","","","","","","NA"
"2018-12-15 14:00","2018","12","15","14:00","1.5","","-1.2","","82","","12","","6","","","","100.08","","","","","","NA"
"2018-12-15 15:00","2018","12","15","15:00","1.9","","-1.2","","80","","11","","4","","","","100.11","","","","","","NA"
"2018-12-15 16:00","2018","12","15","16:00","1.3","","-1.5","","82","","10","","5","","","","100.12","","","","","","NA"
"2018-12-15 17:00","2018","12","15","17:00","0.5","","-1.2","","88","","14","","6","","","","100.23","","","","","","NA"
"2018-12-15 18:00","2018","12","15","18:00","0.3","","-1.3","","89","","3","","6","","","","100.18","","","","","","NA"
"2018-12-15 19:00","2018","12","15","19:00","0.6","","-1.3","","87","","3","","2","","","","100.22","","","","","","NA"
"2018-12-15 20:00","2018","12","15","20:00","0.6","","-1.9","","84","","5","","5","","","","100.19","","","","","","NA"
"2018-12-15 21:00","2018","12","15","21:00","0.2","","-2.2","","84","","4","","10","","","","100.12","","","","","","NA"
"2018-12-15 22:00","2018","12","15","22:00","-0.3","","-2.7","","84","","6","","6","","","","100.11","","","","-2","","NA"
"2018-12-15 23:00","2018","12","15","23:00","-0.5","","-2.8","","84","","6","","6","","","","100.08","","","","-3","","NA"
"2018-12-16 00:00","2018","12","16","00:00","-1.1","","-3.0","","87","","6","","6","","","","100.04","","","","-3","","NA"
"2018-12-16 01:00","2018","12","16","01:00","-1.4","","-3.0","","88","","8","","7","","","","99.99","","","","-4","","NA"
"2018-12-16 02:00","2018","12","16","02:00","-1.2","","-2.9","","88","","5","","9","","","","99.96","","","","-4","","NA"
"2018-12-16 03:00","2018","12","16","03:00","-1.2","","-2.7","","89","","6","","5","","","","99.92","","","","-3","","NA"
"2018-12-16 04:00","2018","12","16","04:00","-0.5","","-2.2","","88","","7","","7","","","","99.86","","","","-3","","NA"
"2018-12-16 05:00","2018","12","16","05:00","-1.3","","-2.5","","92","","7","","8","","","","99.87","","","","-4","","NA"
"2018-12-16 06:00","2018","12","16","06:00","-1.1","","-2.2","","92","","6","","11","","","","99.77","","","","-5","","NA"
"2018-12-16 07:00","2018","12","16","07:00","-1.6","","-2.5","","93","","8","","18","","","","99.69","","","","-7","","NA"
"2018-12-16 08:00","2018","12","16","08:00","-1.6","","-2.7","","93","","8","","18","","","","99.65","","","","-7","","NA"
"2018-12-16 09:00","2018","12","16","09:00","-0.7","","-2.4","","89","","7","","13","","","","99.61","","","","-5","","NA"
"2018-12-16 10:00","2018","12","16","10:00","1.3","","-1.1","","84","","6","","8","","","","99.56","","","","","","NA"
"2018-12-16 11:00","2018","12","16","11:00","0.7","","-1.0","","88","","8","","12","","","","99.42","","","","","","NA"
"2018-12-16 12:00","2018","12","16","12:00","1.3","","-0.2","","90","","10","","8","","","","99.35","","","","","","NA"
"2018-12-16 13:00","2018","12","16","13:00","2.8","","0.4","","84","","17","","15","","","","99.23","","","","","","NA"
"2018-12-16 14:00","2018","12","16","14:00","2.9","","0.5","","84","","15","","12","","","","99.14","","","","","","NA"
"2018-12-16 15:00","2018","12","16","15:00","2.4","","0.2","","86","","12","","9","","","","99.06","","","","","","NA"
"2018-12-16 16:00","2018","12","16","16:00","2.7","","0.2","","84","","19","","12","","","","99.01","","","","","","NA"
"2018-12-16 17:00","2018","12","16","17:00","2.5","","1.0","","90","","16","","16","","","","98.91","","","","","","NA"
"2018-12-16 18:00","2018","12","16","18:00","2.6","","1.0","","89","","20","","15","","","","98.94","","","","","","NA"
"2018-12-16 19:00","2018","12","16","19:00","2.1","","0.5","","90","","21","","5","","","","98.85","","","","","","NA"
"2018-12-16 20:00","2018","12","16","20:00","2.0","","0.6","","90","","24","","5","","","","98.76","","","","","","NA"
"2018-12-16 21:00","2018","12","16","21:00","1.7","","0.6","","92","","25","","5","","","","98.70","","","","","","NA"
"2018-12-16 22:00","2018","12","16","22:00","1.5","","0.6","","93","","29","","7","","","","98.67","","","","","","NA"
"2018-12-16 23:00","2018","12","16","23:00","0.9","","0.0","","94","","28","","2","","","","98.61","","","","","","NA"
"2018-12-17 00:00","2018","12","17","00:00","1.1","","-0.1","","92","","32","","11","","","","98.56","","","","","","NA"
"2018-12-17 01:00","2018","12","17","01:00","1.3","","-0.1","","90","","27","","14","","","","98.50","","","","","","NA"
"2018-12-17 02:00","2018","12","17","02:00","1.1","","-1.2","","85","","26","","16","","","","98.46","","","","","","NA"
"2018-12-17 03:00","2018","12","17","03:00","1.7","","-1.2","","81","","28","","17","","","","98.49","","","","","","NA"
"2018-12-17 04:00","2018","12","17","04:00","1.6","","-2.5","","74","","31","","17","","","","98.51","","","","","","NA"
"2018-12-17 05:00","2018","12","17","05:00","1.8","","-3.9","","66","","31","","18","","","","98.55","","","","","","NA"
"2018-12-17 06:00","2018","12","17","06:00","1.5","","-3.9","","67","","31","","19","","","","98.61","","","","","","NA"
"2018-12-17 07:00","2018","12","17","07:00","1.2","","-4.2","","67","","31","","19","","","","98.68","","","","","","NA"
"2018-12-17 08:00","2018","12","17","08:00","0.8","","-5.2","","64","","31","","17","","","","98.74","","","","","","NA"
"2018-12-17 09:00","2018","12","17","09:00","0.7","","-5.3","","64","","31","","17","","","","98.87","","","","","","NA"
"2018-12-17 10:00","2018","12","17","10:00","0.5","","-5.4","","64","","31","","22","","","","98.96","","","","","","NA"
"2018-12-17 11:00","2018","12","17","11:00","0.2","","-7.8","","55","","33","","20","","","","99.02","","","","","","NA"
"2018-12-17 12:00","2018","12","17","12:00","0.1","","-8.6","","52","","33","","20","","","","99.03","","","","","","NA"
"2018-12-17 13:00","2018","12","17","13:00","-0.5","","-8.6","","54","","34","","16","","","","99.07","","","","-5","","NA"
"2018-12-17 14:00","2018","12","17","14:00","-1.2","","-9.8","","52","","35","","16","","","","99.12","","","","-6","","NA"
"2018-12-17 15:00","2018","12","17","15:00","-1.5","","-10.0","","52","","34","","13","","","","99.22","","","","-6","","NA"
"2018-12-17 16:00","2018","12","17","16:00","-2.1","","-10.1","","54","","32","","15","","","","99.29","","","","-7","","NA"
"2018-12-17 17:00","2018","12","17","17:00","-2.6","","-9.5","","59","","32","","9","","","","99.43","","","","-6","","NA"
"2018-12-17 18:00","2018","12","17","18:00","-3.0","","-10.0","","58","","33","","13","","","","99.50","","","","-8","","NA"
"2018-12-17 19:00","2018","12","17","19:00","-3.8","","-10.2","","61","","33","","12","","","","99.53","","","","-8","","NA"
"2018-12-17 20:00","2018","12","17","20:00","-4.5","","-10.4","","63","","33","","10","","","","99.59","","","","-9","","NA"
"2018-12-17 21:00","2018","12","17","21:00","-5.4","","-11.3","","63","","34","","5","","","","99.68","","","","-8","","NA"
"2018-12-17 22:00","2018","12","17","22:00","-6.0","","-11.2","","67","","34","","5","","","","99.71","","","","-8","","NA"
"2018-12-17 23:00","2018","12","17","23:00","-6.1","","-11.3","","67","","34","","11","","","","99.76","","","","-11","","NA"
"2018-12-18 00:00","2018","12","18","00:00","-6.7","","-11.8","","67","","36","","8","","","","99.81","","","","-11","","NA"
"2018-12-18 01:00","2018","12","18","01:00","-7.2","","-12.3","","67","","35","","9","","","","99.87","","","","-12","","NA"
"2018-12-18 02:00","2018","12","18","02:00","-7.5","","-12.5","","67","","36","","11","","","","99.92","","","","-13","","NA"
"2018-12-18 03:00","2018","12","18","03:00","-7.9","","-12.8","","68","","3","","6","","","","99.98","","","","-11","","NA"
"2018-12-18 04:00","2018","12","18","04:00","-8.4","","-12.7","","71","","2","","7","","","","100.00","","","","-12","","NA"
"2018-12-18 05:00","2018","12","18","05:00","-8.9","","-13.0","","72","","34","","4","","","","100.10","","","","-11","","NA"
"2018-12-18 06:00","2018","12","18","06:00","-9.7","","-13.5","","74","","36","","6","","","","100.16","","","","-13","","NA"
"2018-12-18 07:00","2018","12","18","07:00","-10.5","","-13.6","","78","","1","","8","","","","100.17","","","","-15","","NA"
"2018-12-18 08:00","2018","12","18","08:00","-11.0","","-13.9","","79","","2","","4","","","","100.18","","","","-13","","NA"
"2018-12-18 09:00","2018","12","18","09:00","-9.6","","-13.9","","71","","3","","7","","","","100.19","","","","-14","","NA"
"2018-12-18 10:00","2018","12","18","10:00","-8.4","","-12.8","","70","","8","","10","","","","100.20","","","","-13","","NA"
"2018-12-18 11:00","2018","12","18","11:00","-8.2","","-12.3","","73","","12","","9","","","","100.19","","","","-13","","NA"
"2018-12-18 12:00","2018","12","18","12:00","-7.8","","-11.8","","73","","12","","4","","","","100.16","","","","-10","","NA"
"2018-12-18 13:00","2018","12","18","13:00","-7.6","","-10.9","","77","","9","","8","","","","100.03","","","","-12","","NA"
"2018-12-18 14:00","2018","12","18","14:00","-6.8","","-10.0","","78","","8","","6","","","","99.97","","","","-10","","NA"
"2018-12-18 15:00","2018","12","18","15:00","-5.7","","-8.8","","79","","6","","8","","","","99.89","","","","-9","","NA"
"2018-12-18 16:00","2018","12","18","16:00","-4.3","","-8.4","","73","","19","","18","","","","99.82","","","","-10","","NA"
"2018-12-18 17:00","2018","12","18","17:00","-3.5","","-7.6","","73","","20","","13","","","","99.76","","","","-8","","NA"
"2018-12-18 18:00","2018","12","18","18:00","-2.9","","-6.4","","77","","16","","13","","","","99.70","","","","-8","","NA"
"2018-12-18 19:00","2018","12","18","19:00","-1.1","","-5.6","","72","","20","","26","","","","99.56","","","","-7","","NA"
"2018-12-18 20:00","2018","12","18","20:00","-0.1","","-4.4","","73","","19","","32","","","","99.43","","","","-7","","NA"
"2018-12-18 21:00","2018","12","18","21:00","0.3","","-3.9","","74","","21","","32","","","","99.35","","","","","","NA"
"2018-12-18 22:00","2018","12","18","22:00","0.8","","-3.0","","76","","21","","36","","","","99.25","","","","","","NA"
"2018-12-18 23:00","2018","12","18","23:00","1.3","","-2.8","","74","","22","","31","","","","99.17","","","","","","NA"
"2018-12-19 00:00","2018","12","19","00:00","1.2","","-2.7","","76","","26","","14","","","","99.12","","","","","","NA"
"2018-12-19 01:00","2018","12","19","01:00","1.6","","-2.1","","76","","24","","21","","","","99.04","","","","","","NA"
"2018-12-19 02:00","2018","12","19","02:00","1.7","","-2.1","","76","","25","","12","","","","99.03","","","","","","NA"
"2018-12-19 03:00","2018","12","19","03:00","1.8","","-2.2","","75","","25","","14","","","","99.01","","","","","","NA"
"2018-12-19 04:00","2018","12","19","04:00","1.6","","-2.2","","75","","24","","13","","","","98.98","","","","","","NA"
"2018-12-19 05:00","2018","12","19","05:00","1.6","","-1.7","","78","","24","","14","","","","98.94","","","","","","NA"
"2018-12-19 06:00","2018","12","19","06:00","1.6","","-1.6","","80","","24","","13","","","","98.92","","","","","","NA"
"2018-12-19 07:00","2018","12","19","07:00","1.2","","-1.9","","80","","31","","5","","","","98.92","","","","","","NA"
"2018-12-19 08:00","2018","12","19","08:00","1.3","","-1.5","","81","","24","","5","","","","98.89","","","","","","NA"
"2018-12-19 09:00","2018","12","19","09:00","1.8","","-1.0","","82","","5","","2","","","","98.90","","","","","","NA"
"2018-12-19 10:00","2018","12","19","10:00","1.9","","-0.8","","83","","23","","12","","","","98.88","","","","","","NA"
"2018-12-19 11:00","2018","12","19","11:00","2.2","","-0.5","","82","","23","","15","","","","98.81","","","","","","NA"
"2018-12-19 12:00","2018","12","19","12:00","2.6","","-0.1","","82","","22","","19","","","","98.73","","","","","","NA"
"2018-12-19 13:00","2018","12","19","13:00","2.8","","-0.1","","81","","22","","19","","","","98.69","","","","","","NA"
"2018-12-19 14:00","2018","12","19","14:00","3.1","","0.1","","81","","23","","16","","","","98.64","","","","","","NA"
"2018-12-19 15:00","2018","12","19","15:00","2.7","","0.1","","83","","22","","18","","","","98.63","","","","","","NA"
"2018-12-19 16:00","2018","12","19","16:00","2.6","","0.8","","87","","23","","6","","","","98.66","","","","","","NA"
"2018-12-19 17:00","2018","12","19","17:00","3.2","","0.5","","82","","24","","3","","","","98.70","","","","","","NA"
"2018-12-19 18:00","2018","12","19","18:00","2.7","","0.6","","86","","8","","3","","","","98.72","","","","","","NA"
"2018-12-19 19:00","2018","12","19","19:00","3.2","","0.7","","84","","16","","11","","","","98.72","","","","","","NA"
"2018-12-19 20:00","2018","12","19","20:00","3.3","","0.7","","84","","17","","6","","","","98.74","","","","","","NA"
"2018-12-19 21:00","2018","12","19","21:00","3.0","","0.7","","85","","9","","5","","","","98.71","","","","","","NA"
"2018-12-19 22:00","2018","12","19","22:00","3.0","","0.7","","84","","8","","6","","","","98.69","","","","","","NA"
"2018-12-19 23:00","2018","12","19","23:00","2.4","","0.9","","90","","7","","9","","","","98.68","","","","","","NA"
"2018-12-20 00:00","2018","12","20","00:00","3.2","","1.2","","87","","18","","6","","","","98.68","","","","","","NA"
"2018-12-20 01:00","2018","12","20","01:00","3.9","","1.2","","83","","20","","18","","","","98.69","","","","","","NA"
"2018-12-20 02:00","2018","12","20","02:00","3.1","","0.9","","86","","19","","8","","","","98.67","","","","","","NA"
"2018-12-20 03:00","2018","12","20","03:00","4.3","","0.3","","75","","21","","12","","","","98.71","","","","","","NA"
"2018-12-20 04:00","2018","12","20","04:00","3.7","","0.7","","81","","20","","13","","","","98.65","","","","","","NA"
"2018-12-20 05:00","2018","12","20","05:00","3.3","","1.2","","86","","17","","14","","","","98.62","","","","","","NA"
"2018-12-20 06:00","2018","12","20","06:00","3.6","","1.9","","89","","18","","21","","","","98.63","","","","","","NA"
"2018-12-20 07:00","2018","12","20","07:00","3.2","","1.9","","91","","16","","17","","","","98.65","","","","","","NA"
"2018-12-20 08:00","2018","12","20","08:00","3.1","","1.7","","90","","13","","17","","","","98.60","","","","","","NA"
"2018-12-20 09:00","2018","12","20","09:00","3.2","","1.6","","89","","15","","12","","","","98.69","","","","","","NA"
"2018-12-20 10:00","2018","12","20","10:00","2.9","","1.1","","88","","11","","7","","","","98.76","","","","","","NA"
"2018-12-20 11:00","2018","12","20","11:00","2.9","","1.1","","88","","7","","9","","","","98.69","","","","","","NA"
"2018-12-20 12:00","2018","12","20","12:00","2.9","","1.3","","89","","13","","13","","","","98.71","","","","","","NA"
"2018-12-20 13:00","2018","12","20","13:00","2.3","","0.7","","89","","10","","12","","","","98.65","","","","","","NA"
"2018-12-20 14:00","2018","12","20","14:00","2.8","","1.5","","91","","7","","12","","","","98.55","","","","","","NA"
"2018-12-20 15:00","2018","12","20","15:00","1.9","","1.0","","94","","9","","15","","","","98.49","","","","","","NA"
"2018-12-20 16:00","2018","12","20","16:00","1.8","","0.9","","94","","9","","18","","","","98.49","","","","","","NA"
"2018-12-20 17:00","2018","12","20","17:00","2.1","","1.2","","94","","8","","13","","","","98.52","","","","","","NA"
"2018-12-20 18:00","2018","12","20","18:00","2.0","","0.9","","93","","8","","12","","","","98.54","","","","","","NA"
"2018-12-20 19:00","2018","12","20","19:00","2.4","","0.9","","90","","8","","16","","","","98.49","","","","","","NA"
"2018-12-20 20:00","2018","12","20","20:00","2.5","","1.0","","90","","7","","14","","","","98.46","","","","","","NA"
"2018-12-20 21:00","2018","12","20","21:00","2.3","","0.6","","88","","6","","11","","","","98.33","","","","","","NA"
"2018-12-20 22:00","2018","12","20","22:00","2.3","","-0.3","","83","","7","","12","","","","98.29","","","","","","NA"
"2018-12-20 23:00","2018","12","20","23:00","2.5","","-0.6","","80","","6","","10","","","","98.22","","","","","","NA"
"2018-12-21 00:00","2018","12","21","00:00","2.6","","-0.8","","78","","6","","11","","","","98.09","","","","","","NA"
"2018-12-21 01:00","2018","12","21","01:00","2.4","","-1.0","","78","","7","","13","","","","98.00","","","","","","NA"
"2018-12-21 02:00","2018","12","21","02:00","1.9","","-0.9","","82","","6","","12","","","","97.93","","","","","","NA"
"2018-12-21 03:00","2018","12","21","03:00","1.4","","-0.5","","87","","5","","11","","","","97.81","","","","","","NA"
"2018-12-21 04:00","2018","12","21","04:00","1.8","","0.3","","90","","6","","7","","","","97.70","","","","","","NA"
"2018-12-21 05:00","2018","12","21","05:00","1.7","","0.5","","92","","4","","8","","","","97.63","","","","","","NA"
"2018-12-21 06:00","2018","12","21","06:00","2.0","","0.6","","91","","1","","11","","","","97.59","","","","","","NA"
"2018-12-21 07:00","2018","12","21","07:00","1.1","","-0.1","","92","","36","","9","","","","97.54","","","","","","NA"
"2018-12-21 08:00","2018","12","21","08:00","1.0","","-0.2","","92","","35","","12","","","","97.43","","","","","","NA"
"2018-12-21 09:00","2018","12","21","09:00","1.5","","0.0","","89","","1","","18","","","","97.38","","","","","","NA"
"2018-12-21 10:00","2018","12","21","10:00","1.2","","-0.2","","91","","1","","15","","","","97.38","","","","","","NA"
"2018-12-21 11:00","2018","12","21","11:00","0.9","","-0.6","","90","","35","","14","","","","97.35","","","","","","NA"
"2018-12-21 12:00","2018","12","21","12:00","-0.4","","-1.8","","90","","35","","18","","","","97.27","","","","-5","","NA"
"2018-12-21 13:00","2018","12","21","13:00","-1.4","","-2.7","","91","","35","","18","","","","97.24","","","","-7","","NA"
"2018-12-21 14:00","2018","12","21","14:00","-2.1","","-4.2","","86","","35","","19","","","","97.28","","","","-8","","NA"
"2018-12-21 15:00","2018","12","21","15:00","-2.3","","-5.0","","82","","35","","21","","","","97.32","","","","-8","","NA"
"2018-12-21 16:00","2018","12","21","16:00","-2.7","","-5.8","","79","","36","","20","","","","97.39","","","","-9","","NA"
"2018-12-21 17:00","2018","12","21","17:00","-3.3","","-6.8","","77","","36","","22","","","","97.46","","","","-10","","NA"
"2018-12-21 18:00","2018","12","21","18:00","-3.9","","-7.3","","77","","35","","21","","","","97.54","","","","-10","","NA"
"2018-12-21 19:00","2018","12","21","19:00","-4.3","","-7.5","","78","","34","","21","","","","97.61","","","","-11","","NA"
"2018-12-21 20:00","2018","12","21","20:00","-4.7","","-8.1","","77","","35","","19","","","","97.66","","","","-11","","NA"
"2018-12-21 21:00","2018","12","21","21:00","-5.4","","-8.8","","77","","34","","24","","","","97.68","","","","-13","","NA"
"2018-12-21 22:00","2018","12","21","22:00","-6.1","","-9.4","","77","","35","","25","","","","97.66","","","","-14","","NA"
"2018-12-21 23:00","2018","12","21","23:00","-6.4","","-9.9","","76","","34","","23","","","","97.71","","","","-14","","NA"
"2018-12-22 00:00","2018","12","22","00:00","-6.6","","-10.3","","75","","34","","22","","","","97.74","","","","-14","","NA"
"2018-12-22 01:00","2018","12","22","01:00","-7.0","","-10.4","","77","","35","","16","","","","97.78","","","","-13","","NA"
"2018-12-22 02:00","2018","12","22","02:00","-7.4","","-11.0","","76","","33","","9","","","","97.89","","","","-12","","NA"
"2018-12-22 03:00","2018","12","22","03:00","-7.7","","-11.3","","75","","30","","13","","","","98.02","","","","-13","","NA"
"2018-12-22 04:00","2018","12","22","04:00","-8.0","","-11.7","","74","","31","","12","","","","98.11","","","","-13","","NA"
"2018-12-22 05:00","2018","12","22","05:00","-8.8","","-12.4","","75","","31","","6","","","","98.18","","","","-12","","NA"
"2018-12-22 06:00","2018","12","22","06:00","-9.5","","-13.0","","75","","34","","11","","","","98.27","","","","-15","","NA"
"2018-12-22 07:00","2018","12","22","07:00","-10.4","","-14.2","","74","","34","","13","","","","98.39","","","","-17","","NA"
"2018-12-22 08:00","2018","12","22","08:00","-10.9","","-14.5","","75","","34","","11","","","","98.52","","","","-17","","NA"
"2018-12-22 09:00","2018","12","22","09:00","-10.4","","-14.3","","73","","34","","12","","","","98.60","","","","-16","","NA"
"2018-12-22 10:00","2018","12","22","10:00","-9.8","","-14.1","","71","","34","","13","","","","98.68","","","","-16","","NA"
"2018-12-22 11:00","2018","12","22","11:00","-9.1","","-13.8","","69","","33","","12","","","","98.74","","","","-15","","NA"
"2018-12-22 12:00","2018","12","22","12:00","-8.6","","-12.9","","71","","31","","20","","","","98.77","","","","-16","","NA"
"2018-12-22 13:00","2018","12","22","13:00","-8.2","","-13.2","","67","","34","","14","","","","98.77","","","","-14","","NA"
"2018-12-22 14:00","2018","12","22","14:00","-7.3","","-12.4","","67","","33","","11","","","","98.84","","","","-12","","NA"
"2018-12-22 15:00","2018","12","22","15:00","-7.3","","-12.2","","68","","33","","11","","","","98.99","","","","-12","","NA"
"2018-12-22 16:00","2018","12","22","16:00","-7.0","","-12.1","","67","","1","","12","","","","99.05","","","","-12","","NA"
"2018-12-22 17:00","2018","12","22","17:00","-7.9","","-12.3","","71","","36","","7","","","","99.14","","","","-12","","NA"
"2018-12-22 18:00","2018","12","22","18:00","-9.2","","-12.5","","77","","2","","8","","","","99.22","","","","-14","","NA"
"2018-12-22 19:00","2018","12","22","19:00","-9.8","","-13.3","","76","","1","","5","","","","99.31","","","","-13","","NA"
"2018-12-22 20:00","2018","12","22","20:00","-10.5","","-13.7","","77","","1","","9","","","","99.40","","","","-15","","NA"
"2018-12-22 21:00","2018","12","22","21:00","-10.9","","-14.3","","76","","36","","3","","","","99.45","","","","-13","","NA"
"2018-12-22 22:00","2018","12","22","22:00","-11.2","","-14.7","","76","","6","","7","","","","99.54","","","","-15","","NA"
"2018-12-22 23:00","2018","12","22","23:00","-12.0","","-15.0","","78","","4","","8","","","","99.57","","","","-17","","NA"
"2018-12-23 00:00","2018","12","23","00:00","-11.9","","-15.0","","78","","3","","7","","","","99.59","","","","-16","","NA"
"2018-12-23 01:00","2018","12","23","01:00","-11.9","","-14.8","","79","","4","","5","","","","99.60","","","","-15","","NA"
"2018-12-23 02:00","2018","12","23","02:00","-12.1","","-14.9","","79","","4","","6","","","","99.62","","","","-16","","NA"
"2018-12-23 03:00","2018","12","23","03:00","-11.9","","-14.9","","78","","5","","11","","","","99.64","","","","-18","","NA"
"2018-12-23 04:00","2018","12","23","04:00","-12.2","","-15.0","","80","","6","","12","","","","99.62","","","","-19","","NA"
"2018-12-23 05:00","2018","12","23","05:00","-12.3","","-14.7","","82","","6","","12","","","","99.61","","","","-19","","NA"
"2018-12-23 06:00","2018","12","23","06:00","-12.2","","-14.4","","84","","6","","12","","","","99.61","","","","-19","","NA"
"2018-12-23 07:00","2018","12","23","07:00","-12.3","","-14.7","","82","","6","","15","","","","99.66","","","","-20","","NA"
"2018-12-23 08:00","2018","12","23","08:00","-12.1","","-14.5","","83","","7","","18","","","","99.69","","","","-20","","NA"
"2018-12-23 09:00","2018","12","23","09:00","-12.3","","-14.8","","81","","6","","16","","","","99.71","","","","-20","","NA"
"2018-12-23 10:00","2018","12","23","10:00","-11.8","","-14.1","","83","","7","","19","","","","99.70","","","","-20","","NA"
"2018-12-23 11:00","2018","12","23","11:00","-11.3","","-13.9","","81","","6","","13","","","","99.68","","","","-18","","NA"
"2018-12-23 12:00","2018","12","23","12:00","-10.9","","-14.3","","76","","5","","10","","","","99.60","","","","-16","","NA"
"2018-12-23 13:00","2018","12","23","13:00","-10.7","","-14.0","","76","","6","","10","","","","99.47","","","","-16","","NA"
"2018-12-23 14:00","2018","12","23","14:00","-10.2","","-13.1","","79","","7","","11","","","","99.45","","","","-16","","NA"
"2018-12-23 15:00","2018","12","23","15:00","-9.6","","-12.0","","83","","7","","14","","","","99.45","","","","-16","","NA"
"2018-12-23 16:00","2018","12","23","16:00","-9.3","","-11.9","","81","","6","","14","","","","99.43","","","","-16","","NA"
"2018-12-23 17:00","2018","12","23","17:00","-9.1","","-11.7","","82","","6","","12","","","","99.39","","","","-15","","NA"
"2018-12-23 18:00","2018","12","23","18:00","-8.7","","-11.4","","81","","6","","10","","","","99.39","","","","-14","","NA"
"2018-12-23 19:00","2018","12","23","19:00","-8.7","","-11.6","","79","","6","","16","","","","99.40","","","","-15","","NA"
"2018-12-23 20:00","2018","12","23","20:00","-9.1","","-11.6","","82","","6","","11","","","","99.40","","","","-15","","NA"
"2018-12-23 21:00","2018","12","23","21:00","-8.9","","-11.0","","85","","6","","10","","","","99.37","","","","-14","","NA"
"2018-12-23 22:00","2018","12","23","22:00","-8.0","","-9.8","","87","","5","","11","","","","99.35","","","","-13","","NA"
"2018-12-23 23:00","2018","12","23","23:00","-7.4","","-9.0","","88","","6","","9","","","","99.33","","","","-12","","NA"
"2018-12-24 00:00","2018","12","24","00:00","-7.3","","-8.9","","88","","6","","10","","","","99.25","","","","-12","","NA"
"2018-12-24 01:00","2018","12","24","01:00","-6.8","","-8.4","","88","","5","","6","","","","99.23","","","","-10","","NA"
"2018-12-24 02:00","2018","12","24","02:00","-7.0","","-8.4","","90","","30","","5","","","","99.25","","","","-10","","NA"
"2018-12-24 03:00","2018","12","24","03:00","-7.5","","-8.7","","91","","31","","4","","","","99.27","","","","-10","","NA"
"2018-12-24 04:00","2018","12","24","04:00","-7.6","","-8.9","","91","","35","","4","","","","99.24","","","","-10","","NA"
"2018-12-24 05:00","2018","12","24","05:00","-7.2","","-8.5","","91","","33","","4","","","","99.24","","","","-9","","NA"
"2018-12-24 06:00","2018","12","24","06:00","-7.1","","-8.4","","91","","2","","5","","","","99.26","","","","-10","","NA"
"2018-12-24 07:00","2018","12","24","07:00","-6.9","","-8.1","","91","","3","","5","","","","99.28","","","","-9","","NA"
"2018-12-24 08:00","2018","12","24","08:00","-7.3","","-8.5","","91","","2","","7","","","","99.32","","","","-11","","NA"
"2018-12-24 09:00","2018","12","24","09:00","-7.8","","-9.1","","90","","35","","5","","","","99.38","","","","-10","","NA"
"2018-12-24 10:00","2018","12","24","10:00","-8.0","","-9.4","","90","","2","","7","","","","99.43","","","","-12","","NA"
"2018-12-24 11:00","2018","12","24","11:00","-6.8","","-8.3","","89","","1","","7","","","","99.47","","","","-10","","NA"
"2018-12-24 12:00","2018","12","24","12:00","-6.3","","-8.3","","86","","5","","7","","","","99.45","","","","-10","","NA"
"2018-12-24 13:00","2018","12","24","13:00","-5.5","","-8.5","","79","","2","","7","","","","99.48","","","","-9","","NA"
"2018-12-24 14:00","2018","12","24","14:00","-5.9","","-9.5","","76","","33","","14","","","","99.54","","","","-11","","NA"
"2018-12-24 15:00","2018","12","24","15:00","-6.5","","-10.3","","75","","34","","9","","","","99.67","","","","-11","","NA"
"2018-12-24 16:00","2018","12","24","16:00","-6.3","","-10.4","","73","","2","","1","","","","99.73","","","","-7","","NA"
"2018-12-24 17:00","2018","12","24","17:00","-6.4","","-9.9","","76","","2","","4","","","","99.81","","","","-8","","NA"
"2018-12-24 18:00","2018","12","24","18:00","-6.8","","-10.1","","77","","4","","7","","","","99.91","","","","-10","","NA"
"2018-12-24 19:00","2018","12","24","19:00","-7.2","","-10.7","","76","","3","","2","","","","99.99","","","","-8","","NA"
"2018-12-24 20:00","2018","12","24","20:00","-7.6","","-11.1","","76","","4","","6","","","","100.01","","","","-11","","NA"
"2018-12-24 21:00","2018","12","24","21:00","-8.9","","-12.3","","76","","5","","7","","","","100.03","","","","-13","","NA"
"2018-12-24 22:00","2018","12","24","22:00","-9.6","","-12.7","","78","","6","","8","","","","100.10","","","","-14","","NA"
"2018-12-24 23:00","2018","12","24","23:00","-10.5","","-13.1","","81","","5","","9","","","","100.16","","","","-15","","NA"
"2018-12-25 00:00","2018","12","25","00:00","-10.9","","-13.7","","80","","5","","9","","","","100.16","","","","-16","","NA"
"2018-12-25 01:00","2018","12","25","01:00","-10.5","","-13.4","","79","","8","","16","","","","100.19","","","","-18","","NA"
"2018-12-25 02:00","2018","12","25","02:00","-11.2","","-14.0","","79","","7","","9","","","","100.27","","","","-16","","NA"
"2018-12-25 03:00","2018","12","25","03:00","-11.7","","-14.3","","81","","6","","10","","","","100.30","","","","-17","","NA"
"2018-12-25 04:00","2018","12","25","04:00","-11.8","","-14.4","","81","","7","","17","","","","100.24","","","","-19","","NA"
"2018-12-25 05:00","2018","12","25","05:00","-12.9","","-15.4","","82","","5","","8","","","","100.27","","","","-18","","NA"
"2018-12-25 06:00","2018","12","25","06:00","-12.0","","-14.1","","84","","7","","12","","","","100.34","","","","-18","","NA"
"2018-12-25 07:00","2018","12","25","07:00","-13.1","","-15.6","","81","","5","","9","","","","100.37","","","","-19","","NA"
"2018-12-25 08:00","2018","12","25","08:00","-12.2","","-14.4","","84","","7","","14","","","","100.37","","","","-19","","NA"
"2018-12-25 09:00","2018","12","25","09:00","-12.0","","-14.2","","84","","7","","12","","","","100.42","","","","-18","","NA"
"2018-12-25 10:00","2018","12","25","10:00","-11.9","","-14.2","","83","","8","","14","","","","100.43","","","","-19","","NA"
"2018-12-25 11:00","2018","12","25","11:00","-11.2","","-13.6","","82","","9","","12","","","","100.44","","","","-17","","NA"
"2018-12-25 12:00","2018","12","25","12:00","-10.1","","-12.5","","83","","8","","11","","","","100.37","","","","-16","","NA"
"2018-12-25 13:00","2018","12","25","13:00","-9.2","","-11.2","","85","","9","","13","","","","100.32","","","","-15","","NA"
"2018-12-25 14:00","2018","12","25","14:00","-8.1","","-10.1","","86","","8","","10","","","","100.30","","","","-13","","NA"
"2018-12-25 15:00","2018","12","25","15:00","-7.1","","-9.1","","86","","6","","7","","","","100.32","","","","-11","","NA"
"2018-12-25 16:00","2018","12","25","16:00","-6.6","","-8.8","","84","","3","","5","","","","100.33","","","","-9","","NA"
"2018-12-25 17:00","2018","12","25","17:00","-6.2","","-8.2","","86","","6","","7","","","","100.35","","","","-10","","NA"
"2018-12-25 18:00","2018","12","25","18:00","-6.4","","-8.1","","87","","3","","6","","","","100.36","","","","-9","","NA"
"2018-12-25 19:00","2018","12","25","19:00","-6.0","","-7.8","","87","","6","","9","","","","100.38","","","","-10","","NA"
"2018-12-25 20:00","2018","12","25","20:00","-5.8","","-7.6","","87","","5","","6","","","","100.39","","","","-9","","NA"
"2018-12-25 21:00","2018","12","25","21:00","-5.7","","-7.8","","85","","10","","14","","","","100.40","","","","-11","","NA"
"2018-12-25 22:00","2018","12","25","22:00","-6.0","","-8.0","","86","","12","","8","","","","100.39","","","","-10","","NA"
"2018-12-25 23:00","2018","12","25","23:00","-5.9","","-7.8","","86","","9","","6","","","","100.39","","","","-9","","NA"
"2018-12-26 00:00","2018","12","26","00:00","-6.2","","-8.0","","87","","4","","6","","","","100.34","","","","-9","","NA"
"2018-12-26 01:00","2018","12","26","01:00","-5.1","","-6.7","","88","","6","","8","","","","100.33","","","","-9","","NA"
"2018-12-26 02:00","2018","12","26","02:00","-4.7","","-6.4","","88","","36","","5","","","","100.35","","","","-7","","NA"
"2018-12-26 03:00","2018","12","26","03:00","-3.4","","-5.0","","89","","6","","7","","","","100.36","","","","-6","","NA"
"2018-12-26 04:00","2018","12","26","04:00","-2.5","","-4.6","","86","","31","","6","","","","100.37","","","","-5","","NA"
"2018-12-26 05:00","2018","12","26","05:00","-2.5","","-4.3","","87","","29","","7","","","","100.38","","","","-5","","NA"
"2018-12-26 06:00","2018","12","26","06:00","-1.5","","-4.1","","82","","30","","13","","","","100.40","","","","-6","","NA"
"2018-12-26 07:00","2018","12","26","07:00","-2.6","","-5.2","","82","","31","","11","","","","100.47","","","","-7","","NA"
"2018-12-26 08:00","2018","12","26","08:00","-3.0","","-6.6","","76","","32","","12","","","","100.57","","","","-7","","NA"
"2018-12-26 09:00","2018","12","26","09:00","-3.5","","-7.0","","77","","34","","14","","","","100.68","","","","-9","","NA"
"2018-12-26 10:00","2018","12","26","10:00","-3.9","","-9.8","","64","","36","","17","","","","100.75","","","","-10","","NA"
"2018-12-26 11:00","2018","12","26","11:00","-3.8","","-10.4","","60","","34","","10","","","","100.79","","","","-8","","NA"
"2018-12-26 12:00","2018","12","26","12:00","-3.9","","-10.4","","60","","35","","12","","","","100.76","","","","-9","","NA"
"2018-12-26 13:00","2018","12","26","13:00","-3.1","","-10.2","","58","","35","","11","","","","100.80","","","","-7","","NA"
"2018-12-26 14:00","2018","12","26","14:00","-2.8","","-10.7","","55","","35","","12","","","","100.80","","","","-7","","NA"
"2018-12-26 15:00","2018","12","26","15:00","-4.1","","-11.9","","54","","1","","18","","","","100.89","","","","-10","","NA"
"2018-12-26 16:00","2018","12","26","16:00","-4.2","","-12.8","","51","","36","","11","","","","100.95","","","","-9","","NA"
"2018-12-26 17:00","2018","12","26","17:00","-5.3","","-12.3","","58","","3","","6","","","","101.00","","","","-8","","NA"
"2018-12-26 18:00","2018","12","26","18:00","-6.5","","-11.7","","66","","2","","8","","","","101.09","","","","-10","","NA"
"2018-12-26 19:00","2018","12","26","19:00","-7.5","","-11.2","","75","","4","","9","","","","101.11","","","","-12","","NA"
"2018-12-26 20:00","2018","12","26","20:00","-7.8","","-11.1","","77","","4","","9","","","","101.13","","","","-12","","NA"
"2018-12-26 21:00","2018","12","26","21:00","-8.1","","-11.8","","74","","6","","8","","","","101.19","","","","-12","","NA"
"2018-12-26 22:00","2018","12","26","22:00","-8.4","","-11.9","","76","","6","","10","","","","101.23","","","","-13","","NA"
"2018-12-26 23:00","2018","12","26","23:00","-8.5","","-11.5","","79","","7","","15","","","","101.24","","","","-15","","NA"
"2018-12-27 00:00","2018","12","27","00:00","-10.0","","-12.8","","80","","6","","13","","","","101.24","","","","-16","","NA"
"2018-12-27 01:00","2018","12","27","01:00","-10.6","","-13.4","","80","","6","","14","","","","101.23","","","","-17","","NA"
"2018-12-27 02:00","2018","12","27","02:00","-11.0","","-13.7","","81","","6","","14","","","","101.22","","","","-18","","NA"
"2018-12-27 03:00","2018","12","27","03:00","-11.0","","-13.4","","82","","6","","14","","","","101.31","","","","-18","","NA"
"2018-12-27 04:00","2018","12","27","04:00","-11.5","","-13.9","","82","","6","","14","","","","101.27","","","","-18","","NA"
"2018-12-27 05:00","2018","12","27","05:00","-10.0","","-11.8","","87","","7","","18","","","","101.18","","","","-17","","NA"
"2018-12-27 06:00","2018","12","27","06:00","-11.5","","-13.7","","84","","6","","15","","","","101.13","","","","-19","","NA"
"2018-12-27 07:00","2018","12","27","07:00","-11.2","","-13.1","","86","","7","","19","","","","101.15","","","","-19","","NA"
"2018-12-27 08:00","2018","12","27","08:00","-11.6","","-13.5","","86","","7","","19","","","","101.09","","","","-20","","NA"
"2018-12-27 09:00","2018","12","27","09:00","-11.2","","-13.1","","86","","7","","24","","","","101.03","","","","-20","","NA"
"2018-12-27 10:00","2018","12","27","10:00","-10.8","","-12.4","","88","","8","","26","","","","100.94","","","","-20","","NA"
"2018-12-27 11:00","2018","12","27","11:00","-9.5","","-11.2","","88","","9","","28","","","","100.83","","","","-19","","NA"
"2018-12-27 12:00","2018","12","27","12:00","-7.0","","-8.8","","87","","9","","30","","","","100.65","","","","-16","","NA"
"2018-12-27 13:00","2018","12","27","13:00","-4.2","","-6.0","","87","","12","","44","","","","100.51","","","","-13","","NA"
"2018-12-27 14:00","2018","12","27","14:00","-4.5","","-6.5","","86","","11","","51","","","","100.28","","","","-14","","NA"
"2018-12-27 15:00","2018","12","27","15:00","-4.4","","-6.8","","83","","11","","51","","","","100.17","","","","-14","","NA"
"2018-12-27 16:00","2018","12","27","16:00","-3.7","","-7.2","","76","","11","","53","","","","100.00","","","","-13","","NA"
"2018-12-27 17:00","2018","12","27","17:00","-4.7","","-9.9","","67","","9","","38","","","","99.80","","","","-13","","NA"
"2018-12-27 18:00","2018","12","27","18:00","-3.1","","-7.3","","73","","10","","39","","","","99.61","","","","-11","","NA"
"2018-12-27 19:00","2018","12","27","19:00","-3.0","","-6.0","","80","","11","","51","","","","99.44","","","","-12","","NA"
"2018-12-27 20:00","2018","12","27","20:00","-2.6","","-5.0","","84","","12","","53","","","","99.35","","","","-12","","NA"
"2018-12-27 21:00","2018","12","27","21:00","-2.3","","-3.7","","90","","11","","50","","","","99.10","","","","-11","","NA"
"2018-12-27 22:00","2018","12","27","22:00","-1.7","","-3.0","","91","","12","","26","","","","98.89","","","","-8","","NA"
"2018-12-27 23:00","2018","12","27","23:00","-0.8","","-2.1","","91","","13","","13","","","","98.74","","","","-5","","NA"
"2018-12-28 00:00","2018","12","28","00:00","-0.4","","-1.5","","92","","12","","5","","","","98.62","","","","-2","","NA"
"2018-12-28 01:00","2018","12","28","01:00","0.2","","-0.8","","93","","11","","3","","","","98.48","","","","","","NA"
"2018-12-28 02:00","2018","12","28","02:00","0.9","","0.1","","94","","11","","2","","","","98.37","","","","","","NA"
"2018-12-28 03:00","2018","12","28","03:00","1.3","","0.5","","95","","9","","22","","","","98.24","","","","","","NA"
"2018-12-28 04:00","2018","12","28","04:00","1.7","","1.0","","95","","9","","17","","","","98.13","","","","","","NA"
"2018-12-28 05:00","2018","12","28","05:00","3.5","","2.7","","95","","24","","9","","","","98.04","","","","","","NA"
"2018-12-28 06:00","2018","12","28","06:00","3.4","","2.6","","95","","23","","16","","","","98.01","","","","","","NA"
"2018-12-28 07:00","2018","12","28","07:00","4.0","","3.2","","95","","21","","12","","","","98.01","","","","","","NA"
"2018-12-28 08:00","2018","12","28","08:00","3.9","","3.2","","95","","23","","8","","","","98.03","","","","","","NA"
"2018-12-28 09:00","2018","12","28","09:00","4.9","","4.1","","95","","22","","8","","","","98.04","","","","","","NA"
"2018-12-28 10:00","2018","12","28","10:00","4.8","","4.0","","95","","17","","6","","","","97.94","","","","","","NA"
"2018-12-28 11:00","2018","12","28","11:00","4.4","","3.7","","95","","24","","5","","","","97.95","","","","","","NA"
"2018-12-28 12:00","2018","12","28","12:00","5.4","","4.6","","95","","24","","23","","","","97.83","","","","","","NA"
"2018-12-28 13:00","2018","12","28","13:00","6.2","","5.4","","94","","24","","23","","","","97.75","","","","","","NA"
"2018-12-28 14:00","2018","12","28","14:00","7.3","","6.4","","94","","26","","18","","","","97.75","","","","","","NA"
"2018-12-28 15:00","2018","12","28","15:00","7.7","","5.9","","88","","26","","12","","","","97.77","","","","","","NA"
"2018-12-28 16:00","2018","12","28","16:00","5.7","","4.6","","93","","23","","17","","","","97.82","","","","","","NA"
"2018-12-28 17:00","2018","12","28","17:00","5.3","","3.7","","90","","24","","11","","","","97.87","","","","","","NA"
"2018-12-28 18:00","2018","12","28","18:00","1.5","","-0.2","","89","","1","","17","","","","98.06","","","","","","NA"
"2018-12-28 19:00","2018","12","28","19:00","-1.6","","-3.5","","87","","1","","18","","","","98.17","","","","-7","","NA"
"2018-12-28 20:00","2018","12","28","20:00","-4.0","","-6.0","","86","","1","","15","","","","98.33","","","","-9","","NA"
"2018-12-28 21:00","2018","12","28","21:00","-6.0","","-9.5","","76","","1","","20","","","","98.49","","","","-13","","NA"
"2018-12-28 22:00","2018","12","28","22:00","-6.7","","-10.1","","77","","1","","15","","","","98.65","","","","-13","","NA"
"2018-12-28 23:00","2018","12","28","23:00","-8.1","","-12.0","","74","","36","","20","","","","98.84","","","","-15","","NA"
"2018-12-29 00:00","2018","12","29","00:00","-9.2","","-13.5","","71","","34","","17","","","","99.00","","","","-16","","NA"
"2018-12-29 01:00","2018","12","29","01:00","-10.3","","-14.9","","69","","35","","20","","","","99.21","","","","-18","","NA"
"2018-12-29 02:00","2018","12","29","02:00","-12.3","","-16.8","","69","","35","","16","","","","99.40","","","","-20","","NA"
"2018-12-29 03:00","2018","12","29","03:00","-13.9","","-18.5","","68","","36","","16","","","","99.56","","","","-22","","NA"
"2018-12-29 04:00","2018","12","29","04:00","-14.4","","-18.3","","72","","36","","9","","","","99.72","","","","-20","","NA"
"2018-12-29 05:00","2018","12","29","05:00","-14.4","","-18.4","","72","","36","","9","","","","99.82","","","","-20","","NA"
"2018-12-29 06:00","2018","12","29","06:00","-14.5","","-18.3","","73","","35","","8","","","","99.94","","","","-20","","NA"
"2018-12-29 07:00","2018","12","29","07:00","-14.7","","-18.6","","72","","35","","5","","","","100.07","","","","-18","","NA"
"2018-12-29 08:00","2018","12","29","08:00","-15.1","","-19.3","","71","","3","","6","","","","100.17","","","","-19","","NA"
"2018-12-29 09:00","2018","12","29","09:00","-15.3","","-19.8","","69","","3","","7","","","","100.26","","","","-20","","NA"
"2018-12-29 10:00","2018","12","29","10:00","-14.4","","-19.7","","64","","1","","7","","","","100.33","","","","-19","","NA"
"2018-12-29 11:00","2018","12","29","11:00","-14.2","","-19.9","","62","","36","","8","","","","100.31","","","","-19","","NA"
"2018-12-29 12:00","2018","12","29","12:00","-12.7","","-19.2","","59","","34","","5","","","","100.29","","","","-16","","NA"
"2018-12-29 13:00","2018","12","29","13:00","-12.7","","-18.9","","60","","29","","8","","","","100.26","","","","-18","","NA"
"2018-12-29 14:00","2018","12","29","14:00","-11.7","","-17.7","","61","","21","","5","","","","100.24","","","","-15","","NA"
"2018-12-29 15:00","2018","12","29","15:00","-11.4","","-17.5","","61","","21","","7","","","","100.24","","","","-16","","NA"
"2018-12-29 16:00","2018","12","29","16:00","-10.9","","-17.4","","59","","24","","6","","","","100.25","","","","-15","","NA"
"2018-12-29 17:00","2018","12","29","17:00","-11.8","","-17.4","","63","","35","","2","","","","100.22","","","","-13","","NA"
"2018-12-29 18:00","2018","12","29","18:00","-11.6","","-16.4","","68","","28","","5","","","","100.23","","","","-15","","NA"
"2018-12-29 19:00","2018","12","29","19:00","-10.7","","-14.0","","77","","25","","10","","","","100.23","","","","-16","","NA"
"2018-12-29 20:00","2018","12","29","20:00","-9.8","","-13.4","","75","","19","","12","","","","100.08","","","","-16","","NA"
"2018-12-29 21:00","2018","12","29","21:00","-12.6","","-15.4","","80","","1","","5","","","","99.95","","","","-16","","NA"
"2018-12-29 22:00","2018","12","29","22:00","-12.4","","-14.9","","82","","2","","6","","","","99.88","","","","-16","","NA"
"2018-12-29 23:00","2018","12","29","23:00","-11.8","","-13.8","","85","","6","","9","","","","99.83","","","","-17","","NA"
"2018-12-30 00:00","2018","12","30","00:00","-11.2","","-13.1","","86","","7","","11","","","","99.71","","","","-17","","NA"
"2018-12-30 01:00","2018","12","30","01:00","-11.1","","-13.2","","85","","5","","6","","","","99.65","","","","-15","","NA"
"2018-12-30 02:00","2018","12","30","02:00","-11.1","","-13.0","","86","","7","","12","","","","99.60","","","","-17","","NA"
"2018-12-30 03:00","2018","12","30","03:00","-11.0","","-12.9","","86","","7","","14","","","","99.53","","","","-18","","NA"
"2018-12-30 04:00","2018","12","30","04:00","-10.8","","-12.4","","88","","7","","13","","","","99.39","","","","-17","","NA"
"2018-12-30 05:00","2018","12","30","05:00","-10.4","","-12.0","","88","","5","","7","","","","99.29","","","","-14","","NA"
"2018-12-30 06:00","2018","12","30","06:00","-9.1","","-10.6","","89","","5","","6","","","","99.26","","","","-12","","NA"
"2018-12-30 07:00","2018","12","30","07:00","-8.2","","-9.7","","89","","2","","5","","","","99.24","","","","-11","","NA"
"2018-12-30 08:00","2018","12","30","08:00","-7.4","","-8.8","","90","","7","","9","","","","99.27","","","","-12","","NA"
"2018-12-30 09:00","2018","12","30","09:00","-7.4","","-8.8","","89","","5","","6","","","","99.25","","","","-11","","NA"
"2018-12-30 10:00","2018","12","30","10:00","-5.9","","-7.4","","89","","11","","3","","","","99.25","","","","-7","","NA"
"2018-12-30 11:00","2018","12","30","11:00","-5.5","","-7.1","","88","","7","","6","","","","99.20","","","","-8","","NA"
"2018-12-30 12:00","2018","12","30","12:00","-3.0","","-5.5","","83","","19","","4","","","","99.14","","","","-5","","NA"
"2018-12-30 13:00","2018","12","30","13:00","-1.1","","-6.1","","69","","26","","17","","","","99.13","","","","-6","","NA"
"2018-12-30 14:00","2018","12","30","14:00","-1.0","","-6.5","","66","","26","","16","","","","99.13","","","","-6","","NA"
"2018-12-30 15:00","2018","12","30","15:00","-1.0","","-6.1","","68","","25","","19","","","","99.20","","","","-6","","NA"
"2018-12-30 16:00","2018","12","30","16:00","-1.1","","-6.3","","68","","25","","12","","","","99.24","","","","-5","","NA"
"2018-12-30 17:00","2018","12","30","17:00","-1.0","","-5.7","","70","","25","","11","","","","99.23","","","","-5","","NA"
"2018-12-30 18:00","2018","12","30","18:00","-0.7","","-5.8","","69","","22","","15","","","","99.26","","","","-5","","NA"
"2018-12-30 19:00","2018","12","30","19:00","-1.0","","-4.9","","75","","26","","5","","","","99.32","","","","-3","","NA"
"2018-12-30 20:00","2018","12","30","20:00","-1.4","","-5.5","","74","","35","","4","","","","99.37","","","","-3","","NA"
"2018-12-30 21:00","2018","12","30","21:00","-1.0","","-4.7","","76","","9","","4","","","","99.37","","","","-2","","NA"
"2018-12-30 22:00","2018","12","30","22:00","-0.5","","-3.6","","80","","25","","9","","","","99.39","","","","-4","","NA"
"2018-12-30 23:00","2018","12","30","23:00","-0.5","","-3.2","","82","","23","","3","","","","99.37","","","","-1","","NA"
"2018-12-31 00:00","2018","12","31","00:00","-0.6","","-3.0","","84","","8","","4","","","","99.37","","","","-2","","NA"
"2018-12-31 01:00","2018","12","31","01:00","-0.8","","-3.4","","83","","6","","6","","","","99.40","","","","-3","","NA"
"2018-12-31 02:00","2018","12","31","02:00","-0.2","","-3.1","","81","","24","","2","","","","99.48","","","","-1","","NA"
"2018-12-31 03:00","2018","12","31","03:00","-0.6","","-3.1","","83","","14","","3","","","","99.55","","","","-2","","NA"
"2018-12-31 04:00","2018","12","31","04:00","-0.8","","-3.4","","83","","9","","2","","","","99.53","","","","-1","","NA"
"2018-12-31 05:00","2018","12","31","05:00","-1.3","","-3.5","","85","","9","","4","","","","99.44","","","","-3","","NA"
"2018-12-31 06:00","2018","12","31","06:00","-1.3","","-2.8","","89","","10","","8","","","","99.46","","","","-4","","NA"
"2018-12-31 07:00","2018","12","31","07:00","0.4","","-2.3","","82","","16","","13","","","","99.50","","","","","","NA"
"2018-12-31 08:00","2018","12","31","08:00","0.5","","-2.0","","83","","13","","12","","","","99.48","","","","","","NA"
"2018-12-31 09:00","2018","12","31","09:00","0.6","","-2.0","","83","","13","","13","","","","99.50","","","","","","NA"
"2018-12-31 10:00","2018","12","31","10:00","1.0","","-1.3","","84","","16","","16","","","","99.42","","","","","","NA"
"2018-12-31 11:00","2018","12","31","11:00","0.9","","-1.3","","85","","16","","20","","","","99.36","","","","","","NA"
"2018-12-31 12:00","2018","12","31","12:00","0.8","","-1.3","","86","","15","","15","","","","99.27","","","","","","NA"
"2018-12-31 13:00","2018","12","31","13:00","1.0","","-1.4","","84","","13","","13","","","","99.07","","","","","","NA"
"2018-12-31 14:00","2018","12","31","14:00","1.1","","-1.3","","84","","13","","13","","","","99.01","","","","","","NA"
"2018-12-31 15:00","2018","12","31","15:00","0.2","","-1.1","","92","","9","","19","","","","99.03","","","","","","NA"
"2018-12-31 16:00","2018","12","31","16:00","0.1","","-1.2","","91","","8","","18","","","","98.95","","","","","","NA"
"2018-12-31 17:00","2018","12","31","17:00","0.3","","-1.3","","89","","8","","18","","","","98.83","","","","","","NA"
"2018-12-31 18:00","2018","12","31","18:00","0.2","","-1.6","","88","","7","","16","","","","98.70","","","","","","NA"
"2018-12-31 19:00","2018","12","31","19:00","-0.6","","-1.5","","93","","7","","17","","","","98.61","","","","-6","","NA"
"2018-12-31 20:00","2018","12","31","20:00","-0.9","","-1.7","","95","","6","","20","","","","98.30","","","","-6","","NA"
"2018-12-31 21:00","2018","12","31","21:00","-0.8","","-1.5","","95","","3","","13","","","","98.27","","","","-5","","NA"
"2018-12-31 22:00","2018","12","31","22:00","-1.1","","-1.8","","95","","5","","12","","","","98.18","","","","-5","","NA"
"2018-12-31 23:00","2018","12","31","23:00","-1.2","","-1.9","","95","","2","","15","","","","97.99","","","","-6","","NA"
