"Station Name","KILLARNEY (AUT)"
"Province","ONTARIO"
"Latitude","45.97"
"Longitude","-81.48"
"Elevation","196.30"
"Climate Identifier","605DJ25"
"WMO Identifier","71460"
"TC Identifier","WBE"
"All times are specified in Local Standard Time (LST). Add 1 hour to adjust for Daylight Saving Time where and when it is observed."

"Legend"
"E","Estimated"
"M","Missing"
"NA","Not Available"

"Date/Time","Year","Month","Day","Time","Temp (°C)","Temp Flag","Dew Point Temp (°C)","Dew Point Temp Flag","Rel Hum (%)","Rel Hum Flag","Wind Dir (10s deg)","Wind Dir Flag","Wind Spd (km/h)","Wind Spd Flag","Visibility (km)","Visibility Flag","Stn Press (kPa)","Stn Press Flag","Hmdx","Hmdx Flag","Wind Chill","Wind Chill Flag","Weather"
"2013-03-01 00:00","2013","03","01","00:00","-7.3","","-11.6","","71","","","M","","M","","","99.23","","","","","","NA"
"2013-03-01 01:00","2013","03","01","01:00","-7.9","","-12.2","","71","","","M","","M","","","99.26","","","","","","NA"
"2013-03-01 02:00","2013","03","01","02:00","-8.4","","-12.7","","71","","","M","","M","","","99.30","","","","","","NA"
"2013-03-01 03:00","2013","03","01","03:00","-9.0","","-13.2","","72","","","M","","M","","","99.35","","","","","","NA"
"2013-03-01 04:00","2013","03","01","04:00","-9.3","","-13.4","","72","","","M","","M","","","99.37","","","","","","NA"
"2013-03-01 05:00","2013","03","01","05:00","-9.5","","-13.6","","72","","","M","","M","","","99.42","","","","","","NA"
"2013-03-01 06:00","2013","03","01","06:00","-9.8","","-13.7","","73","","","M","","M","","","99.44","","","","","","NA"
"2013-03-01 07:00","2013","03","01","07:00","-10.4","","-14.5","","72","","","M","","M","","","99.48","","","","","","NA"
"2013-03-01 08:00","2013","03","01","08:00","-10.7","","-14.9","","71","","","M","","M","","","99.52","","","","","","NA"
"2013-03-01 09:00","2013","03","01","09:00","-10.1","","-14.5","","70","","","M","","M","","","99.52","","","","","","NA"
"2013-03-01 10:00","2013","03","01","10:00","-8.6","","-13.6","","67","","","M","","M","","","99.54","","","","","","NA"
"2013-03-01 11:00","2013","03","01","11:00","-7.5","","-13.1","","64","","","M","","M","","","99.58","","","","","","NA"
"2013-03-01 12:00","2013","03","01","12:00","-5.7","","-12.8","","57","","","M","","M","","","99.59","","","","","","NA"
"2013-03-01 13:00","2013","03","01","13:00","-5.5","","-12.8","","56","","","M","","M","","","99.56","","","","","","NA"
"2013-03-01 14:00","2013","03","01","14:00","-4.7","","-12.1","","56","","","M","","M","","","99.53","","","","","","NA"
"2013-03-01 15:00","2013","03","01","15:00","-3.8","","-11.7","","54","","","M","","M","","","99.50","","","","","","NA"
"2013-03-01 16:00","2013","03","01","16:00","-5.0","","-11.7","","59","","","M","","M","","","99.54","","","","","","NA"
"2013-03-01 17:00","2013","03","01","17:00","-5.8","","-11.4","","65","","","M","","M","","","99.56","","","","","","NA"
"2013-03-01 18:00","2013","03","01","18:00","-6.8","","-11.9","","67","","","M","","M","","","99.61","","","","","","NA"
"2013-03-01 19:00","2013","03","01","19:00","-7.3","","-12.2","","68","","","M","","M","","","99.65","","","","","","NA"
"2013-03-01 20:00","2013","03","01","20:00","-7.5","","-12.3","","68","","","M","","M","","","99.67","","","","","","NA"
"2013-03-01 21:00","2013","03","01","21:00","-7.8","","-12.3","","70","","","M","","M","","","99.69","","","","","","NA"
"2013-03-01 22:00","2013","03","01","22:00","-8.3","","-12.7","","71","","","M","","M","","","99.68","","","","","","NA"
"2013-03-01 23:00","2013","03","01","23:00","-8.8","","-13.0","","72","","","M","","M","","","99.67","","","","","","NA"
"2013-03-02 00:00","2013","03","02","00:00","-9.2","","-13.4","","71","","","M","","M","","","99.68","","","","","","NA"
"2013-03-02 01:00","2013","03","02","01:00","-9.5","","-13.8","","71","","","M","","M","","","99.68","","","","","","NA"
"2013-03-02 02:00","2013","03","02","02:00","-9.6","","-14.0","","70","","","M","","M","","","99.68","","","","","","NA"
"2013-03-02 03:00","2013","03","02","03:00","-9.9","","-14.0","","72","","","M","","M","","","99.65","","","","","","NA"
"2013-03-02 04:00","2013","03","02","04:00","-10.6","","-14.8","","71","","","M","","M","","","99.60","","","","","","NA"
"2013-03-02 05:00","2013","03","02","05:00","-11.0","","-15.1","","72","","","M","","M","","","99.59","","","","","","NA"
"2013-03-02 06:00","2013","03","02","06:00","-11.3","","-15.5","","71","","","M","","M","","","99.59","","","","","","NA"
"2013-03-02 07:00","2013","03","02","07:00","-11.4","","-15.6","","71","","","M","","M","","","99.59","","","","","","NA"
"2013-03-02 08:00","2013","03","02","08:00","-11.3","","-15.6","","70","","","M","","M","","","99.63","","","","","","NA"
"2013-03-02 09:00","2013","03","02","09:00","-10.9","","-15.6","","68","","","M","","M","","","99.64","","","","","","NA"
"2013-03-02 10:00","2013","03","02","10:00","-10.4","","-15.8","","65","","","M","","M","","","99.63","","","","","","NA"
"2013-03-02 11:00","2013","03","02","11:00","-10.2","","-15.6","","65","","","M","","M","","","99.63","","","","","","NA"
"2013-03-02 12:00","2013","03","02","12:00","-9.5","","-15.4","","62","","","M","","M","","","99.58","","","","","","NA"
"2013-03-02 13:00","2013","03","02","13:00","-7.5","","-14.1","","59","","","M","","M","","","99.50","","","","","","NA"
"2013-03-02 14:00","2013","03","02","14:00","-5.8","","-13.0","","57","","","M","","M","","","99.42","","","","","","NA"
"2013-03-02 15:00","2013","03","02","15:00","-4.9","","-13.2","","52","","","M","","M","","","99.39","","","","","","NA"
"2013-03-02 16:00","2013","03","02","16:00","-4.4","","-13.3","","50","","","M","","M","","","99.35","","","","","","NA"
"2013-03-02 17:00","2013","03","02","17:00","-5.2","","-13.3","","53","","","M","","M","","","99.39","","","","","","NA"
"2013-03-02 18:00","2013","03","02","18:00","-5.9","","-13.2","","56","","","M","","M","","","99.43","","","","","","NA"
"2013-03-02 19:00","2013","03","02","19:00","-7.1","","-13.2","","62","","","M","","M","","","99.47","","","","","","NA"
"2013-03-02 20:00","2013","03","02","20:00","-8.6","","-13.5","","68","","","M","","M","","","99.44","","","","","","NA"
"2013-03-02 21:00","2013","03","02","21:00","-9.5","","-13.9","","70","","","M","","M","","","99.44","","","","","","NA"
"2013-03-02 22:00","2013","03","02","22:00","-9.8","","-13.7","","73","","","M","","M","","","99.42","","","","","","NA"
"2013-03-02 23:00","2013","03","02","23:00","-10.1","","-13.8","","74","","","M","","M","","","99.39","","","","","","NA"
"2013-03-03 00:00","2013","03","03","00:00","-10.2","","-14.0","","74","","","M","","M","","","99.38","","","","","","NA"
"2013-03-03 01:00","2013","03","03","01:00","-10.9","","-14.8","","73","","","M","","M","","","99.37","","","","","","NA"
"2013-03-03 02:00","2013","03","03","02:00","-11.3","","-15.0","","74","","","M","","M","","","99.38","","","","","","NA"
"2013-03-03 03:00","2013","03","03","03:00","-11.7","","-15.2","","75","","","M","","M","","","99.34","","","","","","NA"
"2013-03-03 04:00","2013","03","03","04:00","-11.9","","-15.5","","75","","","M","","M","","","99.32","","","","","","NA"
"2013-03-03 05:00","2013","03","03","05:00","-12.2","","-15.9","","74","","","M","","M","","","99.32","","","","","","NA"
"2013-03-03 06:00","2013","03","03","06:00","-12.4","","-15.7","","76","","","M","","M","","","99.32","","","","","","NA"
"2013-03-03 07:00","2013","03","03","07:00","-12.6","","-15.8","","77","","","M","","M","","","99.34","","","","","","NA"
"2013-03-03 08:00","2013","03","03","08:00","-12.1","","-15.6","","75","","","M","","M","","","99.33","","","","","","NA"
"2013-03-03 09:00","2013","03","03","09:00","-11.5","","-15.6","","72","","","M","","M","","","99.28","","","","","","NA"
"2013-03-03 10:00","2013","03","03","10:00","-10.3","","-15.0","","68","","","M","","M","","","99.31","","","","","","NA"
"2013-03-03 11:00","2013","03","03","11:00","-8.3","","-14.9","","59","","","M","","M","","","99.26","","","","","","NA"
"2013-03-03 12:00","2013","03","03","12:00","-6.8","","-14.5","","54","","","M","","M","","","99.23","","","","","","NA"
"2013-03-03 13:00","2013","03","03","13:00","-6.3","","-14.2","","53","","","M","","M","","","99.18","","","","","","NA"
"2013-03-03 14:00","2013","03","03","14:00","-5.3","","-13.8","","51","","","M","","M","","","99.11","","","","","","NA"
"2013-03-03 15:00","2013","03","03","15:00","-5.1","","-13.9","","50","","","M","","M","","","99.11","","","","","","NA"
"2013-03-03 16:00","2013","03","03","16:00","-4.5","","-13.6","","49","","","M","","M","","","99.10","","","","","","NA"
"2013-03-03 17:00","2013","03","03","17:00","-4.9","","-13.5","","51","","","M","","M","","","99.14","","","","","","NA"
"2013-03-03 18:00","2013","03","03","18:00","-5.5","","-13.3","","54","","","M","","M","","","99.18","","","","","","NA"
"2013-03-03 19:00","2013","03","03","19:00","-6.3","","-13.3","","58","","","M","","M","","","99.24","","","","","","NA"
"2013-03-03 20:00","2013","03","03","20:00","-7.3","","-13.7","","60","","","M","","M","","","99.25","","","","","","NA"
"2013-03-03 21:00","2013","03","03","21:00","-8.2","","-14.1","","62","","","M","","M","","","99.29","","","","","","NA"
"2013-03-03 22:00","2013","03","03","22:00","-8.8","","-14.2","","65","","","M","","M","","","99.28","","","","","","NA"
"2013-03-03 23:00","2013","03","03","23:00","-9.1","","-14.1","","67","","","M","","M","","","99.26","","","","","","NA"
"2013-03-04 00:00","2013","03","04","00:00","-9.6","","-14.4","","68","","","M","","M","","","99.28","","","","","","NA"
"2013-03-04 01:00","2013","03","04","01:00","-10.4","","-14.6","","71","","","M","","M","","","99.30","","","","","","NA"
"2013-03-04 02:00","2013","03","04","02:00","-11.4","","-15.0","","75","","","M","","M","","","99.34","","","","","","NA"
"2013-03-04 03:00","2013","03","04","03:00","-11.3","","-15.2","","73","","","M","","M","","","99.32","","","","","","NA"
"2013-03-04 04:00","2013","03","04","04:00","-11.4","","-15.1","","74","","","M","","M","","","99.32","","","","","","NA"
"2013-03-04 05:00","2013","03","04","05:00","-11.4","","-15.2","","73","","","M","","M","","","99.34","","","","","","NA"
"2013-03-04 06:00","2013","03","04","06:00","-11.7","","-15.3","","75","","","M","","M","","","99.41","","","","","","NA"
"2013-03-04 07:00","2013","03","04","07:00","-12.1","","-15.6","","75","","","M","","M","","","99.44","","","","","","NA"
"2013-03-04 08:00","2013","03","04","08:00","-12.9","","-16.3","","76","","","M","","M","","","99.46","","","","","","NA"
"2013-03-04 09:00","2013","03","04","09:00","-12.0","","-16.1","","71","","","M","","M","","","99.47","","","","","","NA"
"2013-03-04 10:00","2013","03","04","10:00","-9.8","","-15.4","","64","","","M","","M","","","99.43","","","","","","NA"
"2013-03-04 11:00","2013","03","04","11:00","-6.9","","-14.3","","56","","","M","","M","","","99.42","","","","","","NA"
"2013-03-04 12:00","2013","03","04","12:00","-5.7","","-13.8","","53","","","M","","M","","","99.41","","","","","","NA"
"2013-03-04 13:00","2013","03","04","13:00","-4.3","","-13.2","","50","","","M","","M","","","99.39","","","","","","NA"
"2013-03-04 14:00","2013","03","04","14:00","-2.8","","-12.3","","48","","","M","","M","","","99.38","","","","","","NA"
"2013-03-04 15:00","2013","03","04","15:00","-4.5","","-12.4","","54","","","M","","M","","","99.37","","","","","","NA"
"2013-03-04 16:00","2013","03","04","16:00","-4.2","","-12.2","","54","","","M","","M","","","99.38","","","","","","NA"
"2013-03-04 17:00","2013","03","04","17:00","-4.1","","-11.3","","57","","","M","","M","","","99.42","","","","","","NA"
"2013-03-04 18:00","2013","03","04","18:00","-5.0","","-10.9","","63","","","M","","M","","","99.47","","","","","","NA"
"2013-03-04 19:00","2013","03","04","19:00","-5.8","","-10.9","","67","","","M","","M","","","99.52","","","","","","NA"
"2013-03-04 20:00","2013","03","04","20:00","-6.4","","-11.1","","69","","","M","","M","","","99.57","","","","","","NA"
"2013-03-04 21:00","2013","03","04","21:00","-6.1","","-10.8","","69","","","M","","M","","","99.63","","","","","","NA"
"2013-03-04 22:00","2013","03","04","22:00","-4.9","","-11.0","","62","","","M","","M","","","99.63","","","","","","NA"
"2013-03-04 23:00","2013","03","04","23:00","-5.2","","-11.3","","62","","","M","","M","","","99.63","","","","","","NA"
"2013-03-05 00:00","2013","03","05","00:00","-5.4","","-11.0","","65","","","M","","M","","","99.66","","","","","","NA"
"2013-03-05 01:00","2013","03","05","01:00","-6.1","","-11.1","","68","","","M","","M","","","99.68","","","","","","NA"
"2013-03-05 02:00","2013","03","05","02:00","-6.9","","-11.1","","72","","","M","","M","","","99.70","","","","","","NA"
"2013-03-05 03:00","2013","03","05","03:00","-7.8","","-11.2","","77","","","M","","M","","","99.74","","","","","","NA"
"2013-03-05 04:00","2013","03","05","04:00","-8.4","","-11.1","","81","","","M","","M","","","99.75","","","","","","NA"
"2013-03-05 05:00","2013","03","05","05:00","-8.6","","-11.0","","83","","","M","","M","","","99.77","","","","","","NA"
"2013-03-05 06:00","2013","03","05","06:00","-8.5","","-11.0","","82","","","M","","M","","","99.77","","","","","","NA"
"2013-03-05 07:00","2013","03","05","07:00","-9.0","","-11.7","","81","","","M","","M","","","99.78","","","","","","NA"
"2013-03-05 08:00","2013","03","05","08:00","-7.8","","-11.9","","72","","","M","","M","","","99.77","","","","","","NA"
"2013-03-05 09:00","2013","03","05","09:00","-6.1","","-11.7","","65","","","M","","M","","","99.77","","","","","","NA"
"2013-03-05 10:00","2013","03","05","10:00","-5.3","","-10.8","","65","","","M","","M","","","99.70","","","","","","NA"
"2013-03-05 11:00","2013","03","05","11:00","-4.1","","-10.2","","62","","","M","","M","","","99.68","","","","","","NA"
"2013-03-05 12:00","2013","03","05","12:00","-3.5","","-9.9","","61","","","M","","M","","","99.67","","","","","","NA"
"2013-03-05 13:00","2013","03","05","13:00","-1.9","","-8.8","","59","","","M","","M","","","99.60","","","","","","NA"
"2013-03-05 14:00","2013","03","05","14:00","-0.8","","-7.8","","59","","","M","","M","","","99.54","","","","","","NA"
"2013-03-05 15:00","2013","03","05","15:00","-0.1","","-6.8","","61","","","M","","M","","","99.51","","","","","","NA"
"2013-03-05 16:00","2013","03","05","16:00","2.1","","-6.6","","53","","","M","","M","","","99.45","","","","","","NA"
"2013-03-05 17:00","2013","03","05","17:00","1.3","","-6.1","","58","","","M","","M","","","99.41","","","","","","NA"
"2013-03-05 18:00","2013","03","05","18:00","0.6","","-6.1","","61","","","M","","M","","","99.43","","","","","","NA"
"2013-03-05 19:00","2013","03","05","19:00","-0.1","","-6.0","","64","","","M","","M","","","99.47","","","","","","NA"
"2013-03-05 20:00","2013","03","05","20:00","-0.4","","-5.9","","66","","","M","","M","","","99.50","","","","","","NA"
"2013-03-05 21:00","2013","03","05","21:00","-0.4","","-5.5","","68","","","M","","M","","","99.49","","","","","","NA"
"2013-03-05 22:00","2013","03","05","22:00","-0.8","","-5.2","","72","","","M","","M","","","99.54","","","","","","NA"
"2013-03-05 23:00","2013","03","05","23:00","-0.6","","-4.8","","73","","","M","","M","","","99.58","","","","","","NA"
"2013-03-06 00:00","2013","03","06","00:00","-0.2","","-4.5","","73","","","M","","M","","","99.59","","","","","","NA"
"2013-03-06 01:00","2013","03","06","01:00","0.2","","-4.2","","72","","","M","","M","","","99.55","","","","","","NA"
"2013-03-06 02:00","2013","03","06","02:00","0.3","","-4.0","","73","","","M","","M","","","99.56","","","","","","NA"
"2013-03-06 03:00","2013","03","06","03:00","-0.1","","-4.1","","74","","","M","","M","","","99.58","","","","","","NA"
"2013-03-06 04:00","2013","03","06","04:00","-0.6","","-4.0","","78","","","M","","M","","","99.61","","","","","","NA"
"2013-03-06 05:00","2013","03","06","05:00","-0.6","","-3.2","","83","","","M","","M","","","99.65","","","","","","NA"
"2013-03-06 06:00","2013","03","06","06:00","-1.4","","-3.7","","84","","","M","","M","","","99.71","","","","","","NA"
"2013-03-06 07:00","2013","03","06","07:00","-1.3","","-3.5","","85","","","M","","M","","","99.75","","","","","","NA"
"2013-03-06 08:00","2013","03","06","08:00","0.6","","-2.6","","79","","","M","","M","","","99.82","","","","","","NA"
"2013-03-06 09:00","2013","03","06","09:00","0.4","","-3.1","","77","","","M","","M","","","99.91","","","","","","NA"
"2013-03-06 10:00","2013","03","06","10:00","0.7","","-2.8","","77","","","M","","M","","","99.93","","","","","","NA"
"2013-03-06 11:00","2013","03","06","11:00","2.3","","-2.7","","69","","","M","","M","","","99.90","","","","","","NA"
"2013-03-06 12:00","2013","03","06","12:00","2.0","","-2.6","","72","","","M","","M","","","99.89","","","","","","NA"
"2013-03-06 13:00","2013","03","06","13:00","2.9","","-2.6","","67","","","M","","M","","","99.86","","","","","","NA"
"2013-03-06 14:00","2013","03","06","14:00","2.7","","-2.5","","69","","","M","","M","","","99.87","","","","","","NA"
"2013-03-06 15:00","2013","03","06","15:00","3.6","","-3.6","","59","","","M","","M","","","99.85","","","","","","NA"
"2013-03-06 16:00","2013","03","06","16:00","4.4","","-5.6","","48","","","M","","M","","","99.82","","","","","","NA"
"2013-03-06 17:00","2013","03","06","17:00","4.0","","-5.3","","51","","","M","","M","","","99.82","","","","","","NA"
"2013-03-06 18:00","2013","03","06","18:00","3.6","","-4.7","","55","","","M","","M","","","99.85","","","","","","NA"
"2013-03-06 19:00","2013","03","06","19:00","2.7","","-4.6","","59","","","M","","M","","","99.89","","","","","","NA"
"2013-03-06 20:00","2013","03","06","20:00","3.3","","-4.3","","57","","","M","","M","","","99.88","","","","","","NA"
"2013-03-06 21:00","2013","03","06","21:00","2.8","","-2.6","","68","","","M","","M","","","99.85","","","","","","NA"
"2013-03-06 22:00","2013","03","06","22:00","2.5","","-1.9","","73","","","M","","M","","","99.86","","","","","","NA"
"2013-03-06 23:00","2013","03","06","23:00","1.9","","-1.9","","76","","","M","","M","","","99.89","","","","","","NA"
"2013-03-07 00:00","2013","03","07","00:00","1.8","","-1.7","","78","","","M","","M","","","99.87","","","","","","NA"
"2013-03-07 01:00","2013","03","07","01:00","1.3","","-1.8","","80","","","M","","M","","","99.87","","","","","","NA"
"2013-03-07 02:00","2013","03","07","02:00","0.9","","-2.2","","80","","","M","","M","","","99.90","","","","","","NA"
"2013-03-07 03:00","2013","03","07","03:00","0.8","","-2.4","","79","","","M","","M","","","99.88","","","","","","NA"
"2013-03-07 04:00","2013","03","07","04:00","0.5","","-2.2","","82","","","M","","M","","","99.91","","","","","","NA"
"2013-03-07 05:00","2013","03","07","05:00","0.4","","-0.9","","91","","","M","","M","","","99.93","","","","","","NA"
"2013-03-07 06:00","2013","03","07","06:00","0.4","","-0.4","","94","","","M","","M","","","99.96","","","","","","NA"
"2013-03-07 07:00","2013","03","07","07:00","0.4","","-0.3","","95","","","M","","M","","","99.99","","","","","","NA"
"2013-03-07 08:00","2013","03","07","08:00","-0.1","","-0.8","","95","","","M","","M","","","100.04","","","","","","NA"
"2013-03-07 09:00","2013","03","07","09:00","0.6","","-0.1","","95","","","M","","M","","","100.08","","","","","","NA"
"2013-03-07 10:00","2013","03","07","10:00","0.5","","-0.4","","94","","","M","","M","","","100.11","","","","","","NA"
"2013-03-07 11:00","2013","03","07","11:00","0.5","","-0.4","","94","","","M","","M","","","100.13","","","","","","NA"
"2013-03-07 12:00","2013","03","07","12:00","0.9","","0.1","","94","","","M","","M","","","100.18","","","","","","NA"
"2013-03-07 13:00","2013","03","07","13:00","1.1","","0.1","","93","","","M","","M","","","100.19","","","","","","NA"
"2013-03-07 14:00","2013","03","07","14:00","0.5","","-0.4","","94","","","M","","M","","","100.17","","","","","","NA"
"2013-03-07 15:00","2013","03","07","15:00","0.7","","-0.6","","91","","","M","","M","","","100.18","","","","","","NA"
"2013-03-07 16:00","2013","03","07","16:00","1.1","","-0.1","","92","","","M","","M","","","100.21","","","","","","NA"
"2013-03-07 17:00","2013","03","07","17:00","3.0","","-0.5","","78","","","M","","M","","","100.23","","","","","","NA"
"2013-03-07 18:00","2013","03","07","18:00","1.0","","-1.5","","83","","","M","","M","","","100.29","","","","","","NA"
"2013-03-07 19:00","2013","03","07","19:00","1.1","","-1.2","","85","","","M","","M","","","100.33","","","","","","NA"
"2013-03-07 20:00","2013","03","07","20:00","0.7","","-1.0","","88","","","M","","M","","","100.36","","","","","","NA"
"2013-03-07 21:00","2013","03","07","21:00","0.6","","-0.9","","90","","","M","","M","","","100.36","","","","","","NA"
"2013-03-07 22:00","2013","03","07","22:00","0.9","","-0.5","","90","","","M","","M","","","100.38","","","","","","NA"
"2013-03-07 23:00","2013","03","07","23:00","0.3","","-0.8","","92","","","M","","M","","","100.40","","","","","","NA"
"2013-03-08 00:00","2013","03","08","00:00","0.4","","-0.8","","92","","","M","","M","","","100.42","","","","","","NA"
"2013-03-08 01:00","2013","03","08","01:00","0.3","","-0.7","","93","","","M","","M","","","100.44","","","","","","NA"
"2013-03-08 02:00","2013","03","08","02:00","1.1","","-0.3","","90","","","M","","M","","","100.48","","","","","","NA"
"2013-03-08 03:00","2013","03","08","03:00","1.0","","-0.4","","90","","","M","","M","","","100.51","","","","","","NA"
"2013-03-08 04:00","2013","03","08","04:00","0.2","","-1.2","","90","","","M","","M","","","100.55","","","","","","NA"
"2013-03-08 05:00","2013","03","08","05:00","-0.1","","-1.0","","94","","","M","","M","","","100.59","","","","","","NA"
"2013-03-08 06:00","2013","03","08","06:00","0.2","","-1.2","","90","","","M","","M","","","100.61","","","","","","NA"
"2013-03-08 07:00","2013","03","08","07:00","0.0","","-1.5","","90","","","M","","M","","","100.68","","","","","","NA"
"2013-03-08 08:00","2013","03","08","08:00","0.1","","-1.5","","89","","","M","","M","","","100.75","","","","","","NA"
"2013-03-08 09:00","2013","03","08","09:00","1.4","","-1.2","","83","","","M","","M","","","100.77","","","","","","NA"
"2013-03-08 10:00","2013","03","08","10:00","1.9","","-1.5","","78","","","M","","M","","","100.81","","","","","","NA"
"2013-03-08 11:00","2013","03","08","11:00","1.5","","-1.5","","80","","","M","","M","","","100.80","","","","","","NA"
"2013-03-08 12:00","2013","03","08","12:00","1.1","","-1.6","","82","","","M","","M","","","100.77","","","","","","NA"
"2013-03-08 13:00","2013","03","08","13:00","1.1","","-1.4","","83","","","M","","M","","","100.72","","","","","","NA"
"2013-03-08 14:00","2013","03","08","14:00","1.4","","-1.6","","80","","","M","","M","","","100.64","","","","","","NA"
"2013-03-08 15:00","2013","03","08","15:00","1.6","","-1.6","","79","","","M","","M","","","100.60","","","","","","NA"
"2013-03-08 16:00","2013","03","08","16:00","1.7","","-2.0","","76","","","M","","M","","","100.61","","","","","","NA"
"2013-03-08 17:00","2013","03","08","17:00","1.0","","-1.6","","83","","","M","","M","","","100.58","","","","","","NA"
"2013-03-08 18:00","2013","03","08","18:00","0.0","","-1.7","","88","","","M","","M","","","100.60","","","","","","NA"
"2013-03-08 19:00","2013","03","08","19:00","0.7","","-2.1","","81","","","M","","M","","","100.60","","","","","","NA"
"2013-03-08 20:00","2013","03","08","20:00","0.3","","-2.2","","83","","","M","","M","","","100.61","","","","","","NA"
"2013-03-08 21:00","2013","03","08","21:00","-0.2","","-2.2","","86","","","M","","M","","","100.59","","","","","","NA"
"2013-03-08 22:00","2013","03","08","22:00","-0.6","","-2.3","","88","","","M","","M","","","100.58","","","","","","NA"
"2013-03-08 23:00","2013","03","08","23:00","-0.8","","-2.1","","91","","","M","","M","","","100.59","","","","","","NA"
"2013-03-09 00:00","2013","03","09","00:00","-1.8","","-2.5","","95","","","M","","M","","","100.59","","","","","","NA"
"2013-03-09 01:00","2013","03","09","01:00","-3.4","","-4.0","","96","","","M","","M","","","100.58","","","","","","NA"
"2013-03-09 02:00","2013","03","09","02:00","-1.5","","-2.0","","96","","","M","","M","","","100.53","","","","","","NA"
"2013-03-09 03:00","2013","03","09","03:00","-1.6","","-2.1","","96","","","M","","M","","","100.47","","","","","","NA"
"2013-03-09 04:00","2013","03","09","04:00","-1.6","","-2.1","","96","","","M","","M","","","100.46","","","","","","NA"
"2013-03-09 05:00","2013","03","09","05:00","-1.6","","-2.1","","96","","","M","","M","","","100.46","","","","","","NA"
"2013-03-09 06:00","2013","03","09","06:00","-1.1","","-1.6","","96","","","M","","M","","","100.47","","","","","","NA"
"2013-03-09 07:00","2013","03","09","07:00","-0.8","","-1.3","","96","","","M","","M","","","100.48","","","","","","NA"
"2013-03-09 08:00","2013","03","09","08:00","0.0","","-1.1","","92","","","M","","M","","","100.50","","","","","","NA"
"2013-03-09 09:00","2013","03","09","09:00","0.5","","-1.4","","87","","","M","","M","","","100.48","","","","","","NA"
"2013-03-09 10:00","2013","03","09","10:00","0.8","","-1.3","","86","","","M","","M","","","100.47","","","","","","NA"
"2013-03-09 11:00","2013","03","09","11:00","0.1","","-2.0","","86","","","M","","M","","","100.46","","","","","","NA"
"2013-03-09 12:00","2013","03","09","12:00","0.2","","-1.9","","86","","","M","","M","","","100.43","","","","","","NA"
"2013-03-09 13:00","2013","03","09","13:00","-0.4","","-2.3","","87","","","M","","M","","","100.42","","","","","","NA"
"2013-03-09 14:00","2013","03","09","14:00","-0.9","","-2.4","","90","","","M","","M","","","100.33","","","","","","NA"
"2013-03-09 15:00","2013","03","09","15:00","-1.0","","-2.0","","93","","","M","","M","","","100.26","","","","","","NA"
"2013-03-09 16:00","2013","03","09","16:00","-1.4","","-2.0","","96","","","M","","M","","","100.17","","","","","","NA"
"2013-03-09 17:00","2013","03","09","17:00","-1.1","","-1.8","","95","","","M","","M","","","100.15","","","","","","NA"
"2013-03-09 18:00","2013","03","09","18:00","-1.3","","-2.0","","95","","","M","","M","","","100.06","","","","","","NA"
"2013-03-09 19:00","2013","03","09","19:00","-1.4","","-2.0","","96","","","M","","M","","","100.00","","","","","","NA"
"2013-03-09 20:00","2013","03","09","20:00","-1.1","","-1.8","","95","","","M","","M","","","99.84","","","","","","NA"
"2013-03-09 21:00","2013","03","09","21:00","-0.1","","-1.7","","89","","","M","","M","","","99.76","","","","","","NA"
"2013-03-09 22:00","2013","03","09","22:00","1.1","","-1.7","","82","","","M","","M","","","99.71","","","","","","NA"
"2013-03-09 23:00","2013","03","09","23:00","0.8","","-1.1","","87","","","M","","M","","","99.62","","","","","","NA"
"2013-03-10 00:00","2013","03","10","00:00","1.3","","-1.0","","85","","","M","","M","","","99.66","","","","","","NA"
"2013-03-10 01:00","2013","03","10","01:00","0.7","","-1.0","","88","","","M","","M","","","99.59","","","","","","NA"
"2013-03-10 02:00","2013","03","10","02:00","0.8","","-0.6","","90","","","M","","M","","","99.54","","","","","","NA"
"2013-03-10 03:00","2013","03","10","03:00","0.9","","-0.6","","90","","","M","","M","","","99.47","","","","","","NA"
"2013-03-10 04:00","2013","03","10","04:00","0.8","","-0.6","","90","","","M","","M","","","99.36","","","","","","NA"
"2013-03-10 05:00","2013","03","10","05:00","0.8","","-0.9","","88","","","M","","M","","","99.18","","","","","","NA"
"2013-03-10 06:00","2013","03","10","06:00","0.8","","-0.8","","89","","","M","","M","","","99.09","","","","","","NA"
"2013-03-10 07:00","2013","03","10","07:00","1.3","","-0.6","","87","","","M","","M","","","99.06","","","","","","NA"
"2013-03-10 08:00","2013","03","10","08:00","1.5","","-0.5","","87","","","M","","M","","","99.03","","","","","","NA"
"2013-03-10 09:00","2013","03","10","09:00","1.4","","-0.5","","87","","","M","","M","","","99.02","","","","","","NA"
"2013-03-10 10:00","2013","03","10","10:00","1.1","","-0.5","","89","","","M","","M","","","98.99","","","","","","NA"
"2013-03-10 11:00","2013","03","10","11:00","1.2","","0.2","","93","","","M","","M","","","98.93","","","","","","NA"
"2013-03-10 12:00","2013","03","10","12:00","1.7","","0.0","","88","","","M","","M","","","98.90","","","","","","NA"
"2013-03-10 13:00","2013","03","10","13:00","1.6","","0.5","","92","","","M","","M","","","98.79","","","","","","NA"
"2013-03-10 14:00","2013","03","10","14:00","1.9","","0.6","","91","","","M","","M","","","98.81","","","","","","NA"
"2013-03-10 15:00","2013","03","10","15:00","2.9","","2.1","","94","","","M","","M","","","98.86","","","","","","NA"
"2013-03-10 16:00","2013","03","10","16:00","3.2","","2.4","","94","","","M","","M","","","98.88","","","","","","NA"
"2013-03-10 17:00","2013","03","10","17:00","1.9","","1.3","","96","","","M","","M","","","99.00","","","","","","NA"
"2013-03-10 18:00","2013","03","10","18:00","1.6","","1.1","","96","","","M","","M","","","98.98","","","","","","NA"
"2013-03-10 19:00","2013","03","10","19:00","1.9","","1.4","","96","","","M","","M","","","98.83","","","","","","NA"
"2013-03-10 20:00","2013","03","10","20:00","1.6","","1.1","","96","","","M","","M","","","99.11","","","","","","NA"
"2013-03-10 21:00","2013","03","10","21:00","1.8","","1.3","","96","","","M","","M","","","98.98","","","","","","NA"
"2013-03-10 22:00","2013","03","10","22:00","2.5","","2.0","","96","","","M","","M","","","99.04","","","","","","NA"
"2013-03-10 23:00","2013","03","10","23:00","1.2","","0.7","","96","","","M","","M","","","98.99","","","","","","NA"
"2013-03-11 00:00","2013","03","11","00:00","2.5","","2.0","","96","","","M","","M","","","98.97","","","","","","NA"
"2013-03-11 01:00","2013","03","11","01:00","3.3","","2.7","","96","","","M","","M","","","98.90","","","","","","NA"
"2013-03-11 02:00","2013","03","11","02:00","3.1","","1.9","","92","","","M","","M","","","98.78","","","","","","NA"
"2013-03-11 03:00","2013","03","11","03:00","3.0","","1.7","","91","","","M","","M","","","98.68","","","","","","NA"
"2013-03-11 04:00","2013","03","11","04:00","2.8","","1.7","","92","","","M","","M","","","98.56","","","","","","NA"
"2013-03-11 05:00","2013","03","11","05:00","2.2","","1.3","","94","","","M","","M","","","98.46","","","","","","NA"
"2013-03-11 06:00","2013","03","11","06:00","2.6","","1.7","","94","","","M","","M","","","98.39","","","","","","NA"
"2013-03-11 07:00","2013","03","11","07:00","2.6","","1.8","","94","","","M","","M","","","98.38","","","","","","NA"
"2013-03-11 08:00","2013","03","11","08:00","3.1","","1.9","","92","","","M","","M","","","98.33","","","","","","NA"
"2013-03-11 09:00","2013","03","11","09:00","3.0","","2.1","","94","","","M","","M","","","98.30","","","","","","NA"
"2013-03-11 10:00","2013","03","11","10:00","2.5","","1.8","","95","","","M","","M","","","98.25","","","","","","NA"
"2013-03-11 11:00","2013","03","11","11:00","3.3","","2.6","","95","","","M","","M","","","98.19","","","","","","NA"
"2013-03-11 12:00","2013","03","11","12:00","4.6","","3.8","","95","","","M","","M","","","98.11","","","","","","NA"
"2013-03-11 13:00","2013","03","11","13:00","4.2","","3.5","","95","","","M","","M","","","97.99","","","","","","NA"
"2013-03-11 14:00","2013","03","11","14:00","3.9","","3.3","","96","","","M","","M","","","97.96","","","","","","NA"
"2013-03-11 15:00","2013","03","11","15:00","3.5","","2.9","","96","","","M","","M","","","97.91","","","","","","NA"
"2013-03-11 16:00","2013","03","11","16:00","2.9","","2.3","","96","","","M","","M","","","97.85","","","","","","NA"
"2013-03-11 17:00","2013","03","11","17:00","2.7","","2.2","","97","","","M","","M","","","97.76","","","","","","NA"
"2013-03-11 18:00","2013","03","11","18:00","3.1","","2.6","","97","","","M","","M","","","97.69","","","","","","NA"
"2013-03-11 19:00","2013","03","11","19:00","2.1","","1.6","","96","","","M","","M","","","97.62","","","","","","NA"
"2013-03-11 20:00","2013","03","11","20:00","2.5","","2.0","","96","","","M","","M","","","97.53","","","","","","NA"
"2013-03-11 21:00","2013","03","11","21:00","2.5","","2.0","","96","","","M","","M","","","97.42","","","","","","NA"
"2013-03-11 22:00","2013","03","11","22:00","2.3","","1.8","","96","","","M","","M","","","97.34","","","","","","NA"
"2013-03-11 23:00","2013","03","11","23:00","1.9","","1.4","","96","","","M","","M","","","97.34","","","","","","NA"
"2013-03-12 00:00","2013","03","12","00:00","3.2","","2.7","","97","","","M","","M","","","97.40","","","","","","NA"
"2013-03-12 01:00","2013","03","12","01:00","2.6","","1.5","","92","","","M","","M","","","97.48","","","","","","NA"
"2013-03-12 02:00","2013","03","12","02:00","2.1","","0.6","","90","","","M","","M","","","97.53","","","","","","NA"
"2013-03-12 03:00","2013","03","12","03:00","1.8","","0.4","","90","","","M","","M","","","97.52","","","","","","NA"
"2013-03-12 04:00","2013","03","12","04:00","1.6","","0.1","","90","","","M","","M","","","97.60","","","","","","NA"
"2013-03-12 05:00","2013","03","12","05:00","1.1","","-0.5","","89","","","M","","M","","","97.72","","","","","","NA"
"2013-03-12 06:00","2013","03","12","06:00","0.5","","-0.9","","90","","","M","","M","","","97.77","","","","","","NA"
"2013-03-12 07:00","2013","03","12","07:00","0.3","","-1.4","","88","","","M","","M","","","97.88","","","","","","NA"
"2013-03-12 08:00","2013","03","12","08:00","0.2","","-1.9","","86","","","M","","M","","","98.04","","","","","","NA"
"2013-03-12 09:00","2013","03","12","09:00","-0.1","","-2.6","","83","","","M","","M","","","98.10","","","","","","NA"
"2013-03-12 10:00","2013","03","12","10:00","-0.3","","-2.8","","83","","","M","","M","","","98.17","","","","","","NA"
"2013-03-12 11:00","2013","03","12","11:00","0.2","","-3.8","","74","","","M","","M","","","98.20","","","","","","NA"
"2013-03-12 12:00","2013","03","12","12:00","-0.1","","-3.3","","79","","","M","","M","","","98.26","","","","","","NA"
"2013-03-12 13:00","2013","03","12","13:00","-0.9","","-2.3","","90","","","M","","M","","","98.29","","","","","","NA"
"2013-03-12 14:00","2013","03","12","14:00","-0.8","","-3.1","","84","","","M","","M","","","98.28","","","","","","NA"
"2013-03-12 15:00","2013","03","12","15:00","-0.7","","-3.3","","83","","","M","","M","","","98.32","","","","","","NA"
"2013-03-12 16:00","2013","03","12","16:00","-1.3","","-4.2","","81","","","M","","M","","","98.35","","","","","","NA"
"2013-03-12 17:00","2013","03","12","17:00","-1.5","","-3.5","","86","","","M","","M","","","98.39","","","","","","NA"
"2013-03-12 18:00","2013","03","12","18:00","-1.5","","-5.1","","76","","","M","","M","","","98.45","","","","","","NA"
"2013-03-12 19:00","2013","03","12","19:00","-2.6","","-4.6","","86","","","M","","M","","","98.54","","","","","","NA"
"2013-03-12 20:00","2013","03","12","20:00","-2.8","","-5.2","","84","","","M","","M","","","98.57","","","","","","NA"
"2013-03-12 21:00","2013","03","12","21:00","-3.2","","-5.7","","83","","","M","","M","","","98.60","","","","","","NA"
"2013-03-12 22:00","2013","03","12","22:00","-3.2","","-6.0","","81","","","M","","M","","","98.60","","","","","","NA"
"2013-03-12 23:00","2013","03","12","23:00","-3.4","","-5.9","","83","","","M","","M","","","98.58","","","","","","NA"
"2013-03-13 00:00","2013","03","13","00:00","-3.5","","-6.1","","82","","","M","","M","","","98.57","","","","","","NA"
"2013-03-13 01:00","2013","03","13","01:00","-3.7","","-6.4","","81","","","M","","M","","","98.57","","","","","","NA"
"2013-03-13 02:00","2013","03","13","02:00","-3.9","","-6.3","","83","","","M","","M","","","98.58","","","","","","NA"
"2013-03-13 03:00","2013","03","13","03:00","-4.0","","-6.4","","83","","","M","","M","","","98.53","","","","","","NA"
"2013-03-13 04:00","2013","03","13","04:00","-4.2","","-6.6","","83","","","M","","M","","","98.51","","","","","","NA"
"2013-03-13 05:00","2013","03","13","05:00","-4.5","","-7.4","","80","","","M","","M","","","98.54","","","","","","NA"
"2013-03-13 06:00","2013","03","13","06:00","-4.7","","-8.1","","77","","","M","","M","","","98.55","","","","","","NA"
"2013-03-13 07:00","2013","03","13","07:00","-4.9","","-8.5","","76","","","M","","M","","","98.54","","","","","","NA"
"2013-03-13 08:00","2013","03","13","08:00","-4.8","","-8.1","","78","","","M","","M","","","98.55","","","","","","NA"
"2013-03-13 09:00","2013","03","13","09:00","-4.7","","-8.9","","72","","","M","","M","","","98.59","","","","","","NA"
"2013-03-13 10:00","2013","03","13","10:00","-6.1","","-10.7","","70","","","M","","M","","","98.63","","","","","","NA"
"2013-03-13 11:00","2013","03","13","11:00","-6.2","","-11.4","","67","","","M","","M","","","98.66","","","","","","NA"
"2013-03-13 12:00","2013","03","13","12:00","-6.5","","-10.6","","73","","","M","","M","","","98.69","","","","","","NA"
"2013-03-13 13:00","2013","03","13","13:00","-6.4","","-13.1","","59","","","M","","M","","","98.73","","","","","","NA"
"2013-03-13 14:00","2013","03","13","14:00","-7.6","","-12.9","","66","","","M","","M","","","98.78","","","","","","NA"
"2013-03-13 15:00","2013","03","13","15:00","-7.5","","-16.0","","51","","","M","","M","","","98.85","","","","","","NA"
"2013-03-13 16:00","2013","03","13","16:00","-7.7","","-16.5","","49","","","M","","M","","","98.94","","","","","","NA"
"2013-03-13 17:00","2013","03","13","17:00","-8.0","","-16.2","","52","","","M","","M","","","99.05","","","","","","NA"
"2013-03-13 18:00","2013","03","13","18:00","-8.6","","-15.0","","60","","","M","","M","","","99.15","","","","","","NA"
"2013-03-13 19:00","2013","03","13","19:00","-8.6","","-14.3","","63","","","M","","M","","","99.24","","","","","","NA"
"2013-03-13 20:00","2013","03","13","20:00","-8.5","","-14.0","","64","","","M","","M","","","99.31","","","","","","NA"
"2013-03-13 21:00","2013","03","13","21:00","-8.7","","-13.9","","66","","","M","","M","","","99.35","","","","","","NA"
"2013-03-13 22:00","2013","03","13","22:00","-8.9","","-13.5","","69","","","M","","M","","","99.39","","","","","","NA"
"2013-03-13 23:00","2013","03","13","23:00","-9.0","","-13.0","","73","","","M","","M","","","99.37","","","","","","NA"
"2013-03-14 00:00","2013","03","14","00:00","-8.3","","-14.0","","63","","","M","","M","","","99.38","","","","","","NA"
"2013-03-14 01:00","2013","03","14","01:00","-8.4","","-15.7","","56","","","M","","M","","","99.40","","","","","","NA"
"2013-03-14 02:00","2013","03","14","02:00","-9.0","","-16.6","","54","","","M","","M","","","99.45","","","","","","NA"
"2013-03-14 03:00","2013","03","14","03:00","-9.9","","-17.8","","52","","","M","","M","","","99.49","","","","","","NA"
"2013-03-14 04:00","2013","03","14","04:00","-10.7","","-18.7","","52","","","M","","M","","","99.51","","","","","","NA"
"2013-03-14 05:00","2013","03","14","05:00","-11.5","","-18.5","","56","","","M","","M","","","99.55","","","","","","NA"
"2013-03-14 06:00","2013","03","14","06:00","-12.2","","-18.9","","57","","","M","","M","","","99.58","","","","","","NA"
"2013-03-14 07:00","2013","03","14","07:00","-12.4","","-19.5","","55","","","M","","M","","","99.61","","","","","","NA"
"2013-03-14 08:00","2013","03","14","08:00","-12.0","","-20.0","","51","","","M","","M","","","99.65","","","","","","NA"
"2013-03-14 09:00","2013","03","14","09:00","-10.4","","-21.0","","41","","","M","","M","","","99.67","","","","","","NA"
"2013-03-14 10:00","2013","03","14","10:00","-8.2","","-21.9","","32","","","M","","M","","","99.68","","","","","","NA"
"2013-03-14 11:00","2013","03","14","11:00","-6.5","","-22.8","","26","","","M","","M","","","99.66","","","","","","NA"
"2013-03-14 12:00","2013","03","14","12:00","-4.9","","-24.0","","21","","","M","","M","","","99.61","","","","","","NA"
"2013-03-14 13:00","2013","03","14","13:00","-4.4","","-18.9","","31","","","M","","M","","","99.55","","","","","","NA"
"2013-03-14 14:00","2013","03","14","14:00","-4.1","","-15.4","","41","","","M","","M","","","99.50","","","","","","NA"
"2013-03-14 15:00","2013","03","14","15:00","-3.7","","-15.0","","41","","","M","","M","","","99.44","","","","","","NA"
"2013-03-14 16:00","2013","03","14","16:00","-3.0","","-15.1","","39","","","M","","M","","","99.42","","","","","","NA"
"2013-03-14 17:00","2013","03","14","17:00","-3.1","","-15.0","","39","","","M","","M","","","99.38","","","","","","NA"
"2013-03-14 18:00","2013","03","14","18:00","-3.2","","-15.0","","40","","","M","","M","","","99.38","","","","","","NA"
"2013-03-14 19:00","2013","03","14","19:00","-3.4","","-11.9","","52","","","M","","M","","","99.35","","","","","","NA"
"2013-03-14 20:00","2013","03","14","20:00","-3.6","","-11.0","","56","","","M","","M","","","99.26","","","","","","NA"
"2013-03-14 21:00","2013","03","14","21:00","-3.6","","-11.0","","56","","","M","","M","","","99.17","","","","","","NA"
"2013-03-14 22:00","2013","03","14","22:00","-3.3","","-10.9","","56","","","M","","M","","","99.15","","","","","","NA"
"2013-03-14 23:00","2013","03","14","23:00","-3.3","","-9.3","","63","","","M","","M","","","99.03","","","","","","NA"
"2013-03-15 00:00","2013","03","15","00:00","-3.0","","-7.8","","69","","","M","","M","","","98.95","","","","","","NA"
"2013-03-15 01:00","2013","03","15","01:00","-3.5","","-5.4","","87","","","M","","M","","","98.85","","","","","","NA"
"2013-03-15 02:00","2013","03","15","02:00","-3.7","","-4.8","","92","","","M","","M","","","98.71","","","","","","NA"
"2013-03-15 03:00","2013","03","15","03:00","-3.2","","-4.2","","93","","","M","","M","","","98.54","","","","","","NA"
"2013-03-15 04:00","2013","03","15","04:00","-2.9","","-3.8","","93","","","M","","M","","","98.38","","","","","","NA"
"2013-03-15 05:00","2013","03","15","05:00","-2.1","","-2.9","","94","","","M","","M","","","98.28","","","","","","NA"
"2013-03-15 06:00","2013","03","15","06:00","-0.9","","-1.8","","94","","","M","","M","","","98.22","","","","","","NA"
"2013-03-15 07:00","2013","03","15","07:00","-0.8","","-2.5","","88","","","M","","M","","","98.23","","","","","","NA"
"2013-03-15 08:00","2013","03","15","08:00","-0.7","","-3.6","","81","","","M","","M","","","98.27","","","","","","NA"
"2013-03-15 09:00","2013","03","15","09:00","-1.0","","-6.3","","67","","","M","","M","","","98.35","","","","","","NA"
"2013-03-15 10:00","2013","03","15","10:00","-1.3","","-9.4","","54","","","M","","M","","","98.40","","","","","","NA"
"2013-03-15 11:00","2013","03","15","11:00","-2.6","","-10.7","","54","","","M","","M","","","98.47","","","","","","NA"
"2013-03-15 12:00","2013","03","15","12:00","-1.8","","-11.7","","47","","","M","","M","","","98.49","","","","","","NA"
"2013-03-15 13:00","2013","03","15","13:00","-2.2","","-11.9","","47","","","M","","M","","","98.53","","","","","","NA"
"2013-03-15 14:00","2013","03","15","14:00","-2.1","","-11.9","","47","","","M","","M","","","98.55","","","","","","NA"
"2013-03-15 15:00","2013","03","15","15:00","-2.0","","-12.6","","44","","","M","","M","","","98.58","","","","","","NA"
"2013-03-15 16:00","2013","03","15","16:00","-2.6","","-12.9","","45","","","M","","M","","","98.66","","","","","","NA"
"2013-03-15 17:00","2013","03","15","17:00","-3.2","","-14.1","","43","","","M","","M","","","98.76","","","","","","NA"
"2013-03-15 18:00","2013","03","15","18:00","-3.8","","-14.6","","43","","","M","","M","","","98.81","","","","","","NA"
"2013-03-15 19:00","2013","03","15","19:00","-5.0","","-13.4","","52","","","M","","M","","","98.89","","","","","","NA"
"2013-03-15 20:00","2013","03","15","20:00","-6.2","","-14.1","","54","","","M","","M","","","98.97","","","","","","NA"
"2013-03-15 21:00","2013","03","15","21:00","-7.2","","-14.3","","57","","","M","","M","","","99.04","","","","","","NA"
"2013-03-15 22:00","2013","03","15","22:00","-8.3","","-15.7","","55","","","M","","M","","","99.13","","","","","","NA"
"2013-03-15 23:00","2013","03","15","23:00","-9.2","","-16.7","","54","","","M","","M","","","99.14","","","","","","NA"
"2013-03-16 00:00","2013","03","16","00:00","-10.0","","-16.5","","59","","","M","","M","","","99.15","","","","","","NA"
"2013-03-16 01:00","2013","03","16","01:00","-10.6","","-17.8","","55","","","M","","M","","","99.13","","","","","","NA"
"2013-03-16 02:00","2013","03","16","02:00","-11.4","","-16.6","","65","","","M","","M","","","99.18","","","","","","NA"
"2013-03-16 03:00","2013","03","16","03:00","-11.9","","-17.4","","64","","","M","","M","","","99.21","","","","","","NA"
"2013-03-16 04:00","2013","03","16","04:00","-12.6","","-19.2","","58","","","M","","M","","","99.17","","","","","","NA"
"2013-03-16 05:00","2013","03","16","05:00","-13.2","","-20.3","","55","","","M","","M","","","99.17","","","","","","NA"
"2013-03-16 06:00","2013","03","16","06:00","-13.9","","-19.1","","65","","","M","","M","","","99.22","","","","","","NA"
"2013-03-16 07:00","2013","03","16","07:00","-14.2","","-19.6","","64","","","M","","M","","","99.25","","","","","","NA"
"2013-03-16 08:00","2013","03","16","08:00","-14.5","","-21.5","","55","","","M","","M","","","99.25","","","","","","NA"
"2013-03-16 09:00","2013","03","16","09:00","-13.9","","-20.8","","56","","","M","","M","","","99.27","","","","","","NA"
"2013-03-16 10:00","2013","03","16","10:00","-12.9","","-20.4","","53","","","M","","M","","","99.24","","","","","","NA"
"2013-03-16 11:00","2013","03","16","11:00","-11.4","","-20.6","","46","","","M","","M","","","99.22","","","","","","NA"
"2013-03-16 12:00","2013","03","16","12:00","-10.6","","-19.6","","48","","","M","","M","","","99.22","","","","","","NA"
"2013-03-16 13:00","2013","03","16","13:00","-10.0","","-19.7","","45","","","M","","M","","","99.17","","","","","","NA"
"2013-03-16 14:00","2013","03","16","14:00","-9.5","","-18.3","","49","","","M","","M","","","99.10","","","","","","NA"
"2013-03-16 15:00","2013","03","16","15:00","-8.7","","-19.0","","43","","","M","","M","","","99.05","","","","","","NA"
"2013-03-16 16:00","2013","03","16","16:00","-7.7","","-19.9","","37","","","M","","M","","","99.01","","","","","","NA"
"2013-03-16 17:00","2013","03","16","17:00","-7.5","","-19.8","","37","","","M","","M","","","99.02","","","","","","NA"
"2013-03-16 18:00","2013","03","16","18:00","-7.7","","-18.9","","40","","","M","","M","","","99.03","","","","","","NA"
"2013-03-16 19:00","2013","03","16","19:00","-8.6","","-17.4","","49","","","M","","M","","","99.06","","","","","","NA"
"2013-03-16 20:00","2013","03","16","20:00","-9.2","","-16.0","","58","","","M","","M","","","99.07","","","","","","NA"
"2013-03-16 21:00","2013","03","16","21:00","-10.0","","-15.5","","64","","","M","","M","","","99.07","","","","","","NA"
"2013-03-16 22:00","2013","03","16","22:00","-10.0","","-15.5","","64","","","M","","M","","","99.08","","","","","","NA"
"2013-03-16 23:00","2013","03","16","23:00","-9.4","","-15.1","","63","","","M","","M","","","99.13","","","","","","NA"
"2013-03-17 00:00","2013","03","17","00:00","-8.8","","-14.8","","62","","","M","","M","","","99.22","","","","","","NA"
"2013-03-17 01:00","2013","03","17","01:00","-9.1","","-12.8","","74","","","M","","M","","","99.23","","","","","","NA"
"2013-03-17 02:00","2013","03","17","02:00","-9.8","","-11.5","","87","","","M","","M","","","99.30","","","","","","NA"
"2013-03-17 03:00","2013","03","17","03:00","-10.0","","-12.5","","82","","","M","","M","","","99.39","","","","","","NA"
"2013-03-17 04:00","2013","03","17","04:00","-10.6","","-14.4","","74","","","M","","M","","","99.47","","","","","","NA"
"2013-03-17 05:00","2013","03","17","05:00","-11.4","","-15.4","","72","","","M","","M","","","99.61","","","","","","NA"
"2013-03-17 06:00","2013","03","17","06:00","-12.4","","-16.7","","70","","","M","","M","","","99.78","","","","","","NA"
"2013-03-17 07:00","2013","03","17","07:00","-12.8","","-17.3","","69","","","M","","M","","","99.90","","","","","","NA"
"2013-03-17 08:00","2013","03","17","08:00","-12.4","","-17.5","","66","","","M","","M","","","99.99","","","","","","NA"
"2013-03-17 09:00","2013","03","17","09:00","-11.8","","-19.0","","55","","","M","","M","","","100.12","","","","","","NA"
"2013-03-17 10:00","2013","03","17","10:00","-9.8","","-19.1","","47","","","M","","M","","","100.18","","","","","","NA"
"2013-03-17 11:00","2013","03","17","11:00","-9.9","","-20.4","","42","","","M","","M","","","100.21","","","","","","NA"
"2013-03-17 12:00","2013","03","17","12:00","-9.3","","-20.6","","39","","","M","","M","","","100.25","","","","","","NA"
"2013-03-17 13:00","2013","03","17","13:00","-10.0","","-17.9","","52","","","M","","M","","","100.26","","","","","","NA"
"2013-03-17 14:00","2013","03","17","14:00","-9.4","","-18.7","","47","","","M","","M","","","100.24","","","","","","NA"
"2013-03-17 15:00","2013","03","17","15:00","-8.8","","-18.6","","45","","","M","","M","","","100.23","","","","","","NA"
"2013-03-17 16:00","2013","03","17","16:00","-8.1","","-19.3","","40","","","M","","M","","","100.24","","","","","","NA"
"2013-03-17 17:00","2013","03","17","17:00","-7.2","","-20.4","","34","","","M","","M","","","100.21","","","","","","NA"
"2013-03-17 18:00","2013","03","17","18:00","-7.2","","-21.2","","32","","","M","","M","","","100.25","","","","","","NA"
"2013-03-17 19:00","2013","03","17","19:00","-9.1","","-18.1","","48","","","M","","M","","","100.27","","","","","","NA"
"2013-03-17 20:00","2013","03","17","20:00","-9.5","","-19.4","","44","","","M","","M","","","100.27","","","","","","NA"
"2013-03-17 21:00","2013","03","17","21:00","-10.0","","-18.9","","48","","","M","","M","","","100.31","","","","","","NA"
"2013-03-17 22:00","2013","03","17","22:00","-9.8","","-19.0","","47","","","M","","M","","","100.32","","","","","","NA"
"2013-03-17 23:00","2013","03","17","23:00","-10.6","","-19.0","","50","","","M","","M","","","100.30","","","","","","NA"
"2013-03-18 00:00","2013","03","18","00:00","-10.2","","-17.1","","57","","","M","","M","","","100.20","","","","","","NA"
"2013-03-18 01:00","2013","03","18","01:00","-11.6","","-17.0","","64","","","M","","M","","","100.18","","","","","","NA"
"2013-03-18 02:00","2013","03","18","02:00","-10.3","","-17.8","","54","","","M","","M","","","100.20","","","","","","NA"
"2013-03-18 03:00","2013","03","18","03:00","-10.9","","-17.4","","59","","","M","","M","","","100.15","","","","","","NA"
"2013-03-18 04:00","2013","03","18","04:00","-11.2","","-17.5","","60","","","M","","M","","","100.11","","","","","","NA"
"2013-03-18 05:00","2013","03","18","05:00","-11.2","","-18.0","","57","","","M","","M","","","100.07","","","","","","NA"
"2013-03-18 06:00","2013","03","18","06:00","-11.8","","-18.2","","59","","","M","","M","","","100.07","","","","","","NA"
"2013-03-18 07:00","2013","03","18","07:00","-12.4","","-17.7","","65","","","M","","M","","","100.01","","","","","","NA"
"2013-03-18 08:00","2013","03","18","08:00","-10.5","","-16.1","","63","","","M","","M","","","99.96","","","","","","NA"
"2013-03-18 09:00","2013","03","18","09:00","-8.6","","-14.2","","64","","","M","","M","","","99.86","","","","","","NA"
"2013-03-18 10:00","2013","03","18","10:00","-7.1","","-12.6","","65","","","M","","M","","","99.71","","","","","","NA"
"2013-03-18 11:00","2013","03","18","11:00","-5.1","","-12.1","","58","","","M","","M","","","99.57","","","","","","NA"
"2013-03-18 12:00","2013","03","18","12:00","-3.4","","-12.0","","51","","","M","","M","","","99.39","","","","","","NA"
"2013-03-18 13:00","2013","03","18","13:00","-1.9","","-12.1","","46","","","M","","M","","","99.20","","","","","","NA"
"2013-03-18 14:00","2013","03","18","14:00","-0.7","","-11.7","","43","","","M","","M","","","99.08","","","","","","NA"
"2013-03-18 15:00","2013","03","18","15:00","0.2","","-8.4","","52","","","M","","M","","","98.89","","","","","","NA"
"2013-03-18 16:00","2013","03","18","16:00","0.9","","-8.7","","49","","","M","","M","","","98.66","","","","","","NA"
"2013-03-18 17:00","2013","03","18","17:00","1.2","","-6.9","","55","","","M","","M","","","98.62","","","","","","NA"
"2013-03-18 18:00","2013","03","18","18:00","1.2","","-7.4","","53","","","M","","M","","","98.44","","","","","","NA"
"2013-03-18 19:00","2013","03","18","19:00","0.6","","-8.1","","52","","","M","","M","","","98.30","","","","","","NA"
"2013-03-18 20:00","2013","03","18","20:00","-2.1","","-3.3","","91","","","M","","M","","","98.32","","","","","","NA"
"2013-03-18 21:00","2013","03","18","21:00","-2.1","","-3.6","","89","","","M","","M","","","98.19","","","","","","NA"
"2013-03-18 22:00","2013","03","18","22:00","-2.5","","-3.7","","91","","","M","","M","","","98.10","","","","","","NA"
"2013-03-18 23:00","2013","03","18","23:00","-3.0","","-4.0","","93","","","M","","M","","","97.94","","","","","","NA"
"2013-03-19 00:00","2013","03","19","00:00","-3.3","","-4.2","","93","","","M","","M","","","97.79","","","","","","NA"
"2013-03-19 01:00","2013","03","19","01:00","-3.2","","-4.3","","92","","","M","","M","","","97.66","","","","","","NA"
"2013-03-19 02:00","2013","03","19","02:00","-3.0","","-4.1","","92","","","M","","M","","","97.56","","","","","","NA"
"2013-03-19 03:00","2013","03","19","03:00","-3.1","","-4.0","","93","","","M","","M","","","97.46","","","","","","NA"
"2013-03-19 04:00","2013","03","19","04:00","-2.3","","-3.0","","95","","","M","","M","","","97.36","","","","","","NA"
"2013-03-19 05:00","2013","03","19","05:00","0.0","","-0.7","","95","","","M","","M","","","97.37","","","","","","NA"
"2013-03-19 06:00","2013","03","19","06:00","-0.1","","-1.5","","90","","","M","","M","","","97.44","","","","","","NA"
"2013-03-19 07:00","2013","03","19","07:00","-0.3","","-1.3","","93","","","M","","M","","","97.48","","","","","","NA"
"2013-03-19 08:00","2013","03","19","08:00","-0.3","","-1.1","","94","","","M","","M","","","97.51","","","","","","NA"
"2013-03-19 09:00","2013","03","19","09:00","-0.5","","-1.7","","92","","","M","","M","","","97.55","","","","","","NA"
"2013-03-19 10:00","2013","03","19","10:00","-2.3","","-3.4","","92","","","M","","M","","","97.58","","","","","","NA"
"2013-03-19 11:00","2013","03","19","11:00","-2.9","","-4.5","","89","","","M","","M","","","97.67","","","","","","NA"
"2013-03-19 12:00","2013","03","19","12:00","-2.7","","-6.4","","76","","","M","","M","","","97.70","","","","","","NA"
"2013-03-19 13:00","2013","03","19","13:00","-2.9","","-6.2","","78","","","M","","M","","","97.75","","","","","","NA"
"2013-03-19 14:00","2013","03","19","14:00","-3.5","","-5.8","","84","","","M","","M","","","97.83","","","","","","NA"
"2013-03-19 15:00","2013","03","19","15:00","-3.1","","-5.9","","81","","","M","","M","","","97.90","","","","","","NA"
"2013-03-19 16:00","2013","03","19","16:00","-3.2","","-5.4","","85","","","M","","M","","","97.98","","","","","","NA"
"2013-03-19 17:00","2013","03","19","17:00","-2.8","","-4.7","","87","","","M","","M","","","98.06","","","","","","NA"
"2013-03-19 18:00","2013","03","19","18:00","-2.8","","-4.5","","88","","","M","","M","","","98.09","","","","","","NA"
"2013-03-19 19:00","2013","03","19","19:00","-2.8","","-4.2","","90","","","M","","M","","","98.08","","","","","","NA"
"2013-03-19 20:00","2013","03","19","20:00","-3.1","","-4.5","","90","","","M","","M","","","98.07","","","","","","NA"
"2013-03-19 21:00","2013","03","19","21:00","-2.8","","-4.6","","87","","","M","","M","","","98.05","","","","","","NA"
"2013-03-19 22:00","2013","03","19","22:00","-2.6","","-3.9","","91","","","M","","M","","","98.03","","","","","","NA"
"2013-03-19 23:00","2013","03","19","23:00","-2.9","","-4.8","","87","","","M","","M","","","98.05","","","","","","NA"
"2013-03-20 00:00","2013","03","20","00:00","-3.5","","-5.8","","84","","","M","","M","","","98.12","","","","","","NA"
"2013-03-20 01:00","2013","03","20","01:00","-4.0","","-6.2","","85","","","M","","M","","","98.20","","","","","","NA"
"2013-03-20 02:00","2013","03","20","02:00","-4.4","","-6.9","","83","","","M","","M","","","98.22","","","","","","NA"
"2013-03-20 03:00","2013","03","20","03:00","-5.1","","-7.4","","84","","","M","","M","","","98.20","","","","","","NA"
"2013-03-20 04:00","2013","03","20","04:00","-5.9","","-8.0","","85","","","M","","M","","","98.23","","","","","","NA"
"2013-03-20 05:00","2013","03","20","05:00","-6.5","","-8.5","","86","","","M","","M","","","98.24","","","","","","NA"
"2013-03-20 06:00","2013","03","20","06:00","-7.1","","-9.1","","86","","","M","","M","","","98.24","","","","","","NA"
"2013-03-20 07:00","2013","03","20","07:00","-7.4","","-9.6","","84","","","M","","M","","","98.29","","","","","","NA"
"2013-03-20 08:00","2013","03","20","08:00","-7.1","","-9.7","","82","","","M","","M","","","98.33","","","","","","NA"
"2013-03-20 09:00","2013","03","20","09:00","-6.6","","-9.7","","79","","","M","","M","","","98.36","","","","","","NA"
"2013-03-20 10:00","2013","03","20","10:00","-5.8","","-9.4","","76","","","M","","M","","","98.35","","","","","","NA"
"2013-03-20 11:00","2013","03","20","11:00","-5.0","","-8.9","","74","","","M","","M","","","98.34","","","","","","NA"
"2013-03-20 12:00","2013","03","20","12:00","-4.3","","-9.1","","69","","","M","","M","","","98.32","","","","","","NA"
"2013-03-20 13:00","2013","03","20","13:00","-3.4","","-8.6","","67","","","M","","M","","","98.35","","","","","","NA"
"2013-03-20 14:00","2013","03","20","14:00","-2.6","","-9.6","","59","","","M","","M","","","98.30","","","","","","NA"
"2013-03-20 15:00","2013","03","20","15:00","-2.0","","-9.0","","59","","","M","","M","","","98.30","","","","","","NA"
"2013-03-20 16:00","2013","03","20","16:00","-2.1","","-7.4","","67","","","M","","M","","","98.32","","","","","","NA"
"2013-03-20 17:00","2013","03","20","17:00","-2.7","","-7.8","","68","","","M","","M","","","98.35","","","","","","NA"
"2013-03-20 18:00","2013","03","20","18:00","-3.1","","-7.5","","72","","","M","","M","","","98.39","","","","","","NA"
"2013-03-20 19:00","2013","03","20","19:00","-3.7","","-7.2","","77","","","M","","M","","","98.39","","","","","","NA"
"2013-03-20 20:00","2013","03","20","20:00","-3.9","","-6.8","","80","","","M","","M","","","98.39","","","","","","NA"
"2013-03-20 21:00","2013","03","20","21:00","-4.0","","-6.6","","82","","","M","","M","","","98.34","","","","","","NA"
"2013-03-20 22:00","2013","03","20","22:00","-4.0","","-5.8","","87","","","M","","M","","","98.28","","","","","","NA"
"2013-03-20 23:00","2013","03","20","23:00","-3.7","","-4.9","","91","","","M","","M","","","98.23","","","","","","NA"
"2013-03-21 00:00","2013","03","21","00:00","-3.5","","-4.7","","91","","","M","","M","","","98.19","","","","","","NA"
"2013-03-21 01:00","2013","03","21","01:00","-3.6","","-4.8","","91","","","M","","M","","","98.16","","","","","","NA"
"2013-03-21 02:00","2013","03","21","02:00","-3.8","","-5.4","","89","","","M","","M","","","98.16","","","","","","NA"
"2013-03-21 03:00","2013","03","21","03:00","-3.9","","-6.3","","83","","","M","","M","","","98.16","","","","","","NA"
"2013-03-21 04:00","2013","03","21","04:00","-4.0","","-7.2","","78","","","M","","M","","","98.16","","","","","","NA"
"2013-03-21 05:00","2013","03","21","05:00","-4.5","","-6.8","","84","","","M","","M","","","98.20","","","","","","NA"
"2013-03-21 06:00","2013","03","21","06:00","-4.8","","-7.6","","81","","","M","","M","","","98.24","","","","","","NA"
"2013-03-21 07:00","2013","03","21","07:00","-5.1","","-7.6","","83","","","M","","M","","","98.29","","","","","","NA"
"2013-03-21 08:00","2013","03","21","08:00","-5.0","","-8.2","","78","","","M","","M","","","98.31","","","","","","NA"
"2013-03-21 09:00","2013","03","21","09:00","-4.6","","-8.6","","74","","","M","","M","","","98.33","","","","","","NA"
"2013-03-21 10:00","2013","03","21","10:00","-3.5","","-9.4","","64","","","M","","M","","","98.35","","","","","","NA"
"2013-03-21 11:00","2013","03","21","11:00","-2.6","","-9.5","","59","","","M","","M","","","98.34","","","","","","NA"
"2013-03-21 12:00","2013","03","21","12:00","-1.4","","-10.4","","50","","","M","","M","","","98.33","","","","","","NA"
"2013-03-21 13:00","2013","03","21","13:00","-1.3","","-10.3","","50","","","M","","M","","","98.34","","","","","","NA"
"2013-03-21 14:00","2013","03","21","14:00","-0.7","","-10.8","","46","","","M","","M","","","98.31","","","","","","NA"
"2013-03-21 15:00","2013","03","21","15:00","-0.5","","-10.6","","46","","","M","","M","","","98.29","","","","","","NA"
"2013-03-21 16:00","2013","03","21","16:00","-0.6","","-9.1","","53","","","M","","M","","","98.30","","","","","","NA"
"2013-03-21 17:00","2013","03","21","17:00","-1.7","","-7.7","","64","","","M","","M","","","98.31","","","","","","NA"
"2013-03-21 18:00","2013","03","21","18:00","-2.1","","-6.9","","70","","","M","","M","","","98.33","","","","","","NA"
"2013-03-21 19:00","2013","03","21","19:00","-2.1","","-6.4","","72","","","M","","M","","","98.37","","","","","","NA"
"2013-03-21 20:00","2013","03","21","20:00","-2.8","","-5.7","","80","","","M","","M","","","98.40","","","","","","NA"
"2013-03-21 21:00","2013","03","21","21:00","-2.2","","-7.8","","65","","","M","","M","","","98.42","","","","","","NA"
"2013-03-21 22:00","2013","03","21","22:00","-2.7","","-8.5","","64","","","M","","M","","","98.43","","","","","","NA"
"2013-03-21 23:00","2013","03","21","23:00","-3.4","","-9.6","","62","","","M","","M","","","98.46","","","","","","NA"
"2013-03-22 00:00","2013","03","22","00:00","-5.1","","-9.1","","73","","","M","","M","","","98.51","","","","","","NA"
"2013-03-22 01:00","2013","03","22","01:00","-6.2","","-10.8","","70","","","M","","M","","","98.55","","","","","","NA"
"2013-03-22 02:00","2013","03","22","02:00","-6.8","","-11.5","","69","","","M","","M","","","98.56","","","","","","NA"
"2013-03-22 03:00","2013","03","22","03:00","-7.3","","-12.3","","67","","","M","","M","","","98.61","","","","","","NA"
"2013-03-22 04:00","2013","03","22","04:00","-8.0","","-12.3","","71","","","M","","M","","","98.64","","","","","","NA"
"2013-03-22 05:00","2013","03","22","05:00","-8.0","","-11.9","","73","","","M","","M","","","98.65","","","","","","NA"
"2013-03-22 06:00","2013","03","22","06:00","-8.3","","-12.0","","75","","","M","","M","","","98.67","","","","","","NA"
"2013-03-22 07:00","2013","03","22","07:00","","M","","M","","M","","M","","M","","","","M","","","","","NA"
"2013-03-22 08:00","2013","03","22","08:00","-7.4","","-11.4","","73","","","M","","M","","","98.74","","","","","","NA"
"2013-03-22 09:00","2013","03","22","09:00","-6.6","","-10.9","","71","","","M","","M","","","98.73","","","","","","NA"
"2013-03-22 10:00","2013","03","22","10:00","-5.4","","-10.2","","69","","","M","","M","","","98.73","","","","","","NA"
"2013-03-22 11:00","2013","03","22","11:00","-4.1","","-9.5","","66","","","M","","M","","","98.72","","","","","","NA"
"2013-03-22 12:00","2013","03","22","12:00","-2.5","","-8.6","","63","","","M","","M","","","98.70","","","","","","NA"
"2013-03-22 13:00","2013","03","22","13:00","-2.3","","-8.0","","65","","","M","","M","","","98.68","","","","","","NA"
"2013-03-22 14:00","2013","03","22","14:00","-1.6","","-7.3","","65","","","M","","M","","","98.67","","","","","","NA"
"2013-03-22 15:00","2013","03","22","15:00","-0.2","","-6.3","","63","","","M","","M","","","98.69","","","","","","NA"
"2013-03-22 16:00","2013","03","22","16:00","0.4","","-6.6","","59","","","M","","M","","","98.69","","","","","","NA"
"2013-03-22 17:00","2013","03","22","17:00","0.1","","-4.9","","69","","","M","","M","","","98.73","","","","","","NA"
"2013-03-22 18:00","2013","03","22","18:00","-0.1","","-4.8","","71","","","M","","M","","","98.77","","","","","","NA"
"2013-03-22 19:00","2013","03","22","19:00","-0.8","","-4.3","","77","","","M","","M","","","98.85","","","","","","NA"
"2013-03-22 20:00","2013","03","22","20:00","-1.6","","-4.6","","80","","","M","","M","","","98.90","","","","","","NA"
"2013-03-22 21:00","2013","03","22","21:00","-1.9","","-4.6","","82","","","M","","M","","","98.99","","","","","","NA"
"2013-03-22 22:00","2013","03","22","22:00","-0.7","","-5.3","","71","","","M","","M","","","99.05","","","","","","NA"
"2013-03-22 23:00","2013","03","22","23:00","-0.8","","-6.4","","66","","","M","","M","","","99.08","","","","","","NA"
"2013-03-23 00:00","2013","03","23","00:00","-1.7","","-6.6","","69","","","M","","M","","","99.08","","","","","","NA"
"2013-03-23 01:00","2013","03","23","01:00","-2.2","","-7.2","","69","","","M","","M","","","99.11","","","","","","NA"
"2013-03-23 02:00","2013","03","23","02:00","-2.2","","-7.1","","69","","","M","","M","","","99.10","","","","","","NA"
"2013-03-23 03:00","2013","03","23","03:00","-3.3","","-7.2","","74","","","M","","M","","","99.13","","","","","","NA"
"2013-03-23 04:00","2013","03","23","04:00","-3.5","","-7.2","","75","","","M","","M","","","99.15","","","","","","NA"
"2013-03-23 05:00","2013","03","23","05:00","-4.0","","-7.3","","78","","","M","","M","","","99.20","","","","","","NA"
"2013-03-23 06:00","2013","03","23","06:00","-4.7","","-7.5","","81","","","M","","M","","","99.27","","","","","","NA"
"2013-03-23 07:00","2013","03","23","07:00","-4.6","","-7.3","","81","","","M","","M","","","99.32","","","","","","NA"
"2013-03-23 08:00","2013","03","23","08:00","-3.7","","-7.3","","76","","","M","","M","","","99.33","","","","","","NA"
"2013-03-23 09:00","2013","03","23","09:00","-3.1","","-7.5","","72","","","M","","M","","","99.31","","","","","","NA"
"2013-03-23 10:00","2013","03","23","10:00","-2.1","","-7.5","","66","","","M","","M","","","99.31","","","","","","NA"
"2013-03-23 11:00","2013","03","23","11:00","-0.3","","-7.4","","59","","","M","","M","","","99.30","","","","","","NA"
"2013-03-23 12:00","2013","03","23","12:00","0.5","","-7.6","","55","","","M","","M","","","99.27","","","","","","NA"
"2013-03-23 13:00","2013","03","23","13:00","0.7","","-6.4","","59","","","M","","M","","","99.25","","","","","","NA"
"2013-03-23 14:00","2013","03","23","14:00","1.2","","-6.8","","55","","","M","","M","","","99.26","","","","","","NA"
"2013-03-23 15:00","2013","03","23","15:00","1.9","","-5.9","","56","","","M","","M","","","99.25","","","","","","NA"
"2013-03-23 16:00","2013","03","23","16:00","1.9","","-5.9","","56","","","M","","M","","","99.26","","","","","","NA"
"2013-03-23 17:00","2013","03","23","17:00","1.9","","-6.3","","55","","","M","","M","","","99.27","","","","","","NA"
"2013-03-23 18:00","2013","03","23","18:00","1.5","","-5.6","","59","","","M","","M","","","99.32","","","","","","NA"
"2013-03-23 19:00","2013","03","23","19:00","1.9","","-9.1","","44","","","M","","M","","","99.34","","","","","","NA"
"2013-03-23 20:00","2013","03","23","20:00","1.6","","-9.9","","42","","","M","","M","","","99.38","","","","","","NA"
"2013-03-23 21:00","2013","03","23","21:00","1.1","","-9.8","","44","","","M","","M","","","99.43","","","","","","NA"
"2013-03-23 22:00","2013","03","23","22:00","0.7","","-9.3","","47","","","M","","M","","","99.43","","","","","","NA"
"2013-03-23 23:00","2013","03","23","23:00","-0.2","","-7.6","","57","","","M","","M","","","99.44","","","","","","NA"
"2013-03-24 00:00","2013","03","24","00:00","-0.9","","-7.4","","61","","","M","","M","","","99.44","","","","","","NA"
"2013-03-24 01:00","2013","03","24","01:00","-1.7","","-7.3","","66","","","M","","M","","","99.42","","","","","","NA"
"2013-03-24 02:00","2013","03","24","02:00","-2.3","","-7.4","","68","","","M","","M","","","99.37","","","","","","NA"
"2013-03-24 03:00","2013","03","24","03:00","-2.3","","-7.0","","70","","","M","","M","","","99.32","","","","","","NA"
"2013-03-24 04:00","2013","03","24","04:00","-2.3","","-6.9","","71","","","M","","M","","","99.33","","","","","","NA"
"2013-03-24 05:00","2013","03","24","05:00","-2.7","","-7.2","","71","","","M","","M","","","99.35","","","","","","NA"
"2013-03-24 06:00","2013","03","24","06:00","-3.7","","-7.4","","75","","","M","","M","","","99.44","","","","","","NA"
"2013-03-24 07:00","2013","03","24","07:00","-3.7","","-7.2","","77","","","M","","M","","","99.44","","","","","","NA"
"2013-03-24 08:00","2013","03","24","08:00","-2.5","","-7.3","","70","","","M","","M","","","99.35","","","","","","NA"
"2013-03-24 09:00","2013","03","24","09:00","-1.4","","-7.6","","63","","","M","","M","","","99.32","","","","","","NA"
"2013-03-24 10:00","2013","03","24","10:00","-0.9","","-7.9","","59","","","M","","M","","","99.29","","","","","","NA"
"2013-03-24 11:00","2013","03","24","11:00","-0.2","","-8.2","","55","","","M","","M","","","99.25","","","","","","NA"
"2013-03-24 12:00","2013","03","24","12:00","0.8","","-8.5","","50","","","M","","M","","","99.19","","","","","","NA"
"2013-03-24 13:00","2013","03","24","13:00","1.7","","-8.5","","47","","","M","","M","","","99.10","","","","","","NA"
"2013-03-24 14:00","2013","03","24","14:00","2.4","","-8.2","","45","","","M","","M","","","99.00","","","","","","NA"
"2013-03-24 15:00","2013","03","24","15:00","2.2","","-8.0","","47","","","M","","M","","","98.92","","","","","","NA"
"2013-03-24 16:00","2013","03","24","16:00","2.0","","-7.8","","48","","","M","","M","","","98.86","","","","","","NA"
"2013-03-24 17:00","2013","03","24","17:00","2.3","","-7.5","","48","","","M","","M","","","98.81","","","","","","NA"
"2013-03-24 18:00","2013","03","24","18:00","2.2","","-7.4","","49","","","M","","M","","","98.80","","","","","","NA"
"2013-03-24 19:00","2013","03","24","19:00","1.8","","-6.9","","52","","","M","","M","","","98.80","","","","","","NA"
"2013-03-24 20:00","2013","03","24","20:00","1.4","","-6.8","","54","","","M","","M","","","98.83","","","","","","NA"
"2013-03-24 21:00","2013","03","24","21:00","0.7","","-6.6","","58","","","M","","M","","","98.86","","","","","","NA"
"2013-03-24 22:00","2013","03","24","22:00","0.4","","-6.5","","60","","","M","","M","","","98.85","","","","","","NA"
"2013-03-24 23:00","2013","03","24","23:00","0.2","","-6.3","","62","","","M","","M","","","98.82","","","","","","NA"
"2013-03-25 00:00","2013","03","25","00:00","0.1","","-6.2","","63","","","M","","M","","","98.82","","","","","","NA"
"2013-03-25 01:00","2013","03","25","01:00","-0.1","","-6.0","","64","","","M","","M","","","98.77","","","","","","NA"
"2013-03-25 02:00","2013","03","25","02:00","-0.1","","-5.8","","65","","","M","","M","","","98.74","","","","","","NA"
"2013-03-25 03:00","2013","03","25","03:00","-0.2","","-5.5","","67","","","M","","M","","","98.71","","","","","","NA"
"2013-03-25 04:00","2013","03","25","04:00","-0.3","","-5.0","","71","","","M","","M","","","98.69","","","","","","NA"
"2013-03-25 05:00","2013","03","25","05:00","-0.4","","-4.9","","72","","","M","","M","","","98.65","","","","","","NA"
"2013-03-25 06:00","2013","03","25","06:00","-0.3","","-4.5","","73","","","M","","M","","","98.64","","","","","","NA"
"2013-03-25 07:00","2013","03","25","07:00","-0.2","","-4.1","","75","","","M","","M","","","98.64","","","","","","NA"
"2013-03-25 08:00","2013","03","25","08:00","0.5","","-3.7","","73","","","M","","M","","","98.63","","","","","","NA"
"2013-03-25 09:00","2013","03","25","09:00","1.3","","-3.7","","69","","","M","","M","","","98.62","","","","","","NA"
"2013-03-25 10:00","2013","03","25","10:00","2.4","","-3.9","","63","","","M","","M","","","98.61","","","","","","NA"
"2013-03-25 11:00","2013","03","25","11:00","3.2","","-3.4","","62","","","M","","M","","","98.61","","","","","","NA"
"2013-03-25 12:00","2013","03","25","12:00","3.9","","-3.6","","58","","","M","","M","","","98.60","","","","","","NA"
"2013-03-25 13:00","2013","03","25","13:00","4.6","","-5.1","","49","","","M","","M","","","98.57","","","","","","NA"
"2013-03-25 14:00","2013","03","25","14:00","5.3","","-4.6","","49","","","M","","M","","","98.54","","","","","","NA"
"2013-03-25 15:00","2013","03","25","15:00","5.7","","-5.4","","45","","","M","","M","","","98.53","","","","","","NA"
"2013-03-25 16:00","2013","03","25","16:00","6.0","","-4.8","","46","","","M","","M","","","98.54","","","","","","NA"
"2013-03-25 17:00","2013","03","25","17:00","5.5","","-4.5","","48","","","M","","M","","","98.60","","","","","","NA"
"2013-03-25 18:00","2013","03","25","18:00","4.8","","-4.0","","53","","","M","","M","","","98.66","","","","","","NA"
"2013-03-25 19:00","2013","03","25","19:00","4.5","","-3.6","","56","","","M","","M","","","98.72","","","","","","NA"
"2013-03-25 20:00","2013","03","25","20:00","3.9","","-3.2","","60","","","M","","M","","","98.78","","","","","","NA"
"2013-03-25 21:00","2013","03","25","21:00","3.5","","-3.3","","61","","","M","","M","","","98.81","","","","","","NA"
"2013-03-25 22:00","2013","03","25","22:00","3.4","","-3.6","","60","","","M","","M","","","98.81","","","","","","NA"
"2013-03-25 23:00","2013","03","25","23:00","3.4","","-4.2","","57","","","M","","M","","","98.82","","","","","","NA"
"2013-03-26 00:00","2013","03","26","00:00","3.4","","-4.6","","56","","","M","","M","","","98.81","","","","","","NA"
"2013-03-26 01:00","2013","03","26","01:00","3.4","","-4.7","","55","","","M","","M","","","98.83","","","","","","NA"
"2013-03-26 02:00","2013","03","26","02:00","3.3","","-5.0","","54","","","M","","M","","","98.81","","","","","","NA"
"2013-03-26 03:00","2013","03","26","03:00","2.8","","-5.2","","56","","","M","","M","","","98.83","","","","","","NA"
"2013-03-26 04:00","2013","03","26","04:00","2.4","","-5.6","","55","","","M","","M","","","98.86","","","","","","NA"
"2013-03-26 05:00","2013","03","26","05:00","1.5","","-5.9","","58","","","M","","M","","","98.88","","","","","","NA"
"2013-03-26 06:00","2013","03","26","06:00","0.7","","-6.2","","60","","","M","","M","","","98.91","","","","","","NA"
"2013-03-26 07:00","2013","03","26","07:00","0.3","","-6.3","","61","","","M","","M","","","98.98","","","","","","NA"
"2013-03-26 08:00","2013","03","26","08:00","0.9","","-6.3","","59","","","M","","M","","","99.05","","","","","","NA"
"2013-03-26 09:00","2013","03","26","09:00","1.7","","-6.4","","55","","","M","","M","","","99.06","","","","","","NA"
"2013-03-26 10:00","2013","03","26","10:00","3.2","","-6.7","","48","","","M","","M","","","99.09","","","","","","NA"
"2013-03-26 11:00","2013","03","26","11:00","4.4","","-6.1","","46","","","M","","M","","","99.08","","","","","","NA"
"2013-03-26 12:00","2013","03","26","12:00","5.2","","-6.3","","43","","","M","","M","","","99.06","","","","","","NA"
"2013-03-26 13:00","2013","03","26","13:00","6.6","","-7.0","","37","","","M","","M","","","99.04","","","","","","NA"
"2013-03-26 14:00","2013","03","26","14:00","5.2","","-6.3","","43","","","M","","M","","","99.03","","","","","","NA"
"2013-03-26 15:00","2013","03","26","15:00","4.8","","-4.8","","50","","","M","","M","","","99.01","","","","","","NA"
"2013-03-26 16:00","2013","03","26","16:00","4.8","","-5.6","","47","","","M","","M","","","99.03","","","","","","NA"
"2013-03-26 17:00","2013","03","26","17:00","4.1","","-4.9","","52","","","M","","M","","","99.05","","","","","","NA"
"2013-03-26 18:00","2013","03","26","18:00","3.8","","-4.4","","55","","","M","","M","","","99.08","","","","","","NA"
"2013-03-26 19:00","2013","03","26","19:00","2.9","","-3.7","","62","","","M","","M","","","99.10","","","","","","NA"
"2013-03-26 20:00","2013","03","26","20:00","2.5","","-3.4","","65","","","M","","M","","","99.13","","","","","","NA"
"2013-03-26 21:00","2013","03","26","21:00","2.9","","-3.7","","62","","","M","","M","","","99.16","","","","","","NA"
"2013-03-26 22:00","2013","03","26","22:00","3.7","","-4.7","","54","","","M","","M","","","99.16","","","","","","NA"
"2013-03-26 23:00","2013","03","26","23:00","4.1","","-5.4","","50","","","M","","M","","","99.15","","","","","","NA"
"2013-03-27 00:00","2013","03","27","00:00","3.9","","-5.3","","51","","","M","","M","","","99.15","","","","","","NA"
"2013-03-27 01:00","2013","03","27","01:00","3.8","","-5.4","","51","","","M","","M","","","99.15","","","","","","NA"
"2013-03-27 02:00","2013","03","27","02:00","3.1","","-5.3","","54","","","M","","M","","","99.15","","","","","","NA"
"2013-03-27 03:00","2013","03","27","03:00","2.5","","-5.1","","57","","","M","","M","","","99.17","","","","","","NA"
"2013-03-27 04:00","2013","03","27","04:00","2.0","","-5.2","","59","","","M","","M","","","99.19","","","","","","NA"
"2013-03-27 05:00","2013","03","27","05:00","1.4","","-5.1","","62","","","M","","M","","","99.21","","","","","","NA"
"2013-03-27 06:00","2013","03","27","06:00","0.7","","-4.5","","68","","","M","","M","","","99.24","","","","","","NA"
"2013-03-27 07:00","2013","03","27","07:00","-0.3","","-3.5","","79","","","M","","M","","","99.29","","","","","","NA"
"2013-03-27 08:00","2013","03","27","08:00","0.0","","-3.7","","76","","","M","","M","","","99.34","","","","","","NA"
"2013-03-27 09:00","2013","03","27","09:00","0.1","","-3.9","","74","","","M","","M","","","99.36","","","","","","NA"
"2013-03-27 10:00","2013","03","27","10:00","0.7","","-3.4","","74","","","M","","M","","","99.37","","","","","","NA"
"2013-03-27 11:00","2013","03","27","11:00","1.6","","-4.3","","65","","","M","","M","","","99.38","","","","","","NA"
"2013-03-27 12:00","2013","03","27","12:00","3.8","","-4.7","","54","","","M","","M","","","99.35","","","","","","NA"
"2013-03-27 13:00","2013","03","27","13:00","4.8","","-4.4","","51","","","M","","M","","","99.34","","","","","","NA"
"2013-03-27 14:00","2013","03","27","14:00","4.4","","-4.1","","54","","","M","","M","","","99.33","","","","","","NA"
"2013-03-27 15:00","2013","03","27","15:00","5.0","","-4.2","","51","","","M","","M","","","99.32","","","","","","NA"
"2013-03-27 16:00","2013","03","27","16:00","2.8","","-3.7","","62","","","M","","M","","","99.37","","","","","","NA"
"2013-03-27 17:00","2013","03","27","17:00","2.5","","-3.2","","66","","","M","","M","","","99.38","","","","","","NA"
"2013-03-27 18:00","2013","03","27","18:00","2.8","","-2.8","","67","","","M","","M","","","99.43","","","","","","NA"
"2013-03-27 19:00","2013","03","27","19:00","3.7","","-3.5","","59","","","M","","M","","","99.47","","","","","","NA"
"2013-03-27 20:00","2013","03","27","20:00","3.6","","-3.7","","59","","","M","","M","","","99.52","","","","","","NA"
"2013-03-27 21:00","2013","03","27","21:00","3.2","","-3.7","","61","","","M","","M","","","99.57","","","","","","NA"
"2013-03-27 22:00","2013","03","27","22:00","2.8","","-4.0","","61","","","M","","M","","","99.58","","","","","","NA"
"2013-03-27 23:00","2013","03","27","23:00","2.1","","-4.1","","63","","","M","","M","","","99.59","","","","","","NA"
"2013-03-28 00:00","2013","03","28","00:00","1.8","","-3.8","","66","","","M","","M","","","99.61","","","","","","NA"
"2013-03-28 01:00","2013","03","28","01:00","1.1","","-3.8","","70","","","M","","M","","","99.63","","","","","","NA"
"2013-03-28 02:00","2013","03","28","02:00","1.0","","-3.6","","71","","","M","","M","","","99.64","","","","","","NA"
"2013-03-28 03:00","2013","03","28","03:00","1.0","","-3.8","","70","","","M","","M","","","99.64","","","","","","NA"
"2013-03-28 04:00","2013","03","28","04:00","0.8","","-3.6","","72","","","M","","M","","","99.67","","","","","","NA"
"2013-03-28 05:00","2013","03","28","05:00","0.7","","-3.6","","73","","","M","","M","","","99.70","","","","","","NA"
"2013-03-28 06:00","2013","03","28","06:00","0.6","","-3.6","","73","","","M","","M","","","99.74","","","","","","NA"
"2013-03-28 07:00","2013","03","28","07:00","0.4","","-3.1","","77","","","M","","M","","","99.80","","","","","","NA"
"2013-03-28 08:00","2013","03","28","08:00","1.0","","-2.8","","76","","","M","","M","","","99.82","","","","","","NA"
"2013-03-28 09:00","2013","03","28","09:00","1.7","","-2.8","","72","","","M","","M","","","99.84","","","","","","NA"
"2013-03-28 10:00","2013","03","28","10:00","2.6","","-2.7","","68","","","M","","M","","","99.86","","","","","","NA"
"2013-03-28 11:00","2013","03","28","11:00","2.8","","-2.9","","66","","","M","","M","","","99.85","","","","","","NA"
"2013-03-28 12:00","2013","03","28","12:00","3.2","","-3.3","","62","","","M","","M","","","99.84","","","","","","NA"
"2013-03-28 13:00","2013","03","28","13:00","4.1","","-3.5","","58","","","M","","M","","","99.84","","","","","","NA"
"2013-03-28 14:00","2013","03","28","14:00","4.8","","-3.6","","54","","","M","","M","","","99.80","","","","","","NA"
"2013-03-28 15:00","2013","03","28","15:00","3.4","","-2.6","","65","","","M","","M","","","99.77","","","","","","NA"
"2013-03-28 16:00","2013","03","28","16:00","1.6","","-1.2","","82","","","M","","M","","","99.78","","","","","","NA"
"2013-03-28 17:00","2013","03","28","17:00","2.2","","-1.5","","76","","","M","","M","","","99.77","","","","","","NA"
"2013-03-28 18:00","2013","03","28","18:00","4.7","","-2.0","","62","","","M","","M","","","99.80","","","","","","NA"
"2013-03-28 19:00","2013","03","28","19:00","3.3","","-1.8","","69","","","M","","M","","","99.83","","","","","","NA"
"2013-03-28 20:00","2013","03","28","20:00","1.7","","-0.6","","85","","","M","","M","","","99.87","","","","","","NA"
"2013-03-28 21:00","2013","03","28","21:00","3.7","","-5.0","","53","","","M","","M","","","99.88","","","","","","NA"
"2013-03-28 22:00","2013","03","28","22:00","3.0","","-6.6","","49","","","M","","M","","","99.87","","","","","","NA"
"2013-03-28 23:00","2013","03","28","23:00","1.6","","-6.2","","56","","","M","","M","","","99.88","","","","","","NA"
"2013-03-29 00:00","2013","03","29","00:00","0.7","","-5.2","","65","","","M","","M","","","99.88","","","","","","NA"
"2013-03-29 01:00","2013","03","29","01:00","0.0","","-5.1","","68","","","M","","M","","","99.89","","","","","","NA"
"2013-03-29 02:00","2013","03","29","02:00","-0.9","","-4.6","","76","","","M","","M","","","99.89","","","","","","NA"
"2013-03-29 03:00","2013","03","29","03:00","-1.4","","-4.0","","82","","","M","","M","","","99.88","","","","","","NA"
"2013-03-29 04:00","2013","03","29","04:00","-1.0","","-4.0","","80","","","M","","M","","","99.88","","","","","","NA"
"2013-03-29 05:00","2013","03","29","05:00","-0.5","","-3.7","","79","","","M","","M","","","99.91","","","","","","NA"
"2013-03-29 06:00","2013","03","29","06:00","-1.0","","-3.7","","82","","","M","","M","","","99.93","","","","","","NA"
"2013-03-29 07:00","2013","03","29","07:00","0.5","","-2.9","","78","","","M","","M","","","99.97","","","","","","NA"
"2013-03-29 08:00","2013","03","29","08:00","1.0","","-2.8","","76","","","M","","M","","","100.00","","","","","","NA"
"2013-03-29 09:00","2013","03","29","09:00","2.2","","-2.3","","72","","","M","","M","","","100.00","","","","","","NA"
"2013-03-29 10:00","2013","03","29","10:00","1.2","","-1.4","","83","","","M","","M","","","100.00","","","","","","NA"
"2013-03-29 11:00","2013","03","29","11:00","2.2","","-1.4","","77","","","M","","M","","","99.98","","","","","","NA"
"2013-03-29 12:00","2013","03","29","12:00","4.8","","-4.5","","51","","","M","","M","","","99.92","","","","","","NA"
"2013-03-29 13:00","2013","03","29","13:00","6.4","","-5.7","","42","","","M","","M","","","99.87","","","","","","NA"
"2013-03-29 14:00","2013","03","29","14:00","6.4","","-6.1","","40","","","M","","M","","","99.83","","","","","","NA"
"2013-03-29 15:00","2013","03","29","15:00","3.9","","-3.6","","58","","","M","","M","","","99.80","","","","","","NA"
"2013-03-29 16:00","2013","03","29","16:00","6.9","","-7.3","","36","","","M","","M","","","99.77","","","","","","NA"
"2013-03-29 17:00","2013","03","29","17:00","7.3","","-7.9","","33","","","M","","M","","","99.75","","","","","","NA"
"2013-03-29 18:00","2013","03","29","18:00","6.5","","-7.6","","36","","","M","","M","","","99.76","","","","","","NA"
"2013-03-29 19:00","2013","03","29","19:00","4.5","","-3.7","","55","","","M","","M","","","99.79","","","","","","NA"
"2013-03-29 20:00","2013","03","29","20:00","3.0","","-3.1","","64","","","M","","M","","","99.80","","","","","","NA"
"2013-03-29 21:00","2013","03","29","21:00","2.0","","-3.3","","68","","","M","","M","","","99.81","","","","","","NA"
"2013-03-29 22:00","2013","03","29","22:00","1.6","","-4.2","","65","","","M","","M","","","99.80","","","","","","NA"
"2013-03-29 23:00","2013","03","29","23:00","1.7","","-5.4","","59","","","M","","M","","","99.78","","","","","","NA"
"2013-03-30 00:00","2013","03","30","00:00","1.0","","-6.1","","59","","","M","","M","","","99.76","","","","","","NA"
"2013-03-30 01:00","2013","03","30","01:00","0.5","","-6.4","","60","","","M","","M","","","99.76","","","","","","NA"
"2013-03-30 02:00","2013","03","30","02:00","-0.1","","-6.3","","63","","","M","","M","","","99.77","","","","","","NA"
"2013-03-30 03:00","2013","03","30","03:00","-0.6","","-5.9","","67","","","M","","M","","","99.77","","","","","","NA"
"2013-03-30 04:00","2013","03","30","04:00","-1.4","","-5.8","","72","","","M","","M","","","99.77","","","","","","NA"
"2013-03-30 05:00","2013","03","30","05:00","-1.8","","-5.8","","74","","","M","","M","","","99.77","","","","","","NA"
"2013-03-30 06:00","2013","03","30","06:00","-2.1","","-6.1","","74","","","M","","M","","","99.76","","","","","","NA"
"2013-03-30 07:00","2013","03","30","07:00","-0.9","","-6.0","","68","","","M","","M","","","99.75","","","","","","NA"
"2013-03-30 08:00","2013","03","30","08:00","1.2","","-6.3","","57","","","M","","M","","","99.76","","","","","","NA"
"2013-03-30 09:00","2013","03","30","09:00","2.8","","-7.1","","48","","","M","","M","","","99.73","","","","","","NA"
"2013-03-30 10:00","2013","03","30","10:00","1.0","","-3.5","","72","","","M","","M","","","99.69","","","","","","NA"
"2013-03-30 11:00","2013","03","30","11:00","2.2","","-2.2","","73","","","M","","M","","","99.68","","","","","","NA"
"2013-03-30 12:00","2013","03","30","12:00","2.7","","-0.8","","78","","","M","","M","","","99.62","","","","","","NA"
"2013-03-30 13:00","2013","03","30","13:00","2.9","","-0.9","","76","","","M","","M","","","99.52","","","","","","NA"
"2013-03-30 14:00","2013","03","30","14:00","3.1","","-3.9","","60","","","M","","M","","","99.42","","","","","","NA"
"2013-03-30 15:00","2013","03","30","15:00","3.0","","-3.1","","64","","","M","","M","","","99.40","","","","","","NA"
"2013-03-30 16:00","2013","03","30","16:00","3.1","","-3.2","","63","","","M","","M","","","99.37","","","","","","NA"
"2013-03-30 17:00","2013","03","30","17:00","2.8","","-2.6","","68","","","M","","M","","","99.32","","","","","","NA"
"2013-03-30 18:00","2013","03","30","18:00","2.7","","-3.4","","64","","","M","","M","","","99.21","","","","","","NA"
"2013-03-30 19:00","2013","03","30","19:00","2.8","","-3.9","","61","","","M","","M","","","99.13","","","","","","NA"
"2013-03-30 20:00","2013","03","30","20:00","2.0","","-1.5","","78","","","M","","M","","","99.10","","","","","","NA"
"2013-03-30 21:00","2013","03","30","21:00","2.2","","-1.8","","75","","","M","","M","","","98.99","","","","","","NA"
"2013-03-30 22:00","2013","03","30","22:00","2.5","","-2.3","","71","","","M","","M","","","98.98","","","","","","NA"
"2013-03-30 23:00","2013","03","30","23:00","2.3","","-1.8","","74","","","M","","M","","","98.88","","","","","","NA"
"2013-03-31 00:00","2013","03","31","00:00","2.5","","-1.2","","77","","","M","","M","","","98.77","","","","","","NA"
"2013-03-31 01:00","2013","03","31","01:00","2.2","","-0.8","","81","","","M","","M","","","98.68","","","","","","NA"
"2013-03-31 02:00","2013","03","31","02:00","2.3","","-0.1","","84","","","M","","M","","","98.55","","","","","","NA"
"2013-03-31 03:00","2013","03","31","03:00","2.4","","-0.1","","84","","","M","","M","","","98.47","","","","","","NA"
"2013-03-31 04:00","2013","03","31","04:00","2.3","","0.4","","87","","","M","","M","","","98.37","","","","","","NA"
"2013-03-31 05:00","2013","03","31","05:00","1.8","","0.5","","91","","","M","","M","","","98.27","","","","","","NA"
"2013-03-31 06:00","2013","03","31","06:00","1.8","","0.8","","93","","","M","","M","","","98.19","","","","","","NA"
"2013-03-31 07:00","2013","03","31","07:00","1.8","","0.8","","93","","","M","","M","","","98.13","","","","","","NA"
"2013-03-31 08:00","2013","03","31","08:00","1.8","","0.9","","94","","","M","","M","","","98.07","","","","","","NA"
"2013-03-31 09:00","2013","03","31","09:00","1.8","","1.0","","94","","","M","","M","","","97.98","","","","","","NA"
"2013-03-31 10:00","2013","03","31","10:00","1.8","","1.1","","95","","","M","","M","","","97.90","","","","","","NA"
"2013-03-31 11:00","2013","03","31","11:00","2.2","","1.6","","96","","","M","","M","","","97.86","","","","","","NA"
"2013-03-31 12:00","2013","03","31","12:00","2.3","","1.7","","96","","","M","","M","","","97.81","","","","","","NA"
"2013-03-31 13:00","2013","03","31","13:00","2.4","","1.8","","96","","","M","","M","","","97.76","","","","","","NA"
"2013-03-31 14:00","2013","03","31","14:00","2.2","","1.7","","96","","","M","","M","","","97.72","","","","","","NA"
"2013-03-31 15:00","2013","03","31","15:00","2.4","","1.9","","96","","","M","","M","","","97.69","","","","","","NA"
"2013-03-31 16:00","2013","03","31","16:00","4.0","","3.3","","95","","","M","","M","","","97.68","","","","","","NA"
"2013-03-31 17:00","2013","03","31","17:00","3.4","","0.9","","84","","","M","","M","","","97.67","","","","","","NA"
"2013-03-31 18:00","2013","03","31","18:00","2.4","","0.8","","89","","","M","","M","","","97.67","","","","","","NA"
"2013-03-31 19:00","2013","03","31","19:00","2.1","","0.3","","88","","","M","","M","","","97.70","","","","","","NA"
"2013-03-31 20:00","2013","03","31","20:00","1.6","","0.1","","90","","","M","","M","","","97.69","","","","","","NA"
"2013-03-31 21:00","2013","03","31","21:00","1.3","","-0.5","","88","","","M","","M","","","97.73","","","","","","NA"
"2013-03-31 22:00","2013","03","31","22:00","0.9","","-2.9","","76","","","M","","M","","","97.74","","","","","","NA"
"2013-03-31 23:00","2013","03","31","23:00","-0.2","","-2.1","","87","","","M","","M","","","97.75","","","","","","NA"
