"Station Name","KILLARNEY (AUT)"
"Province","ONTARIO"
"Latitude","45.97"
"Longitude","-81.48"
"Elevation","196.30"
"Climate Identifier","605DJ25"
"WMO Identifier","71460"
"TC Identifier","WBE"
"All times are specified in Local Standard Time (LST). Add 1 hour to adjust for Daylight Saving Time where and when it is observed."

"Legend"
"E","Estimated"
"M","Missing"
"NA","Not Available"

"Date/Time","Year","Month","Day","Time","Temp (°C)","Temp Flag","Dew Point Temp (°C)","Dew Point Temp Flag","Rel Hum (%)","Rel Hum Flag","Wind Dir (10s deg)","Wind Dir Flag","Wind Spd (km/h)","Wind Spd Flag","Visibility (km)","Visibility Flag","Stn Press (kPa)","Stn Press Flag","Hmdx","Hmdx Flag","Wind Chill","Wind Chill Flag","Weather"
"2016-02-01 00:00","2016","02","01","00:00","0.9","","0.1","","94","","31","","11","","","","97.54","","","","","","NA"
"2016-02-01 01:00","2016","02","01","01:00","0.9","","0.0","","94","","31","","14","","","","97.60","","","","","","NA"
"2016-02-01 02:00","2016","02","01","02:00","0.6","","-0.6","","92","","33","","11","","","","97.78","","","","","","NA"
"2016-02-01 03:00","2016","02","01","03:00","0.2","","-0.8","","93","","32","","9","","","","97.93","","","","","","NA"
"2016-02-01 04:00","2016","02","01","04:00","0.3","","-0.9","","92","","31","","8","","","","98.06","","","","","","NA"
"2016-02-01 05:00","2016","02","01","05:00","0.4","","-0.7","","92","","28","","13","","","","98.20","","","","","","NA"
"2016-02-01 06:00","2016","02","01","06:00","0.5","","-0.9","","91","","27","","14","","","","98.27","","","","","","NA"
"2016-02-01 07:00","2016","02","01","07:00","0.8","","-0.9","","89","","27","","24","","","","98.37","","","","","","NA"
"2016-02-01 08:00","2016","02","01","08:00","0.3","","-1.3","","89","","28","","22","","","","98.44","","","","","","NA"
"2016-02-01 09:00","2016","02","01","09:00","0.5","","-1.8","","85","","28","","26","","","","98.52","","","","","","NA"
"2016-02-01 10:00","2016","02","01","10:00","0.7","","-2.4","","80","","28","","35","","","","98.63","","","","","","NA"
"2016-02-01 11:00","2016","02","01","11:00","0.8","","-2.9","","77","","29","","34","","","","98.72","","","","","","NA"
"2016-02-01 12:00","2016","02","01","12:00","0.5","","-4.7","","69","","29","","28","","","","98.77","","","","","","NA"
"2016-02-01 13:00","2016","02","01","13:00","0.6","","-4.5","","69","","28","","32","","","","98.84","","","","","","NA"
"2016-02-01 14:00","2016","02","01","14:00","-0.2","","-4.4","","73","","28","","33","","","","98.89","","","","-7","","NA"
"2016-02-01 15:00","2016","02","01","15:00","-0.4","","-4.5","","74","","28","","26","","","","99.00","","","","-7","","NA"
"2016-02-01 16:00","2016","02","01","16:00","-1.3","","-2.8","","90","","33","","8","","","","99.13","","","","-4","","NA"
"2016-02-01 17:00","2016","02","01","17:00","-1.5","","-2.8","","91","","2","","4","","","","99.25","","","","-3","","NA"
"2016-02-01 18:00","2016","02","01","18:00","-1.7","","-3.6","","87","","34","","4","","","","99.36","","","","-3","","NA"
"2016-02-01 19:00","2016","02","01","19:00","-2.0","","-4.3","","84","","2","","7","","","","99.43","","","","-5","","NA"
"2016-02-01 20:00","2016","02","01","20:00","-2.3","","-6.1","","75","","32","","6","","","","99.52","","","","-5","","NA"
"2016-02-01 21:00","2016","02","01","21:00","-2.6","","-5.9","","78","","36","","3","","","","99.58","","","","-4","","NA"
"2016-02-01 22:00","2016","02","01","22:00","-2.7","","-5.4","","81","","3","","3","","","","99.64","","","","-4","","NA"
"2016-02-01 23:00","2016","02","01","23:00","-3.2","","-5.5","","84","","8","","11","","","","99.66","","","","-7","","NA"
"2016-02-02 00:00","2016","02","02","00:00","-3.6","","-6.1","","83","","9","","10","","","","99.77","","","","-8","","NA"
"2016-02-02 01:00","2016","02","02","01:00","-4.0","","-7.3","","78","","7","","11","","","","99.81","","","","-8","","NA"
"2016-02-02 02:00","2016","02","02","02:00","-4.2","","-6.5","","84","","8","","10","","","","99.85","","","","-8","","NA"
"2016-02-02 03:00","2016","02","02","03:00","-4.9","","-7.5","","81","","9","","10","","","","99.88","","","","-9","","NA"
"2016-02-02 04:00","2016","02","02","04:00","-6.2","","-8.3","","85","","6","","6","","","","99.96","","","","-9","","NA"
"2016-02-02 05:00","2016","02","02","05:00","-6.5","","-8.6","","85","","2","","9","","","","100.06","","","","-11","","NA"
"2016-02-02 06:00","2016","02","02","06:00","-5.8","","-8.4","","82","","5","","8","","","","100.13","","","","-10","","NA"
"2016-02-02 07:00","2016","02","02","07:00","-5.3","","-7.4","","85","","6","","7","","","","100.21","","","","-9","","NA"
"2016-02-02 08:00","2016","02","02","08:00","-5.0","","-6.9","","87","","8","","7","","","","100.25","","","","-8","","NA"
"2016-02-02 09:00","2016","02","02","09:00","-4.7","","-6.7","","86","","7","","12","","","","100.28","","","","-9","","NA"
"2016-02-02 10:00","2016","02","02","10:00","-4.4","","-6.8","","84","","11","","12","","","","100.34","","","","-9","","NA"
"2016-02-02 11:00","2016","02","02","11:00","-3.1","","-6.6","","77","","10","","15","","","","100.32","","","","-8","","NA"
"2016-02-02 12:00","2016","02","02","12:00","-2.6","","-6.1","","77","","12","","20","","","","100.24","","","","-9","","NA"
"2016-02-02 13:00","2016","02","02","13:00","-2.4","","-6.5","","73","","11","","20","","","","100.21","","","","-8","","NA"
"2016-02-02 14:00","2016","02","02","14:00","-1.8","","-5.0","","78","","10","","20","","","","100.08","","","","-8","","NA"
"2016-02-02 15:00","2016","02","02","15:00","-1.4","","-4.3","","81","","8","","15","","","","100.05","","","","-6","","NA"
"2016-02-02 16:00","2016","02","02","16:00","-0.8","","-4.1","","78","","10","","24","","","","99.94","","","","-7","","NA"
"2016-02-02 17:00","2016","02","02","17:00","-1.0","","-4.4","","78","","10","","25","","","","99.88","","","","-7","","NA"
"2016-02-02 18:00","2016","02","02","18:00","-1.1","","-5.5","","72","","9","","19","","","","99.81","","","","-6","","NA"
"2016-02-02 19:00","2016","02","02","19:00","-1.2","","-5.9","","70","","7","","13","","","","99.77","","","","-5","","NA"
"2016-02-02 20:00","2016","02","02","20:00","-1.4","","-4.5","","80","","9","","20","","","","99.75","","","","-7","","NA"
"2016-02-02 21:00","2016","02","02","21:00","-2.2","","-3.1","","94","","8","","32","","","","99.48","","","","-10","","NA"
"2016-02-02 22:00","2016","02","02","22:00","-2.5","","-3.3","","94","","7","","26","","","","99.20","","","","-9","","NA"
"2016-02-02 23:00","2016","02","02","23:00","-2.1","","-2.9","","94","","8","","34","","","","99.04","","","","-10","","NA"
"2016-02-03 00:00","2016","02","03","00:00","-1.5","","-2.3","","94","","9","","36","","","","98.92","","","","-9","","NA"
"2016-02-03 01:00","2016","02","03","01:00","-1.5","","-2.3","","95","","8","","34","","","","98.70","","","","-9","","NA"
"2016-02-03 02:00","2016","02","03","02:00","-1.3","","-2.0","","95","","8","","37","","","","98.45","","","","-9","","NA"
"2016-02-03 03:00","2016","02","03","03:00","-1.2","","-2.0","","94","","9","","41","","","","98.27","","","","-9","","NA"
"2016-02-03 04:00","2016","02","03","04:00","-1.2","","-2.2","","93","","9","","35","","","","98.06","","","","-9","","NA"
"2016-02-03 05:00","2016","02","03","05:00","-0.7","","-1.7","","92","","9","","22","","","","97.91","","","","-6","","NA"
"2016-02-03 06:00","2016","02","03","06:00","-0.6","","-1.5","","94","","8","","6","","","","97.72","","","","-3","","NA"
"2016-02-03 07:00","2016","02","03","07:00","-0.4","","-1.1","","95","","7","","4","","","","97.56","","","","-2","","NA"
"2016-02-03 08:00","2016","02","03","08:00","-0.1","","-0.8","","95","","8","","4","","","","97.43","","","","-1","","NA"
"2016-02-03 09:00","2016","02","03","09:00","0.2","","-0.5","","95","","8","","5","","","","97.33","","","","","","NA"
"2016-02-03 10:00","2016","02","03","10:00","0.8","","0.1","","95","","8","","22","","","","97.30","","","","","","NA"
"2016-02-03 11:00","2016","02","03","11:00","1.4","","0.6","","95","","36","","6","","","","97.27","","","","","","NA"
"2016-02-03 12:00","2016","02","03","12:00","1.5","","0.8","","95","","19","","3","","","","97.29","","","","","","NA"
"2016-02-03 13:00","2016","02","03","13:00","2.1","","1.3","","95","","21","","2","","","","97.21","","","","","","NA"
"2016-02-03 14:00","2016","02","03","14:00","1.3","","0.6","","95","","21","","16","","","","97.29","","","","","","NA"
"2016-02-03 15:00","2016","02","03","15:00","1.4","","0.7","","95","","23","","6","","","","97.33","","","","","","NA"
"2016-02-03 16:00","2016","02","03","16:00","2.6","","1.8","","94","","25","","17","","","","97.38","","","","","","NA"
"2016-02-03 17:00","2016","02","03","17:00","2.3","","1.1","","92","","29","","7","","","","97.39","","","","","","NA"
"2016-02-03 18:00","2016","02","03","18:00","2.3","","1.4","","93","","25","","17","","","","97.47","","","","","","NA"
"2016-02-03 19:00","2016","02","03","19:00","1.7","","0.5","","92","","26","","23","","","","97.60","","","","","","NA"
"2016-02-03 20:00","2016","02","03","20:00","0.8","","-0.3","","93","","28","","28","","","","97.75","","","","","","NA"
"2016-02-03 21:00","2016","02","03","21:00","0.4","","-1.4","","88","","26","","27","","","","97.91","","","","","","NA"
"2016-02-03 22:00","2016","02","03","22:00","-0.4","","-2.0","","89","","27","","29","","","","98.01","","","","-7","","NA"
"2016-02-03 23:00","2016","02","03","23:00","-1.4","","-2.4","","92","","31","","10","","","","98.15","","","","-5","","NA"
"2016-02-04 00:00","2016","02","04","00:00","-2.2","","-4.3","","86","","33","","13","","","","98.31","","","","-7","","NA"
"2016-02-04 01:00","2016","02","04","01:00","-3.3","","-5.4","","85","","32","","15","","","","98.44","","","","-8","","NA"
"2016-02-04 02:00","2016","02","04","02:00","-4.2","","-6.4","","85","","33","","14","","","","98.60","","","","-9","","NA"
"2016-02-04 03:00","2016","02","04","03:00","-6.8","","-9.5","","81","","33","","13","","","","98.75","","","","-12","","NA"
"2016-02-04 04:00","2016","02","04","04:00","-8.8","","-11.4","","82","","33","","12","","","","98.88","","","","-14","","NA"
"2016-02-04 05:00","2016","02","04","05:00","-10.4","","-13.5","","78","","33","","14","","","","99.05","","","","-17","","NA"
"2016-02-04 06:00","2016","02","04","06:00","-11.4","","-14.6","","77","","33","","10","","","","99.19","","","","-17","","NA"
"2016-02-04 07:00","2016","02","04","07:00","-12.3","","-15.9","","75","","33","","8","","","","99.31","","","","-17","","NA"
"2016-02-04 08:00","2016","02","04","08:00","-12.6","","-16.5","","73","","33","","10","","","","99.46","","","","-18","","NA"
"2016-02-04 09:00","2016","02","04","09:00","-12.0","","-16.2","","71","","33","","12","","","","99.56","","","","-18","","NA"
"2016-02-04 10:00","2016","02","04","10:00","-11.7","","-16.5","","68","","35","","10","","","","99.67","","","","-17","","NA"
"2016-02-04 11:00","2016","02","04","11:00","-9.6","","-14.6","","67","","6","","8","","","","99.66","","","","-14","","NA"
"2016-02-04 12:00","2016","02","04","12:00","-9.4","","-14.0","","69","","11","","10","","","","99.69","","","","-15","","NA"
"2016-02-04 13:00","2016","02","04","13:00","-8.6","","-12.9","","71","","21","","9","","","","99.67","","","","-13","","NA"
"2016-02-04 14:00","2016","02","04","14:00","-8.3","","-12.1","","74","","22","","14","","","","99.66","","","","-14","","NA"
"2016-02-04 15:00","2016","02","04","15:00","-7.7","","-12.3","","70","","27","","10","","","","99.70","","","","-13","","NA"
"2016-02-04 16:00","2016","02","04","16:00","-7.4","","-12.1","","69","","23","","10","","","","99.73","","","","-12","","NA"
"2016-02-04 17:00","2016","02","04","17:00","-6.9","","-11.8","","68","","31","","8","","","","99.76","","","","-11","","NA"
"2016-02-04 18:00","2016","02","04","18:00","-8.1","","-12.4","","71","","31","","8","","","","99.83","","","","-12","","NA"
"2016-02-04 19:00","2016","02","04","19:00","-8.7","","-12.1","","77","","34","","9","","","","99.88","","","","-13","","NA"
"2016-02-04 20:00","2016","02","04","20:00","-9.1","","-11.9","","80","","31","","7","","","","99.94","","","","-13","","NA"
"2016-02-04 21:00","2016","02","04","21:00","-9.9","","-12.2","","84","","32","","6","","","","99.98","","","","-13","","NA"
"2016-02-04 22:00","2016","02","04","22:00","-10.0","","-12.2","","84","","32","","7","","","","99.97","","","","-14","","NA"
"2016-02-04 23:00","2016","02","04","23:00","-9.7","","-12.1","","82","","31","","8","","","","99.95","","","","-14","","NA"
"2016-02-05 00:00","2016","02","05","00:00","-9.9","","-12.4","","83","","35","","10","","","","99.98","","","","-15","","NA"
"2016-02-05 01:00","2016","02","05","01:00","-9.2","","-12.0","","80","","34","","4","","","","100.01","","","","-11","","NA"
"2016-02-05 02:00","2016","02","05","02:00","-10.0","","-12.3","","83","","4","","4","","","","100.05","","","","-12","","NA"
"2016-02-05 03:00","2016","02","05","03:00","-8.7","","-11.4","","80","","1","","4","","","","100.10","","","","-11","","NA"
"2016-02-05 04:00","2016","02","05","04:00","-9.0","","-11.3","","84","","5","","7","","","","100.09","","","","-13","","NA"
"2016-02-05 05:00","2016","02","05","05:00","-8.9","","-10.9","","86","","6","","8","","","","100.09","","","","-13","","NA"
"2016-02-05 06:00","2016","02","05","06:00","-8.8","","-10.8","","85","","6","","7","","","","100.09","","","","-13","","NA"
"2016-02-05 07:00","2016","02","05","07:00","-8.3","","-10.4","","85","","7","","7","","","","100.11","","","","-12","","NA"
"2016-02-05 08:00","2016","02","05","08:00","-8.5","","-10.4","","87","","6","","10","","","","100.12","","","","-13","","NA"
"2016-02-05 09:00","2016","02","05","09:00","-7.5","","-9.2","","88","","7","","12","","","","100.11","","","","-13","","NA"
"2016-02-05 10:00","2016","02","05","10:00","-6.7","","-8.2","","89","","8","","12","","","","100.07","","","","-12","","NA"
"2016-02-05 11:00","2016","02","05","11:00","-3.0","","-4.0","","93","","25","","4","","","","100.04","","","","-5","","NA"
"2016-02-05 12:00","2016","02","05","12:00","-3.0","","-4.0","","92","","26","","10","","","","100.01","","","","-7","","NA"
"2016-02-05 13:00","2016","02","05","13:00","-2.5","","-4.4","","87","","29","","15","","","","99.96","","","","-7","","NA"
"2016-02-05 14:00","2016","02","05","14:00","-2.7","","-6.8","","73","","30","","20","","","","99.94","","","","-9","","NA"
"2016-02-05 15:00","2016","02","05","15:00","-2.5","","-6.5","","74","","28","","19","","","","99.95","","","","-8","","NA"
"2016-02-05 16:00","2016","02","05","16:00","-2.2","","-7.9","","65","","28","","22","","","","99.97","","","","-8","","NA"
"2016-02-05 17:00","2016","02","05","17:00","-3.2","","-10.0","","59","","28","","18","","","","99.99","","","","-9","","NA"
"2016-02-05 18:00","2016","02","05","18:00","-4.1","","-9.3","","67","","27","","17","","","","100.03","","","","-10","","NA"
"2016-02-05 19:00","2016","02","05","19:00","-4.7","","-8.7","","74","","28","","9","","","","100.07","","","","-9","","NA"
"2016-02-05 20:00","2016","02","05","20:00","-4.0","","-8.1","","73","","28","","13","","","","100.04","","","","-9","","NA"
"2016-02-05 21:00","2016","02","05","21:00","-4.4","","-7.6","","78","","29","","8","","","","100.02","","","","-8","","NA"
"2016-02-05 22:00","2016","02","05","22:00","-4.2","","-7.6","","77","","29","","13","","","","99.97","","","","-9","","NA"
"2016-02-05 23:00","2016","02","05","23:00","-5.3","","-8.2","","80","","29","","7","","","","99.94","","","","-9","","NA"
"2016-02-06 00:00","2016","02","06","00:00","-5.9","","-9.1","","78","","29","","5","","","","99.89","","","","-8","","NA"
"2016-02-06 01:00","2016","02","06","01:00","-6.1","","-8.9","","80","","29","","4","","","","99.82","","","","-8","","NA"
"2016-02-06 02:00","2016","02","06","02:00","-6.6","","-9.3","","81","","31","","2","","","","99.78","","","","-8","","NA"
"2016-02-06 03:00","2016","02","06","03:00","-6.1","","-9.4","","77","","29","","4","","","","99.74","","","","-8","","NA"
"2016-02-06 04:00","2016","02","06","04:00","-6.3","","-9.6","","77","","34","","3","","","","99.69","","","","-8","","NA"
"2016-02-06 05:00","2016","02","06","05:00","-4.7","","-7.7","","79","","22","","7","","","","99.65","","","","-8","","NA"
"2016-02-06 06:00","2016","02","06","06:00","-3.4","","-6.8","","77","","24","","17","","","","99.59","","","","-9","","NA"
"2016-02-06 07:00","2016","02","06","07:00","-2.9","","-6.5","","76","","23","","24","","","","99.51","","","","-10","","NA"
"2016-02-06 08:00","2016","02","06","08:00","-2.1","","-5.7","","77","","24","","26","","","","99.47","","","","-9","","NA"
"2016-02-06 09:00","2016","02","06","09:00","-1.2","","-6.5","","67","","24","","28","","","","99.43","","","","-8","","NA"
"2016-02-06 10:00","2016","02","06","10:00","-1.9","","-4.4","","83","","24","","31","","","","99.39","","","","-9","","NA"
"2016-02-06 11:00","2016","02","06","11:00","-1.4","","-4.6","","78","","24","","31","","","","99.35","","","","-8","","NA"
"2016-02-06 12:00","2016","02","06","12:00","-1.4","","-4.2","","81","","25","","26","","","","99.32","","","","-8","","NA"
"2016-02-06 13:00","2016","02","06","13:00","-1.1","","-4.0","","80","","25","","21","","","","99.25","","","","-7","","NA"
"2016-02-06 14:00","2016","02","06","14:00","-0.5","","-4.8","","72","","26","","22","","","","99.21","","","","-6","","NA"
"2016-02-06 15:00","2016","02","06","15:00","-0.3","","-4.9","","71","","27","","26","","","","99.21","","","","-6","","NA"
"2016-02-06 16:00","2016","02","06","16:00","-0.3","","-5.2","","70","","28","","24","","","","99.24","","","","-6","","NA"
"2016-02-06 17:00","2016","02","06","17:00","-0.6","","-5.5","","69","","28","","28","","","","99.28","","","","-7","","NA"
"2016-02-06 18:00","2016","02","06","18:00","-0.9","","-4.8","","75","","28","","18","","","","99.36","","","","-6","","NA"
"2016-02-06 19:00","2016","02","06","19:00","-0.7","","-5.9","","68","","27","","20","","","","99.41","","","","-6","","NA"
"2016-02-06 20:00","2016","02","06","20:00","-1.0","","-5.3","","73","","29","","13","","","","99.44","","","","-5","","NA"
"2016-02-06 21:00","2016","02","06","21:00","-1.2","","-5.0","","75","","28","","15","","","","99.40","","","","-6","","NA"
"2016-02-06 22:00","2016","02","06","22:00","-1.3","","-5.4","","74","","27","","13","","","","99.41","","","","-6","","NA"
"2016-02-06 23:00","2016","02","06","23:00","-1.4","","-5.2","","75","","27","","8","","","","99.41","","","","-4","","NA"
"2016-02-07 00:00","2016","02","07","00:00","-1.1","","-4.6","","77","","24","","6","","","","99.35","","","","-3","","NA"
"2016-02-07 01:00","2016","02","07","01:00","-1.5","","-4.9","","78","","33","","3","","","","99.31","","","","-3","","NA"
"2016-02-07 02:00","2016","02","07","02:00","-1.4","","-4.8","","78","","0","","1","","","","99.29","","","","-2","","NA"
"2016-02-07 03:00","2016","02","07","03:00","-1.2","","-4.7","","77","","0","","1","","","","99.31","","","","-2","","NA"
"2016-02-07 04:00","2016","02","07","04:00","-2.4","","-3.9","","89","","7","","7","","","","99.25","","","","-5","","NA"
"2016-02-07 05:00","2016","02","07","05:00","-2.5","","-3.7","","92","","7","","12","","","","99.19","","","","-7","","NA"
"2016-02-07 06:00","2016","02","07","06:00","-2.4","","-3.4","","93","","7","","14","","","","99.12","","","","-7","","NA"
"2016-02-07 07:00","2016","02","07","07:00","-3.3","","-4.4","","92","","8","","25","","","","99.10","","","","-10","","NA"
"2016-02-07 08:00","2016","02","07","08:00","-6.8","","-8.6","","87","","7","","24","","","","99.04","","","","-14","","NA"
"2016-02-07 09:00","2016","02","07","09:00","-8.0","","-10.1","","85","","7","","18","","","","99.06","","","","-15","","NA"
"2016-02-07 10:00","2016","02","07","10:00","-7.7","","-9.8","","85","","6","","13","","","","99.01","","","","-13","","NA"
"2016-02-07 11:00","2016","02","07","11:00","-7.3","","-9.4","","85","","7","","20","","","","98.98","","","","-14","","NA"
"2016-02-07 12:00","2016","02","07","12:00","-6.5","","-8.7","","85","","7","","21","","","","98.93","","","","-14","","NA"
"2016-02-07 13:00","2016","02","07","13:00","-5.2","","-7.3","","85","","7","","22","","","","98.77","","","","-12","","NA"
"2016-02-07 14:00","2016","02","07","14:00","-3.4","","-5.5","","85","","7","","23","","","","98.67","","","","-10","","NA"
"2016-02-07 15:00","2016","02","07","15:00","-2.6","","-4.9","","84","","7","","28","","","","98.58","","","","-10","","NA"
"2016-02-07 16:00","2016","02","07","16:00","-0.1","","-2.6","","83","","9","","31","","","","98.55","","","","-7","","NA"
"2016-02-07 17:00","2016","02","07","17:00","-0.7","","-4.0","","78","","7","","16","","","","98.51","","","","-5","","NA"
"2016-02-07 18:00","2016","02","07","18:00","-0.2","","-3.0","","82","","8","","22","","","","98.52","","","","-6","","NA"
"2016-02-07 19:00","2016","02","07","19:00","1.8","","-0.6","","84","","13","","36","","","","98.50","","","","","","NA"
"2016-02-07 20:00","2016","02","07","20:00","1.8","","-0.6","","84","","13","","31","","","","98.50","","","","","","NA"
"2016-02-07 21:00","2016","02","07","21:00","1.7","","-0.7","","84","","12","","34","","","","98.42","","","","","","NA"
"2016-02-07 22:00","2016","02","07","22:00","1.6","","-0.7","","85","","13","","35","","","","98.37","","","","","","NA"
"2016-02-07 23:00","2016","02","07","23:00","1.6","","-0.8","","84","","13","","37","","","","98.28","","","","","","NA"
"2016-02-08 00:00","2016","02","08","00:00","1.6","","-0.4","","87","","14","","33","","","","98.26","","","","","","NA"
"2016-02-08 01:00","2016","02","08","01:00","1.2","","-0.4","","89","","14","","37","","","","98.20","","","","","","NA"
"2016-02-08 02:00","2016","02","08","02:00","1.1","","-0.2","","91","","13","","27","","","","98.15","","","","","","NA"
"2016-02-08 03:00","2016","02","08","03:00","1.2","","0.3","","94","","13","","21","","","","98.10","","","","","","NA"
"2016-02-08 04:00","2016","02","08","04:00","1.1","","0.2","","94","","14","","27","","","","98.10","","","","","","NA"
"2016-02-08 05:00","2016","02","08","05:00","1.2","","0.3","","94","","14","","23","","","","98.09","","","","","","NA"
"2016-02-08 06:00","2016","02","08","06:00","1.2","","0.4","","94","","14","","27","","","","98.08","","","","","","NA"
"2016-02-08 07:00","2016","02","08","07:00","1.0","","0.2","","94","","14","","24","","","","98.08","","","","","","NA"
"2016-02-08 08:00","2016","02","08","08:00","0.9","","0.1","","95","","13","","30","","","","98.08","","","","","","NA"
"2016-02-08 09:00","2016","02","08","09:00","0.4","","-0.4","","95","","12","","22","","","","98.10","","","","","","NA"
"2016-02-08 10:00","2016","02","08","10:00","0.2","","-0.5","","95","","9","","23","","","","98.10","","","","","","NA"
"2016-02-08 11:00","2016","02","08","11:00","0.1","","-0.6","","95","","11","","29","","","","98.11","","","","","","NA"
"2016-02-08 12:00","2016","02","08","12:00","-0.2","","-0.8","","96","","10","","29","","","","98.09","","","","-7","","NA"
"2016-02-08 13:00","2016","02","08","13:00","-0.5","","-1.1","","96","","10","","30","","","","98.04","","","","-7","","NA"
"2016-02-08 14:00","2016","02","08","14:00","-0.6","","-1.1","","96","","10","","27","","","","98.00","","","","-7","","NA"
"2016-02-08 15:00","2016","02","08","15:00","-0.5","","-1.1","","96","","10","","23","","","","97.98","","","","-6","","NA"
"2016-02-08 16:00","2016","02","08","16:00","-0.5","","-1.0","","96","","9","","12","","","","98.00","","","","-4","","NA"
"2016-02-08 17:00","2016","02","08","17:00","-1.2","","-1.8","","96","","6","","12","","","","98.01","","","","-5","","NA"
"2016-02-08 18:00","2016","02","08","18:00","-1.9","","-2.4","","96","","6","","12","","","","98.01","","","","-6","","NA"
"2016-02-08 19:00","2016","02","08","19:00","-2.0","","-2.5","","96","","6","","10","","","","98.00","","","","-6","","NA"
"2016-02-08 20:00","2016","02","08","20:00","-1.5","","-2.1","","96","","6","","13","","","","97.99","","","","-6","","NA"
"2016-02-08 21:00","2016","02","08","21:00","-1.3","","-1.9","","96","","7","","13","","","","97.94","","","","-6","","NA"
"2016-02-08 22:00","2016","02","08","22:00","-1.1","","-1.7","","96","","7","","16","","","","97.93","","","","-6","","NA"
"2016-02-08 23:00","2016","02","08","23:00","-0.9","","-1.5","","96","","7","","16","","","","97.89","","","","-6","","NA"
"2016-02-09 00:00","2016","02","09","00:00","-0.6","","-1.2","","96","","8","","12","","","","97.88","","","","-5","","NA"
"2016-02-09 01:00","2016","02","09","01:00","-0.9","","-1.4","","96","","8","","15","","","","97.85","","","","-6","","NA"
"2016-02-09 02:00","2016","02","09","02:00","-1.5","","-2.0","","96","","7","","15","","","","97.79","","","","-6","","NA"
"2016-02-09 03:00","2016","02","09","03:00","-2.1","","-2.6","","96","","6","","8","","","","97.78","","","","-5","","NA"
"2016-02-09 04:00","2016","02","09","04:00","-2.7","","-3.2","","96","","6","","13","","","","97.74","","","","-7","","NA"
"2016-02-09 05:00","2016","02","09","05:00","-3.5","","-4.2","","95","","7","","18","","","","97.75","","","","-9","","NA"
"2016-02-09 06:00","2016","02","09","06:00","-4.2","","-5.0","","94","","7","","14","","","","97.76","","","","-9","","NA"
"2016-02-09 07:00","2016","02","09","07:00","-5.2","","-6.1","","93","","6","","16","","","","97.77","","","","-11","","NA"
"2016-02-09 08:00","2016","02","09","08:00","-5.9","","-6.8","","93","","6","","11","","","","97.81","","","","-11","","NA"
"2016-02-09 09:00","2016","02","09","09:00","-6.2","","-7.2","","93","","5","","11","","","","97.83","","","","-11","","NA"
"2016-02-09 10:00","2016","02","09","10:00","-6.1","","-7.0","","93","","5","","10","","","","97.83","","","","-11","","NA"
"2016-02-09 11:00","2016","02","09","11:00","-5.5","","-6.4","","93","","5","","9","","","","97.83","","","","-10","","NA"
"2016-02-09 12:00","2016","02","09","12:00","-5.7","","-6.6","","93","","3","","10","","","","97.80","","","","-10","","NA"
"2016-02-09 13:00","2016","02","09","13:00","-5.8","","-6.8","","93","","3","","11","","","","97.75","","","","-11","","NA"
"2016-02-09 14:00","2016","02","09","14:00","-5.6","","-6.6","","93","","2","","10","","","","97.71","","","","-10","","NA"
"2016-02-09 15:00","2016","02","09","15:00","-5.4","","-6.3","","93","","2","","11","","","","97.71","","","","-10","","NA"
"2016-02-09 16:00","2016","02","09","16:00","-5.1","","-6.0","","93","","4","","6","","","","97.74","","","","-8","","NA"
"2016-02-09 17:00","2016","02","09","17:00","-4.8","","-5.7","","93","","3","","3","","","","97.79","","","","-6","","NA"
"2016-02-09 18:00","2016","02","09","18:00","-5.0","","-5.9","","93","","4","","3","","","","97.84","","","","-6","","NA"
"2016-02-09 19:00","2016","02","09","19:00","-5.1","","-6.0","","93","","1","","5","","","","97.91","","","","-7","","NA"
"2016-02-09 20:00","2016","02","09","20:00","-5.5","","-6.4","","93","","2","","11","","","","97.95","","","","-10","","NA"
"2016-02-09 21:00","2016","02","09","21:00","-6.8","","-7.9","","92","","36","","12","","","","97.96","","","","-12","","NA"
"2016-02-09 22:00","2016","02","09","22:00","-8.3","","-9.5","","91","","1","","19","","","","97.98","","","","-16","","NA"
"2016-02-09 23:00","2016","02","09","23:00","-9.5","","-10.9","","90","","1","","18","","","","97.98","","","","-17","","NA"
"2016-02-10 00:00","2016","02","10","00:00","-10.6","","-12.1","","89","","35","","16","","","","98.00","","","","-18","","NA"
"2016-02-10 01:00","2016","02","10","01:00","-12.0","","-13.6","","88","","36","","18","","","","98.00","","","","-20","","NA"
"2016-02-10 02:00","2016","02","10","02:00","-12.8","","-14.5","","87","","36","","18","","","","98.01","","","","-21","","NA"
"2016-02-10 03:00","2016","02","10","03:00","-13.9","","-15.7","","86","","1","","17","","","","98.07","","","","-22","","NA"
"2016-02-10 04:00","2016","02","10","04:00","-14.8","","-16.7","","86","","36","","15","","","","98.10","","","","-23","","NA"
"2016-02-10 05:00","2016","02","10","05:00","-15.6","","-17.5","","85","","1","","15","","","","98.14","","","","-24","","NA"
"2016-02-10 06:00","2016","02","10","06:00","-16.2","","-18.2","","85","","1","","11","","","","98.19","","","","-23","","NA"
"2016-02-10 07:00","2016","02","10","07:00","-16.5","","-18.6","","84","","1","","6","","","","98.26","","","","-21","","NA"
"2016-02-10 08:00","2016","02","10","08:00","-16.9","","-19.0","","84","","1","","10","","","","98.35","","","","-24","","NA"
"2016-02-10 09:00","2016","02","10","09:00","-16.8","","-18.9","","84","","1","","11","","","","98.41","","","","-24","","NA"
"2016-02-10 10:00","2016","02","10","10:00","-16.6","","-18.7","","83","","2","","14","","","","98.41","","","","-25","","NA"
"2016-02-10 11:00","2016","02","10","11:00","-15.8","","-17.9","","84","","2","","11","","","","98.41","","","","-23","","NA"
"2016-02-10 12:00","2016","02","10","12:00","-15.1","","-17.2","","84","","36","","11","","","","98.43","","","","-22","","NA"
"2016-02-10 13:00","2016","02","10","13:00","-15.4","","-17.8","","82","","35","","15","","","","98.42","","","","-23","","NA"
"2016-02-10 14:00","2016","02","10","14:00","-14.8","","-17.6","","79","","33","","16","","","","98.42","","","","-23","","NA"
"2016-02-10 15:00","2016","02","10","15:00","-14.6","","-17.4","","79","","34","","12","","","","98.44","","","","-21","","NA"
"2016-02-10 16:00","2016","02","10","16:00","-14.9","","-17.6","","80","","35","","13","","","","98.51","","","","-22","","NA"
"2016-02-10 17:00","2016","02","10","17:00","-15.6","","-18.7","","77","","35","","16","","","","98.61","","","","-24","","NA"
"2016-02-10 18:00","2016","02","10","18:00","-16.5","","-19.5","","77","","35","","14","","","","98.73","","","","-24","","NA"
"2016-02-10 19:00","2016","02","10","19:00","-17.1","","-20.3","","76","","35","","16","","","","98.80","","","","-26","","NA"
"2016-02-10 20:00","2016","02","10","20:00","-17.4","","-20.5","","76","","35","","9","","","","98.87","","","","-24","","NA"
"2016-02-10 21:00","2016","02","10","21:00","-17.7","","-21.2","","74","","34","","16","","","","98.92","","","","-27","","NA"
"2016-02-10 22:00","2016","02","10","22:00","-18.1","","-21.5","","75","","34","","13","","","","98.96","","","","-26","","NA"
"2016-02-10 23:00","2016","02","10","23:00","-18.9","","-22.3","","74","","35","","13","","","","99.03","","","","-27","","NA"
"2016-02-11 00:00","2016","02","11","00:00","-19.3","","-23.1","","72","","35","","15","","","","99.08","","","","-28","","NA"
"2016-02-11 01:00","2016","02","11","01:00","-19.8","","-23.4","","73","","34","","11","","","","99.11","","","","-27","","NA"
"2016-02-11 02:00","2016","02","11","02:00","-20.3","","-24.1","","72","","34","","16","","","","99.15","","","","-30","","NA"
"2016-02-11 03:00","2016","02","11","03:00","-20.7","","-24.6","","71","","34","","18","","","","99.21","","","","-31","","NA"
"2016-02-11 04:00","2016","02","11","04:00","-21.1","","-25.2","","70","","34","","21","","","","99.24","","","","-32","","NA"
"2016-02-11 05:00","2016","02","11","05:00","-21.7","","-26.0","","68","","34","","20","","","","99.30","","","","-33","","NA"
"2016-02-11 06:00","2016","02","11","06:00","-22.5","","-26.3","","71","","32","","8","","","","99.43","","","","-29","","NA"
"2016-02-11 07:00","2016","02","11","07:00","-23.2","","-27.0","","71","","34","","6","","","","99.50","","","","-29","","NA"
"2016-02-11 08:00","2016","02","11","08:00","-23.2","","-26.8","","72","","25","","7","","","","99.59","","","","-29","","NA"
"2016-02-11 09:00","2016","02","11","09:00","-22.7","","-27.1","","68","","31","","7","","","","99.63","","","","-29","","NA"
"2016-02-11 10:00","2016","02","11","10:00","-21.8","","-26.3","","67","","31","","9","","","","99.68","","","","-29","","NA"
"2016-02-11 11:00","2016","02","11","11:00","-20.8","","-25.5","","66","","32","","13","","","","99.69","","","","-29","","NA"
"2016-02-11 12:00","2016","02","11","12:00","-19.8","","-24.5","","66","","29","","13","","","","99.70","","","","-28","","NA"
"2016-02-11 13:00","2016","02","11","13:00","-18.7","","-23.3","","67","","29","","18","","","","99.66","","","","-28","","NA"
"2016-02-11 14:00","2016","02","11","14:00","-18.3","","-22.6","","69","","27","","19","","","","99.65","","","","-28","","NA"
"2016-02-11 15:00","2016","02","11","15:00","-17.9","","-22.6","","67","","29","","19","","","","99.65","","","","-28","","NA"
"2016-02-11 16:00","2016","02","11","16:00","-16.8","","-21.9","","64","","27","","14","","","","99.65","","","","-25","","NA"
"2016-02-11 17:00","2016","02","11","17:00","-15.9","","-20.6","","67","","29","","14","","","","99.69","","","","-24","","NA"
"2016-02-11 18:00","2016","02","11","18:00","-16.2","","-20.3","","70","","29","","6","","","","99.66","","","","-21","","NA"
"2016-02-11 19:00","2016","02","11","19:00","-17.3","","-21.1","","72","","1","","9","","","","99.59","","","","-24","","NA"
"2016-02-11 20:00","2016","02","11","20:00","-16.1","","-20.7","","68","","2","","10","","","","99.47","","","","-23","","NA"
"2016-02-11 21:00","2016","02","11","21:00","-16.2","","-20.4","","70","","32","","10","","","","99.47","","","","-23","","NA"
"2016-02-11 22:00","2016","02","11","22:00","-16.1","","-19.3","","77","","33","","9","","","","99.42","","","","-22","","NA"
"2016-02-11 23:00","2016","02","11","23:00","-14.7","","-17.8","","77","","26","","7","","","","99.34","","","","-19","","NA"
"2016-02-12 00:00","2016","02","12","00:00","-15.1","","-17.9","","79","","31","","9","","","","99.31","","","","-21","","NA"
"2016-02-12 01:00","2016","02","12","01:00","-13.4","","-16.5","","77","","29","","8","","","","99.21","","","","-18","","NA"
"2016-02-12 02:00","2016","02","12","02:00","-13.4","","-17.2","","73","","30","","8","","","","99.10","","","","-18","","NA"
"2016-02-12 03:00","2016","02","12","03:00","-12.6","","-16.8","","71","","30","","8","","","","99.02","","","","-18","","NA"
"2016-02-12 04:00","2016","02","12","04:00","-11.1","","-13.2","","84","","31","","7","","","","98.89","","","","-15","","NA"
"2016-02-12 05:00","2016","02","12","05:00","-10.0","","-11.9","","86","","27","","9","","","","98.77","","","","-15","","NA"
"2016-02-12 06:00","2016","02","12","06:00","-11.2","","-12.9","","87","","30","","4","","","","98.76","","","","-14","","NA"
"2016-02-12 07:00","2016","02","12","07:00","-11.0","","-12.9","","86","","27","","6","","","","98.72","","","","-15","","NA"
"2016-02-12 08:00","2016","02","12","08:00","-12.4","","-15.0","","81","","29","","8","","","","98.73","","","","-17","","NA"
"2016-02-12 09:00","2016","02","12","09:00","-12.0","","-15.1","","78","","33","","13","","","","98.70","","","","-19","","NA"
"2016-02-12 10:00","2016","02","12","10:00","-11.1","","-15.6","","69","","36","","12","","","","98.71","","","","-17","","NA"
"2016-02-12 11:00","2016","02","12","11:00","-11.0","","-16.2","","65","","1","","13","","","","98.75","","","","-17","","NA"
"2016-02-12 12:00","2016","02","12","12:00","-10.7","","-16.5","","62","","34","","11","","","","98.76","","","","-16","","NA"
"2016-02-12 13:00","2016","02","12","13:00","-9.6","","-17.0","","55","","34","","16","","","","98.75","","","","-16","","NA"
"2016-02-12 14:00","2016","02","12","14:00","-10.3","","-17.8","","54","","35","","17","","","","98.78","","","","-18","","NA"
"2016-02-12 15:00","2016","02","12","15:00","-10.7","","-19.3","","49","","34","","20","","","","98.82","","","","-19","","NA"
"2016-02-12 16:00","2016","02","12","16:00","-11.6","","-19.0","","54","","33","","21","","","","98.92","","","","-20","","NA"
"2016-02-12 17:00","2016","02","12","17:00","-14.4","","-20.1","","62","","1","","21","","","","99.06","","","","-24","","NA"
"2016-02-12 18:00","2016","02","12","18:00","-17.3","","-22.7","","63","","1","","14","","","","99.24","","","","-25","","NA"
"2016-02-12 19:00","2016","02","12","19:00","-19.2","","-24.6","","62","","1","","14","","","","99.39","","","","-28","","NA"
"2016-02-12 20:00","2016","02","12","20:00","-20.9","","-26.6","","60","","35","","15","","","","99.53","","","","-30","","NA"
"2016-02-12 21:00","2016","02","12","21:00","-22.7","","-29.1","","56","","36","","21","","","","99.65","","","","-34","","NA"
"2016-02-12 22:00","2016","02","12","22:00","-24.6","","-31.0","","55","","36","","17","","","","99.80","","","","-35","","NA"
"2016-02-12 23:00","2016","02","12","23:00","-26.0","","-33.4","","50","","36","","21","","","","99.96","","","","-38","","NA"
"2016-02-13 00:00","2016","02","13","00:00","-26.8","","-33.8","","52","","36","","20","","","","100.06","","","","-39","","NA"
"2016-02-13 01:00","2016","02","13","01:00","-27.4","","-34.0","","53","","35","","13","","","","100.15","","","","-37","","NA"
"2016-02-13 02:00","2016","02","13","02:00","-27.8","","-34.7","","52","","36","","16","","","","100.20","","","","-39","","NA"
"2016-02-13 03:00","2016","02","13","03:00","-28.1","","-34.9","","52","","34","","9","","","","100.28","","","","-36","","NA"
"2016-02-13 04:00","2016","02","13","04:00","-28.7","","-34.6","","57","","31","","8","","","","100.33","","","","-36","","NA"
"2016-02-13 05:00","2016","02","13","05:00","-28.8","","-34.4","","59","","31","","7","","","","100.38","","","","-36","","NA"
"2016-02-13 06:00","2016","02","13","06:00","-29.1","","-34.3","","61","","31","","8","","","","100.43","","","","-37","","NA"
"2016-02-13 07:00","2016","02","13","07:00","-29.2","","-34.3","","61","","30","","7","","","","100.48","","","","-36","","NA"
"2016-02-13 08:00","2016","02","13","08:00","-29.4","","-34.5","","61","","33","","11","","","","100.54","","","","-39","","NA"
"2016-02-13 09:00","2016","02","13","09:00","-28.0","","-33.8","","57","","32","","15","","","","100.60","","","","-39","","NA"
"2016-02-13 10:00","2016","02","13","10:00","-27.6","","-34.5","","52","","35","","17","","","","100.61","","","","-39","","NA"
"2016-02-13 11:00","2016","02","13","11:00","-26.4","","-33.9","","49","","34","","19","","","","100.62","","","","-38","","NA"
"2016-02-13 12:00","2016","02","13","12:00","-25.2","","-32.7","","50","","34","","12","","","","100.63","","","","-34","","NA"
"2016-02-13 13:00","2016","02","13","13:00","-23.5","","-31.5","","48","","32","","16","","","","100.59","","","","-34","","NA"
"2016-02-13 14:00","2016","02","13","14:00","-23.1","","-31.8","","45","","30","","16","","","","100.57","","","","-33","","NA"
"2016-02-13 15:00","2016","02","13","15:00","-22.2","","-30.7","","46","","31","","21","","","","100.56","","","","-34","","NA"
"2016-02-13 16:00","2016","02","13","16:00","-21.5","","-30.3","","45","","32","","16","","","","100.60","","","","-31","","NA"
"2016-02-13 17:00","2016","02","13","17:00","-21.0","","-28.7","","50","","33","","10","","","","100.63","","","","-28","","NA"
"2016-02-13 18:00","2016","02","13","18:00","-21.9","","-26.6","","66","","28","","12","","","","100.69","","","","-30","","NA"
"2016-02-13 19:00","2016","02","13","19:00","-22.6","","-27.1","","67","","34","","8","","","","100.76","","","","-29","","NA"
"2016-02-13 20:00","2016","02","13","20:00","-22.4","","-26.8","","68","","35","","5","","","","100.78","","","","-27","","NA"
"2016-02-13 21:00","2016","02","13","21:00","-22.0","","-26.4","","67","","33","","6","","","","100.78","","","","-27","","NA"
"2016-02-13 22:00","2016","02","13","22:00","-22.0","","-26.4","","67","","34","","4","","","","100.79","","","","-26","","NA"
"2016-02-13 23:00","2016","02","13","23:00","-22.1","","-27.3","","63","","35","","4","","","","100.81","","","","-26","","NA"
"2016-02-14 00:00","2016","02","14","00:00","-23.0","","-28.3","","62","","4","","10","","","","100.79","","","","-31","","NA"
"2016-02-14 01:00","2016","02","14","01:00","-23.8","","-28.8","","64","","3","","7","","","","100.84","","","","-30","","NA"
"2016-02-14 02:00","2016","02","14","02:00","-23.5","","-28.8","","61","","3","","8","","","","100.86","","","","-30","","NA"
"2016-02-14 03:00","2016","02","14","03:00","-22.9","","-28.6","","59","","5","","9","","","","100.86","","","","-30","","NA"
"2016-02-14 04:00","2016","02","14","04:00","-22.9","","-27.2","","67","","5","","5","","","","100.87","","","","-28","","NA"
"2016-02-14 05:00","2016","02","14","05:00","-23.8","","-29.1","","62","","3","","8","","","","100.91","","","","-31","","NA"
"2016-02-14 06:00","2016","02","14","06:00","-23.3","","-29.2","","59","","3","","11","","","","100.91","","","","-32","","NA"
"2016-02-14 07:00","2016","02","14","07:00","-22.8","","-28.9","","57","","4","","10","","","","100.87","","","","-31","","NA"
"2016-02-14 08:00","2016","02","14","08:00","-22.6","","-29.0","","56","","6","","9","","","","100.86","","","","-30","","NA"
"2016-02-14 09:00","2016","02","14","09:00","-21.4","","-27.3","","59","","6","","11","","","","100.87","","","","-29","","NA"
"2016-02-14 10:00","2016","02","14","10:00","-20.1","","-24.9","","66","","7","","14","","","","100.82","","","","-29","","NA"
"2016-02-14 11:00","2016","02","14","11:00","-18.3","","-22.6","","69","","9","","13","","","","100.79","","","","-26","","NA"
"2016-02-14 12:00","2016","02","14","12:00","-16.4","","-19.8","","75","","9","","14","","","","100.78","","","","-24","","NA"
"2016-02-14 13:00","2016","02","14","13:00","-16.2","","-19.6","","75","","12","","15","","","","100.69","","","","-24","","NA"
"2016-02-14 14:00","2016","02","14","14:00","-15.7","","-18.4","","80","","10","","18","","","","100.59","","","","-25","","NA"
"2016-02-14 15:00","2016","02","14","15:00","-15.3","","-18.4","","77","","10","","19","","","","100.52","","","","-24","","NA"
"2016-02-14 16:00","2016","02","14","16:00","-14.2","","-17.0","","79","","10","","17","","","","100.51","","","","-22","","NA"
"2016-02-14 17:00","2016","02","14","17:00","-13.6","","-16.5","","78","","8","","16","","","","100.44","","","","-21","","NA"
"2016-02-14 18:00","2016","02","14","18:00","-13.5","","-16.5","","78","","8","","16","","","","100.38","","","","-21","","NA"
"2016-02-14 19:00","2016","02","14","19:00","-13.0","","-15.6","","81","","7","","19","","","","100.33","","","","-21","","NA"
"2016-02-14 20:00","2016","02","14","20:00","-9.7","","-11.2","","89","","10","","23","","","","100.24","","","","-18","","NA"
"2016-02-14 21:00","2016","02","14","21:00","-8.3","","-10.5","","84","","17","","39","","","","100.17","","","","-18","","NA"
"2016-02-14 22:00","2016","02","14","22:00","-7.3","","-11.1","","74","","18","","37","","","","100.10","","","","-17","","NA"
"2016-02-14 23:00","2016","02","14","23:00","-7.9","","-12.7","","68","","18","","45","","","","100.10","","","","-18","","NA"
"2016-02-15 00:00","2016","02","15","00:00","-8.5","","-15.1","","59","","18","","38","","","","100.11","","","","-19","","NA"
"2016-02-15 01:00","2016","02","15","01:00","-8.6","","-15.5","","57","","18","","35","","","","100.06","","","","-18","","NA"
"2016-02-15 02:00","2016","02","15","02:00","-8.9","","-15.2","","60","","18","","35","","","","100.02","","","","-19","","NA"
"2016-02-15 03:00","2016","02","15","03:00","-9.2","","-15.8","","59","","17","","31","","","","99.94","","","","-19","","NA"
"2016-02-15 04:00","2016","02","15","04:00","-9.2","","-15.1","","62","","18","","32","","","","99.88","","","","-19","","NA"
"2016-02-15 05:00","2016","02","15","05:00","-8.5","","-12.5","","73","","18","","25","","","","99.79","","","","-17","","NA"
"2016-02-15 06:00","2016","02","15","06:00","-8.3","","-11.9","","75","","19","","22","","","","99.69","","","","-16","","NA"
"2016-02-15 07:00","2016","02","15","07:00","-6.8","","-12.7","","63","","16","","27","","","","99.58","","","","-15","","NA"
"2016-02-15 08:00","2016","02","15","08:00","-9.5","","-11.3","","87","","11","","47","","","","99.53","","","","-21","","NA"
"2016-02-15 09:00","2016","02","15","09:00","-10.0","","-11.8","","87","","11","","51","","","","99.44","","","","-22","","NA"
"2016-02-15 10:00","2016","02","15","10:00","-9.9","","-11.6","","87","","10","","51","","","","99.34","","","","-22","","NA"
"2016-02-15 11:00","2016","02","15","11:00","-9.1","","-10.6","","89","","10","","29","","","","99.31","","","","-18","","NA"
"2016-02-15 12:00","2016","02","15","12:00","-5.2","","-8.0","","81","","17","","27","","","","99.17","","","","-13","","NA"
"2016-02-15 13:00","2016","02","15","13:00","-5.1","","-7.2","","86","","18","","28","","","","99.08","","","","-13","","NA"
"2016-02-15 14:00","2016","02","15","14:00","-5.2","","-7.0","","87","","19","","26","","","","98.96","","","","-13","","NA"
"2016-02-15 15:00","2016","02","15","15:00","-4.9","","-6.7","","87","","17","","23","","","","98.86","","","","-12","","NA"
"2016-02-15 16:00","2016","02","15","16:00","-4.9","","-6.7","","88","","16","","33","","","","98.80","","","","-13","","NA"
"2016-02-15 17:00","2016","02","15","17:00","-4.3","","-6.0","","88","","15","","35","","","","98.76","","","","-13","","NA"
"2016-02-15 18:00","2016","02","15","18:00","-3.7","","-5.7","","85","","16","","38","","","","98.75","","","","-12","","NA"
"2016-02-15 19:00","2016","02","15","19:00","-3.1","","-5.6","","83","","16","","35","","","","98.77","","","","-11","","NA"
"2016-02-15 20:00","2016","02","15","20:00","-2.7","","-5.7","","80","","18","","33","","","","98.72","","","","-10","","NA"
"2016-02-15 21:00","2016","02","15","21:00","-2.9","","-5.9","","80","","23","","22","","","","98.67","","","","-9","","NA"
"2016-02-15 22:00","2016","02","15","22:00","-3.6","","-5.9","","84","","27","","12","","","","98.67","","","","-8","","NA"
"2016-02-15 23:00","2016","02","15","23:00","-4.0","","-6.3","","84","","28","","7","","","","98.66","","","","-7","","NA"
"2016-02-16 00:00","2016","02","16","00:00","-4.0","","-6.5","","83","","25","","6","","","","98.72","","","","-7","","NA"
"2016-02-16 01:00","2016","02","16","01:00","-4.0","","-6.7","","82","","30","","3","","","","98.74","","","","-5","","NA"
"2016-02-16 02:00","2016","02","16","02:00","-4.5","","-6.7","","84","","33","","8","","","","98.72","","","","-8","","NA"
"2016-02-16 03:00","2016","02","16","03:00","-4.3","","-7.2","","80","","35","","6","","","","98.68","","","","-7","","NA"
"2016-02-16 04:00","2016","02","16","04:00","-4.0","","-8.0","","73","","36","","5","","","","98.62","","","","-6","","NA"
"2016-02-16 05:00","2016","02","16","05:00","-4.5","","-6.9","","83","","6","","7","","","","98.57","","","","-8","","NA"
"2016-02-16 06:00","2016","02","16","06:00","-4.6","","-6.8","","85","","7","","7","","","","98.56","","","","-8","","NA"
"2016-02-16 07:00","2016","02","16","07:00","-5.1","","-7.4","","84","","7","","6","","","","98.55","","","","-8","","NA"
"2016-02-16 08:00","2016","02","16","08:00","-5.1","","-7.4","","84","","6","","5","","","","98.58","","","","-7","","NA"
"2016-02-16 09:00","2016","02","16","09:00","-4.6","","-7.3","","81","","8","","3","","","","98.54","","","","-6","","NA"
"2016-02-16 10:00","2016","02","16","10:00","-4.3","","-6.9","","82","","7","","7","","","","98.54","","","","-7","","NA"
"2016-02-16 11:00","2016","02","16","11:00","-4.0","","-7.1","","79","","9","","6","","","","98.53","","","","-7","","NA"
"2016-02-16 12:00","2016","02","16","12:00","-3.2","","-6.7","","77","","16","","3","","","","98.49","","","","-4","","NA"
"2016-02-16 13:00","2016","02","16","13:00","-2.9","","-6.2","","78","","19","","5","","","","98.39","","","","-5","","NA"
"2016-02-16 14:00","2016","02","16","14:00","-2.5","","-6.7","","73","","27","","12","","","","98.32","","","","-7","","NA"
"2016-02-16 15:00","2016","02","16","15:00","-2.5","","-6.5","","74","","28","","11","","","","98.29","","","","-7","","NA"
"2016-02-16 16:00","2016","02","16","16:00","-2.6","","-6.3","","75","","29","","10","","","","98.31","","","","-6","","NA"
"2016-02-16 17:00","2016","02","16","17:00","-2.6","","-6.3","","76","","29","","8","","","","98.30","","","","-6","","NA"
"2016-02-16 18:00","2016","02","16","18:00","-3.0","","-6.1","","79","","29","","13","","","","98.35","","","","-8","","NA"
"2016-02-16 19:00","2016","02","16","19:00","-3.6","","-6.2","","82","","29","","11","","","","98.40","","","","-8","","NA"
"2016-02-16 20:00","2016","02","16","20:00","-3.8","","-6.4","","82","","29","","12","","","","98.40","","","","-8","","NA"
"2016-02-16 21:00","2016","02","16","21:00","-3.5","","-6.0","","83","","28","","12","","","","98.44","","","","-8","","NA"
"2016-02-16 22:00","2016","02","16","22:00","-3.4","","-5.8","","84","","30","","15","","","","98.44","","","","-9","","NA"
"2016-02-16 23:00","2016","02","16","23:00","-3.6","","-5.7","","85","","28","","5","","","","98.46","","","","-6","","NA"
"2016-02-17 00:00","2016","02","17","00:00","-3.5","","-5.2","","88","","29","","11","","","","98.47","","","","-8","","NA"
"2016-02-17 01:00","2016","02","17","01:00","-2.7","","-4.1","","90","","29","","14","","","","98.50","","","","-8","","NA"
"2016-02-17 02:00","2016","02","17","02:00","-3.0","","-6.4","","78","","29","","23","","","","98.54","","","","-9","","NA"
"2016-02-17 03:00","2016","02","17","03:00","-3.9","","-9.9","","63","","30","","23","","","","98.64","","","","-11","","NA"
"2016-02-17 04:00","2016","02","17","04:00","-5.2","","-9.1","","74","","32","","24","","","","98.74","","","","-12","","NA"
"2016-02-17 05:00","2016","02","17","05:00","-7.6","","-11.8","","72","","35","","13","","","","98.88","","","","-13","","NA"
"2016-02-17 06:00","2016","02","17","06:00","-10.6","","-15.5","","67","","35","","20","","","","99.05","","","","-19","","NA"
"2016-02-17 07:00","2016","02","17","07:00","-12.4","","-17.6","","65","","35","","16","","","","99.19","","","","-20","","NA"
"2016-02-17 08:00","2016","02","17","08:00","-12.7","","-18.0","","65","","34","","14","","","","99.37","","","","-20","","NA"
"2016-02-17 09:00","2016","02","17","09:00","-12.5","","-17.9","","64","","34","","16","","","","99.49","","","","-20","","NA"
"2016-02-17 10:00","2016","02","17","10:00","-12.4","","-18.3","","61","","33","","16","","","","99.55","","","","-20","","NA"
"2016-02-17 11:00","2016","02","17","11:00","-11.8","","-19.2","","54","","35","","17","","","","99.65","","","","-19","","NA"
"2016-02-17 12:00","2016","02","17","12:00","-11.1","","-18.9","","53","","34","","17","","","","99.72","","","","-19","","NA"
"2016-02-17 13:00","2016","02","17","13:00","-10.6","","-18.9","","50","","1","","16","","","","99.76","","","","-18","","NA"
"2016-02-17 14:00","2016","02","17","14:00","-9.5","","-19.0","","46","","32","","16","","","","99.80","","","","-16","","NA"
"2016-02-17 15:00","2016","02","17","15:00","-8.6","","-18.2","","46","","33","","13","","","","99.86","","","","-15","","NA"
"2016-02-17 16:00","2016","02","17","16:00","-8.6","","-18.4","","45","","34","","16","","","","99.94","","","","-15","","NA"
"2016-02-17 17:00","2016","02","17","17:00","-8.9","","-18.8","","44","","34","","11","","","","100.03","","","","-14","","NA"
"2016-02-17 18:00","2016","02","17","18:00","-10.0","","-18.7","","49","","33","","7","","","","100.15","","","","-14","","NA"
"2016-02-17 19:00","2016","02","17","19:00","-10.6","","-18.3","","53","","30","","6","","","","100.24","","","","-14","","NA"
"2016-02-17 20:00","2016","02","17","20:00","-11.6","","-18.1","","59","","29","","4","","","","100.29","","","","-14","","NA"
"2016-02-17 21:00","2016","02","17","21:00","-11.6","","-18.1","","59","","36","","4","","","","100.33","","","","-14","","NA"
"2016-02-17 22:00","2016","02","17","22:00","-11.8","","-18.1","","59","","36","","6","","","","100.36","","","","-16","","NA"
"2016-02-17 23:00","2016","02","17","23:00","-13.5","","-18.8","","65","","1","","2","","","","100.41","","","","-15","","NA"
"2016-02-18 00:00","2016","02","18","00:00","-15.6","","-18.8","","76","","32","","9","","","","100.52","","","","-22","","NA"
"2016-02-18 01:00","2016","02","18","01:00","-15.3","","-18.6","","76","","32","","8","","","","100.59","","","","-21","","NA"
"2016-02-18 02:00","2016","02","18","02:00","-13.4","","-18.5","","65","","35","","6","","","","100.60","","","","-17","","NA"
"2016-02-18 03:00","2016","02","18","03:00","-13.4","","-18.5","","65","","6","","3","","","","100.63","","","","-15","","NA"
"2016-02-18 04:00","2016","02","18","04:00","-13.0","","-16.8","","73","","4","","6","","","","100.65","","","","-17","","NA"
"2016-02-18 05:00","2016","02","18","05:00","-13.5","","-18.7","","65","","3","","5","","","","100.70","","","","-17","","NA"
"2016-02-18 06:00","2016","02","18","06:00","-13.3","","-19.1","","62","","2","","5","","","","100.78","","","","-17","","NA"
"2016-02-18 07:00","2016","02","18","07:00","-14.7","","-18.1","","75","","33","","7","","","","100.85","","","","-19","","NA"
"2016-02-18 08:00","2016","02","18","08:00","-12.5","","-17.8","","64","","36","","1","","","","100.89","","","","-13","","NA"
"2016-02-18 09:00","2016","02","18","09:00","-10.5","","-16.4","","62","","2","","3","","","","100.93","","","","-12","","NA"
"2016-02-18 10:00","2016","02","18","10:00","-9.6","","-14.0","","70","","10","","6","","","","100.91","","","","-13","","NA"
"2016-02-18 11:00","2016","02","18","11:00","-8.3","","-12.2","","74","","10","","9","","","","100.90","","","","-13","","NA"
"2016-02-18 12:00","2016","02","18","12:00","-7.0","","-10.0","","79","","9","","9","","","","100.90","","","","-11","","NA"
"2016-02-18 13:00","2016","02","18","13:00","-4.0","","-7.5","","77","","18","","29","","","","100.82","","","","-12","","NA"
"2016-02-18 14:00","2016","02","18","14:00","-3.2","","-9.5","","62","","23","","26","","","","100.75","","","","-10","","NA"
"2016-02-18 15:00","2016","02","18","15:00","-2.6","","-8.8","","62","","23","","27","","","","100.73","","","","-10","","NA"
"2016-02-18 16:00","2016","02","18","16:00","-2.3","","-8.4","","63","","22","","27","","","","100.73","","","","-9","","NA"
"2016-02-18 17:00","2016","02","18","17:00","-2.4","","-7.9","","66","","20","","30","","","","100.70","","","","-10","","NA"
"2016-02-18 18:00","2016","02","18","18:00","-2.6","","-7.9","","67","","21","","26","","","","100.64","","","","-9","","NA"
"2016-02-18 19:00","2016","02","18","19:00","-2.6","","-7.4","","70","","18","","36","","","","100.63","","","","-10","","NA"
"2016-02-18 20:00","2016","02","18","20:00","-3.5","","-7.6","","73","","17","","36","","","","100.59","","","","-12","","NA"
"2016-02-18 21:00","2016","02","18","21:00","-3.4","","-7.6","","73","","16","","32","","","","100.50","","","","-11","","NA"
"2016-02-18 22:00","2016","02","18","22:00","-3.5","","-9.0","","66","","18","","35","","","","100.49","","","","-12","","NA"
"2016-02-18 23:00","2016","02","18","23:00","-4.2","","-9.3","","67","","18","","31","","","","100.42","","","","-12","","NA"
"2016-02-19 00:00","2016","02","19","00:00","-4.1","","-9.0","","68","","16","","28","","","","100.31","","","","-12","","NA"
"2016-02-19 01:00","2016","02","19","01:00","-3.5","","-9.2","","65","","17","","30","","","","100.28","","","","-11","","NA"
"2016-02-19 02:00","2016","02","19","02:00","-3.1","","-8.7","","65","","16","","32","","","","100.21","","","","-11","","NA"
"2016-02-19 03:00","2016","02","19","03:00","-2.5","","-8.7","","62","","17","","28","","","","100.10","","","","-10","","NA"
"2016-02-19 04:00","2016","02","19","04:00","-1.8","","-7.0","","67","","16","","27","","","","99.95","","","","-8","","NA"
"2016-02-19 05:00","2016","02","19","05:00","-1.2","","-7.1","","65","","14","","36","","","","99.75","","","","-9","","NA"
"2016-02-19 06:00","2016","02","19","06:00","-1.7","","-5.5","","76","","14","","44","","","","99.69","","","","-10","","NA"
"2016-02-19 07:00","2016","02","19","07:00","-2.6","","-3.5","","93","","13","","44","","","","99.47","","","","-11","","NA"
"2016-02-19 08:00","2016","02","19","08:00","-2.7","","-3.8","","92","","12","","43","","","","99.33","","","","-11","","NA"
"2016-02-19 09:00","2016","02","19","09:00","-2.1","","-3.4","","91","","13","","50","","","","99.13","","","","-11","","NA"
"2016-02-19 10:00","2016","02","19","10:00","-1.6","","-3.4","","87","","13","","44","","","","99.01","","","","-10","","NA"
"2016-02-19 11:00","2016","02","19","11:00","-0.9","","-4.0","","79","","13","","48","","","","98.76","","","","-9","","NA"
"2016-02-19 12:00","2016","02","19","12:00","0.1","","-4.2","","73","","14","","50","","","","98.53","","","","","","NA"
"2016-02-19 13:00","2016","02","19","13:00","0.4","","-3.9","","73","","14","","56","","","","98.28","","","","","","NA"
"2016-02-19 14:00","2016","02","19","14:00","0.5","","-3.5","","75","","13","","48","","","","98.09","","","","","","NA"
"2016-02-19 15:00","2016","02","19","15:00","0.8","","-3.2","","74","","13","","49","","","","97.83","","","","","","NA"
"2016-02-19 16:00","2016","02","19","16:00","1.2","","-2.6","","76","","14","","45","","","","97.69","","","","","","NA"
"2016-02-19 17:00","2016","02","19","17:00","1.5","","-2.5","","75","","13","","54","","","","97.42","","","","","","NA"
"2016-02-19 18:00","2016","02","19","18:00","1.7","","-2.2","","75","","12","","51","","","","97.29","","","","","","NA"
"2016-02-19 19:00","2016","02","19","19:00","2.1","","-1.9","","75","","10","","37","","","","97.17","","","","","","NA"
"2016-02-19 20:00","2016","02","19","20:00","1.9","","-0.7","","83","","12","","35","","","","96.98","","","","","","NA"
"2016-02-19 21:00","2016","02","19","21:00","1.9","","0.5","","90","","19","","16","","","","96.92","","","","","","NA"
"2016-02-19 22:00","2016","02","19","22:00","2.1","","1.1","","93","","21","","9","","","","96.84","","","","","","NA"
"2016-02-19 23:00","2016","02","19","23:00","3.5","","1.9","","89","","25","","25","","","","96.87","","","","","","NA"
"2016-02-20 00:00","2016","02","20","00:00","3.2","","1.9","","91","","25","","22","","","","96.90","","","","","","NA"
"2016-02-20 01:00","2016","02","20","01:00","3.0","","1.9","","93","","24","","21","","","","96.91","","","","","","NA"
"2016-02-20 02:00","2016","02","20","02:00","2.7","","1.6","","92","","26","","27","","","","96.98","","","","","","NA"
"2016-02-20 03:00","2016","02","20","03:00","0.2","","-0.8","","93","","26","","32","","","","97.08","","","","","","NA"
"2016-02-20 04:00","2016","02","20","04:00","0.3","","-0.4","","95","","26","","29","","","","97.12","","","","","","NA"
"2016-02-20 05:00","2016","02","20","05:00","1.3","","0.5","","94","","27","","39","","","","97.21","","","","","","NA"
"2016-02-20 06:00","2016","02","20","06:00","2.2","","0.5","","89","","28","","42","","","","97.29","","","","","","NA"
"2016-02-20 07:00","2016","02","20","07:00","2.5","","0.7","","88","","28","","37","","","","97.36","","","","","","NA"
"2016-02-20 08:00","2016","02","20","08:00","2.3","","0.6","","88","","28","","36","","","","97.48","","","","","","NA"
"2016-02-20 09:00","2016","02","20","09:00","2.1","","0.4","","89","","28","","36","","","","97.55","","","","","","NA"
"2016-02-20 10:00","2016","02","20","10:00","2.0","","0.4","","89","","28","","33","","","","97.66","","","","","","NA"
"2016-02-20 11:00","2016","02","20","11:00","2.1","","0.4","","89","","27","","31","","","","97.71","","","","","","NA"
"2016-02-20 12:00","2016","02","20","12:00","2.8","","0.5","","85","","28","","32","","","","97.77","","","","","","NA"
"2016-02-20 13:00","2016","02","20","13:00","2.7","","0.0","","83","","28","","34","","","","97.83","","","","","","NA"
"2016-02-20 14:00","2016","02","20","14:00","2.8","","0.1","","82","","28","","37","","","","97.84","","","","","","NA"
"2016-02-20 15:00","2016","02","20","15:00","2.6","","0.1","","84","","28","","39","","","","97.96","","","","","","NA"
"2016-02-20 16:00","2016","02","20","16:00","2.6","","0.2","","84","","28","","25","","","","98.08","","","","","","NA"
"2016-02-20 17:00","2016","02","20","17:00","2.3","","0.2","","86","","29","","22","","","","98.18","","","","","","NA"
"2016-02-20 18:00","2016","02","20","18:00","2.4","","0.2","","85","","29","","23","","","","98.31","","","","","","NA"
"2016-02-20 19:00","2016","02","20","19:00","1.9","","0.0","","87","","29","","18","","","","98.43","","","","","","NA"
"2016-02-20 20:00","2016","02","20","20:00","1.7","","-0.1","","88","","28","","23","","","","98.51","","","","","","NA"
"2016-02-20 21:00","2016","02","20","21:00","1.8","","-0.2","","86","","29","","16","","","","98.59","","","","","","NA"
"2016-02-20 22:00","2016","02","20","22:00","1.5","","-0.4","","87","","29","","21","","","","98.64","","","","","","NA"
"2016-02-20 23:00","2016","02","20","23:00","1.5","","-0.4","","87","","30","","17","","","","98.69","","","","","","NA"
"2016-02-21 00:00","2016","02","21","00:00","1.2","","-0.3","","90","","30","","10","","","","98.72","","","","","","NA"
"2016-02-21 01:00","2016","02","21","01:00","0.9","","-0.2","","92","","30","","14","","","","98.82","","","","","","NA"
"2016-02-21 02:00","2016","02","21","02:00","0.7","","-0.5","","91","","32","","8","","","","98.92","","","","","","NA"
"2016-02-21 03:00","2016","02","21","03:00","0.5","","-0.5","","93","","35","","6","","","","98.94","","","","","","NA"
"2016-02-21 04:00","2016","02","21","04:00","0.5","","-0.7","","92","","33","","6","","","","98.97","","","","","","NA"
"2016-02-21 05:00","2016","02","21","05:00","0.6","","-0.9","","90","","34","","7","","","","99.07","","","","","","NA"
"2016-02-21 06:00","2016","02","21","06:00","-1.6","","-4.3","","82","","36","","19","","","","99.25","","","","-7","","NA"
"2016-02-21 07:00","2016","02","21","07:00","-2.9","","-6.3","","78","","1","","15","","","","99.31","","","","-8","","NA"
"2016-02-21 08:00","2016","02","21","08:00","-4.6","","-9.3","","70","","36","","19","","","","99.47","","","","-11","","NA"
"2016-02-21 09:00","2016","02","21","09:00","-6.0","","-11.9","","63","","2","","17","","","","99.54","","","","-12","","NA"
"2016-02-21 10:00","2016","02","21","10:00","-6.3","","-13.3","","58","","5","","15","","","","99.63","","","","-12","","NA"
"2016-02-21 11:00","2016","02","21","11:00","-6.4","","-15.3","","49","","2","","17","","","","99.73","","","","-13","","NA"
"2016-02-21 12:00","2016","02","21","12:00","-6.1","","-17.3","","41","","5","","14","","","","99.78","","","","-12","","NA"
"2016-02-21 13:00","2016","02","21","13:00","-5.9","","-17.1","","41","","7","","17","","","","99.69","","","","-12","","NA"
"2016-02-21 14:00","2016","02","21","14:00","-4.7","","-18.0","","34","","1","","8","","","","99.70","","","","-8","","NA"
"2016-02-21 15:00","2016","02","21","15:00","-4.0","","-17.2","","35","","3","","8","","","","99.66","","","","-7","","NA"
"2016-02-21 16:00","2016","02","21","16:00","-3.2","","-16.4","","35","","31","","6","","","","99.70","","","","-6","","NA"
"2016-02-21 17:00","2016","02","21","17:00","-4.0","","-16.9","","36","","35","","8","","","","99.71","","","","-7","","NA"
"2016-02-21 18:00","2016","02","21","18:00","-4.8","","-16.9","","38","","2","","6","","","","99.74","","","","-8","","NA"
"2016-02-21 19:00","2016","02","21","19:00","-5.5","","-16.2","","43","","1","","6","","","","99.78","","","","-8","","NA"
"2016-02-21 20:00","2016","02","21","20:00","-6.0","","-16.7","","43","","1","","5","","","","99.80","","","","-8","","NA"
"2016-02-21 21:00","2016","02","21","21:00","-6.7","","-15.4","","50","","2","","7","","","","99.85","","","","-10","","NA"
"2016-02-21 22:00","2016","02","21","22:00","-7.9","","-15.9","","53","","4","","6","","","","99.88","","","","-11","","NA"
"2016-02-21 23:00","2016","02","21","23:00","-9.0","","-16.2","","56","","4","","6","","","","99.92","","","","-12","","NA"
"2016-02-22 00:00","2016","02","22","00:00","-9.9","","-17.2","","55","","2","","6","","","","99.95","","","","-13","","NA"
"2016-02-22 01:00","2016","02","22","01:00","-10.8","","-17.6","","57","","4","","5","","","","99.99","","","","-14","","NA"
"2016-02-22 02:00","2016","02","22","02:00","-11.7","","-18.6","","57","","3","","10","","","","100.03","","","","-17","","NA"
"2016-02-22 03:00","2016","02","22","03:00","-12.5","","-18.3","","62","","4","","9","","","","100.04","","","","-18","","NA"
"2016-02-22 04:00","2016","02","22","04:00","-13.2","","-18.6","","64","","4","","6","","","","100.08","","","","-17","","NA"
"2016-02-22 05:00","2016","02","22","05:00","-13.5","","-18.6","","65","","5","","8","","","","100.10","","","","-19","","NA"
"2016-02-22 06:00","2016","02","22","06:00","-13.6","","-18.9","","64","","3","","4","","","","100.18","","","","-16","","NA"
"2016-02-22 07:00","2016","02","22","07:00","-13.5","","-18.6","","66","","34","","4","","","","100.22","","","","-16","","NA"
"2016-02-22 08:00","2016","02","22","08:00","-12.8","","-17.7","","66","","35","","4","","","","100.26","","","","-15","","NA"
"2016-02-22 09:00","2016","02","22","09:00","-12.2","","-18.6","","59","","7","","11","","","","100.27","","","","-18","","NA"
"2016-02-22 10:00","2016","02","22","10:00","-11.5","","-17.4","","62","","12","","9","","","","100.32","","","","-17","","NA"
"2016-02-22 11:00","2016","02","22","11:00","-11.1","","-17.2","","61","","14","","12","","","","100.32","","","","-17","","NA"
"2016-02-22 12:00","2016","02","22","12:00","-9.9","","-16.1","","60","","20","","10","","","","100.34","","","","-15","","NA"
"2016-02-22 13:00","2016","02","22","13:00","-9.6","","-19.1","","46","","25","","17","","","","100.27","","","","-17","","NA"
"2016-02-22 14:00","2016","02","22","14:00","-8.4","","-17.7","","47","","25","","10","","","","100.24","","","","-13","","NA"
"2016-02-22 15:00","2016","02","22","15:00","-7.4","","-17.9","","43","","28","","9","","","","100.18","","","","-12","","NA"
"2016-02-22 16:00","2016","02","22","16:00","-6.4","","-17.5","","41","","26","","7","","","","100.14","","","","-10","","NA"
"2016-02-22 17:00","2016","02","22","17:00","-6.0","","-16.8","","42","","21","","6","","","","100.14","","","","-9","","NA"
"2016-02-22 18:00","2016","02","22","18:00","-7.0","","-16.5","","47","","24","","6","","","","100.15","","","","-10","","NA"
"2016-02-22 19:00","2016","02","22","19:00","-7.7","","-16.4","","50","","24","","2","","","","100.18","","","","-9","","NA"
"2016-02-22 20:00","2016","02","22","20:00","-7.2","","-14.3","","57","","18","","7","","","","100.17","","","","-11","","NA"
"2016-02-22 21:00","2016","02","22","21:00","-8.2","","-14.6","","60","","22","","4","","","","100.16","","","","-10","","NA"
"2016-02-22 22:00","2016","02","22","22:00","-9.8","","-15.1","","65","","4","","6","","","","100.11","","","","-13","","NA"
"2016-02-22 23:00","2016","02","22","23:00","-10.3","","-15.3","","67","","35","","3","","","","100.11","","","","-12","","NA"
"2016-02-23 00:00","2016","02","23","00:00","-9.8","","-15.1","","65","","2","","3","","","","100.14","","","","-12","","NA"
"2016-02-23 01:00","2016","02","23","01:00","-10.7","","-15.6","","67","","6","","7","","","","100.16","","","","-15","","NA"
"2016-02-23 02:00","2016","02","23","02:00","-10.7","","-17.7","","57","","6","","10","","","","100.11","","","","-16","","NA"
"2016-02-23 03:00","2016","02","23","03:00","-10.6","","-17.8","","56","","6","","11","","","","100.10","","","","-16","","NA"
"2016-02-23 04:00","2016","02","23","04:00","-9.9","","-17.8","","52","","5","","9","","","","100.07","","","","-15","","NA"
"2016-02-23 05:00","2016","02","23","05:00","-9.5","","-17.2","","54","","7","","11","","","","100.07","","","","-15","","NA"
"2016-02-23 06:00","2016","02","23","06:00","-9.3","","-16.3","","57","","7","","10","","","","100.09","","","","-14","","NA"
"2016-02-23 07:00","2016","02","23","07:00","-8.8","","-15.7","","57","","6","","8","","","","100.10","","","","-13","","NA"
"2016-02-23 08:00","2016","02","23","08:00","-8.2","","-13.5","","66","","7","","15","","","","100.05","","","","-15","","NA"
"2016-02-23 09:00","2016","02","23","09:00","-8.2","","-13.5","","65","","7","","14","","","","100.07","","","","-14","","NA"
"2016-02-23 10:00","2016","02","23","10:00","-7.9","","-12.0","","72","","9","","16","","","","100.10","","","","-14","","NA"
"2016-02-23 11:00","2016","02","23","11:00","-6.4","","-9.8","","77","","7","","16","","","","100.07","","","","-13","","NA"
"2016-02-23 12:00","2016","02","23","12:00","-4.6","","-7.4","","81","","7","","15","","","","100.10","","","","-10","","NA"
"2016-02-23 13:00","2016","02","23","13:00","-3.8","","-5.8","","86","","8","","19","","","","100.03","","","","-10","","NA"
"2016-02-23 14:00","2016","02","23","14:00","-2.7","","-4.5","","87","","9","","20","","","","100.00","","","","-9","","NA"
"2016-02-23 15:00","2016","02","23","15:00","-2.0","","-3.5","","89","","10","","24","","","","99.95","","","","-8","","NA"
"2016-02-23 16:00","2016","02","23","16:00","-1.7","","-3.2","","89","","10","","24","","","","99.91","","","","-8","","NA"
"2016-02-23 17:00","2016","02","23","17:00","-1.5","","-3.1","","89","","11","","21","","","","99.92","","","","-7","","NA"
"2016-02-23 18:00","2016","02","23","18:00","-1.7","","-3.4","","88","","12","","22","","","","99.87","","","","-8","","NA"
"2016-02-23 19:00","2016","02","23","19:00","-1.9","","-3.9","","87","","12","","19","","","","99.91","","","","-7","","NA"
"2016-02-23 20:00","2016","02","23","20:00","-2.6","","-4.9","","85","","7","","11","","","","99.91","","","","-7","","NA"
"2016-02-23 21:00","2016","02","23","21:00","-3.1","","-5.5","","83","","7","","13","","","","99.88","","","","-8","","NA"
"2016-02-23 22:00","2016","02","23","22:00","-3.3","","-6.1","","81","","6","","10","","","","99.85","","","","-7","","NA"
"2016-02-23 23:00","2016","02","23","23:00","-3.4","","-6.2","","81","","6","","11","","","","99.81","","","","-8","","NA"
"2016-02-24 00:00","2016","02","24","00:00","-3.7","","-6.2","","82","","6","","11","","","","99.77","","","","-8","","NA"
"2016-02-24 01:00","2016","02","24","01:00","-3.6","","-7.9","","72","","7","","12","","","","99.81","","","","-8","","NA"
"2016-02-24 02:00","2016","02","24","02:00","-3.1","","-10.0","","59","","5","","13","","","","99.71","","","","-8","","NA"
"2016-02-24 03:00","2016","02","24","03:00","-3.2","","-11.4","","53","","5","","12","","","","99.62","","","","-8","","NA"
"2016-02-24 04:00","2016","02","24","04:00","-4.1","","-11.8","","55","","7","","12","","","","99.60","","","","-9","","NA"
"2016-02-24 05:00","2016","02","24","05:00","-4.9","","-12.0","","58","","6","","12","","","","99.58","","","","-10","","NA"
"2016-02-24 06:00","2016","02","24","06:00","-3.9","","-13.6","","47","","6","","12","","","","99.50","","","","-9","","NA"
"2016-02-24 07:00","2016","02","24","07:00","-4.0","","-13.8","","47","","6","","17","","","","99.43","","","","-10","","NA"
"2016-02-24 08:00","2016","02","24","08:00","-4.0","","-12.8","","51","","6","","15","","","","99.39","","","","-9","","NA"
"2016-02-24 09:00","2016","02","24","09:00","-3.7","","-13.5","","47","","6","","20","","","","99.31","","","","-10","","NA"
"2016-02-24 10:00","2016","02","24","10:00","-3.0","","-15.2","","39","","6","","22","","","","99.17","","","","-9","","NA"
"2016-02-24 11:00","2016","02","24","11:00","-1.9","","-13.0","","42","","7","","26","","","","99.07","","","","-8","","NA"
"2016-02-24 12:00","2016","02","24","12:00","-1.0","","-13.4","","38","","7","","26","","","","98.96","","","","-7","","NA"
"2016-02-24 13:00","2016","02","24","13:00","-0.4","","-13.9","","35","","6","","23","","","","98.73","","","","-6","","NA"
"2016-02-24 14:00","2016","02","24","14:00","0.3","","-13.0","","36","","6","","20","","","","98.54","","","","","","NA"
"2016-02-24 15:00","2016","02","24","15:00","0.5","","-12.5","","37","","5","","21","","","","98.40","","","","","","NA"
"2016-02-24 16:00","2016","02","24","16:00","0.5","","-11.9","","39","","5","","26","","","","98.26","","","","","","NA"
"2016-02-24 17:00","2016","02","24","17:00","-0.2","","-9.8","","48","","6","","26","","","","98.18","","","","-6","","NA"
"2016-02-24 18:00","2016","02","24","18:00","-2.7","","-4.2","","90","","4","","19","","","","98.03","","","","-8","","NA"
"2016-02-24 19:00","2016","02","24","19:00","-2.0","","-4.1","","85","","3","","21","","","","97.97","","","","-8","","NA"
"2016-02-24 20:00","2016","02","24","20:00","-2.2","","-4.4","","85","","2","","21","","","","97.94","","","","-8","","NA"
"2016-02-24 21:00","2016","02","24","21:00","-1.7","","-4.5","","81","","2","","24","","","","97.75","","","","-8","","NA"
"2016-02-24 22:00","2016","02","24","22:00","-1.4","","-3.6","","85","","2","","23","","","","97.59","","","","-7","","NA"
"2016-02-24 23:00","2016","02","24","23:00","-1.7","","-3.5","","87","","2","","32","","","","97.45","","","","-9","","NA"
"2016-02-25 00:00","2016","02","25","00:00","-1.6","","-2.9","","91","","3","","21","","","","97.35","","","","-7","","NA"
"2016-02-25 01:00","2016","02","25","01:00","-1.3","","-2.3","","93","","1","","29","","","","97.23","","","","-8","","NA"
"2016-02-25 02:00","2016","02","25","02:00","-1.0","","-2.2","","92","","1","","31","","","","97.17","","","","-8","","NA"
"2016-02-25 03:00","2016","02","25","03:00","-1.5","","-2.9","","90","","1","","30","","","","97.14","","","","-8","","NA"
"2016-02-25 04:00","2016","02","25","04:00","-1.9","","-4.0","","86","","36","","37","","","","97.12","","","","-10","","NA"
"2016-02-25 05:00","2016","02","25","05:00","-2.7","","-4.7","","87","","36","","28","","","","97.18","","","","-10","","NA"
"2016-02-25 06:00","2016","02","25","06:00","-3.3","","-6.0","","82","","1","","32","","","","97.25","","","","-11","","NA"
"2016-02-25 07:00","2016","02","25","07:00","-4.0","","-6.8","","81","","36","","27","","","","97.36","","","","-11","","NA"
"2016-02-25 08:00","2016","02","25","08:00","-4.3","","-8.0","","75","","1","","30","","","","97.47","","","","-12","","NA"
"2016-02-25 09:00","2016","02","25","09:00","-4.9","","-9.8","","68","","1","","30","","","","97.56","","","","-13","","NA"
"2016-02-25 10:00","2016","02","25","10:00","-4.9","","-11.4","","60","","35","","26","","","","97.63","","","","-12","","NA"
"2016-02-25 11:00","2016","02","25","11:00","-5.4","","-12.9","","55","","35","","24","","","","97.79","","","","-13","","NA"
"2016-02-25 12:00","2016","02","25","12:00","-4.9","","-12.7","","54","","35","","21","","","","97.87","","","","-12","","NA"
"2016-02-25 13:00","2016","02","25","13:00","-3.0","","-13.4","","45","","34","","23","","","","97.86","","","","-9","","NA"
"2016-02-25 14:00","2016","02","25","14:00","-3.1","","-15.1","","39","","34","","23","","","","97.92","","","","-10","","NA"
"2016-02-25 15:00","2016","02","25","15:00","-2.7","","-15.2","","38","","33","","20","","","","98.01","","","","-9","","NA"
"2016-02-25 16:00","2016","02","25","16:00","-3.0","","-14.7","","40","","34","","24","","","","98.10","","","","-10","","NA"
"2016-02-25 17:00","2016","02","25","17:00","-4.1","","-15.1","","42","","33","","28","","","","98.22","","","","-12","","NA"
"2016-02-25 18:00","2016","02","25","18:00","-5.5","","-15.8","","44","","33","","29","","","","98.35","","","","-14","","NA"
"2016-02-25 19:00","2016","02","25","19:00","-6.9","","-16.1","","48","","34","","22","","","","98.49","","","","-14","","NA"
"2016-02-25 20:00","2016","02","25","20:00","-8.1","","-16.9","","49","","34","","31","","","","98.54","","","","-17","","NA"
"2016-02-25 21:00","2016","02","25","21:00","-9.3","","-17.2","","53","","35","","19","","","","98.69","","","","-17","","NA"
"2016-02-25 22:00","2016","02","25","22:00","-9.9","","-17.4","","54","","34","","17","","","","98.82","","","","-17","","NA"
"2016-02-25 23:00","2016","02","25","23:00","-10.5","","-17.3","","57","","33","","16","","","","98.89","","","","-18","","NA"
"2016-02-26 00:00","2016","02","26","00:00","-11.3","","-18.0","","58","","35","","13","","","","98.99","","","","-18","","NA"
"2016-02-26 01:00","2016","02","26","01:00","-11.8","","-18.4","","58","","34","","7","","","","99.03","","","","-16","","NA"
"2016-02-26 02:00","2016","02","26","02:00","-11.9","","-18.6","","58","","32","","16","","","","99.07","","","","-19","","NA"
"2016-02-26 03:00","2016","02","26","03:00","-12.4","","-18.2","","62","","31","","14","","","","99.12","","","","-19","","NA"
"2016-02-26 04:00","2016","02","26","04:00","-13.3","","-18.1","","67","","33","","15","","","","99.15","","","","-21","","NA"
"2016-02-26 05:00","2016","02","26","05:00","-13.7","","-18.1","","69","","32","","19","","","","99.20","","","","-22","","NA"
"2016-02-26 06:00","2016","02","26","06:00","-14.0","","-18.6","","68","","33","","21","","","","99.26","","","","-23","","NA"
"2016-02-26 07:00","2016","02","26","07:00","-14.4","","-19.6","","64","","33","","21","","","","99.34","","","","-24","","NA"
"2016-02-26 08:00","2016","02","26","08:00","-14.3","","-19.8","","63","","33","","22","","","","99.47","","","","-24","","NA"
"2016-02-26 09:00","2016","02","26","09:00","-13.4","","-20.3","","56","","32","","7","","","","99.56","","","","-18","","NA"
"2016-02-26 10:00","2016","02","26","10:00","-13.0","","-20.5","","53","","31","","14","","","","99.61","","","","-20","","NA"
"2016-02-26 11:00","2016","02","26","11:00","-12.1","","-20.7","","49","","30","","16","","","","99.62","","","","-20","","NA"
"2016-02-26 12:00","2016","02","26","12:00","-10.8","","-19.2","","50","","27","","17","","","","99.62","","","","-18","","NA"
"2016-02-26 13:00","2016","02","26","13:00","-9.9","","-19.6","","45","","27","","15","","","","99.58","","","","-17","","NA"
"2016-02-26 14:00","2016","02","26","14:00","-9.0","","-18.5","","46","","28","","18","","","","99.55","","","","-16","","NA"
"2016-02-26 15:00","2016","02","26","15:00","-8.4","","-17.8","","47","","29","","18","","","","99.50","","","","-15","","NA"
"2016-02-26 16:00","2016","02","26","16:00","-7.4","","-17.7","","44","","29","","18","","","","99.47","","","","-14","","NA"
"2016-02-26 17:00","2016","02","26","17:00","-6.6","","-16.3","","46","","29","","14","","","","99.43","","","","-12","","NA"
"2016-02-26 18:00","2016","02","26","18:00","-6.7","","-15.5","","50","","26","","10","","","","99.37","","","","-11","","NA"
"2016-02-26 19:00","2016","02","26","19:00","-7.4","","-14.6","","56","","29","","9","","","","99.35","","","","-12","","NA"
"2016-02-26 20:00","2016","02","26","20:00","-6.6","","-12.3","","64","","28","","9","","","","99.31","","","","-11","","NA"
"2016-02-26 21:00","2016","02","26","21:00","-6.5","","-11.3","","69","","29","","10","","","","99.25","","","","-11","","NA"
"2016-02-26 22:00","2016","02","26","22:00","-7.2","","-11.4","","72","","29","","10","","","","99.17","","","","-12","","NA"
"2016-02-26 23:00","2016","02","26","23:00","-5.4","","-9.0","","76","","25","","11","","","","99.09","","","","-10","","NA"
"2016-02-27 00:00","2016","02","27","00:00","-4.5","","-8.4","","74","","27","","11","","","","98.97","","","","-9","","NA"
"2016-02-27 01:00","2016","02","27","01:00","-2.9","","-8.0","","68","","26","","15","","","","98.92","","","","-8","","NA"
"2016-02-27 02:00","2016","02","27","02:00","-1.6","","-7.7","","63","","23","","33","","","","98.78","","","","-9","","NA"
"2016-02-27 03:00","2016","02","27","03:00","-1.4","","-7.3","","64","","24","","35","","","","98.65","","","","-9","","NA"
"2016-02-27 04:00","2016","02","27","04:00","-1.3","","-7.1","","64","","24","","28","","","","98.54","","","","-8","","NA"
"2016-02-27 05:00","2016","02","27","05:00","-1.1","","-6.5","","67","","24","","30","","","","98.46","","","","-8","","NA"
"2016-02-27 06:00","2016","02","27","06:00","-1.0","","-5.7","","70","","24","","32","","","","98.36","","","","-8","","NA"
"2016-02-27 07:00","2016","02","27","07:00","-0.9","","-5.0","","74","","24","","38","","","","98.27","","","","-8","","NA"
"2016-02-27 08:00","2016","02","27","08:00","-0.7","","-4.3","","76","","23","","41","","","","98.17","","","","-8","","NA"
"2016-02-27 09:00","2016","02","27","09:00","-0.3","","-4.3","","74","","24","","30","","","","98.11","","","","-7","","NA"
"2016-02-27 10:00","2016","02","27","10:00","0.3","","-3.7","","75","","24","","32","","","","98.00","","","","","","NA"
"2016-02-27 11:00","2016","02","27","11:00","0.5","","-3.1","","76","","24","","34","","","","97.94","","","","","","NA"
"2016-02-27 12:00","2016","02","27","12:00","1.0","","-2.8","","76","","24","","27","","","","97.90","","","","","","NA"
"2016-02-27 13:00","2016","02","27","13:00","1.7","","-2.4","","74","","24","","20","","","","97.83","","","","","","NA"
"2016-02-27 14:00","2016","02","27","14:00","2.3","","-2.0","","73","","23","","31","","","","97.72","","","","","","NA"
"2016-02-27 15:00","2016","02","27","15:00","3.2","","-1.7","","70","","24","","25","","","","97.66","","","","","","NA"
"2016-02-27 16:00","2016","02","27","16:00","4.1","","-1.4","","67","","25","","23","","","","97.62","","","","","","NA"
"2016-02-27 17:00","2016","02","27","17:00","4.3","","-1.8","","64","","26","","26","","","","97.68","","","","","","NA"
"2016-02-27 18:00","2016","02","27","18:00","4.2","","-2.0","","64","","27","","25","","","","97.76","","","","","","NA"
"2016-02-27 19:00","2016","02","27","19:00","3.9","","-1.9","","66","","28","","24","","","","97.91","","","","","","NA"
"2016-02-27 20:00","2016","02","27","20:00","3.1","","-1.2","","73","","28","","22","","","","97.98","","","","","","NA"
"2016-02-27 21:00","2016","02","27","21:00","2.4","","-0.8","","79","","27","","14","","","","98.06","","","","","","NA"
"2016-02-27 22:00","2016","02","27","22:00","2.5","","-1.0","","78","","26","","10","","","","98.08","","","","","","NA"
"2016-02-27 23:00","2016","02","27","23:00","2.1","","-0.8","","81","","35","","7","","","","98.15","","","","","","NA"
"2016-02-28 00:00","2016","02","28","00:00","-0.7","","-2.2","","90","","5","","11","","","","98.25","","","","-4","","NA"
"2016-02-28 01:00","2016","02","28","01:00","-2.3","","-5.0","","81","","6","","21","","","","98.28","","","","-8","","NA"
"2016-02-28 02:00","2016","02","28","02:00","-3.0","","-5.9","","81","","7","","19","","","","98.34","","","","-9","","NA"
"2016-02-28 03:00","2016","02","28","03:00","-4.3","","-7.8","","77","","7","","29","","","","98.32","","","","-12","","NA"
"2016-02-28 04:00","2016","02","28","04:00","-6.6","","-11.2","","70","","6","","22","","","","98.34","","","","-14","","NA"
"2016-02-28 05:00","2016","02","28","05:00","-7.2","","-11.7","","70","","7","","23","","","","98.39","","","","-15","","NA"
"2016-02-28 06:00","2016","02","28","06:00","-8.3","","-12.5","","72","","6","","22","","","","98.36","","","","-16","","NA"
"2016-02-28 07:00","2016","02","28","07:00","-8.6","","-12.1","","75","","7","","23","","","","98.36","","","","-17","","NA"
"2016-02-28 08:00","2016","02","28","08:00","-9.3","","-13.4","","72","","6","","20","","","","98.37","","","","-17","","NA"
"2016-02-28 09:00","2016","02","28","09:00","-9.8","","-13.9","","72","","6","","25","","","","98.33","","","","-19","","NA"
"2016-02-28 10:00","2016","02","28","10:00","-9.9","","-14.0","","72","","7","","26","","","","98.22","","","","-19","","NA"
"2016-02-28 11:00","2016","02","28","11:00","-9.9","","-13.7","","74","","7","","24","","","","98.13","","","","-18","","NA"
"2016-02-28 12:00","2016","02","28","12:00","-9.7","","-13.9","","71","","6","","21","","","","98.01","","","","-18","","NA"
"2016-02-28 13:00","2016","02","28","13:00","-9.4","","-13.1","","75","","7","","31","","","","97.93","","","","-19","","NA"
"2016-02-28 14:00","2016","02","28","14:00","-9.6","","-13.5","","73","","6","","21","","","","97.83","","","","-18","","NA"
"2016-02-28 15:00","2016","02","28","15:00","-9.3","","-13.4","","72","","6","","24","","","","97.68","","","","-18","","NA"
"2016-02-28 16:00","2016","02","28","16:00","-9.2","","-13.2","","72","","6","","20","","","","97.63","","","","-17","","NA"
"2016-02-28 17:00","2016","02","28","17:00","-9.1","","-12.9","","74","","5","","16","","","","97.72","","","","-16","","NA"
"2016-02-28 18:00","2016","02","28","18:00","-9.8","","-12.3","","82","","6","","21","","","","97.60","","","","-18","","NA"
"2016-02-28 19:00","2016","02","28","19:00","-10.2","","-12.6","","82","","6","","19","","","","97.41","","","","-18","","NA"
"2016-02-28 20:00","2016","02","28","20:00","-10.4","","-12.4","","85","","5","","13","","","","97.45","","","","-17","","NA"
"2016-02-28 21:00","2016","02","28","21:00","-9.8","","-12.0","","85","","4","","7","","","","97.38","","","","-14","","NA"
"2016-02-28 22:00","2016","02","28","22:00","-10.3","","-12.4","","84","","1","","8","","","","97.28","","","","-15","","NA"
"2016-02-28 23:00","2016","02","28","23:00","-10.4","","-12.8","","82","","1","","6","","","","97.32","","","","-14","","NA"
"2016-02-29 00:00","2016","02","29","00:00","-10.9","","-13.3","","82","","36","","10","","","","97.33","","","","-16","","NA"
"2016-02-29 01:00","2016","02","29","01:00","-11.7","","-14.4","","81","","35","","7","","","","97.40","","","","-16","","NA"
"2016-02-29 02:00","2016","02","29","02:00","-11.9","","-15.0","","77","","34","","8","","","","97.48","","","","-17","","NA"
"2016-02-29 03:00","2016","02","29","03:00","-12.4","","-15.7","","76","","33","","16","","","","97.53","","","","-20","","NA"
"2016-02-29 04:00","2016","02","29","04:00","-13.0","","-16.5","","75","","31","","13","","","","97.65","","","","-20","","NA"
"2016-02-29 05:00","2016","02","29","05:00","-13.5","","-17.0","","75","","29","","12","","","","97.76","","","","-20","","NA"
"2016-02-29 06:00","2016","02","29","06:00","-13.9","","-17.3","","75","","28","","15","","","","97.84","","","","-22","","NA"
"2016-02-29 07:00","2016","02","29","07:00","-14.4","","-17.3","","79","","30","","12","","","","97.87","","","","-21","","NA"
"2016-02-29 08:00","2016","02","29","08:00","-12.9","","-15.9","","78","","31","","2","","","","97.83","","","","-14","","NA"
"2016-02-29 09:00","2016","02","29","09:00","-11.9","","-14.6","","80","","26","","2","","","","97.77","","","","-13","","NA"
"2016-02-29 10:00","2016","02","29","10:00","-8.6","","-10.2","","88","","19","","17","","","","97.69","","","","-15","","NA"
"2016-02-29 11:00","2016","02","29","11:00","-5.4","","-6.7","","91","","16","","20","","","","97.48","","","","-12","","NA"
"2016-02-29 12:00","2016","02","29","12:00","-1.4","","-2.6","","92","","23","","53","","","","97.23","","","","-10","","NA"
"2016-02-29 13:00","2016","02","29","13:00","-2.6","","-4.4","","87","","26","","47","","","","97.24","","","","-11","","NA"
"2016-02-29 14:00","2016","02","29","14:00","-3.0","","-8.5","","66","","29","","40","","","","97.51","","","","-11","","NA"
"2016-02-29 15:00","2016","02","29","15:00","-4.6","","-11.9","","57","","28","","49","","","","97.77","","","","-14","","NA"
"2016-02-29 16:00","2016","02","29","16:00","-6.8","","-15.8","","49","","31","","37","","","","98.14","","","","-16","","NA"
"2016-02-29 17:00","2016","02","29","17:00","-8.0","","-19.3","","40","","32","","34","","","","98.47","","","","-17","","NA"
"2016-02-29 18:00","2016","02","29","18:00","-9.3","","-20.1","","41","","32","","27","","","","98.77","","","","-18","","NA"
"2016-02-29 19:00","2016","02","29","19:00","-10.4","","-20.2","","44","","33","","16","","","","99.02","","","","-17","","NA"
"2016-02-29 20:00","2016","02","29","20:00","-11.2","","-19.8","","49","","33","","14","","","","99.25","","","","-18","","NA"
"2016-02-29 21:00","2016","02","29","21:00","-12.5","","-19.8","","54","","35","","9","","","","99.40","","","","-18","","NA"
"2016-02-29 22:00","2016","02","29","22:00","-13.4","","-19.9","","58","","32","","5","","","","99.56","","","","-17","","NA"
"2016-02-29 23:00","2016","02","29","23:00","-13.9","","-21.1","","54","","36","","6","","","","99.61","","","","-18","","NA"
