"Station Name","KILLARNEY (AUT)"
"Province","ONTARIO"
"Latitude","45.97"
"Longitude","-81.48"
"Elevation","196.30"
"Climate Identifier","605DJ25"
"WMO Identifier","71460"
"TC Identifier","WBE"
"All times are specified in Local Standard Time (LST). Add 1 hour to adjust for Daylight Saving Time where and when it is observed."

"Legend"
"E","Estimated"
"M","Missing"
"NA","Not Available"

"Date/Time","Year","Month","Day","Time","Temp (°C)","Temp Flag","Dew Point Temp (°C)","Dew Point Temp Flag","Rel Hum (%)","Rel Hum Flag","Wind Dir (10s deg)","Wind Dir Flag","Wind Spd (km/h)","Wind Spd Flag","Visibility (km)","Visibility Flag","Stn Press (kPa)","Stn Press Flag","Hmdx","Hmdx Flag","Wind Chill","Wind Chill Flag","Weather"
"2016-11-01 00:00","2016","11","01","00:00","8.9","","2.4","","64","","17","","43","","","","99.47","","","","","","NA"
"2016-11-01 01:00","2016","11","01","01:00","8.6","","3.0","","68","","18","","43","","","","99.44","","","","","","NA"
"2016-11-01 02:00","2016","11","01","02:00","8.1","","3.0","","70","","18","","35","","","","99.47","","","","","","NA"
"2016-11-01 03:00","2016","11","01","03:00","8.0","","3.6","","74","","17","","41","","","","99.35","","","","","","NA"
"2016-11-01 04:00","2016","11","01","04:00","8.0","","4.2","","77","","16","","40","","","","99.20","","","","","","NA"
"2016-11-01 05:00","2016","11","01","05:00","8.5","","4.3","","75","","15","","36","","","","99.11","","","","","","NA"
"2016-11-01 06:00","2016","11","01","06:00","8.9","","5.2","","78","","16","","28","","","","99.07","","","","","","NA"
"2016-11-01 07:00","2016","11","01","07:00","9.2","","6.1","","81","","15","","24","","","","99.04","","","","","","NA"
"2016-11-01 08:00","2016","11","01","08:00","9.6","","6.0","","78","","16","","27","","","","99.02","","","","","","NA"
"2016-11-01 09:00","2016","11","01","09:00","9.5","","6.8","","83","","15","","25","","","","98.95","","","","","","NA"
"2016-11-01 10:00","2016","11","01","10:00","9.6","","8.1","","90","","14","","20","","","","98.90","","","","","","NA"
"2016-11-01 11:00","2016","11","01","11:00","10.5","","9.3","","93","","17","","24","","","","98.86","","","","","","NA"
"2016-11-01 12:00","2016","11","01","12:00","10.8","","9.3","","91","","19","","28","","","","98.78","","","","","","NA"
"2016-11-01 13:00","2016","11","01","13:00","10.9","","9.1","","89","","21","","18","","","","98.69","","","","","","NA"
"2016-11-01 14:00","2016","11","01","14:00","11.1","","9.3","","89","","22","","26","","","","98.71","","","","","","NA"
"2016-11-01 15:00","2016","11","01","15:00","11.0","","9.3","","89","","23","","15","","","","98.75","","","","","","NA"
"2016-11-01 16:00","2016","11","01","16:00","11.5","","9.6","","88","","23","","14","","","","98.77","","","","","","NA"
"2016-11-01 17:00","2016","11","01","17:00","10.9","","9.2","","89","","22","","10","","","","98.85","","","","","","NA"
"2016-11-01 18:00","2016","11","01","18:00","12.7","","11.0","","89","","25","","8","","","","98.96","","","","","","NA"
"2016-11-01 19:00","2016","11","01","19:00","12.5","","10.9","","90","","28","","5","","","","99.05","","","","","","NA"
"2016-11-01 20:00","2016","11","01","20:00","11.6","","10.3","","92","","31","","6","","","","99.13","","","","","","NA"
"2016-11-01 21:00","2016","11","01","21:00","11.7","","10.4","","92","","26","","5","","","","99.21","","","","","","NA"
"2016-11-01 22:00","2016","11","01","22:00","10.9","","9.2","","89","","28","","10","","","","99.28","","","","","","NA"
"2016-11-01 23:00","2016","11","01","23:00","10.9","","9.4","","91","","30","","9","","","","99.36","","","","","","NA"
"2016-11-02 00:00","2016","11","02","00:00","10.1","","7.7","","85","","31","","12","","","","99.45","","","","","","NA"
"2016-11-02 01:00","2016","11","02","01:00","9.2","","6.8","","85","","30","","11","","","","99.55","","","","","","NA"
"2016-11-02 02:00","2016","11","02","02:00","8.8","","5.7","","81","","32","","14","","","","99.59","","","","","","NA"
"2016-11-02 03:00","2016","11","02","03:00","8.3","","5.4","","82","","30","","9","","","","99.64","","","","","","NA"
"2016-11-02 04:00","2016","11","02","04:00","8.0","","5.1","","82","","31","","14","","","","99.68","","","","","","NA"
"2016-11-02 05:00","2016","11","02","05:00","8.2","","5.0","","80","","31","","15","","","","99.73","","","","","","NA"
"2016-11-02 06:00","2016","11","02","06:00","7.9","","5.2","","83","","31","","13","","","","99.78","","","","","","NA"
"2016-11-02 07:00","2016","11","02","07:00","7.9","","5.4","","84","","24","","4","","","","99.87","","","","","","NA"
"2016-11-02 08:00","2016","11","02","08:00","7.7","","5.0","","83","","31","","1","","","","99.96","","","","","","NA"
"2016-11-02 09:00","2016","11","02","09:00","8.2","","5.1","","81","","36","","4","","","","99.99","","","","","","NA"
"2016-11-02 10:00","2016","11","02","10:00","8.8","","5.5","","80","","29","","3","","","","100.02","","","","","","NA"
"2016-11-02 11:00","2016","11","02","11:00","8.9","","5.3","","78","","33","","6","","","","100.06","","","","","","NA"
"2016-11-02 12:00","2016","11","02","12:00","9.4","","5.4","","76","","27","","5","","","","99.99","","","","","","NA"
"2016-11-02 13:00","2016","11","02","13:00","9.6","","5.3","","75","","28","","7","","","","99.96","","","","","","NA"
"2016-11-02 14:00","2016","11","02","14:00","9.4","","5.9","","79","","20","","4","","","","99.92","","","","","","NA"
"2016-11-02 15:00","2016","11","02","15:00","9.9","","6.2","","77","","33","","3","","","","99.88","","","","","","NA"
"2016-11-02 16:00","2016","11","02","16:00","9.8","","5.9","","77","","30","","3","","","","99.94","","","","","","NA"
"2016-11-02 17:00","2016","11","02","17:00","9.1","","6.2","","82","","22","","7","","","","99.91","","","","","","NA"
"2016-11-02 18:00","2016","11","02","18:00","8.8","","6.6","","86","","28","","2","","","","99.91","","","","","","NA"
"2016-11-02 19:00","2016","11","02","19:00","8.7","","6.3","","85","","25","","1","","","","99.91","","","","","","NA"
"2016-11-02 20:00","2016","11","02","20:00","7.7","","6.1","","89","","4","","5","","","","99.86","","","","","","NA"
"2016-11-02 21:00","2016","11","02","21:00","7.7","","6.3","","91","","6","","7","","","","99.79","","","","","","NA"
"2016-11-02 22:00","2016","11","02","22:00","7.6","","6.0","","90","","2","","5","","","","99.80","","","","","","NA"
"2016-11-02 23:00","2016","11","02","23:00","7.5","","5.7","","89","","36","","3","","","","99.79","","","","","","NA"
"2016-11-03 00:00","2016","11","03","00:00","7.7","","5.9","","89","","33","","3","","","","99.77","","","","","","NA"
"2016-11-03 01:00","2016","11","03","01:00","7.6","","6.1","","90","","33","","2","","","","99.74","","","","","","NA"
"2016-11-03 02:00","2016","11","03","02:00","8.1","","6.2","","88","","35","","6","","","","99.67","","","","","","NA"
"2016-11-03 03:00","2016","11","03","03:00","8.2","","5.0","","80","","33","","5","","","","99.62","","","","","","NA"
"2016-11-03 04:00","2016","11","03","04:00","7.3","","5.5","","88","","35","","9","","","","99.56","","","","","","NA"
"2016-11-03 05:00","2016","11","03","05:00","7.0","","4.6","","85","","34","","8","","","","99.57","","","","","","NA"
"2016-11-03 06:00","2016","11","03","06:00","6.6","","4.3","","86","","33","","9","","","","99.61","","","","","","NA"
"2016-11-03 07:00","2016","11","03","07:00","6.2","","3.8","","85","","1","","6","","","","99.61","","","","","","NA"
"2016-11-03 08:00","2016","11","03","08:00","6.2","","3.9","","85","","35","","8","","","","99.66","","","","","","NA"
"2016-11-03 09:00","2016","11","03","09:00","6.4","","4.0","","84","","33","","15","","","","99.72","","","","","","NA"
"2016-11-03 10:00","2016","11","03","10:00","6.6","","4.0","","84","","35","","7","","","","99.73","","","","","","NA"
"2016-11-03 11:00","2016","11","03","11:00","8.4","","4.4","","76","","36","","6","","","","99.75","","","","","","NA"
"2016-11-03 12:00","2016","11","03","12:00","8.2","","5.2","","82","","33","","10","","","","99.72","","","","","","NA"
"2016-11-03 13:00","2016","11","03","13:00","9.0","","4.8","","75","","32","","12","","","","99.73","","","","","","NA"
"2016-11-03 14:00","2016","11","03","14:00","9.2","","5.1","","76","","34","","10","","","","99.75","","","","","","NA"
"2016-11-03 15:00","2016","11","03","15:00","9.2","","4.2","","71","","35","","13","","","","99.79","","","","","","NA"
"2016-11-03 16:00","2016","11","03","16:00","9.2","","4.1","","70","","1","","9","","","","99.83","","","","","","NA"
"2016-11-03 17:00","2016","11","03","17:00","8.6","","4.0","","72","","33","","4","","","","99.88","","","","","","NA"
"2016-11-03 18:00","2016","11","03","18:00","7.8","","3.5","","74","","34","","5","","","","99.99","","","","","","NA"
"2016-11-03 19:00","2016","11","03","19:00","7.1","","2.4","","72","","34","","8","","","","100.06","","","","","","NA"
"2016-11-03 20:00","2016","11","03","20:00","7.0","","1.5","","68","","36","","14","","","","100.12","","","","","","NA"
"2016-11-03 21:00","2016","11","03","21:00","6.5","","1.3","","69","","34","","7","","","","100.20","","","","","","NA"
"2016-11-03 22:00","2016","11","03","22:00","5.7","","1.4","","74","","1","","6","","","","100.25","","","","","","NA"
"2016-11-03 23:00","2016","11","03","23:00","5.0","","1.5","","78","","36","","8","","","","100.28","","","","","","NA"
"2016-11-04 00:00","2016","11","04","00:00","4.4","","0.6","","76","","3","","8","","","","100.30","","","","","","NA"
"2016-11-04 01:00","2016","11","04","01:00","3.2","","-0.8","","75","","1","","10","","","","100.29","","","","","","NA"
"2016-11-04 02:00","2016","11","04","02:00","2.1","","-1.3","","78","","1","","10","","","","100.38","","","","","","NA"
"2016-11-04 03:00","2016","11","04","03:00","1.1","","-1.7","","82","","4","","3","","","","100.39","","","","","","NA"
"2016-11-04 04:00","2016","11","04","04:00","1.2","","-1.7","","81","","6","","3","","","","100.35","","","","","","NA"
"2016-11-04 05:00","2016","11","04","05:00","1.1","","-2.0","","80","","3","","6","","","","100.42","","","","","","NA"
"2016-11-04 06:00","2016","11","04","06:00","1.2","","-1.6","","82","","32","","4","","","","100.42","","","","","","NA"
"2016-11-04 07:00","2016","11","04","07:00","0.9","","-1.7","","83","","36","","4","","","","100.44","","","","","","NA"
"2016-11-04 08:00","2016","11","04","08:00","1.4","","-1.4","","82","","1","","2","","","","100.47","","","","","","NA"
"2016-11-04 09:00","2016","11","04","09:00","2.5","","-0.3","","82","","32","","4","","","","100.52","","","","","","NA"
"2016-11-04 10:00","2016","11","04","10:00","3.7","","-0.6","","74","","30","","14","","","","100.43","","","","","","NA"
"2016-11-04 11:00","2016","11","04","11:00","5.2","","-0.1","","68","","31","","13","","","","100.41","","","","","","NA"
"2016-11-04 12:00","2016","11","04","12:00","6.3","","0.3","","66","","29","","14","","","","100.31","","","","","","NA"
"2016-11-04 13:00","2016","11","04","13:00","6.4","","0.6","","66","","27","","19","","","","100.23","","","","","","NA"
"2016-11-04 14:00","2016","11","04","14:00","7.0","","1.7","","69","","26","","19","","","","100.15","","","","","","NA"
"2016-11-04 15:00","2016","11","04","15:00","8.0","","2.3","","67","","27","","23","","","","100.09","","","","","","NA"
"2016-11-04 16:00","2016","11","04","16:00","8.3","","3.1","","70","","26","","19","","","","100.02","","","","","","NA"
"2016-11-04 17:00","2016","11","04","17:00","8.3","","3.8","","73","","25","","16","","","","99.98","","","","","","NA"
"2016-11-04 18:00","2016","11","04","18:00","8.6","","5.3","","80","","24","","11","","","","99.89","","","","","","NA"
"2016-11-04 19:00","2016","11","04","19:00","8.6","","5.7","","82","","24","","17","","","","99.84","","","","","","NA"
"2016-11-04 20:00","2016","11","04","20:00","8.7","","6.0","","83","","25","","14","","","","99.83","","","","","","NA"
"2016-11-04 21:00","2016","11","04","21:00","9.0","","6.5","","84","","24","","17","","","","99.78","","","","","","NA"
"2016-11-04 22:00","2016","11","04","22:00","10.7","","7.1","","78","","28","","29","","","","99.73","","","","","","NA"
"2016-11-04 23:00","2016","11","04","23:00","10.9","","7.6","","80","","28","","30","","","","99.72","","","","","","NA"
"2016-11-05 00:00","2016","11","05","00:00","10.8","","8.0","","83","","29","","21","","","","99.71","","","","","","NA"
"2016-11-05 01:00","2016","11","05","01:00","10.7","","8.1","","84","","29","","25","","","","99.71","","","","","","NA"
"2016-11-05 02:00","2016","11","05","02:00","10.2","","8.0","","86","","29","","17","","","","99.75","","","","","","NA"
"2016-11-05 03:00","2016","11","05","03:00","10.0","","7.9","","87","","28","","16","","","","99.78","","","","","","NA"
"2016-11-05 04:00","2016","11","05","04:00","9.6","","7.9","","89","","29","","15","","","","99.80","","","","","","NA"
"2016-11-05 05:00","2016","11","05","05:00","9.6","","7.7","","88","","29","","21","","","","99.80","","","","","","NA"
"2016-11-05 06:00","2016","11","05","06:00","9.6","","7.9","","90","","30","","19","","","","99.83","","","","","","NA"
"2016-11-05 07:00","2016","11","05","07:00","9.5","","7.8","","90","","29","","17","","","","99.86","","","","","","NA"
"2016-11-05 08:00","2016","11","05","08:00","9.6","","7.8","","89","","31","","21","","","","99.95","","","","","","NA"
"2016-11-05 09:00","2016","11","05","09:00","9.6","","7.8","","89","","29","","16","","","","99.96","","","","","","NA"
"2016-11-05 10:00","2016","11","05","10:00","10.1","","7.7","","85","","28","","15","","","","99.98","","","","","","NA"
"2016-11-05 11:00","2016","11","05","11:00","10.9","","7.0","","77","","29","","12","","","","99.95","","","","","","NA"
"2016-11-05 12:00","2016","11","05","12:00","12.1","","6.6","","69","","27","","17","","","","99.90","","","","","","NA"
"2016-11-05 13:00","2016","11","05","13:00","12.9","","7.2","","68","","28","","20","","","","99.83","","","","","","NA"
"2016-11-05 14:00","2016","11","05","14:00","12.2","","7.8","","74","","29","","17","","","","99.84","","","","","","NA"
"2016-11-05 15:00","2016","11","05","15:00","12.5","","7.5","","72","","29","","14","","","","99.89","","","","","","NA"
"2016-11-05 16:00","2016","11","05","16:00","12.5","","7.3","","71","","28","","13","","","","99.89","","","","","","NA"
"2016-11-05 17:00","2016","11","05","17:00","11.6","","7.7","","77","","29","","12","","","","99.94","","","","","","NA"
"2016-11-05 18:00","2016","11","05","18:00","11.0","","6.3","","73","","31","","8","","","","100.04","","","","","","NA"
"2016-11-05 19:00","2016","11","05","19:00","11.0","","4.3","","63","","26","","7","","","","100.10","","","","","","NA"
"2016-11-05 20:00","2016","11","05","20:00","10.6","","4.2","","64","","26","","10","","","","100.17","","","","","","NA"
"2016-11-05 21:00","2016","11","05","21:00","9.6","","4.3","","69","","27","","9","","","","100.20","","","","","","NA"
"2016-11-05 22:00","2016","11","05","22:00","9.4","","4.1","","69","","26","","10","","","","100.25","","","","","","NA"
"2016-11-05 23:00","2016","11","05","23:00","9.2","","4.2","","71","","31","","11","","","","100.30","","","","","","NA"
"2016-11-06 00:00","2016","11","06","00:00","8.7","","4.0","","72","","33","","11","","","","100.32","","","","","","NA"
"2016-11-06 01:00","2016","11","06","01:00","8.4","","3.8","","73","","34","","10","","","","100.34","","","","","","NA"
"2016-11-06 02:00","2016","11","06","02:00","8.6","","4.4","","75","","16","","7","","","","100.39","","","","","","NA"
"2016-11-06 03:00","2016","11","06","03:00","8.3","","4.7","","78","","21","","2","","","","100.41","","","","","","NA"
"2016-11-06 04:00","2016","11","06","04:00","6.6","","4.4","","86","","11","","4","","","","100.50","","","","","","NA"
"2016-11-06 05:00","2016","11","06","05:00","6.1","","4.3","","89","","10","","4","","","","100.54","","","","","","NA"
"2016-11-06 06:00","2016","11","06","06:00","5.9","","2.8","","80","","7","","5","","","","100.54","","","","","","NA"
"2016-11-06 07:00","2016","11","06","07:00","6.4","","1.7","","72","","6","","9","","","","100.56","","","","","","NA"
"2016-11-06 08:00","2016","11","06","08:00","6.5","","1.7","","71","","6","","13","","","","100.65","","","","","","NA"
"2016-11-06 09:00","2016","11","06","09:00","7.2","","2.9","","74","","7","","14","","","","100.72","","","","","","NA"
"2016-11-06 10:00","2016","11","06","10:00","8.0","","4.1","","76","","8","","8","","","","100.69","","","","","","NA"
"2016-11-06 11:00","2016","11","06","11:00","9.4","","5.4","","76","","11","","9","","","","100.72","","","","","","NA"
"2016-11-06 12:00","2016","11","06","12:00","9.8","","6.3","","78","","15","","14","","","","100.66","","","","","","NA"
"2016-11-06 13:00","2016","11","06","13:00","10.0","","6.3","","78","","15","","16","","","","100.62","","","","","","NA"
"2016-11-06 14:00","2016","11","06","14:00","9.9","","6.7","","80","","14","","15","","","","100.56","","","","","","NA"
"2016-11-06 15:00","2016","11","06","15:00","10.0","","6.9","","81","","10","","9","","","","100.53","","","","","","NA"
"2016-11-06 16:00","2016","11","06","16:00","10.6","","7.5","","81","","18","","19","","","","100.50","","","","","","NA"
"2016-11-06 17:00","2016","11","06","17:00","10.4","","7.5","","83","","18","","19","","","","100.47","","","","","","NA"
"2016-11-06 18:00","2016","11","06","18:00","10.5","","7.7","","83","","17","","14","","","","100.50","","","","","","NA"
"2016-11-06 19:00","2016","11","06","19:00","9.8","","8.0","","89","","13","","10","","","","100.50","","","","","","NA"
"2016-11-06 20:00","2016","11","06","20:00","10.0","","8.3","","89","","10","","7","","","","100.49","","","","","","NA"
"2016-11-06 21:00","2016","11","06","21:00","9.6","","7.7","","88","","8","","4","","","","100.50","","","","","","NA"
"2016-11-06 22:00","2016","11","06","22:00","9.2","","7.3","","88","","7","","5","","","","100.48","","","","","","NA"
"2016-11-06 23:00","2016","11","06","23:00","9.7","","7.3","","85","","7","","4","","","","100.47","","","","","","NA"
"2016-11-07 00:00","2016","11","07","00:00","9.0","","7.0","","87","","9","","6","","","","100.44","","","","","","NA"
"2016-11-07 01:00","2016","11","07","01:00","9.0","","7.3","","89","","8","","4","","","","100.44","","","","","","NA"
"2016-11-07 02:00","2016","11","07","02:00","8.8","","6.8","","87","","8","","5","","","","100.44","","","","","","NA"
"2016-11-07 03:00","2016","11","07","03:00","8.6","","7.1","","90","","6","","6","","","","100.41","","","","","","NA"
"2016-11-07 04:00","2016","11","07","04:00","8.6","","7.2","","91","","6","","5","","","","100.42","","","","","","NA"
"2016-11-07 05:00","2016","11","07","05:00","8.6","","7.3","","92","","7","","5","","","","100.44","","","","","","NA"
"2016-11-07 06:00","2016","11","07","06:00","8.9","","7.7","","92","","11","","5","","","","100.45","","","","","","NA"
"2016-11-07 07:00","2016","11","07","07:00","9.1","","7.9","","92","","10","","3","","","","100.46","","","","","","NA"
"2016-11-07 08:00","2016","11","07","08:00","9.5","","8.0","","90","","20","","2","","","","100.51","","","","","","NA"
"2016-11-07 09:00","2016","11","07","09:00","9.3","","7.0","","85","","11","","5","","","","100.53","","","","","","NA"
"2016-11-07 10:00","2016","11","07","10:00","11.0","","8.4","","84","","15","","3","","","","100.49","","","","","","NA"
"2016-11-07 11:00","2016","11","07","11:00","10.7","","8.1","","84","","10","","6","","","","100.48","","","","","","NA"
"2016-11-07 12:00","2016","11","07","12:00","11.3","","8.4","","82","","11","","6","","","","100.42","","","","","","NA"
"2016-11-07 13:00","2016","11","07","13:00","11.5","","8.5","","82","","9","","7","","","","100.37","","","","","","NA"
"2016-11-07 14:00","2016","11","07","14:00","11.6","","8.7","","83","","12","","5","","","","100.32","","","","","","NA"
"2016-11-07 15:00","2016","11","07","15:00","11.7","","9.0","","84","","21","","15","","","","100.25","","","","","","NA"
"2016-11-07 16:00","2016","11","07","16:00","11.2","","9.1","","87","","19","","26","","","","100.23","","","","","","NA"
"2016-11-07 17:00","2016","11","07","17:00","10.6","","9.1","","91","","20","","18","","","","100.19","","","","","","NA"
"2016-11-07 18:00","2016","11","07","18:00","10.5","","8.8","","90","","20","","12","","","","100.17","","","","","","NA"
"2016-11-07 19:00","2016","11","07","19:00","10.2","","8.8","","91","","27","","4","","","","100.14","","","","","","NA"
"2016-11-07 20:00","2016","11","07","20:00","10.2","","8.6","","90","","20","","11","","","","100.09","","","","","","NA"
"2016-11-07 21:00","2016","11","07","21:00","10.3","","8.5","","89","","19","","3","","","","100.03","","","","","","NA"
"2016-11-07 22:00","2016","11","07","22:00","10.7","","8.0","","83","","21","","2","","","","99.93","","","","","","NA"
"2016-11-07 23:00","2016","11","07","23:00","11.7","","8.0","","79","","23","","9","","","","99.90","","","","","","NA"
"2016-11-08 00:00","2016","11","08","00:00","10.8","","7.7","","81","","21","","6","","","","99.81","","","","","","NA"
"2016-11-08 01:00","2016","11","08","01:00","10.7","","7.5","","81","","22","","4","","","","99.76","","","","","","NA"
"2016-11-08 02:00","2016","11","08","02:00","10.5","","7.7","","83","","26","","11","","","","99.70","","","","","","NA"
"2016-11-08 03:00","2016","11","08","03:00","10.8","","7.9","","82","","23","","18","","","","99.62","","","","","","NA"
"2016-11-08 04:00","2016","11","08","04:00","10.6","","7.9","","84","","23","","21","","","","99.54","","","","","","NA"
"2016-11-08 05:00","2016","11","08","05:00","10.2","","7.7","","84","","28","","4","","","","99.50","","","","","","NA"
"2016-11-08 06:00","2016","11","08","06:00","10.0","","7.7","","85","","29","","3","","","","99.42","","","","","","NA"
"2016-11-08 07:00","2016","11","08","07:00","10.6","","7.5","","81","","26","","16","","","","99.38","","","","","","NA"
"2016-11-08 08:00","2016","11","08","08:00","10.5","","6.9","","78","","28","","8","","","","99.36","","","","","","NA"
"2016-11-08 09:00","2016","11","08","09:00","10.3","","7.4","","82","","23","","15","","","","99.27","","","","","","NA"
"2016-11-08 10:00","2016","11","08","10:00","11.3","","7.4","","77","","26","","17","","","","99.25","","","","","","NA"
"2016-11-08 11:00","2016","11","08","11:00","12.0","","7.7","","75","","26","","16","","","","99.24","","","","","","NA"
"2016-11-08 12:00","2016","11","08","12:00","12.1","","7.7","","74","","28","","15","","","","99.18","","","","","","NA"
"2016-11-08 13:00","2016","11","08","13:00","11.2","","8.4","","83","","29","","13","","","","99.16","","","","","","NA"
"2016-11-08 14:00","2016","11","08","14:00","11.5","","8.6","","83","","29","","13","","","","99.16","","","","","","NA"
"2016-11-08 15:00","2016","11","08","15:00","11.1","","9.1","","87","","29","","11","","","","99.15","","","","","","NA"
"2016-11-08 16:00","2016","11","08","16:00","11.2","","9.1","","87","","31","","7","","","","99.18","","","","","","NA"
"2016-11-08 17:00","2016","11","08","17:00","11.0","","8.9","","87","","29","","8","","","","99.21","","","","","","NA"
"2016-11-08 18:00","2016","11","08","18:00","11.2","","8.4","","83","","34","","8","","","","99.26","","","","","","NA"
"2016-11-08 19:00","2016","11","08","19:00","6.9","","3.7","","80","","36","","19","","","","99.40","","","","","","NA"
"2016-11-08 20:00","2016","11","08","20:00","6.4","","1.9","","73","","1","","24","","","","99.51","","","","","","NA"
"2016-11-08 21:00","2016","11","08","21:00","6.2","","1.2","","70","","1","","29","","","","99.55","","","","","","NA"
"2016-11-08 22:00","2016","11","08","22:00","5.9","","0.8","","70","","1","","24","","","","99.61","","","","","","NA"
"2016-11-08 23:00","2016","11","08","23:00","5.4","","0.0","","68","","36","","20","","","","99.71","","","","","","NA"
"2016-11-09 00:00","2016","11","09","00:00","4.8","","-0.4","","69","","1","","19","","","","99.71","","","","","","NA"
"2016-11-09 01:00","2016","11","09","01:00","4.2","","-0.6","","71","","36","","15","","","","99.76","","","","","","NA"
"2016-11-09 02:00","2016","11","09","02:00","3.8","","-0.9","","72","","1","","20","","","","99.82","","","","","","NA"
"2016-11-09 03:00","2016","11","09","03:00","3.3","","-1.3","","72","","36","","18","","","","99.84","","","","","","NA"
"2016-11-09 04:00","2016","11","09","04:00","2.8","","-1.8","","72","","36","","8","","","","99.87","","","","","","NA"
"2016-11-09 05:00","2016","11","09","05:00","2.3","","-1.7","","75","","36","","3","","","","99.93","","","","","","NA"
"2016-11-09 06:00","2016","11","09","06:00","1.6","","-3.3","","70","","2","","16","","","","99.96","","","","","","NA"
"2016-11-09 07:00","2016","11","09","07:00","1.6","","-3.5","","69","","2","","10","","","","100.04","","","","","","NA"
"2016-11-09 08:00","2016","11","09","08:00","1.7","","-3.7","","68","","36","","7","","","","100.09","","","","","","NA"
"2016-11-09 09:00","2016","11","09","09:00","2.3","","-3.9","","64","","2","","10","","","","100.06","","","","","","NA"
"2016-11-09 10:00","2016","11","09","10:00","3.1","","-4.0","","60","","36","","15","","","","100.06","","","","","","NA"
"2016-11-09 11:00","2016","11","09","11:00","4.3","","-4.1","","54","","4","","6","","","","99.99","","","","","","NA"
"2016-11-09 12:00","2016","11","09","12:00","4.4","","-3.4","","57","","30","","13","","","","99.98","","","","","","NA"
"2016-11-09 13:00","2016","11","09","13:00","4.9","","-2.7","","58","","27","","15","","","","99.90","","","","","","NA"
"2016-11-09 14:00","2016","11","09","14:00","5.5","","-2.4","","57","","29","","13","","","","99.81","","","","","","NA"
"2016-11-09 15:00","2016","11","09","15:00","5.8","","-1.3","","60","","29","","15","","","","99.79","","","","","","NA"
"2016-11-09 16:00","2016","11","09","16:00","5.6","","-1.1","","62","","28","","16","","","","99.76","","","","","","NA"
"2016-11-09 17:00","2016","11","09","17:00","5.5","","-0.2","","67","","28","","11","","","","99.76","","","","","","NA"
"2016-11-09 18:00","2016","11","09","18:00","5.3","","0.5","","71","","27","","10","","","","99.71","","","","","","NA"
"2016-11-09 19:00","2016","11","09","19:00","5.3","","0.7","","72","","26","","13","","","","99.65","","","","","","NA"
"2016-11-09 20:00","2016","11","09","20:00","5.3","","0.6","","72","","28","","9","","","","99.68","","","","","","NA"
"2016-11-09 21:00","2016","11","09","21:00","5.2","","1.2","","75","","26","","7","","","","99.61","","","","","","NA"
"2016-11-09 22:00","2016","11","09","22:00","5.4","","1.8","","78","","28","","9","","","","99.54","","","","","","NA"
"2016-11-09 23:00","2016","11","09","23:00","6.5","","3.0","","78","","24","","12","","","","99.45","","","","","","NA"
"2016-11-10 00:00","2016","11","10","00:00","7.0","","4.0","","81","","24","","16","","","","99.36","","","","","","NA"
"2016-11-10 01:00","2016","11","10","01:00","7.5","","4.7","","82","","25","","14","","","","99.27","","","","","","NA"
"2016-11-10 02:00","2016","11","10","02:00","8.0","","4.8","","80","","25","","9","","","","99.21","","","","","","NA"
"2016-11-10 03:00","2016","11","10","03:00","8.3","","4.4","","76","","26","","12","","","","99.10","","","","","","NA"
"2016-11-10 04:00","2016","11","10","04:00","8.6","","4.7","","77","","25","","17","","","","98.97","","","","","","NA"
"2016-11-10 05:00","2016","11","10","05:00","8.8","","4.8","","76","","24","","18","","","","98.87","","","","","","NA"
"2016-11-10 06:00","2016","11","10","06:00","9.2","","4.9","","75","","24","","26","","","","98.73","","","","","","NA"
"2016-11-10 07:00","2016","11","10","07:00","8.8","","5.1","","77","","24","","27","","","","98.61","","","","","","NA"
"2016-11-10 08:00","2016","11","10","08:00","9.4","","5.2","","75","","25","","18","","","","98.59","","","","","","NA"
"2016-11-10 09:00","2016","11","10","09:00","9.6","","5.2","","74","","25","","20","","","","98.45","","","","","","NA"
"2016-11-10 10:00","2016","11","10","10:00","10.2","","5.1","","71","","25","","26","","","","98.35","","","","","","NA"
"2016-11-10 11:00","2016","11","10","11:00","11.7","","5.1","","64","","25","","25","","","","98.23","","","","","","NA"
"2016-11-10 12:00","2016","11","10","12:00","12.4","","5.0","","61","","25","","30","","","","98.09","","","","","","NA"
"2016-11-10 13:00","2016","11","10","13:00","12.5","","5.1","","61","","24","","29","","","","97.97","","","","","","NA"
"2016-11-10 14:00","2016","11","10","14:00","13.9","","5.5","","57","","25","","23","","","","97.88","","","","","","NA"
"2016-11-10 15:00","2016","11","10","15:00","14.3","","5.9","","57","","25","","23","","","","97.78","","","","","","NA"
"2016-11-10 16:00","2016","11","10","16:00","14.1","","5.9","","58","","28","","30","","","","97.74","","","","","","NA"
"2016-11-10 17:00","2016","11","10","17:00","13.3","","6.2","","62","","28","","27","","","","97.72","","","","","","NA"
"2016-11-10 18:00","2016","11","10","18:00","13.0","","6.5","","65","","28","","35","","","","97.75","","","","","","NA"
"2016-11-10 19:00","2016","11","10","19:00","12.3","","6.8","","69","","28","","33","","","","97.75","","","","","","NA"
"2016-11-10 20:00","2016","11","10","20:00","12.0","","6.8","","70","","29","","36","","","","97.76","","","","","","NA"
"2016-11-10 21:00","2016","11","10","21:00","11.8","","5.8","","67","","30","","26","","","","97.86","","","","","","NA"
"2016-11-10 22:00","2016","11","10","22:00","11.2","","6.4","","72","","30","","24","","","","97.98","","","","","","NA"
"2016-11-10 23:00","2016","11","10","23:00","10.7","","2.6","","57","","35","","31","","","","98.17","","","","","","NA"
"2016-11-11 00:00","2016","11","11","00:00","9.8","","2.6","","61","","34","","21","","","","98.30","","","","","","NA"
"2016-11-11 01:00","2016","11","11","01:00","7.6","","2.4","","69","","36","","19","","","","98.49","","","","","","NA"
"2016-11-11 02:00","2016","11","11","02:00","5.7","","-0.7","","63","","35","","21","","","","98.70","","","","","","NA"
"2016-11-11 03:00","2016","11","11","03:00","4.7","","-3.8","","54","","34","","21","","","","98.85","","","","","","NA"
"2016-11-11 04:00","2016","11","11","04:00","3.7","","-3.8","","58","","36","","18","","","","99.03","","","","","","NA"
"2016-11-11 05:00","2016","11","11","05:00","2.9","","-4.3","","59","","35","","16","","","","99.23","","","","","","NA"
"2016-11-11 06:00","2016","11","11","06:00","2.6","","-4.9","","58","","34","","14","","","","99.40","","","","","","NA"
"2016-11-11 07:00","2016","11","11","07:00","1.7","","-6.8","","53","","36","","28","","","","99.58","","","","","","NA"
"2016-11-11 08:00","2016","11","11","08:00","1.3","","-5.8","","59","","36","","19","","","","99.73","","","","","","NA"
"2016-11-11 09:00","2016","11","11","09:00","1.7","","-6.9","","53","","36","","14","","","","99.85","","","","","","NA"
"2016-11-11 10:00","2016","11","11","10:00","2.1","","-6.3","","54","","34","","20","","","","99.93","","","","","","NA"
"2016-11-11 11:00","2016","11","11","11:00","2.5","","-7.3","","49","","36","","21","","","","100.03","","","","","","NA"
"2016-11-11 12:00","2016","11","11","12:00","3.5","","-7.5","","45","","35","","15","","","","100.07","","","","","","NA"
"2016-11-11 13:00","2016","11","11","13:00","3.9","","-8.2","","41","","35","","20","","","","100.09","","","","","","NA"
"2016-11-11 14:00","2016","11","11","14:00","3.9","","-7.1","","45","","34","","22","","","","100.14","","","","","","NA"
"2016-11-11 15:00","2016","11","11","15:00","3.7","","-7.3","","44","","33","","20","","","","100.18","","","","","","NA"
"2016-11-11 16:00","2016","11","11","16:00","3.2","","-7.3","","46","","34","","15","","","","100.27","","","","","","NA"
"2016-11-11 17:00","2016","11","11","17:00","2.6","","-7.3","","48","","35","","8","","","","100.35","","","","","","NA"
"2016-11-11 18:00","2016","11","11","18:00","2.0","","-7.3","","50","","35","","9","","","","100.44","","","","","","NA"
"2016-11-11 19:00","2016","11","11","19:00","1.3","","-6.3","","57","","34","","11","","","","100.54","","","","","","NA"
"2016-11-11 20:00","2016","11","11","20:00","0.4","","-6.2","","61","","31","","2","","","","100.57","","","","","","NA"
"2016-11-11 21:00","2016","11","11","21:00","-0.1","","-6.1","","64","","4","","3","","","","100.58","","","","-1","","NA"
"2016-11-11 22:00","2016","11","11","22:00","-0.4","","-6.4","","64","","35","","6","","","","100.57","","","","-2","","NA"
"2016-11-11 23:00","2016","11","11","23:00","-1.0","","-6.2","","67","","33","","6","","","","100.57","","","","-3","","NA"
"2016-11-12 00:00","2016","11","12","00:00","-0.9","","-6.1","","68","","33","","7","","","","100.57","","","","-3","","NA"
"2016-11-12 01:00","2016","11","12","01:00","-0.9","","-5.6","","71","","30","","5","","","","100.56","","","","-3","","NA"
"2016-11-12 02:00","2016","11","12","02:00","-0.9","","-5.8","","70","","29","","3","","","","100.51","","","","-2","","NA"
"2016-11-12 03:00","2016","11","12","03:00","-0.8","","-5.6","","70","","31","","3","","","","100.47","","","","-2","","NA"
"2016-11-12 04:00","2016","11","12","04:00","-0.3","","-4.7","","72","","34","","6","","","","100.43","","","","-2","","NA"
"2016-11-12 05:00","2016","11","12","05:00","0.2","","-4.1","","73","","28","","8","","","","100.36","","","","","","NA"
"2016-11-12 06:00","2016","11","12","06:00","1.6","","-2.6","","74","","26","","14","","","","100.30","","","","","","NA"
"2016-11-12 07:00","2016","11","12","07:00","3.0","","-2.0","","70","","26","","24","","","","100.26","","","","","","NA"
"2016-11-12 08:00","2016","11","12","08:00","3.6","","-0.7","","73","","27","","24","","","","100.20","","","","","","NA"
"2016-11-12 09:00","2016","11","12","09:00","4.2","","0.1","","74","","26","","25","","","","100.18","","","","","","NA"
"2016-11-12 10:00","2016","11","12","10:00","5.2","","0.6","","72","","25","","30","","","","100.10","","","","","","NA"
"2016-11-12 11:00","2016","11","12","11:00","7.0","","1.9","","70","","26","","30","","","","100.00","","","","","","NA"
"2016-11-12 12:00","2016","11","12","12:00","7.5","","2.3","","69","","26","","31","","","","99.87","","","","","","NA"
"2016-11-12 13:00","2016","11","12","13:00","7.5","","1.6","","66","","26","","37","","","","99.70","","","","","","NA"
"2016-11-12 14:00","2016","11","12","14:00","8.4","","2.3","","66","","25","","36","","","","99.62","","","","","","NA"
"2016-11-12 15:00","2016","11","12","15:00","8.5","","2.0","","64","","25","","31","","","","99.54","","","","","","NA"
"2016-11-12 16:00","2016","11","12","16:00","8.3","","2.1","","65","","24","","30","","","","99.46","","","","","","NA"
"2016-11-12 17:00","2016","11","12","17:00","8.5","","2.2","","64","","24","","25","","","","99.36","","","","","","NA"
"2016-11-12 18:00","2016","11","12","18:00","9.2","","1.7","","59","","25","","26","","","","99.30","","","","","","NA"
"2016-11-12 19:00","2016","11","12","19:00","9.7","","1.3","","56","","25","","28","","","","99.24","","","","","","NA"
"2016-11-12 20:00","2016","11","12","20:00","10.0","","-1.9","","43","","26","","31","","","","99.25","","","","","","NA"
"2016-11-12 21:00","2016","11","12","21:00","9.5","","-0.9","","48","","26","","22","","","","99.21","","","","","","NA"
"2016-11-12 22:00","2016","11","12","22:00","9.1","","0.1","","54","","27","","24","","","","99.24","","","","","","NA"
"2016-11-12 23:00","2016","11","12","23:00","8.6","","1.8","","62","","27","","25","","","","99.23","","","","","","NA"
"2016-11-13 00:00","2016","11","13","00:00","8.3","","2.6","","67","","27","","25","","","","99.24","","","","","","NA"
"2016-11-13 01:00","2016","11","13","01:00","8.1","","2.9","","70","","26","","23","","","","99.20","","","","","","NA"
"2016-11-13 02:00","2016","11","13","02:00","8.0","","3.1","","71","","26","","26","","","","99.18","","","","","","NA"
"2016-11-13 03:00","2016","11","13","03:00","7.9","","3.6","","74","","26","","25","","","","99.19","","","","","","NA"
"2016-11-13 04:00","2016","11","13","04:00","7.8","","3.9","","76","","26","","23","","","","99.15","","","","","","NA"
"2016-11-13 05:00","2016","11","13","05:00","7.7","","4.1","","78","","26","","23","","","","99.15","","","","","","NA"
"2016-11-13 06:00","2016","11","13","06:00","7.6","","4.1","","78","","25","","23","","","","99.15","","","","","","NA"
"2016-11-13 07:00","2016","11","13","07:00","7.6","","3.9","","77","","25","","22","","","","99.17","","","","","","NA"
"2016-11-13 08:00","2016","11","13","08:00","7.5","","4.0","","78","","25","","22","","","","99.16","","","","","","NA"
"2016-11-13 09:00","2016","11","13","09:00","8.2","","4.2","","76","","26","","22","","","","99.14","","","","","","NA"
"2016-11-13 10:00","2016","11","13","10:00","8.6","","4.2","","74","","25","","21","","","","99.10","","","","","","NA"
"2016-11-13 11:00","2016","11","13","11:00","9.0","","4.0","","71","","24","","27","","","","99.06","","","","","","NA"
"2016-11-13 12:00","2016","11","13","12:00","8.9","","3.7","","70","","25","","28","","","","98.98","","","","","","NA"
"2016-11-13 13:00","2016","11","13","13:00","9.4","","3.4","","66","","25","","23","","","","98.90","","","","","","NA"
"2016-11-13 14:00","2016","11","13","14:00","9.5","","3.4","","66","","25","","24","","","","98.84","","","","","","NA"
"2016-11-13 15:00","2016","11","13","15:00","9.7","","3.6","","66","","24","","23","","","","98.82","","","","","","NA"
"2016-11-13 16:00","2016","11","13","16:00","9.5","","3.2","","65","","24","","25","","","","98.75","","","","","","NA"
"2016-11-13 17:00","2016","11","13","17:00","8.8","","4.9","","77","","23","","20","","","","98.69","","","","","","NA"
"2016-11-13 18:00","2016","11","13","18:00","8.5","","5.4","","81","","19","","8","","","","98.63","","","","","","NA"
"2016-11-13 19:00","2016","11","13","19:00","8.2","","5.6","","84","","7","","5","","","","98.58","","","","","","NA"
"2016-11-13 20:00","2016","11","13","20:00","8.1","","5.4","","83","","1","","5","","","","98.54","","","","","","NA"
"2016-11-13 21:00","2016","11","13","21:00","9.2","","5.2","","76","","28","","10","","","","98.57","","","","","","NA"
"2016-11-13 22:00","2016","11","13","22:00","8.8","","4.3","","73","","26","","12","","","","98.58","","","","","","NA"
"2016-11-13 23:00","2016","11","13","23:00","9.1","","3.6","","68","","26","","15","","","","98.55","","","","","","NA"
"2016-11-14 00:00","2016","11","14","00:00","10.0","","2.8","","61","","25","","19","","","","98.57","","","","","","NA"
"2016-11-14 01:00","2016","11","14","01:00","9.1","","3.3","","67","","26","","12","","","","98.59","","","","","","NA"
"2016-11-14 02:00","2016","11","14","02:00","9.1","","2.4","","63","","24","","12","","","","98.64","","","","","","NA"
"2016-11-14 03:00","2016","11","14","03:00","8.1","","2.6","","68","","26","","5","","","","98.67","","","","","","NA"
"2016-11-14 04:00","2016","11","14","04:00","8.0","","3.0","","70","","32","","4","","","","98.66","","","","","","NA"
"2016-11-14 05:00","2016","11","14","05:00","8.1","","3.2","","71","","27","","8","","","","98.71","","","","","","NA"
"2016-11-14 06:00","2016","11","14","06:00","7.7","","3.6","","75","","25","","4","","","","98.75","","","","","","NA"
"2016-11-14 07:00","2016","11","14","07:00","7.7","","3.9","","76","","25","","4","","","","98.80","","","","","","NA"
"2016-11-14 08:00","2016","11","14","08:00","7.9","","4.6","","80","","31","","10","","","","98.86","","","","","","NA"
"2016-11-14 09:00","2016","11","14","09:00","8.7","","4.9","","77","","31","","5","","","","98.90","","","","","","NA"
"2016-11-14 10:00","2016","11","14","10:00","10.3","","5.5","","72","","29","","10","","","","98.91","","","","","","NA"
"2016-11-14 11:00","2016","11","14","11:00","8.8","","6.0","","83","","17","","12","","","","98.93","","","","","","NA"
"2016-11-14 12:00","2016","11","14","12:00","8.8","","6.0","","82","","14","","10","","","","98.89","","","","","","NA"
"2016-11-14 13:00","2016","11","14","13:00","9.0","","5.8","","80","","17","","6","","","","98.90","","","","","","NA"
"2016-11-14 14:00","2016","11","14","14:00","9.3","","5.8","","79","","10","","5","","","","98.90","","","","","","NA"
"2016-11-14 15:00","2016","11","14","15:00","9.0","","6.5","","84","","14","","7","","","","98.91","","","","","","NA"
"2016-11-14 16:00","2016","11","14","16:00","9.1","","6.5","","84","","10","","3","","","","98.94","","","","","","NA"
"2016-11-14 17:00","2016","11","14","17:00","8.8","","6.0","","82","","8","","3","","","","98.99","","","","","","NA"
"2016-11-14 18:00","2016","11","14","18:00","8.8","","6.4","","85","","10","","6","","","","99.03","","","","","","NA"
"2016-11-14 19:00","2016","11","14","19:00","8.3","","6.6","","90","","7","","5","","","","99.06","","","","","","NA"
"2016-11-14 20:00","2016","11","14","20:00","8.0","","6.4","","90","","4","","9","","","","99.09","","","","","","NA"
"2016-11-14 21:00","2016","11","14","21:00","8.2","","6.1","","86","","7","","7","","","","99.08","","","","","","NA"
"2016-11-14 22:00","2016","11","14","22:00","8.0","","4.9","","81","","4","","7","","","","99.08","","","","","","NA"
"2016-11-14 23:00","2016","11","14","23:00","7.5","","4.3","","80","","7","","14","","","","99.04","","","","","","NA"
"2016-11-15 00:00","2016","11","15","00:00","6.5","","4.3","","86","","3","","7","","","","99.06","","","","","","NA"
"2016-11-15 01:00","2016","11","15","01:00","7.1","","5.0","","87","","5","","7","","","","99.05","","","","","","NA"
"2016-11-15 02:00","2016","11","15","02:00","6.5","","3.7","","83","","7","","11","","","","99.05","","","","","","NA"
"2016-11-15 03:00","2016","11","15","03:00","6.2","","3.4","","83","","6","","10","","","","99.07","","","","","","NA"
"2016-11-15 04:00","2016","11","15","04:00","6.5","","3.6","","82","","5","","11","","","","99.07","","","","","","NA"
"2016-11-15 05:00","2016","11","15","05:00","6.3","","3.6","","83","","6","","10","","","","99.08","","","","","","NA"
"2016-11-15 06:00","2016","11","15","06:00","6.5","","3.7","","83","","5","","9","","","","99.06","","","","","","NA"
"2016-11-15 07:00","2016","11","15","07:00","6.3","","3.6","","83","","7","","13","","","","99.07","","","","","","NA"
"2016-11-15 08:00","2016","11","15","08:00","5.8","","3.3","","84","","6","","12","","","","99.10","","","","","","NA"
"2016-11-15 09:00","2016","11","15","09:00","6.3","","3.7","","84","","7","","14","","","","99.10","","","","","","NA"
"2016-11-15 10:00","2016","11","15","10:00","6.5","","3.9","","83","","8","","16","","","","99.06","","","","","","NA"
"2016-11-15 11:00","2016","11","15","11:00","6.7","","4.0","","82","","9","","16","","","","99.03","","","","","","NA"
"2016-11-15 12:00","2016","11","15","12:00","7.5","","4.2","","80","","10","","11","","","","98.96","","","","","","NA"
"2016-11-15 13:00","2016","11","15","13:00","7.4","","4.3","","81","","11","","15","","","","98.89","","","","","","NA"
"2016-11-15 14:00","2016","11","15","14:00","7.2","","5.3","","88","","11","","15","","","","98.87","","","","","","NA"
"2016-11-15 15:00","2016","11","15","15:00","7.5","","5.9","","90","","8","","9","","","","98.85","","","","","","NA"
"2016-11-15 16:00","2016","11","15","16:00","7.9","","6.0","","88","","8","","12","","","","98.83","","","","","","NA"
"2016-11-15 17:00","2016","11","15","17:00","8.1","","6.1","","87","","7","","10","","","","98.79","","","","","","NA"
"2016-11-15 18:00","2016","11","15","18:00","8.2","","6.0","","86","","7","","9","","","","98.81","","","","","","NA"
"2016-11-15 19:00","2016","11","15","19:00","8.2","","6.0","","87","","7","","8","","","","98.81","","","","","","NA"
"2016-11-15 20:00","2016","11","15","20:00","8.2","","6.5","","89","","8","","9","","","","98.78","","","","","","NA"
"2016-11-15 21:00","2016","11","15","21:00","8.4","","6.9","","90","","8","","7","","","","98.74","","","","","","NA"
"2016-11-15 22:00","2016","11","15","22:00","8.7","","7.2","","91","","18","","2","","","","98.70","","","","","","NA"
"2016-11-15 23:00","2016","11","15","23:00","8.4","","7.0","","91","","5","","5","","","","98.61","","","","","","NA"
"2016-11-16 00:00","2016","11","16","00:00","8.3","","7.0","","92","","1","","3","","","","98.58","","","","","","NA"
"2016-11-16 01:00","2016","11","16","01:00","8.6","","7.3","","92","","6","","3","","","","98.57","","","","","","NA"
"2016-11-16 02:00","2016","11","16","02:00","8.2","","7.0","","92","","29","","4","","","","98.55","","","","","","NA"
"2016-11-16 03:00","2016","11","16","03:00","8.3","","7.1","","92","","23","","2","","","","98.57","","","","","","NA"
"2016-11-16 04:00","2016","11","16","04:00","9.0","","6.2","","83","","30","","15","","","","98.55","","","","","","NA"
"2016-11-16 05:00","2016","11","16","05:00","8.1","","6.1","","87","","31","","14","","","","98.56","","","","","","NA"
"2016-11-16 06:00","2016","11","16","06:00","7.8","","6.1","","89","","31","","9","","","","98.57","","","","","","NA"
"2016-11-16 07:00","2016","11","16","07:00","7.6","","6.0","","90","","31","","9","","","","98.62","","","","","","NA"
"2016-11-16 08:00","2016","11","16","08:00","7.9","","6.1","","89","","31","","11","","","","98.67","","","","","","NA"
"2016-11-16 09:00","2016","11","16","09:00","8.3","","6.1","","86","","29","","11","","","","98.70","","","","","","NA"
"2016-11-16 10:00","2016","11","16","10:00","8.2","","5.9","","85","","29","","14","","","","98.70","","","","","","NA"
"2016-11-16 11:00","2016","11","16","11:00","8.7","","5.0","","78","","32","","16","","","","98.72","","","","","","NA"
"2016-11-16 12:00","2016","11","16","12:00","9.1","","5.0","","75","","33","","13","","","","98.73","","","","","","NA"
"2016-11-16 13:00","2016","11","16","13:00","9.8","","3.8","","66","","31","","18","","","","98.74","","","","","","NA"
"2016-11-16 14:00","2016","11","16","14:00","10.0","","4.0","","67","","31","","19","","","","98.77","","","","","","NA"
"2016-11-16 15:00","2016","11","16","15:00","10.4","","2.9","","59","","33","","15","","","","98.88","","","","","","NA"
"2016-11-16 16:00","2016","11","16","16:00","10.1","","2.4","","59","","33","","12","","","","98.95","","","","","","NA"
"2016-11-16 17:00","2016","11","16","17:00","9.0","","2.1","","62","","35","","10","","","","99.01","","","","","","NA"
"2016-11-16 18:00","2016","11","16","18:00","8.1","","2.0","","66","","35","","8","","","","99.08","","","","","","NA"
"2016-11-16 19:00","2016","11","16","19:00","7.6","","2.2","","68","","34","","9","","","","99.17","","","","","","NA"
"2016-11-16 20:00","2016","11","16","20:00","6.9","","1.9","","70","","36","","9","","","","99.19","","","","","","NA"
"2016-11-16 21:00","2016","11","16","21:00","6.4","","2.3","","75","","32","","10","","","","99.24","","","","","","NA"
"2016-11-16 22:00","2016","11","16","22:00","5.7","","2.1","","77","","30","","9","","","","99.25","","","","","","NA"
"2016-11-16 23:00","2016","11","16","23:00","6.1","","1.9","","74","","32","","8","","","","99.29","","","","","","NA"
"2016-11-17 00:00","2016","11","17","00:00","4.4","","2.5","","88","","27","","3","","","","99.32","","","","","","NA"
"2016-11-17 01:00","2016","11","17","01:00","4.9","","2.0","","81","","1","","3","","","","99.37","","","","","","NA"
"2016-11-17 02:00","2016","11","17","02:00","5.2","","2.5","","83","","33","","1","","","","99.39","","","","","","NA"
"2016-11-17 03:00","2016","11","17","03:00","4.2","","1.2","","81","","7","","5","","","","99.39","","","","","","NA"
"2016-11-17 04:00","2016","11","17","04:00","4.4","","1.8","","83","","7","","9","","","","99.43","","","","","","NA"
"2016-11-17 05:00","2016","11","17","05:00","4.5","","1.3","","79","","6","","10","","","","99.44","","","","","","NA"
"2016-11-17 06:00","2016","11","17","06:00","4.3","","2.1","","86","","6","","8","","","","99.46","","","","","","NA"
"2016-11-17 07:00","2016","11","17","07:00","4.4","","2.9","","90","","7","","11","","","","99.47","","","","","","NA"
"2016-11-17 08:00","2016","11","17","08:00","7.2","","5.3","","88","","11","","7","","","","99.48","","","","","","NA"
"2016-11-17 09:00","2016","11","17","09:00","8.9","","5.3","","78","","16","","26","","","","99.45","","","","","","NA"
"2016-11-17 10:00","2016","11","17","10:00","8.8","","6.4","","85","","17","","26","","","","99.46","","","","","","NA"
"2016-11-17 11:00","2016","11","17","11:00","8.9","","5.5","","79","","17","","30","","","","99.46","","","","","","NA"
"2016-11-17 12:00","2016","11","17","12:00","8.9","","5.5","","79","","16","","27","","","","99.40","","","","","","NA"
"2016-11-17 13:00","2016","11","17","13:00","8.9","","5.7","","80","","16","","21","","","","99.34","","","","","","NA"
"2016-11-17 14:00","2016","11","17","14:00","9.0","","6.0","","81","","13","","22","","","","99.26","","","","","","NA"
"2016-11-17 15:00","2016","11","17","15:00","9.0","","6.3","","83","","13","","28","","","","99.25","","","","","","NA"
"2016-11-17 16:00","2016","11","17","16:00","9.2","","6.3","","82","","13","","30","","","","99.19","","","","","","NA"
"2016-11-17 17:00","2016","11","17","17:00","9.1","","6.4","","83","","12","","25","","","","99.16","","","","","","NA"
"2016-11-17 18:00","2016","11","17","18:00","9.5","","6.2","","80","","12","","26","","","","99.15","","","","","","NA"
"2016-11-17 19:00","2016","11","17","19:00","9.9","","6.3","","78","","12","","28","","","","99.14","","","","","","NA"
"2016-11-17 20:00","2016","11","17","20:00","9.9","","6.6","","80","","12","","20","","","","99.14","","","","","","NA"
"2016-11-17 21:00","2016","11","17","21:00","10.2","","6.7","","79","","14","","25","","","","99.15","","","","","","NA"
"2016-11-17 22:00","2016","11","17","22:00","9.4","","6.8","","84","","9","","16","","","","99.12","","","","","","NA"
"2016-11-17 23:00","2016","11","17","23:00","9.7","","7.0","","83","","10","","22","","","","99.11","","","","","","NA"
"2016-11-18 00:00","2016","11","18","00:00","9.6","","7.0","","84","","11","","23","","","","99.13","","","","","","NA"
"2016-11-18 01:00","2016","11","18","01:00","9.3","","7.4","","88","","11","","24","","","","99.08","","","","","","NA"
"2016-11-18 02:00","2016","11","18","02:00","9.4","","7.5","","88","","10","","23","","","","99.08","","","","","","NA"
"2016-11-18 03:00","2016","11","18","03:00","9.2","","7.5","","89","","9","","20","","","","99.07","","","","","","NA"
"2016-11-18 04:00","2016","11","18","04:00","9.1","","7.4","","89","","8","","19","","","","99.06","","","","","","NA"
"2016-11-18 05:00","2016","11","18","05:00","9.3","","7.6","","89","","9","","23","","","","99.05","","","","","","NA"
"2016-11-18 06:00","2016","11","18","06:00","9.5","","7.9","","90","","9","","22","","","","99.04","","","","","","NA"
"2016-11-18 07:00","2016","11","18","07:00","9.2","","7.8","","91","","9","","21","","","","99.04","","","","","","NA"
"2016-11-18 08:00","2016","11","18","08:00","9.1","","7.7","","91","","8","","16","","","","99.09","","","","","","NA"
"2016-11-18 09:00","2016","11","18","09:00","9.7","","8.1","","90","","10","","25","","","","99.07","","","","","","NA"
"2016-11-18 10:00","2016","11","18","10:00","9.8","","8.1","","89","","9","","20","","","","99.10","","","","","","NA"
"2016-11-18 11:00","2016","11","18","11:00","9.6","","7.9","","89","","8","","17","","","","99.06","","","","","","NA"
"2016-11-18 12:00","2016","11","18","12:00","9.7","","8.0","","89","","8","","18","","","","98.99","","","","","","NA"
"2016-11-18 13:00","2016","11","18","13:00","9.9","","8.3","","89","","10","","26","","","","98.89","","","","","","NA"
"2016-11-18 14:00","2016","11","18","14:00","9.7","","8.0","","90","","10","","22","","","","98.84","","","","","","NA"
"2016-11-18 15:00","2016","11","18","15:00","10.1","","8.5","","90","","10","","25","","","","98.76","","","","","","NA"
"2016-11-18 16:00","2016","11","18","16:00","10.4","","8.4","","88","","14","","21","","","","98.78","","","","","","NA"
"2016-11-18 17:00","2016","11","18","17:00","10.7","","8.5","","87","","12","","16","","","","98.73","","","","","","NA"
"2016-11-18 18:00","2016","11","18","18:00","10.3","","8.2","","87","","8","","11","","","","98.65","","","","","","NA"
"2016-11-18 19:00","2016","11","18","19:00","10.7","","8.7","","87","","7","","10","","","","98.62","","","","","","NA"
"2016-11-18 20:00","2016","11","18","20:00","10.6","","8.5","","87","","7","","16","","","","98.53","","","","","","NA"
"2016-11-18 21:00","2016","11","18","21:00","10.6","","8.2","","86","","8","","21","","","","98.48","","","","","","NA"
"2016-11-18 22:00","2016","11","18","22:00","11.4","","8.6","","83","","10","","18","","","","98.41","","","","","","NA"
"2016-11-18 23:00","2016","11","18","23:00","11.3","","8.8","","84","","9","","14","","","","98.34","","","","","","NA"
"2016-11-19 00:00","2016","11","19","00:00","11.4","","9.0","","85","","20","","22","","","","98.12","","","","","","NA"
"2016-11-19 01:00","2016","11","19","01:00","11.5","","9.4","","87","","17","","19","","","","98.18","","","","","","NA"
"2016-11-19 02:00","2016","11","19","02:00","12.4","","8.7","","78","","19","","34","","","","98.17","","","","","","NA"
"2016-11-19 03:00","2016","11","19","03:00","12.0","","9.2","","83","","20","","26","","","","98.15","","","","","","NA"
"2016-11-19 04:00","2016","11","19","04:00","11.1","","8.8","","86","","21","","29","","","","98.03","","","","","","NA"
"2016-11-19 05:00","2016","11","19","05:00","10.5","","9.1","","91","","24","","31","","","","98.08","","","","","","NA"
"2016-11-19 06:00","2016","11","19","06:00","9.1","","6.2","","82","","24","","28","","","","98.12","","","","","","NA"
"2016-11-19 07:00","2016","11","19","07:00","8.8","","6.0","","82","","23","","25","","","","98.07","","","","","","NA"
"2016-11-19 08:00","2016","11","19","08:00","7.7","","3.7","","76","","25","","19","","","","98.14","","","","","","NA"
"2016-11-19 09:00","2016","11","19","09:00","7.4","","2.6","","71","","25","","21","","","","98.12","","","","","","NA"
"2016-11-19 10:00","2016","11","19","10:00","7.1","","1.8","","69","","24","","24","","","","98.14","","","","","","NA"
"2016-11-19 11:00","2016","11","19","11:00","6.8","","0.8","","66","","24","","18","","","","98.16","","","","","","NA"
"2016-11-19 12:00","2016","11","19","12:00","6.5","","0.5","","66","","22","","24","","","","98.09","","","","","","NA"
"2016-11-19 13:00","2016","11","19","13:00","6.5","","0.5","","66","","23","","22","","","","98.05","","","","","","NA"
"2016-11-19 14:00","2016","11","19","14:00","5.4","","2.4","","81","","26","","13","","","","98.08","","","","","","NA"
"2016-11-19 15:00","2016","11","19","15:00","4.3","","1.2","","80","","28","","29","","","","98.08","","","","","","NA"
"2016-11-19 16:00","2016","11","19","16:00","4.2","","-0.3","","73","","28","","31","","","","98.16","","","","","","NA"
"2016-11-19 17:00","2016","11","19","17:00","3.6","","-0.7","","73","","29","","29","","","","98.20","","","","","","NA"
"2016-11-19 18:00","2016","11","19","18:00","3.1","","-0.1","","80","","28","","27","","","","98.22","","","","","","NA"
"2016-11-19 19:00","2016","11","19","19:00","2.8","","0.3","","83","","29","","19","","","","98.28","","","","","","NA"
"2016-11-19 20:00","2016","11","19","20:00","1.9","","-0.3","","85","","32","","19","","","","98.26","","","","","","NA"
"2016-11-19 21:00","2016","11","19","21:00","1.0","","-2.1","","80","","36","","17","","","","98.29","","","","","","NA"
"2016-11-19 22:00","2016","11","19","22:00","-0.6","","-3.7","","79","","34","","23","","","","98.42","","","","-6","","NA"
"2016-11-19 23:00","2016","11","19","23:00","-1.7","","-4.7","","80","","35","","16","","","","98.53","","","","-7","","NA"
"2016-11-20 00:00","2016","11","20","00:00","-2.4","","-4.9","","83","","34","","16","","","","98.61","","","","-8","","NA"
"2016-11-20 01:00","2016","11","20","01:00","-3.0","","-7.7","","70","","35","","19","","","","98.70","","","","-9","","NA"
"2016-11-20 02:00","2016","11","20","02:00","-3.6","","-7.0","","77","","34","","19","","","","98.73","","","","-10","","NA"
"2016-11-20 03:00","2016","11","20","03:00","-4.4","","-6.9","","83","","33","","27","","","","98.86","","","","-12","","NA"
"2016-11-20 04:00","2016","11","20","04:00","-4.9","","-8.3","","77","","34","","30","","","","98.92","","","","-13","","NA"
"2016-11-20 05:00","2016","11","20","05:00","-4.5","","-9.1","","70","","34","","26","","","","98.96","","","","-12","","NA"
"2016-11-20 06:00","2016","11","20","06:00","-4.7","","-9.3","","70","","34","","26","","","","98.98","","","","-12","","NA"
"2016-11-20 07:00","2016","11","20","07:00","-5.2","","-9.3","","73","","33","","21","","","","99.08","","","","-12","","NA"
"2016-11-20 08:00","2016","11","20","08:00","-5.5","","-9.8","","71","","33","","27","","","","99.15","","","","-13","","NA"
"2016-11-20 09:00","2016","11","20","09:00","-5.4","","-10.0","","70","","33","","27","","","","99.18","","","","-13","","NA"
"2016-11-20 10:00","2016","11","20","10:00","-5.5","","-10.5","","68","","33","","27","","","","99.19","","","","-13","","NA"
"2016-11-20 11:00","2016","11","20","11:00","-4.7","","-9.5","","69","","33","","22","","","","99.21","","","","-12","","NA"
"2016-11-20 12:00","2016","11","20","12:00","-3.5","","-9.6","","63","","33","","24","","","","99.17","","","","-10","","NA"
"2016-11-20 13:00","2016","11","20","13:00","-2.7","","-9.6","","59","","33","","30","","","","99.13","","","","-10","","NA"
"2016-11-20 14:00","2016","11","20","14:00","-2.4","","-9.2","","60","","32","","26","","","","99.16","","","","-9","","NA"
"2016-11-20 15:00","2016","11","20","15:00","-2.8","","-9.8","","58","","33","","31","","","","99.16","","","","-10","","NA"
"2016-11-20 16:00","2016","11","20","16:00","-3.3","","-9.9","","60","","32","","27","","","","99.24","","","","-10","","NA"
"2016-11-20 17:00","2016","11","20","17:00","-3.8","","-9.9","","63","","33","","26","","","","99.29","","","","-11","","NA"
"2016-11-20 18:00","2016","11","20","18:00","-4.3","","-10.5","","62","","32","","32","","","","99.29","","","","-12","","NA"
"2016-11-20 19:00","2016","11","20","19:00","-4.4","","-10.1","","65","","33","","31","","","","99.28","","","","-12","","NA"
"2016-11-20 20:00","2016","11","20","20:00","-4.7","","-10.1","","66","","33","","31","","","","99.24","","","","-13","","NA"
"2016-11-20 21:00","2016","11","20","21:00","-5.2","","-10.8","","65","","33","","27","","","","99.24","","","","-13","","NA"
"2016-11-20 22:00","2016","11","20","22:00","-5.5","","-10.7","","67","","33","","24","","","","99.23","","","","-13","","NA"
"2016-11-20 23:00","2016","11","20","23:00","-5.6","","-10.8","","67","","32","","31","","","","99.18","","","","-14","","NA"
"2016-11-21 00:00","2016","11","21","00:00","-5.9","","-11.0","","67","","33","","26","","","","99.18","","","","-14","","NA"
"2016-11-21 01:00","2016","11","21","01:00","-5.9","","-10.9","","68","","32","","29","","","","99.17","","","","-14","","NA"
"2016-11-21 02:00","2016","11","21","02:00","-6.0","","-10.9","","69","","32","","29","","","","99.14","","","","-14","","NA"
"2016-11-21 03:00","2016","11","21","03:00","-6.0","","-10.9","","68","","32","","34","","","","99.16","","","","-15","","NA"
"2016-11-21 04:00","2016","11","21","04:00","-5.8","","-10.6","","69","","32","","26","","","","99.16","","","","-14","","NA"
"2016-11-21 05:00","2016","11","21","05:00","-5.9","","-10.7","","69","","32","","31","","","","99.18","","","","-14","","NA"
"2016-11-21 06:00","2016","11","21","06:00","-5.8","","-10.6","","69","","32","","28","","","","99.17","","","","-14","","NA"
"2016-11-21 07:00","2016","11","21","07:00","-5.4","","-10.3","","68","","32","","29","","","","99.20","","","","-13","","NA"
"2016-11-21 08:00","2016","11","21","08:00","-5.3","","-10.3","","68","","32","","29","","","","99.17","","","","-13","","NA"
"2016-11-21 09:00","2016","11","21","09:00","-5.1","","-10.6","","65","","32","","31","","","","99.22","","","","-13","","NA"
"2016-11-21 10:00","2016","11","21","10:00","-4.3","","-10.4","","62","","32","","31","","","","99.19","","","","-12","","NA"
"2016-11-21 11:00","2016","11","21","11:00","-3.4","","-10.0","","60","","33","","27","","","","99.24","","","","-11","","NA"
"2016-11-21 12:00","2016","11","21","12:00","-2.5","","-9.8","","57","","33","","25","","","","99.18","","","","-9","","NA"
"2016-11-21 13:00","2016","11","21","13:00","-1.7","","-9.5","","55","","32","","32","","","","99.19","","","","-9","","NA"
"2016-11-21 14:00","2016","11","21","14:00","-1.6","","-10.5","","50","","32","","34","","","","99.21","","","","-9","","NA"
"2016-11-21 15:00","2016","11","21","15:00","-1.3","","-10.5","","49","","32","","31","","","","99.22","","","","-8","","NA"
"2016-11-21 16:00","2016","11","21","16:00","-1.2","","-9.9","","52","","32","","33","","","","99.35","","","","-8","","NA"
"2016-11-21 17:00","2016","11","21","17:00","-2.1","","-10.0","","55","","32","","27","","","","99.42","","","","-9","","NA"
"2016-11-21 18:00","2016","11","21","18:00","-2.6","","-9.9","","58","","33","","22","","","","99.45","","","","-9","","NA"
"2016-11-21 19:00","2016","11","21","19:00","-3.1","","-9.5","","61","","32","","22","","","","99.50","","","","-9","","NA"
"2016-11-21 20:00","2016","11","21","20:00","-3.3","","-9.6","","62","","32","","26","","","","99.55","","","","-10","","NA"
"2016-11-21 21:00","2016","11","21","21:00","-3.3","","-9.4","","62","","33","","24","","","","99.62","","","","-10","","NA"
"2016-11-21 22:00","2016","11","21","22:00","-3.6","","-9.8","","62","","33","","21","","","","99.63","","","","-10","","NA"
"2016-11-21 23:00","2016","11","21","23:00","-3.7","","-9.8","","63","","32","","24","","","","99.73","","","","-11","","NA"
"2016-11-22 00:00","2016","11","22","00:00","-3.8","","-9.8","","63","","32","","22","","","","99.75","","","","-10","","NA"
"2016-11-22 01:00","2016","11","22","01:00","-3.8","","-9.5","","65","","32","","18","","","","99.76","","","","-10","","NA"
"2016-11-22 02:00","2016","11","22","02:00","-3.9","","-9.8","","64","","33","","21","","","","99.84","","","","-10","","NA"
"2016-11-22 03:00","2016","11","22","03:00","-4.2","","-9.7","","65","","33","","18","","","","99.88","","","","-10","","NA"
"2016-11-22 04:00","2016","11","22","04:00","-4.2","","-9.2","","68","","33","","17","","","","99.90","","","","-10","","NA"
"2016-11-22 05:00","2016","11","22","05:00","-4.4","","-9.2","","69","","34","","15","","","","99.97","","","","-10","","NA"
"2016-11-22 06:00","2016","11","22","06:00","-4.8","","-9.4","","70","","33","","18","","","","100.02","","","","-11","","NA"
"2016-11-22 07:00","2016","11","22","07:00","-4.9","","-9.5","","70","","34","","17","","","","100.08","","","","-11","","NA"
"2016-11-22 08:00","2016","11","22","08:00","-4.9","","-9.4","","71","","32","","11","","","","100.16","","","","-9","","NA"
"2016-11-22 09:00","2016","11","22","09:00","-4.8","","-9.8","","68","","35","","14","","","","100.25","","","","-10","","NA"
"2016-11-22 10:00","2016","11","22","10:00","-4.4","","-10.1","","65","","34","","24","","","","100.31","","","","-11","","NA"
"2016-11-22 11:00","2016","11","22","11:00","-3.6","","-10.3","","59","","34","","18","","","","100.33","","","","-9","","NA"
"2016-11-22 12:00","2016","11","22","12:00","-2.6","","-10.0","","57","","34","","14","","","","100.28","","","","-7","","NA"
"2016-11-22 13:00","2016","11","22","13:00","-1.9","","-10.4","","52","","34","","14","","","","100.26","","","","-7","","NA"
"2016-11-22 14:00","2016","11","22","14:00","-1.2","","-10.4","","49","","35","","11","","","","100.28","","","","-5","","NA"
"2016-11-22 15:00","2016","11","22","15:00","-0.6","","-10.0","","49","","35","","10","","","","100.29","","","","-4","","NA"
"2016-11-22 16:00","2016","11","22","16:00","-0.6","","-9.7","","50","","32","","8","","","","100.33","","","","-3","","NA"
"2016-11-22 17:00","2016","11","22","17:00","-1.6","","-9.7","","54","","36","","6","","","","100.40","","","","-4","","NA"
"2016-11-22 18:00","2016","11","22","18:00","-2.1","","-9.8","","55","","2","","6","","","","100.45","","","","-4","","NA"
"2016-11-22 19:00","2016","11","22","19:00","-2.9","","-9.6","","60","","1","","8","","","","100.49","","","","-6","","NA"
"2016-11-22 20:00","2016","11","22","20:00","-4.0","","-9.1","","67","","2","","8","","","","100.51","","","","-7","","NA"
"2016-11-22 21:00","2016","11","22","21:00","-4.7","","-8.9","","72","","1","","7","","","","100.53","","","","-8","","NA"
"2016-11-22 22:00","2016","11","22","22:00","-5.2","","-8.9","","75","","1","","7","","","","100.55","","","","-8","","NA"
"2016-11-22 23:00","2016","11","22","23:00","-5.9","","-9.1","","78","","3","","7","","","","100.58","","","","-9","","NA"
"2016-11-23 00:00","2016","11","23","00:00","-5.8","","-9.0","","78","","3","","4","","","","100.60","","","","-8","","NA"
"2016-11-23 01:00","2016","11","23","01:00","-5.9","","-9.2","","77","","3","","6","","","","100.59","","","","-9","","NA"
"2016-11-23 02:00","2016","11","23","02:00","-6.2","","-9.2","","79","","4","","7","","","","100.59","","","","-10","","NA"
"2016-11-23 03:00","2016","11","23","03:00","-6.1","","-9.0","","80","","4","","8","","","","100.60","","","","-10","","NA"
"2016-11-23 04:00","2016","11","23","04:00","-5.8","","-9.1","","77","","5","","8","","","","100.61","","","","-10","","NA"
"2016-11-23 05:00","2016","11","23","05:00","-6.0","","-8.8","","81","","4","","10","","","","100.60","","","","-10","","NA"
"2016-11-23 06:00","2016","11","23","06:00","-5.6","","-8.3","","81","","5","","10","","","","100.59","","","","-10","","NA"
"2016-11-23 07:00","2016","11","23","07:00","-5.4","","-8.1","","81","","9","","16","","","","100.60","","","","-11","","NA"
"2016-11-23 08:00","2016","11","23","08:00","-5.4","","-8.0","","82","","7","","17","","","","100.57","","","","-11","","NA"
"2016-11-23 09:00","2016","11","23","09:00","-5.8","","-8.4","","82","","7","","13","","","","100.62","","","","-11","","NA"
"2016-11-23 10:00","2016","11","23","10:00","-5.3","","-8.4","","79","","6","","9","","","","100.56","","","","-9","","NA"
"2016-11-23 11:00","2016","11","23","11:00","-4.6","","-7.8","","78","","8","","14","","","","100.53","","","","-10","","NA"
"2016-11-23 12:00","2016","11","23","12:00","-3.8","","-6.6","","81","","8","","16","","","","100.44","","","","-9","","NA"
"2016-11-23 13:00","2016","11","23","13:00","-3.2","","-6.1","","81","","9","","17","","","","100.43","","","","-9","","NA"
"2016-11-23 14:00","2016","11","23","14:00","-2.8","","-5.8","","80","","9","","11","","","","100.39","","","","-7","","NA"
"2016-11-23 15:00","2016","11","23","15:00","-2.7","","-5.5","","81","","8","","13","","","","100.31","","","","-7","","NA"
"2016-11-23 16:00","2016","11","23","16:00","-2.1","","-6.3","","73","","8","","13","","","","100.26","","","","-7","","NA"
"2016-11-23 17:00","2016","11","23","17:00","-2.4","","-7.0","","71","","9","","20","","","","100.19","","","","-8","","NA"
"2016-11-23 18:00","2016","11","23","18:00","-2.3","","-6.3","","74","","9","","18","","","","100.17","","","","-8","","NA"
"2016-11-23 19:00","2016","11","23","19:00","-2.3","","-5.9","","76","","8","","20","","","","100.15","","","","-8","","NA"
"2016-11-23 20:00","2016","11","23","20:00","-2.3","","-5.4","","79","","7","","20","","","","100.11","","","","-8","","NA"
"2016-11-23 21:00","2016","11","23","21:00","-2.3","","-5.6","","78","","7","","20","","","","100.07","","","","-8","","NA"
"2016-11-23 22:00","2016","11","23","22:00","-2.2","","-5.5","","78","","7","","22","","","","100.00","","","","-8","","NA"
"2016-11-23 23:00","2016","11","23","23:00","-2.9","","-4.7","","87","","6","","19","","","","99.95","","","","-9","","NA"
"2016-11-24 00:00","2016","11","24","00:00","-2.8","","-4.0","","91","","7","","18","","","","99.90","","","","-8","","NA"
"2016-11-24 01:00","2016","11","24","01:00","-2.2","","-3.3","","92","","7","","22","","","","99.84","","","","-8","","NA"
"2016-11-24 02:00","2016","11","24","02:00","-2.1","","-2.9","","94","","7","","25","","","","99.78","","","","-9","","NA"
"2016-11-24 03:00","2016","11","24","03:00","-1.8","","-2.6","","94","","7","","26","","","","99.74","","","","-8","","NA"
"2016-11-24 04:00","2016","11","24","04:00","-1.8","","-2.6","","94","","7","","20","","","","99.71","","","","-8","","NA"
"2016-11-24 05:00","2016","11","24","05:00","-1.6","","-2.4","","94","","7","","22","","","","99.69","","","","-8","","NA"
"2016-11-24 06:00","2016","11","24","06:00","-1.6","","-2.4","","94","","7","","22","","","","99.68","","","","-8","","NA"
"2016-11-24 07:00","2016","11","24","07:00","-1.7","","-2.6","","94","","6","","19","","","","99.68","","","","-7","","NA"
"2016-11-24 08:00","2016","11","24","08:00","-1.6","","-2.5","","94","","6","","19","","","","99.70","","","","-7","","NA"
"2016-11-24 09:00","2016","11","24","09:00","-1.2","","-2.3","","92","","6","","19","","","","99.73","","","","-7","","NA"
"2016-11-24 10:00","2016","11","24","10:00","-1.1","","-2.3","","92","","6","","18","","","","99.75","","","","-6","","NA"
"2016-11-24 11:00","2016","11","24","11:00","-0.7","","-1.9","","92","","6","","15","","","","99.77","","","","-5","","NA"
"2016-11-24 12:00","2016","11","24","12:00","-0.3","","-1.6","","91","","7","","17","","","","99.74","","","","-5","","NA"
"2016-11-24 13:00","2016","11","24","13:00","0.2","","-1.4","","89","","7","","12","","","","99.75","","","","","","NA"
"2016-11-24 14:00","2016","11","24","14:00","0.6","","-1.2","","88","","6","","12","","","","99.73","","","","","","NA"
"2016-11-24 15:00","2016","11","24","15:00","0.6","","-1.1","","88","","5","","7","","","","99.77","","","","","","NA"
"2016-11-24 16:00","2016","11","24","16:00","0.5","","-1.3","","88","","5","","9","","","","99.85","","","","","","NA"
"2016-11-24 17:00","2016","11","24","17:00","0.4","","-1.5","","88","","5","","10","","","","99.89","","","","","","NA"
"2016-11-24 18:00","2016","11","24","18:00","0.3","","-1.5","","88","","5","","8","","","","99.94","","","","","","NA"
"2016-11-24 19:00","2016","11","24","19:00","0.2","","-1.5","","89","","6","","9","","","","99.94","","","","","","NA"
"2016-11-24 20:00","2016","11","24","20:00","0.1","","-1.5","","89","","6","","11","","","","99.91","","","","","","NA"
"2016-11-24 21:00","2016","11","24","21:00","-0.1","","-1.6","","89","","6","","8","","","","99.92","","","","-3","","NA"
"2016-11-24 22:00","2016","11","24","22:00","0.0","","-1.5","","89","","6","","8","","","","99.92","","","","-3","","NA"
"2016-11-24 23:00","2016","11","24","23:00","0.0","","-1.4","","90","","6","","9","","","","99.91","","","","-3","","NA"
"2016-11-25 00:00","2016","11","25","00:00","0.1","","-1.2","","91","","6","","10","","","","99.88","","","","","","NA"
"2016-11-25 01:00","2016","11","25","01:00","0.1","","-1.2","","91","","5","","8","","","","99.87","","","","","","NA"
"2016-11-25 02:00","2016","11","25","02:00","0.1","","-1.0","","92","","6","","9","","","","99.85","","","","","","NA"
"2016-11-25 03:00","2016","11","25","03:00","0.1","","-1.0","","92","","6","","10","","","","99.86","","","","","","NA"
"2016-11-25 04:00","2016","11","25","04:00","0.2","","-0.8","","93","","6","","9","","","","99.84","","","","","","NA"
"2016-11-25 05:00","2016","11","25","05:00","0.2","","-0.7","","94","","5","","9","","","","99.80","","","","","","NA"
"2016-11-25 06:00","2016","11","25","06:00","0.3","","-0.6","","94","","5","","10","","","","99.80","","","","","","NA"
"2016-11-25 07:00","2016","11","25","07:00","0.6","","-0.4","","93","","6","","8","","","","99.81","","","","","","NA"
"2016-11-25 08:00","2016","11","25","08:00","0.3","","-0.6","","93","","36","","3","","","","99.86","","","","","","NA"
"2016-11-25 09:00","2016","11","25","09:00","0.4","","-0.4","","94","","1","","5","","","","99.85","","","","","","NA"
"2016-11-25 10:00","2016","11","25","10:00","0.7","","-0.3","","93","","3","","4","","","","99.85","","","","","","NA"
"2016-11-25 11:00","2016","11","25","11:00","1.3","","-0.3","","89","","26","","3","","","","99.83","","","","","","NA"
"2016-11-25 12:00","2016","11","25","12:00","1.5","","-0.2","","89","","32","","6","","","","99.80","","","","","","NA"
"2016-11-25 13:00","2016","11","25","13:00","1.7","","-0.5","","86","","33","","7","","","","99.78","","","","","","NA"
"2016-11-25 14:00","2016","11","25","14:00","1.9","","-0.3","","86","","34","","6","","","","99.77","","","","","","NA"
"2016-11-25 15:00","2016","11","25","15:00","1.8","","-0.5","","85","","31","","9","","","","99.80","","","","","","NA"
"2016-11-25 16:00","2016","11","25","16:00","1.7","","-0.6","","85","","32","","8","","","","99.81","","","","","","NA"
"2016-11-25 17:00","2016","11","25","17:00","1.5","","-0.4","","87","","31","","8","","","","99.83","","","","","","NA"
"2016-11-25 18:00","2016","11","25","18:00","1.7","","-0.3","","86","","31","","9","","","","99.85","","","","","","NA"
"2016-11-25 19:00","2016","11","25","19:00","2.0","","-0.5","","84","","30","","9","","","","99.87","","","","","","NA"
"2016-11-25 20:00","2016","11","25","20:00","1.5","","-0.5","","86","","32","","6","","","","99.87","","","","","","NA"
"2016-11-25 21:00","2016","11","25","21:00","1.5","","-0.6","","86","","34","","7","","","","99.87","","","","","","NA"
"2016-11-25 22:00","2016","11","25","22:00","1.4","","-0.5","","87","","32","","8","","","","99.86","","","","","","NA"
"2016-11-25 23:00","2016","11","25","23:00","1.6","","-0.5","","86","","31","","9","","","","99.84","","","","","","NA"
"2016-11-26 00:00","2016","11","26","00:00","1.5","","-0.7","","85","","32","","9","","","","99.84","","","","","","NA"
"2016-11-26 01:00","2016","11","26","01:00","1.1","","-1.0","","86","","31","","9","","","","99.84","","","","","","NA"
"2016-11-26 02:00","2016","11","26","02:00","1.1","","-2.0","","80","","31","","9","","","","99.84","","","","","","NA"
"2016-11-26 03:00","2016","11","26","03:00","0.8","","-2.8","","77","","31","","14","","","","99.83","","","","","","NA"
"2016-11-26 04:00","2016","11","26","04:00","0.3","","-2.8","","80","","32","","12","","","","99.83","","","","","","NA"
"2016-11-26 05:00","2016","11","26","05:00","0.1","","-2.8","","81","","32","","9","","","","99.87","","","","","","NA"
"2016-11-26 06:00","2016","11","26","06:00","0.1","","-2.9","","80","","34","","9","","","","99.88","","","","","","NA"
"2016-11-26 07:00","2016","11","26","07:00","0.0","","-3.0","","80","","32","","4","","","","99.89","","","","-1","","NA"
"2016-11-26 08:00","2016","11","26","08:00","-0.2","","-3.5","","78","","33","","5","","","","99.92","","","","-2","","NA"
"2016-11-26 09:00","2016","11","26","09:00","0.0","","-3.7","","76","","32","","3","","","","99.93","","","","-1","","NA"
"2016-11-26 10:00","2016","11","26","10:00","0.3","","-3.8","","74","","32","","5","","","","99.94","","","","","","NA"
"2016-11-26 11:00","2016","11","26","11:00","0.5","","-4.0","","72","","35","","6","","","","99.91","","","","","","NA"
"2016-11-26 12:00","2016","11","26","12:00","0.9","","-4.2","","69","","32","","11","","","","99.85","","","","","","NA"
"2016-11-26 13:00","2016","11","26","13:00","1.3","","-3.7","","69","","31","","12","","","","99.80","","","","","","NA"
"2016-11-26 14:00","2016","11","26","14:00","1.4","","-4.2","","66","","31","","8","","","","99.76","","","","","","NA"
"2016-11-26 15:00","2016","11","26","15:00","1.4","","-3.9","","68","","32","","11","","","","99.76","","","","","","NA"
"2016-11-26 16:00","2016","11","26","16:00","1.1","","-3.2","","73","","35","","7","","","","99.78","","","","","","NA"
"2016-11-26 17:00","2016","11","26","17:00","0.9","","-3.0","","75","","33","","7","","","","99.78","","","","","","NA"
"2016-11-26 18:00","2016","11","26","18:00","0.8","","-3.0","","76","","32","","5","","","","99.79","","","","","","NA"
"2016-11-26 19:00","2016","11","26","19:00","0.8","","-2.7","","77","","30","","4","","","","99.78","","","","","","NA"
"2016-11-26 20:00","2016","11","26","20:00","0.8","","-2.7","","77","","28","","2","","","","99.79","","","","","","NA"
"2016-11-26 21:00","2016","11","26","21:00","0.8","","-2.6","","78","","29","","5","","","","99.78","","","","","","NA"
"2016-11-26 22:00","2016","11","26","22:00","0.6","","-2.6","","80","","29","","4","","","","99.75","","","","","","NA"
"2016-11-26 23:00","2016","11","26","23:00","0.2","","-2.5","","82","","30","","7","","","","99.74","","","","","","NA"
"2016-11-27 00:00","2016","11","27","00:00","0.2","","-2.5","","82","","33","","5","","","","99.73","","","","","","NA"
"2016-11-27 01:00","2016","11","27","01:00","-0.7","","-2.5","","87","","36","","6","","","","99.74","","","","-3","","NA"
"2016-11-27 02:00","2016","11","27","02:00","-0.3","","-2.6","","84","","35","","7","","","","99.75","","","","-3","","NA"
"2016-11-27 03:00","2016","11","27","03:00","-0.1","","-2.4","","84","","35","","5","","","","99.73","","","","-2","","NA"
"2016-11-27 04:00","2016","11","27","04:00","-0.7","","-2.9","","85","","31","","8","","","","99.75","","","","-4","","NA"
"2016-11-27 05:00","2016","11","27","05:00","-1.1","","-3.5","","84","","35","","4","","","","99.75","","","","-2","","NA"
"2016-11-27 06:00","2016","11","27","06:00","-1.2","","-3.2","","87","","35","","4","","","","99.75","","","","-3","","NA"
"2016-11-27 07:00","2016","11","27","07:00","-0.9","","-3.1","","85","","34","","7","","","","99.77","","","","-3","","NA"
"2016-11-27 08:00","2016","11","27","08:00","-0.6","","-3.3","","82","","36","","6","","","","99.78","","","","-3","","NA"
"2016-11-27 09:00","2016","11","27","09:00","0.2","","-4.0","","74","","3","","4","","","","99.78","","","","","","NA"
"2016-11-27 10:00","2016","11","27","10:00","0.6","","-2.8","","78","","5","","4","","","","99.78","","","","","","NA"
"2016-11-27 11:00","2016","11","27","11:00","1.1","","-2.7","","76","","7","","10","","","","99.77","","","","","","NA"
"2016-11-27 12:00","2016","11","27","12:00","1.4","","-3.0","","72","","8","","13","","","","99.71","","","","","","NA"
"2016-11-27 13:00","2016","11","27","13:00","1.7","","-3.2","","70","","12","","11","","","","99.69","","","","","","NA"
"2016-11-27 14:00","2016","11","27","14:00","2.2","","-2.7","","70","","11","","12","","","","99.65","","","","","","NA"
"2016-11-27 15:00","2016","11","27","15:00","2.3","","-1.8","","74","","10","","14","","","","99.63","","","","","","NA"
"2016-11-27 16:00","2016","11","27","16:00","2.5","","-0.9","","78","","8","","12","","","","99.65","","","","","","NA"
"2016-11-27 17:00","2016","11","27","17:00","2.5","","-0.8","","79","","9","","13","","","","99.61","","","","","","NA"
"2016-11-27 18:00","2016","11","27","18:00","2.2","","-1.1","","78","","7","","14","","","","99.60","","","","","","NA"
"2016-11-27 19:00","2016","11","27","19:00","2.3","","-0.8","","80","","7","","13","","","","99.58","","","","","","NA"
"2016-11-27 20:00","2016","11","27","20:00","1.9","","-1.1","","81","","7","","10","","","","99.59","","","","","","NA"
"2016-11-27 21:00","2016","11","27","21:00","2.4","","-0.3","","83","","8","","18","","","","99.55","","","","","","NA"
"2016-11-27 22:00","2016","11","27","22:00","2.2","","-0.2","","84","","7","","16","","","","99.52","","","","","","NA"
"2016-11-27 23:00","2016","11","27","23:00","2.8","","0.4","","84","","7","","12","","","","99.46","","","","","","NA"
"2016-11-28 00:00","2016","11","28","00:00","3.8","","1.6","","86","","8","","18","","","","99.43","","","","","","NA"
"2016-11-28 01:00","2016","11","28","01:00","2.9","","0.8","","86","","6","","10","","","","99.41","","","","","","NA"
"2016-11-28 02:00","2016","11","28","02:00","6.2","","1.6","","73","","16","","22","","","","99.37","","","","","","NA"
"2016-11-28 03:00","2016","11","28","03:00","6.0","","1.2","","71","","17","","23","","","","99.35","","","","","","NA"
"2016-11-28 04:00","2016","11","28","04:00","6.1","","1.5","","72","","14","","23","","","","99.27","","","","","","NA"
"2016-11-28 05:00","2016","11","28","05:00","3.9","","2.3","","90","","8","","22","","","","99.21","","","","","","NA"
"2016-11-28 06:00","2016","11","28","06:00","5.4","","3.1","","85","","13","","34","","","","99.17","","","","","","NA"
"2016-11-28 07:00","2016","11","28","07:00","5.7","","3.8","","88","","12","","40","","","","99.18","","","","","","NA"
"2016-11-28 08:00","2016","11","28","08:00","6.1","","3.4","","83","","13","","39","","","","99.15","","","","","","NA"
"2016-11-28 09:00","2016","11","28","09:00","6.1","","2.9","","80","","14","","41","","","","99.16","","","","","","NA"
"2016-11-28 10:00","2016","11","28","10:00","6.1","","3.1","","81","","13","","44","","","","99.10","","","","","","NA"
"2016-11-28 11:00","2016","11","28","11:00","5.8","","2.8","","81","","13","","50","","","","99.02","","","","","","NA"
"2016-11-28 12:00","2016","11","28","12:00","5.6","","2.6","","81","","13","","50","","","","98.93","","","","","","NA"
"2016-11-28 13:00","2016","11","28","13:00","5.2","","2.5","","82","","12","","47","","","","98.83","","","","","","NA"
"2016-11-28 14:00","2016","11","28","14:00","5.5","","2.4","","81","","13","","44","","","","98.80","","","","","","NA"
"2016-11-28 15:00","2016","11","28","15:00","5.7","","2.5","","80","","12","","43","","","","98.79","","","","","","NA"
"2016-11-28 16:00","2016","11","28","16:00","6.1","","2.7","","78","","12","","47","","","","98.73","","","","","","NA"
"2016-11-28 17:00","2016","11","28","17:00","6.5","","2.8","","77","","12","","47","","","","98.68","","","","","","NA"
"2016-11-28 18:00","2016","11","28","18:00","5.9","","2.3","","77","","11","","43","","","","98.67","","","","","","NA"
"2016-11-28 19:00","2016","11","28","19:00","6.6","","2.5","","75","","12","","52","","","","98.61","","","","","","NA"
"2016-11-28 20:00","2016","11","28","20:00","6.4","","2.9","","78","","12","","50","","","","98.50","","","","","","NA"
"2016-11-28 21:00","2016","11","28","21:00","5.9","","3.7","","86","","12","","56","","","","98.45","","","","","","NA"
"2016-11-28 22:00","2016","11","28","22:00","6.1","","3.0","","80","","11","","52","","","","98.32","","","","","","NA"
"2016-11-28 23:00","2016","11","28","23:00","5.8","","2.9","","82","","12","","57","","","","98.19","","","","","","NA"
"2016-11-29 00:00","2016","11","29","00:00","5.2","","2.8","","85","","12","","61","","","","98.06","","","","","","NA"
"2016-11-29 01:00","2016","11","29","01:00","5.1","","3.4","","88","","12","","60","","","","97.97","","","","","","NA"
"2016-11-29 02:00","2016","11","29","02:00","5.2","","","M","","M","12","","59","","","","97.91","","","","","","NA"
"2016-11-29 03:00","2016","11","29","03:00","5.2","","3.3","","88","","11","","61","","","","97.75","","","","","","NA"
"2016-11-29 04:00","2016","11","29","04:00","4.7","","3.2","","90","","11","","58","","","","97.57","","","","","","NA"
"2016-11-29 05:00","2016","11","29","05:00","5.4","","4.1","","91","","13","","62","","","","97.50","","","","","","NA"
"2016-11-29 06:00","2016","11","29","06:00","5.7","","4.5","","92","","13","","68","","","","97.39","","","","","","NA"
"2016-11-29 07:00","2016","11","29","07:00","6.8","","5.3","","90","","15","","54","","","","97.44","","","","","","NA"
"2016-11-29 08:00","2016","11","29","08:00","7.4","","5.9","","90","","15","","39","","","","97.49","","","","","","NA"
"2016-11-29 09:00","2016","11","29","09:00","7.8","","6.4","","91","","16","","27","","","","97.56","","","","","","NA"
"2016-11-29 10:00","2016","11","29","10:00","9.0","","8.7","","98","","19","","42","","","","97.66","","","","","","NA"
"2016-11-29 11:00","2016","11","29","11:00","9.3","","","M","","M","22","","32","","","","97.74","","","","","","NA"
"2016-11-29 12:00","2016","11","29","12:00","9.6","","7.0","","84","","23","","41","","","","97.74","","","","","","NA"
"2016-11-29 13:00","2016","11","29","13:00","9.1","","5.7","","79","","23","","32","","","","97.81","","","","","","NA"
"2016-11-29 14:00","2016","11","29","14:00","9.4","","4.8","","73","","23","","35","","","","97.85","","","","","","NA"
"2016-11-29 15:00","2016","11","29","15:00","9.2","","4.5","","72","","23","","26","","","","97.89","","","","","","NA"
"2016-11-29 16:00","2016","11","29","16:00","8.4","","4.5","","77","","21","","15","","","","97.97","","","","","","NA"
"2016-11-29 17:00","2016","11","29","17:00","8.0","","5.1","","82","","21","","14","","","","98.03","","","","","","NA"
"2016-11-29 18:00","2016","11","29","18:00","8.1","","5.4","","83","","21","","22","","","","98.10","","","","","","NA"
"2016-11-29 19:00","2016","11","29","19:00","8.0","","5.0","","81","","24","","9","","","","98.14","","","","","","NA"
"2016-11-29 20:00","2016","11","29","20:00","8.3","","5.0","","80","","24","","10","","","","98.19","","","","","","NA"
"2016-11-29 21:00","2016","11","29","21:00","8.5","","5.3","","80","","21","","23","","","","98.24","","","","","","NA"
"2016-11-29 22:00","2016","11","29","22:00","8.2","","5.8","","85","","21","","23","","","","98.27","","","","","","NA"
"2016-11-29 23:00","2016","11","29","23:00","8.3","","5.9","","85","","20","","26","","","","98.31","","","","","","NA"
"2016-11-30 00:00","2016","11","30","00:00","8.2","","6.2","","87","","20","","23","","","","98.33","","","","","","NA"
"2016-11-30 01:00","2016","11","30","01:00","8.3","","6.2","","87","","20","","23","","","","98.30","","","","","","NA"
"2016-11-30 02:00","2016","11","30","02:00","8.0","","6.1","","88","","23","","6","","","","98.30","","","","","","NA"
"2016-11-30 03:00","2016","11","30","03:00","9.1","","6.8","","86","","10","","20","","","","98.27","","","","","","NA"
"2016-11-30 04:00","2016","11","30","04:00","7.4","","5.8","","89","","9","","20","","","","98.30","","","","","","NA"
"2016-11-30 05:00","2016","11","30","05:00","7.5","","5.9","","90","","7","","12","","","","98.27","","","","","","NA"
"2016-11-30 06:00","2016","11","30","06:00","7.8","","5.9","","88","","8","","15","","","","98.21","","","","","","NA"
"2016-11-30 07:00","2016","11","30","07:00","7.1","","5.4","","89","","7","","17","","","","98.21","","","","","","NA"
"2016-11-30 08:00","2016","11","30","08:00","7.3","","5.6","","89","","7","","13","","","","98.15","","","","","","NA"
"2016-11-30 09:00","2016","11","30","09:00","7.0","","5.6","","91","","10","","28","","","","98.15","","","","","","NA"
"2016-11-30 10:00","2016","11","30","10:00","7.3","","5.4","","88","","8","","15","","","","98.11","","","","","","NA"
"2016-11-30 11:00","2016","11","30","11:00","7.5","","5.5","","87","","9","","17","","","","98.05","","","","","","NA"
"2016-11-30 12:00","2016","11","30","12:00","7.7","","5.7","","87","","9","","22","","","","97.91","","","","","","NA"
"2016-11-30 13:00","2016","11","30","13:00","7.7","","5.7","","88","","9","","21","","","","97.83","","","","","","NA"
"2016-11-30 14:00","2016","11","30","14:00","7.4","","5.8","","90","","9","","17","","","","97.75","","","","","","NA"
"2016-11-30 15:00","2016","11","30","15:00","7.6","","6.2","","91","","9","","17","","","","97.71","","","","","","NA"
"2016-11-30 16:00","2016","11","30","16:00","7.4","","6.0","","91","","8","","13","","","","97.67","","","","","","NA"
"2016-11-30 17:00","2016","11","30","17:00","7.9","","6.4","","90","","7","","10","","","","97.63","","","","","","NA"
"2016-11-30 18:00","2016","11","30","18:00","8.0","","6.5","","90","","7","","11","","","","97.58","","","","","","NA"
"2016-11-30 19:00","2016","11","30","19:00","7.8","","6.5","","91","","8","","10","","","","97.55","","","","","","NA"
"2016-11-30 20:00","2016","11","30","20:00","7.2","","5.7","","90","","6","","6","","","","97.54","","","","","","NA"
"2016-11-30 21:00","2016","11","30","21:00","7.2","","5.8","","91","","6","","5","","","","97.48","","","","","","NA"
"2016-11-30 22:00","2016","11","30","22:00","6.4","","5.4","","93","","7","","8","","","","97.38","","","","","","NA"
"2016-11-30 23:00","2016","11","30","23:00","6.6","","5.6","","94","","23","","4","","","","97.33","","","","","","NA"
