"Station Name","KILLARNEY (AUT)"
"Province","ONTARIO"
"Latitude","45.97"
"Longitude","-81.48"
"Elevation","196.30"
"Climate Identifier","605DJ25"
"WMO Identifier","71460"
"TC Identifier","WBE"
"All times are specified in Local Standard Time (LST). Add 1 hour to adjust for Daylight Saving Time where and when it is observed."

"Legend"
"E","Estimated"
"M","Missing"
"NA","Not Available"

"Date/Time","Year","Month","Day","Time","Temp (°C)","Temp Flag","Dew Point Temp (°C)","Dew Point Temp Flag","Rel Hum (%)","Rel Hum Flag","Wind Dir (10s deg)","Wind Dir Flag","Wind Spd (km/h)","Wind Spd Flag","Visibility (km)","Visibility Flag","Stn Press (kPa)","Stn Press Flag","Hmdx","Hmdx Flag","Wind Chill","Wind Chill Flag","Weather"
"2003-03-01 00:00","2003","03","01","00:00","-6.2","","-7.9","","88","","6","","2","","15.0","","99.74","","","","-7","","NA"
"2003-03-01 01:00","2003","03","01","01:00","-7.4","","-8.6","","91","","6","","6","","15.0","","99.74","","","","-11","","NA"
"2003-03-01 02:00","2003","03","01","02:00","-9.0","","-10.0","","92","","9","","6","","15.0","","99.72","","","","-12","","NA"
"2003-03-01 03:00","2003","03","01","03:00","-8.4","","-9.3","","93","","8","","7","","15.0","","99.67","","","","-12","","NA"
"2003-03-01 04:00","2003","03","01","04:00","-8.9","","-9.5","","95","","8","","9","","15.0","","99.63","","","","-14","","NA"
"2003-03-01 05:00","2003","03","01","05:00","-9.0","","-9.5","","96","","7","","9","","12.9","","99.63","","","","-14","","NA"
"2003-03-01 06:00","2003","03","01","06:00","-9.6","","-10.2","","95","","8","","13","","15.0","","99.62","","","","-16","","NA"
"2003-03-01 07:00","2003","03","01","07:00","-9.3","","-9.9","","95","","7","","13","","12.9","","99.60","","","","-15","","NA"
"2003-03-01 08:00","2003","03","01","08:00","-9.4","","-10.0","","95","","8","","13","","15.0","","99.62","","","","-15","","NA"
"2003-03-01 09:00","2003","03","01","09:00","-8.9","","-9.8","","93","","9","","15","","15.0","","99.60","","","","-15","","NA"
"2003-03-01 10:00","2003","03","01","10:00","-7.2","","-9.4","","84","","8","","15","","15.0","","99.56","","","","-13","","NA"
"2003-03-01 11:00","2003","03","01","11:00","-6.0","","-8.8","","81","","9","","15","","15.0","","99.49","","","","-12","","NA"
"2003-03-01 12:00","2003","03","01","12:00","-3.2","","-7.4","","73","","14","","15","","15.0","","99.40","","","","-8","","NA"
"2003-03-01 13:00","2003","03","01","13:00","-2.5","","-6.6","","73","","18","","28","","15.0","","99.29","","","","-10","","NA"
"2003-03-01 14:00","2003","03","01","14:00","-1.7","","-6.3","","71","","18","","28","","15.0","","99.22","","","","-8","","NA"
"2003-03-01 15:00","2003","03","01","15:00","-1.5","","-5.6","","74","","18","","26","","15.0","","99.15","","","","-8","","NA"
"2003-03-01 16:00","2003","03","01","16:00","-1.6","","-6.3","","70","","18","","32","","15.0","","99.08","","","","-9","","NA"
"2003-03-01 17:00","2003","03","01","17:00","-1.9","","-6.0","","74","","18","","28","","15.0","","99.02","","","","-9","","NA"
"2003-03-01 18:00","2003","03","01","18:00","-2.6","","-5.5","","80","","18","","13","","15.0","","98.99","","","","-7","","NA"
"2003-03-01 19:00","2003","03","01","19:00","-3.9","","-5.8","","87","","9","","9","","15.0","","98.95","","","","-8","","NA"
"2003-03-01 20:00","2003","03","01","20:00","-4.7","","-6.8","","85","","9","","9","","15.0","","98.88","","","","-9","","NA"
"2003-03-01 21:00","2003","03","01","21:00","-3.9","","-6.4","","83","","10","","4","","15.0","","98.81","","","","-6","","NA"
"2003-03-01 22:00","2003","03","01","22:00","-3.7","","-6.9","","78","","14","","11","","15.0","","98.72","","","","-8","","NA"
"2003-03-01 23:00","2003","03","01","23:00","-3.3","","-6.3","","80","","18","","15","","15.0","","98.61","","","","-8","","NA"
"2003-03-02 00:00","2003","03","02","00:00","-3.8","","-6.0","","85","","13","","7","","15.0","","98.52","","","","-7","","NA"
"2003-03-02 01:00","2003","03","02","01:00","-3.9","","-5.5","","89","","13","","9","","11.3","","98.41","","","","-8","","NA"
"2003-03-02 02:00","2003","03","02","02:00","-3.8","","-5.0","","91","","13","","7","","8.0","","98.34","","","","-7","","NA"
"2003-03-02 03:00","2003","03","02","03:00","-4.0","","-4.9","","93","","9","","7","","5.6","","98.21","","","","-7","","NA"
"2003-03-02 04:00","2003","03","02","04:00","-4.1","","-4.6","","96","","4","","4","","0.5","","98.12","","","","-6","","NA"
"2003-03-02 05:00","2003","03","02","05:00","-4.2","","-4.8","","96","","3","","2","","1.3","","98.03","","","","-5","","NA"
"2003-03-02 06:00","2003","03","02","06:00","-4.1","","-4.7","","96","","9","","2","","0.6","","97.96","","","","-5","","NA"
"2003-03-02 07:00","2003","03","02","07:00","-3.6","","-4.2","","96","","18","","2","","1.1","","97.91","","","","-4","","NA"
"2003-03-02 08:00","2003","03","02","08:00","-5.9","","-7.1","","91","","28","","28","","1.4","","97.92","","","","-14","","NA"
"2003-03-02 09:00","2003","03","02","09:00","-12.5","","-16.4","","73","","35","","19","","4.0","","98.09","","","","-21","","NA"
"2003-03-02 10:00","2003","03","02","10:00","-16.2","","-20.8","","68","","34","","22","","2.9","","98.25","","","","-26","","NA"
"2003-03-02 11:00","2003","03","02","11:00","-17.7","","-23.9","","58","","34","","26","","15.0","","98.41","","","","-29","","NA"
"2003-03-02 12:00","2003","03","02","12:00","-17.7","","-25.1","","52","","33","","26","","15.0","","98.57","","","","-29","","NA"
"2003-03-02 13:00","2003","03","02","13:00","-17.2","","-26.4","","45","","35","","28","","15.0","","98.64","","","","-29","","NA"
"2003-03-02 14:00","2003","03","02","14:00","-16.7","","-27.8","","38","","35","","26","","15.0","","98.68","","","","-28","","NA"
"2003-03-02 15:00","2003","03","02","15:00","-16.0","","-28.0","","35","","35","","26","","15.0","","98.77","","","","-27","","NA"
"2003-03-02 16:00","2003","03","02","16:00","-16.1","","-28.8","","33","","35","","20","","15.0","","98.88","","","","-26","","NA"
"2003-03-02 17:00","2003","03","02","17:00","-16.6","","-29.2","","33","","35","","19","","15.0","","98.97","","","","-26","","NA"
"2003-03-02 18:00","2003","03","02","18:00","-18.1","","-30.6","","33","","33","","19","","15.0","","99.09","","","","-28","","NA"
"2003-03-02 19:00","2003","03","02","19:00","-19.4","","-31.4","","34","","33","","19","","15.0","","99.24","","","","-29","","NA"
"2003-03-02 20:00","2003","03","02","20:00","-20.7","","-32.6","","34","","34","","20","","15.0","","99.33","","","","-31","","NA"
"2003-03-02 21:00","2003","03","02","21:00","-21.9","","-33.4","","35","","34","","19","","15.0","","99.44","","","","-33","","NA"
"2003-03-02 22:00","2003","03","02","22:00","-23.1","","-34.2","","36","","33","","17","","15.0","","99.54","","","","-34","","NA"
"2003-03-02 23:00","2003","03","02","23:00","-23.9","","-34.3","","38","","35","","19","","15.0","","99.62","","","","-35","","NA"
"2003-03-03 00:00","2003","03","03","00:00","-24.8","","-34.6","","40","","34","","9","","15.0","","99.71","","","","-32","","NA"
"2003-03-03 01:00","2003","03","03","01:00","-25.2","","-34.0","","44","","27","","4","","15.0","","99.80","","","","-29","","NA"
"2003-03-03 02:00","2003","03","03","02:00","-25.7","","-34.3","","44","","33","","9","","15.0","","99.83","","","","-33","","NA"
"2003-03-03 03:00","2003","03","03","03:00","-26.0","","-34.3","","46","","35","","7","","15.0","","99.83","","","","-33","","NA"
"2003-03-03 04:00","2003","03","03","04:00","-26.2","","-33.6","","50","","27","","9","","15.0","","99.89","","","","-34","","NA"
"2003-03-03 05:00","2003","03","03","05:00","-27.3","","-33.7","","55","","27","","6","","15.0","","99.90","","","","-33","","NA"
"2003-03-03 06:00","2003","03","03","06:00","-28.3","","-33.6","","60","","31","","9","","15.0","","99.96","","","","-37","","NA"
"2003-03-03 07:00","2003","03","03","07:00","-27.5","","-32.7","","61","","31","","9","","15.0","","99.96","","","","-36","","NA"
"2003-03-03 08:00","2003","03","03","08:00","-27.0","","-32.9","","57","","31","","9","","15.0","","100.01","","","","-35","","NA"
"2003-03-03 09:00","2003","03","03","09:00","-24.6","","-32.8","","47","","30","","9","","15.0","","100.03","","","","-32","","NA"
"2003-03-03 10:00","2003","03","03","10:00","-22.7","","-33.8","","36","","29","","4","","15.0","","99.99","","","","-26","","NA"
"2003-03-03 11:00","2003","03","03","11:00","-22.4","","-33.2","","37","","22","","9","","15.0","","99.99","","","","-30","","NA"
"2003-03-03 12:00","2003","03","03","12:00","-21.2","","-31.9","","38","","18","","13","","15.0","","99.94","","","","-30","","NA"
"2003-03-03 13:00","2003","03","03","13:00","-19.4","","-28.7","","44","","16","","11","","15.0","","99.83","","","","-27","","NA"
"2003-03-03 14:00","2003","03","03","14:00","-18.0","","-26.4","","48","","16","","9","","12.9","","99.74","","","","-24","","NA"
"2003-03-03 15:00","2003","03","03","15:00","-17.4","","-23.4","","59","","18","","19","","15.0","","99.65","","","","-27","","NA"
"2003-03-03 16:00","2003","03","03","16:00","-17.4","","-21.3","","72","","17","","28","","1.9","","99.58","","","","-29","","NA"
"2003-03-03 17:00","2003","03","03","17:00","-16.7","","-20.8","","70","","18","","32","","15.0","","99.54","","","","-29","","NA"
"2003-03-03 18:00","2003","03","03","18:00","-16.6","","-20.5","","72","","18","","24","","15.0","","99.49","","","","-27","","NA"
"2003-03-03 19:00","2003","03","03","19:00","-16.0","","-19.7","","73","","18","","32","","4.8","","99.42","","","","-28","","NA"
"2003-03-03 20:00","2003","03","03","20:00","-15.8","","-19.3","","74","","18","","32","","15.0","","99.35","","","","-27","","NA"
"2003-03-03 21:00","2003","03","03","21:00","-16.5","","-19.8","","76","","14","","33","","15.0","","99.29","","","","-28","","NA"
"2003-03-03 22:00","2003","03","03","22:00","-15.9","","-20.0","","71","","14","","30","","8.0","","99.22","","","","-27","","NA"
"2003-03-03 23:00","2003","03","03","23:00","-15.9","","-19.9","","71","","14","","32","","15.0","","99.11","","","","-28","","NA"
"2003-03-04 00:00","2003","03","04","00:00","-15.5","","-19.0","","74","","14","","32","","15.0","","98.99","","","","-27","","NA"
"2003-03-04 01:00","2003","03","04","01:00","-14.6","","-17.4","","79","","14","","32","","15.0","","98.90","","","","-26","","NA"
"2003-03-04 02:00","2003","03","04","02:00","-13.9","","-16.2","","83","","14","","32","","1.6","","98.79","","","","-25","","NA"
"2003-03-04 03:00","2003","03","04","03:00","-13.5","","-15.6","","84","","14","","33","","0.6","","98.66","","","","-25","","NA"
"2003-03-04 04:00","2003","03","04","04:00","-12.4","","-13.9","","89","","14","","32","","0.3","","98.54","","","","-23","","NA"
"2003-03-04 05:00","2003","03","04","05:00","-11.6","","-13.1","","89","","14","","32","","0.6","","98.46","","","","-22","","NA"
"2003-03-04 06:00","2003","03","04","06:00","-10.2","","-11.5","","90","","14","","19","","0.6","","98.41","","","","-18","","NA"
"2003-03-04 07:00","2003","03","04","07:00","-8.4","","-9.6","","91","","13","","4","","0.6","","98.36","","","","-11","","NA"
"2003-03-04 08:00","2003","03","04","08:00","-7.6","","-8.8","","91","","26","","2","","1.9","","98.36","","","","-9","","NA"
"2003-03-04 09:00","2003","03","04","09:00","-5.5","","-7.6","","85","","27","","24","","11.3","","98.36","","","","-13","","NA"
"2003-03-04 10:00","2003","03","04","10:00","-4.7","","-7.9","","78","","26","","26","","8.0","","98.37","","","","-12","","NA"
"2003-03-04 11:00","2003","03","04","11:00","-6.5","","-12.5","","62","","28","","39","","2.9","","98.48","","","","-16","","NA"
"2003-03-04 12:00","2003","03","04","12:00","-6.8","","-16.1","","48","","27","","39","","4.0","","98.52","","","","-16","","NA"
"2003-03-04 13:00","2003","03","04","13:00","-6.6","","-16.9","","44","","27","","30","","15.0","","98.55","","","","-15","","NA"
"2003-03-04 14:00","2003","03","04","14:00","-7.6","","-15.4","","54","","26","","28","","15.0","","98.63","","","","-16","","NA"
"2003-03-04 15:00","2003","03","04","15:00","-7.3","","-15.8","","51","","27","","22","","15.0","","98.66","","","","-15","","NA"
"2003-03-04 16:00","2003","03","04","16:00","-8.4","","-14.9","","59","","27","","30","","15.0","","98.68","","","","-17","","NA"
"2003-03-04 17:00","2003","03","04","17:00","-8.8","","-16.3","","55","","27","","32","","15.0","","98.72","","","","-18","","NA"
"2003-03-04 18:00","2003","03","04","18:00","-9.5","","-16.3","","58","","27","","19","","15.0","","98.79","","","","-17","","NA"
"2003-03-04 19:00","2003","03","04","19:00","-9.9","","-15.9","","61","","27","","11","","15.0","","98.82","","","","-15","","NA"
"2003-03-04 20:00","2003","03","04","20:00","-9.9","","-15.7","","63","","27","","17","","15.0","","98.90","","","","-17","","NA"
"2003-03-04 21:00","2003","03","04","21:00","-11.0","","-16.2","","65","","30","","9","","15.0","","98.90","","","","-16","","NA"
"2003-03-04 22:00","2003","03","04","22:00","-11.3","","-16.1","","68","","30","","7","","15.0","","98.95","","","","-16","","NA"
"2003-03-04 23:00","2003","03","04","23:00","-11.4","","-16.0","","69","","32","","9","","15.0","","98.95","","","","-17","","NA"
"2003-03-05 00:00","2003","03","05","00:00","-10.5","","-16.3","","62","","31","","7","","15.0","","98.90","","","","-15","","NA"
"2003-03-05 01:00","2003","03","05","01:00","-9.5","","-17.6","","52","","34","","6","","15.0","","98.84","","","","-13","","NA"
"2003-03-05 02:00","2003","03","05","02:00","-9.7","","-17.6","","52","","1","","9","","15.0","","98.82","","","","-15","","NA"
"2003-03-05 03:00","2003","03","05","03:00","-10.0","","-16.4","","59","","3","","7","","15.0","","98.77","","","","-14","","NA"
"2003-03-05 04:00","2003","03","05","04:00","-9.9","","-15.1","","66","","4","","7","","15.0","","98.75","","","","-14","","NA"
"2003-03-05 05:00","2003","03","05","05:00","-10.3","","-14.0","","74","","4","","6","","7.2","","98.73","","","","-14","","NA"
"2003-03-05 06:00","2003","03","05","06:00","-10.2","","-13.9","","74","","5","","11","","15.0","","98.70","","","","-16","","NA"
"2003-03-05 07:00","2003","03","05","07:00","-10.7","","-14.4","","74","","3","","7","","15.0","","98.68","","","","-15","","NA"
"2003-03-05 08:00","2003","03","05","08:00","-10.7","","-14.4","","74","","3","","6","","15.0","","98.72","","","","-14","","NA"
"2003-03-05 09:00","2003","03","05","09:00","-10.2","","-14.9","","68","","2","","9","","15.0","","98.73","","","","-15","","NA"
"2003-03-05 10:00","2003","03","05","10:00","-9.2","","-15.4","","61","","2","","11","","15.0","","98.73","","","","-15","","NA"
"2003-03-05 11:00","2003","03","05","11:00","-8.0","","-16.7","","50","","5","","9","","15.0","","98.75","","","","-13","","NA"
"2003-03-05 12:00","2003","03","05","12:00","-7.2","","-18.0","","42","","36","","9","","15.0","","98.77","","","","-12","","NA"
"2003-03-05 13:00","2003","03","05","13:00","-6.3","","-18.4","","38","","32","","13","","15.0","","98.72","","","","-12","","NA"
"2003-03-05 14:00","2003","03","05","14:00","-6.1","","-19.5","","34","","32","","17","","15.0","","98.73","","","","-12","","NA"
"2003-03-05 15:00","2003","03","05","15:00","-7.2","","-17.2","","45","","27","","26","","15.0","","98.72","","","","-15","","NA"
"2003-03-05 16:00","2003","03","05","16:00","-8.1","","-16.5","","51","","27","","32","","15.0","","98.82","","","","-17","","NA"
"2003-03-05 17:00","2003","03","05","17:00","-8.9","","-17.1","","51","","27","","30","","15.0","","98.88","","","","-18","","NA"
"2003-03-05 18:00","2003","03","05","18:00","-10.8","","-18.4","","54","","28","","22","","15.0","","98.97","","","","-19","","NA"
"2003-03-05 19:00","2003","03","05","19:00","-12.5","","-18.6","","60","","29","","20","","15.0","","99.04","","","","-21","","NA"
"2003-03-05 20:00","2003","03","05","20:00","-13.2","","-18.7","","63","","30","","20","","15.0","","99.11","","","","-22","","NA"
"2003-03-05 21:00","2003","03","05","21:00","-14.0","","-19.1","","65","","31","","17","","15.0","","99.15","","","","-22","","NA"
"2003-03-05 22:00","2003","03","05","22:00","-14.4","","-19.4","","66","","27","","11","","15.0","","99.22","","","","-21","","NA"
"2003-03-05 23:00","2003","03","05","23:00","-15.5","","-20.3","","67","","32","","17","","15.0","","99.29","","","","-24","","NA"
"2003-03-06 00:00","2003","03","06","00:00","-16.0","","-20.6","","68","","32","","13","","15.0","","99.33","","","","-24","","NA"
"2003-03-06 01:00","2003","03","06","01:00","-16.0","","-20.3","","69","","32","","13","","15.0","","99.33","","","","-24","","NA"
"2003-03-06 02:00","2003","03","06","02:00","-15.5","","-19.8","","70","","32","","15","","15.0","","99.36","","","","-24","","NA"
"2003-03-06 03:00","2003","03","06","03:00","-14.8","","-19.0","","70","","36","","11","","15.0","","99.38","","","","-21","","NA"
"2003-03-06 04:00","2003","03","06","04:00","-15.9","","-19.6","","73","","30","","7","","15.0","","99.44","","","","-21","","NA"
"2003-03-06 05:00","2003","03","06","05:00","-15.6","","-19.6","","71","","35","","6","","15.0","","99.45","","","","-20","","NA"
"2003-03-06 06:00","2003","03","06","06:00","-14.9","","-19.2","","70","","5","","6","","15.0","","99.47","","","","-19","","NA"
"2003-03-06 07:00","2003","03","06","07:00","-15.9","","-20.4","","68","","7","","7","","15.0","","99.51","","","","-21","","NA"
"2003-03-06 08:00","2003","03","06","08:00","-14.8","","-20.4","","62","","7","","13","","15.0","","99.60","","","","-22","","NA"
"2003-03-06 09:00","2003","03","06","09:00","-14.4","","-20.7","","59","","8","","17","","15.0","","99.65","","","","-23","","NA"
"2003-03-06 10:00","2003","03","06","10:00","-12.7","","-21.3","","49","","9","","17","","15.0","","99.67","","","","-21","","NA"
"2003-03-06 11:00","2003","03","06","11:00","-11.5","","-21.2","","44","","14","","11","","15.0","","99.69","","","","-17","","NA"
"2003-03-06 12:00","2003","03","06","12:00","-11.5","","-21.2","","44","","18","","11","","15.0","","99.72","","","","-17","","NA"
"2003-03-06 13:00","2003","03","06","13:00","-10.6","","-21.4","","41","","18","","9","","15.0","","99.65","","","","-16","","NA"
"2003-03-06 14:00","2003","03","06","14:00","-10.1","","-22.1","","37","","21","","15","","15.0","","99.65","","","","-17","","NA"
"2003-03-06 15:00","2003","03","06","15:00","-9.9","","-22.6","","35","","23","","15","","15.0","","99.65","","","","-17","","NA"
"2003-03-06 16:00","2003","03","06","16:00","-9.5","","-22.2","","35","","23","","17","","15.0","","99.71","","","","-17","","NA"
"2003-03-06 17:00","2003","03","06","17:00","-9.1","","-21.2","","37","","23","","9","","15.0","","99.69","","","","-14","","NA"
"2003-03-06 18:00","2003","03","06","18:00","-9.8","","-19.3","","46","","19","","6","","15.0","","99.72","","","","-13","","NA"
"2003-03-06 19:00","2003","03","06","19:00","-10.0","","-17.6","","54","","23","","4","","15.0","","99.76","","","","-12","","NA"
"2003-03-06 20:00","2003","03","06","20:00","-10.8","","-17.5","","58","","23","","7","","15.0","","99.80","","","","-15","","NA"
"2003-03-06 21:00","2003","03","06","21:00","-12.2","","-18.3","","60","","21","","4","","15.0","","99.78","","","","-15","","NA"
"2003-03-06 22:00","2003","03","06","22:00","-13.2","","-17.9","","68","","10","","2","","15.0","","99.78","","","","-15","","NA"
"2003-03-06 23:00","2003","03","06","23:00","-12.5","","-16.8","","70","","25","","4","","15.0","","99.81","","","","-15","","NA"
"2003-03-07 00:00","2003","03","07","00:00","-14.0","","-17.1","","77","","14","","7","","15.0","","99.74","","","","-19","","NA"
"2003-03-07 01:00","2003","03","07","01:00","-13.0","","-16.1","","78","","12","","4","","15.0","","99.69","","","","-16","","NA"
"2003-03-07 02:00","2003","03","07","02:00","-12.7","","-15.4","","80","","17","","4","","15.0","","99.72","","","","-15","","NA"
"2003-03-07 03:00","2003","03","07","03:00","-11.7","","-13.4","","87","","7","","2","","15.0","","99.65","","","","-13","","NA"
"2003-03-07 04:00","2003","03","07","04:00","-12.1","","-13.6","","89","","9","","6","","15.0","","99.62","","","","-16","","NA"
"2003-03-07 05:00","2003","03","07","05:00","-11.9","","-13.2","","90","","9","","11","","15.0","","99.62","","","","-18","","NA"
"2003-03-07 06:00","2003","03","07","06:00","-11.1","","-12.2","","92","","11","","7","","15.0","","99.58","","","","-15","","NA"
"2003-03-07 07:00","2003","03","07","07:00","-9.0","","-10.4","","90","","18","","22","","15.0","","99.53","","","","-17","","NA"
"2003-03-07 08:00","2003","03","07","08:00","-8.6","","-10.6","","85","","17","","24","","15.0","","99.44","","","","-17","","NA"
"2003-03-07 09:00","2003","03","07","09:00","-8.2","","-10.2","","85","","18","","32","","15.0","","99.36","","","","-17","","NA"
"2003-03-07 10:00","2003","03","07","10:00","-7.7","","-9.4","","88","","18","","32","","11.3","","99.26","","","","-17","","NA"
"2003-03-07 11:00","2003","03","07","11:00","-6.4","","-7.9","","89","","18","","30","","0.5","","99.17","","","","-15","","NA"
"2003-03-07 12:00","2003","03","07","12:00","-5.8","","-7.0","","91","","19","","43","","0.3","","99.06","","","","-15","","NA"
"2003-03-07 13:00","2003","03","07","13:00","-5.5","","-6.8","","91","","23","","26","","0.3","","99.04","","","","-13","","NA"
"2003-03-07 14:00","2003","03","07","14:00","-5.5","","-6.8","","91","","23","","26","","0.5","","98.95","","","","-13","","NA"
"2003-03-07 15:00","2003","03","07","15:00","-4.7","","-5.9","","91","","23","","15","","0.5","","98.95","","","","-10","","NA"
"2003-03-07 16:00","2003","03","07","16:00","-4.5","","-6.4","","87","","25","","20","","8.0","","98.91","","","","-11","","NA"
"2003-03-07 17:00","2003","03","07","17:00","-4.1","","-6.2","","85","","26","","20","","15.0","","98.91","","","","-10","","NA"
"2003-03-07 18:00","2003","03","07","18:00","-3.9","","-6.0","","85","","27","","15","","8.0","","99.00","","","","-9","","NA"
"2003-03-07 19:00","2003","03","07","19:00","-4.6","","-5.9","","91","","27","","9","","15.0","","99.06","","","","-8","","NA"
"2003-03-07 20:00","2003","03","07","20:00","-5.8","","-6.7","","93","","27","","6","","15.0","","99.13","","","","-9","","NA"
"2003-03-07 21:00","2003","03","07","21:00","-7.0","","-7.6","","95","","27","","6","","11.3","","99.15","","","","-10","","NA"
"2003-03-07 22:00","2003","03","07","22:00","-8.1","","-8.7","","95","","28","","6","","4.0","","99.20","","","","-11","","NA"
"2003-03-07 23:00","2003","03","07","23:00","-8.6","","-9.2","","95","","28","","13","","15.0","","99.29","","","","-15","","NA"
"2003-03-08 00:00","2003","03","08","00:00","-7.9","","-9.2","","90","","31","","15","","15.0","","99.29","","","","-14","","NA"
"2003-03-08 01:00","2003","03","08","01:00","-7.3","","-9.3","","86","","31","","15","","15.0","","99.35","","","","-13","","NA"
"2003-03-08 02:00","2003","03","08","02:00","-7.3","","-10.1","","80","","28","","13","","15.0","","99.38","","","","-13","","NA"
"2003-03-08 03:00","2003","03","08","03:00","-7.4","","-10.7","","77","","30","","13","","15.0","","99.36","","","","-13","","NA"
"2003-03-08 04:00","2003","03","08","04:00","-7.5","","-10.3","","80","","23","","13","","15.0","","99.35","","","","-13","","NA"
"2003-03-08 05:00","2003","03","08","05:00","-8.0","","-10.9","","80","","34","","4","","15.0","","99.29","","","","-10","","NA"
"2003-03-08 06:00","2003","03","08","06:00","-7.9","","-10.7","","80","","36","","4","","15.0","","99.29","","","","-10","","NA"
"2003-03-08 07:00","2003","03","08","07:00","-7.5","","-11.1","","75","","35","","7","","15.0","","99.20","","","","-11","","NA"
"2003-03-08 08:00","2003","03","08","08:00","-7.4","","-10.8","","77","","9","","4","","3.2","","99.15","","","","-9","","NA"
"2003-03-08 09:00","2003","03","08","09:00","-7.2","","-9.5","","84","","9","","6","","1.3","","99.08","","","","-10","","NA"
"2003-03-08 10:00","2003","03","08","10:00","-5.5","","-8.6","","79","","8","","4","","1.1","","99.02","","","","-7","","NA"
"2003-03-08 11:00","2003","03","08","11:00","-4.2","","-8.4","","72","","10","","2","","0.3","","98.88","","","","-5","","NA"
"2003-03-08 12:00","2003","03","08","12:00","-4.8","","-7.3","","83","","32","","15","","0.3","","98.84","","","","-10","","NA"
"2003-03-08 13:00","2003","03","08","13:00","-5.5","","-8.5","","79","","34","","13","","1.9","","98.70","","","","-11","","NA"
"2003-03-08 14:00","2003","03","08","14:00","-5.9","","-8.9","","79","","35","","17","","0.8","","98.59","","","","-12","","NA"
"2003-03-08 15:00","2003","03","08","15:00","-6.3","","-9.6","","77","","34","","13","","1.1","","98.50","","","","-12","","NA"
"2003-03-08 16:00","2003","03","08","16:00","-6.5","","-9.3","","80","","32","","13","","0.8","","98.48","","","","-12","","NA"
"2003-03-08 17:00","2003","03","08","17:00","-6.9","","-8.8","","86","","35","","9","","0.3","","98.45","","","","-11","","NA"
"2003-03-08 18:00","2003","03","08","18:00","-7.5","","-9.4","","86","","34","","11","","0.5","","98.43","","","","-13","","NA"
"2003-03-08 19:00","2003","03","08","19:00","-7.9","","-9.6","","88","","33","","9","","0.6","","98.41","","","","-12","","NA"
"2003-03-08 20:00","2003","03","08","20:00","-8.8","","-10.9","","85","","33","","11","","1.9","","98.48","","","","-14","","NA"
"2003-03-08 21:00","2003","03","08","21:00","-10.2","","-14.9","","68","","34","","17","","15.0","","98.50","","","","-17","","NA"
"2003-03-08 22:00","2003","03","08","22:00","-11.2","","-15.7","","69","","34","","15","","15.0","","98.55","","","","-18","","NA"
"2003-03-08 23:00","2003","03","08","23:00","-12.1","","-17.2","","66","","34","","15","","15.0","","98.61","","","","-19","","NA"
"2003-03-09 00:00","2003","03","09","00:00","-12.7","","-18.7","","61","","33","","15","","15.0","","98.72","","","","-20","","NA"
"2003-03-09 01:00","2003","03","09","01:00","-14.2","","-20.6","","58","","34","","17","","15.0","","98.84","","","","-22","","NA"
"2003-03-09 02:00","2003","03","09","02:00","-15.9","","-22.4","","57","","32","","9","","15.0","","98.90","","","","-22","","NA"
"2003-03-09 03:00","2003","03","09","03:00","-19.3","","-23.6","","69","","30","","15","","15.0","","98.95","","","","-28","","NA"
"2003-03-09 04:00","2003","03","09","04:00","-20.9","","-24.0","","76","","31","","19","","15.0","","99.00","","","","-31","","NA"
"2003-03-09 05:00","2003","03","09","05:00","-21.8","","-24.8","","77","","31","","19","","15.0","","99.08","","","","-32","","NA"
"2003-03-09 06:00","2003","03","09","06:00","-22.5","","-25.7","","75","","31","","19","","15.0","","99.17","","","","-33","","NA"
"2003-03-09 07:00","2003","03","09","07:00","-22.8","","-26.0","","75","","27","","13","","15.0","","99.20","","","","-32","","NA"
"2003-03-09 08:00","2003","03","09","08:00","-21.5","","-25.3","","71","","31","","15","","15.0","","99.20","","","","-31","","NA"
"2003-03-09 09:00","2003","03","09","09:00","-19.9","","-24.1","","69","","31","","19","","15.0","","99.18","","","","-30","","NA"
"2003-03-09 10:00","2003","03","09","10:00","-18.6","","-23.6","","65","","28","","20","","15.0","","99.18","","","","-29","","NA"
"2003-03-09 11:00","2003","03","09","11:00","-17.7","","-23.1","","63","","27","","26","","15.0","","99.18","","","","-29","","NA"
"2003-03-09 12:00","2003","03","09","12:00","-16.7","","-21.8","","65","","28","","33","","2.6","","99.17","","","","-29","","NA"
"2003-03-09 13:00","2003","03","09","13:00","-14.5","","-23.0","","48","","28","","28","","15.0","","99.09","","","","-25","","NA"
"2003-03-09 14:00","2003","03","09","14:00","-14.2","","-22.7","","49","","28","","33","","6.4","","99.00","","","","-25","","NA"
"2003-03-09 15:00","2003","03","09","15:00","-14.4","","-20.9","","58","","27","","39","","1.9","","98.99","","","","-27","","NA"
"2003-03-09 16:00","2003","03","09","16:00","-13.9","","-19.1","","65","","28","","30","","11.3","","98.95","","","","-25","","NA"
"2003-03-09 17:00","2003","03","09","17:00","-13.9","","-19.1","","65","","28","","32","","5.6","","98.93","","","","-25","","NA"
"2003-03-09 18:00","2003","03","09","18:00","-14.3","","-19.5","","65","","28","","30","","15.0","","98.91","","","","-25","","NA"
"2003-03-09 19:00","2003","03","09","19:00","-14.7","","-19.7","","66","","28","","28","","15.0","","98.93","","","","-25","","NA"
"2003-03-09 20:00","2003","03","09","20:00","-14.9","","-20.5","","62","","29","","24","","15.0","","98.97","","","","-25","","NA"
"2003-03-09 21:00","2003","03","09","21:00","-15.2","","-19.7","","68","","30","","26","","11.3","","99.00","","","","-26","","NA"
"2003-03-09 22:00","2003","03","09","22:00","-15.7","","-23.8","","50","","30","","22","","15.0","","99.04","","","","-25","","NA"
"2003-03-09 23:00","2003","03","09","23:00","-17.0","","-25.1","","49","","30","","13","","15.0","","99.08","","","","-25","","NA"
"2003-03-10 00:00","2003","03","10","00:00","-18.2","","-24.7","","57","","27","","15","","15.0","","99.11","","","","-27","","NA"
"2003-03-10 01:00","2003","03","10","01:00","-19.5","","-24.7","","63","","27","","13","","15.0","","99.15","","","","-28","","NA"
"2003-03-10 02:00","2003","03","10","02:00","-19.9","","-24.4","","67","","27","","17","","15.0","","99.18","","","","-30","","NA"
"2003-03-10 03:00","2003","03","10","03:00","-20.1","","-23.3","","76","","27","","19","","15.0","","99.20","","","","-30","","NA"
"2003-03-10 04:00","2003","03","10","04:00","-20.5","","-23.1","","80","","27","","20","","15.0","","99.26","","","","-31","","NA"
"2003-03-10 05:00","2003","03","10","05:00","-20.4","","-23.0","","80","","27","","22","","15.0","","99.31","","","","-31","","NA"
"2003-03-10 06:00","2003","03","10","06:00","-21.7","","-24.3","","79","","28","","19","","15.0","","99.40","","","","-32","","NA"
"2003-03-10 07:00","2003","03","10","07:00","-22.1","","-24.7","","79","","27","","20","","15.0","","99.45","","","","-33","","NA"
"2003-03-10 08:00","2003","03","10","08:00","-21.2","","-24.1","","77","","27","","22","","15.0","","99.51","","","","-32","","NA"
"2003-03-10 09:00","2003","03","10","09:00","-19.3","","-22.7","","74","","27","","26","","15.0","","99.56","","","","-31","","NA"
"2003-03-10 10:00","2003","03","10","10:00","-17.7","","-21.6","","72","","28","","33","","15.0","","99.54","","","","-30","","NA"
"2003-03-10 11:00","2003","03","10","11:00","-16.0","","-21.5","","63","","27","","35","","7.2","","99.53","","","","-28","","NA"
"2003-03-10 12:00","2003","03","10","12:00","-14.8","","-21.5","","57","","27","","44","","1.3","","99.49","","","","-28","","NA"
"2003-03-10 13:00","2003","03","10","13:00","-14.1","","-23.1","","46","","27","","50","","0.6","","99.45","","","","-27","","NA"
"2003-03-10 14:00","2003","03","10","14:00","-13.3","","-22.3","","47","","27","","39","","11.3","","99.38","","","","-25","","NA"
"2003-03-10 15:00","2003","03","10","15:00","-12.8","","-20.7","","52","","27","","37","","15.0","","99.36","","","","-24","","NA"
"2003-03-10 16:00","2003","03","10","16:00","-12.3","","-19.8","","54","","27","","35","","15.0","","99.33","","","","-23","","NA"
"2003-03-10 17:00","2003","03","10","17:00","-12.2","","-17.7","","64","","27","","30","","15.0","","99.29","","","","-22","","NA"
"2003-03-10 18:00","2003","03","10","18:00","-11.2","","-16.7","","64","","27","","32","","15.0","","99.26","","","","-21","","NA"
"2003-03-10 19:00","2003","03","10","19:00","-11.4","","-16.9","","64","","27","","30","","15.0","","99.26","","","","-21","","NA"
"2003-03-10 20:00","2003","03","10","20:00","-11.9","","-17.2","","65","","27","","20","","15.0","","99.27","","","","-20","","NA"
"2003-03-10 21:00","2003","03","10","21:00","-13.8","","-17.8","","72","","28","","15","","15.0","","99.27","","","","-21","","NA"
"2003-03-10 22:00","2003","03","10","22:00","-14.1","","-17.8","","74","","30","","15","","15.0","","99.24","","","","-22","","NA"
"2003-03-10 23:00","2003","03","10","23:00","-13.7","","-17.3","","74","","27","","15","","15.0","","99.22","","","","-21","","NA"
"2003-03-11 00:00","2003","03","11","00:00","-14.2","","-17.3","","77","","28","","6","","15.0","","99.18","","","","-18","","NA"
"2003-03-11 01:00","2003","03","11","01:00","-13.7","","-16.3","","81","","28","","11","","15.0","","99.13","","","","-20","","NA"
"2003-03-11 02:00","2003","03","11","02:00","-14.5","","-16.6","","84","","29","","2","","15.0","","99.09","","","","-16","","NA"
"2003-03-11 03:00","2003","03","11","03:00","-14.8","","-16.7","","85","","","","0","","15.0","","99.02","","","","","","NA"
"2003-03-11 04:00","2003","03","11","04:00","-14.4","","-16.2","","86","","","M","","M","15.0","","98.95","","","","","","NA"
"2003-03-11 05:00","2003","03","11","05:00","-12.7","","-14.4","","87","","25","","4","","15.0","","98.93","","","","-15","","NA"
"2003-03-11 06:00","2003","03","11","06:00","-11.7","","-13.5","","86","","27","","6","","15.0","","98.91","","","","-15","","NA"
"2003-03-11 07:00","2003","03","11","07:00","-9.7","","-12.1","","83","","26","","11","","15.0","","98.88","","","","-15","","NA"
"2003-03-11 08:00","2003","03","11","08:00","-9.2","","-11.6","","83","","23","","19","","15.0","","98.88","","","","-17","","NA"
"2003-03-11 09:00","2003","03","11","09:00","-8.5","","-11.3","","80","","23","","20","","3.2","","98.86","","","","-16","","NA"
"2003-03-11 10:00","2003","03","11","10:00","-9.5","","-12.2","","81","","29","","19","","1.9","","98.84","","","","-17","","NA"
"2003-03-11 11:00","2003","03","11","11:00","-9.5","","-13.4","","73","","28","","19","","7.2","","98.81","","","","-17","","NA"
"2003-03-11 12:00","2003","03","11","12:00","-8.1","","-13.6","","65","","28","","13","","15.0","","98.77","","","","-14","","NA"
"2003-03-11 13:00","2003","03","11","13:00","-6.9","","-12.7","","63","","23","","19","","15.0","","98.73","","","","-14","","NA"
"2003-03-11 14:00","2003","03","11","14:00","-6.7","","-12.7","","62","","23","","35","","15.0","","98.63","","","","-16","","NA"
"2003-03-11 15:00","2003","03","11","15:00","-6.7","","-10.5","","74","","23","","24","","15.0","","98.59","","","","-14","","NA"
"2003-03-11 16:00","2003","03","11","16:00","-6.3","","-9.0","","81","","20","","24","","15.0","","98.45","","","","-14","","NA"
"2003-03-11 17:00","2003","03","11","17:00","-5.6","","-7.7","","85","","19","","32","","15.0","","98.28","","","","-14","","NA"
"2003-03-11 18:00","2003","03","11","18:00","-4.9","","-7.1","","85","","19","","32","","15.0","","98.16","","","","-13","","NA"
"2003-03-11 19:00","2003","03","11","19:00","-4.1","","-7.1","","80","","22","","35","","15.0","","98.16","","","","-12","","NA"
"2003-03-11 20:00","2003","03","11","20:00","-3.3","","-6.3","","80","","23","","39","","15.0","","98.10","","","","-12","","NA"
"2003-03-11 21:00","2003","03","11","21:00","-2.5","","-4.2","","88","","25","","32","","4.8","","98.10","","","","-10","","NA"
"2003-03-11 22:00","2003","03","11","22:00","-2.2","","-3.4","","91","","27","","19","","6.4","","98.12","","","","-8","","NA"
"2003-03-11 23:00","2003","03","11","23:00","-2.2","","-3.4","","91","","27","","13","","6.4","","98.14","","","","-7","","NA"
"2003-03-12 00:00","2003","03","12","00:00","-2.4","","-3.8","","90","","28","","28","","1.4","","98.21","","","","-9","","NA"
"2003-03-12 01:00","2003","03","12","01:00","-3.5","","-7.5","","74","","28","","26","","12.9","","98.32","","","","-11","","NA"
"2003-03-12 02:00","2003","03","12","02:00","-5.0","","-13.0","","53","","32","","20","","15.0","","98.48","","","","-12","","NA"
"2003-03-12 03:00","2003","03","12","03:00","-6.0","","-13.7","","54","","30","","22","","15.0","","98.55","","","","-13","","NA"
"2003-03-12 04:00","2003","03","12","04:00","-7.7","","-14.0","","61","","30","","11","","15.0","","98.68","","","","-13","","NA"
"2003-03-12 05:00","2003","03","12","05:00","-9.2","","-13.4","","71","","28","","11","","15.0","","98.82","","","","-15","","NA"
"2003-03-12 06:00","2003","03","12","06:00","-10.6","","-14.8","","71","","31","","13","","15.0","","98.91","","","","-17","","NA"
"2003-03-12 07:00","2003","03","12","07:00","-10.7","","-15.5","","68","","31","","13","","15.0","","99.00","","","","-17","","NA"
"2003-03-12 08:00","2003","03","12","08:00","-10.2","","-15.6","","65","","32","","13","","15.0","","99.13","","","","-16","","NA"
"2003-03-12 09:00","2003","03","12","09:00","-9.5","","-15.3","","63","","34","","9","","15.0","","99.18","","","","-14","","NA"
"2003-03-12 10:00","2003","03","12","10:00","-8.1","","-16.5","","51","","33","","15","","15.0","","99.22","","","","-14","","NA"
"2003-03-12 11:00","2003","03","12","11:00","-6.9","","-18.6","","39","","32","","13","","15.0","","99.26","","","","-12","","NA"
"2003-03-12 12:00","2003","03","12","12:00","-6.6","","-19.3","","36","","29","","19","","15.0","","99.27","","","","-13","","NA"
"2003-03-12 13:00","2003","03","12","13:00","-6.2","","-18.6","","37","","27","","19","","15.0","","99.27","","","","-13","","NA"
"2003-03-12 14:00","2003","03","12","14:00","-5.7","","-18.8","","35","","27","","17","","15.0","","99.24","","","","-12","","NA"
"2003-03-12 15:00","2003","03","12","15:00","-5.4","","-18.2","","36","","27","","20","","15.0","","99.35","","","","-12","","NA"
"2003-03-12 16:00","2003","03","12","16:00","-5.3","","-17.5","","38","","26","","22","","15.0","","99.42","","","","-12","","NA"
"2003-03-12 17:00","2003","03","12","17:00","-5.7","","-17.5","","39","","28","","19","","15.0","","99.47","","","","-12","","NA"
"2003-03-12 18:00","2003","03","12","18:00","-6.4","","-18.2","","39","","27","","13","","15.0","","99.56","","","","-12","","NA"
"2003-03-12 19:00","2003","03","12","19:00","-8.1","","-18.0","","45","","32","","7","","15.0","","99.67","","","","-12","","NA"
"2003-03-12 20:00","2003","03","12","20:00","-8.8","","-18.9","","44","","32","","15","","15.0","","99.72","","","","-15","","NA"
"2003-03-12 21:00","2003","03","12","21:00","-9.5","","-20.1","","42","","32","","13","","15.0","","99.76","","","","-16","","NA"
"2003-03-12 22:00","2003","03","12","22:00","-10.3","","-20.1","","44","","32","","9","","15.0","","99.81","","","","-15","","NA"
"2003-03-12 23:00","2003","03","12","23:00","-11.3","","-20.0","","49","","33","","6","","15.0","","99.87","","","","-15","","NA"
"2003-03-13 00:00","2003","03","13","00:00","-10.8","","-19.5","","49","","7","","11","","15.0","","99.89","","","","-17","","NA"
"2003-03-13 01:00","2003","03","13","01:00","-11.5","","-19.3","","52","","6","","11","","15.0","","99.94","","","","-17","","NA"
"2003-03-13 02:00","2003","03","13","02:00","-12.4","","-19.9","","54","","7","","15","","15.0","","99.99","","","","-20","","NA"
"2003-03-13 03:00","2003","03","13","03:00","-12.1","","-19.6","","54","","6","","17","","15.0","","99.99","","","","-20","","NA"
"2003-03-13 04:00","2003","03","13","04:00","-12.6","","-20.1","","53","","7","","19","","15.0","","100.05","","","","-21","","NA"
"2003-03-13 05:00","2003","03","13","05:00","-12.0","","-19.9","","52","","7","","19","","15.0","","100.12","","","","-20","","NA"
"2003-03-13 06:00","2003","03","13","06:00","-12.4","","-20.5","","51","","6","","17","","15.0","","100.12","","","","-20","","NA"
"2003-03-13 07:00","2003","03","13","07:00","-12.8","","-20.7","","52","","6","","15","","15.0","","100.17","","","","-20","","NA"
"2003-03-13 08:00","2003","03","13","08:00","-14.1","","-21.1","","55","","8","","15","","15.0","","100.19","","","","-22","","NA"
"2003-03-13 09:00","2003","03","13","09:00","-11.3","","-20.5","","47","","7","","15","","15.0","","100.26","","","","-18","","NA"
"2003-03-13 10:00","2003","03","13","10:00","-9.3","","-19.7","","43","","9","","11","","15.0","","100.30","","","","-15","","NA"
"2003-03-13 11:00","2003","03","13","11:00","-8.0","","-18.2","","44","","14","","13","","15.0","","100.26","","","","-14","","NA"
"2003-03-13 12:00","2003","03","13","12:00","-8.0","","-18.5","","43","","15","","9","","15.0","","100.25","","","","-13","","NA"
"2003-03-13 13:00","2003","03","13","13:00","-7.9","","-17.8","","45","","18","","13","","15.0","","100.19","","","","-14","","NA"
"2003-03-13 14:00","2003","03","13","14:00","-7.5","","-18.0","","43","","23","","19","","15.0","","100.14","","","","-15","","NA"
"2003-03-13 15:00","2003","03","13","15:00","-6.7","","-16.5","","46","","22","","17","","15.0","","100.12","","","","-13","","NA"
"2003-03-13 16:00","2003","03","13","16:00","-5.8","","-17.6","","39","","25","","19","","15.0","","100.10","","","","-12","","NA"
"2003-03-13 17:00","2003","03","13","17:00","-5.5","","-18.3","","36","","27","","19","","15.0","","100.17","","","","-12","","NA"
"2003-03-13 18:00","2003","03","13","18:00","-6.5","","-17.7","","41","","28","","19","","15.0","","100.25","","","","-13","","NA"
"2003-03-13 19:00","2003","03","13","19:00","-8.0","","-17.7","","46","","30","","15","","15.0","","100.28","","","","-14","","NA"
"2003-03-13 20:00","2003","03","13","20:00","-8.3","","-17.7","","47","","31","","15","","15.0","","100.34","","","","-15","","NA"
"2003-03-13 21:00","2003","03","13","21:00","-8.5","","-18.1","","46","","32","","15","","15.0","","100.35","","","","-15","","NA"
"2003-03-13 22:00","2003","03","13","22:00","-9.4","","-18.5","","48","","32","","15","","15.0","","100.37","","","","-16","","NA"
"2003-03-13 23:00","2003","03","13","23:00","-10.4","","-18.5","","51","","32","","13","","15.0","","100.35","","","","-17","","NA"
"2003-03-14 00:00","2003","03","14","00:00","-10.7","","-18.1","","54","","31","","6","","15.0","","100.35","","","","-14","","NA"
"2003-03-14 01:00","2003","03","14","01:00","-11.2","","-18.1","","57","","26","","2","","15.0","","100.34","","","","-12","","NA"
"2003-03-14 02:00","2003","03","14","02:00","-11.3","","-17.6","","60","","28","","6","","15.0","","100.39","","","","-15","","NA"
"2003-03-14 03:00","2003","03","14","03:00","-11.0","","-16.9","","62","","2","","2","","15.0","","100.37","","","","-12","","NA"
"2003-03-14 04:00","2003","03","14","04:00","-11.4","","-15.7","","70","","9","","7","","15.0","","100.35","","","","-16","","NA"
"2003-03-14 05:00","2003","03","14","05:00","-10.5","","-15.2","","68","","","","0","","15.0","","100.41","","","","","","NA"
"2003-03-14 06:00","2003","03","14","06:00","-9.9","","-15.1","","66","","11","","2","","15.0","","100.41","","","","-11","","NA"
"2003-03-14 07:00","2003","03","14","07:00","-9.4","","-13.9","","70","","5","","4","","15.0","","100.43","","","","-12","","NA"
"2003-03-14 08:00","2003","03","14","08:00","-8.8","","-13.9","","67","","8","","6","","15.0","","100.44","","","","-12","","NA"
"2003-03-14 09:00","2003","03","14","09:00","-7.8","","-11.2","","77","","9","","9","","15.0","","100.41","","","","-12","","NA"
"2003-03-14 10:00","2003","03","14","10:00","-6.6","","-9.4","","80","","10","","15","","15.0","","100.25","","","","-13","","NA"
"2003-03-14 11:00","2003","03","14","11:00","-4.7","","-8.5","","75","","18","","24","","15.0","","100.21","","","","-12","","NA"
"2003-03-14 12:00","2003","03","14","12:00","-4.4","","-8.8","","71","","18","","22","","15.0","","100.14","","","","-11","","NA"
"2003-03-14 13:00","2003","03","14","13:00","-4.2","","-9.9","","64","","14","","24","","15.0","","100.01","","","","-11","","NA"
"2003-03-14 14:00","2003","03","14","14:00","-3.7","","-11.1","","56","","18","","24","","15.0","","99.94","","","","-11","","NA"
"2003-03-14 15:00","2003","03","14","15:00","-3.5","","-9.8","","62","","18","","26","","15.0","","99.87","","","","-11","","NA"
"2003-03-14 16:00","2003","03","14","16:00","-3.5","","-9.4","","64","","18","","20","","15.0","","99.81","","","","-10","","NA"
"2003-03-14 17:00","2003","03","14","17:00","-3.3","","-8.6","","67","","18","","19","","15.0","","99.72","","","","-9","","NA"
"2003-03-14 18:00","2003","03","14","18:00","-3.9","","-7.4","","77","","14","","20","","15.0","","99.63","","","","-10","","NA"
"2003-03-14 19:00","2003","03","14","19:00","-4.1","","-7.1","","80","","13","","22","","15.0","","99.60","","","","-11","","NA"
"2003-03-14 20:00","2003","03","14","20:00","-4.2","","-7.1","","80","","11","","20","","15.0","","99.54","","","","-11","","NA"
"2003-03-14 21:00","2003","03","14","21:00","-4.2","","-7.2","","80","","9","","17","","15.0","","99.56","","","","-10","","NA"
"2003-03-14 22:00","2003","03","14","22:00","-3.9","","-8.1","","73","","8","","19","","15.0","","99.56","","","","-10","","NA"
"2003-03-14 23:00","2003","03","14","23:00","-4.6","","-7.3","","81","","9","","13","","15.0","","99.44","","","","-10","","NA"
"2003-03-15 00:00","2003","03","15","00:00","-3.7","","-5.9","","85","","9","","17","","15.0","","99.40","","","","-9","","NA"
"2003-03-15 01:00","2003","03","15","01:00","-4.1","","-6.0","","87","","9","","9","","15.0","","99.42","","","","-8","","NA"
"2003-03-15 02:00","2003","03","15","02:00","-3.3","","-5.4","","85","","10","","9","","15.0","","99.45","","","","-7","","NA"
"2003-03-15 03:00","2003","03","15","03:00","-3.6","","-5.7","","85","","8","","11","","15.0","","99.42","","","","-8","","NA"
"2003-03-15 04:00","2003","03","15","04:00","-3.4","","-5.5","","85","","8","","11","","15.0","","99.42","","","","-8","","NA"
"2003-03-15 05:00","2003","03","15","05:00","-3.4","","-5.6","","85","","6","","9","","15.0","","99.45","","","","-7","","NA"
"2003-03-15 06:00","2003","03","15","06:00","-3.6","","-6.0","","83","","8","","13","","15.0","","99.47","","","","-8","","NA"
"2003-03-15 07:00","2003","03","15","07:00","-3.7","","-5.9","","85","","8","","13","","15.0","","99.53","","","","-9","","NA"
"2003-03-15 08:00","2003","03","15","08:00","-3.8","","-6.3","","83","","9","","13","","15.0","","99.56","","","","-9","","NA"
"2003-03-15 09:00","2003","03","15","09:00","-3.8","","-7.2","","77","","9","","13","","15.0","","99.58","","","","-9","","NA"
"2003-03-15 10:00","2003","03","15","10:00","-2.8","","-7.0","","73","","13","","24","","15.0","","99.54","","","","-9","","NA"
"2003-03-15 11:00","2003","03","15","11:00","-2.3","","-6.6","","72","","14","","22","","15.0","","99.54","","","","-8","","NA"
"2003-03-15 12:00","2003","03","15","12:00","-1.3","","-5.6","","73","","14","","19","","15.0","","99.54","","","","-7","","NA"
"2003-03-15 13:00","2003","03","15","13:00","-0.2","","-5.3","","68","","12","","15","","15.0","","99.49","","","","-5","","NA"
"2003-03-15 14:00","2003","03","15","14:00","0.6","","-5.3","","65","","14","","9","","15.0","","99.47","","","","","","NA"
"2003-03-15 15:00","2003","03","15","15:00","1.3","","-4.4","","66","","13","","9","","15.0","","99.40","","","","","","NA"
"2003-03-15 16:00","2003","03","15","16:00","0.4","","-4.9","","68","","9","","11","","15.0","","99.35","","","","","","NA"
"2003-03-15 17:00","2003","03","15","17:00","-0.2","","-3.8","","77","","9","","11","","15.0","","99.29","","","","-4","","NA"
"2003-03-15 18:00","2003","03","15","18:00","0.1","","-3.5","","77","","8","","9","","15.0","","99.31","","","","","","NA"
"2003-03-15 19:00","2003","03","15","19:00","0.0","","-4.3","","73","","7","","11","","15.0","","99.22","","","","-4","","NA"
"2003-03-15 20:00","2003","03","15","20:00","0.2","","-4.5","","71","","9","","9","","15.0","","99.20","","","","","","NA"
"2003-03-15 21:00","2003","03","15","21:00","0.4","","-4.5","","70","","7","","11","","15.0","","99.17","","","","","","NA"
"2003-03-15 22:00","2003","03","15","22:00","0.7","","-4.8","","67","","7","","9","","15.0","","99.11","","","","","","NA"
"2003-03-15 23:00","2003","03","15","23:00","0.1","","-5.0","","69","","8","","15","","15.0","","99.04","","","","","","NA"
"2003-03-16 00:00","2003","03","16","00:00","-0.4","","-4.2","","75","","6","","13","","15.0","","98.99","","","","-5","","NA"
"2003-03-16 01:00","2003","03","16","01:00","-0.6","","-3.9","","78","","7","","15","","15.0","","98.93","","","","-5","","NA"
"2003-03-16 02:00","2003","03","16","02:00","-1.3","","-3.9","","82","","9","","15","","12.9","","98.91","","","","-6","","NA"
"2003-03-16 03:00","2003","03","16","03:00","-1.4","","-3.4","","86","","6","","13","","11.3","","98.86","","","","-6","","NA"
"2003-03-16 04:00","2003","03","16","04:00","-1.5","","-3.2","","88","","7","","13","","9.7","","98.81","","","","-6","","NA"
"2003-03-16 05:00","2003","03","16","05:00","-2.0","","-3.4","","90","","8","","13","","8.0","","98.77","","","","-6","","NA"
"2003-03-16 06:00","2003","03","16","06:00","-1.4","","-2.0","","96","","8","","9","","5.6","","98.73","","","","-5","","NA"
"2003-03-16 07:00","2003","03","16","07:00","-1.2","","-1.8","","96","","7","","13","","3.2","","98.75","","","","-5","","NA"
"2003-03-16 08:00","2003","03","16","08:00","-0.5","","-1.1","","96","","7","","9","","2.6","","98.72","","","","-4","","NA"
"2003-03-16 09:00","2003","03","16","09:00","1.8","","0.0","","88","","6","","4","","4.8","","98.68","","","","","","NA"
"2003-03-16 10:00","2003","03","16","10:00","2.0","","-2.2","","74","","9","","7","","15.0","","98.66","","","","","","NA"
"2003-03-16 11:00","2003","03","16","11:00","0.7","","-0.8","","90","","9","","13","","0.0","","98.66","","","","","","NA"
"2003-03-16 12:00","2003","03","16","12:00","0.4","","-0.7","","92","","9","","11","","0.0","","98.61","","","","","","NA"
"2003-03-16 13:00","2003","03","16","13:00","0.3","","-1.4","","88","","9","","9","","0.0","","98.54","","","","","","NA"
"2003-03-16 14:00","2003","03","16","14:00","0.7","","-0.4","","92","","9","","11","","0.0","","98.48","","","","","","NA"
"2003-03-16 15:00","2003","03","16","15:00","0.4","","-0.5","","94","","9","","13","","0.0","","98.43","","","","","","NA"
"2003-03-16 16:00","2003","03","16","16:00","0.6","","0.2","","97","","8","","17","","0.0","","98.43","","","","","","NA"
"2003-03-16 17:00","2003","03","16","17:00","1.0","","0.7","","98","","9","","13","","0.0","","98.41","","","","","","NA"
"2003-03-16 18:00","2003","03","16","18:00","1.0","","0.7","","98","","9","","7","","0.0","","98.43","","","","","","NA"
"2003-03-16 19:00","2003","03","16","19:00","3.3","","3.0","","98","","23","","15","","0.0","","98.46","","","","","","NA"
"2003-03-16 20:00","2003","03","16","20:00","3.7","","3.4","","98","","23","","9","","","M","98.46","","","","","","NA"
"2003-03-16 21:00","2003","03","16","21:00","1.0","","0.7","","98","","9","","11","","0.0","","98.48","","","","","","NA"
"2003-03-16 22:00","2003","03","16","22:00","1.8","","1.5","","98","","9","","11","","0.0","","98.52","","","","","","NA"
"2003-03-16 23:00","2003","03","16","23:00","2.0","","1.7","","98","","7","","9","","","M","98.48","","","","","","NA"
"2003-03-17 00:00","2003","03","17","00:00","2.0","","1.7","","98","","9","","11","","","M","98.48","","","","","","NA"
"2003-03-17 01:00","2003","03","17","01:00","1.5","","1.2","","98","","9","","9","","","M","98.50","","","","","","NA"
"2003-03-17 02:00","2003","03","17","02:00","0.9","","0.6","","98","","8","","9","","","M","98.48","","","","","","NA"
"2003-03-17 03:00","2003","03","17","03:00","0.6","","0.3","","98","","9","","11","","","M","98.48","","","","","","NA"
"2003-03-17 04:00","2003","03","17","04:00","0.2","","-0.2","","97","","7","","7","","0.0","","98.43","","","","","","NA"
"2003-03-17 05:00","2003","03","17","05:00","-0.1","","-0.5","","97","","9","","9","","0.0","","98.43","","","","-3","","NA"
"2003-03-17 06:00","2003","03","17","06:00","-0.3","","-0.7","","97","","9","","7","","0.0","","98.43","","","","-3","","NA"
"2003-03-17 07:00","2003","03","17","07:00","-0.6","","-1.0","","97","","9","","7","","0.0","","98.50","","","","-3","","NA"
"2003-03-17 08:00","2003","03","17","08:00","-0.3","","-0.7","","97","","9","","9","","0.0","","98.55","","","","-3","","NA"
"2003-03-17 09:00","2003","03","17","09:00","0.0","","-0.4","","97","","7","","9","","0.0","","98.63","","","","-3","","NA"
"2003-03-17 10:00","2003","03","17","10:00","0.8","","0.5","","98","","9","","9","","0.0","","98.64","","","","","","NA"
"2003-03-17 11:00","2003","03","17","11:00","1.3","","1.0","","98","","15","","4","","0.0","","98.72","","","","","","NA"
"2003-03-17 12:00","2003","03","17","12:00","1.6","","1.3","","98","","9","","6","","4.0","","98.68","","","","","","NA"
"2003-03-17 13:00","2003","03","17","13:00","3.3","","3.0","","98","","29","","4","","15.0","","98.73","","","","","","NA"
"2003-03-17 14:00","2003","03","17","14:00","3.3","","1.8","","90","","21","","6","","9.7","","98.70","","","","","","NA"
"2003-03-17 15:00","2003","03","17","15:00","6.7","","0.2","","63","","5","","7","","15.0","","98.73","","","","","","NA"
"2003-03-17 16:00","2003","03","17","16:00","8.4","","-0.7","","53","","6","","15","","15.0","","98.79","","","","","","NA"
"2003-03-17 17:00","2003","03","17","17:00","7.9","","-1.7","","51","","6","","17","","15.0","","98.84","","","","","","NA"
"2003-03-17 18:00","2003","03","17","18:00","7.7","","-2.7","","48","","6","","15","","15.0","","98.93","","","","","","NA"
"2003-03-17 19:00","2003","03","17","19:00","7.8","","-3.5","","45","","6","","17","","15.0","","98.99","","","","","","NA"
"2003-03-17 20:00","2003","03","17","20:00","7.4","","-3.8","","45","","6","","15","","15.0","","99.09","","","","","","NA"
"2003-03-17 21:00","2003","03","17","21:00","6.7","","-4.2","","46","","5","","15","","15.0","","99.18","","","","","","NA"
"2003-03-17 22:00","2003","03","17","22:00","4.8","","-5.9","","46","","4","","19","","15.0","","99.24","","","","","","NA"
"2003-03-17 23:00","2003","03","17","23:00","3.0","","-5.2","","55","","5","","17","","15.0","","99.27","","","","","","NA"
"2003-03-18 00:00","2003","03","18","00:00","2.3","","-4.8","","59","","4","","17","","15.0","","99.31","","","","","","NA"
"2003-03-18 01:00","2003","03","18","01:00","1.3","","-4.8","","64","","3","","19","","15.0","","99.40","","","","","","NA"
"2003-03-18 02:00","2003","03","18","02:00","0.4","","-5.1","","67","","3","","13","","15.0","","99.44","","","","","","NA"
"2003-03-18 03:00","2003","03","18","03:00","-0.1","","-5.4","","67","","4","","11","","15.0","","99.44","","","","-4","","NA"
"2003-03-18 04:00","2003","03","18","04:00","-0.4","","-6.3","","64","","4","","15","","15.0","","99.47","","","","-5","","NA"
"2003-03-18 05:00","2003","03","18","05:00","-0.8","","-7.7","","59","","3","","11","","15.0","","99.49","","","","-5","","NA"
"2003-03-18 06:00","2003","03","18","06:00","-1.3","","-8.6","","58","","5","","11","","15.0","","99.54","","","","-5","","NA"
"2003-03-18 07:00","2003","03","18","07:00","-1.5","","-9.7","","54","","4","","11","","15.0","","99.65","","","","-5","","NA"
"2003-03-18 08:00","2003","03","18","08:00","-1.5","","-11.2","","48","","4","","15","","15.0","","99.74","","","","-6","","NA"
"2003-03-18 09:00","2003","03","18","09:00","-0.9","","-14.9","","34","","5","","15","","15.0","","99.83","","","","-6","","NA"
"2003-03-18 10:00","2003","03","18","10:00","-0.6","","-16.5","","29","","5","","20","","15.0","","99.87","","","","-6","","NA"
"2003-03-18 11:00","2003","03","18","11:00","0.1","","-16.8","","27","","4","","17","","15.0","","99.89","","","","","","NA"
"2003-03-18 12:00","2003","03","18","12:00","0.8","","-18.1","","23","","5","","15","","15.0","","99.87","","","","","","NA"
"2003-03-18 13:00","2003","03","18","13:00","1.5","","-18.6","","21","","5","","17","","15.0","","99.83","","","","","","NA"
"2003-03-18 14:00","2003","03","18","14:00","3.0","","-18.5","","19","","4","","17","","15.0","","99.76","","","","","","NA"
"2003-03-18 15:00","2003","03","18","15:00","3.3","","-18.9","","18","","4","","22","","15.0","","99.78","","","","","","NA"
"2003-03-18 16:00","2003","03","18","16:00","3.6","","-18.6","","18","","5","","19","","15.0","","99.76","","","","","","NA"
"2003-03-18 17:00","2003","03","18","17:00","3.2","","-18.3","","19","","4","","19","","15.0","","99.72","","","","","","NA"
"2003-03-18 18:00","2003","03","18","18:00","2.5","","-18.3","","20","","4","","17","","15.0","","99.78","","","","","","NA"
"2003-03-18 19:00","2003","03","18","19:00","0.9","","-18.5","","22","","4","","11","","15.0","","99.87","","","","","","NA"
"2003-03-18 20:00","2003","03","18","20:00","0.0","","-18.3","","24","","5","","13","","15.0","","99.96","","","","-4","","NA"
"2003-03-18 21:00","2003","03","18","21:00","-0.8","","-18.5","","25","","6","","17","","15.0","","100.01","","","","-6","","NA"
"2003-03-18 22:00","2003","03","18","22:00","-1.4","","-18.5","","26","","6","","20","","15.0","","100.07","","","","-7","","NA"
"2003-03-18 23:00","2003","03","18","23:00","-1.7","","-18.3","","27","","7","","22","","15.0","","100.07","","","","-8","","NA"
"2003-03-19 00:00","2003","03","19","00:00","-2.2","","-18.3","","28","","7","","26","","15.0","","100.10","","","","-9","","NA"
"2003-03-19 01:00","2003","03","19","01:00","-2.8","","-18.1","","30","","7","","26","","15.0","","100.12","","","","-10","","NA"
"2003-03-19 02:00","2003","03","19","02:00","-3.2","","-18.4","","30","","7","","24","","15.0","","100.14","","","","-10","","NA"
"2003-03-19 03:00","2003","03","19","03:00","-3.6","","-18.0","","32","","7","","24","","15.0","","100.10","","","","-10","","NA"
"2003-03-19 04:00","2003","03","19","04:00","-4.1","","-18.1","","33","","7","","24","","15.0","","100.08","","","","-11","","NA"
"2003-03-19 05:00","2003","03","19","05:00","-4.1","","-18.1","","33","","7","","24","","15.0","","100.10","","","","-11","","NA"
"2003-03-19 06:00","2003","03","19","06:00","-4.4","","-18.3","","33","","7","","22","","15.0","","100.12","","","","-11","","NA"
"2003-03-19 07:00","2003","03","19","07:00","-3.9","","-17.9","","33","","7","","24","","15.0","","100.14","","","","-11","","NA"
"2003-03-19 08:00","2003","03","19","08:00","-3.5","","-17.6","","33","","7","","22","","15.0","","100.17","","","","-10","","NA"
"2003-03-19 09:00","2003","03","19","09:00","-2.4","","-15.5","","36","","9","","24","","15.0","","100.17","","","","-9","","NA"
"2003-03-19 10:00","2003","03","19","10:00","-1.3","","-15.6","","33","","9","","28","","15.0","","100.12","","","","-8","","NA"
"2003-03-19 11:00","2003","03","19","11:00","0.8","","-13.4","","34","","11","","19","","15.0","","100.08","","","","","","NA"
"2003-03-19 12:00","2003","03","19","12:00","1.9","","-13.1","","32","","9","","22","","15.0","","100.03","","","","","","NA"
"2003-03-19 13:00","2003","03","19","13:00","2.4","","-11.2","","36","","12","","17","","15.0","","99.94","","","","","","NA"
"2003-03-19 14:00","2003","03","19","14:00","3.2","","-8.9","","41","","10","","11","","15.0","","99.87","","","","","","NA"
"2003-03-19 15:00","2003","03","19","15:00","3.5","","-8.3","","42","","14","","13","","15.0","","99.78","","","","","","NA"
"2003-03-19 16:00","2003","03","19","16:00"
"2003-03-19 17:00","2003","03","19","17:00","2.8","","-5.9","","53","","12","","6","","15.0","","99.69","","","","","","NA"
"2003-03-19 18:00","2003","03","19","18:00","3.0","","-7.0","","48","","9","","2","","15.0","","99.65","","","","","","NA"
"2003-03-19 19:00","2003","03","19","19:00","2.7","","-7.9","","46","","7","","9","","15.0","","99.58","","","","","","NA"
"2003-03-19 20:00","2003","03","19","20:00","2.6","","-8.2","","45","","9","","7","","15.0","","99.58","","","","","","NA"
"2003-03-19 21:00","2003","03","19","21:00","1.5","","-8.1","","49","","9","","7","","15.0","","99.60","","","","","","NA"
"2003-03-19 22:00","2003","03","19","22:00","1.7","","-9.0","","45","","9","","13","","15.0","","99.60","","","","","","NA"
"2003-03-19 23:00","2003","03","19","23:00","2.4","","-10.2","","39","","9","","17","","15.0","","99.54","","","","","","NA"
"2003-03-20 00:00","2003","03","20","00:00","3.0","","-13.0","","30","","8","","20","","15.0","","99.47","","","","","","NA"
"2003-03-20 01:00","2003","03","20","01:00","2.6","","-12.9","","31","","8","","19","","15.0","","99.44","","","","","","NA"
"2003-03-20 02:00","2003","03","20","02:00","2.4","","-13.1","","31","","8","","20","","15.0","","99.38","","","","","","NA"
"2003-03-20 03:00","2003","03","20","03:00","1.0","","-13.2","","34","","8","","22","","15.0","","99.31","","","","","","NA"
"2003-03-20 04:00","2003","03","20","04:00","0.5","","-12.6","","37","","7","","20","","15.0","","99.27","","","","","","NA"
"2003-03-20 05:00","2003","03","20","05:00","0.3","","-12.1","","39","","7","","17","","15.0","","99.22","","","","","","NA"
"2003-03-20 06:00","2003","03","20","06:00","0.0","","-10.3","","46","","7","","17","","15.0","","99.17","","","","-5","","NA"
"2003-03-20 07:00","2003","03","20","07:00","-0.8","","-4.8","","74","","7","","15","","15.0","","99.11","","","","-5","","NA"
"2003-03-20 08:00","2003","03","20","08:00","-0.9","","-2.3","","90","","8","","15","","15.0","","99.15","","","","-6","","NA"
"2003-03-20 09:00","2003","03","20","09:00","-0.2","","-1.1","","94","","8","","15","","15.0","","99.09","","","","-5","","NA"
"2003-03-20 10:00","2003","03","20","10:00","0.4","","-0.5","","94","","8","","15","","15.0","","99.04","","","","","","NA"
"2003-03-20 11:00","2003","03","20","11:00","0.7","","-0.1","","94","","7","","13","","8.0","","99.04","","","","","","NA"
"2003-03-20 12:00","2003","03","20","12:00","0.8","","0.2","","96","","8","","17","","0.8","","99.00","","","","","","NA"
"2003-03-20 13:00","2003","03","20","13:00","0.9","","0.3","","96","","9","","22","","0.0","","98.91","","","","","","NA"
"2003-03-20 14:00","2003","03","20","14:00","1.3","","0.7","","96","","9","","20","","2.9","","98.88","","","","","","NA"
"2003-03-20 15:00","2003","03","20","15:00","1.4","","0.8","","96","","9","","24","","0.2","","98.81","","","","","","NA"
"2003-03-20 16:00","2003","03","20","16:00","1.5","","0.9","","96","","9","","17","","0.0","","98.75","","","","","","NA"
"2003-03-20 17:00","2003","03","20","17:00","1.7","","1.1","","96","","9","","15","","0.0","","98.70","","","","","","NA"
"2003-03-20 18:00","2003","03","20","18:00","2.0","","1.4","","96","","9","","17","","0.0","","98.66","","","","","","NA"
"2003-03-20 19:00","2003","03","20","19:00","2.3","","1.7","","96","","7","","15","","1.6","","98.61","","","","","","NA"
"2003-03-20 20:00","2003","03","20","20:00","2.0","","1.4","","96","","7","","13","","3.2","","98.57","","","","","","NA"
"2003-03-20 21:00","2003","03","20","21:00","2.2","","1.6","","96","","7","","15","","4.0","","98.48","","","","","","NA"
"2003-03-20 22:00","2003","03","20","22:00","2.2","","1.6","","96","","6","","13","","1.1","","98.43","","","","","","NA"
"2003-03-20 23:00","2003","03","20","23:00","2.4","","1.8","","96","","6","","13","","9.7","","98.32","","","","","","NA"
"2003-03-21 00:00","2003","03","21","00:00","2.3","","1.7","","96","","7","","11","","15.0","","98.30","","","","","","NA"
"2003-03-21 01:00","2003","03","21","01:00","2.4","","1.7","","95","","6","","9","","15.0","","98.30","","","","","","NA"
"2003-03-21 02:00","2003","03","21","02:00","2.5","","1.9","","96","","7","","13","","15.0","","98.21","","","","","","NA"
"2003-03-21 03:00","2003","03","21","03:00","2.0","","1.4","","96","","7","","15","","0.8","","98.18","","","","","","NA"
"2003-03-21 04:00","2003","03","21","04:00","1.6","","1.0","","96","","8","","13","","0.0","","98.23","","","","","","NA"
"2003-03-21 05:00","2003","03","21","05:00","2.1","","1.5","","96","","7","","15","","0.3","","98.21","","","","","","NA"
"2003-03-21 06:00","2003","03","21","06:00","1.6","","1.0","","96","","9","","13","","0.0","","98.18","","","","","","NA"
"2003-03-21 07:00","2003","03","21","07:00","1.8","","1.2","","96","","6","","13","","2.3","","98.14","","","","","","NA"
"2003-03-21 08:00","2003","03","21","08:00","1.9","","1.3","","96","","9","","11","","15.0","","98.18","","","","","","NA"
"2003-03-21 09:00","2003","03","21","09:00","1.7","","1.1","","96","","10","","7","","4.0","","98.21","","","","","","NA"
"2003-03-21 10:00","2003","03","21","10:00","1.6","","1.0","","96","","13","","13","","0.6","","98.27","","","","","","NA"
"2003-03-21 11:00","2003","03","21","11:00","1.9","","1.3","","96","","9","","13","","4.8","","98.25","","","","","","NA"
"2003-03-21 12:00","2003","03","21","12:00","2.3","","1.7","","96","","9","","19","","0.0","","98.21","","","","","","NA"
"2003-03-21 13:00","2003","03","21","13:00","1.8","","1.2","","96","","9","","13","","0.0","","98.18","","","","","","NA"
"2003-03-21 14:00","2003","03","21","14:00","2.1","","1.4","","95","","9","","11","","1.3","","98.10","","","","","","NA"
"2003-03-21 15:00","2003","03","21","15:00","4.4","","3.2","","92","","8","","17","","15.0","","98.12","","","","","","NA"
"2003-03-21 16:00","2003","03","21","16:00","3.7","","2.2","","90","","9","","13","","15.0","","98.12","","","","","","NA"
"2003-03-21 17:00","2003","03","21","17:00","3.7","","2.4","","91","","10","","11","","15.0","","98.14","","","","","","NA"
"2003-03-21 18:00","2003","03","21","18:00","5.4","","4.2","","92","","6","","11","","15.0","","98.16","","","","","","NA"
"2003-03-21 19:00","2003","03","21","19:00","5.5","","4.3","","92","","5","","11","","15.0","","98.16","","","","","","NA"
"2003-03-21 20:00","2003","03","21","20:00","5.2","","3.7","","90","","7","","13","","15.0","","98.18","","","","","","NA"
"2003-03-21 21:00","2003","03","21","21:00","5.1","","3.6","","90","","7","","17","","15.0","","98.16","","","","","","NA"
"2003-03-21 22:00","2003","03","21","22:00","2.1","","1.2","","94","","10","","15","","6.4","","98.16","","","","","","NA"
"2003-03-21 23:00","2003","03","21","23:00","3.9","","3.0","","94","","8","","13","","12.9","","98.16","","","","","","NA"
"2003-03-22 00:00","2003","03","22","00:00","2.5","","1.8","","95","","8","","7","","0.2","","98.16","","","","","","NA"
"2003-03-22 01:00","2003","03","22","01:00","2.6","","1.9","","95","","15","","13","","0.0","","98.19","","","","","","NA"
"2003-03-22 02:00","2003","03","22","02:00","2.5","","1.8","","95","","2","","4","","1.6","","98.16","","","","","","NA"
"2003-03-22 03:00","2003","03","22","03:00","0.9","","0.2","","95","","14","","4","","0.0","","98.19","","","","","","NA"
"2003-03-22 04:00","2003","03","22","04:00","1.5","","0.8","","95","","29","","17","","15.0","","98.21","","","","","","NA"
"2003-03-22 05:00","2003","03","22","05:00","1.2","","0.5","","95","","28","","15","","12.9","","98.27","","","","","","NA"
"2003-03-22 06:00","2003","03","22","06:00","1.3","","0.6","","95","","27","","17","","11.3","","98.28","","","","","","NA"
"2003-03-22 07:00","2003","03","22","07:00","1.2","","0.5","","95","","27","","17","","15.0","","98.34","","","","","","NA"
"2003-03-22 08:00","2003","03","22","08:00","1.3","","0.6","","95","","27","","13","","15.0","","98.36","","","","","","NA"
"2003-03-22 09:00","2003","03","22","09:00","0.6","","-0.2","","94","","23","","17","","15.0","","98.37","","","","","","NA"
"2003-03-22 10:00","2003","03","22","10:00","1.7","","0.6","","92","","27","","15","","15.0","","98.37","","","","","","NA"
"2003-03-22 11:00","2003","03","22","11:00","1.9","","0.4","","90","","25","","9","","15.0","","98.39","","","","","","NA"
"2003-03-22 12:00","2003","03","22","12:00","2.1","","0.5","","89","","27","","13","","15.0","","98.41","","","","","","NA"
"2003-03-22 13:00","2003","03","22","13:00","1.7","","0.1","","89","","27","","19","","15.0","","98.41","","","","","","NA"
"2003-03-22 14:00","2003","03","22","14:00","1.8","","0.2","","89","","27","","17","","15.0","","98.41","","","","","","NA"
"2003-03-22 15:00","2003","03","22","15:00","2.0","","0.4","","89","","28","","13","","15.0","","98.45","","","","","","NA"
"2003-03-22 16:00","2003","03","22","16:00","1.8","","0.3","","90","","27","","15","","15.0","","98.50","","","","","","NA"
"2003-03-22 17:00","2003","03","22","17:00","2.0","","0.5","","90","","30","","9","","15.0","","98.55","","","","","","NA"
"2003-03-22 18:00","2003","03","22","18:00","2.1","","0.6","","90","","31","","9","","15.0","","98.63","","","","","","NA"
"2003-03-22 19:00","2003","03","22","19:00","3.1","","1.6","","90","","33","","7","","15.0","","98.66","","","","","","NA"
"2003-03-22 20:00","2003","03","22","20:00","2.7","","1.2","","90","","32","","7","","15.0","","98.73","","","","","","NA"
"2003-03-22 21:00","2003","03","22","21:00","2.7","","1.2","","90","","33","","9","","15.0","","98.77","","","","","","NA"
"2003-03-22 22:00","2003","03","22","22:00","1.7","","0.7","","93","","32","","11","","12.9","","98.81","","","","","","NA"
"2003-03-22 23:00","2003","03","22","23:00","1.2","","0.2","","93","","31","","15","","15.0","","98.84","","","","","","NA"
"2003-03-23 00:00","2003","03","23","00:00","0.3","","-0.8","","92","","32","","15","","0.0","","98.86","","","","","","NA"
"2003-03-23 01:00","2003","03","23","01:00","0.2","","-0.9","","92","","31","","17","","0.0","","98.88","","","","","","NA"
"2003-03-23 02:00","2003","03","23","02:00","-0.1","","-1.2","","92","","30","","11","","0.0","","98.88","","","","-4","","NA"
"2003-03-23 03:00","2003","03","23","03:00","-0.1","","-1.2","","92","","32","","19","","0.0","","98.86","","","","-5","","NA"
"2003-03-23 04:00","2003","03","23","04:00","-0.4","","-1.5","","92","","30","","15","","0.0","","98.90","","","","-5","","NA"
"2003-03-23 05:00","2003","03","23","05:00","-0.4","","-1.5","","92","","30","","13","","0.0","","98.91","","","","-5","","NA"
"2003-03-23 06:00","2003","03","23","06:00","-0.6","","-1.7","","92","","31","","15","","0.0","","98.91","","","","-5","","NA"
"2003-03-23 07:00","2003","03","23","07:00","-0.7","","-1.8","","92","","31","","11","","0.0","","98.97","","","","-4","","NA"
"2003-03-23 08:00","2003","03","23","08:00","-0.8","","-1.9","","92","","31","","13","","0.0","","99.02","","","","-5","","NA"
"2003-03-23 09:00","2003","03","23","09:00","-0.5","","-1.6","","92","","24","","4","","0.0","","99.02","","","","-2","","NA"
"2003-03-23 10:00","2003","03","23","10:00","0.0","","-1.1","","92","","27","","9","","0.0","","99.06","","","","-3","","NA"
"2003-03-23 11:00","2003","03","23","11:00","1.2","","0.2","","93","","29","","7","","0.5","","99.08","","","","","","NA"
"2003-03-23 12:00","2003","03","23","12:00","2.5","","1.5","","93","","28","","4","","8.0","","99.06","","","","","","NA"
"2003-03-23 13:00","2003","03","23","13:00","0.8","","-0.4","","92","","18","","9","","0.0","","99.04","","","","","","NA"
"2003-03-23 14:00","2003","03","23","14:00","0.6","","-0.6","","92","","14","","4","","0.0","","99.02","","","","","","NA"
"2003-03-23 15:00","2003","03","23","15:00","0.6","","-0.6","","92","","9","","6","","0.0","","98.99","","","","","","NA"
"2003-03-23 16:00","2003","03","23","16:00","0.7","","-0.5","","92","","9","","4","","1.9","","99.02","","","","","","NA"
"2003-03-23 17:00","2003","03","23","17:00","1.1","","-0.1","","92","","17","","4","","12.9","","99.04","","","","","","NA"
"2003-03-23 18:00","2003","03","23","18:00","1.6","","0.5","","92","","21","","7","","15.0","","99.06","","","","","","NA"
"2003-03-23 19:00","2003","03","23","19:00","1.3","","0.2","","92","","22","","4","","9.7","","99.09","","","","","","NA"
"2003-03-23 20:00","2003","03","23","20:00","0.4","","-0.5","","94","","23","","7","","0.0","","99.13","","","","","","NA"
"2003-03-23 21:00","2003","03","23","21:00","0.7","","-0.2","","94","","19","","6","","6.4","","99.13","","","","","","NA"
"2003-03-23 22:00","2003","03","23","22:00","0.3","","-0.6","","94","","21","","2","","1.6","","99.13","","","","","","NA"
"2003-03-23 23:00","2003","03","23","23:00","0.9","","0.1","","94","","29","","4","","0.0","","99.11","","","","","","NA"
"2003-03-24 00:00","2003","03","24","00:00","0.7","","-0.2","","94","","4","","4","","0.0","","99.09","","","","","","NA"
"2003-03-24 01:00","2003","03","24","01:00","0.2","","-0.7","","94","","13","","9","","0.0","","99.08","","","","","","NA"
"2003-03-24 02:00","2003","03","24","02:00","0.5","","-0.4","","94","","9","","7","","0.0","","99.06","","","","","","NA"
"2003-03-24 03:00","2003","03","24","03:00","0.0","","-0.9","","94","","9","","11","","0.0","","99.04","","","","-4","","NA"
"2003-03-24 04:00","2003","03","24","04:00","-0.1","","-1.0","","94","","7","","11","","0.0","","99.02","","","","-4","","NA"
"2003-03-24 05:00","2003","03","24","05:00","0.0","","-0.9","","94","","8","","11","","8.0","","99.00","","","","-4","","NA"
"2003-03-24 06:00","2003","03","24","06:00","0.0","","-0.9","","94","","8","","11","","12.9","","99.00","","","","-4","","NA"
"2003-03-24 07:00","2003","03","24","07:00","0.0","","-0.9","","94","","8","","15","","11.3","","99.00","","","","-4","","NA"
"2003-03-24 08:00","2003","03","24","08:00","0.3","","-0.6","","94","","9","","15","","6.4","","99.00","","","","","","NA"
"2003-03-24 09:00","2003","03","24","09:00","0.9","","-0.2","","92","","13","","15","","7.2","","98.99","","","","","","NA"
"2003-03-24 10:00","2003","03","24","10:00","1.4","","-0.5","","87","","14","","17","","11.3","","99.02","","","","","","NA"
"2003-03-24 11:00","2003","03","24","11:00","1.6","","-0.9","","83","","14","","17","","15.0","","98.97","","","","","","NA"
"2003-03-24 12:00","2003","03","24","12:00","1.8","","-1.7","","78","","11","","13","","15.0","","98.91","","","","","","NA"
"2003-03-24 13:00","2003","03","24","13:00","1.9","","-1.6","","78","","9","","15","","15.0","","98.81","","","","","","NA"
"2003-03-24 14:00","2003","03","24","14:00","1.4","","-1.1","","83","","9","","17","","15.0","","98.72","","","","","","NA"
"2003-03-24 15:00","2003","03","24","15:00","2.2","","-0.6","","82","","8","","13","","15.0","","98.63","","","","","","NA"
"2003-03-24 16:00","2003","03","24","16:00","3.0","","0.1","","81","","8","","9","","15.0","","98.54","","","","","","NA"
"2003-03-24 17:00","2003","03","24","17:00","3.2","","0.3","","81","","8","","15","","15.0","","98.48","","","","","","NA"
"2003-03-24 18:00","2003","03","24","18:00","3.3","","1.7","","89","","6","","13","","9.7","","98.43","","","","","","NA"
"2003-03-24 19:00","2003","03","24","19:00","3.8","","2.2","","89","","7","","15","","9.7","","98.37","","","","","","NA"
"2003-03-24 20:00","2003","03","24","20:00","4.1","","2.5","","89","","5","","11","","8.0","","98.41","","","","","","NA"
"2003-03-24 21:00","2003","03","24","21:00","4.3","","3.1","","92","","4","","7","","6.4","","98.43","","","","","","NA"
"2003-03-24 22:00","2003","03","24","22:00","3.5","","2.5","","93","","9","","13","","3.2","","98.30","","","","","","NA"
"2003-03-24 23:00","2003","03","24","23:00","3.8","","2.6","","92","","9","","9","","9.7","","98.28","","","","","","NA"
"2003-03-25 00:00","2003","03","25","00:00","3.2","","2.0","","92","","4","","6","","5.6","","98.25","","","","","","NA"
"2003-03-25 01:00","2003","03","25","01:00","3.2","","2.3","","94","","9","","6","","1.3","","98.25","","","","","","NA"
"2003-03-25 02:00","2003","03","25","02:00","2.6","","1.7","","94","","8","","7","","0.0","","98.23","","","","","","NA"
"2003-03-25 03:00","2003","03","25","03:00","3.0","","2.1","","94","","7","","7","","5.6","","98.18","","","","","","NA"
"2003-03-25 04:00","2003","03","25","04:00","4.0","","3.1","","94","","29","","11","","7.2","","98.19","","","","","","NA"
"2003-03-25 05:00","2003","03","25","05:00","3.9","","1.5","","84","","27","","11","","15.0","","98.21","","","","","","NA"
"2003-03-25 06:00","2003","03","25","06:00","3.5","","1.2","","85","","28","","11","","15.0","","98.25","","","","","","NA"
"2003-03-25 07:00","2003","03","25","07:00","2.9","","0.1","","82","","30","","11","","15.0","","98.32","","","","","","NA"
"2003-03-25 08:00","2003","03","25","08:00","3.8","","-1.6","","68","","28","","13","","15.0","","98.37","","","","","","NA"
"2003-03-25 09:00","2003","03","25","09:00","5.2","","-3.2","","55","","27","","13","","15.0","","98.41","","","","","","NA"
"2003-03-25 10:00","2003","03","25","10:00","5.9","","-5.5","","44","","27","","26","","15.0","","98.41","","","","","","NA"
"2003-03-25 11:00","2003","03","25","11:00","6.2","","-5.5","","43","","27","","35","","15.0","","98.45","","","","","","NA"
"2003-03-25 12:00","2003","03","25","12:00","6.2","","-4.9","","45","","29","","32","","15.0","","98.48","","","","","","NA"
"2003-03-25 13:00","2003","03","25","13:00","5.7","","-5.1","","46","","28","","35","","15.0","","98.48","","","","","","NA"
"2003-03-25 14:00","2003","03","25","14:00","5.9","","-5.8","","43","","27","","35","","15.0","","98.48","","","","","","NA"
"2003-03-25 15:00","2003","03","25","15:00"
"2003-03-25 16:00","2003","03","25","16:00","5.6","","-6.1","","43","","27","","33","","15.0","","98.54","","","","","","NA"
"2003-03-25 17:00","2003","03","25","17:00","5.4","","-6.3","","43","","27","","37","","15.0","","98.59","","","","","","NA"
"2003-03-25 18:00","2003","03","25","18:00","4.1","","-6.0","","48","","27","","28","","15.0","","98.68","","","","","","NA"
"2003-03-25 19:00","2003","03","25","19:00","2.8","","-5.0","","56","","27","","26","","15.0","","98.75","","","","","","NA"
"2003-03-25 20:00","2003","03","25","20:00","2.8","","-4.7","","58","","29","","20","","15.0","","98.81","","","","","","NA"
"2003-03-25 21:00","2003","03","25","21:00","2.9","","-4.9","","56","","31","","17","","15.0","","98.81","","","","","","NA"
"2003-03-25 22:00","2003","03","25","22:00","2.2","","-5.5","","57","","31","","11","","15.0","","98.79","","","","","","NA"
"2003-03-25 23:00","2003","03","25","23:00","1.9","","-5.3","","59","","30","","13","","15.0","","98.82","","","","","","NA"
"2003-03-26 00:00","2003","03","26","00:00","1.5","","-5.3","","61","","27","","11","","15.0","","98.90","","","","","","NA"
"2003-03-26 01:00","2003","03","26","01:00","1.5","","-3.8","","68","","27","","13","","15.0","","98.90","","","","","","NA"
"2003-03-26 02:00","2003","03","26","02:00","1.2","","-2.8","","75","","31","","9","","15.0","","98.88","","","","","","NA"
"2003-03-26 03:00","2003","03","26","03:00","1.6","","-3.4","","69","","30","","13","","15.0","","98.86","","","","","","NA"
"2003-03-26 04:00","2003","03","26","04:00","1.1","","-3.1","","74","","27","","20","","15.0","","98.86","","","","","","NA"
"2003-03-26 05:00","2003","03","26","05:00","0.8","","-3.2","","75","","27","","17","","15.0","","98.90","","","","","","NA"
"2003-03-26 06:00","2003","03","26","06:00","0.5","","-2.8","","78","","29","","15","","15.0","","98.95","","","","","","NA"
"2003-03-26 07:00","2003","03","26","07:00","0.3","","-2.5","","81","","28","","13","","15.0","","98.97","","","","","","NA"
"2003-03-26 08:00","2003","03","26","08:00","0.5","","-2.3","","81","","27","","19","","15.0","","99.04","","","","","","NA"
"2003-03-26 09:00","2003","03","26","09:00","1.5","","-3.5","","69","","27","","20","","15.0","","99.04","","","","","","NA"
"2003-03-26 10:00","2003","03","26","10:00","2.5","","-4.6","","59","","27","","22","","15.0","","99.02","","","","","","NA"
"2003-03-26 11:00","2003","03","26","11:00","3.2","","-5.3","","54","","27","","22","","15.0","","99.04","","","","","","NA"
"2003-03-26 12:00","2003","03","26","12:00","3.4","","-6.7","","48","","28","","24","","15.0","","99.02","","","","","","NA"
"2003-03-26 13:00","2003","03","26","13:00","3.6","","-9.2","","39","","27","","32","","15.0","","99.00","","","","","","NA"
"2003-03-26 14:00","2003","03","26","14:00","3.5","","-8.6","","41","","28","","28","","15.0","","99.00","","","","","","NA"
"2003-03-26 15:00","2003","03","26","15:00","3.4","","-9.3","","39","","27","","28","","15.0","","99.00","","","","","","NA"
"2003-03-26 16:00","2003","03","26","16:00","3.3","","-9.4","","39","","27","","28","","15.0","","99.06","","","","","","NA"
"2003-03-26 17:00","2003","03","26","17:00","3.2","","-10.2","","37","","27","","30","","15.0","","99.06","","","","","","NA"
"2003-03-26 18:00","2003","03","26","18:00","3.0","","-9.7","","39","","28","","26","","15.0","","99.08","","","","","","NA"
"2003-03-26 19:00","2003","03","26","19:00","1.8","","-9.2","","44","","27","","19","","15.0","","99.11","","","","","","NA"
"2003-03-26 20:00","2003","03","26","20:00","1.1","","-8.3","","49","","30","","11","","15.0","","99.11","","","","","","NA"
"2003-03-26 21:00","2003","03","26","21:00","1.0","","-8.6","","49","","30","","13","","15.0","","99.15","","","","","","NA"
"2003-03-26 22:00","2003","03","26","22:00","0.3","","-7.5","","56","","30","","9","","15.0","","99.17","","","","","","NA"
"2003-03-26 23:00","2003","03","26","23:00","-0.3","","-6.8","","61","","28","","9","","15.0","","99.18","","","","-3","","NA"
"2003-03-27 00:00","2003","03","27","00:00","-1.4","","-5.7","","72","","29","","9","","15.0","","99.22","","","","-5","","NA"
"2003-03-27 01:00","2003","03","27","01:00","-1.4","","-5.3","","75","","30","","11","","15.0","","99.26","","","","-5","","NA"
"2003-03-27 02:00","2003","03","27","02:00","-1.6","","-5.0","","78","","28","","11","","15.0","","99.27","","","","-5","","NA"
"2003-03-27 03:00","2003","03","27","03:00","-1.9","","-5.3","","78","","31","","11","","15.0","","99.31","","","","-6","","NA"
"2003-03-27 04:00","2003","03","27","04:00","-2.5","","-5.7","","79","","34","","6","","15.0","","99.33","","","","-5","","NA"
"2003-03-27 05:00","2003","03","27","05:00","-2.7","","-4.7","","86","","31","","4","","15.0","","99.38","","","","-4","","NA"
"2003-03-27 06:00","2003","03","27","06:00","-2.7","","-4.5","","87","","31","","7","","15.0","","99.47","","","","-6","","NA"
"2003-03-27 07:00","2003","03","27","07:00","-2.8","","-6.2","","77","","","","0","","15.0","","99.54","","","","","","NA"
"2003-03-27 08:00","2003","03","27","08:00","-2.4","","-7.4","","68","","12","","4","","15.0","","99.65","","","","-4","","NA"
"2003-03-27 09:00","2003","03","27","09:00","-0.6","","-6.7","","63","","12","","4","","15.0","","99.67","","","","-2","","NA"
"2003-03-27 10:00","2003","03","27","10:00","-0.8","","-5.1","","73","","19","","7","","15.0","","99.72","","","","-3","","NA"
"2003-03-27 11:00","2003","03","27","11:00","-0.5","","-4.1","","77","","22","","11","","15.0","","99.78","","","","-4","","NA"
"2003-03-27 12:00","2003","03","27","12:00","-0.1","","-3.9","","76","","18","","7","","15.0","","99.78","","","","-3","","NA"
"2003-03-27 13:00","2003","03","27","13:00","0.2","","-4.0","","73","","19","","6","","15.0","","99.78","","","","","","NA"
"2003-03-27 14:00","2003","03","27","14:00","1.4","","-3.4","","70","","14","","4","","15.0","","99.72","","","","","","NA"
"2003-03-27 15:00","2003","03","27","15:00","0.4","","-2.9","","78","","18","","6","","15.0","","99.72","","","","","","NA"
"2003-03-27 16:00","2003","03","27","16:00","1.6","","-2.6","","74","","9","","4","","15.0","","99.72","","","","","","NA"
"2003-03-27 17:00","2003","03","27","17:00","0.8","","-3.4","","73","","9","","6","","15.0","","99.71","","","","","","NA"
"2003-03-27 18:00","2003","03","27","18:00","1.0","","-3.9","","70","","7","","6","","15.0","","99.72","","","","","","NA"
"2003-03-27 19:00","2003","03","27","19:00","1.8","","-8.4","","47","","5","","4","","15.0","","99.72","","","","","","NA"
"2003-03-27 20:00","2003","03","27","20:00","2.1","","-9.6","","42","","5","","6","","15.0","","99.74","","","","","","NA"
"2003-03-27 21:00","2003","03","27","21:00","2.5","","-8.9","","43","","6","","4","","15.0","","99.76","","","","","","NA"
"2003-03-27 22:00","2003","03","27","22:00","1.5","","-6.0","","57","","9","","9","","15.0","","99.76","","","","","","NA"
"2003-03-27 23:00","2003","03","27","23:00","2.6","","-4.7","","59","","9","","13","","15.0","","99.71","","","","","","NA"
"2003-03-28 00:00","2003","03","28","00:00","3.3","","-5.7","","52","","8","","17","","15.0","","99.67","","","","","","NA"
"2003-03-28 01:00","2003","03","28","01:00","3.1","","-3.3","","63","","10","","28","","15.0","","99.58","","","","","","NA"
"2003-03-28 02:00","2003","03","28","02:00","1.7","","-0.6","","85","","9","","30","","15.0","","99.47","","","","","","NA"
"2003-03-28 03:00","2003","03","28","03:00","1.9","","0.6","","91","","7","","26","","15.0","","99.27","","","","","","NA"
"2003-03-28 04:00","2003","03","28","04:00","1.4","","-0.3","","88","","9","","30","","15.0","","99.20","","","","","","NA"
"2003-03-28 05:00","2003","03","28","05:00","1.7","","-1.1","","82","","7","","28","","15.0","","99.04","","","","","","NA"
"2003-03-28 06:00","2003","03","28","06:00","1.5","","-3.1","","71","","8","","30","","15.0","","98.97","","","","","","NA"
"2003-03-28 07:00","2003","03","28","07:00","2.5","","-3.1","","67","","7","","24","","15.0","","98.97","","","","","","NA"
"2003-03-28 08:00","2003","03","28","08:00","1.5","","-1.7","","79","","9","","26","","15.0","","98.86","","","","","","NA"
"2003-03-28 09:00","2003","03","28","09:00","1.7","","0.8","","94","","9","","30","","15.0","","98.73","","","","","","NA"
"2003-03-28 10:00","2003","03","28","10:00","2.1","","1.2","","94","","9","","43","","15.0","","98.70","","","","","","NA"
"2003-03-28 11:00","2003","03","28","11:00","1.7","","1.3","","97","","12","","35","","9.7","","98.68","","","","","","NA"
"2003-03-28 12:00","2003","03","28","12:00","2.1","","1.7","","97","","9","","33","","15.0","","98.43","","","","","","NA"
"2003-03-28 13:00","2003","03","28","13:00","2.2","","1.6","","96","","9","","30","","15.0","","98.37","","","","","","NA"
"2003-03-28 14:00","2003","03","28","14:00","2.8","","1.5","","91","","9","","26","","15.0","","98.27","","","","","","NA"
"2003-03-28 15:00","2003","03","28","15:00","3.1","","1.3","","88","","7","","15","","15.0","","98.10","","","","","","NA"
"2003-03-28 16:00","2003","03","28","16:00","3.3","","1.5","","88","","13","","33","","15.0","","97.98","","","","","","NA"
"2003-03-28 17:00","2003","03","28","17:00","3.1","","1.5","","89","","9","","17","","15.0","","97.92","","","","","","NA"
"2003-03-28 18:00","2003","03","28","18:00","3.7","","2.1","","89","","9","","17","","15.0","","97.83","","","","","","NA"
"2003-03-28 19:00","2003","03","28","19:00","4.3","","3.0","","91","","3","","6","","9.7","","97.78","","","","","","NA"
"2003-03-28 20:00","2003","03","28","20:00","4.7","","3.7","","93","","14","","7","","6.4","","97.85","","","","","","NA"
"2003-03-28 21:00","2003","03","28","21:00","5.9","","5.0","","94","","17","","11","","0.0","","97.76","","","","","","NA"
"2003-03-28 22:00","2003","03","28","22:00","3.7","","2.8","","94","","18","","24","","","M","97.62","","","","","","NA"
"2003-03-28 23:00","2003","03","28","23:00","3.7","","2.8","","94","","24","","15","","0.0","","97.67","","","","","","NA"
"2003-03-29 00:00","2003","03","29","00:00","3.5","","2.6","","94","","20","","13","","0.0","","97.69","","","","","","NA"
"2003-03-29 01:00","2003","03","29","01:00","5.1","","4.2","","94","","23","","22","","15.0","","97.67","","","","","","NA"
"2003-03-29 02:00","2003","03","29","02:00","3.6","","2.7","","94","","27","","20","","15.0","","97.85","","","","","","NA"
"2003-03-29 03:00","2003","03","29","03:00","2.9","","1.3","","89","","24","","24","","15.0","","97.83","","","","","","NA"
"2003-03-29 04:00","2003","03","29","04:00","2.4","","0.2","","85","","24","","24","","15.0","","97.83","","","","","","NA"
"2003-03-29 05:00","2003","03","29","05:00","1.6","","-0.9","","83","","27","","26","","15.0","","98.05","","","","","","NA"
"2003-03-29 06:00","2003","03","29","06:00","0.3","","-3.2","","77","","27","","26","","15.0","","98.14","","","","","","NA"
"2003-03-29 07:00","2003","03","29","07:00","-0.8","","-4.2","","78","","27","","39","","15.0","","98.19","","","","-8","","NA"
"2003-03-29 08:00","2003","03","29","08:00","-1.3","","-5.2","","75","","27","","33","","15.0","","98.30","","","","-8","","NA"
"2003-03-29 09:00","2003","03","29","09:00","-1.3","","-6.9","","66","","28","","35","","15.0","","98.37","","","","-9","","NA"
"2003-03-29 10:00","2003","03","29","10:00","-1.5","","-7.1","","66","","28","","32","","15.0","","98.50","","","","-9","","NA"
"2003-03-29 11:00","2003","03","29","11:00","-1.5","","-7.1","","66","","28","","30","","15.0","","98.59","","","","-8","","NA"
"2003-03-29 12:00","2003","03","29","12:00","-1.5","","-7.1","","66","","28","","30","","15.0","","98.59","","","","-8","","NA"
"2003-03-29 13:00","2003","03","29","13:00","-0.9","","-8.9","","55","","28","","30","","15.0","","98.72","","","","-8","","NA"
"2003-03-29 14:00","2003","03","29","14:00","-0.7","","-8.2","","57","","27","","28","","15.0","","98.81","","","","-7","","NA"
"2003-03-29 15:00","2003","03","29","15:00","-1.5","","-6.5","","69","","28","","26","","11.3","","98.91","","","","-8","","NA"
"2003-03-29 16:00","2003","03","29","16:00","-1.6","","-4.5","","81","","28","","28","","2.9","","98.99","","","","-8","","NA"
"2003-03-29 17:00","2003","03","29","17:00","-1.8","","-4.1","","84","","27","","22","","8.0","","99.08","","","","-8","","NA"
"2003-03-29 18:00","2003","03","29","18:00","-1.8","","-3.8","","86","","28","","19","","1.4","","99.20","","","","-7","","NA"
"2003-03-29 19:00","2003","03","29","19:00","-2.9","","-5.8","","80","","35","","13","","2.3","","99.31","","","","-8","","NA"
"2003-03-29 20:00","2003","03","29","20:00","-3.2","","-6.6","","77","","34","","13","","12.9","","99.44","","","","-8","","NA"
"2003-03-29 21:00","2003","03","29","21:00","-3.3","","-6.5","","78","","34","","9","","15.0","","99.51","","","","-7","","NA"
"2003-03-29 22:00","2003","03","29","22:00","-3.3","","-5.9","","82","","32","","15","","0.6","","99.54","","","","-8","","NA"
"2003-03-29 23:00","2003","03","29","23:00","-4.2","","-9.5","","67","","36","","17","","15.0","","99.63","","","","-10","","NA"
"2003-03-30 00:00","2003","03","30","00:00","-4.7","","-10.0","","66","","36","","17","","15.0","","99.71","","","","-11","","NA"
"2003-03-30 01:00","2003","03","30","01:00","-5.3","","-10.9","","65","","35","","19","","15.0","","99.78","","","","-12","","NA"
"2003-03-30 02:00","2003","03","30","02:00","-5.9","","-12.1","","62","","36","","13","","15.0","","99.81","","","","-11","","NA"
"2003-03-30 03:00","2003","03","30","03:00","-6.5","","-15.1","","50","","","M","17","","15.0","","99.81","","","","-13","","NA"
"2003-03-30 04:00","2003","03","30","04:00","-7.1","","-15.9","","49","","1","","11","","15.0","","99.85","","","","-12","","NA"
"2003-03-30 05:00","2003","03","30","05:00","-7.8","","-16.3","","50","","36","","11","","15.0","","99.89","","","","-13","","NA"
"2003-03-30 06:00","2003","03","30","06:00","-8.4","","-16.1","","54","","2","","4","","15.0","","99.98","","","","-11","","NA"
"2003-03-30 07:00","2003","03","30","07:00","-7.8","","-17.0","","48","","33","","2","","15.0","","100.01","","","","-9","","NA"
"2003-03-30 08:00","2003","03","30","08:00","-7.8","","-17.0","","48","","33","","2","","15.0","","100.01","","","","-9","","NA"
"2003-03-30 09:00","2003","03","30","09:00","-5.4","","-18.5","","35","","2","","7","","15.0","","99.99","","","","-9","","NA"
"2003-03-30 10:00","2003","03","30","10:00","-4.6","","-18.9","","32","","3","","17","","15.0","","99.96","","","","-10","","NA"
"2003-03-30 11:00","2003","03","30","11:00","-3.5","","-19.1","","29","","36","","13","","15.0","","99.94","","","","-8","","NA"
"2003-03-30 12:00","2003","03","30","12:00","-2.9","","-19.4","","27","","2","","13","","15.0","","99.90","","","","-8","","NA"
"2003-03-30 13:00","2003","03","30","13:00","-1.7","","-18.8","","26","","35","","13","","15.0","","99.83","","","","-6","","NA"
"2003-03-30 14:00","2003","03","30","14:00","-1.0","","-19.1","","24","","35","","19","","15.0","","99.74","","","","-6","","NA"
"2003-03-30 15:00","2003","03","30","15:00","-1.4","","-18.5","","26","","32","","13","","15.0","","99.74","","","","-6","","NA"
"2003-03-30 16:00","2003","03","30","16:00","-0.8","","-18.5","","25","","30","","19","","15.0","","99.67","","","","-6","","NA"
"2003-03-30 17:00","2003","03","30","17:00","-1.7","","-15.2","","35","","28","","22","","15.0","","99.67","","","","-8","","NA"
"2003-03-30 18:00","2003","03","30","18:00","-1.7","","-13.6","","40","","28","","17","","15.0","","99.67","","","","-7","","NA"
"2003-03-30 19:00","2003","03","30","19:00","-2.5","","-14.3","","40","","29","","13","","15.0","","99.67","","","","-7","","NA"
"2003-03-30 20:00","2003","03","30","20:00","-3.1","","-14.3","","42","","31","","9","","15.0","","99.67","","","","-7","","NA"
"2003-03-30 21:00","2003","03","30","21:00","-3.5","","-14.1","","44","","31","","6","","15.0","","99.65","","","","-6","","NA"
"2003-03-30 22:00","2003","03","30","22:00","-3.6","","-14.2","","44","","31","","6","","15.0","","99.58","","","","-6","","NA"
"2003-03-30 23:00","2003","03","30","23:00","-3.8","","-12.5","","51","","26","","4","","15.0","","99.56","","","","-5","","NA"
"2003-03-31 00:00","2003","03","31","00:00","-4.0","","-9.5","","66","","3","","4","","1.6","","99.54","","","","-6","","NA"
"2003-03-31 01:00","2003","03","31","01:00","-4.6","","-6.1","","89","","8","","6","","0.3","","99.51","","","","-7","","NA"
"2003-03-31 02:00","2003","03","31","02:00","-6.4","","-7.4","","93","","9","","30","","0.0","","99.45","","","","-15","","NA"
"2003-03-31 03:00","2003","03","31","03:00","-8.1","","-9.5","","90","","8","","26","","0.0","","99.45","","","","-16","","NA"
"2003-03-31 04:00","2003","03","31","04:00","-8.3","","-10.3","","85","","5","","13","","0.5","","99.45","","","","-14","","NA"
"2003-03-31 05:00","2003","03","31","05:00","-8.6","","-11.1","","82","","5","","15","","4.0","","99.45","","","","-15","","NA"
"2003-03-31 06:00","2003","03","31","06:00","-8.9","","-11.5","","81","","5","","9","","7.2","","99.45","","","","-14","","NA"
"2003-03-31 07:00","2003","03","31","07:00","-8.9","","-12.8","","73","","4","","7","","15.0","","99.51","","","","-13","","NA"
"2003-03-31 08:00","2003","03","31","08:00","-8.9","","-14.9","","62","","3","","15","","15.0","","99.54","","","","-15","","NA"
"2003-03-31 09:00","2003","03","31","09:00","-8.2","","-17.1","","49","","3","","7","","15.0","","99.58","","","","-12","","NA"
"2003-03-31 10:00","2003","03","31","10:00","-8.1","","-18.3","","44","","4","","15","","15.0","","99.58","","","","-14","","NA"
"2003-03-31 11:00","2003","03","31","11:00","-6.7","","-18.7","","38","","36","","11","","15.0","","99.56","","","","-12","","NA"
"2003-03-31 12:00","2003","03","31","12:00","-6.2","","-19.9","","33","","32","","20","","15.0","","99.51","","","","-13","","NA"
"2003-03-31 13:00","2003","03","31","13:00","-5.2","","-20.2","","30","","34","","11","","15.0","","99.51","","","","-10","","NA"
"2003-03-31 14:00","2003","03","31","14:00","-5.3","","-20.7","","29","","30","","13","","15.0","","99.45","","","","-10","","NA"
"2003-03-31 15:00","2003","03","31","15:00","-6.1","","-19.9","","33","","24","","19","","15.0","","99.40","","","","-13","","NA"
"2003-03-31 16:00","2003","03","31","16:00","-5.5","","-19.0","","34","","23","","26","","15.0","","99.35","","","","-13","","NA"
"2003-03-31 17:00","2003","03","31","17:00","-4.3","","-18.6","","32","","27","","19","","15.0","","99.33","","","","-10","","NA"
"2003-03-31 18:00","2003","03","31","18:00","-4.5","","-19.2","","31","","24","","11","","15.0","","99.31","","","","-9","","NA"
"2003-03-31 19:00","2003","03","31","19:00","-6.7","","-19.7","","35","","24","","6","","15.0","","99.29","","","","-10","","NA"
"2003-03-31 20:00","2003","03","31","20:00","-6.6","","-19.3","","36","","20","","6","","15.0","","99.27","","","","-10","","NA"
"2003-03-31 21:00","2003","03","31","21:00","-7.4","","-16.6","","48","","27","","9","","15.0","","99.29","","","","-12","","NA"
"2003-03-31 22:00","2003","03","31","22:00","-8.5","","-16.2","","54","","34","","4","","15.0","","99.26","","","","-11","","NA"
"2003-03-31 23:00","2003","03","31","23:00","-7.3","","-13.8","","60","","25","","2","","15.0","","99.20","","","","-8","","NA"
