"Station Name","KILLARNEY (AUT)"
"Province","ONTARIO"
"Latitude","45.97"
"Longitude","-81.48"
"Elevation","196.30"
"Climate Identifier","605DJ25"
"WMO Identifier","71460"
"TC Identifier","WBE"
"All times are specified in Local Standard Time (LST). Add 1 hour to adjust for Daylight Saving Time where and when it is observed."

"Legend"
"E","Estimated"
"M","Missing"
"NA","Not Available"

"Date/Time","Year","Month","Day","Time","Temp (°C)","Temp Flag","Dew Point Temp (°C)","Dew Point Temp Flag","Rel Hum (%)","Rel Hum Flag","Wind Dir (10s deg)","Wind Dir Flag","Wind Spd (km/h)","Wind Spd Flag","Visibility (km)","Visibility Flag","Stn Press (kPa)","Stn Press Flag","Hmdx","Hmdx Flag","Wind Chill","Wind Chill Flag","Weather"
"2013-10-01 00:00","2013","10","01","00:00","13.7","","11.5","","87","","24","","7","","","","99.06","","","","","","NA"
"2013-10-01 01:00","2013","10","01","01:00","13.2","","11.3","","88","","26","","9","","","","99.06","","","","","","NA"
"2013-10-01 02:00","2013","10","01","02:00","14.0","","12.2","","89","","24","","11","","","","99.02","","","","","","NA"
"2013-10-01 03:00","2013","10","01","03:00","13.9","","12.0","","88","","26","","9","","","","99.02","","","","","","NA"
"2013-10-01 04:00","2013","10","01","04:00","13.8","","11.9","","88","","25","","2","","","","99.02","","","","","","NA"
"2013-10-01 05:00","2013","10","01","05:00","14.4","","12.3","","87","","17","","4","","","","99.00","","","","","","NA"
"2013-10-01 06:00","2013","10","01","06:00","15.1","","12.9","","87","","18","","11","","","","99.00","","","","","","NA"
"2013-10-01 07:00","2013","10","01","07:00","15.6","","12.9","","84","","17","","11","","","","98.98","","","","","","NA"
"2013-10-01 08:00","2013","10","01","08:00","16.1","","13.4","","84","","18","","11","","","","98.96","","","","","","NA"
"2013-10-01 09:00","2013","10","01","09:00","16.0","","13.3","","84","","19","","19","","","","98.93","","","","","","NA"
"2013-10-01 10:00","2013","10","01","10:00","16.1","","13.5","","85","","20","","32","","","","98.91","","","","","","NA"
"2013-10-01 11:00","2013","10","01","11:00","16.2","","13.8","","86","","18","","26","","","","98.85","","","","","","NA"
"2013-10-01 12:00","2013","10","01","12:00","16.1","","13.8","","86","","18","","30","","","","98.80","","","","","","NA"
"2013-10-01 13:00","2013","10","01","13:00","16.2","","13.9","","86","","19","","28","","","","98.76","","","","","","NA"
"2013-10-01 14:00","2013","10","01","14:00","16.4","","13.9","","85","","19","","32","","","","98.69","","","","","","NA"
"2013-10-01 15:00","2013","10","01","15:00","16.5","","14.2","","86","","19","","32","","","","98.64","","","","","","NA"
"2013-10-01 16:00","2013","10","01","16:00","16.6","","14.7","","89","","20","","32","","","","98.58","","","","","","NA"
"2013-10-01 17:00","2013","10","01","17:00","16.5","","14.7","","89","","19","","26","","","","98.57","","","","","","NA"
"2013-10-01 18:00","2013","10","01","18:00","16.8","","14.6","","87","","23","","17","","","","98.54","","","","","","NA"
"2013-10-01 19:00","2013","10","01","19:00","17.4","","14.7","","84","","24","","19","","","","98.51","","","","","","NA"
"2013-10-01 20:00","2013","10","01","20:00","18.5","","14.5","","78","","25","","15","","","","98.58","","","","","","NA"
"2013-10-01 21:00","2013","10","01","21:00","17.4","","14.4","","83","","23","","17","","","","98.57","","","","","","NA"
"2013-10-01 22:00","2013","10","01","22:00","17.8","","14.4","","80","","25","","13","","","","98.62","","","","","","NA"
"2013-10-01 23:00","2013","10","01","23:00","17.3","","14.3","","83","","26","","6","","","","98.66","","","","","","NA"
"2013-10-02 00:00","2013","10","02","00:00","17.3","","14.4","","83","","25","","11","","","","98.66","","","","","","NA"
"2013-10-02 01:00","2013","10","02","01:00","16.5","","14.4","","87","","23","","13","","","","98.72","","","","","","NA"
"2013-10-02 02:00","2013","10","02","02:00","16.3","","14.3","","88","","24","","15","","","","98.74","","","","","","NA"
"2013-10-02 03:00","2013","10","02","03:00","16.1","","14.5","","90","","25","","7","","","","98.75","","","","","","NA"
"2013-10-02 04:00","2013","10","02","04:00","16.3","","13.7","","85","","29","","17","","","","98.80","","","","","","NA"
"2013-10-02 05:00","2013","10","02","05:00","16.2","","11.4","","73","","29","","19","","","","98.88","","","","","","NA"
"2013-10-02 06:00","2013","10","02","06:00","15.8","","11.1","","74","","29","","15","","","","98.94","","","","","","NA"
"2013-10-02 07:00","2013","10","02","07:00","15.1","","9.8","","71","","26","","13","","","","99.03","","","","","","NA"
"2013-10-02 08:00","2013","10","02","08:00","16.0","","8.6","","61","","27","","19","","","","99.10","","","","","","NA"
"2013-10-02 09:00","2013","10","02","09:00","16.1","","9.2","","64","","28","","24","","","","99.15","","","","","","NA"
"2013-10-02 10:00","2013","10","02","10:00","16.8","","8.8","","59","","28","","26","","","","99.19","","","","","","NA"
"2013-10-02 11:00","2013","10","02","11:00","17.4","","8.3","","55","","28","","26","","","","99.17","","","","","","NA"
"2013-10-02 12:00","2013","10","02","12:00","17.4","","7.8","","53","","27","","30","","","","99.21","","","","","","NA"
"2013-10-02 13:00","2013","10","02","13:00","18.0","","6.3","","46","","29","","30","","","","99.19","","","","","","NA"
"2013-10-02 14:00","2013","10","02","14:00","17.9","","6.9","","49","","28","","35","","","","99.19","","","","","","NA"
"2013-10-02 15:00","2013","10","02","15:00","18.5","","6.3","","45","","28","","33","","","","99.18","","","","","","NA"
"2013-10-02 16:00","2013","10","02","16:00","18.6","","6.0","","44","","28","","33","","","","99.21","","","","","","NA"
"2013-10-02 17:00","2013","10","02","17:00","18.3","","6.1","","45","","28","","37","","","","99.24","","","","","","NA"
"2013-10-02 18:00","2013","10","02","18:00","17.5","","7.0","","50","","28","","28","","","","99.27","","","","","","NA"
"2013-10-02 19:00","2013","10","02","19:00","16.9","","6.7","","51","","29","","19","","","","99.33","","","","","","NA"
"2013-10-02 20:00","2013","10","02","20:00","16.0","","6.8","","54","","28","","9","","","","99.38","","","","","","NA"
"2013-10-02 21:00","2013","10","02","21:00","14.9","","8.2","","64","","28","","9","","","","99.45","","","","","","NA"
"2013-10-02 22:00","2013","10","02","22:00","14.4","","7.9","","65","","28","","7","","","","99.50","","","","","","NA"
"2013-10-02 23:00","2013","10","02","23:00","14.3","","8.7","","69","","30","","7","","","","99.53","","","","","","NA"
"2013-10-03 00:00","2013","10","03","00:00","13.5","","9.5","","77","","30","","7","","","","99.53","","","","","","NA"
"2013-10-03 01:00","2013","10","03","01:00","12.9","","9.7","","81","","","","0","","","","99.52","","","","","","NA"
"2013-10-03 02:00","2013","10","03","02:00","13.3","","9.9","","80","","30","","7","","","","99.52","","","","","","NA"
"2013-10-03 03:00","2013","10","03","03:00","12.5","","10.4","","87","","14","","4","","","","99.52","","","","","","NA"
"2013-10-03 04:00","2013","10","03","04:00","11.8","","9.3","","85","","32","","2","","","","99.54","","","","","","NA"
"2013-10-03 05:00","2013","10","03","05:00","12.2","","9.9","","86","","31","","2","","","","99.56","","","","","","NA"
"2013-10-03 06:00","2013","10","03","06:00","12.2","","9.9","","86","","30","","4","","","","99.62","","","","","","NA"
"2013-10-03 07:00","2013","10","03","07:00","12.6","","10.9","","89","","18","","2","","","","99.61","","","","","","NA"
"2013-10-03 08:00","2013","10","03","08:00","13.1","","9.8","","80","","12","","6","","","","99.63","","","","","","NA"
"2013-10-03 09:00","2013","10","03","09:00","14.9","","10.7","","76","","8","","4","","","","99.60","","","","","","NA"
"2013-10-03 10:00","2013","10","03","10:00","14.7","","11.1","","79","","11","","7","","","","99.60","","","","","","NA"
"2013-10-03 11:00","2013","10","03","11:00","14.8","","11.6","","81","","10","","9","","","","99.59","","","","","","NA"
"2013-10-03 12:00","2013","10","03","12:00","15.4","","11.9","","80","","9","","7","","","","99.57","","","","","","NA"
"2013-10-03 13:00","2013","10","03","13:00","15.9","","10.3","","69","","11","","11","","","","99.49","","","","","","NA"
"2013-10-03 14:00","2013","10","03","14:00","15.6","","11.7","","78","","12","","6","","","","99.47","","","","","","NA"
"2013-10-03 15:00","2013","10","03","15:00","15.6","","12.1","","80","","10","","6","","","","99.47","","","","","","NA"
"2013-10-03 16:00","2013","10","03","16:00","15.6","","11.9","","79","","6","","6","","","","99.42","","","","","","NA"
"2013-10-03 17:00","2013","10","03","17:00","15.5","","8.5","","63","","5","","7","","","","99.41","","","","","","NA"
"2013-10-03 18:00","2013","10","03","18:00","14.5","","9.2","","70","","33","","2","","","","99.38","","","","","","NA"
"2013-10-03 19:00","2013","10","03","19:00","14.5","","8.8","","69","","5","","7","","","","99.39","","","","","","NA"
"2013-10-03 20:00","2013","10","03","20:00","15.2","","7.4","","60","","3","","9","","","","99.41","","","","","","NA"
"2013-10-03 21:00","2013","10","03","21:00","15.0","","7.5","","61","","6","","17","","","","99.43","","","","","","NA"
"2013-10-03 22:00","2013","10","03","22:00","14.3","","7.8","","65","","7","","22","","","","99.40","","","","","","NA"
"2013-10-03 23:00","2013","10","03","23:00","13.9","","8.1","","68","","7","","24","","","","99.37","","","","","","NA"
"2013-10-04 00:00","2013","10","04","00:00","14.1","","8.1","","67","","7","","26","","","","99.32","","","","","","NA"
"2013-10-04 01:00","2013","10","04","01:00","14.3","","8.0","","66","","7","","28","","","","99.31","","","","","","NA"
"2013-10-04 02:00","2013","10","04","02:00","14.5","","7.4","","62","","7","","26","","","","99.29","","","","","","NA"
"2013-10-04 03:00","2013","10","04","03:00","14.4","","7.4","","63","","6","","19","","","","99.32","","","","","","NA"
"2013-10-04 04:00","2013","10","04","04:00","14.1","","9.2","","72","","9","","20","","","","99.34","","","","","","NA"
"2013-10-04 05:00","2013","10","04","05:00","12.4","","9.9","","85","","7","","22","","","","99.39","","","","","","NA"
"2013-10-04 06:00","2013","10","04","06:00","12.1","","10.2","","88","","8","","28","","","","99.41","","","","","","NA"
"2013-10-04 07:00","2013","10","04","07:00","12.0","","9.8","","86","","7","","15","","","","99.51","","","","","","NA"
"2013-10-04 08:00","2013","10","04","08:00","11.8","","9.7","","87","","6","","17","","","","99.54","","","","","","NA"
"2013-10-04 09:00","2013","10","04","09:00","11.9","","9.8","","87","","6","","15","","","","99.59","","","","","","NA"
"2013-10-04 10:00","2013","10","04","10:00","12.5","","10.1","","85","","7","","19","","","","99.56","","","","","","NA"
"2013-10-04 11:00","2013","10","04","11:00","13.3","","10.4","","83","","7","","20","","","","99.58","","","","","","NA"
"2013-10-04 12:00","2013","10","04","12:00","14.5","","10.6","","77","","6","","17","","","","99.56","","","","","","NA"
"2013-10-04 13:00","2013","10","04","13:00","15.2","","10.2","","72","","7","","20","","","","99.57","","","","","","NA"
"2013-10-04 14:00","2013","10","04","14:00","15.5","","10.4","","72","","7","","19","","","","99.59","","","","","","NA"
"2013-10-04 15:00","2013","10","04","15:00","15.3","","10.3","","72","","5","","13","","","","99.62","","","","","","NA"
"2013-10-04 16:00","2013","10","04","16:00","15.2","","10.0","","71","","6","","13","","","","99.61","","","","","","NA"
"2013-10-04 17:00","2013","10","04","17:00","14.6","","9.7","","72","","5","","15","","","","99.63","","","","","","NA"
"2013-10-04 18:00","2013","10","04","18:00","14.6","","9.9","","73","","7","","11","","","","99.66","","","","","","NA"
"2013-10-04 19:00","2013","10","04","19:00","14.9","","9.1","","68","","6","","9","","","","99.67","","","","","","NA"
"2013-10-04 20:00","2013","10","04","20:00","14.4","","9.1","","70","","5","","13","","","","99.74","","","","","","NA"
"2013-10-04 21:00","2013","10","04","21:00","14.2","","8.7","","69","","6","","13","","","","99.77","","","","","","NA"
"2013-10-04 22:00","2013","10","04","22:00","14.0","","8.4","","69","","7","","17","","","","99.74","","","","","","NA"
"2013-10-04 23:00","2013","10","04","23:00","14.0","","7.5","","65","","6","","17","","","","99.77","","","","","","NA"
"2013-10-05 00:00","2013","10","05","00:00","13.9","","7.3","","64","","5","","15","","","","99.77","","","","","","NA"
"2013-10-05 01:00","2013","10","05","01:00","13.5","","6.8","","64","","5","","15","","","","99.81","","","","","","NA"
"2013-10-05 02:00","2013","10","05","02:00","12.7","","6.0","","64","","6","","13","","","","99.81","","","","","","NA"
"2013-10-05 03:00","2013","10","05","03:00","11.8","","3.8","","58","","5","","15","","","","99.79","","","","","","NA"
"2013-10-05 04:00","2013","10","05","04:00","11.3","","3.8","","60","","5","","13","","","","99.81","","","","","","NA"
"2013-10-05 05:00","2013","10","05","05:00","11.3","","4.1","","61","","5","","13","","","","99.84","","","","","","NA"
"2013-10-05 06:00","2013","10","05","06:00","10.7","","3.3","","60","","6","","11","","","","99.88","","","","","","NA"
"2013-10-05 07:00","2013","10","05","07:00","10.5","","3.2","","61","","6","","15","","","","99.88","","","","","","NA"
"2013-10-05 08:00","2013","10","05","08:00","10.1","","2.9","","61","","6","","15","","","","99.87","","","","","","NA"
"2013-10-05 09:00","2013","10","05","09:00","10.5","","3.4","","61","","6","","19","","","","99.82","","","","","","NA"
"2013-10-05 10:00","2013","10","05","10:00","11.0","","3.6","","60","","6","","17","","","","99.83","","","","","","NA"
"2013-10-05 11:00","2013","10","05","11:00","11.3","","4.2","","62","","6","","17","","","","99.86","","","","","","NA"
"2013-10-05 12:00","2013","10","05","12:00","11.6","","4.7","","63","","6","","15","","","","99.83","","","","","","NA"
"2013-10-05 13:00","2013","10","05","13:00","12.1","","5.5","","64","","7","","20","","","","99.65","","","","","","NA"
"2013-10-05 14:00","2013","10","05","14:00","12.9","","5.3","","60","","7","","22","","","","99.57","","","","","","NA"
"2013-10-05 15:00","2013","10","05","15:00","13.3","","5.7","","60","","7","","22","","","","99.59","","","","","","NA"
"2013-10-05 16:00","2013","10","05","16:00","13.2","","5.2","","58","","7","","19","","","","99.61","","","","","","NA"
"2013-10-05 17:00","2013","10","05","17:00","12.6","","4.3","","57","","6","","15","","","","99.58","","","","","","NA"
"2013-10-05 18:00","2013","10","05","18:00","12.6","","3.0","","52","","6","","20","","","","99.56","","","","","","NA"
"2013-10-05 19:00","2013","10","05","19:00","12.2","","2.1","","50","","6","","22","","","","99.51","","","","","","NA"
"2013-10-05 20:00","2013","10","05","20:00","12.1","","2.7","","53","","7","","24","","","","99.53","","","","","","NA"
"2013-10-05 21:00","2013","10","05","21:00","12.3","","3.1","","53","","7","","30","","","","99.52","","","","","","NA"
"2013-10-05 22:00","2013","10","05","22:00","12.1","","3.0","","54","","7","","24","","","","99.48","","","","","","NA"
"2013-10-05 23:00","2013","10","05","23:00","12.1","","4.4","","59","","7","","26","","","","99.39","","","","","","NA"
"2013-10-06 00:00","2013","10","06","00:00","12.3","","4.9","","61","","7","","30","","","","99.30","","","","","","NA"
"2013-10-06 01:00","2013","10","06","01:00","12.7","","6.2","","65","","8","","32","","","","99.25","","","","","","NA"
"2013-10-06 02:00","2013","10","06","02:00","12.5","","6.7","","68","","7","","26","","","","99.19","","","","","","NA"
"2013-10-06 03:00","2013","10","06","03:00","13.0","","7.0","","67","","9","","32","","","","99.10","","","","","","NA"
"2013-10-06 04:00","2013","10","06","04:00","12.4","","7.4","","72","","9","","33","","","","99.02","","","","","","NA"
"2013-10-06 05:00","2013","10","06","05:00","11.9","","7.8","","76","","8","","30","","","","98.94","","","","","","NA"
"2013-10-06 06:00","2013","10","06","06:00","11.7","","7.9","","77","","8","","30","","","","98.88","","","","","","NA"
"2013-10-06 07:00","2013","10","06","07:00","11.8","","8.5","","80","","9","","30","","","","98.88","","","","","","NA"
"2013-10-06 08:00","2013","10","06","08:00","10.9","","8.9","","87","","8","","24","","","","98.83","","","","","","NA"
"2013-10-06 09:00","2013","10","06","09:00","10.9","","9.2","","89","","9","","28","","","","98.75","","","","","","NA"
"2013-10-06 10:00","2013","10","06","10:00","11.2","","10.1","","93","","9","","24","","","","98.66","","","","","","NA"
"2013-10-06 11:00","2013","10","06","11:00","13.5","","12.3","","92","","11","","39","","","","98.56","","","","","","NA"
"2013-10-06 12:00","2013","10","06","12:00","14.1","","13.0","","93","","10","","30","","","","98.50","","","","","","NA"
"2013-10-06 13:00","2013","10","06","13:00","14.9","","13.6","","92","","10","","20","","","","98.42","","","","","","NA"
"2013-10-06 14:00","2013","10","06","14:00","15.4","","14.3","","93","","15","","19","","","","98.34","","","","","","NA"
"2013-10-06 15:00","2013","10","06","15:00","15.6","","14.4","","93","","15","","30","","","","98.27","","","","","","NA"
"2013-10-06 16:00","2013","10","06","16:00","15.7","","14.6","","93","","15","","30","","","","98.20","","","","","","NA"
"2013-10-06 17:00","2013","10","06","17:00","15.8","","14.7","","93","","15","","30","","","","98.19","","","","","","NA"
"2013-10-06 18:00","2013","10","06","18:00","16.0","","15.0","","94","","15","","24","","","","98.17","","","","","","NA"
"2013-10-06 19:00","2013","10","06","19:00","16.0","","15.0","","94","","16","","26","","","","98.15","","","","","","NA"
"2013-10-06 20:00","2013","10","06","20:00","15.7","","14.7","","94","","16","","32","","","","98.11","","","","","","NA"
"2013-10-06 21:00","2013","10","06","21:00","15.6","","14.6","","94","","16","","24","","","","98.04","","","","","","NA"
"2013-10-06 22:00","2013","10","06","22:00","15.7","","14.8","","94","","14","","26","","","","97.91","","","","","","NA"
"2013-10-06 23:00","2013","10","06","23:00","15.9","","15.0","","94","","16","","22","","","","97.89","","","","","","NA"
"2013-10-07 00:00","2013","10","07","00:00","15.6","","14.7","","94","","18","","4","","","","97.78","","","","","","NA"
"2013-10-07 01:00","2013","10","07","01:00","15.0","","14.1","","94","","24","","19","","","","97.74","","","","","","NA"
"2013-10-07 02:00","2013","10","07","02:00","13.5","","11.8","","89","","28","","33","","","","97.66","","","","","","NA"
"2013-10-07 03:00","2013","10","07","03:00","12.8","","11.0","","89","","28","","32","","","","97.68","","","","","","NA"
"2013-10-07 04:00","2013","10","07","04:00","12.8","","10.8","","88","","25","","15","","","","97.69","","","","","","NA"
"2013-10-07 05:00","2013","10","07","05:00","13.4","","11.0","","85","","22","","35","","","","97.77","","","","","","NA"
"2013-10-07 06:00","2013","10","07","06:00","13.1","","10.2","","83","","24","","30","","","","97.74","","","","","","NA"
"2013-10-07 07:00","2013","10","07","07:00","12.9","","9.8","","81","","25","","20","","","","97.69","","","","","","NA"
"2013-10-07 08:00","2013","10","07","08:00","12.9","","9.7","","81","","23","","28","","","","97.73","","","","","","NA"
"2013-10-07 09:00","2013","10","07","09:00","12.9","","9.6","","80","","25","","22","","","","97.70","","","","","","NA"
"2013-10-07 10:00","2013","10","07","10:00","13.3","","9.0","","75","","24","","35","","","","97.69","","","","","","NA"
"2013-10-07 11:00","2013","10","07","11:00","12.1","","10.2","","88","","24","","30","","","","97.68","","","","","","NA"
"2013-10-07 12:00","2013","10","07","12:00","11.2","","8.9","","86","","28","","26","","","","97.72","","","","","","NA"
"2013-10-07 13:00","2013","10","07","13:00","10.5","","8.8","","89","","26","","30","","","","97.69","","","","","","NA"
"2013-10-07 14:00","2013","10","07","14:00","8.7","","6.2","","84","","32","","19","","","","97.95","","","","","","NA"
"2013-10-07 15:00","2013","10","07","15:00","8.8","","4.7","","75","","31","","24","","","","98.15","","","","","","NA"
"2013-10-07 16:00","2013","10","07","16:00","9.1","","4.7","","74","","31","","22","","","","98.35","","","","","","NA"
"2013-10-07 17:00","2013","10","07","17:00","9.1","","2.8","","65","","31","","20","","","","98.52","","","","","","NA"
"2013-10-07 18:00","2013","10","07","18:00","8.8","","3.5","","69","","31","","13","","","","98.67","","","","","","NA"
"2013-10-07 19:00","2013","10","07","19:00","8.5","","4.0","","73","","31","","9","","","","98.80","","","","","","NA"
"2013-10-07 20:00","2013","10","07","20:00","10.0","","3.7","","65","","30","","17","","","","98.91","","","","","","NA"
"2013-10-07 21:00","2013","10","07","21:00","9.8","","4.3","","69","","31","","13","","","","99.05","","","","","","NA"
"2013-10-07 22:00","2013","10","07","22:00","9.3","","4.6","","72","","32","","11","","","","99.16","","","","","","NA"
"2013-10-07 23:00","2013","10","07","23:00","9.2","","4.5","","72","","32","","13","","","","99.24","","","","","","NA"
"2013-10-08 00:00","2013","10","08","00:00","9.1","","4.5","","73","","32","","13","","","","99.35","","","","","","NA"
"2013-10-08 01:00","2013","10","08","01:00","8.1","","4.6","","79","","31","","7","","","","99.44","","","","","","NA"
"2013-10-08 02:00","2013","10","08","02:00","7.8","","4.3","","79","","31","","7","","","","99.54","","","","","","NA"
"2013-10-08 03:00","2013","10","08","03:00","8.1","","4.4","","77","","30","","7","","","","99.61","","","","","","NA"
"2013-10-08 04:00","2013","10","08","04:00","7.9","","4.8","","81","","32","","7","","","","99.70","","","","","","NA"
"2013-10-08 05:00","2013","10","08","05:00","7.9","","4.4","","79","","32","","6","","","","99.79","","","","","","NA"
"2013-10-08 06:00","2013","10","08","06:00","8.1","","4.4","","77","","31","","6","","","","99.86","","","","","","NA"
"2013-10-08 07:00","2013","10","08","07:00","8.8","","5.4","","79","","29","","6","","","","99.94","","","","","","NA"
"2013-10-08 08:00","2013","10","08","08:00","10.5","","6.4","","76","","27","","6","","","","100.03","","","","","","NA"
"2013-10-08 09:00","2013","10","08","09:00","11.0","","5.8","","70","","23","","15","","","","100.07","","","","","","NA"
"2013-10-08 10:00","2013","10","08","10:00","11.5","","4.8","","63","","23","","15","","","","100.11","","","","","","NA"
"2013-10-08 11:00","2013","10","08","11:00","12.2","","4.5","","59","","23","","17","","","","100.15","","","","","","NA"
"2013-10-08 12:00","2013","10","08","12:00","12.9","","5.6","","61","","19","","17","","","","100.15","","","","","","NA"
"2013-10-08 13:00","2013","10","08","13:00","13.2","","6.3","","63","","18","","22","","","","100.12","","","","","","NA"
"2013-10-08 14:00","2013","10","08","14:00","13.4","","5.8","","60","","19","","28","","","","100.13","","","","","","NA"
"2013-10-08 15:00","2013","10","08","15:00","13.8","","5.1","","56","","19","","26","","","","100.13","","","","","","NA"
"2013-10-08 16:00","2013","10","08","16:00","14.1","","7.2","","63","","19","","20","","","","100.12","","","","","","NA"
"2013-10-08 17:00","2013","10","08","17:00","13.8","","7.4","","65","","18","","22","","","","100.14","","","","","","NA"
"2013-10-08 18:00","2013","10","08","18:00","13.6","","7.3","","66","","19","","28","","","","100.15","","","","","","NA"
"2013-10-08 19:00","2013","10","08","19:00","13.7","","8.0","","68","","21","","22","","","","100.15","","","","","","NA"
"2013-10-08 20:00","2013","10","08","20:00","13.9","","8.8","","71","","18","","26","","","","100.12","","","","","","NA"
"2013-10-08 21:00","2013","10","08","21:00","14.0","","8.7","","70","","18","","26","","","","100.17","","","","","","NA"
"2013-10-08 22:00","2013","10","08","22:00","14.2","","9.3","","72","","19","","26","","","","100.18","","","","","","NA"
"2013-10-08 23:00","2013","10","08","23:00","14.5","","9.6","","72","","19","","24","","","","100.17","","","","","","NA"
"2013-10-09 00:00","2013","10","09","00:00","14.6","","10.0","","74","","18","","24","","","","100.15","","","","","","NA"
"2013-10-09 01:00","2013","10","09","01:00","14.7","","9.9","","73","","19","","20","","","","100.16","","","","","","NA"
"2013-10-09 02:00","2013","10","09","02:00","14.7","","10.2","","74","","20","","22","","","","100.14","","","","","","NA"
"2013-10-09 03:00","2013","10","09","03:00","14.5","","11.4","","82","","20","","20","","","","100.13","","","","","","NA"
"2013-10-09 04:00","2013","10","09","04:00","14.4","","11.5","","83","","22","","17","","","","100.16","","","","","","NA"
"2013-10-09 05:00","2013","10","09","05:00","13.9","","10.6","","80","","25","","6","","","","100.22","","","","","","NA"
"2013-10-09 06:00","2013","10","09","06:00","14.3","","10.3","","77","","22","","15","","","","100.25","","","","","","NA"
"2013-10-09 07:00","2013","10","09","07:00","14.6","","9.2","","70","","22","","24","","","","100.26","","","","","","NA"
"2013-10-09 08:00","2013","10","09","08:00","14.9","","10.2","","73","","22","","20","","","","100.31","","","","","","NA"
"2013-10-09 09:00","2013","10","09","09:00","15.0","","11.9","","82","","20","","13","","","","100.33","","","","","","NA"
"2013-10-09 10:00","2013","10","09","10:00","15.1","","12.8","","86","","19","","22","","","","100.32","","","","","","NA"
"2013-10-09 11:00","2013","10","09","11:00","15.3","","12.2","","82","","19","","24","","","","100.30","","","","","","NA"
"2013-10-09 12:00","2013","10","09","12:00","15.2","","12.6","","84","","18","","22","","","","100.28","","","","","","NA"
"2013-10-09 13:00","2013","10","09","13:00","15.3","","12.5","","83","","18","","22","","","","100.25","","","","","","NA"
"2013-10-09 14:00","2013","10","09","14:00","15.5","","12.1","","80","","18","","30","","","","100.20","","","","","","NA"
"2013-10-09 15:00","2013","10","09","15:00","15.4","","12.3","","82","","18","","30","","","","100.18","","","","","","NA"
"2013-10-09 16:00","2013","10","09","16:00","15.5","","12.1","","80","","19","","30","","","","100.15","","","","","","NA"
"2013-10-09 17:00","2013","10","09","17:00","15.3","","12.6","","84","","18","","22","","","","100.14","","","","","","NA"
"2013-10-09 18:00","2013","10","09","18:00","14.8","","13.0","","89","","21","","11","","","","100.11","","","","","","NA"
"2013-10-09 19:00","2013","10","09","19:00","14.7","","12.5","","87","","20","","7","","","","100.11","","","","","","NA"
"2013-10-09 20:00","2013","10","09","20:00","14.3","","12.2","","87","","16","","2","","","","100.15","","","","","","NA"
"2013-10-09 21:00","2013","10","09","21:00","14.5","","13.1","","91","","12","","9","","","","100.15","","","","","","NA"
"2013-10-09 22:00","2013","10","09","22:00","13.9","","12.3","","90","","13","","4","","","","100.14","","","","","","NA"
"2013-10-09 23:00","2013","10","09","23:00","14.4","","11.3","","82","","7","","4","","","","100.12","","","","","","NA"
"2013-10-10 00:00","2013","10","10","00:00","12.9","","10.8","","87","","14","","6","","","","100.04","","","","","","NA"
"2013-10-10 01:00","2013","10","10","01:00","14.3","","10.5","","78","","36","","4","","","","100.06","","","","","","NA"
"2013-10-10 02:00","2013","10","10","02:00","13.7","","10.1","","79","","4","","2","","","","100.05","","","","","","NA"
"2013-10-10 03:00","2013","10","10","03:00","13.7","","10.2","","79","","12","","2","","","","100.03","","","","","","NA"
"2013-10-10 04:00","2013","10","10","04:00","12.8","","9.4","","80","","8","","4","","","","100.08","","","","","","NA"
"2013-10-10 05:00","2013","10","10","05:00","12.4","","10.3","","87","","6","","6","","","","100.12","","","","","","NA"
"2013-10-10 06:00","2013","10","10","06:00","11.5","","9.8","","89","","3","","6","","","","100.12","","","","","","NA"
"2013-10-10 07:00","2013","10","10","07:00","12.1","","10.7","","91","","7","","4","","","","100.12","","","","","","NA"
"2013-10-10 08:00","2013","10","10","08:00","13.8","","11.1","","84","","7","","2","","","","100.12","","","","","","NA"
"2013-10-10 09:00","2013","10","10","09:00","13.9","","11.4","","85","","9","","6","","","","100.13","","","","","","NA"
"2013-10-10 10:00","2013","10","10","10:00","14.3","","11.8","","85","","13","","6","","","","100.13","","","","","","NA"
"2013-10-10 11:00","2013","10","10","11:00","15.5","","10.7","","73","","15","","4","","","","100.11","","","","","","NA"
"2013-10-10 12:00","2013","10","10","12:00","15.1","","12.0","","82","","16","","7","","","","100.11","","","","","","NA"
"2013-10-10 13:00","2013","10","10","13:00","15.3","","12.7","","84","","14","","7","","","","100.08","","","","","","NA"
"2013-10-10 14:00","2013","10","10","14:00","15.4","","11.8","","79","","13","","11","","","","100.03","","","","","","NA"
"2013-10-10 15:00","2013","10","10","15:00","15.8","","11.7","","77","","10","","6","","","","100.00","","","","","","NA"
"2013-10-10 16:00","2013","10","10","16:00","15.4","","12.8","","84","","11","","6","","","","99.98","","","","","","NA"
"2013-10-10 17:00","2013","10","10","17:00","15.3","","12.8","","85","","12","","6","","","","99.96","","","","","","NA"
"2013-10-10 18:00","2013","10","10","18:00","14.7","","13.0","","90","","11","","6","","","","99.95","","","","","","NA"
"2013-10-10 19:00","2013","10","10","19:00","14.2","","12.8","","91","","13","","6","","","","99.94","","","","","","NA"
"2013-10-10 20:00","2013","10","10","20:00","13.5","","12.4","","93","","4","","6","","","","99.92","","","","","","NA"
"2013-10-10 21:00","2013","10","10","21:00","13.6","","12.5","","93","","5","","2","","","","99.90","","","","","","NA"
"2013-10-10 22:00","2013","10","10","22:00","13.5","","11.9","","90","","36","","6","","","","99.92","","","","","","NA"
"2013-10-10 23:00","2013","10","10","23:00","13.9","","8.6","","70","","35","","6","","","","99.90","","","","","","NA"
"2013-10-11 00:00","2013","10","11","00:00","13.3","","6.7","","64","","1","","4","","","","99.87","","","","","","NA"
"2013-10-11 01:00","2013","10","11","01:00","11.0","","8.6","","85","","5","","4","","","","99.88","","","","","","NA"
"2013-10-11 02:00","2013","10","11","02:00","10.7","","6.8","","77","","6","","2","","","","99.87","","","","","","NA"
"2013-10-11 03:00","2013","10","11","03:00","11.0","","6.8","","75","","5","","6","","","","99.87","","","","","","NA"
"2013-10-11 04:00","2013","10","11","04:00","11.3","","6.9","","74","","6","","4","","","","99.88","","","","","","NA"
"2013-10-11 05:00","2013","10","11","05:00","10.5","","7.5","","82","","10","","4","","","","99.91","","","","","","NA"
"2013-10-11 06:00","2013","10","11","06:00","10.3","","6.8","","79","","6","","6","","","","99.97","","","","","","NA"
"2013-10-11 07:00","2013","10","11","07:00","10.2","","7.5","","83","","8","","7","","","","100.00","","","","","","NA"
"2013-10-11 08:00","2013","10","11","08:00","11.8","","7.8","","76","","7","","11","","","","100.02","","","","","","NA"
"2013-10-11 09:00","2013","10","11","09:00","13.9","","7.9","","67","","7","","11","","","","100.01","","","","","","NA"
"2013-10-11 10:00","2013","10","11","10:00","14.8","","9.5","","71","","9","","9","","","","100.00","","","","","","NA"
"2013-10-11 11:00","2013","10","11","11:00","14.9","","10.5","","75","","13","","11","","","","99.96","","","","","","NA"
"2013-10-11 12:00","2013","10","11","12:00","15.0","","11.1","","77","","15","","7","","","","99.92","","","","","","NA"
"2013-10-11 13:00","2013","10","11","13:00","15.3","","10.3","","72","","19","","9","","","","99.88","","","","","","NA"
"2013-10-11 14:00","2013","10","11","14:00","16.5","","11.6","","73","","20","","6","","","","99.84","","","","","","NA"
"2013-10-11 15:00","2013","10","11","15:00","16.6","","11.1","","70","","23","","4","","","","99.84","","","","","","NA"
"2013-10-11 16:00","2013","10","11","16:00","17.9","","9.5","","58","","25","","2","","","","99.81","","","","","","NA"
"2013-10-11 17:00","2013","10","11","17:00","17.2","","9.1","","59","","27","","2","","","","99.81","","","","","","NA"
"2013-10-11 18:00","2013","10","11","18:00","17.3","","4.4","","42","","35","","2","","","","99.80","","","","","","NA"
"2013-10-11 19:00","2013","10","11","19:00","16.5","","5.9","","49","","2","","4","","","","99.76","","","","","","NA"
"2013-10-11 20:00","2013","10","11","20:00","14.7","","4.9","","52","","8","","4","","","","99.75","","","","","","NA"
"2013-10-11 21:00","2013","10","11","21:00","13.6","","4.7","","55","","7","","4","","","","99.76","","","","","","NA"
"2013-10-11 22:00","2013","10","11","22:00","13.5","","4.4","","54","","7","","2","","","","99.73","","","","","","NA"
"2013-10-11 23:00","2013","10","11","23:00","14.6","","3.5","","47","","7","","4","","","","99.72","","","","","","NA"
"2013-10-12 00:00","2013","10","12","00:00","14.7","","3.4","","47","","7","","6","","","","99.71","","","","","","NA"
"2013-10-12 01:00","2013","10","12","01:00","14.9","","4.5","","50","","10","","7","","","","99.71","","","","","","NA"
"2013-10-12 02:00","2013","10","12","02:00","12.9","","5.8","","62","","8","","11","","","","99.74","","","","","","NA"
"2013-10-12 03:00","2013","10","12","03:00","13.0","","7.2","","68","","6","","9","","","","99.76","","","","","","NA"
"2013-10-12 04:00","2013","10","12","04:00","11.9","","9.1","","83","","6","","9","","","","99.78","","","","","","NA"
"2013-10-12 05:00","2013","10","12","05:00","12.5","","10.1","","85","","6","","13","","","","99.79","","","","","","NA"
"2013-10-12 06:00","2013","10","12","06:00","12.7","","10.3","","85","","6","","11","","","","99.82","","","","","","NA"
"2013-10-12 07:00","2013","10","12","07:00","12.4","","10.6","","89","","7","","13","","","","99.83","","","","","","NA"
"2013-10-12 08:00","2013","10","12","08:00","12.6","","10.1","","85","","8","","17","","","","99.84","","","","","","NA"
"2013-10-12 09:00","2013","10","12","09:00","13.5","","10.4","","82","","8","","19","","","","99.82","","","","","","NA"
"2013-10-12 10:00","2013","10","12","10:00","15.0","","11.6","","80","","11","","17","","","","99.82","","","","","","NA"
"2013-10-12 11:00","2013","10","12","11:00","15.1","","12.2","","83","","11","","17","","","","99.82","","","","","","NA"
"2013-10-12 12:00","2013","10","12","12:00","15.1","","11.9","","81","","11","","22","","","","99.79","","","","","","NA"
"2013-10-12 13:00","2013","10","12","13:00","15.1","","11.8","","81","","11","","20","","","","99.71","","","","","","NA"
"2013-10-12 14:00","2013","10","12","14:00","15.2","","12.1","","82","","12","","19","","","","99.67","","","","","","NA"
"2013-10-12 15:00","2013","10","12","15:00","15.3","","11.9","","80","","11","","17","","","","99.63","","","","","","NA"
"2013-10-12 16:00","2013","10","12","16:00","15.5","","11.8","","79","","10","","15","","","","99.60","","","","","","NA"
"2013-10-12 17:00","2013","10","12","17:00","15.8","","11.4","","75","","12","","13","","","","99.57","","","","","","NA"
"2013-10-12 18:00","2013","10","12","18:00","16.8","","10.6","","67","","13","","17","","","","99.56","","","","","","NA"
"2013-10-12 19:00","2013","10","12","19:00","16.2","","11.0","","71","","8","","11","","","","99.57","","","","","","NA"
"2013-10-12 20:00","2013","10","12","20:00","16.6","","11.8","","73","","9","","7","","","","99.59","","","","","","NA"
"2013-10-12 21:00","2013","10","12","21:00","16.3","","13.1","","81","","11","","9","","","","99.56","","","","","","NA"
"2013-10-12 22:00","2013","10","12","22:00","16.0","","13.3","","84","","8","","9","","","","99.57","","","","","","NA"
"2013-10-12 23:00","2013","10","12","23:00","16.4","","13.4","","82","","15","","24","","","","99.55","","","","","","NA"
"2013-10-13 00:00","2013","10","13","00:00","15.9","","12.8","","82","","14","","17","","","","99.53","","","","","","NA"
"2013-10-13 01:00","2013","10","13","01:00","15.7","","12.5","","81","","13","","13","","","","99.56","","","","","","NA"
"2013-10-13 02:00","2013","10","13","02:00","15.2","","13.0","","87","","8","","13","","","","99.58","","","","","","NA"
"2013-10-13 03:00","2013","10","13","03:00","15.5","","13.4","","87","","15","","13","","","","99.58","","","","","","NA"
"2013-10-13 04:00","2013","10","13","04:00","15.3","","13.6","","90","","22","","6","","","","99.59","","","","","","NA"
"2013-10-13 05:00","2013","10","13","05:00","15.3","","13.7","","90","","19","","11","","","","99.62","","","","","","NA"
"2013-10-13 06:00","2013","10","13","06:00","16.1","","11.3","","73","","30","","17","","","","99.70","","","","","","NA"
"2013-10-13 07:00","2013","10","13","07:00","15.2","","9.9","","71","","29","","20","","","","99.77","","","","","","NA"
"2013-10-13 08:00","2013","10","13","08:00","15.1","","10.4","","73","","29","","9","","","","99.85","","","","","","NA"
"2013-10-13 09:00","2013","10","13","09:00","15.1","","8.2","","63","","29","","20","","","","99.91","","","","","","NA"
"2013-10-13 10:00","2013","10","13","10:00","15.1","","8.9","","66","","27","","17","","","","99.95","","","","","","NA"
"2013-10-13 11:00","2013","10","13","11:00","15.7","","8.7","","63","","28","","17","","","","99.99","","","","","","NA"
"2013-10-13 12:00","2013","10","13","12:00","16.0","","6.0","","51","","27","","24","","","","99.98","","","","","","NA"
"2013-10-13 13:00","2013","10","13","13:00","16.5","","5.8","","49","","28","","19","","","","99.99","","","","","","NA"
"2013-10-13 14:00","2013","10","13","14:00","16.6","","6.9","","53","","29","","20","","","","99.99","","","","","","NA"
"2013-10-13 15:00","2013","10","13","15:00","15.8","","6.9","","55","","29","","28","","","","99.98","","","","","","NA"
"2013-10-13 16:00","2013","10","13","16:00","15.4","","6.7","","56","","28","","26","","","","99.99","","","","","","NA"
"2013-10-13 17:00","2013","10","13","17:00","14.6","","8.1","","65","","28","","28","","","","100.02","","","","","","NA"
"2013-10-13 18:00","2013","10","13","18:00","13.8","","7.8","","67","","29","","24","","","","100.08","","","","","","NA"
"2013-10-13 19:00","2013","10","13","19:00","13.4","","9.1","","75","","29","","20","","","","100.11","","","","","","NA"
"2013-10-13 20:00","2013","10","13","20:00","13.3","","8.5","","73","","29","","20","","","","100.15","","","","","","NA"
"2013-10-13 21:00","2013","10","13","21:00","12.8","","7.7","","71","","30","","15","","","","100.20","","","","","","NA"
"2013-10-13 22:00","2013","10","13","22:00","12.1","","6.6","","69","","31","","13","","","","100.23","","","","","","NA"
"2013-10-13 23:00","2013","10","13","23:00","11.2","","5.3","","67","","31","","15","","","","100.29","","","","","","NA"
"2013-10-14 00:00","2013","10","14","00:00","10.4","","4.7","","68","","31","","15","","","","100.33","","","","","","NA"
"2013-10-14 01:00","2013","10","14","01:00","9.8","","4.3","","69","","31","","9","","","","100.39","","","","","","NA"
"2013-10-14 02:00","2013","10","14","02:00","9.0","","4.0","","71","","32","","13","","","","100.42","","","","","","NA"
"2013-10-14 03:00","2013","10","14","03:00","8.3","","3.8","","73","","33","","15","","","","100.45","","","","","","NA"
"2013-10-14 04:00","2013","10","14","04:00","7.8","","3.6","","75","","34","","17","","","","100.47","","","","","","NA"
"2013-10-14 05:00","2013","10","14","05:00","7.2","","3.4","","77","","36","","13","","","","100.49","","","","","","NA"
"2013-10-14 06:00","2013","10","14","06:00","7.3","","3.2","","75","","34","","11","","","","100.55","","","","","","NA"
"2013-10-14 07:00","2013","10","14","07:00","6.9","","3.1","","77","","35","","9","","","","100.57","","","","","","NA"
"2013-10-14 08:00","2013","10","14","08:00","8.5","","2.9","","68","","36","","9","","","","100.61","","","","","","NA"
"2013-10-14 09:00","2013","10","14","09:00","9.9","","3.0","","62","","35","","7","","","","100.65","","","","","","NA"
"2013-10-14 10:00","2013","10","14","10:00","11.1","","1.9","","53","","2","","11","","","","100.61","","","","","","NA"
"2013-10-14 11:00","2013","10","14","11:00","12.1","","0.1","","44","","1","","7","","","","100.61","","","","","","NA"
"2013-10-14 12:00","2013","10","14","12:00","13.1","","-1.0","","38","","7","","6","","","","100.56","","","","","","NA"
"2013-10-14 13:00","2013","10","14","13:00","13.7","","-0.5","","38","","1","","6","","","","100.52","","","","","","NA"
"2013-10-14 14:00","2013","10","14","14:00","13.1","","1.2","","44","","21","","11","","","","100.46","","","","","","NA"
"2013-10-14 15:00","2013","10","14","15:00","14.1","","1.9","","44","","20","","6","","","","100.43","","","","","","NA"
"2013-10-14 16:00","2013","10","14","16:00","15.3","","2.6","","42","","24","","4","","","","100.40","","","","","","NA"
"2013-10-14 17:00","2013","10","14","17:00","13.7","","3.2","","49","","28","","13","","","","100.40","","","","","","NA"
"2013-10-14 18:00","2013","10","14","18:00","11.6","","3.9","","59","","29","","6","","","","100.39","","","","","","NA"
"2013-10-14 19:00","2013","10","14","19:00","10.8","","3.8","","62","","33","","7","","","","100.39","","","","","","NA"
"2013-10-14 20:00","2013","10","14","20:00","10.6","","4.1","","64","","32","","9","","","","100.42","","","","","","NA"
"2013-10-14 21:00","2013","10","14","21:00","10.2","","4.9","","70","","32","","7","","","","100.40","","","","","","NA"
"2013-10-14 22:00","2013","10","14","22:00","9.7","","5.5","","75","","35","","7","","","","100.39","","","","","","NA"
"2013-10-14 23:00","2013","10","14","23:00","9.2","","4.3","","71","","34","","2","","","","100.35","","","","","","NA"
"2013-10-15 00:00","2013","10","15","00:00","9.6","","3.8","","67","","4","","2","","","","100.32","","","","","","NA"
"2013-10-15 01:00","2013","10","15","01:00","9.1","","2.6","","64","","7","","7","","","","100.26","","","","","","NA"
"2013-10-15 02:00","2013","10","15","02:00","9.3","","1.8","","59","","5","","9","","","","100.21","","","","","","NA"
"2013-10-15 03:00","2013","10","15","03:00","9.1","","1.6","","59","","6","","11","","","","100.19","","","","","","NA"
"2013-10-15 04:00","2013","10","15","04:00","8.5","","3.1","","69","","7","","11","","","","100.12","","","","","","NA"
"2013-10-15 05:00","2013","10","15","05:00","7.2","","2.5","","72","","6","","13","","","","100.09","","","","","","NA"
"2013-10-15 06:00","2013","10","15","06:00","7.1","","2.5","","73","","6","","13","","","","100.10","","","","","","NA"
"2013-10-15 07:00","2013","10","15","07:00","7.0","","2.6","","74","","6","","13","","","","100.03","","","","","","NA"
"2013-10-15 08:00","2013","10","15","08:00","8.1","","3.5","","73","","7","","15","","","","99.99","","","","","","NA"
"2013-10-15 09:00","2013","10","15","09:00","8.8","","5.0","","77","","8","","19","","","","99.90","","","","","","NA"
"2013-10-15 10:00","2013","10","15","10:00","9.7","","6.0","","78","","8","","19","","","","99.83","","","","","","NA"
"2013-10-15 11:00","2013","10","15","11:00","12.3","","9.3","","82","","9","","24","","","","99.73","","","","","","NA"
"2013-10-15 12:00","2013","10","15","12:00","13.4","","8.7","","73","","16","","32","","","","99.67","","","","","","NA"
"2013-10-15 13:00","2013","10","15","13:00","13.4","","9.4","","77","","15","","30","","","","99.53","","","","","","NA"
"2013-10-15 14:00","2013","10","15","14:00","13.5","","8.9","","74","","15","","30","","","","99.42","","","","","","NA"
"2013-10-15 15:00","2013","10","15","15:00","13.5","","9.1","","75","","15","","30","","","","99.35","","","","","","NA"
"2013-10-15 16:00","2013","10","15","16:00","13.8","","9.3","","74","","15","","30","","","","99.22","","","","","","NA"
"2013-10-15 17:00","2013","10","15","17:00","14.0","","9.3","","73","","15","","26","","","","99.22","","","","","","NA"
"2013-10-15 18:00","2013","10","15","18:00","14.1","","9.3","","73","","15","","26","","","","99.11","","","","","","NA"
"2013-10-15 19:00","2013","10","15","19:00","14.4","","10.6","","78","","14","","19","","","","99.05","","","","","","NA"
"2013-10-15 20:00","2013","10","15","20:00","14.6","","11.0","","79","","13","","17","","","","99.00","","","","","","NA"
"2013-10-15 21:00","2013","10","15","21:00","14.6","","11.9","","84","","11","","15","","","","98.90","","","","","","NA"
"2013-10-15 22:00","2013","10","15","22:00","14.7","","12.6","","87","","14","","20","","","","98.84","","","","","","NA"
"2013-10-15 23:00","2013","10","15","23:00","14.6","","12.4","","87","","14","","37","","","","98.63","","","","","","NA"
"2013-10-16 00:00","2013","10","16","00:00","14.7","","12.3","","86","","14","","32","","","","98.60","","","","","","NA"
"2013-10-16 01:00","2013","10","16","01:00","14.6","","12.8","","89","","14","","30","","","","98.46","","","","","","NA"
"2013-10-16 02:00","2013","10","16","02:00","14.5","","12.9","","90","","14","","26","","","","98.41","","","","","","NA"
"2013-10-16 03:00","2013","10","16","03:00","14.8","","13.2","","90","","17","","24","","","","98.33","","","","","","NA"
"2013-10-16 04:00","2013","10","16","04:00","14.9","","13.5","","91","","19","","19","","","","98.28","","","","","","NA"
"2013-10-16 05:00","2013","10","16","05:00","14.8","","13.5","","92","","22","","17","","","","98.26","","","","","","NA"
"2013-10-16 06:00","2013","10","16","06:00","14.8","","13.2","","90","","24","","15","","","","98.27","","","","","","NA"
"2013-10-16 07:00","2013","10","16","07:00","14.7","","13.1","","90","","21","","15","","","","98.26","","","","","","NA"
"2013-10-16 08:00","2013","10","16","08:00","15.1","","12.8","","86","","21","","19","","","","98.25","","","","","","NA"
"2013-10-16 09:00","2013","10","16","09:00","14.7","","10.4","","75","","23","","33","","","","98.24","","","","","","NA"
"2013-10-16 10:00","2013","10","16","10:00","14.2","","7.3","","63","","24","","24","","","","98.25","","","","","","NA"
"2013-10-16 11:00","2013","10","16","11:00","13.7","","7.4","","66","","23","","32","","","","98.25","","","","","","NA"
"2013-10-16 12:00","2013","10","16","12:00","13.1","","7.5","","69","","24","","28","","","","98.24","","","","","","NA"
"2013-10-16 13:00","2013","10","16","13:00","12.0","","8.1","","77","","27","","19","","","","98.22","","","","","","NA"
"2013-10-16 14:00","2013","10","16","14:00","11.6","","9.4","","86","","25","","15","","","","98.21","","","","","","NA"
"2013-10-16 15:00","2013","10","16","15:00","12.5","","9.0","","79","","24","","26","","","","98.19","","","","","","NA"
"2013-10-16 16:00","2013","10","16","16:00","12.7","","8.3","","75","","25","","22","","","","98.17","","","","","","NA"
"2013-10-16 17:00","2013","10","16","17:00","12.3","","9.2","","81","","24","","26","","","","98.18","","","","","","NA"
"2013-10-16 18:00","2013","10","16","18:00","12.3","","9.8","","85","","24","","22","","","","98.16","","","","","","NA"
"2013-10-16 19:00","2013","10","16","19:00","11.9","","9.2","","84","","28","","32","","","","98.21","","","","","","NA"
"2013-10-16 20:00","2013","10","16","20:00","11.5","","8.7","","83","","27","","30","","","","98.26","","","","","","NA"
"2013-10-16 21:00","2013","10","16","21:00","11.0","","8.4","","84","","27","","30","","","","98.30","","","","","","NA"
"2013-10-16 22:00","2013","10","16","22:00","10.3","","8.4","","88","","27","","30","","","","98.32","","","","","","NA"
"2013-10-16 23:00","2013","10","16","23:00","10.5","","8.8","","89","","27","","28","","","","98.33","","","","","","NA"
"2013-10-17 00:00","2013","10","17","00:00","11.1","","8.5","","84","","28","","26","","","","98.38","","","","","","NA"
"2013-10-17 01:00","2013","10","17","01:00","10.3","","6.9","","79","","30","","20","","","","98.45","","","","","","NA"
"2013-10-17 02:00","2013","10","17","02:00","9.9","","6.6","","80","","30","","19","","","","98.50","","","","","","NA"
"2013-10-17 03:00","2013","10","17","03:00","9.5","","6.5","","82","","30","","11","","","","98.52","","","","","","NA"
"2013-10-17 04:00","2013","10","17","04:00","8.8","","6.4","","85","","32","","13","","","","98.56","","","","","","NA"
"2013-10-17 05:00","2013","10","17","05:00","8.7","","6.4","","85","","31","","13","","","","98.59","","","","","","NA"
"2013-10-17 06:00","2013","10","17","06:00","8.3","","6.2","","87","","35","","9","","","","98.58","","","","","","NA"
"2013-10-17 07:00","2013","10","17","07:00","8.4","","5.8","","84","","35","","6","","","","98.62","","","","","","NA"
"2013-10-17 08:00","2013","10","17","08:00","8.5","","5.9","","84","","36","","4","","","","98.68","","","","","","NA"
"2013-10-17 09:00","2013","10","17","09:00","8.2","","6.6","","90","","3","","2","","","","98.71","","","","","","NA"
"2013-10-17 10:00","2013","10","17","10:00","9.0","","6.4","","84","","11","","2","","","","98.68","","","","","","NA"
"2013-10-17 11:00","2013","10","17","11:00","9.6","","6.3","","80","","16","","4","","","","98.65","","","","","","NA"
"2013-10-17 12:00","2013","10","17","12:00","9.7","","6.2","","79","","18","","4","","","","98.63","","","","","","NA"
"2013-10-17 13:00","2013","10","17","13:00","11.3","","6.2","","71","","4","","6","","","","98.52","","","","","","NA"
"2013-10-17 14:00","2013","10","17","14:00","10.8","","5.9","","72","","17","","9","","","","98.48","","","","","","NA"
"2013-10-17 15:00","2013","10","17","15:00","10.7","","6.0","","73","","17","","9","","","","98.45","","","","","","NA"
"2013-10-17 16:00","2013","10","17","16:00","10.7","","6.0","","73","","24","","6","","","","98.36","","","","","","NA"
"2013-10-17 17:00","2013","10","17","17:00","10.7","","6.2","","74","","22","","9","","","","98.37","","","","","","NA"
"2013-10-17 18:00","2013","10","17","18:00","10.4","","6.1","","75","","30","","4","","","","98.37","","","","","","NA"
"2013-10-17 19:00","2013","10","17","19:00","10.3","","6.4","","77","","25","","9","","","","98.35","","","","","","NA"
"2013-10-17 20:00","2013","10","17","20:00","8.6","","6.3","","85","","29","","9","","","","98.34","","","","","","NA"
"2013-10-17 21:00","2013","10","17","21:00","8.8","","6.6","","86","","30","","6","","","","98.33","","","","","","NA"
"2013-10-17 22:00","2013","10","17","22:00","8.4","","6.5","","88","","32","","6","","","","98.28","","","","","","NA"
"2013-10-17 23:00","2013","10","17","23:00","8.6","","6.6","","87","","29","","4","","","","98.26","","","","","","NA"
"2013-10-18 00:00","2013","10","18","00:00","9.3","","6.8","","84","","27","","15","","","","98.23","","","","","","NA"
"2013-10-18 01:00","2013","10","18","01:00","9.5","","6.5","","82","","27","","17","","","","98.22","","","","","","NA"
"2013-10-18 02:00","2013","10","18","02:00","9.2","","6.0","","80","","26","","19","","","","98.22","","","","","","NA"
"2013-10-18 03:00","2013","10","18","03:00","9.1","","5.8","","80","","27","","20","","","","98.20","","","","","","NA"
"2013-10-18 04:00","2013","10","18","04:00","8.2","","5.9","","85","","30","","13","","","","98.25","","","","","","NA"
"2013-10-18 05:00","2013","10","18","05:00","7.6","","5.1","","84","","31","","13","","","","98.29","","","","","","NA"
"2013-10-18 06:00","2013","10","18","06:00","7.3","","4.1","","80","","31","","15","","","","98.31","","","","","","NA"
"2013-10-18 07:00","2013","10","18","07:00","6.9","","4.2","","83","","31","","13","","","","98.36","","","","","","NA"
"2013-10-18 08:00","2013","10","18","08:00","8.3","","4.4","","76","","32","","7","","","","98.45","","","","","","NA"
"2013-10-18 09:00","2013","10","18","09:00","8.5","","3.3","","70","","30","","13","","","","98.48","","","","","","NA"
"2013-10-18 10:00","2013","10","18","10:00","9.5","","3.5","","66","","29","","15","","","","98.51","","","","","","NA"
"2013-10-18 11:00","2013","10","18","11:00","9.7","","4.0","","68","","26","","20","","","","98.53","","","","","","NA"
"2013-10-18 12:00","2013","10","18","12:00","10.5","","3.4","","61","","27","","24","","","","98.52","","","","","","NA"
"2013-10-18 13:00","2013","10","18","13:00","11.2","","2.6","","55","","28","","22","","","","98.48","","","","","","NA"
"2013-10-18 14:00","2013","10","18","14:00","11.1","","4.1","","62","","29","","17","","","","98.47","","","","","","NA"
"2013-10-18 15:00","2013","10","18","15:00","11.4","","5.9","","69","","28","","15","","","","98.47","","","","","","NA"
"2013-10-18 16:00","2013","10","18","16:00","11.1","","5.7","","69","","26","","22","","","","98.47","","","","","","NA"
"2013-10-18 17:00","2013","10","18","17:00","11.3","","5.3","","67","","28","","15","","","","98.48","","","","","","NA"
"2013-10-18 18:00","2013","10","18","18:00","10.8","","5.0","","67","","26","","15","","","","98.50","","","","","","NA"
"2013-10-18 19:00","2013","10","18","19:00","10.4","","5.5","","72","","26","","11","","","","98.56","","","","","","NA"
"2013-10-18 20:00","2013","10","18","20:00","10.5","","6.4","","76","","24","","17","","","","98.57","","","","","","NA"
"2013-10-18 21:00","2013","10","18","21:00","10.7","","6.6","","76","","26","","15","","","","98.56","","","","","","NA"
"2013-10-18 22:00","2013","10","18","22:00","10.8","","5.9","","72","","26","","15","","","","98.58","","","","","","NA"
"2013-10-18 23:00","2013","10","18","23:00","10.2","","6.1","","76","","27","","11","","","","98.55","","","","","","NA"
"2013-10-19 00:00","2013","10","19","00:00","9.8","","6.5","","80","","28","","9","","","","98.52","","","","","","NA"
"2013-10-19 01:00","2013","10","19","01:00","9.7","","6.4","","80","","27","","7","","","","98.52","","","","","","NA"
"2013-10-19 02:00","2013","10","19","02:00","9.6","","6.8","","83","","33","","6","","","","98.48","","","","","","NA"
"2013-10-19 03:00","2013","10","19","03:00","9.6","","6.7","","82","","1","","6","","","","98.42","","","","","","NA"
"2013-10-19 04:00","2013","10","19","04:00","8.9","","6.3","","84","","7","","7","","","","98.38","","","","","","NA"
"2013-10-19 05:00","2013","10","19","05:00","8.3","","6.4","","88","","7","","7","","","","98.34","","","","","","NA"
"2013-10-19 06:00","2013","10","19","06:00","7.9","","6.1","","88","","6","","7","","","","98.30","","","","","","NA"
"2013-10-19 07:00","2013","10","19","07:00","8.6","","6.6","","87","","8","","17","","","","98.27","","","","","","NA"
"2013-10-19 08:00","2013","10","19","08:00","8.6","","6.3","","85","","8","","4","","","","98.22","","","","","","NA"
"2013-10-19 09:00","2013","10","19","09:00","10.3","","6.4","","77","","26","","13","","","","98.18","","","","","","NA"
"2013-10-19 10:00","2013","10","19","10:00","10.6","","5.7","","72","","24","","22","","","","98.14","","","","","","NA"
"2013-10-19 11:00","2013","10","19","11:00","9.9","","5.4","","74","","25","","17","","","","98.11","","","","","","NA"
"2013-10-19 12:00","2013","10","19","12:00","9.8","","5.1","","73","","27","","17","","","","98.02","","","","","","NA"
"2013-10-19 13:00","2013","10","19","13:00","9.7","","4.1","","68","","30","","17","","","","97.96","","","","","","NA"
"2013-10-19 14:00","2013","10","19","14:00","9.4","","4.6","","72","","30","","13","","","","97.91","","","","","","NA"
"2013-10-19 15:00","2013","10","19","15:00","8.6","","5.3","","80","","27","","20","","","","97.90","","","","","","NA"
"2013-10-19 16:00","2013","10","19","16:00","7.4","","5.6","","88","","31","","9","","","","97.93","","","","","","NA"
"2013-10-19 17:00","2013","10","19","17:00","7.0","","4.4","","83","","36","","6","","","","97.93","","","","","","NA"
"2013-10-19 18:00","2013","10","19","18:00","7.7","","4.8","","82","","31","","13","","","","97.96","","","","","","NA"
"2013-10-19 19:00","2013","10","19","19:00","7.3","","4.2","","81","","31","","15","","","","98.01","","","","","","NA"
"2013-10-19 20:00","2013","10","19","20:00","6.7","","3.3","","79","","31","","19","","","","98.05","","","","","","NA"
"2013-10-19 21:00","2013","10","19","21:00","6.3","","2.6","","77","","31","","19","","","","98.10","","","","","","NA"
"2013-10-19 22:00","2013","10","19","22:00","5.6","","1.6","","75","","31","","17","","","","98.14","","","","","","NA"
"2013-10-19 23:00","2013","10","19","23:00","5.5","","1.7","","76","","31","","15","","","","98.16","","","","","","NA"
"2013-10-20 00:00","2013","10","20","00:00","5.2","","0.8","","73","","31","","19","","","","98.18","","","","","","NA"
"2013-10-20 01:00","2013","10","20","01:00","4.8","","0.7","","75","","31","","17","","","","98.23","","","","","","NA"
"2013-10-20 02:00","2013","10","20","02:00","4.4","","0.8","","77","","31","","13","","","","98.30","","","","","","NA"
"2013-10-20 03:00","2013","10","20","03:00","4.5","","1.1","","79","","31","","11","","","","98.34","","","","","","NA"
"2013-10-20 04:00","2013","10","20","04:00","3.6","","0.7","","81","","33","","9","","","","98.38","","","","","","NA"
"2013-10-20 05:00","2013","10","20","05:00","3.0","","0.7","","85","","31","","7","","","","98.41","","","","","","NA"
"2013-10-20 06:00","2013","10","20","06:00","2.9","","0.8","","86","","32","","9","","","","98.46","","","","","","NA"
"2013-10-20 07:00","2013","10","20","07:00","3.1","","0.4","","82","","34","","2","","","","98.52","","","","","","NA"
"2013-10-20 08:00","2013","10","20","08:00","4.8","","0.4","","73","","4","","4","","","","98.60","","","","","","NA"
"2013-10-20 09:00","2013","10","20","09:00","5.3","","0.0","","69","","4","","6","","","","98.67","","","","","","NA"
"2013-10-20 10:00","2013","10","20","10:00","6.3","","-0.8","","60","","1","","4","","","","98.71","","","","","","NA"
"2013-10-20 11:00","2013","10","20","11:00","6.9","","0.8","","65","","15","","6","","","","98.77","","","","","","NA"
"2013-10-20 12:00","2013","10","20","12:00","7.0","","1.2","","67","","17","","9","","","","98.78","","","","","","NA"
"2013-10-20 13:00","2013","10","20","13:00","7.6","","0.8","","62","","18","","7","","","","98.79","","","","","","NA"
"2013-10-20 14:00","2013","10","20","14:00","8.1","","1.0","","61","","16","","9","","","","98.77","","","","","","NA"
"2013-10-20 15:00","2013","10","20","15:00","8.5","","1.3","","60","","16","","13","","","","98.81","","","","","","NA"
"2013-10-20 16:00","2013","10","20","16:00","8.5","","1.1","","60","","16","","11","","","","98.82","","","","","","NA"
"2013-10-20 17:00","2013","10","20","17:00","8.9","","2.4","","64","","16","","15","","","","98.85","","","","","","NA"
"2013-10-20 18:00","2013","10","20","18:00","9.1","","2.8","","65","","17","","17","","","","98.85","","","","","","NA"
"2013-10-20 19:00","2013","10","20","19:00","9.5","","2.9","","63","","15","","19","","","","98.85","","","","","","NA"
"2013-10-20 20:00","2013","10","20","20:00","9.9","","2.6","","60","","16","","20","","","","98.86","","","","","","NA"
"2013-10-20 21:00","2013","10","20","21:00","10.2","","2.2","","58","","18","","20","","","","98.85","","","","","","NA"
"2013-10-20 22:00","2013","10","20","22:00","10.5","","3.9","","64","","17","","24","","","","98.80","","","","","","NA"
"2013-10-20 23:00","2013","10","20","23:00","10.8","","3.9","","62","","17","","26","","","","98.74","","","","","","NA"
"2013-10-21 00:00","2013","10","21","00:00","10.8","","2.9","","58","","15","","33","","","","98.62","","","","","","NA"
"2013-10-21 01:00","2013","10","21","01:00","9.5","","5.3","","75","","16","","28","","","","98.54","","","","","","NA"
"2013-10-21 02:00","2013","10","21","02:00","9.9","","6.6","","80","","14","","32","","","","98.41","","","","","","NA"
"2013-10-21 03:00","2013","10","21","03:00","10.0","","7.3","","83","","13","","44","","","","98.26","","","","","","NA"
"2013-10-21 04:00","2013","10","21","04:00","11.8","","8.7","","81","","16","","37","","","","98.13","","","","","","NA"
"2013-10-21 05:00","2013","10","21","05:00","11.4","","8.3","","81","","23","","39","","","","98.16","","","","","","NA"
"2013-10-21 06:00","2013","10","21","06:00","11.4","","7.9","","79","","23","","37","","","","98.16","","","","","","NA"
"2013-10-21 07:00","2013","10","21","07:00","11.7","","8.3","","80","","23","","39","","","","98.16","","","","","","NA"
"2013-10-21 08:00","2013","10","21","08:00","11.8","","8.6","","81","","21","","28","","","","98.16","","","","","","NA"
"2013-10-21 09:00","2013","10","21","09:00","12.5","","7.9","","74","","24","","35","","","","98.12","","","","","","NA"
"2013-10-21 10:00","2013","10","21","10:00","12.5","","5.6","","63","","24","","43","","","","98.10","","","","","","NA"
"2013-10-21 11:00","2013","10","21","11:00","11.4","","4.8","","64","","25","","35","","","","98.14","","","","","","NA"
"2013-10-21 12:00","2013","10","21","12:00","10.3","","4.5","","67","","26","","32","","","","98.18","","","","","","NA"
"2013-10-21 13:00","2013","10","21","13:00","11.0","","4.1","","62","","27","","33","","","","98.15","","","","","","NA"
"2013-10-21 14:00","2013","10","21","14:00","10.1","","4.7","","69","","28","","32","","","","98.16","","","","","","NA"
"2013-10-21 15:00","2013","10","21","15:00","10.4","","2.9","","60","","27","","32","","","","98.16","","","","","","NA"
"2013-10-21 16:00","2013","10","21","16:00","10.0","","2.4","","59","","26","","28","","","","98.16","","","","","","NA"
"2013-10-21 17:00","2013","10","21","17:00","9.2","","2.5","","63","","24","","20","","","","98.20","","","","","","NA"
"2013-10-21 18:00","2013","10","21","18:00","8.2","","2.5","","67","","26","","32","","","","98.23","","","","","","NA"
"2013-10-21 19:00","2013","10","21","19:00","7.4","","3.4","","76","","29","","28","","","","98.21","","","","","","NA"
"2013-10-21 20:00","2013","10","21","20:00","7.4","","2.8","","73","","27","","26","","","","98.20","","","","","","NA"
"2013-10-21 21:00","2013","10","21","21:00","7.0","","2.1","","71","","27","","28","","","","98.22","","","","","","NA"
"2013-10-21 22:00","2013","10","21","22:00","5.9","","2.0","","76","","27","","26","","","","98.19","","","","","","NA"
"2013-10-21 23:00","2013","10","21","23:00","5.2","","1.8","","79","","26","","28","","","","98.17","","","","","","NA"
"2013-10-22 00:00","2013","10","22","00:00","4.7","","1.5","","80","","31","","11","","","","98.13","","","","","","NA"
"2013-10-22 01:00","2013","10","22","01:00","3.4","","1.2","","85","","31","","15","","","","98.14","","","","","","NA"
"2013-10-22 02:00","2013","10","22","02:00","2.4","","1.0","","90","","32","","9","","","","98.15","","","","","","NA"
"2013-10-22 03:00","2013","10","22","03:00","2.0","","-0.1","","86","","30","","22","","","","98.15","","","","","","NA"
"2013-10-22 04:00","2013","10","22","04:00","1.9","","0.8","","92","","31","","15","","","","98.14","","","","","","NA"
"2013-10-22 05:00","2013","10","22","05:00","2.4","","0.8","","89","","28","","26","","","","98.13","","","","","","NA"
"2013-10-22 06:00","2013","10","22","06:00","2.6","","-0.9","","78","","26","","22","","","","98.11","","","","","","NA"
"2013-10-22 07:00","2013","10","22","07:00","2.9","","-0.3","","79","","26","","19","","","","98.12","","","","","","NA"
"2013-10-22 08:00","2013","10","22","08:00","3.3","","0.6","","82","","25","","19","","","","98.10","","","","","","NA"
"2013-10-22 09:00","2013","10","22","09:00","3.1","","1.5","","89","","25","","11","","","","98.08","","","","","","NA"
"2013-10-22 10:00","2013","10","22","10:00","4.6","","1.4","","80","","26","","19","","","","98.04","","","","","","NA"
"2013-10-22 11:00","2013","10","22","11:00","5.4","","0.7","","72","","26","","20","","","","98.00","","","","","","NA"
"2013-10-22 12:00","2013","10","22","12:00","5.5","","1.0","","73","","27","","26","","","","97.99","","","","","","NA"
"2013-10-22 13:00","2013","10","22","13:00","4.4","","1.3","","80","","28","","22","","","","98.02","","","","","","NA"
"2013-10-22 14:00","2013","10","22","14:00","6.1","","0.6","","68","","30","","24","","","","98.03","","","","","","NA"
"2013-10-22 15:00","2013","10","22","15:00","4.7","","0.7","","75","","32","","19","","","","98.13","","","","","","NA"
"2013-10-22 16:00","2013","10","22","16:00","5.4","","-2.6","","56","","32","","17","","","","98.23","","","","","","NA"
"2013-10-22 17:00","2013","10","22","17:00","5.6","","-2.4","","56","","31","","22","","","","98.30","","","","","","NA"
"2013-10-22 18:00","2013","10","22","18:00","4.5","","-1.6","","65","","31","","20","","","","98.39","","","","","","NA"
"2013-10-22 19:00","2013","10","22","19:00","4.4","","-1.2","","67","","31","","19","","","","98.46","","","","","","NA"
"2013-10-22 20:00","2013","10","22","20:00","3.8","","-1.2","","70","","32","","13","","","","98.51","","","","","","NA"
"2013-10-22 21:00","2013","10","22","21:00","3.3","","-1.0","","73","","31","","17","","","","98.54","","","","","","NA"
"2013-10-22 22:00","2013","10","22","22:00","2.8","","-1.2","","75","","33","","13","","","","98.54","","","","","","NA"
"2013-10-22 23:00","2013","10","22","23:00","2.5","","-1.2","","77","","32","","9","","","","98.53","","","","","","NA"
"2013-10-23 00:00","2013","10","23","00:00","1.7","","-1.2","","81","","32","","9","","","","98.55","","","","","","NA"
"2013-10-23 01:00","2013","10","23","01:00","1.2","","-1.7","","81","","32","","9","","","","98.57","","","","","","NA"
"2013-10-23 02:00","2013","10","23","02:00","0.6","","-1.7","","85","","32","","6","","","","98.55","","","","","","NA"
"2013-10-23 03:00","2013","10","23","03:00","0.8","","-2.1","","81","","33","","9","","","","98.50","","","","","","NA"
"2013-10-23 04:00","2013","10","23","04:00","0.4","","-2.6","","80","","34","","7","","","","98.49","","","","","","NA"
"2013-10-23 05:00","2013","10","23","05:00","0.5","","-2.6","","80","","33","","7","","","","98.48","","","","","","NA"
"2013-10-23 06:00","2013","10","23","06:00","0.6","","-5.2","","65","","33","","17","","","","98.47","","","","","","NA"
"2013-10-23 07:00","2013","10","23","07:00","0.2","","-5.2","","67","","33","","15","","","","98.49","","","","","","NA"
"2013-10-23 08:00","2013","10","23","08:00","0.8","","-5.3","","64","","32","","13","","","","98.52","","","","","","NA"
"2013-10-23 09:00","2013","10","23","09:00","1.6","","-4.5","","64","","32","","13","","","","98.53","","","","","","NA"
"2013-10-23 10:00","2013","10","23","10:00","2.1","","-5.6","","57","","35","","15","","","","98.53","","","","","","NA"
"2013-10-23 11:00","2013","10","23","11:00","2.5","","-6.0","","53","","31","","17","","","","98.51","","","","","","NA"
"2013-10-23 12:00","2013","10","23","12:00","3.3","","-6.0","","50","","29","","24","","","","98.49","","","","","","NA"
"2013-10-23 13:00","2013","10","23","13:00","4.0","","-4.3","","55","","28","","22","","","","98.41","","","","","","NA"
"2013-10-23 14:00","2013","10","23","14:00","4.3","","-3.2","","58","","29","","20","","","","98.36","","","","","","NA"
"2013-10-23 15:00","2013","10","23","15:00","5.3","","-3.0","","55","","28","","26","","","","98.34","","","","","","NA"
"2013-10-23 16:00","2013","10","23","16:00","5.5","","-2.3","","57","","29","","26","","","","98.35","","","","","","NA"
"2013-10-23 17:00","2013","10","23","17:00","5.2","","-0.3","","68","","29","","24","","","","98.33","","","","","","NA"
"2013-10-23 18:00","2013","10","23","18:00","5.2","","-1.6","","61","","29","","30","","","","98.32","","","","","","NA"
"2013-10-23 19:00","2013","10","23","19:00","4.6","","-4.1","","53","","31","","22","","","","98.35","","","","","","NA"
"2013-10-23 20:00","2013","10","23","20:00","3.9","","-3.6","","58","","31","","20","","","","98.37","","","","","","NA"
"2013-10-23 21:00","2013","10","23","21:00","3.8","","-3.6","","58","","30","","17","","","","98.36","","","","","","NA"
"2013-10-23 22:00","2013","10","23","22:00","3.7","","-2.9","","62","","30","","24","","","","98.35","","","","","","NA"
"2013-10-23 23:00","2013","10","23","23:00","3.4","","-2.3","","66","","31","","19","","","","98.33","","","","","","NA"
"2013-10-24 00:00","2013","10","24","00:00","3.1","","-2.4","","67","","31","","22","","","","98.32","","","","","","NA"
"2013-10-24 01:00","2013","10","24","01:00","2.9","","-3.0","","65","","31","","24","","","","98.31","","","","","","NA"
"2013-10-24 02:00","2013","10","24","02:00","2.9","","-2.3","","69","","31","","19","","","","98.35","","","","","","NA"
"2013-10-24 03:00","2013","10","24","03:00","2.7","","-2.0","","71","","31","","20","","","","98.35","","","","","","NA"
"2013-10-24 04:00","2013","10","24","04:00","2.0","","-1.2","","79","","31","","22","","","","98.38","","","","","","NA"
"2013-10-24 05:00","2013","10","24","05:00","1.8","","-1.0","","82","","31","","22","","","","98.44","","","","","","NA"
"2013-10-24 06:00","2013","10","24","06:00","1.9","","-1.2","","80","","31","","20","","","","98.48","","","","","","NA"
"2013-10-24 07:00","2013","10","24","07:00","2.1","","-1.2","","79","","31","","19","","","","98.55","","","","","","NA"
"2013-10-24 08:00","2013","10","24","08:00","2.2","","-1.8","","75","","31","","17","","","","98.63","","","","","","NA"
"2013-10-24 09:00","2013","10","24","09:00","2.7","","-2.2","","70","","32","","17","","","","98.68","","","","","","NA"
"2013-10-24 10:00","2013","10","24","10:00","3.3","","-2.2","","67","","31","","19","","","","98.74","","","","","","NA"
"2013-10-24 11:00","2013","10","24","11:00","4.8","","-2.9","","57","","32","","17","","","","98.78","","","","","","NA"
"2013-10-24 12:00","2013","10","24","12:00","5.4","","-3.2","","54","","34","","19","","","","98.80","","","","","","NA"
"2013-10-24 13:00","2013","10","24","13:00","5.9","","-3.3","","52","","30","","20","","","","98.79","","","","","","NA"
"2013-10-24 14:00","2013","10","24","14:00","6.7","","-2.9","","50","","32","","19","","","","98.83","","","","","","NA"
"2013-10-24 15:00","2013","10","24","15:00","7.1","","-2.9","","49","","30","","17","","","","98.89","","","","","","NA"
"2013-10-24 16:00","2013","10","24","16:00","6.5","","-2.8","","51","","33","","17","","","","98.98","","","","","","NA"
"2013-10-24 17:00","2013","10","24","17:00","6.0","","-2.7","","54","","32","","13","","","","99.05","","","","","","NA"
"2013-10-24 18:00","2013","10","24","18:00","5.7","","-2.6","","55","","32","","17","","","","99.16","","","","","","NA"
"2013-10-24 19:00","2013","10","24","19:00","5.3","","-2.5","","57","","32","","11","","","","99.22","","","","","","NA"
"2013-10-24 20:00","2013","10","24","20:00","5.0","","-2.1","","60","","32","","13","","","","99.25","","","","","","NA"
"2013-10-24 21:00","2013","10","24","21:00","4.6","","-1.7","","64","","32","","13","","","","99.29","","","","","","NA"
"2013-10-24 22:00","2013","10","24","22:00","4.2","","-1.4","","67","","32","","11","","","","99.34","","","","","","NA"
"2013-10-24 23:00","2013","10","24","23:00","3.6","","-1.3","","70","","32","","11","","","","99.38","","","","","","NA"
"2013-10-25 00:00","2013","10","25","00:00","3.1","","-1.1","","74","","33","","9","","","","99.43","","","","","","NA"
"2013-10-25 01:00","2013","10","25","01:00","2.8","","-1.1","","75","","34","","7","","","","99.48","","","","","","NA"
"2013-10-25 02:00","2013","10","25","02:00","2.0","","-1.2","","79","","34","","7","","","","99.54","","","","","","NA"
"2013-10-25 03:00","2013","10","25","03:00","1.6","","-1.3","","81","","34","","6","","","","99.56","","","","","","NA"
"2013-10-25 04:00","2013","10","25","04:00","1.4","","-3.2","","71","","34","","7","","","","99.60","","","","","","NA"
"2013-10-25 05:00","2013","10","25","05:00","0.9","","-4.4","","68","","34","","6","","","","99.64","","","","","","NA"
"2013-10-25 06:00","2013","10","25","06:00","1.0","","-3.7","","71","","31","","9","","","","99.73","","","","","","NA"
"2013-10-25 07:00","2013","10","25","07:00","1.2","","-2.9","","74","","32","","7","","","","99.77","","","","","","NA"
"2013-10-25 08:00","2013","10","25","08:00","2.8","","-3.4","","64","","31","","6","","","","99.82","","","","","","NA"
"2013-10-25 09:00","2013","10","25","09:00","3.9","","-4.3","","55","","30","","19","","","","99.83","","","","","","NA"
"2013-10-25 10:00","2013","10","25","10:00","4.2","","-4.8","","52","","31","","20","","","","99.80","","","","","","NA"
"2013-10-25 11:00","2013","10","25","11:00","5.1","","-3.8","","53","","32","","17","","","","99.77","","","","","","NA"
"2013-10-25 12:00","2013","10","25","12:00","5.0","","-3.1","","56","","28","","19","","","","99.73","","","","","","NA"
"2013-10-25 13:00","2013","10","25","13:00","4.1","","-0.2","","74","","29","","17","","","","99.67","","","","","","NA"
"2013-10-25 14:00","2013","10","25","14:00","5.1","","-0.5","","67","","30","","13","","","","99.59","","","","","","NA"
"2013-10-25 15:00","2013","10","25","15:00","3.9","","1.1","","82","","29","","9","","","","99.56","","","","","","NA"
"2013-10-25 16:00","2013","10","25","16:00","4.7","","0.8","","76","","24","","11","","","","99.48","","","","","","NA"
"2013-10-25 17:00","2013","10","25","17:00","5.4","","-0.3","","67","","25","","13","","","","99.38","","","","","","NA"
"2013-10-25 18:00","2013","10","25","18:00","5.7","","0.4","","69","","25","","22","","","","99.32","","","","","","NA"
"2013-10-25 19:00","2013","10","25","19:00","5.0","","1.1","","76","","24","","24","","","","99.29","","","","","","NA"
"2013-10-25 20:00","2013","10","25","20:00","5.0","","0.8","","74","","26","","19","","","","99.18","","","","","","NA"
"2013-10-25 21:00","2013","10","25","21:00","5.9","","-0.2","","65","","25","","28","","","","99.09","","","","","","NA"
"2013-10-25 22:00","2013","10","25","22:00","4.7","","0.4","","74","","25","","35","","","","99.02","","","","","","NA"
"2013-10-25 23:00","2013","10","25","23:00","4.6","","0.8","","76","","24","","17","","","","98.88","","","","","","NA"
"2013-10-26 00:00","2013","10","26","00:00","6.2","","0.6","","67","","22","","30","","","","98.66","","","","","","NA"
"2013-10-26 01:00","2013","10","26","01:00","5.4","","2.5","","82","","23","","41","","","","98.46","","","","","","NA"
"2013-10-26 02:00","2013","10","26","02:00","5.6","","2.9","","83","","23","","50","","","","98.26","","","","","","NA"
"2013-10-26 03:00","2013","10","26","03:00","5.4","","2.6","","82","","23","","50","","","","98.05","","","","","","NA"
"2013-10-26 04:00","2013","10","26","04:00","6.1","","3.5","","83","","23","","50","","","","97.87","","","","","","NA"
"2013-10-26 05:00","2013","10","26","05:00","6.4","","3.5","","82","","24","","35","","","","97.75","","","","","","NA"
"2013-10-26 06:00","2013","10","26","06:00","6.9","","3.6","","79","","25","","39","","","","97.68","","","","","","NA"
"2013-10-26 07:00","2013","10","26","07:00","7.4","","3.8","","78","","25","","33","","","","97.63","","","","","","NA"
"2013-10-26 08:00","2013","10","26","08:00","7.4","","4.2","","80","","26","","33","","","","97.62","","","","","","NA"
"2013-10-26 09:00","2013","10","26","09:00","7.6","","4.5","","81","","28","","28","","","","97.65","","","","","","NA"
"2013-10-26 10:00","2013","10","26","10:00","7.0","","2.5","","73","","29","","32","","","","97.69","","","","","","NA"
"2013-10-26 11:00","2013","10","26","11:00","7.5","","1.9","","68","","28","","35","","","","97.69","","","","","","NA"
"2013-10-26 12:00","2013","10","26","12:00","7.6","","1.4","","65","","28","","37","","","","97.71","","","","","","NA"
"2013-10-26 13:00","2013","10","26","13:00","8.0","","1.6","","64","","28","","26","","","","97.73","","","","","","NA"
"2013-10-26 14:00","2013","10","26","14:00","7.5","","1.5","","66","","28","","39","","","","97.74","","","","","","NA"
"2013-10-26 15:00","2013","10","26","15:00","6.6","","2.8","","77","","28","","28","","","","97.83","","","","","","NA"
"2013-10-26 16:00","2013","10","26","16:00","6.9","","1.0","","66","","32","","19","","","","97.93","","","","","","NA"
"2013-10-26 17:00","2013","10","26","17:00","5.6","","0.6","","70","","33","","20","","","","98.05","","","","","","NA"
"2013-10-26 18:00","2013","10","26","18:00","4.9","","-0.1","","70","","33","","22","","","","98.22","","","","","","NA"
"2013-10-26 19:00","2013","10","26","19:00","4.4","","-0.4","","71","","33","","19","","","","98.39","","","","","","NA"
"2013-10-26 20:00","2013","10","26","20:00","3.8","","-0.8","","72","","33","","19","","","","98.49","","","","","","NA"
"2013-10-26 21:00","2013","10","26","21:00","3.4","","-0.9","","73","","32","","13","","","","98.57","","","","","","NA"
"2013-10-26 22:00","2013","10","26","22:00","2.9","","-0.8","","77","","31","","15","","","","98.64","","","","","","NA"
"2013-10-26 23:00","2013","10","26","23:00","2.5","","-0.9","","78","","31","","15","","","","98.69","","","","","","NA"
"2013-10-27 00:00","2013","10","27","00:00","2.3","","-1.0","","79","","32","","15","","","","98.73","","","","","","NA"
"2013-10-27 01:00","2013","10","27","01:00","1.8","","-1.3","","80","","32","","15","","","","98.77","","","","","","NA"
"2013-10-27 02:00","2013","10","27","02:00","1.4","","-2.2","","77","","33","","15","","","","98.81","","","","","","NA"
"2013-10-27 03:00","2013","10","27","03:00","1.1","","-2.9","","75","","33","","7","","","","98.82","","","","","","NA"
"2013-10-27 04:00","2013","10","27","04:00","1.5","","-3.1","","71","","30","","7","","","","98.86","","","","","","NA"
"2013-10-27 05:00","2013","10","27","05:00","1.4","","-3.6","","69","","32","","6","","","","98.91","","","","","","NA"
"2013-10-27 06:00","2013","10","27","06:00","1.4","","-3.9","","68","","36","","6","","","","98.94","","","","","","NA"
"2013-10-27 07:00","2013","10","27","07:00","1.2","","-2.5","","76","","34","","9","","","","98.96","","","","","","NA"
"2013-10-27 08:00","2013","10","27","08:00","1.1","","-2.3","","78","","36","","6","","","","99.02","","","","","","NA"
"2013-10-27 09:00","2013","10","27","09:00","2.9","","-2.4","","68","","28","","2","","","","99.04","","","","","","NA"
"2013-10-27 10:00","2013","10","27","10:00","2.8","","-3.1","","65","","16","","6","","","","99.06","","","","","","NA"
"2013-10-27 11:00","2013","10","27","11:00","3.3","","-2.5","","66","","18","","9","","","","99.05","","","","","","NA"
"2013-10-27 12:00","2013","10","27","12:00","4.2","","-1.0","","69","","19","","7","","","","99.02","","","","","","NA"
"2013-10-27 13:00","2013","10","27","13:00","4.2","","-0.3","","72","","30","","6","","","","98.97","","","","","","NA"
"2013-10-27 14:00","2013","10","27","14:00","5.2","","-0.6","","66","","20","","7","","","","98.91","","","","","","NA"
"2013-10-27 15:00","2013","10","27","15:00","5.9","","-2.1","","56","","25","","20","","","","98.90","","","","","","NA"
"2013-10-27 16:00","2013","10","27","16:00","5.5","","-0.3","","66","","26","","17","","","","98.90","","","","","","NA"
"2013-10-27 17:00","2013","10","27","17:00","5.6","","0.6","","70","","28","","6","","","","98.88","","","","","","NA"
"2013-10-27 18:00","2013","10","27","18:00","5.8","","0.8","","70","","26","","17","","","","98.90","","","","","","NA"
"2013-10-27 19:00","2013","10","27","19:00","5.9","","1.8","","75","","26","","17","","","","98.92","","","","","","NA"
"2013-10-27 20:00","2013","10","27","20:00","5.7","","2.5","","80","","28","","13","","","","98.91","","","","","","NA"
"2013-10-27 21:00","2013","10","27","21:00","6.2","","3.0","","80","","26","","9","","","","98.90","","","","","","NA"
"2013-10-27 22:00","2013","10","27","22:00","5.7","","3.4","","85","","31","","13","","","","98.92","","","","","","NA"
"2013-10-27 23:00","2013","10","27","23:00","3.7","","1.6","","86","","31","","22","","","","98.96","","","","","","NA"
"2013-10-28 00:00","2013","10","28","00:00","4.8","","2.0","","82","","31","","19","","","","98.98","","","","","","NA"
"2013-10-28 01:00","2013","10","28","01:00","4.2","","1.0","","80","","32","","22","","","","99.13","","","","","","NA"
"2013-10-28 02:00","2013","10","28","02:00","3.1","","-0.6","","77","","36","","17","","","","99.30","","","","","","NA"
"2013-10-28 03:00","2013","10","28","03:00","2.2","","-3.4","","66","","36","","22","","","","99.51","","","","","","NA"
"2013-10-28 04:00","2013","10","28","04:00","0.6","","-5.0","","66","","1","","15","","","","99.71","","","","","","NA"
"2013-10-28 05:00","2013","10","28","05:00","0.1","","-5.3","","67","","1","","13","","","","99.88","","","","","","NA"
"2013-10-28 06:00","2013","10","28","06:00","-0.7","","-6.3","","66","","36","","17","","","","100.01","","","","-6","","NA"
"2013-10-28 07:00","2013","10","28","07:00","-1.5","","-7.3","","65","","2","","17","","","","100.16","","","","-7","","NA"
"2013-10-28 08:00","2013","10","28","08:00","-1.5","","-7.2","","65","","1","","15","","","","100.30","","","","-6","","NA"
"2013-10-28 09:00","2013","10","28","09:00","-0.5","","-7.0","","61","","1","","15","","","","100.38","","","","-5","","NA"
"2013-10-28 10:00","2013","10","28","10:00","-0.1","","-7.6","","57","","2","","20","","","","100.48","","","","-5","","NA"
"2013-10-28 11:00","2013","10","28","11:00","0.2","","-7.3","","57","","4","","11","","","","100.59","","","","","","NA"
"2013-10-28 12:00","2013","10","28","12:00","1.3","","-7.8","","51","","4","","11","","","","100.61","","","","","","NA"
"2013-10-28 13:00","2013","10","28","13:00","1.9","","-8.2","","47","","4","","7","","","","100.62","","","","","","NA"
"2013-10-28 14:00","2013","10","28","14:00","2.2","","-8.3","","46","","7","","7","","","","100.63","","","","","","NA"
"2013-10-28 15:00","2013","10","28","15:00","2.5","","-7.0","","49","","13","","7","","","","100.62","","","","","","NA"
"2013-10-28 16:00","2013","10","28","16:00","2.6","","-6.3","","52","","23","","9","","","","100.65","","","","","","NA"
"2013-10-28 17:00","2013","10","28","17:00"
"2013-10-28 18:00","2013","10","28","18:00"
"2013-10-28 19:00","2013","10","28","19:00","1.6","","-6.7","","54","","","","0","","","","100.72","","","","","","NA"
"2013-10-28 20:00","2013","10","28","20:00"
"2013-10-28 21:00","2013","10","28","21:00"
"2013-10-28 22:00","2013","10","28","22:00"
"2013-10-28 23:00","2013","10","28","23:00","-0.7","","-5.5","","70","","36","","7","","","","100.73","","","","-3","","NA"
"2013-10-29 00:00","2013","10","29","00:00"
"2013-10-29 01:00","2013","10","29","01:00"
"2013-10-29 02:00","2013","10","29","02:00"
"2013-10-29 03:00","2013","10","29","03:00"
"2013-10-29 04:00","2013","10","29","04:00"
"2013-10-29 05:00","2013","10","29","05:00","-3.1","","-6.0","","80","","4","","6","","","","100.83","","","","-6","","NA"
"2013-10-29 06:00","2013","10","29","06:00","-3.6","","-6.4","","81","","3","","7","","","","100.79","","","","-7","","NA"
"2013-10-29 07:00","2013","10","29","07:00","-3.3","","-6.6","","78","","34","","4","","","","100.87","","","","-5","","NA"
"2013-10-29 08:00","2013","10","29","08:00","-3.6","","-6.3","","82","","2","","6","","","","100.89","","","","-6","","NA"
"2013-10-29 09:00","2013","10","29","09:00"
"2013-10-29 10:00","2013","10","29","10:00"
"2013-10-29 11:00","2013","10","29","11:00","-0.6","","-4.4","","75","","30","","13","","","","100.84","","","","-5","","NA"
"2013-10-29 12:00","2013","10","29","12:00","0.4","","-4.5","","70","","28","","15","","","","100.75","","","","","","NA"
"2013-10-29 13:00","2013","10","29","13:00","1.0","","-5.4","","62","","30","","13","","","","100.68","","","","","","NA"
"2013-10-29 14:00","2013","10","29","14:00","1.8","","-7.8","","49","","30","","9","","","","100.58","","","","","","NA"
"2013-10-29 15:00","2013","10","29","15:00","2.0","","-6.4","","54","","29","","13","","","","100.52","","","","","","NA"
"2013-10-29 16:00","2013","10","29","16:00","2.2","","-6.1","","54","","27","","13","","","","100.47","","","","","","NA"
"2013-10-29 17:00","2013","10","29","17:00","2.1","","-5.6","","57","","25","","9","","","","100.41","","","","","","NA"
"2013-10-29 18:00","2013","10","29","18:00","2.2","","-2.9","","69","","21","","9","","","","100.34","","","","","","NA"
"2013-10-29 19:00","2013","10","29","19:00","2.0","","-2.9","","70","","28","","9","","","","100.33","","","","","","NA"
"2013-10-29 20:00","2013","10","29","20:00","2.6","","-3.4","","65","","27","","11","","","","100.27","","","","","","NA"
"2013-10-29 21:00","2013","10","29","21:00","2.6","","-2.8","","68","","27","","9","","","","100.23","","","","","","NA"
"2013-10-29 22:00","2013","10","29","22:00","2.6","","-2.5","","69","","32","","6","","","","100.19","","","","","","NA"
"2013-10-29 23:00","2013","10","29","23:00","2.5","","-0.1","","83","","27","","13","","","","100.10","","","","","","NA"
"2013-10-30 00:00","2013","10","30","00:00","1.1","","-0.1","","92","","1","","6","","","","100.08","","","","","","NA"
"2013-10-30 01:00","2013","10","30","01:00","0.6","","-0.3","","94","","4","","2","","","","100.07","","","","","","NA"
"2013-10-30 02:00","2013","10","30","02:00","0.6","","-0.2","","94","","","","0","","","","100.07","","","","","","NA"
"2013-10-30 03:00","2013","10","30","03:00","0.4","","-0.3","","95","","36","","2","","","","100.04","","","","","","NA"
"2013-10-30 04:00","2013","10","30","04:00","1.5","","0.7","","94","","18","","6","","","","99.99","","","","","","NA"
"2013-10-30 05:00","2013","10","30","05:00","1.3","","0.4","","94","","8","","4","","","","99.98","","","","","","NA"
"2013-10-30 06:00","2013","10","30","06:00","1.2","","0.4","","94","","7","","6","","","","99.97","","","","","","NA"
"2013-10-30 07:00","2013","10","30","07:00","1.3","","0.5","","94","","5","","7","","","","99.96","","","","","","NA"
"2013-10-30 08:00","2013","10","30","08:00","1.5","","0.7","","94","","6","","7","","","","99.98","","","","","","NA"
"2013-10-30 09:00","2013","10","30","09:00","2.2","","1.4","","94","","6","","6","","","","99.97","","","","","","NA"
"2013-10-30 10:00","2013","10","30","10:00","2.7","","1.9","","94","","5","","4","","","","99.97","","","","","","NA"
"2013-10-30 11:00","2013","10","30","11:00","3.2","","2.0","","92","","8","","9","","","","99.96","","","","","","NA"
"2013-10-30 12:00","2013","10","30","12:00","4.6","","1.8","","82","","16","","9","","","","99.92","","","","","","NA"
"2013-10-30 13:00","2013","10","30","13:00","5.2","","2.0","","80","","14","","7","","","","99.77","","","","","","NA"
"2013-10-30 14:00","2013","10","30","14:00","5.7","","2.5","","80","","16","","7","","","","99.73","","","","","","NA"
"2013-10-30 15:00","2013","10","30","15:00","6.0","","3.3","","83","","17","","6","","","","99.69","","","","","","NA"
"2013-10-30 16:00","2013","10","30","16:00","6.4","","3.5","","82","","15","","7","","","","99.65","","","","","","NA"
"2013-10-30 17:00","2013","10","30","17:00","6.8","","4.6","","86","","11","","11","","","","99.57","","","","","","NA"
"2013-10-30 18:00","2013","10","30","18:00","7.1","","5.1","","87","","11","","11","","","","99.55","","","","","","NA"
"2013-10-30 19:00","2013","10","30","19:00","7.5","","5.9","","90","","12","","15","","","","99.48","","","","","","NA"
"2013-10-30 20:00","2013","10","30","20:00","7.8","","6.3","","90","","12","","15","","","","99.42","","","","","","NA"
"2013-10-30 21:00","2013","10","30","21:00","7.9","","6.4","","90","","11","","15","","","","99.37","","","","","","NA"
"2013-10-30 22:00","2013","10","30","22:00","8.1","","6.7","","91","","13","","19","","","","99.29","","","","","","NA"
"2013-10-30 23:00","2013","10","30","23:00","8.4","","7.2","","92","","8","","9","","","","99.24","","","","","","NA"
"2013-10-31 00:00","2013","10","31","00:00","8.7","","7.4","","92","","7","","11","","","","99.12","","","","","","NA"
"2013-10-31 01:00","2013","10","31","01:00","9.0","","6.6","","85","","9","","9","","","","98.98","","","","","","NA"
"2013-10-31 02:00","2013","10","31","02:00","9.0","","6.4","","84","","11","","11","","","","98.85","","","","","","NA"
"2013-10-31 03:00","2013","10","31","03:00","8.6","","6.9","","89","","14","","22","","","","98.72","","","","","","NA"
"2013-10-31 04:00","2013","10","31","04:00","8.5","","7.2","","92","","13","","17","","","","98.57","","","","","","NA"
"2013-10-31 05:00","2013","10","31","05:00","8.1","","7.0","","93","","8","","11","","","","98.49","","","","","","NA"
"2013-10-31 06:00","2013","10","31","06:00","8.2","","7.2","","93","","11","","19","","","","98.40","","","","","","NA"
"2013-10-31 07:00","2013","10","31","07:00","8.0","","7.1","","94","","9","","19","","","","98.28","","","","","","NA"
"2013-10-31 08:00","2013","10","31","08:00","8.0","","7.1","","94","","9","","17","","","","98.21","","","","","","NA"
"2013-10-31 09:00","2013","10","31","09:00","8.3","","7.4","","94","","8","","15","","","","98.06","","","","","","NA"
"2013-10-31 10:00","2013","10","31","10:00","8.9","","8.0","","94","","7","","15","","","","97.97","","","","","","NA"
"2013-10-31 11:00","2013","10","31","11:00","8.7","","7.8","","94","","8","","15","","","","97.89","","","","","","NA"
"2013-10-31 12:00","2013","10","31","12:00","9.4","","8.6","","95","","8","","15","","","","97.77","","","","","","NA"
"2013-10-31 13:00","2013","10","31","13:00","9.9","","9.1","","95","","7","","15","","","","97.59","","","","","","NA"
"2013-10-31 14:00","2013","10","31","14:00","9.9","","9.1","","95","","7","","15","","","","97.43","","","","","","NA"
"2013-10-31 15:00","2013","10","31","15:00","9.5","","8.7","","95","","8","","15","","","","97.35","","","","","","NA"
"2013-10-31 16:00","2013","10","31","16:00","9.1","","8.3","","95","","9","","11","","","","97.25","","","","","","NA"
"2013-10-31 17:00","2013","10","31","17:00","9.9","","9.1","","95","","9","","13","","","","97.15","","","","","","NA"
"2013-10-31 18:00","2013","10","31","18:00","9.8","","9.0","","95","","8","","9","","","","97.07","","","","","","NA"
"2013-10-31 19:00","2013","10","31","19:00","10.0","","9.2","","95","","17","","4","","","","96.97","","","","","","NA"
"2013-10-31 20:00","2013","10","31","20:00","10.1","","9.3","","95","","17","","17","","","","96.77","","","","","","NA"
"2013-10-31 21:00","2013","10","31","21:00","10.0","","9.2","","95","","19","","19","","","","96.62","","","","","","NA"
"2013-10-31 22:00","2013","10","31","22:00","10.2","","9.4","","95","","19","","22","","","","96.43","","","","","","NA"
"2013-10-31 23:00","2013","10","31","23:00","10.3","","9.5","","95","","18","","20","","","","96.25","","","","","","NA"
