"Station Name","KILLARNEY (AUT)"
"Province","ONTARIO"
"Latitude","45.97"
"Longitude","-81.48"
"Elevation","196.30"
"Climate Identifier","605DJ25"
"WMO Identifier","71460"
"TC Identifier","WBE"
"All times are specified in Local Standard Time (LST). Add 1 hour to adjust for Daylight Saving Time where and when it is observed."

"Legend"
"E","Estimated"
"M","Missing"
"NA","Not Available"

"Date/Time","Year","Month","Day","Time","Temp (°C)","Temp Flag","Dew Point Temp (°C)","Dew Point Temp Flag","Rel Hum (%)","Rel Hum Flag","Wind Dir (10s deg)","Wind Dir Flag","Wind Spd (km/h)","Wind Spd Flag","Visibility (km)","Visibility Flag","Stn Press (kPa)","Stn Press Flag","Hmdx","Hmdx Flag","Wind Chill","Wind Chill Flag","Weather"
"2001-11-01 00:00","2001","11","01","00:00","11.2","","5.1","","66","","9","","2","","15.0","","99.06","","","","","","NA"
"2001-11-01 01:00","2001","11","01","01:00","12.9","","4.4","","56","","28","","15","","15.0","","99.13","","","","","","NA"
"2001-11-01 02:00","2001","11","01","02:00","10.5","","7.4","","81","","32","","9","","15.0","","99.09","","","","","","NA"
"2001-11-01 03:00","2001","11","01","03:00","11.2","","5.9","","70","","19","","6","","15.0","","99.02","","","","","","NA"
"2001-11-01 04:00","2001","11","01","04:00","10.0","","6.7","","80","","22","","17","","15.0","","99.02","","","","","","NA"
"2001-11-01 05:00","2001","11","01","05:00","9.2","","7.7","","90","","23","","9","","11.3","","99.00","","","","","","NA"
"2001-11-01 06:00","2001","11","01","06:00","8.9","","7.5","","91","","10","","4","","12.9","","98.91","","","","","","NA"
"2001-11-01 07:00","2001","11","01","07:00","9.6","","7.2","","85","","16","","13","","15.0","","98.81","","","","","","NA"
"2001-11-01 08:00","2001","11","01","08:00","10.2","","6.2","","76","","18","","32","","15.0","","98.79","","","","","","NA"
"2001-11-01 09:00","2001","11","01","09:00","10.4","","6.2","","75","","18","","32","","15.0","","98.77","","","","","","NA"
"2001-11-01 10:00","2001","11","01","10:00","10.8","","5.6","","70","","18","","39","","15.0","","98.68","","","","","","NA"
"2001-11-01 11:00","2001","11","01","11:00","10.6","","5.6","","71","","18","","35","","15.0","","98.66","","","","","","NA"
"2001-11-01 12:00","2001","11","01","12:00","10.7","","5.7","","71","","18","","44","","15.0","","98.54","","","","","","NA"
"2001-11-01 13:00","2001","11","01","13:00","10.5","","5.9","","73","","18","","39","","15.0","","98.54","","","","","","NA"
"2001-11-01 14:00","2001","11","01","14:00","10.4","","6.2","","75","","18","","32","","15.0","","98.52","","","","","","NA"
"2001-11-01 15:00","2001","11","01","15:00","10.3","","7.4","","82","","18","","39","","15.0","","98.45","","","","","","NA"
"2001-11-01 16:00","2001","11","01","16:00","10.5","","7.7","","83","","19","","41","","15.0","","98.52","","","","","","NA"
"2001-11-01 17:00","2001","11","01","17:00","11.0","","9.3","","89","","23","","26","","15.0","","98.59","","","","","","NA"
"2001-11-01 18:00","2001","11","01","18:00","10.4","","9.3","","93","","23","","32","","11.3","","98.57","","","","","","NA"
"2001-11-01 19:00","2001","11","01","19:00","10.8","","9.9","","94","","23","","22","","11.3","","98.59","","","","","","NA"
"2001-11-01 20:00","2001","11","01","20:00","10.4","","9.3","","93","","21","","19","","11.3","","98.55","","","","","","NA"
"2001-11-01 21:00","2001","11","01","21:00","11.7","","10.1","","90","","23","","37","","15.0","","98.57","","","","","","NA"
"2001-11-01 22:00","2001","11","01","22:00","11.5","","9.9","","90","","23","","28","","11.3","","98.59","","","","","","NA"
"2001-11-01 23:00","2001","11","01","23:00","11.4","","10.2","","92","","23","","28","","9.7","","98.57","","","","","","NA"
"2001-11-02 00:00","2001","11","02","00:00","12.0","","10.8","","92","","23","","32","","11.3","","98.59","","","","","","NA"
"2001-11-02 01:00","2001","11","02","01:00","11.6","","10.4","","92","","23","","26","","8.0","","98.57","","","","","","NA"
"2001-11-02 02:00","2001","11","02","02:00","11.1","","10.0","","93","","23","","24","","6.4","","98.59","","","","","","NA"
"2001-11-02 03:00","2001","11","02","03:00","10.6","","9.5","","93","","33","","2","","4.8","","98.59","","","","","","NA"
"2001-11-02 04:00","2001","11","02","04:00","11.4","","10.3","","93","","19","","11","","5.6","","98.55","","","","","","NA"
"2001-11-02 05:00","2001","11","02","05:00","10.7","","9.6","","93","","8","","7","","3.2","","98.57","","","","","","NA"
"2001-11-02 06:00","2001","11","02","06:00","10.3","","9.2","","93","","18","","4","","4.8","","98.57","","","","","","NA"
"2001-11-02 07:00","2001","11","02","07:00","12.6","","11.5","","93","","24","","22","","9.7","","98.54","","","","","","NA"
"2001-11-02 08:00","2001","11","02","08:00","12.8","","11.5","","92","","26","","17","","9.7","","98.59","","","","","","NA"
"2001-11-02 09:00","2001","11","02","09:00","12.5","","10.9","","90","","24","","19","","9.7","","98.57","","","","","","NA"
"2001-11-02 10:00","2001","11","02","10:00","12.7","","11.1","","90","","26","","22","","11.3","","98.59","","","","","","NA"
"2001-11-02 11:00","2001","11","02","11:00","13.7","","5.9","","59","","25","","28","","15.0","","98.59","","","","","","NA"
"2001-11-02 12:00","2001","11","02","12:00","13.7","","0.0","","39","","26","","28","","15.0","","98.55","","","","","","NA"
"2001-11-02 13:00","2001","11","02","13:00","13.6","","-1.7","","35","","27","","33","","15.0","","98.57","","","","","","NA"
"2001-11-02 14:00","2001","11","02","14:00","14.0","","-3.4","","30","","27","","33","","15.0","","98.63","","","","","","NA"
"2001-11-02 15:00","2001","11","02","15:00","14.2","","-4.1","","28","","27","","35","","15.0","","98.66","","","","","","NA"
"2001-11-02 16:00","2001","11","02","16:00","14.3","","-3.1","","30","","27","","26","","15.0","","98.73","","","","","","NA"
"2001-11-02 17:00","2001","11","02","17:00","11.5","","-0.1","","45","","27","","24","","15.0","","98.82","","","","","","NA"
"2001-11-02 18:00","2001","11","02","18:00","10.8","","1.1","","51","","28","","30","","15.0","","98.93","","","","","","NA"
"2001-11-02 19:00","2001","11","02","19:00","10.7","","1.3","","52","","28","","28","","15.0","","99.02","","","","","","NA"
"2001-11-02 20:00","2001","11","02","20:00","10.5","","2.4","","57","","27","","17","","15.0","","99.09","","","","","","NA"
"2001-11-02 21:00","2001","11","02","21:00","10.3","","0.9","","52","","29","","22","","15.0","","99.17","","","","","","NA"
"2001-11-02 22:00","2001","11","02","22:00","9.7","","1.4","","56","","29","","24","","15.0","","99.27","","","","","","NA"
"2001-11-02 23:00","2001","11","02","23:00","9.2","","1.9","","60","","28","","32","","15.0","","99.31","","","","","","NA"
"2001-11-03 00:00","2001","11","03","00:00","8.6","","2.2","","64","","28","","26","","15.0","","99.35","","","","","","NA"
"2001-11-03 01:00","2001","11","03","01:00","8.3","","2.3","","66","","29","","24","","15.0","","99.42","","","","","","NA"
"2001-11-03 02:00","2001","11","03","02:00","8.0","","2.1","","66","","30","","26","","15.0","","99.45","","","","","","NA"
"2001-11-03 03:00","2001","11","03","03:00","7.7","","1.1","","63","","29","","24","","15.0","","99.54","","","","","","NA"
"2001-11-03 04:00","2001","11","03","04:00","7.3","","0.7","","63","","29","","20","","15.0","","99.62","","","","","","NA"
"2001-11-03 05:00","2001","11","03","05:00","7.0","","0.5","","63","","30","","22","","15.0","","99.72","","","","","","NA"
"2001-11-03 06:00","2001","11","03","06:00","6.6","","0.3","","64","","31","","20","","15.0","","99.81","","","","","","NA"
"2001-11-03 07:00","2001","11","03","07:00","6.1","","0.2","","66","","32","","15","","15.0","","99.89","","","","","","NA"
"2001-11-03 08:00","2001","11","03","08:00","6.2","","-0.2","","64","","32","","13","","15.0","","100.03","","","","","","NA"
"2001-11-03 09:00","2001","11","03","09:00","6.5","","-1.0","","59","","33","","13","","15.0","","100.08","","","","","","NA"
"2001-11-03 10:00","2001","11","03","10:00","6.7","","-1.8","","55","","30","","15","","15.0","","100.14","","","","","","NA"
"2001-11-03 11:00","2001","11","03","11:00","7.3","","-2.0","","52","","31","","13","","15.0","","100.12","","","","","","NA"
"2001-11-03 12:00","2001","11","03","12:00","7.4","","-1.4","","54","","28","","15","","15.0","","100.12","","","","","","NA"
"2001-11-03 13:00","2001","11","03","13:00","7.9","","-1.2","","53","","29","","11","","15.0","","100.08","","","","","","NA"
"2001-11-03 14:00","2001","11","03","14:00","8.1","","-1.0","","53","","28","","11","","15.0","","100.05","","","","","","NA"
"2001-11-03 15:00","2001","11","03","15:00","8.2","","-0.4","","55","","27","","20","","15.0","","100.07","","","","","","NA"
"2001-11-03 16:00","2001","11","03","16:00","7.7","","-0.1","","58","","28","","22","","15.0","","100.08","","","","","","NA"
"2001-11-03 17:00","2001","11","03","17:00","7.4","","0.8","","63","","27","","20","","15.0","","100.01","","","","","","NA"
"2001-11-03 18:00","2001","11","03","18:00","7.0","","1.3","","67","","27","","19","","15.0","","100.01","","","","","","NA"
"2001-11-03 19:00","2001","11","03","19:00","7.0","","1.3","","67","","27","","19","","15.0","","100.01","","","","","","NA"
"2001-11-03 20:00","2001","11","03","20:00","6.9","","1.2","","67","","27","","20","","15.0","","100.01","","","","","","NA"
"2001-11-03 21:00","2001","11","03","21:00","7.1","","1.0","","65","","28","","30","","15.0","","99.98","","","","","","NA"
"2001-11-03 22:00","2001","11","03","22:00","6.8","","1.1","","67","","28","","20","","15.0","","99.96","","","","","","NA"
"2001-11-03 23:00","2001","11","03","23:00","6.3","","1.0","","69","","30","","17","","15.0","","99.92","","","","","","NA"
"2001-11-04 00:00","2001","11","04","00:00","6.5","","2.6","","76","","27","","15","","15.0","","99.87","","","","","","NA"
"2001-11-04 01:00","2001","11","04","01:00","6.5","","3.1","","79","","27","","13","","15.0","","99.78","","","","","","NA"
"2001-11-04 02:00","2001","11","04","02:00","6.7","","4.5","","86","","23","","22","","15.0","","99.67","","","","","","NA"
"2001-11-04 03:00","2001","11","04","03:00","7.0","","5.0","","87","","18","","20","","15.0","","99.54","","","","","","NA"
"2001-11-04 04:00","2001","11","04","04:00","7.6","","5.9","","89","","18","","24","","15.0","","99.45","","","","","","NA"
"2001-11-04 05:00","2001","11","04","05:00","7.9","","6.4","","90","","18","","20","","15.0","","99.40","","","","","","NA"
"2001-11-04 06:00","2001","11","04","06:00","7.3","","5.6","","89","","26","","7","","15.0","","99.35","","","","","","NA"
"2001-11-04 07:00","2001","11","04","07:00","8.0","","4.2","","77","","27","","15","","15.0","","99.24","","","","","","NA"
"2001-11-04 08:00","2001","11","04","08:00","8.2","","4.6","","78","","29","","24","","15.0","","99.27","","","","","","NA"
"2001-11-04 09:00","2001","11","04","09:00","7.3","","2.4","","71","","31","","24","","15.0","","99.31","","","","","","NA"
"2001-11-04 10:00","2001","11","04","10:00","7.3","","2.2","","70","","32","","19","","15.0","","99.35","","","","","","NA"
"2001-11-04 11:00","2001","11","04","11:00","8.6","","0.3","","56","","31","","22","","15.0","","99.36","","","","","","NA"
"2001-11-04 12:00","2001","11","04","12:00","9.6","","-1.5","","46","","31","","26","","15.0","","99.36","","","","","","NA"
"2001-11-04 13:00","2001","11","04","13:00","9.8","","-3.2","","40","","32","","19","","15.0","","99.38","","","","","","NA"
"2001-11-04 14:00","2001","11","04","14:00","9.3","","-4.4","","38","","33","","28","","15.0","","99.44","","","","","","NA"
"2001-11-04 15:00","2001","11","04","15:00","8.6","","-4.7","","39","","33","","26","","15.0","","99.51","","","","","","NA"
"2001-11-04 16:00","2001","11","04","16:00","7.1","","-5.3","","41","","35","","17","","15.0","","99.65","","","","","","NA"
"2001-11-04 17:00","2001","11","04","17:00","6.3","","-5.1","","44","","35","","15","","15.0","","99.69","","","","","","NA"
"2001-11-04 18:00","2001","11","04","18:00","5.8","","-5.0","","46","","1","","17","","15.0","","99.80","","","","","","NA"
"2001-11-04 19:00","2001","11","04","19:00","5.2","","-5.0","","48","","34","","11","","15.0","","99.90","","","","","","NA"
"2001-11-04 20:00","2001","11","04","20:00","4.6","","-4.2","","53","","33","","15","","15.0","","99.99","","","","","","NA"
"2001-11-04 21:00","2001","11","04","21:00","4.1","","-4.2","","55","","33","","11","","15.0","","100.05","","","","","","NA"
"2001-11-04 22:00","2001","11","04","22:00","3.6","","-4.7","","55","","33","","15","","15.0","","100.08","","","","","","NA"
"2001-11-04 23:00","2001","11","04","23:00","3.1","","-4.2","","59","","32","","11","","15.0","","100.10","","","","","","NA"
"2001-11-05 00:00","2001","11","05","00:00","2.7","","-3.5","","64","","32","","9","","15.0","","100.12","","","","","","NA"
"2001-11-05 01:00","2001","11","05","01:00","3.5","","-4.1","","57","","32","","19","","15.0","","100.14","","","","","","NA"
"2001-11-05 02:00","2001","11","05","02:00","3.4","","-5.4","","52","","34","","19","","15.0","","100.17","","","","","","NA"
"2001-11-05 03:00","2001","11","05","03:00","3.3","","-5.2","","54","","35","","11","","15.0","","100.19","","","","","","NA"
"2001-11-05 04:00","2001","11","05","04:00","3.3","","-6.0","","50","","35","","15","","15.0","","100.26","","","","","","NA"
"2001-11-05 05:00","2001","11","05","05:00","3.1","","-5.9","","52","","35","","15","","15.0","","100.30","","","","","","NA"
"2001-11-05 06:00","2001","11","05","06:00","2.5","","-6.4","","52","","33","","9","","15.0","","100.35","","","","","","NA"
"2001-11-05 07:00","2001","11","05","07:00","2.6","","-6.1","","53","","35","","9","","15.0","","100.39","","","","","","NA"
"2001-11-05 08:00","2001","11","05","08:00","2.5","","-6.4","","52","","36","","11","","15.0","","100.43","","","","","","NA"
"2001-11-05 09:00","2001","11","05","09:00","2.9","","-6.6","","50","","35","","11","","15.0","","100.44","","","","","","NA"
"2001-11-05 10:00","2001","11","05","10:00","3.2","","-6.3","","50","","1","","15","","15.0","","100.44","","","","","","NA"
"2001-11-05 11:00","2001","11","05","11:00","4.1","","-6.6","","46","","1","","9","","15.0","","100.43","","","","","","NA"
"2001-11-05 12:00","2001","11","05","12:00","4.6","","-6.1","","46","","32","","9","","15.0","","100.39","","","","","","NA"
"2001-11-05 13:00","2001","11","05","13:00","4.9","","-5.8","","46","","30","","13","","15.0","","100.35","","","","","","NA"
"2001-11-05 14:00","2001","11","05","14:00","5.4","","-5.7","","45","","30","","11","","15.0","","100.26","","","","","","NA"
"2001-11-05 15:00","2001","11","05","15:00","5.7","","-5.4","","45","","30","","13","","15.0","","100.26","","","","","","NA"
"2001-11-05 16:00","2001","11","05","16:00","7.1","","-3.8","","46","","29","","9","","15.0","","100.25","","","","","","NA"
"2001-11-05 17:00","2001","11","05","17:00","4.9","","-4.2","","52","","27","","11","","15.0","","100.26","","","","","","NA"
"2001-11-05 18:00","2001","11","05","18:00","4.3","","-3.6","","56","","28","","7","","15.0","","100.25","","","","","","NA"
"2001-11-05 19:00","2001","11","05","19:00","4.1","","-4.5","","53","","27","","7","","15.0","","100.25","","","","","","NA"
"2001-11-05 20:00","2001","11","05","20:00","3.7","","-2.4","","64","","31","","6","","15.0","","100.23","","","","","","NA"
"2001-11-05 21:00","2001","11","05","21:00","3.3","","-1.2","","72","","33","","2","","15.0","","100.23","","","","","","NA"
"2001-11-05 22:00","2001","11","05","22:00","3.2","","0.3","","81","","26","","2","","15.0","","100.23","","","","","","NA"
"2001-11-05 23:00","2001","11","05","23:00","3.9","","-1.0","","70","","25","","6","","15.0","","100.17","","","","","","NA"
"2001-11-06 00:00","2001","11","06","00:00","4.2","","-1.7","","65","","24","","9","","15.0","","100.17","","","","","","NA"
"2001-11-06 01:00","2001","11","06","01:00","4.3","","-1.6","","65","","24","","9","","15.0","","100.14","","","","","","NA"
"2001-11-06 02:00","2001","11","06","02:00","4.3","","-0.6","","70","","26","","11","","15.0","","100.14","","","","","","NA"
"2001-11-06 03:00","2001","11","06","03:00","4.4","","1.1","","79","","26","","9","","15.0","","100.08","","","","","","NA"
"2001-11-06 04:00","2001","11","06","04:00","4.7","","1.9","","82","","25","","9","","15.0","","100.05","","","","","","NA"
"2001-11-06 05:00","2001","11","06","05:00","4.8","","2.8","","87","","25","","6","","15.0","","100.03","","","","","","NA"
"2001-11-06 06:00","2001","11","06","06:00","6.0","","3.7","","85","","20","","11","","15.0","","99.94","","","","","","NA"
"2001-11-06 07:00","2001","11","06","07:00","6.3","","4.3","","87","","23","","17","","15.0","","99.89","","","","","","NA"
"2001-11-06 08:00","2001","11","06","08:00","6.4","","3.7","","83","","24","","13","","15.0","","99.85","","","","","","NA"
"2001-11-06 09:00","2001","11","06","09:00","7.1","","4.4","","83","","23","","19","","15.0","","99.81","","","","","","NA"
"2001-11-06 10:00","2001","11","06","10:00","8.0","","4.4","","78","","23","","19","","15.0","","99.74","","","","","","NA"
"2001-11-06 11:00","2001","11","06","11:00","8.9","","2.9","","66","","23","","15","","15.0","","99.71","","","","","","NA"
"2001-11-06 12:00","2001","11","06","12:00","9.2","","3.4","","67","","22","","17","","15.0","","99.62","","","","","","NA"
"2001-11-06 13:00","2001","11","06","13:00","9.7","","2.3","","60","","23","","28","","15.0","","99.53","","","","","","NA"
"2001-11-06 14:00","2001","11","06","14:00","9.8","","2.9","","62","","23","","26","","15.0","","99.45","","","","","","NA"
"2001-11-06 15:00","2001","11","06","15:00","9.3","","4.3","","71","","23","","22","","15.0","","99.42","","","","","","NA"
"2001-11-06 16:00","2001","11","06","16:00","9.1","","4.5","","73","","23","","20","","15.0","","99.40","","","","","","NA"
"2001-11-06 17:00","2001","11","06","17:00","8.7","","6.0","","83","","20","","9","","15.0","","99.36","","","","","","NA"
"2001-11-06 18:00","2001","11","06","18:00","8.0","","6.8","","92","","8","","4","","15.0","","99.33","","","","","","NA"
"2001-11-06 19:00","2001","11","06","19:00","8.6","","5.7","","82","","32","","6","","15.0","","99.36","","","","","","NA"
"2001-11-06 20:00","2001","11","06","20:00","8.7","","5.5","","80","","","","0","","15.0","","99.36","","","","","","NA"
"2001-11-06 21:00","2001","11","06","21:00","8.5","","6.3","","86","","23","","7","","15.0","","99.29","","","","","","NA"
"2001-11-06 22:00","2001","11","06","22:00","8.8","","6.4","","85","","31","","11","","15.0","","99.33","","","","","","NA"
"2001-11-06 23:00","2001","11","06","23:00","9.8","","5.8","","76","","31","","13","","15.0","","99.33","","","","","","NA"
"2001-11-07 00:00","2001","11","07","00:00","10.0","","5.6","","74","","31","","15","","15.0","","99.40","","","","","","NA"
"2001-11-07 01:00","2001","11","07","01:00","9.5","","5.3","","75","","32","","15","","15.0","","99.45","","","","","","NA"
"2001-11-07 02:00","2001","11","07","02:00","9.3","","5.1","","75","","32","","11","","15.0","","99.56","","","","","","NA"
"2001-11-07 03:00","2001","11","07","03:00","8.8","","5.9","","82","","28","","4","","15.0","","99.63","","","","","","NA"
"2001-11-07 04:00","2001","11","07","04:00","8.3","","5.4","","82","","31","","7","","15.0","","99.74","","","","","","NA"
"2001-11-07 05:00","2001","11","07","05:00","8.5","","4.3","","75","","3","","7","","15.0","","99.83","","","","","","NA"
"2001-11-07 06:00","2001","11","07","06:00","6.8","","0.5","","64","","3","","19","","15.0","","99.99","","","","","","NA"
"2001-11-07 07:00","2001","11","07","07:00","6.2","","-0.6","","62","","1","","19","","15.0","","100.07","","","","","","NA"
"2001-11-07 08:00","2001","11","07","08:00","6.0","","-0.8","","62","","2","","15","","15.0","","100.16","","","","","","NA"
"2001-11-07 09:00","2001","11","07","09:00","6.3","","-1.9","","56","","4","","15","","15.0","","100.17","","","","","","NA"
"2001-11-07 10:00","2001","11","07","10:00","7.3","","-3.4","","47","","4","","13","","15.0","","100.19","","","","","","NA"
"2001-11-07 11:00","2001","11","07","11:00","7.6","","-4.6","","42","","4","","15","","15.0","","100.21","","","","","","NA"
"2001-11-07 12:00","2001","11","07","12:00","8.3","","-4.9","","39","","2","","11","","15.0","","100.17","","","","","","NA"
"2001-11-07 13:00","2001","11","07","13:00","8.6","","-5.4","","37","","5","","11","","15.0","","100.14","","","","","","NA"
"2001-11-07 14:00","2001","11","07","14:00","8.9","","-5.4","","36","","8","","15","","15.0","","100.08","","","","","","NA"
"2001-11-07 15:00","2001","11","07","15:00","9.1","","-6.0","","34","","6","","11","","15.0","","100.10","","","","","","NA"
"2001-11-07 16:00","2001","11","07","16:00","9.8","","-5.8","","33","","3","","7","","15.0","","100.14","","","","","","NA"
"2001-11-07 17:00","2001","11","07","17:00","7.0","","-6.8","","37","","4","","7","","15.0","","100.12","","","","","","NA"
"2001-11-07 18:00","2001","11","07","18:00","6.0","","-7.0","","39","","3","","9","","15.0","","100.12","","","","","","NA"
"2001-11-07 19:00","2001","11","07","19:00","5.6","","-6.7","","41","","5","","13","","15.0","","100.07","","","","","","NA"
"2001-11-07 20:00","2001","11","07","20:00","5.0","","-4.9","","49","","8","","19","","15.0","","99.98","","","","","","NA"
"2001-11-07 21:00","2001","11","07","21:00","4.2","","-4.1","","55","","9","","24","","15.0","","99.94","","","","","","NA"
"2001-11-07 22:00","2001","11","07","22:00","3.4","","-3.7","","60","","9","","24","","15.0","","99.90","","","","","","NA"
"2001-11-07 23:00","2001","11","07","23:00","2.7","","-2.5","","69","","9","","24","","15.0","","99.80","","","","","","NA"
"2001-11-08 00:00","2001","11","08","00:00","2.8","","-1.8","","72","","9","","28","","15.0","","99.67","","","","","","NA"
"2001-11-08 01:00","2001","11","08","01:00","2.5","","-1.4","","75","","8","","24","","15.0","","99.53","","","","","","NA"
"2001-11-08 02:00","2001","11","08","02:00","2.5","","0.2","","85","","7","","20","","15.0","","99.38","","","","","","NA"
"2001-11-08 03:00","2001","11","08","03:00","7.5","","5.0","","84","","13","","33","","15.0","","99.17","","","","","","NA"
"2001-11-08 04:00","2001","11","08","04:00","8.1","","6.6","","90","","12","","28","","15.0","","99.08","","","","","","NA"
"2001-11-08 05:00","2001","11","08","05:00","3.1","","2.5","","96","","6","","20","","15.0","","98.93","","","","","","NA"
"2001-11-08 06:00","2001","11","08","06:00","4.1","","3.5","","96","","8","","22","","15.0","","98.75","","","","","","NA"
"2001-11-08 07:00","2001","11","08","07:00","8.5","","7.9","","96","","14","","19","","7.2","","98.61","","","","","","NA"
"2001-11-08 08:00","2001","11","08","08:00","9.0","","8.4","","96","","18","","15","","5.6","","98.45","","","","","","NA"
"2001-11-08 09:00","2001","11","08","09:00","8.8","","8.2","","96","","22","","15","","2.9","","98.32","","","","","","NA"
"2001-11-08 10:00","2001","11","08","10:00","9.0","","8.4","","96","","23","","22","","3.2","","98.25","","","","","","NA"
"2001-11-08 11:00","2001","11","08","11:00","8.9","","8.3","","96","","27","","24","","12.9","","98.25","","","","","","NA"
"2001-11-08 12:00","2001","11","08","12:00","7.5","","6.8","","95","","29","","26","","15.0","","98.23","","","","","","NA"
"2001-11-08 13:00","2001","11","08","13:00","6.6","","5.9","","95","","29","","20","","15.0","","98.23","","","","","","NA"
"2001-11-08 14:00","2001","11","08","14:00","6.7","","4.9","","88","","30","","24","","15.0","","98.34","","","","","","NA"
"2001-11-08 15:00","2001","11","08","15:00","5.0","","1.7","","79","","33","","24","","15.0","","98.50","","","","","","NA"
"2001-11-08 16:00","2001","11","08","16:00","3.9","","-1.0","","70","","32","","22","","15.0","","98.68","","","","","","NA"
"2001-11-08 17:00","2001","11","08","17:00","2.4","","-4.2","","62","","34","","30","","15.0","","98.91","","","","","","NA"
"2001-11-08 18:00","2001","11","08","18:00","1.6","","-5.4","","60","","33","","28","","15.0","","99.13","","","","","","NA"
"2001-11-08 19:00","2001","11","08","19:00","1.5","","-5.7","","59","","33","","30","","15.0","","99.31","","","","","","NA"
"2001-11-08 20:00","2001","11","08","20:00","1.4","","-6.3","","56","","33","","28","","15.0","","99.49","","","","","","NA"
"2001-11-08 21:00","2001","11","08","21:00","1.1","","-6.1","","59","","34","","24","","15.0","","99.67","","","","","","NA"
"2001-11-08 22:00","2001","11","08","22:00","1.0","","-6.6","","57","","33","","24","","15.0","","99.81","","","","","","NA"
"2001-11-08 23:00","2001","11","08","23:00","0.4","","-7.4","","56","","34","","19","","15.0","","99.90","","","","","","NA"
"2001-11-09 00:00","2001","11","09","00:00","0.1","","-8.2","","54","","34","","17","","15.0","","99.96","","","","","","NA"
"2001-11-09 01:00","2001","11","09","01:00","-0.1","","-8.1","","55","","34","","17","","15.0","","100.01","","","","-5","","NA"
"2001-11-09 02:00","2001","11","09","02:00","0.0","","-7.6","","57","","32","","17","","15.0","","100.08","","","","-5","","NA"
"2001-11-09 03:00","2001","11","09","03:00","-0.6","","-8.2","","56","","32","","19","","15.0","","100.12","","","","-6","","NA"
"2001-11-09 04:00","2001","11","09","04:00","-1.1","","-7.7","","61","","34","","13","","15.0","","100.16","","","","-5","","NA"
"2001-11-09 05:00","2001","11","09","05:00","-1.2","","-8.1","","59","","36","","6","","15.0","","100.17","","","","-3","","NA"
"2001-11-09 06:00","2001","11","09","06:00","-1.0","","-7.2","","63","","2","","4","","15.0","","100.19","","","","-2","","NA"
"2001-11-09 07:00","2001","11","09","07:00","-1.0","","-7.0","","64","","3","","2","","15.0","","100.19","","","","-2","","NA"
"2001-11-09 08:00","2001","11","09","08:00","-0.8","","-6.8","","64","","3","","4","","15.0","","100.14","","","","-2","","NA"
"2001-11-09 09:00","2001","11","09","09:00","0.6","","-5.3","","65","","8","","7","","15.0","","100.10","","","","","","NA"
"2001-11-09 10:00","2001","11","09","10:00","1.1","","-4.6","","66","","15","","7","","15.0","","100.05","","","","","","NA"
"2001-11-09 11:00","2001","11","09","11:00","2.1","","-3.7","","65","","23","","20","","15.0","","99.96","","","","","","NA"
"2001-11-09 12:00","2001","11","09","12:00","2.6","","-0.9","","78","","19","","20","","15.0","","99.81","","","","","","NA"
"2001-11-09 13:00","2001","11","09","13:00","4.2","","-1.5","","66","","23","","30","","15.0","","99.67","","","","","","NA"
"2001-11-09 14:00","2001","11","09","14:00","4.7","","-3.2","","57","","24","","30","","15.0","","99.56","","","","","","NA"
"2001-11-09 15:00","2001","11","09","15:00","5.0","","-1.5","","63","","24","","24","","15.0","","99.51","","","","","","NA"
"2001-11-09 16:00","2001","11","09","16:00","5.2","","-1.1","","64","","23","","24","","15.0","","99.49","","","","","","NA"
"2001-11-09 17:00","2001","11","09","17:00","5.8","","0.2","","67","","23","","20","","15.0","","99.40","","","","","","NA"
"2001-11-09 18:00","2001","11","09","18:00","6.3","","0.4","","66","","23","","24","","15.0","","99.36","","","","","","NA"
"2001-11-09 19:00","2001","11","09","19:00","6.2","","1.3","","71","","24","","17","","15.0","","99.36","","","","","","NA"
"2001-11-09 20:00","2001","11","09","20:00","6.7","","2.4","","74","","23","","19","","15.0","","99.31","","","","","","NA"
"2001-11-09 21:00","2001","11","09","21:00","6.7","","2.8","","76","","23","","20","","15.0","","99.26","","","","","","NA"
"2001-11-09 22:00","2001","11","09","22:00","6.8","","1.5","","69","","27","","17","","15.0","","99.22","","","","","","NA"
"2001-11-09 23:00","2001","11","09","23:00","6.5","","1.6","","71","","26","","15","","15.0","","99.09","","","","","","NA"
"2001-11-10 00:00","2001","11","10","00:00","6.9","","2.4","","73","","27","","17","","15.0","","99.06","","","","","","NA"
"2001-11-10 01:00","2001","11","10","01:00","6.9","","2.0","","71","","27","","15","","15.0","","99.02","","","","","","NA"
"2001-11-10 02:00","2001","11","10","02:00","6.7","","1.8","","71","","27","","13","","15.0","","98.91","","","","","","NA"
"2001-11-10 03:00","2001","11","10","03:00","6.4","","2.1","","74","","31","","2","","15.0","","98.88","","","","","","NA"
"2001-11-10 04:00","2001","11","10","04:00","6.6","","2.9","","77","","20","","4","","15.0","","98.82","","","","","","NA"
"2001-11-10 05:00","2001","11","10","05:00","6.3","","2.9","","79","","19","","6","","15.0","","98.75","","","","","","NA"
"2001-11-10 06:00","2001","11","10","06:00","6.1","","2.9","","80","","23","","6","","15.0","","98.68","","","","","","NA"
"2001-11-10 07:00","2001","11","10","07:00","4.4","","2.4","","87","","5","","9","","15.0","","98.61","","","","","","NA"
"2001-11-10 08:00","2001","11","10","08:00","4.3","","2.8","","90","","5","","7","","15.0","","98.57","","","","","","NA"
"2001-11-10 09:00","2001","11","10","09:00","5.0","","3.2","","88","","6","","7","","15.0","","98.57","","","","","","NA"
"2001-11-10 10:00","2001","11","10","10:00","6.0","","2.6","","79","","7","","9","","15.0","","98.59","","","","","","NA"
"2001-11-10 11:00","2001","11","10","11:00","7.3","","1.8","","68","","3","","11","","15.0","","98.61","","","","","","NA"
"2001-11-10 12:00","2001","11","10","12:00","7.1","","1.0","","65","","1","","19","","15.0","","98.59","","","","","","NA"
"2001-11-10 13:00","2001","11","10","13:00","4.7","","0.5","","74","","1","","24","","15.0","","98.68","","","","","","NA"
"2001-11-10 14:00","2001","11","10","14:00","4.1","","-0.6","","71","","1","","20","","15.0","","98.81","","","","","","NA"
"2001-11-10 15:00","2001","11","10","15:00","4.1","","-2.4","","63","","1","","24","","15.0","","98.93","","","","","","NA"
"2001-11-10 16:00","2001","11","10","16:00","3.7","","-3.4","","60","","1","","20","","15.0","","99.06","","","","","","NA"
"2001-11-10 17:00","2001","11","10","17:00","3.2","","-5.1","","54","","36","","24","","15.0","","99.27","","","","","","NA"
"2001-11-10 18:00","2001","11","10","18:00","2.8","","-6.4","","51","","1","","17","","15.0","","99.40","","","","","","NA"
"2001-11-10 19:00","2001","11","10","19:00","2.2","","-6.0","","55","","1","","9","","15.0","","99.53","","","","","","NA"
"2001-11-10 20:00","2001","11","10","20:00","1.4","","-5.2","","61","","35","","17","","15.0","","99.63","","","","","","NA"
"2001-11-10 21:00","2001","11","10","21:00","0.7","","-6.3","","59","","35","","13","","15.0","","99.74","","","","","","NA"
"2001-11-10 22:00","2001","11","10","22:00","0.8","","-6.4","","59","","35","","15","","15.0","","99.83","","","","","","NA"
"2001-11-10 23:00","2001","11","10","23:00","0.0","","-9.5","","49","","1","","24","","15.0","","99.92","","","","-6","","NA"
"2001-11-11 00:00","2001","11","11","00:00","-0.4","","-9.4","","51","","2","","15","","15.0","","100.01","","","","-5","","NA"
"2001-11-11 01:00","2001","11","11","01:00","-1.0","","-10.2","","50","","36","","19","","15.0","","100.08","","","","-6","","NA"
"2001-11-11 02:00","2001","11","11","02:00","-1.8","","-10.4","","52","","34","","15","","15.0","","100.16","","","","-7","","NA"
"2001-11-11 03:00","2001","11","11","03:00","-2.4","","-11.2","","51","","36","","17","","15.0","","100.19","","","","-8","","NA"
"2001-11-11 04:00","2001","11","11","04:00","-2.8","","-11.1","","53","","34","","9","","15.0","","100.25","","","","-6","","NA"
"2001-11-11 05:00","2001","11","11","05:00","-3.1","","-11.4","","53","","34","","11","","15.0","","100.26","","","","-7","","NA"
"2001-11-11 06:00","2001","11","11","06:00","-3.3","","-10.9","","56","","33","","11","","15.0","","100.32","","","","-8","","NA"
"2001-11-11 07:00","2001","11","11","07:00","-3.5","","-10.7","","57","","33","","7","","15.0","","100.39","","","","-6","","NA"
"2001-11-11 08:00","2001","11","11","08:00","-2.9","","-10.5","","56","","32","","9","","15.0","","100.46","","","","-6","","NA"
"2001-11-11 09:00","2001","11","11","09:00","-1.8","","-10.9","","50","","32","","11","","15.0","","100.50","","","","-6","","NA"
"2001-11-11 10:00","2001","11","11","10:00","-1.8","","-12.0","","46","","28","","11","","15.0","","100.52","","","","-6","","NA"
"2001-11-11 11:00","2001","11","11","11:00","-1.6","","-11.5","","47","","28","","13","","15.0","","100.48","","","","-6","","NA"
"2001-11-11 12:00","2001","11","11","12:00","-1.1","","-11.6","","45","","30","","11","","15.0","","100.39","","","","-5","","NA"
"2001-11-11 13:00","2001","11","11","13:00","-0.6","","-10.9","","46","","28","","15","","15.0","","100.34","","","","-5","","NA"
"2001-11-11 14:00","2001","11","11","14:00","0.2","","-9.1","","50","","28","","17","","15.0","","100.30","","","","","","NA"
"2001-11-11 15:00","2001","11","11","15:00","0.8","","-6.8","","57","","27","","20","","15.0","","100.26","","","","","","NA"
"2001-11-11 16:00","2001","11","11","16:00","1.1","","-6.6","","56","","27","","19","","15.0","","100.25","","","","","","NA"
"2001-11-11 17:00","2001","11","11","17:00","1.8","","-5.9","","57","","25","","15","","15.0","","100.17","","","","","","NA"
"2001-11-11 18:00","2001","11","11","18:00","2.9","","-4.0","","60","","27","","15","","15.0","","100.17","","","","","","NA"
"2001-11-11 19:00","2001","11","11","19:00","3.4","","-1.4","","71","","27","","20","","15.0","","100.16","","","","","","NA"
"2001-11-11 20:00","2001","11","11","20:00","4.5","","-3.8","","55","","31","","26","","15.0","","100.19","","","","","","NA"
"2001-11-11 21:00","2001","11","11","21:00","2.4","","-1.7","","74","","32","","19","","5.6","","100.26","","","","","","NA"
"2001-11-11 22:00","2001","11","11","22:00","1.7","","-1.5","","79","","33","","13","","15.0","","100.28","","","","","","NA"
"2001-11-11 23:00","2001","11","11","23:00","1.9","","-4.3","","63","","34","","11","","15.0","","100.32","","","","","","NA"
"2001-11-12 00:00","2001","11","12","00:00","1.8","","-4.0","","65","","35","","7","","15.0","","100.39","","","","","","NA"
"2001-11-12 01:00","2001","11","12","01:00","1.4","","-4.1","","67","","30","","2","","15.0","","100.43","","","","","","NA"
"2001-11-12 02:00","2001","11","12","02:00","0.8","","-4.1","","70","","36","","7","","15.0","","100.52","","","","","","NA"
"2001-11-12 03:00","2001","11","12","03:00","0.2","","-4.5","","71","","1","","9","","15.0","","100.57","","","","","","NA"
"2001-11-12 04:00","2001","11","12","04:00","-0.5","","-5.0","","72","","36","","6","","15.0","","100.62","","","","-3","","NA"
"2001-11-12 05:00","2001","11","12","05:00","-1.5","","-5.4","","75","","","","0","","15.0","","100.70","","","","","","NA"
"2001-11-12 06:00","2001","11","12","06:00","-1.3","","-6.2","","69","","34","","4","","15.0","","100.73","","","","-3","","NA"
"2001-11-12 07:00","2001","11","12","07:00","-1.1","","-6.7","","66","","2","","6","","15.0","","100.79","","","","-3","","NA"
"2001-11-12 08:00","2001","11","12","08:00","-1.4","","-6.4","","69","","1","","7","","15.0","","100.84","","","","-4","","NA"
"2001-11-12 09:00","2001","11","12","09:00","-1.0","","-7.7","","60","","2","","9","","15.0","","100.89","","","","-4","","NA"
"2001-11-12 10:00","2001","11","12","10:00","-0.4","","-10.4","","47","","6","","6","","15.0","","100.91","","","","-2","","NA"
"2001-11-12 11:00","2001","11","12","11:00","1.1","","-8.8","","48","","8","","6","","15.0","","100.95","","","","","","NA"
"2001-11-12 12:00","2001","11","12","12:00","0.6","","-8.5","","50","","20","","6","","15.0","","100.89","","","","","","NA"
"2001-11-12 13:00","2001","11","12","13:00","0.7","","-8.6","","50","","17","","7","","15.0","","100.84","","","","","","NA"
"2001-11-12 14:00","2001","11","12","14:00","1.1","","-8.0","","51","","20","","11","","15.0","","100.79","","","","","","NA"
"2001-11-12 15:00","2001","11","12","15:00","1.1","","-5.9","","60","","20","","11","","15.0","","100.79","","","","","","NA"
"2001-11-12 16:00","2001","11","12","16:00","1.2","","-4.9","","64","","18","","11","","15.0","","100.75","","","","","","NA"
"2001-11-12 17:00","2001","11","12","17:00","1.7","","-3.9","","66","","15","","9","","15.0","","100.71","","","","","","NA"
"2001-11-12 18:00","2001","11","12","18:00"
"2001-11-12 19:00","2001","11","12","19:00","2.7","","-1.9","","72","","14","","17","","15.0","","100.68","","","","","","NA"
"2001-11-12 20:00","2001","11","12","20:00","3.5","","-1.3","","71","","14","","15","","15.0","","100.62","","","","","","NA"
"2001-11-12 21:00","2001","11","12","21:00","4.3","","0.1","","74","","14","","17","","15.0","","100.61","","","","","","NA"
"2001-11-12 22:00","2001","11","12","22:00"
"2001-11-12 23:00","2001","11","12","23:00"
"2001-11-13 00:00","2001","11","13","00:00","6.2","","3.0","","80","","14","","22","","15.0","","100.44","","","","","","NA"
"2001-11-13 01:00","2001","11","13","01:00","6.6","","4.6","","87","","14","","20","","15.0","","100.37","","","","","","NA"
"2001-11-13 02:00","2001","11","13","02:00","7.0","","6.0","","93","","18","","15","","15.0","","100.32","","","","","","NA"
"2001-11-13 03:00","2001","11","13","03:00","7.6","","5.9","","89","","18","","17","","15.0","","100.26","","","","","","NA"
"2001-11-13 04:00","2001","11","13","04:00","6.8","","5.0","","88","","23","","17","","15.0","","100.23","","","","","","NA"
"2001-11-13 05:00","2001","11","13","05:00","6.7","","4.7","","87","","23","","19","","15.0","","100.19","","","","","","NA"
"2001-11-13 06:00","2001","11","13","06:00","6.8","","5.0","","88","","23","","22","","15.0","","100.14","","","","","","NA"
"2001-11-13 07:00","2001","11","13","07:00","6.5","","4.7","","88","","23","","9","","15.0","","100.10","","","","","","NA"
"2001-11-13 08:00","2001","11","13","08:00","6.9","","3.9","","81","","23","","15","","15.0","","100.08","","","","","","NA"
"2001-11-13 09:00","2001","11","13","09:00","7.3","","4.1","","80","","23","","19","","15.0","","100.05","","","","","","NA"
"2001-11-13 10:00","2001","11","13","10:00","8.0","","2.7","","69","","23","","19","","15.0","","100.01","","","","","","NA"
"2001-11-13 11:00","2001","11","13","11:00","8.8","","2.8","","66","","23","","28","","15.0","","99.96","","","","","","NA"
"2001-11-13 12:00","2001","11","13","12:00","8.9","","2.3","","63","","23","","30","","15.0","","99.90","","","","","","NA"
"2001-11-13 13:00","2001","11","13","13:00","9.0","","2.4","","63","","23","","30","","15.0","","99.80","","","","","","NA"
"2001-11-13 14:00","2001","11","13","14:00","9.6","","1.5","","57","","23","","30","","15.0","","99.72","","","","","","NA"
"2001-11-13 15:00","2001","11","13","15:00","9.5","","1.7","","58","","23","","26","","15.0","","99.69","","","","","","NA"
"2001-11-13 16:00","2001","11","13","16:00","8.7","","4.1","","73","","22","","30","","15.0","","99.71","","","","","","NA"
"2001-11-13 17:00","2001","11","13","17:00","8.4","","5.0","","79","","20","","22","","15.0","","99.67","","","","","","NA"
"2001-11-13 18:00","2001","11","13","18:00","8.4","","5.9","","84","","20","","17","","15.0","","99.65","","","","","","NA"
"2001-11-13 19:00","2001","11","13","19:00","8.0","","4.6","","79","","23","","28","","15.0","","99.62","","","","","","NA"
"2001-11-13 20:00","2001","11","13","20:00","8.6","","5.2","","79","","25","","9","","15.0","","99.54","","","","","","NA"
"2001-11-13 21:00","2001","11","13","21:00","8.7","","5.1","","78","","23","","15","","15.0","","99.51","","","","","","NA"
"2001-11-13 22:00","2001","11","13","22:00","9.8","","3.1","","63","","25","","19","","15.0","","99.49","","","","","","NA"
"2001-11-13 23:00","2001","11","13","23:00","9.5","","3.0","","64","","27","","17","","15.0","","99.47","","","","","","NA"
"2001-11-14 00:00","2001","11","14","00:00","8.9","","4.7","","75","","23","","17","","15.0","","99.45","","","","","","NA"
"2001-11-14 01:00","2001","11","14","01:00","9.0","","4.8","","75","","25","","13","","15.0","","99.45","","","","","","NA"
"2001-11-14 02:00","2001","11","14","02:00","8.8","","5.2","","78","","25","","9","","15.0","","99.44","","","","","","NA"
"2001-11-14 03:00","2001","11","14","03:00","8.7","","6.7","","87","","25","","11","","15.0","","99.44","","","","","","NA"
"2001-11-14 04:00","2001","11","14","04:00","8.7","","6.8","","88","","27","","11","","9.7","","99.45","","","","","","NA"
"2001-11-14 05:00","2001","11","14","05:00","8.8","","7.1","","89","","27","","11","","11.3","","99.45","","","","","","NA"
"2001-11-14 06:00","2001","11","14","06:00","8.5","","7.6","","94","","27","","7","","6.4","","99.47","","","","","","NA"
"2001-11-14 07:00","2001","11","14","07:00","8.8","","8.1","","95","","25","","9","","6.4","","99.47","","","","","","NA"
"2001-11-14 08:00","2001","11","14","08:00","8.9","","8.2","","95","","26","","11","","8.0","","99.51","","","","","","NA"
"2001-11-14 09:00","2001","11","14","09:00","9.3","","7.4","","88","","27","","11","","12.9","","99.54","","","","","","NA"
"2001-11-14 10:00","2001","11","14","10:00","8.6","","6.9","","89","","23","","11","","8.0","","99.54","","","","","","NA"
"2001-11-14 11:00","2001","11","14","11:00","9.2","","7.0","","86","","22","","9","","9.7","","99.56","","","","","","NA"
"2001-11-14 12:00","2001","11","14","12:00","8.6","","7.4","","92","","18","","9","","4.8","","99.54","","","","","","NA"
"2001-11-14 13:00","2001","11","14","13:00","10.3","","5.5","","72","","23","","19","","15.0","","99.49","","","","","","NA"
"2001-11-14 14:00","2001","11","14","14:00","10.1","","5.7","","74","","23","","19","","15.0","","99.47","","","","","","NA"
"2001-11-14 15:00","2001","11","14","15:00","10.0","","5.6","","74","","23","","19","","15.0","","99.44","","","","","","NA"
"2001-11-14 16:00","2001","11","14","16:00","10.3","","6.1","","75","","25","","13","","15.0","","99.47","","","","","","NA"
"2001-11-14 17:00","2001","11","14","17:00","9.5","","6.4","","81","","23","","9","","15.0","","99.49","","","","","","NA"
"2001-11-14 18:00","2001","11","14","18:00","9.9","","7.5","","85","","27","","13","","15.0","","99.51","","","","","","NA"
"2001-11-14 19:00","2001","11","14","19:00","9.3","","8.2","","93","","27","","11","","9.7","","99.51","","","","","","NA"
"2001-11-14 20:00","2001","11","14","20:00","8.6","","8.0","","96","","23","","15","","0.5","","99.51","","","","","","NA"
"2001-11-14 21:00","2001","11","14","21:00","8.8","","8.2","","96","","24","","11","","0.3","","99.49","","","","","","NA"
"2001-11-14 22:00","2001","11","14","22:00","8.9","","8.3","","96","","23","","11","","2.9","","99.45","","","","","","NA"
"2001-11-14 23:00","2001","11","14","23:00","9.1","","8.5","","96","","24","","2","","3.2","","99.45","","","","","","NA"
"2001-11-15 00:00","2001","11","15","00:00","8.8","","8.2","","96","","","","0","","4.8","","99.44","","","","","","NA"
"2001-11-15 01:00","2001","11","15","01:00","8.3","","7.7","","96","","8","","2","","2.9","","99.44","","","","","","NA"
"2001-11-15 02:00","2001","11","15","02:00","8.1","","7.5","","96","","8","","4","","2.9","","99.33","","","","","","NA"
"2001-11-15 03:00","2001","11","15","03:00","8.1","","7.5","","96","","10","","2","","1.6","","99.29","","","","","","NA"
"2001-11-15 04:00","2001","11","15","04:00","8.0","","7.4","","96","","7","","2","","1.1","","99.26","","","","","","NA"
"2001-11-15 05:00","2001","11","15","05:00","7.8","","7.2","","96","","9","","4","","0.5","","99.20","","","","","","NA"
"2001-11-15 06:00","2001","11","15","06:00","7.9","","7.3","","96","","9","","9","","0.2","","99.15","","","","","","NA"
"2001-11-15 07:00","2001","11","15","07:00","8.5","","7.9","","96","","18","","4","","0.2","","99.09","","","","","","NA"
"2001-11-15 08:00","2001","11","15","08:00","8.6","","8.0","","96","","11","","4","","0.0","","99.11","","","","","","NA"
"2001-11-15 09:00","2001","11","15","09:00","9.3","","8.7","","96","","20","","4","","0.6","","99.00","","","","","","NA"
"2001-11-15 10:00","2001","11","15","10:00","10.1","","9.5","","96","","26","","7","","1.4","","98.95","","","","","","NA"
"2001-11-15 11:00","2001","11","15","11:00","9.8","","9.2","","96","","23","","13","","0.0","","98.88","","","","","","NA"
"2001-11-15 12:00","2001","11","15","12:00","10.4","","9.8","","96","","23","","6","","0.0","","98.81","","","","","","NA"
"2001-11-15 13:00","2001","11","15","13:00","11.5","","10.9","","96","","27","","15","","0.3","","98.68","","","","","","NA"
"2001-11-15 14:00","2001","11","15","14:00","12.3","","11.7","","96","","26","","15","","2.3","","98.57","","","","","","NA"
"2001-11-15 15:00","2001","11","15","15:00","12.8","","12.2","","96","","25","","19","","4.0","","98.55","","","","","","NA"
"2001-11-15 16:00","2001","11","15","16:00","11.8","","10.9","","94","","23","","15","","1.9","","98.55","","","","","","NA"
"2001-11-15 17:00","2001","11","15","17:00","12.6","","11.5","","93","","23","","17","","4.8","","98.57","","","","","","NA"
"2001-11-15 18:00","2001","11","15","18:00","12.0","","10.9","","93","","27","","15","","4.8","","98.61","","","","","","NA"
"2001-11-15 19:00","2001","11","15","19:00","12.0","","10.9","","93","","27","","19","","4.8","","98.61","","","","","","NA"
"2001-11-15 20:00","2001","11","15","20:00","12.0","","10.8","","92","","27","","28","","6.4","","98.61","","","","","","NA"
"2001-11-15 21:00","2001","11","15","21:00","11.4","","10.2","","92","","28","","24","","6.4","","98.64","","","","","","NA"
"2001-11-15 22:00","2001","11","15","22:00","11.1","","9.9","","92","","27","","26","","6.4","","98.66","","","","","","NA"
"2001-11-15 23:00","2001","11","15","23:00","10.7","","9.5","","92","","28","","20","","7.2","","98.72","","","","","","NA"
"2001-11-16 00:00","2001","11","16","00:00","10.5","","8.4","","87","","31","","17","","11.3","","98.84","","","","","","NA"
"2001-11-16 01:00","2001","11","16","01:00","9.8","","7.2","","84","","31","","13","","15.0","","98.95","","","","","","NA"
"2001-11-16 02:00","2001","11","16","02:00","8.8","","7.6","","92","","28","","17","","9.7","","99.06","","","","","","NA"
"2001-11-16 03:00","2001","11","16","03:00","8.8","","7.1","","89","","31","","15","","15.0","","99.18","","","","","","NA"
"2001-11-16 04:00","2001","11","16","04:00","7.7","","2.6","","70","","2","","17","","15.0","","99.31","","","","","","NA"
"2001-11-16 05:00","2001","11","16","05:00","6.6","","-0.5","","60","","36","","19","","15.0","","99.45","","","","","","NA"
"2001-11-16 06:00","2001","11","16","06:00","5.5","","-0.9","","63","","1","","24","","15.0","","99.62","","","","","","NA"
"2001-11-16 07:00","2001","11","16","07:00","4.0","","-2.5","","63","","7","","9","","15.0","","99.85","","","","","","NA"
"2001-11-16 08:00","2001","11","16","08:00","3.2","","-3.9","","60","","3","","11","","15.0","","99.98","","","","","","NA"
"2001-11-16 09:00","2001","11","16","09:00","3.3","","-4.5","","57","","3","","13","","15.0","","100.10","","","","","","NA"
"2001-11-16 10:00","2001","11","16","10:00","3.3","","-4.5","","57","","2","","13","","15.0","","100.17","","","","","","NA"
"2001-11-16 11:00","2001","11","16","11:00","3.9","","-6.2","","48","","3","","13","","15.0","","100.23","","","","","","NA"
"2001-11-16 12:00","2001","11","16","12:00","4.7","","-6.3","","45","","2","","15","","15.0","","100.21","","","","","","NA"
"2001-11-16 13:00","2001","11","16","13:00","6.4","","-5.7","","42","","5","","7","","15.0","","100.30","","","","","","NA"
"2001-11-16 14:00","2001","11","16","14:00","5.9","","-6.1","","42","","3","","9","","15.0","","100.32","","","","","","NA"
"2001-11-16 15:00","2001","11","16","15:00","6.4","","-6.0","","41","","5","","6","","15.0","","100.37","","","","","","NA"
"2001-11-16 16:00","2001","11","16","16:00","5.8","","-6.2","","42","","3","","9","","15.0","","100.44","","","","","","NA"
"2001-11-16 17:00","2001","11","16","17:00","3.7","","-6.4","","48","","1","","9","","15.0","","100.55","","","","","","NA"
"2001-11-16 18:00","2001","11","16","18:00","2.5","","-6.0","","53","","4","","9","","15.0","","100.57","","","","","","NA"
"2001-11-16 19:00","2001","11","16","19:00","1.5","","-5.5","","60","","3","","6","","15.0","","100.62","","","","","","NA"
"2001-11-16 20:00","2001","11","16","20:00","1.3","","-5.7","","60","","5","","9","","15.0","","100.64","","","","","","NA"
"2001-11-16 21:00","2001","11","16","21:00","0.9","","-6.1","","59","","5","","9","","15.0","","100.71","","","","","","NA"
"2001-11-16 22:00","2001","11","16","22:00","1.1","","-5.9","","60","","6","","13","","15.0","","100.75","","","","","","NA"
"2001-11-16 23:00","2001","11","16","23:00","0.7","","-5.2","","65","","8","","19","","15.0","","100.75","","","","","","NA"
"2001-11-17 00:00","2001","11","17","00:00","0.1","","-5.0","","69","","8","","19","","15.0","","100.79","","","","","","NA"
"2001-11-17 01:00","2001","11","17","01:00","-0.3","","-4.5","","73","","7","","15","","15.0","","100.77","","","","-5","","NA"
"2001-11-17 02:00","2001","11","17","02:00","-0.7","","-4.8","","74","","6","","9","","15.0","","100.80","","","","-4","","NA"
"2001-11-17 03:00","2001","11","17","03:00","0.1","","-3.9","","74","","9","","19","","15.0","","100.79","","","","","","NA"
"2001-11-17 04:00","2001","11","17","04:00","-0.1","","-3.6","","77","","8","","17","","15.0","","100.73","","","","-5","","NA"
"2001-11-17 05:00","2001","11","17","05:00","-1.6","","-4.5","","81","","5","","11","","15.0","","100.77","","","","-5","","NA"
"2001-11-17 06:00","2001","11","17","06:00","-1.2","","-4.0","","81","","6","","11","","15.0","","100.77","","","","-5","","NA"
"2001-11-17 07:00","2001","11","17","07:00","-1.1","","-3.7","","82","","5","","11","","15.0","","100.77","","","","-5","","NA"
"2001-11-17 08:00","2001","11","17","08:00","-0.2","","-2.8","","83","","6","","7","","15.0","","100.73","","","","-3","","NA"
"2001-11-17 09:00","2001","11","17","09:00","0.7","","-1.9","","83","","6","","6","","15.0","","100.66","","","","","","NA"
"2001-11-17 10:00","2001","11","17","10:00","3.7","","0.2","","78","","6","","7","","15.0","","100.62","","","","","","NA"
"2001-11-17 11:00","2001","11","17","11:00","5.4","","1.0","","73","","21","","15","","15.0","","100.61","","","","","","NA"
"2001-11-17 12:00","2001","11","17","12:00","5.9","","0.9","","70","","20","","15","","15.0","","100.52","","","","","","NA"
"2001-11-17 13:00","2001","11","17","13:00","6.8","","1.9","","71","","18","","17","","15.0","","100.43","","","","","","NA"
"2001-11-17 14:00","2001","11","17","14:00","7.3","","3.2","","75","","18","","22","","15.0","","100.35","","","","","","NA"
"2001-11-17 15:00","2001","11","17","15:00","7.5","","3.0","","73","","23","","24","","15.0","","100.28","","","","","","NA"
"2001-11-17 16:00","2001","11","17","16:00","7.6","","4.6","","81","","19","","26","","15.0","","100.26","","","","","","NA"
"2001-11-17 17:00","2001","11","17","17:00","7.3","","4.3","","81","","23","","22","","15.0","","100.25","","","","","","NA"
"2001-11-17 18:00","2001","11","17","18:00","7.3","","5.0","","85","","23","","26","","15.0","","100.25","","","","","","NA"
"2001-11-17 19:00","2001","11","17","19:00","7.4","","5.2","","86","","23","","24","","15.0","","100.23","","","","","","NA"
"2001-11-17 20:00","2001","11","17","20:00","7.4","","5.9","","90","","19","","13","","15.0","","100.19","","","","","","NA"
"2001-11-17 21:00","2001","11","17","21:00","7.4","","6.4","","93","","21","","7","","15.0","","100.14","","","","","","NA"
"2001-11-17 22:00","2001","11","17","22:00","7.0","","6.1","","94","","21","","4","","11.3","","100.07","","","","","","NA"
"2001-11-17 23:00","2001","11","17","23:00","7.2","","6.3","","94","","7","","4","","8.0","","99.99","","","","","","NA"
"2001-11-18 00:00","2001","11","18","00:00","7.3","","6.4","","94","","","","0","","6.4","","99.96","","","","","","NA"
"2001-11-18 01:00","2001","11","18","01:00","7.6","","6.7","","94","","","M","","M","11.3","","99.90","","","","","","NA"
"2001-11-18 02:00","2001","11","18","02:00","7.7","","6.8","","94","","22","","4","","9.7","","99.89","","","","","","NA"
"2001-11-18 03:00","2001","11","18","03:00","7.8","","6.9","","94","","21","","2","","12.9","","99.87","","","","","","NA"
"2001-11-18 04:00","2001","11","18","04:00","7.3","","6.4","","94","","27","","7","","8.0","","99.83","","","","","","NA"
"2001-11-18 05:00","2001","11","18","05:00","7.4","","6.5","","94","","31","","2","","2.3","","99.81","","","","","","NA"
"2001-11-18 06:00","2001","11","18","06:00","7.4","","6.5","","94","","26","","4","","6.4","","99.80","","","","","","NA"
"2001-11-18 07:00","2001","11","18","07:00","7.5","","6.6","","94","","25","","9","","4.8","","99.76","","","","","","NA"
"2001-11-18 08:00","2001","11","18","08:00","8.4","","7.5","","94","","23","","20","","5.6","","99.76","","","","","","NA"
"2001-11-18 09:00","2001","11","18","09:00","8.5","","7.6","","94","","22","","19","","4.8","","99.72","","","","","","NA"
"2001-11-18 10:00","2001","11","18","10:00","8.6","","7.7","","94","","23","","15","","3.2","","99.67","","","","","","NA"
"2001-11-18 11:00","2001","11","18","11:00","9.1","","8.2","","94","","23","","19","","3.2","","99.65","","","","","","NA"
"2001-11-18 12:00","2001","11","18","12:00","8.3","","7.4","","94","","23","","24","","0.3","","99.58","","","","","","NA"
"2001-11-18 13:00","2001","11","18","13:00","8.2","","7.3","","94","","23","","15","","3.2","","99.51","","","","","","NA"
"2001-11-18 14:00","2001","11","18","14:00","8.2","","7.3","","94","","23","","17","","4.0","","99.44","","","","","","NA"
"2001-11-18 15:00","2001","11","18","15:00","8.3","","7.4","","94","","23","","13","","7.2","","99.36","","","","","","NA"
"2001-11-18 16:00","2001","11","18","16:00","8.5","","7.6","","94","","23","","26","","5.6","","99.33","","","","","","NA"
"2001-11-18 17:00","2001","11","18","17:00","8.2","","7.3","","94","","23","","26","","6.4","","99.33","","","","","","NA"
"2001-11-18 18:00","2001","11","18","18:00","8.2","","7.3","","94","","22","","19","","5.6","","99.31","","","","","","NA"
"2001-11-18 19:00","2001","11","18","19:00","8.3","","7.4","","94","","23","","13","","3.2","","99.27","","","","","","NA"
"2001-11-18 20:00","2001","11","18","20:00","8.9","","8.0","","94","","23","","20","","4.0","","99.24","","","","","","NA"
"2001-11-18 21:00","2001","11","18","21:00","9.4","","8.5","","94","","24","","7","","4.8","","99.15","","","","","","NA"
"2001-11-18 22:00","2001","11","18","22:00","9.3","","8.4","","94","","21","","11","","4.8","","99.04","","","","","","NA"
"2001-11-18 23:00","2001","11","18","23:00","8.5","","7.6","","94","","20","","13","","0.0","","98.93","","","","","","NA"
"2001-11-19 00:00","2001","11","19","00:00","8.4","","7.5","","94","","23","","15","","0.0","","98.84","","","","","","NA"
"2001-11-19 01:00","2001","11","19","01:00","10.8","","9.4","","91","","23","","33","","6.4","","98.75","","","","","","NA"
"2001-11-19 02:00","2001","11","19","02:00","10.0","","8.4","","90","","23","","30","","4.8","","98.70","","","","","","NA"
"2001-11-19 03:00","2001","11","19","03:00","9.8","","8.4","","91","","23","","26","","4.0","","98.64","","","","","","NA"
"2001-11-19 04:00","2001","11","19","04:00","9.9","","8.7","","92","","23","","26","","3.2","","98.52","","","","","","NA"
"2001-11-19 05:00","2001","11","19","05:00","9.6","","8.4","","92","","23","","15","","1.9","","98.45","","","","","","NA"
"2001-11-19 06:00","2001","11","19","06:00","9.6","","8.4","","92","","23","","22","","1.6","","98.34","","","","","","NA"
"2001-11-19 07:00","2001","11","19","07:00","9.1","","8.0","","93","","21","","20","","0.8","","98.25","","","","","","NA"
"2001-11-19 08:00","2001","11","19","08:00","9.0","","8.1","","94","","18","","28","","0.8","","98.12","","","","","","NA"
"2001-11-19 09:00","2001","11","19","09:00","8.9","","7.8","","93","","18","","33","","0.2","","98.01","","","","","","NA"
"2001-11-19 10:00","2001","11","19","10:00","7.1","","6.1","","93","","28","","28","","15.0","","98.01","","","","","","NA"
"2001-11-19 11:00","2001","11","19","11:00","4.7","","3.2","","90","","34","","24","","15.0","","98.12","","","","","","NA"
"2001-11-19 12:00","2001","11","19","12:00","3.4","","1.8","","89","","32","","17","","15.0","","98.16","","","","","","NA"
"2001-11-19 13:00","2001","11","19","13:00","2.9","","0.1","","82","","35","","19","","15.0","","98.18","","","","","","NA"
"2001-11-19 14:00","2001","11","19","14:00","3.2","","-0.5","","77","","32","","19","","15.0","","98.28","","","","","","NA"
"2001-11-19 15:00","2001","11","19","15:00","2.8","","-0.6","","78","","34","","15","","15.0","","98.39","","","","","","NA"
"2001-11-19 16:00","2001","11","19","16:00","2.6","","-0.6","","79","","33","","15","","15.0","","98.54","","","","","","NA"
"2001-11-19 17:00","2001","11","19","17:00","2.5","","-2.1","","72","","33","","13","","15.0","","98.61","","","","","","NA"
"2001-11-19 18:00","2001","11","19","18:00","2.5","","-3.1","","67","","34","","15","","15.0","","98.68","","","","","","NA"
"2001-11-19 19:00","2001","11","19","19:00","2.2","","-1.9","","74","","32","","9","","15.0","","98.73","","","","","","NA"
"2001-11-19 20:00","2001","11","19","20:00","2.0","","-2.4","","73","","33","","11","","15.0","","98.77","","","","","","NA"
"2001-11-19 21:00","2001","11","19","21:00","1.5","","-3.3","","70","","34","","11","","15.0","","98.79","","","","","","NA"
"2001-11-19 22:00","2001","11","19","22:00","1.3","","-3.1","","72","","33","","9","","15.0","","98.82","","","","","","NA"
"2001-11-19 23:00","2001","11","19","23:00","1.3","","-3.3","","71","","32","","13","","15.0","","98.90","","","","","","NA"
"2001-11-20 00:00","2001","11","20","00:00","0.6","","-2.9","","77","","32","","13","","15.0","","98.95","","","","","","NA"
"2001-11-20 01:00","2001","11","20","01:00","-0.8","","-3.3","","83","","36","","15","","12.9","","98.99","","","","-5","","NA"
"2001-11-20 02:00","2001","11","20","02:00","-0.5","","-3.8","","78","","33","","9","","5.6","","99.00","","","","-4","","NA"
"2001-11-20 03:00","2001","11","20","03:00","-0.1","","-4.4","","73","","32","","13","","15.0","","99.06","","","","-4","","NA"
"2001-11-20 04:00","2001","11","20","04:00","-1.2","","-7.8","","61","","35","","13","","15.0","","99.09","","","","-5","","NA"
"2001-11-20 05:00","2001","11","20","05:00","-1.4","","-7.6","","63","","31","","9","","15.0","","99.13","","","","-5","","NA"
"2001-11-20 06:00","2001","11","20","06:00","-1.5","","-7.7","","63","","32","","17","","15.0","","99.22","","","","-7","","NA"
"2001-11-20 07:00","2001","11","20","07:00","-2.1","","-7.9","","64","","33","","11","","15.0","","99.24","","","","-6","","NA"
"2001-11-20 08:00","2001","11","20","08:00","-2.0","","-7.6","","65","","30","","20","","15.0","","99.29","","","","-8","","NA"
"2001-11-20 09:00","2001","11","20","09:00","-1.8","","-7.8","","64","","32","","19","","15.0","","99.33","","","","-7","","NA"
"2001-11-20 10:00","2001","11","20","10:00","-2.4","","-10.3","","55","","35","","20","","15.0","","99.35","","","","-8","","NA"
"2001-11-20 11:00","2001","11","20","11:00","-1.7","","-9.6","","55","","32","","19","","15.0","","99.38","","","","-7","","NA"
"2001-11-20 12:00","2001","11","20","12:00","-1.6","","-10.3","","51","","31","","19","","15.0","","99.38","","","","-7","","NA"
"2001-11-20 13:00","2001","11","20","13:00","-1.3","","-9.7","","53","","30","","17","","15.0","","99.31","","","","-6","","NA"
"2001-11-20 14:00","2001","11","20","14:00","-0.8","","-9.3","","53","","30","","13","","15.0","","99.26","","","","-5","","NA"
"2001-11-20 15:00","2001","11","20","15:00","-0.3","","-8.6","","53","","28","","19","","15.0","","99.26","","","","-5","","NA"
"2001-11-20 16:00","2001","11","20","16:00","-0.2","","-9.0","","51","","32","","17","","15.0","","99.26","","","","-5","","NA"
"2001-11-20 17:00","2001","11","20","17:00","-0.2","","-8.7","","53","","32","","7","","15.0","","99.26","","","","-3","","NA"
"2001-11-20 18:00","2001","11","20","18:00","0.3","","-7.1","","58","","28","","4","","15.0","","99.22","","","","","","NA"
"2001-11-20 19:00","2001","11","20","19:00","0.1","","-6.2","","63","","6","","2","","15.0","","99.17","","","","","","NA"
"2001-11-20 20:00","2001","11","20","20:00","0.4","","-5.3","","66","","7","","4","","15.0","","99.13","","","","","","NA"
"2001-11-20 21:00","2001","11","20","21:00","2.3","","-3.7","","64","","24","","15","","15.0","","99.08","","","","","","NA"
"2001-11-20 22:00","2001","11","20","22:00","2.4","","-2.4","","71","","24","","17","","15.0","","99.08","","","","","","NA"
"2001-11-20 23:00","2001","11","20","23:00","2.8","","-3.0","","66","","23","","33","","15.0","","98.99","","","","","","NA"
"2001-11-21 00:00","2001","11","21","00:00","3.0","","-4.3","","59","","23","","24","","15.0","","98.95","","","","","","NA"
"2001-11-21 01:00","2001","11","21","01:00","3.1","","-3.6","","61","","24","","22","","15.0","","98.88","","","","","","NA"
"2001-11-21 02:00","2001","11","21","02:00","3.3","","-3.2","","62","","23","","26","","15.0","","98.81","","","","","","NA"
"2001-11-21 03:00","2001","11","21","03:00","4.1","","-1.2","","68","","23","","33","","15.0","","98.72","","","","","","NA"
"2001-11-21 04:00","2001","11","21","04:00","4.5","","-0.8","","68","","23","","39","","15.0","","98.63","","","","","","NA"
"2001-11-21 05:00","2001","11","21","05:00","4.6","","-0.9","","67","","23","","43","","15.0","","98.55","","","","","","NA"
"2001-11-21 06:00","2001","11","21","06:00","4.8","","-0.5","","68","","23","","41","","15.0","","98.50","","","","","","NA"
"2001-11-21 07:00","2001","11","21","07:00","4.6","","-1.1","","66","","23","","33","","15.0","","98.46","","","","","","NA"
"2001-11-21 08:00","2001","11","21","08:00","4.8","","-0.7","","68","","23","","35","","15.0","","98.39","","","","","","NA"
"2001-11-21 09:00","2001","11","21","09:00","4.8","","-1.1","","66","","23","","26","","15.0","","98.43","","","","","","NA"
"2001-11-21 10:00","2001","11","21","10:00","5.3","","0.1","","69","","23","","26","","15.0","","98.41","","","","","","NA"
"2001-11-21 11:00","2001","11","21","11:00","5.4","","-0.5","","66","","23","","28","","15.0","","98.32","","","","","","NA"
"2001-11-21 12:00","2001","11","21","12:00","5.4","","-0.7","","65","","23","","24","","15.0","","98.27","","","","","","NA"
"2001-11-21 13:00","2001","11","21","13:00","5.6","","-0.3","","66","","25","","20","","15.0","","98.32","","","","","","NA"
"2001-11-21 14:00","2001","11","21","14:00","5.6","","-0.5","","65","","24","","19","","15.0","","98.23","","","","","","NA"
"2001-11-21 15:00","2001","11","21","15:00","5.7","","0.1","","67","","23","","22","","15.0","","98.25","","","","","","NA"
"2001-11-21 16:00","2001","11","21","16:00"
"2001-11-21 17:00","2001","11","21","17:00","5.9","","1.1","","71","","24","","19","","15.0","","98.41","","","","","","NA"
"2001-11-21 18:00","2001","11","21","18:00","6.0","","1.2","","71","","27","","15","","15.0","","98.48","","","","","","NA"
"2001-11-21 19:00","2001","11","21","19:00","6.1","","0.9","","69","","27","","15","","15.0","","98.54","","","","","","NA"
"2001-11-21 20:00","2001","11","21","20:00","6.1","","1.4","","72","","26","","13","","15.0","","98.59","","","","","","NA"
"2001-11-21 21:00","2001","11","21","21:00","6.1","","1.8","","74","","29","","11","","15.0","","98.64","","","","","","NA"
"2001-11-21 22:00","2001","11","21","22:00","5.4","","0.4","","70","","34","","11","","15.0","","98.70","","","","","","NA"
"2001-11-21 23:00","2001","11","21","23:00","4.6","","-0.7","","68","","36","","7","","15.0","","98.75","","","","","","NA"
"2001-11-22 00:00","2001","11","22","00:00","4.0","","-1.3","","68","","1","","6","","15.0","","98.84","","","","","","NA"
"2001-11-22 01:00","2001","11","22","01:00","3.3","","-1.2","","72","","36","","7","","15.0","","98.91","","","","","","NA"
"2001-11-22 02:00","2001","11","22","02:00","2.9","","-1.2","","74","","35","","9","","15.0","","99.00","","","","","","NA"
"2001-11-22 03:00","2001","11","22","03:00","2.6","","-0.9","","78","","8","","6","","15.0","","99.08","","","","","","NA"
"2001-11-22 04:00","2001","11","22","04:00","2.2","","-0.8","","81","","5","","9","","15.0","","99.09","","","","","","NA"
"2001-11-22 05:00","2001","11","22","05:00","2.7","","0.3","","84","","6","","11","","15.0","","99.17","","","","","","NA"
"2001-11-22 06:00","2001","11","22","06:00","2.6","","0.7","","87","","7","","11","","15.0","","99.26","","","","","","NA"
"2001-11-22 07:00","2001","11","22","07:00","2.0","","0.4","","89","","8","","17","","15.0","","99.36","","","","","","NA"
"2001-11-22 08:00","2001","11","22","08:00","2.0","","0.1","","87","","7","","17","","15.0","","99.40","","","","","","NA"
"2001-11-22 09:00","2001","11","22","09:00","2.6","","0.0","","83","","9","","26","","15.0","","99.44","","","","","","NA"
"2001-11-22 10:00","2001","11","22","10:00","3.2","","-0.7","","76","","9","","32","","15.0","","99.45","","","","","","NA"
"2001-11-22 11:00","2001","11","22","11:00","3.7","","-1.5","","69","","8","","24","","15.0","","99.44","","","","","","NA"
"2001-11-22 12:00","2001","11","22","12:00","4.4","","-1.3","","66","","9","","22","","15.0","","99.40","","","","","","NA"
"2001-11-22 13:00","2001","11","22","13:00","4.4","","-1.5","","65","","8","","19","","15.0","","99.35","","","","","","NA"
"2001-11-22 14:00","2001","11","22","14:00","5.4","","-1.4","","62","","9","","22","","15.0","","99.26","","","","","","NA"
"2001-11-22 15:00","2001","11","22","15:00","5.8","","-1.4","","60","","9","","26","","15.0","","99.22","","","","","","NA"
"2001-11-22 16:00","2001","11","22","16:00","5.6","","-1.6","","60","","9","","22","","15.0","","99.22","","","","","","NA"
"2001-11-22 17:00","2001","11","22","17:00","5.4","","-0.7","","65","","8","","19","","15.0","","99.22","","","","","","NA"
"2001-11-22 18:00","2001","11","22","18:00","4.3","","-1.4","","66","","7","","28","","15.0","","99.22","","","","","","NA"
"2001-11-22 19:00","2001","11","22","19:00","3.8","","-1.4","","69","","8","","26","","15.0","","99.20","","","","","","NA"
"2001-11-22 20:00","2001","11","22","20:00","3.8","","-0.7","","72","","8","","28","","15.0","","99.15","","","","","","NA"
"2001-11-22 21:00","2001","11","22","21:00","3.9","","-0.2","","75","","8","","26","","15.0","","99.13","","","","","","NA"
"2001-11-22 22:00","2001","11","22","22:00","3.9","","0.3","","77","","8","","24","","15.0","","99.11","","","","","","NA"
"2001-11-22 23:00","2001","11","22","23:00","4.4","","1.6","","82","","7","","19","","15.0","","99.09","","","","","","NA"
"2001-11-23 00:00","2001","11","23","00:00","5.7","","3.7","","87","","9","","17","","15.0","","99.09","","","","","","NA"
"2001-11-23 01:00","2001","11","23","01:00","5.2","","3.4","","88","","11","","13","","15.0","","99.06","","","","","","NA"
"2001-11-23 02:00","2001","11","23","02:00","7.2","","5.4","","88","","14","","17","","15.0","","99.04","","","","","","NA"
"2001-11-23 03:00","2001","11","23","03:00","7.2","","5.0","","86","","14","","15","","15.0","","99.08","","","","","","NA"
"2001-11-23 04:00","2001","11","23","04:00","7.2","","5.2","","87","","15","","19","","15.0","","99.06","","","","","","NA"
"2001-11-23 05:00","2001","11","23","05:00","7.3","","5.0","","85","","14","","22","","15.0","","99.06","","","","","","NA"
"2001-11-23 06:00","2001","11","23","06:00","7.3","","5.1","","86","","17","","22","","15.0","","99.08","","","","","","NA"
"2001-11-23 07:00","2001","11","23","07:00","7.4","","5.2","","86","","18","","20","","15.0","","99.11","","","","","","NA"
"2001-11-23 08:00","2001","11","23","08:00","7.3","","5.3","","87","","16","","19","","15.0","","99.13","","","","","","NA"
"2001-11-23 09:00","2001","11","23","09:00","7.5","","5.5","","87","","17","","13","","15.0","","99.20","","","","","","NA"
"2001-11-23 10:00","2001","11","23","10:00","7.6","","5.4","","86","","14","","15","","15.0","","99.18","","","","","","NA"
"2001-11-23 11:00","2001","11","23","11:00","7.6","","5.1","","84","","14","","17","","15.0","","99.17","","","","","","NA"
"2001-11-23 12:00","2001","11","23","12:00","7.6","","4.7","","82","","17","","20","","15.0","","99.18","","","","","","NA"
"2001-11-23 13:00","2001","11","23","13:00","7.7","","5.0","","83","","15","","22","","15.0","","99.15","","","","","","NA"
"2001-11-23 14:00","2001","11","23","14:00","7.9","","4.9","","81","","15","","17","","15.0","","99.15","","","","","","NA"
"2001-11-23 15:00","2001","11","23","15:00","7.8","","5.1","","83","","12","","13","","15.0","","99.15","","","","","","NA"
"2001-11-23 16:00","2001","11","23","16:00","7.5","","4.8","","83","","9","","17","","15.0","","99.17","","","","","","NA"
"2001-11-23 17:00","2001","11","23","17:00","7.2","","6.0","","92","","9","","15","","15.0","","99.22","","","","","","NA"
"2001-11-23 18:00","2001","11","23","18:00","8.1","","6.4","","89","","10","","20","","15.0","","99.29","","","","","","NA"
"2001-11-23 19:00","2001","11","23","19:00","8.3","","6.4","","88","","10","","11","","15.0","","99.35","","","","","","NA"
"2001-11-23 20:00","2001","11","23","20:00","8.3","","6.3","","87","","9","","13","","15.0","","99.36","","","","","","NA"
"2001-11-23 21:00","2001","11","23","21:00","8.7","","6.2","","84","","9","","19","","15.0","","99.36","","","","","","NA"
"2001-11-23 22:00","2001","11","23","22:00","8.6","","6.1","","84","","9","","13","","15.0","","99.38","","","","","","NA"
"2001-11-23 23:00","2001","11","23","23:00","8.2","","5.7","","84","","10","","11","","12.9","","99.38","","","","","","NA"
"2001-11-24 00:00","2001","11","24","00:00","7.9","","6.5","","91","","9","","9","","9.7","","99.40","","","","","","NA"
"2001-11-24 01:00","2001","11","24","01:00","8.1","","6.6","","90","","9","","15","","12.9","","99.35","","","","","","NA"
"2001-11-24 02:00","2001","11","24","02:00","8.2","","6.5","","89","","9","","13","","15.0","","99.38","","","","","","NA"
"2001-11-24 03:00","2001","11","24","03:00","7.7","","6.2","","90","","9","","15","","15.0","","99.36","","","","","","NA"
"2001-11-24 04:00","2001","11","24","04:00","7.6","","6.1","","90","","9","","17","","15.0","","99.33","","","","","","NA"
"2001-11-24 05:00","2001","11","24","05:00","7.1","","5.7","","91","","7","","13","","15.0","","99.38","","","","","","NA"
"2001-11-24 06:00","2001","11","24","06:00","7.1","","5.6","","90","","8","","15","","15.0","","99.36","","","","","","NA"
"2001-11-24 07:00","2001","11","24","07:00","7.1","","5.4","","89","","6","","11","","15.0","","99.42","","","","","","NA"
"2001-11-24 08:00","2001","11","24","08:00","7.0","","4.8","","86","","9","","20","","15.0","","99.38","","","","","","NA"
"2001-11-24 09:00","2001","11","24","09:00","7.6","","5.3","","85","","9","","24","","15.0","","99.35","","","","","","NA"
"2001-11-24 10:00","2001","11","24","10:00","8.0","","5.1","","82","","8","","11","","15.0","","99.38","","","","","","NA"
"2001-11-24 11:00","2001","11","24","11:00","8.1","","4.5","","78","","9","","30","","15.0","","99.36","","","","","","NA"
"2001-11-24 12:00","2001","11","24","12:00","8.2","","3.7","","73","","9","","28","","15.0","","99.33","","","","","","NA"
"2001-11-24 13:00","2001","11","24","13:00","8.0","","3.9","","75","","9","","32","","15.0","","99.18","","","","","","NA"
"2001-11-24 14:00","2001","11","24","14:00","8.6","","3.5","","70","","9","","22","","15.0","","99.09","","","","","","NA"
"2001-11-24 15:00","2001","11","24","15:00","9.3","","3.3","","66","","9","","17","","15.0","","99.00","","","","","","NA"
"2001-11-24 16:00","2001","11","24","16:00","8.3","","4.7","","78","","8","","15","","15.0","","98.95","","","","","","NA"
"2001-11-24 17:00","2001","11","24","17:00","9.5","","5.3","","75","","9","","33","","15.0","","98.90","","","","","","NA"
"2001-11-24 18:00","2001","11","24","18:00","9.1","","5.5","","78","","9","","26","","15.0","","98.86","","","","","","NA"
"2001-11-24 19:00","2001","11","24","19:00","9.0","","5.6","","79","","9","","24","","15.0","","98.75","","","","","","NA"
"2001-11-24 20:00","2001","11","24","20:00","9.5","","6.1","","79","","9","","35","","15.0","","98.59","","","","","","NA"
"2001-11-24 21:00","2001","11","24","21:00","9.5","","7.6","","88","","12","","39","","12.9","","98.48","","","","","","NA"
"2001-11-24 22:00","2001","11","24","22:00","10.0","","8.8","","92","","14","","44","","15.0","","98.36","","","","","","NA"
"2001-11-24 23:00","2001","11","24","23:00","10.1","","9.0","","93","","14","","44","","15.0","","98.25","","","","","","NA"
"2001-11-25 00:00","2001","11","25","00:00","10.4","","9.3","","93","","14","","44","","15.0","","98.21","","","","","","NA"
"2001-11-25 01:00","2001","11","25","01:00","10.1","","9.0","","93","","14","","46","","15.0","","98.10","","","","","","NA"
"2001-11-25 02:00","2001","11","25","02:00","9.8","","9.2","","96","","14","","48","","4.0","","98.01","","","","","","NA"
"2001-11-25 03:00","2001","11","25","03:00","9.9","","9.3","","96","","14","","46","","11.3","","98.00","","","","","","NA"
"2001-11-25 04:00","2001","11","25","04:00","10.0","","9.4","","96","","18","","39","","11.3","","98.09","","","","","","NA"
"2001-11-25 05:00","2001","11","25","05:00","9.2","","8.6","","96","","14","","30","","15.0","","98.01","","","","","","NA"
"2001-11-25 06:00","2001","11","25","06:00","9.5","","8.9","","96","","14","","24","","15.0","","98.05","","","","","","NA"
"2001-11-25 07:00","2001","11","25","07:00","9.3","","8.7","","96","","15","","17","","15.0","","98.00","","","","","","NA"
"2001-11-25 08:00","2001","11","25","08:00","9.8","","9.2","","96","","14","","19","","15.0","","97.96","","","","","","NA"
"2001-11-25 09:00","2001","11","25","09:00","9.3","","8.7","","96","","14","","20","","15.0","","97.94","","","","","","NA"
"2001-11-25 10:00","2001","11","25","10:00","10.5","","7.9","","84","","18","","43","","15.0","","98.00","","","","","","NA"
"2001-11-25 11:00","2001","11","25","11:00","8.4","","7.0","","91","","18","","32","","15.0","","98.07","","","","","","NA"
"2001-11-25 12:00","2001","11","25","12:00","8.7","","7.3","","91","","22","","15","","15.0","","98.09","","","","","","NA"
"2001-11-25 13:00","2001","11","25","13:00","8.7","","6.8","","88","","18","","26","","15.0","","98.14","","","","","","NA"
"2001-11-25 14:00","2001","11","25","14:00","9.4","","6.0","","79","","23","","33","","15.0","","98.18","","","","","","NA"
"2001-11-25 15:00","2001","11","25","15:00","9.2","","5.6","","78","","23","","30","","15.0","","98.28","","","","","","NA"
"2001-11-25 16:00","2001","11","25","16:00","8.9","","6.2","","83","","23","","28","","15.0","","98.41","","","","","","NA"
"2001-11-25 17:00","2001","11","25","17:00","8.6","","6.6","","87","","23","","35","","15.0","","98.52","","","","","","NA"
"2001-11-25 18:00","2001","11","25","18:00","8.5","","7.1","","91","","23","","28","","15.0","","98.61","","","","","","NA"
"2001-11-25 19:00","2001","11","25","19:00","8.4","","6.5","","88","","23","","20","","15.0","","98.66","","","","","","NA"
"2001-11-25 20:00","2001","11","25","20:00","8.5","","6.3","","86","","23","","32","","15.0","","98.72","","","","","","NA"
"2001-11-25 21:00","2001","11","25","21:00","8.8","","4.8","","76","","23","","28","","15.0","","98.84","","","","","","NA"
"2001-11-25 22:00","2001","11","25","22:00","8.4","","3.7","","72","","25","","26","","15.0","","98.91","","","","","","NA"
"2001-11-25 23:00","2001","11","25","23:00","8.2","","4.2","","76","","23","","20","","15.0","","99.00","","","","","","NA"
"2001-11-26 00:00","2001","11","26","00:00","8.0","","5.1","","82","","23","","17","","15.0","","99.09","","","","","","NA"
"2001-11-26 01:00","2001","11","26","01:00","7.1","","5.3","","88","","25","","20","","15.0","","99.18","","","","","","NA"
"2001-11-26 02:00","2001","11","26","02:00","7.0","","5.8","","92","","26","","17","","15.0","","99.20","","","","","","NA"
"2001-11-26 03:00","2001","11","26","03:00","7.2","","5.0","","86","","25","","19","","15.0","","99.26","","","","","","NA"
"2001-11-26 04:00","2001","11","26","04:00","7.2","","4.2","","81","","27","","24","","15.0","","99.31","","","","","","NA"
"2001-11-26 05:00","2001","11","26","05:00","7.1","","3.9","","80","","27","","19","","15.0","","99.40","","","","","","NA"
"2001-11-26 06:00","2001","11","26","06:00","6.7","","3.9","","82","","27","","22","","15.0","","99.47","","","","","","NA"
"2001-11-26 07:00","2001","11","26","07:00","6.5","","4.5","","87","","27","","17","","15.0","","99.56","","","","","","NA"
"2001-11-26 08:00","2001","11","26","08:00","6.0","","5.1","","94","","28","","15","","15.0","","99.62","","","","","","NA"
"2001-11-26 09:00","2001","11","26","09:00","6.4","","4.9","","90","","27","","13","","15.0","","99.67","","","","","","NA"
"2001-11-26 10:00","2001","11","26","10:00","4.3","","2.7","","89","","2","","15","","15.0","","99.76","","","","","","NA"
"2001-11-26 11:00","2001","11","26","11:00","3.4","","1.5","","87","","2","","17","","15.0","","99.85","","","","","","NA"
"2001-11-26 12:00","2001","11","26","12:00","3.1","","-0.3","","78","","3","","17","","15.0","","99.87","","","","","","NA"
"2001-11-26 13:00","2001","11","26","13:00","3.1","","-1.0","","74","","3","","15","","15.0","","99.87","","","","","","NA"
"2001-11-26 14:00","2001","11","26","14:00","2.9","","-1.5","","73","","3","","9","","15.0","","99.92","","","","","","NA"
"2001-11-26 15:00","2001","11","26","15:00","2.2","","-2.2","","73","","3","","17","","15.0","","99.94","","","","","","NA"
"2001-11-26 16:00","2001","11","26","16:00","2.0","","-2.8","","70","","4","","11","","15.0","","100.05","","","","","","NA"
"2001-11-26 17:00","2001","11","26","17:00","1.4","","-2.8","","74","","4","","13","","15.0","","100.08","","","","","","NA"
"2001-11-26 18:00","2001","11","26","18:00","1.1","","-3.1","","74","","4","","11","","15.0","","100.16","","","","","","NA"
"2001-11-26 19:00","2001","11","26","19:00","0.9","","-3.8","","71","","5","","17","","15.0","","100.10","","","","","","NA"
"2001-11-26 20:00","2001","11","26","20:00","0.7","","-4.0","","71","","6","","15","","15.0","","100.14","","","","","","NA"
"2001-11-26 21:00","2001","11","26","21:00","0.3","","-4.2","","72","","6","","17","","15.0","","100.17","","","","","","NA"
"2001-11-26 22:00","2001","11","26","22:00","0.1","","-3.5","","77","","5","","15","","15.0","","100.19","","","","","","NA"
"2001-11-26 23:00","2001","11","26","23:00","-0.3","","-4.1","","75","","5","","15","","15.0","","100.21","","","","-5","","NA"
"2001-11-27 00:00","2001","11","27","00:00","-0.1","","-4.4","","73","","5","","19","","15.0","","100.07","","","","-5","","NA"
"2001-11-27 01:00","2001","11","27","01:00","-0.1","","-4.1","","74","","6","","19","","15.0","","100.03","","","","-5","","NA"
"2001-11-27 02:00","2001","11","27","02:00","-0.1","","-4.3","","73","","6","","17","","15.0","","100.03","","","","-5","","NA"
"2001-11-27 03:00","2001","11","27","03:00","-0.2","","-4.5","","73","","6","","15","","15.0","","99.98","","","","-5","","NA"
"2001-11-27 04:00","2001","11","27","04:00","-0.3","","-4.1","","75","","7","","28","","15.0","","99.80","","","","-7","","NA"
"2001-11-27 05:00","2001","11","27","05:00","-0.5","","-3.8","","78","","6","","28","","15.0","","99.69","","","","-7","","NA"
"2001-11-27 06:00","2001","11","27","06:00","-0.7","","-3.5","","81","","6","","24","","15.0","","99.71","","","","-7","","NA"
"2001-11-27 07:00","2001","11","27","07:00","-1.0","","-3.6","","82","","6","","20","","4.8","","99.74","","","","-7","","NA"
"2001-11-27 08:00","2001","11","27","08:00","-1.4","","-2.5","","92","","6","","19","","0.2","","99.69","","","","-7","","NA"
"2001-11-27 09:00","2001","11","27","09:00","-1.8","","-2.7","","94","","5","","20","","0.0","","99.58","","","","-8","","NA"
"2001-11-27 10:00","2001","11","27","10:00","-2.2","","-3.1","","94","","5","","19","","0.0","","99.65","","","","-8","","NA"
"2001-11-27 11:00","2001","11","27","11:00","-2.5","","-3.4","","94","","6","","24","","0.0","","99.54","","","","-9","","NA"
"2001-11-27 12:00","2001","11","27","12:00","-2.9","","-3.8","","93","","5","","26","","0.0","","99.42","","","","-10","","NA"
"2001-11-27 13:00","2001","11","27","13:00","-3.4","","-4.3","","93","","5","","24","","0.0","","99.38","","","","-10","","NA"
"2001-11-27 14:00","2001","11","27","14:00","-3.1","","-4.9","","87","","5","","26","","3.2","","99.33","","","","-10","","NA"
"2001-11-27 15:00","2001","11","27","15:00","-3.2","","-5.3","","85","","5","","26","","1.1","","99.35","","","","-10","","NA"
"2001-11-27 16:00","2001","11","27","16:00","-3.2","","-5.8","","82","","5","","24","","9.7","","99.35","","","","-10","","NA"
"2001-11-27 17:00","2001","11","27","17:00","-3.3","","-6.0","","82","","5","","20","","8.0","","99.36","","","","-9","","NA"
"2001-11-27 18:00","2001","11","27","18:00","-3.5","","-6.2","","82","","3","","17","","5.6","","99.56","","","","-9","","NA"
"2001-11-27 19:00","2001","11","27","19:00","-3.8","","-6.2","","83","","3","","15","","1.4","","99.58","","","","-9","","NA"
"2001-11-27 20:00","2001","11","27","20:00","-3.8","","-6.5","","81","","3","","17","","15.0","","99.62","","","","-10","","NA"
"2001-11-27 21:00","2001","11","27","21:00","-3.9","","-6.8","","80","","3","","13","","15.0","","99.72","","","","-9","","NA"
"2001-11-27 22:00","2001","11","27","22:00","-3.9","","-7.3","","77","","3","","15","","15.0","","99.83","","","","-9","","NA"
"2001-11-27 23:00","2001","11","27","23:00","-3.9","","-7.6","","75","","4","","17","","15.0","","99.92","","","","-10","","NA"
"2001-11-28 00:00","2001","11","28","00:00","-4.2","","-7.5","","78","","3","","17","","15.0","","99.99","","","","-10","","NA"
"2001-11-28 01:00","2001","11","28","01:00","-4.3","","-8.0","","75","","3","","17","","15.0","","100.05","","","","-10","","NA"
"2001-11-28 02:00","2001","11","28","02:00","-4.6","","-8.1","","76","","3","","17","","15.0","","100.17","","","","-10","","NA"
"2001-11-28 03:00","2001","11","28","03:00","-4.7","","-8.5","","75","","4","","15","","15.0","","100.23","","","","-10","","NA"
"2001-11-28 04:00","2001","11","28","04:00","-4.8","","-9.0","","72","","4","","15","","15.0","","100.32","","","","-10","","NA"
"2001-11-28 05:00","2001","11","28","05:00","-4.8","","-9.0","","72","","4","","13","","15.0","","100.39","","","","-10","","NA"
"2001-11-28 06:00","2001","11","28","06:00","-5.0","","-8.8","","75","","4","","11","","15.0","","100.43","","","","-10","","NA"
"2001-11-28 07:00","2001","11","28","07:00","-5.2","","-9.4","","72","","6","","17","","15.0","","100.53","","","","-11","","NA"
"2001-11-28 08:00","2001","11","28","08:00","-5.7","","-9.7","","73","","4","","13","","15.0","","100.61","","","","-11","","NA"
"2001-11-28 09:00","2001","11","28","09:00","-5.8","","-10.1","","72","","4","","11","","15.0","","100.73","","","","-11","","NA"
"2001-11-28 10:00","2001","11","28","10:00","-5.9","","-10.8","","68","","5","","24","","15.0","","100.70","","","","-13","","NA"
"2001-11-28 11:00","2001","11","28","11:00","-5.5","","-10.2","","69","","5","","22","","15.0","","100.71","","","","-13","","NA"
"2001-11-28 12:00","2001","11","28","12:00","-4.7","","-9.6","","69","","5","","13","","15.0","","100.71","","","","-10","","NA"
"2001-11-28 13:00","2001","11","28","13:00","-4.9","","-10.2","","66","","6","","20","","15.0","","100.71","","","","-11","","NA"
"2001-11-28 14:00","2001","11","28","14:00","-5.1","","-10.0","","68","","6","","20","","15.0","","100.66","","","","-12","","NA"
"2001-11-28 15:00","2001","11","28","15:00","-5.3","","-9.8","","71","","6","","22","","15.0","","100.68","","","","-12","","NA"
"2001-11-28 16:00","2001","11","28","16:00","-5.4","","-9.7","","72","","4","","15","","15.0","","100.79","","","","-11","","NA"
"2001-11-28 17:00","2001","11","28","17:00","-5.6","","-9.8","","72","","6","","22","","15.0","","100.75","","","","-13","","NA"
"2001-11-28 18:00","2001","11","28","18:00","-5.4","","-9.0","","76","","7","","30","","15.0","","100.75","","","","-14","","NA"
"2001-11-28 19:00","2001","11","28","19:00","-6.0","","-9.0","","79","","6","","22","","15.0","","100.73","","","","-13","","NA"
"2001-11-28 20:00","2001","11","28","20:00","-5.6","","-8.0","","83","","6","","28","","15.0","","100.71","","","","-14","","NA"
"2001-11-28 21:00","2001","11","28","21:00","-5.7","","-7.9","","84","","7","","24","","15.0","","100.71","","","","-13","","NA"
"2001-11-28 22:00","2001","11","28","22:00","-5.6","","-7.7","","85","","6","","15","","15.0","","100.64","","","","-11","","NA"
"2001-11-28 23:00","2001","11","28","23:00","-5.5","","-7.6","","85","","6","","17","","15.0","","100.61","","","","-12","","NA"
"2001-11-29 00:00","2001","11","29","00:00","-5.3","","-7.2","","86","","7","","19","","15.0","","100.50","","","","-12","","NA"
"2001-11-29 01:00","2001","11","29","01:00","-5.0","","-6.8","","87","","6","","20","","15.0","","100.37","","","","-12","","NA"
"2001-11-29 02:00","2001","11","29","02:00","-4.6","","-6.7","","85","","5","","19","","15.0","","100.35","","","","-11","","NA"
"2001-11-29 03:00","2001","11","29","03:00","-4.3","","-6.4","","85","","5","","19","","15.0","","100.30","","","","-10","","NA"
"2001-11-29 04:00","2001","11","29","04:00","-3.9","","-6.0","","85","","7","","22","","15.0","","100.16","","","","-10","","NA"
"2001-11-29 05:00","2001","11","29","05:00","-4.0","","-5.6","","89","","6","","20","","0.5","","100.05","","","","-10","","NA"
"2001-11-29 06:00","2001","11","29","06:00","-3.6","","-4.9","","91","","6","","20","","0.3","","99.98","","","","-10","","NA"
"2001-11-29 07:00","2001","11","29","07:00","-3.1","","-4.3","","91","","7","","22","","2.6","","99.89","","","","-9","","NA"
"2001-11-29 08:00","2001","11","29","08:00","-3.3","","-4.6","","91","","6","","15","","0.5","","99.85","","","","-8","","NA"
"2001-11-29 09:00","2001","11","29","09:00","-3.1","","-4.4","","91","","5","","13","","0.6","","99.85","","","","-8","","NA"
"2001-11-29 10:00","2001","11","29","10:00","-2.6","","-4.0","","90","","5","","13","","2.6","","99.81","","","","-7","","NA"
"2001-11-29 11:00","2001","11","29","11:00","-2.1","","-3.6","","89","","6","","9","","4.8","","99.76","","","","-6","","NA"
"2001-11-29 12:00","2001","11","29","12:00","-1.5","","-3.8","","84","","6","","9","","15.0","","99.69","","","","-5","","NA"
"2001-11-29 13:00","2001","11","29","13:00","-1.4","","-3.8","","84","","3","","9","","15.0","","99.63","","","","-5","","NA"
"2001-11-29 14:00","2001","11","29","14:00","-1.0","","-3.4","","84","","1","","7","","15.0","","99.60","","","","-4","","NA"
"2001-11-29 15:00","2001","11","29","15:00","-0.8","","-3.4","","83","","2","","7","","15.0","","99.58","","","","-3","","NA"
"2001-11-29 16:00","2001","11","29","16:00","-1.0","","-3.6","","82","","2","","6","","15.0","","99.67","","","","-3","","NA"
"2001-11-29 17:00","2001","11","29","17:00","-1.1","","-3.5","","84","","1","","6","","15.0","","99.71","","","","-3","","NA"
"2001-11-29 18:00","2001","11","29","18:00","-1.4","","-3.7","","84","","1","","6","","15.0","","99.67","","","","-4","","NA"
"2001-11-29 19:00","2001","11","29","19:00","-2.1","","-4.1","","86","","3","","9","","15.0","","99.72","","","","-6","","NA"
"2001-11-29 20:00","2001","11","29","20:00","-2.5","","-4.0","","89","","7","","4","","15.0","","99.74","","","","-4","","NA"
"2001-11-29 21:00","2001","11","29","21:00","-2.8","","-4.3","","89","","1","","6","","15.0","","99.76","","","","-5","","NA"
"2001-11-29 22:00","2001","11","29","22:00","-2.6","","-4.1","","89","","1","","6","","15.0","","99.74","","","","-5","","NA"
"2001-11-29 23:00","2001","11","29","23:00","-2.3","","-3.7","","90","","5","","6","","15.0","","99.67","","","","-5","","NA"
"2001-11-30 00:00","2001","11","30","00:00","-2.6","","-3.8","","91","","5","","13","","15.0","","99.69","","","","-7","","NA"
"2001-11-30 01:00","2001","11","30","01:00","-2.7","","-3.8","","92","","5","","13","","15.0","","99.56","","","","-7","","NA"
"2001-11-30 02:00","2001","11","30","02:00","-2.4","","-3.5","","92","","6","","17","","15.0","","99.53","","","","-8","","NA"
"2001-11-30 03:00","2001","11","30","03:00","-2.4","","-3.5","","92","","6","","15","","15.0","","99.49","","","","-7","","NA"
"2001-11-30 04:00","2001","11","30","04:00","-2.6","","-3.7","","92","","6","","15","","15.0","","99.44","","","","-8","","NA"
"2001-11-30 05:00","2001","11","30","05:00","-2.8","","-4.0","","91","","7","","22","","15.0","","99.33","","","","-9","","NA"
"2001-11-30 06:00","2001","11","30","06:00","-2.6","","-3.8","","91","","6","","17","","15.0","","99.27","","","","-8","","NA"
"2001-11-30 07:00","2001","11","30","07:00","-2.6","","-3.8","","91","","7","","24","","15.0","","99.11","","","","-9","","NA"
"2001-11-30 08:00","2001","11","30","08:00","-2.3","","-3.5","","91","","7","","22","","15.0","","99.00","","","","-8","","NA"
"2001-11-30 09:00","2001","11","30","09:00","-1.9","","-2.8","","94","","6","","20","","15.0","","98.90","","","","-8","","NA"
"2001-11-30 10:00","2001","11","30","10:00","-1.7","","-2.6","","94","","6","","19","","15.0","","98.77","","","","-7","","NA"
"2001-11-30 11:00","2001","11","30","11:00","-1.1","","-2.0","","94","","7","","22","","15.0","","98.64","","","","-7","","NA"
"2001-11-30 12:00","2001","11","30","12:00","-0.9","","-1.8","","94","","6","","17","","15.0","","98.54","","","","-6","","NA"
"2001-11-30 13:00","2001","11","30","13:00","-0.5","","-1.3","","94","","7","","20","","15.0","","98.39","","","","-6","","NA"
"2001-11-30 14:00","2001","11","30","14:00","0.1","","-0.7","","94","","7","","17","","15.0","","98.28","","","","","","NA"
"2001-11-30 15:00","2001","11","30","15:00","0.3","","-0.4","","95","","6","","15","","15.0","","98.21","","","","","","NA"
"2001-11-30 16:00","2001","11","30","16:00","0.9","","0.3","","96","","8","","17","","8.0","","98.10","","","","","","NA"
"2001-11-30 17:00","2001","11","30","17:00","0.6","","0.2","","97","","5","","9","","15.0","","98.21","","","","","","NA"
"2001-11-30 18:00","2001","11","30","18:00","1.1","","0.7","","97","","7","","13","","15.0","","98.14","","","","","","NA"
"2001-11-30 19:00","2001","11","30","19:00","1.0","","0.6","","97","","6","","11","","15.0","","98.09","","","","","","NA"
"2001-11-30 20:00","2001","11","30","20:00","1.1","","0.7","","97","","7","","6","","15.0","","98.12","","","","","","NA"
"2001-11-30 21:00","2001","11","30","21:00","1.5","","1.1","","97","","14","","2","","15.0","","98.16","","","","","","NA"
"2001-11-30 22:00","2001","11","30","22:00","1.2","","0.8","","97","","4","","6","","0.5","","98.10","","","","","","NA"
"2001-11-30 23:00","2001","11","30","23:00","2.7","","2.3","","97","","8","","11","","5.6","","98.03","","","","","","NA"
