"Station Name","KILLARNEY (AUT)"
"Province","ONTARIO"
"Latitude","45.97"
"Longitude","-81.48"
"Elevation","196.30"
"Climate Identifier","605DJ25"
"WMO Identifier","71460"
"TC Identifier","WBE"
"All times are specified in Local Standard Time (LST). Add 1 hour to adjust for Daylight Saving Time where and when it is observed."

"Legend"
"E","Estimated"
"M","Missing"
"NA","Not Available"

"Date/Time","Year","Month","Day","Time","Temp (°C)","Temp Flag","Dew Point Temp (°C)","Dew Point Temp Flag","Rel Hum (%)","Rel Hum Flag","Wind Dir (10s deg)","Wind Dir Flag","Wind Spd (km/h)","Wind Spd Flag","Visibility (km)","Visibility Flag","Stn Press (kPa)","Stn Press Flag","Hmdx","Hmdx Flag","Wind Chill","Wind Chill Flag","Weather"
"2012-12-01 00:00","2012","12","01","00:00","-9.7","","-14.3","","69","","","M","","M","","","100.63","","","","","","NA"
"2012-12-01 01:00","2012","12","01","01:00","-9.4","","-14.4","","67","","","M","","M","","","100.58","","","","","","NA"
"2012-12-01 02:00","2012","12","01","02:00","-9.4","","-15.0","","64","","","M","","M","","","100.62","","","","","","NA"
"2012-12-01 03:00","2012","12","01","03:00","-9.2","","-14.4","","66","","","M","","M","","","100.64","","","","","","NA"
"2012-12-01 04:00","2012","12","01","04:00","-9.1","","-13.9","","68","","","M","","M","","","100.59","","","","","","NA"
"2012-12-01 05:00","2012","12","01","05:00","-9.1","","-13.2","","72","","","M","","M","","","100.56","","","","","","NA"
"2012-12-01 06:00","2012","12","01","06:00","-8.8","","-12.4","","75","","","M","","M","","","100.50","","","","","","NA"
"2012-12-01 07:00","2012","12","01","07:00","-8.2","","-11.9","","75","","","M","","M","","","100.43","","","","","","NA"
"2012-12-01 08:00","2012","12","01","08:00","-7.9","","-11.8","","74","","","M","","M","","","100.43","","","","","","NA"
"2012-12-01 09:00","2012","12","01","09:00","-7.5","","-11.4","","74","","","M","","M","","","100.46","","","","","","NA"
"2012-12-01 10:00","2012","12","01","10:00","-7.0","","-10.4","","77","","","M","","M","","","100.37","","","","","","NA"
"2012-12-01 11:00","2012","12","01","11:00","-6.2","","-9.6","","77","","","M","","M","","","100.25","","","","","","NA"
"2012-12-01 12:00","2012","12","01","12:00","-4.9","","-8.1","","78","","","M","","M","","","100.14","","","","","","NA"
"2012-12-01 13:00","2012","12","01","13:00","-3.9","","-6.8","","80","","","M","","M","","","100.05","","","","","","NA"
"2012-12-01 14:00","2012","12","01","14:00","0.8","","-1.0","","88","","","M","","M","","","99.96","","","","","","NA"
"2012-12-01 15:00","2012","12","01","15:00","2.0","","0.7","","91","","","M","","M","","","99.88","","","","","","NA"
"2012-12-01 16:00","2012","12","01","16:00","2.5","","0.5","","87","","","M","","M","","","99.78","","","","","","NA"
"2012-12-01 17:00","2012","12","01","17:00","2.8","","0.8","","87","","","M","","M","","","99.67","","","","","","NA"
"2012-12-01 18:00","2012","12","01","18:00","3.2","","0.8","","84","","","M","","M","","","99.62","","","","","","NA"
"2012-12-01 19:00","2012","12","01","19:00","3.5","","1.5","","87","","","M","","M","","","99.58","","","","","","NA"
"2012-12-01 20:00","2012","12","01","20:00","3.9","","2.0","","87","","","M","","M","","","99.53","","","","","","NA"
"2012-12-01 21:00","2012","12","01","21:00","4.5","","2.8","","89","","","M","","M","","","99.39","","","","","","NA"
"2012-12-01 22:00","2012","12","01","22:00","5.1","","3.2","","88","","","M","","M","","","99.25","","","","","","NA"
"2012-12-01 23:00","2012","12","01","23:00","5.2","","3.8","","91","","","M","","M","","","99.18","","","","","","NA"
"2012-12-02 00:00","2012","12","02","00:00","5.1","","4.0","","93","","","M","","M","","","99.05","","","","","","NA"
"2012-12-02 01:00","2012","12","02","01:00","5.3","","4.4","","94","","","M","","M","","","98.94","","","","","","NA"
"2012-12-02 02:00","2012","12","02","02:00","4.7","","3.9","","95","","","M","","M","","","98.84","","","","","","NA"
"2012-12-02 03:00","2012","12","02","03:00","5.3","","4.6","","95","","","M","","M","","","98.77","","","","","","NA"
"2012-12-02 04:00","2012","12","02","04:00","6.4","","5.7","","95","","","M","","M","","","98.68","","","","","","NA"
"2012-12-02 05:00","2012","12","02","05:00","7.1","","6.4","","95","","","M","","M","","","98.61","","","","","","NA"
"2012-12-02 06:00","2012","12","02","06:00","7.0","","6.3","","95","","","M","","M","","","98.59","","","","","","NA"
"2012-12-02 07:00","2012","12","02","07:00","7.1","","6.4","","95","","","M","","M","","","98.58","","","","","","NA"
"2012-12-02 08:00","2012","12","02","08:00","6.9","","6.3","","96","","","M","","M","","","98.58","","","","","","NA"
"2012-12-02 09:00","2012","12","02","09:00","7.3","","6.6","","95","","","M","","M","","","98.59","","","","","","NA"
"2012-12-02 10:00","2012","12","02","10:00","7.6","","6.9","","95","","","M","","M","","","98.61","","","","","","NA"
"2012-12-02 11:00","2012","12","02","11:00","7.5","","6.8","","95","","","M","","M","","","98.65","","","","","","NA"
"2012-12-02 12:00","2012","12","02","12:00","7.6","","6.9","","95","","","M","","M","","","98.60","","","","","","NA"
"2012-12-02 13:00","2012","12","02","13:00","6.4","","5.2","","92","","","M","","M","","","98.60","","","","","","NA"
"2012-12-02 14:00","2012","12","02","14:00","5.6","","4.7","","94","","","M","","M","","","98.64","","","","","","NA"
"2012-12-02 15:00","2012","12","02","15:00","5.6","","4.5","","93","","","M","","M","","","98.73","","","","","","NA"
"2012-12-02 16:00","2012","12","02","16:00","5.2","","3.9","","91","","","M","","M","","","98.89","","","","","","NA"
"2012-12-02 17:00","2012","12","02","17:00","4.9","","3.3","","89","","","M","","M","","","99.01","","","","","","NA"
"2012-12-02 18:00","2012","12","02","18:00","4.8","","3.2","","89","","","M","","M","","","99.21","","","","","","NA"
"2012-12-02 19:00","2012","12","02","19:00","4.5","","2.9","","89","","","M","","M","","","99.27","","","","","","NA"
"2012-12-02 20:00","2012","12","02","20:00","4.4","","2.7","","89","","","M","","M","","","99.33","","","","","","NA"
"2012-12-02 21:00","2012","12","02","21:00","4.3","","2.4","","87","","","M","","M","","","99.45","","","","","","NA"
"2012-12-02 22:00","2012","12","02","22:00","4.1","","2.2","","87","","","M","","M","","","99.50","","","","","","NA"
"2012-12-02 23:00","2012","12","02","23:00","3.8","","2.2","","89","","","M","","M","","","99.52","","","","","","NA"
"2012-12-03 00:00","2012","12","03","00:00","3.5","","1.9","","89","","","M","","M","","","99.58","","","","","","NA"
"2012-12-03 01:00","2012","12","03","01:00","3.2","","1.8","","91","","","M","","M","","","99.58","","","","","","NA"
"2012-12-03 02:00","2012","12","03","02:00","3.1","","2.0","","92","","","M","","M","","","99.61","","","","","","NA"
"2012-12-03 03:00","2012","12","03","03:00","3.1","","2.2","","94","","","M","","M","","","99.71","","","","","","NA"
"2012-12-03 04:00","2012","12","03","04:00","3.0","","1.9","","92","","","M","","M","","","99.72","","","","","","NA"
"2012-12-03 05:00","2012","12","03","05:00","2.9","","1.8","","92","","","M","","M","","","99.75","","","","","","NA"
"2012-12-03 06:00","2012","12","03","06:00","2.8","","1.6","","92","","","M","","M","","","99.72","","","","","","NA"
"2012-12-03 07:00","2012","12","03","07:00","2.9","","1.7","","92","","","M","","M","","","99.77","","","","","","NA"
"2012-12-03 08:00","2012","12","03","08:00","3.5","","2.4","","92","","","M","","M","","","99.73","","","","","","NA"
"2012-12-03 09:00","2012","12","03","09:00","5.6","","4.2","","91","","","M","","M","","","99.72","","","","","","NA"
"2012-12-03 10:00","2012","12","03","10:00","5.9","","3.4","","84","","","M","","M","","","99.72","","","","","","NA"
"2012-12-03 11:00","2012","12","03","11:00","5.9","","2.8","","80","","","M","","M","","","99.71","","","","","","NA"
"2012-12-03 12:00","2012","12","03","12:00","5.8","","3.0","","82","","","M","","M","","","99.65","","","","","","NA"
"2012-12-03 13:00","2012","12","03","13:00","5.8","","3.7","","86","","","M","","M","","","99.58","","","","","","NA"
"2012-12-03 14:00","2012","12","03","14:00","5.5","","3.8","","89","","","M","","M","","","99.46","","","","","","NA"
"2012-12-03 15:00","2012","12","03","15:00","5.6","","3.8","","88","","","M","","M","","","99.37","","","","","","NA"
"2012-12-03 16:00","2012","12","03","16:00","5.2","","4.1","","93","","","M","","M","","","99.37","","","","","","NA"
"2012-12-03 17:00","2012","12","03","17:00","5.2","","4.4","","95","","","M","","M","","","99.29","","","","","","NA"
"2012-12-03 18:00","2012","12","03","18:00","5.8","","5.1","","95","","","M","","M","","","99.21","","","","","","NA"
"2012-12-03 19:00","2012","12","03","19:00","6.4","","5.0","","91","","","M","","M","","","99.09","","","","","","NA"
"2012-12-03 20:00","2012","12","03","20:00","6.7","","5.3","","91","","","M","","M","","","98.99","","","","","","NA"
"2012-12-03 21:00","2012","12","03","21:00","6.4","","5.4","","93","","","M","","M","","","98.90","","","","","","NA"
"2012-12-03 22:00","2012","12","03","22:00","6.7","","5.9","","95","","","M","","M","","","98.68","","","","","","NA"
"2012-12-03 23:00","2012","12","03","23:00","7.3","","6.5","","95","","","M","","M","","","98.58","","","","","","NA"
"2012-12-04 00:00","2012","12","04","00:00","7.4","","6.6","","95","","","M","","M","","","98.53","","","","","","NA"
"2012-12-04 01:00","2012","12","04","01:00","8.6","","7.8","","95","","","M","","M","","","98.44","","","","","","NA"
"2012-12-04 02:00","2012","12","04","02:00","10.4","","9.4","","94","","","M","","M","","","98.36","","","","","","NA"
"2012-12-04 03:00","2012","12","04","03:00","9.2","","8.3","","94","","","M","","M","","","98.28","","","","","","NA"
"2012-12-04 04:00","2012","12","04","04:00","8.2","","7.4","","95","","","M","","M","","","98.28","","","","","","NA"
"2012-12-04 05:00","2012","12","04","05:00","10.6","","9.8","","95","","","M","","M","","","98.29","","","","","","NA"
"2012-12-04 06:00","2012","12","04","06:00","11.0","","9.6","","91","","","M","","M","","","98.34","","","","","","NA"
"2012-12-04 07:00","2012","12","04","07:00","8.9","","6.5","","85","","","M","","M","","","98.42","","","","","","NA"
"2012-12-04 08:00","2012","12","04","08:00","7.8","","5.8","","87","","","M","","M","","","98.54","","","","","","NA"
"2012-12-04 09:00","2012","12","04","09:00","8.0","","4.9","","81","","","M","","M","","","98.62","","","","","","NA"
"2012-12-04 10:00","2012","12","04","10:00","7.6","","3.5","","75","","","M","","M","","","98.68","","","","","","NA"
"2012-12-04 11:00","2012","12","04","11:00","7.6","","2.2","","69","","","M","","M","","","98.67","","","","","","NA"
"2012-12-04 12:00","2012","12","04","12:00","7.2","","1.9","","69","","","M","","M","","","98.62","","","","","","NA"
"2012-12-04 13:00","2012","12","04","13:00","7.1","","2.1","","70","","","M","","M","","","98.60","","","","","","NA"
"2012-12-04 14:00","2012","12","04","14:00","7.0","","2.4","","72","","","M","","M","","","98.60","","","","","","NA"
"2012-12-04 15:00","2012","12","04","15:00","6.5","","2.7","","77","","","M","","M","","","98.62","","","","","","NA"
"2012-12-04 16:00","2012","12","04","16:00","6.3","","1.8","","73","","","M","","M","","","98.67","","","","","","NA"
"2012-12-04 17:00","2012","12","04","17:00","6.0","","1.4","","72","","","M","","M","","","98.72","","","","","","NA"
"2012-12-04 18:00","2012","12","04","18:00","5.5","","1.0","","73","","","M","","M","","","98.79","","","","","","NA"
"2012-12-04 19:00","2012","12","04","19:00","4.5","","-1.0","","67","","","M","","M","","","98.85","","","","","","NA"
"2012-12-04 20:00","2012","12","04","20:00","2.7","","-2.6","","68","","","M","","M","","","98.92","","","","","","NA"
"2012-12-04 21:00","2012","12","04","21:00","1.6","","-4.1","","66","","","M","","M","","","98.99","","","","","","NA"
"2012-12-04 22:00","2012","12","04","22:00","0.9","","-6.9","","56","","","M","","M","","","99.10","","","","","","NA"
"2012-12-04 23:00","2012","12","04","23:00","-0.2","","-7.9","","56","","","M","","M","","","99.17","","","","","","NA"
"2012-12-05 00:00","2012","12","05","00:00","-0.5","","-8.5","","55","","","M","","M","","","99.23","","","","","","NA"
"2012-12-05 01:00","2012","12","05","01:00","-0.8","","-7.9","","59","","","M","","M","","","99.31","","","","","","NA"
"2012-12-05 02:00","2012","12","05","02:00","-1.1","","-8.3","","58","","","M","","M","","","99.40","","","","","","NA"
"2012-12-05 03:00","2012","12","05","03:00","-1.6","","-8.4","","60","","","M","","M","","","99.52","","","","","","NA"
"2012-12-05 04:00","2012","12","05","04:00","-2.3","","-9.6","","57","","","M","","M","","","99.59","","","","","","NA"
"2012-12-05 05:00","2012","12","05","05:00","-2.6","","-10.3","","55","","","M","","M","","","99.70","","","","","","NA"
"2012-12-05 06:00","2012","12","05","06:00","-2.7","","-10.3","","56","","","M","","M","","","99.82","","","","","","NA"
"2012-12-05 07:00","2012","12","05","07:00","-2.9","","-10.9","","54","","","M","","M","","","99.95","","","","","","NA"
"2012-12-05 08:00","2012","12","05","08:00","-3.6","","-12.5","","50","","","M","","M","","","100.09","","","","","","NA"
"2012-12-05 09:00","2012","12","05","09:00","-4.1","","-13.1","","50","","","M","","M","","","100.23","","","","","","NA"
"2012-12-05 10:00","2012","12","05","10:00","-3.4","","-12.5","","49","","","M","","M","","","100.33","","","","","","NA"
"2012-12-05 11:00","2012","12","05","11:00","-3.0","","-12.3","","49","","","M","","M","","","100.38","","","","","","NA"
"2012-12-05 12:00","2012","12","05","12:00","-3.2","","-12.4","","49","","","M","","M","","","100.41","","","","","","NA"
"2012-12-05 13:00","2012","12","05","13:00","-3.1","","-12.4","","49","","","M","","M","","","100.43","","","","","","NA"
"2012-12-05 14:00","2012","12","05","14:00","-2.4","","-12.2","","47","","","M","","M","","","100.42","","","","","","NA"
"2012-12-05 15:00","2012","12","05","15:00","-1.7","","-12.4","","44","","","M","","M","","","100.48","","","","","","NA"
"2012-12-05 16:00","2012","12","05","16:00","-1.7","","-12.4","","44","","","M","","M","","","100.51","","","","","","NA"
"2012-12-05 17:00","2012","12","05","17:00","-3.0","","-12.2","","49","","","M","","M","","","100.53","","","","","","NA"
"2012-12-05 18:00","2012","12","05","18:00","-3.8","","-11.9","","53","","","M","","M","","","100.58","","","","","","NA"
"2012-12-05 19:00","2012","12","05","19:00","-4.3","","-11.6","","57","","","M","","M","","","100.56","","","","","","NA"
"2012-12-05 20:00","2012","12","05","20:00","-5.0","","-10.6","","65","","","M","","M","","","100.54","","","","","","NA"
"2012-12-05 21:00","2012","12","05","21:00","-5.6","","-11.1","","65","","","M","","M","","","100.55","","","","","","NA"
"2012-12-05 22:00","2012","12","05","22:00","-4.8","","-9.8","","68","","","M","","M","","","100.51","","","","","","NA"
"2012-12-05 23:00","2012","12","05","23:00","-6.4","","-10.5","","73","","","M","","M","","","100.53","","","","","","NA"
"2012-12-06 00:00","2012","12","06","00:00","-6.7","","-11.0","","71","","","M","","M","","","100.50","","","","","","NA"
"2012-12-06 01:00","2012","12","06","01:00","-6.1","","-10.4","","72","","","M","","M","","","100.44","","","","","","NA"
"2012-12-06 02:00","2012","12","06","02:00","-5.8","","-9.5","","75","","","M","","M","","","100.41","","","","","","NA"
"2012-12-06 03:00","2012","12","06","03:00","-5.8","","-9.1","","77","","","M","","M","","","100.38","","","","","","NA"
"2012-12-06 04:00","2012","12","06","04:00","-4.9","","-7.7","","81","","","M","","M","","","100.29","","","","","","NA"
"2012-12-06 05:00","2012","12","06","05:00","-3.9","","-6.5","","82","","","M","","M","","","100.27","","","","","","NA"
"2012-12-06 06:00","2012","12","06","06:00","0.6","","-3.4","","75","","","M","","M","","","100.19","","","","","","NA"
"2012-12-06 07:00","2012","12","06","07:00","0.5","","-3.1","","77","","","M","","M","","","100.09","","","","","","NA"
"2012-12-06 08:00","2012","12","06","08:00","0.6","","-2.9","","77","","","M","","M","","","100.05","","","","","","NA"
"2012-12-06 09:00","2012","12","06","09:00","0.7","","-3.0","","76","","","M","","M","","","100.00","","","","","","NA"
"2012-12-06 10:00","2012","12","06","10:00","1.0","","-2.0","","80","","","M","","M","","","99.92","","","","","","NA"
"2012-12-06 11:00","2012","12","06","11:00","0.8","","-2.0","","82","","","M","","M","","","99.84","","","","","","NA"
"2012-12-06 12:00","2012","12","06","12:00","1.2","","-1.6","","82","","","M","","M","","","99.70","","","","","","NA"
"2012-12-06 13:00","2012","12","06","13:00","0.9","","-2.5","","78","","","M","","M","","","99.58","","","","","","NA"
"2012-12-06 14:00","2012","12","06","14:00","2.2","","-0.4","","83","","","M","","M","","","99.49","","","","","","NA"
"2012-12-06 15:00","2012","12","06","15:00","2.7","","0.1","","83","","","M","","M","","","99.39","","","","","","NA"
"2012-12-06 16:00","2012","12","06","16:00","3.1","","0.1","","81","","","M","","M","","","99.34","","","","","","NA"
"2012-12-06 17:00","2012","12","06","17:00","2.9","","0.5","","84","","","M","","M","","","99.25","","","","","","NA"
"2012-12-06 18:00","2012","12","06","18:00","2.5","","0.0","","84","","","M","","M","","","99.24","","","","","","NA"
"2012-12-06 19:00","2012","12","06","19:00","2.6","","0.1","","84","","","M","","M","","","99.18","","","","","","NA"
"2012-12-06 20:00","2012","12","06","20:00","3.0","","0.7","","85","","","M","","M","","","99.07","","","","","","NA"
"2012-12-06 21:00","2012","12","06","21:00","3.7","","1.3","","84","","","M","","M","","","98.98","","","","","","NA"
"2012-12-06 22:00","2012","12","06","22:00","4.3","","1.9","","84","","","M","","M","","","98.93","","","","","","NA"
"2012-12-06 23:00","2012","12","06","23:00","4.7","","2.5","","86","","","M","","M","","","98.87","","","","","","NA"
"2012-12-07 00:00","2012","12","07","00:00","4.9","","2.0","","81","","","M","","M","","","98.84","","","","","","NA"
"2012-12-07 01:00","2012","12","07","01:00","4.9","","1.8","","80","","","M","","M","","","98.79","","","","","","NA"
"2012-12-07 02:00","2012","12","07","02:00","4.8","","1.4","","79","","","M","","M","","","98.75","","","","","","NA"
"2012-12-07 03:00","2012","12","07","03:00","4.7","","1.9","","82","","","M","","M","","","98.77","","","","","","NA"
"2012-12-07 04:00","2012","12","07","04:00","4.5","","1.2","","79","","","M","","M","","","98.77","","","","","","NA"
"2012-12-07 05:00","2012","12","07","05:00","3.9","","1.8","","86","","","M","","M","","","98.81","","","","","","NA"
"2012-12-07 06:00","2012","12","07","06:00","4.0","","1.7","","85","","","M","","M","","","98.81","","","","","","NA"
"2012-12-07 07:00","2012","12","07","07:00","4.2","","1.7","","84","","","M","","M","","","98.85","","","","","","NA"
"2012-12-07 08:00","2012","12","07","08:00","4.2","","1.9","","85","","","M","","M","","","98.85","","","","","","NA"
"2012-12-07 09:00","2012","12","07","09:00","4.3","","1.9","","84","","","M","","M","","","98.90","","","","","","NA"
"2012-12-07 10:00","2012","12","07","10:00","4.3","","1.9","","84","","","M","","M","","","98.92","","","","","","NA"
"2012-12-07 11:00","2012","12","07","11:00","4.6","","1.8","","82","","","M","","M","","","98.97","","","","","","NA"
"2012-12-07 12:00","2012","12","07","12:00","4.6","","-0.4","","70","","","M","","M","","","98.93","","","","","","NA"
"2012-12-07 13:00","2012","12","07","13:00","4.4","","-1.0","","68","","","M","","M","","","98.92","","","","","","NA"
"2012-12-07 14:00","2012","12","07","14:00","4.0","","-1.3","","68","","","M","","M","","","98.94","","","","","","NA"
"2012-12-07 15:00","2012","12","07","15:00","3.9","","-2.4","","63","","","M","","M","","","98.96","","","","","","NA"
"2012-12-07 16:00","2012","12","07","16:00","3.7","","-2.8","","62","","","M","","M","","","99.04","","","","","","NA"
"2012-12-07 17:00","2012","12","07","17:00","3.1","","-2.8","","65","","","M","","M","","","99.05","","","","","","NA"
"2012-12-07 18:00","2012","12","07","18:00","2.1","","-3.0","","69","","","M","","M","","","99.13","","","","","","NA"
"2012-12-07 19:00","2012","12","07","19:00","1.2","","-3.3","","72","","","M","","M","","","99.12","","","","","","NA"
"2012-12-07 20:00","2012","12","07","20:00","0.7","","-3.8","","72","","","M","","M","","","99.14","","","","","","NA"
"2012-12-07 21:00","2012","12","07","21:00","0.5","","-3.9","","72","","","M","","M","","","99.16","","","","","","NA"
"2012-12-07 22:00","2012","12","07","22:00","0.4","","-4.0","","72","","","M","","M","","","99.14","","","","","","NA"
"2012-12-07 23:00","2012","12","07","23:00","0.6","","-4.1","","71","","","M","","M","","","99.13","","","","","","NA"
"2012-12-08 00:00","2012","12","08","00:00","0.7","","-4.4","","69","","","M","","M","","","99.17","","","","","","NA"
"2012-12-08 01:00","2012","12","08","01:00","0.5","","-4.7","","68","","","M","","M","","","99.15","","","","","","NA"
"2012-12-08 02:00","2012","12","08","02:00","0.5","","-4.7","","68","","","M","","M","","","99.10","","","","","","NA"
"2012-12-08 03:00","2012","12","08","03:00","0.5","","-5.2","","66","","","M","","M","","","99.10","","","","","","NA"
"2012-12-08 04:00","2012","12","08","04:00","0.4","","-5.7","","64","","","M","","M","","","99.05","","","","","","NA"
"2012-12-08 05:00","2012","12","08","05:00","0.1","","-5.0","","69","","","M","","M","","","99.03","","","","","","NA"
"2012-12-08 06:00","2012","12","08","06:00","-0.1","","-4.1","","74","","","M","","M","","","99.08","","","","","","NA"
"2012-12-08 07:00","2012","12","08","07:00","-0.5","","-3.5","","80","","","M","","M","","","99.03","","","","","","NA"
"2012-12-08 08:00","2012","12","08","08:00","-1.1","","-4.4","","78","","","M","","M","","","99.03","","","","","","NA"
"2012-12-08 09:00","2012","12","08","09:00","-1.7","","-4.7","","80","","","M","","M","","","99.05","","","","","","NA"
"2012-12-08 10:00","2012","12","08","10:00","-2.8","","-4.4","","89","","","M","","M","","","99.09","","","","","","NA"
"2012-12-08 11:00","2012","12","08","11:00","-3.0","","-4.3","","91","","","M","","M","","","99.09","","","","","","NA"
"2012-12-08 12:00","2012","12","08","12:00","-3.1","","-5.1","","86","","","M","","M","","","99.07","","","","","","NA"
"2012-12-08 13:00","2012","12","08","13:00","-1.8","","-5.3","","77","","","M","","M","","","99.03","","","","","","NA"
"2012-12-08 14:00","2012","12","08","14:00","-2.4","","-6.2","","75","","","M","","M","","","99.06","","","","","","NA"
"2012-12-08 15:00","2012","12","08","15:00","-2.0","","-6.5","","71","","","M","","M","","","99.14","","","","","","NA"
"2012-12-08 16:00","2012","12","08","16:00","-2.2","","-6.9","","70","","","M","","M","","","99.28","","","","","","NA"
"2012-12-08 17:00","2012","12","08","17:00","-3.0","","-7.8","","69","","","M","","M","","","99.39","","","","","","NA"
"2012-12-08 18:00","2012","12","08","18:00","-3.9","","-8.4","","71","","","M","","M","","","99.50","","","","","","NA"
"2012-12-08 19:00","2012","12","08","19:00","-4.5","","-8.8","","72","","","M","","M","","","99.63","","","","","","NA"
"2012-12-08 20:00","2012","12","08","20:00","-4.7","","-9.3","","70","","","M","","M","","","99.70","","","","","","NA"
"2012-12-08 21:00","2012","12","08","21:00","-4.6","","-9.4","","69","","","M","","M","","","99.79","","","","","","NA"
"2012-12-08 22:00","2012","12","08","22:00","-5.7","","-10.0","","72","","","M","","M","","","99.88","","","","","","NA"
"2012-12-08 23:00","2012","12","08","23:00","-6.5","","-10.6","","73","","","M","","M","","","99.94","","","","","","NA"
"2012-12-09 00:00","2012","12","09","00:00","-6.4","","-10.6","","72","","","M","","M","","","100.06","","","","","","NA"
"2012-12-09 01:00","2012","12","09","01:00","-7.6","","-10.6","","79","","","M","","M","","","100.01","","","","","","NA"
"2012-12-09 02:00","2012","12","09","02:00","-7.5","","-12.1","","70","","","M","","M","","","100.05","","","","","","NA"
"2012-12-09 03:00","2012","12","09","03:00","-8.0","","-13.1","","67","","","M","","M","","","100.12","","","","","","NA"
"2012-12-09 04:00","2012","12","09","04:00","-8.3","","-12.0","","75","","","M","","M","","","100.30","","","","","","NA"
"2012-12-09 05:00","2012","12","09","05:00","-9.2","","-12.2","","79","","","M","","M","","","100.31","","","","","","NA"
"2012-12-09 06:00","2012","12","09","06:00","-9.2","","-11.9","","81","","","M","","M","","","100.37","","","","","","NA"
"2012-12-09 07:00","2012","12","09","07:00","-9.8","","-12.5","","81","","","M","","M","","","100.40","","","","","","NA"
"2012-12-09 08:00","2012","12","09","08:00","-10.1","","-14.9","","68","","","M","","M","","","100.38","","","","","","NA"
"2012-12-09 09:00","2012","12","09","09:00","-10.2","","-12.9","","81","","","M","","M","","","100.38","","","","","","NA"
"2012-12-09 10:00","2012","12","09","10:00","-9.3","","-14.9","","64","","","M","","M","","","100.36","","","","","","NA"
"2012-12-09 11:00","2012","12","09","11:00","-8.6","","-15.0","","60","","","M","","M","","","100.44","","","","","","NA"
"2012-12-09 12:00","2012","12","09","12:00","-8.0","","-13.4","","65","","","M","","M","","","100.31","","","","","","NA"
"2012-12-09 13:00","2012","12","09","13:00","-7.8","","-13.1","","66","","","M","","M","","","100.09","","","","","","NA"
"2012-12-09 14:00","2012","12","09","14:00","-7.4","","-12.9","","65","","","M","","M","","","100.00","","","","","","NA"
"2012-12-09 15:00","2012","12","09","15:00","-7.2","","-13.0","","63","","","M","","M","","","99.92","","","","","","NA"
"2012-12-09 16:00","2012","12","09","16:00","-7.0","","-12.9","","63","","","M","","M","","","99.87","","","","","","NA"
"2012-12-09 17:00","2012","12","09","17:00","-7.1","","-12.9","","63","","","M","","M","","","99.60","","","","","","NA"
"2012-12-09 18:00","2012","12","09","18:00","-7.1","","-12.2","","67","","","M","","M","","","99.57","","","","","","NA"
"2012-12-09 19:00","2012","12","09","19:00","-8.0","","-10.0","","85","","","M","","M","","","99.46","","","","","","NA"
"2012-12-09 20:00","2012","12","09","20:00","-8.1","","-9.3","","91","","","M","","M","","","99.30","","","","","","NA"
"2012-12-09 21:00","2012","12","09","21:00","-8.1","","-9.3","","91","","","M","","M","","","99.18","","","","","","NA"
"2012-12-09 22:00","2012","12","09","22:00","-7.7","","-9.2","","89","","","M","","M","","","98.87","","","","","","NA"
"2012-12-09 23:00","2012","12","09","23:00","-7.2","","-8.7","","89","","","M","","M","","","98.69","","","","","","NA"
"2012-12-10 00:00","2012","12","10","00:00","-7.0","","-8.3","","90","","","M","","M","","","98.58","","","","","","NA"
"2012-12-10 01:00","2012","12","10","01:00","-6.4","","-7.8","","90","","","M","","M","","","98.41","","","","","","NA"
"2012-12-10 02:00","2012","12","10","02:00","-6.5","","-8.2","","88","","","M","","M","","","98.32","","","","","","NA"
"2012-12-10 03:00","2012","12","10","03:00","-5.8","","-7.9","","85","","","M","","M","","","98.22","","","","","","NA"
"2012-12-10 04:00","2012","12","10","04:00"
"2012-12-10 05:00","2012","12","10","05:00","-6.0","","-8.0","","86","","","M","","M","","","97.98","","","","","","NA"
"2012-12-10 06:00","2012","12","10","06:00","-6.5","","-8.4","","86","","","M","","M","","","97.91","","","","","","NA"
"2012-12-10 07:00","2012","12","10","07:00","-6.8","","-8.8","","86","","","M","","M","","","97.91","","","","","","NA"
"2012-12-10 08:00","2012","12","10","08:00","-7.3","","-9.4","","85","","","M","","M","","","97.85","","","","","","NA"
"2012-12-10 09:00","2012","12","10","09:00","-7.5","","-9.8","","84","","","M","","M","","","97.83","","","","","","NA"
"2012-12-10 10:00","2012","12","10","10:00","-7.7","","-10.0","","84","","","M","","M","","","97.91","","","","","","NA"
"2012-12-10 11:00","2012","12","10","11:00","-7.2","","-10.3","","78","","","M","","M","","","97.92","","","","","","NA"
"2012-12-10 12:00","2012","12","10","12:00","-7.2","","-10.5","","77","","","M","","M","","","97.94","","","","","","NA"
"2012-12-10 13:00","2012","12","10","13:00","-6.7","","-10.5","","74","","","M","","M","","","97.95","","","","","","NA"
"2012-12-10 14:00","2012","12","10","14:00","-6.2","","-11.3","","67","","","M","","M","","","97.96","","","","","","NA"
"2012-12-10 15:00","2012","12","10","15:00","-5.6","","-11.4","","64","","","M","","M","","","98.03","","","","","","NA"
"2012-12-10 16:00","2012","12","10","16:00","-6.5","","-12.0","","65","","","M","","M","","","98.17","","","","","","NA"
"2012-12-10 17:00","2012","12","10","17:00","-7.9","","-12.7","","68","","","M","","M","","","98.28","","","","","","NA"
"2012-12-10 18:00","2012","12","10","18:00","-8.4","","-12.9","","70","","","M","","M","","","98.38","","","","","","NA"
"2012-12-10 19:00","2012","12","10","19:00","-9.0","","-12.9","","73","","","M","","M","","","98.45","","","","","","NA"
"2012-12-10 20:00","2012","12","10","20:00","-9.5","","-13.6","","72","","","M","","M","","","98.55","","","","","","NA"
"2012-12-10 21:00","2012","12","10","21:00","-10.1","","-13.9","","74","","","M","","M","","","98.67","","","","","","NA"
"2012-12-10 22:00","2012","12","10","22:00","-10.4","","-14.1","","74","","","M","","M","","","98.79","","","","","","NA"
"2012-12-10 23:00","2012","12","10","23:00","-11.1","","-14.3","","77","","","M","","M","","","98.84","","","","","","NA"
"2012-12-11 00:00","2012","12","11","00:00","-11.6","","-14.5","","79","","","M","","M","","","98.87","","","","","","NA"
"2012-12-11 01:00","2012","12","11","01:00","-11.6","","-14.3","","80","","","M","","M","","","98.98","","","","","","NA"
"2012-12-11 02:00","2012","12","11","02:00","-12.7","","-15.1","","82","","","M","","M","","","98.93","","","","","","NA"
"2012-12-11 03:00","2012","12","11","03:00","-12.9","","-15.6","","80","","","M","","M","","","98.96","","","","","","NA"
"2012-12-11 04:00","2012","12","11","04:00","-13.4","","-16.0","","81","","","M","","M","","","98.99","","","","","","NA"
"2012-12-11 05:00","2012","12","11","05:00","-13.3","","-16.0","","80","","","M","","M","","","99.11","","","","","","NA"
"2012-12-11 06:00","2012","12","11","06:00","-13.7","","-16.3","","81","","","M","","M","","","99.17","","","","","","NA"
"2012-12-11 07:00","2012","12","11","07:00","-13.8","","-16.2","","82","","","M","","M","","","99.22","","","","","","NA"
"2012-12-11 08:00","2012","12","11","08:00","-14.0","","-16.3","","83","","","M","","M","","","99.27","","","","","","NA"
"2012-12-11 09:00","2012","12","11","09:00","-12.6","","-14.3","","87","","","M","","M","","","99.34","","","","","","NA"
"2012-12-11 10:00","2012","12","11","10:00","-12.5","","-14.8","","83","","","M","","M","","","99.37","","","","","","NA"
"2012-12-11 11:00","2012","12","11","11:00","-11.8","","-14.6","","80","","","M","","M","","","99.37","","","","","","NA"
"2012-12-11 12:00","2012","12","11","12:00","-10.6","","-14.2","","75","","","M","","M","","","99.32","","","","","","NA"
"2012-12-11 13:00","2012","12","11","13:00","-9.8","","-13.0","","77","","","M","","M","","","99.31","","","","","","NA"
"2012-12-11 14:00","2012","12","11","14:00","-9.0","","-11.5","","82","","","M","","M","","","99.30","","","","","","NA"
"2012-12-11 15:00","2012","12","11","15:00","-8.2","","-10.0","","87","","","M","","M","","","99.29","","","","","","NA"
"2012-12-11 16:00","2012","12","11","16:00","-7.2","","-8.6","","90","","","M","","M","","","99.30","","","","","","NA"
"2012-12-11 17:00","2012","12","11","17:00","-7.2","","-8.6","","90","","","M","","M","","","99.31","","","","","","NA"
"2012-12-11 18:00","2012","12","11","18:00","-5.9","","-6.9","","93","","","M","","M","","","99.27","","","","","","NA"
"2012-12-11 19:00","2012","12","11","19:00","-2.5","","-3.4","","94","","","M","","M","","","99.23","","","","","","NA"
"2012-12-11 20:00","2012","12","11","20:00","-0.7","","-1.7","","93","","","M","","M","","","99.17","","","","","","NA"
"2012-12-11 21:00","2012","12","11","21:00","0.4","","-1.1","","90","","","M","","M","","","99.15","","","","","","NA"
"2012-12-11 22:00","2012","12","11","22:00","-2.7","","-4.8","","85","","","M","","M","","","99.13","","","","","","NA"
"2012-12-11 23:00","2012","12","11","23:00","-4.5","","-5.8","","91","","","M","","M","","","99.14","","","","","","NA"
"2012-12-12 00:00","2012","12","12","00:00","1.0","","-4.0","","69","","","M","","M","","","99.10","","","","","","NA"
"2012-12-12 01:00","2012","12","12","01:00","0.9","","-3.7","","71","","","M","","M","","","99.10","","","","","","NA"
"2012-12-12 02:00","2012","12","12","02:00","-0.5","","-1.7","","92","","","M","","M","","","99.18","","","","","","NA"
"2012-12-12 03:00","2012","12","12","03:00","0.5","","-4.3","","70","","","M","","M","","","99.23","","","","","","NA"
"2012-12-12 04:00","2012","12","12","04:00","0.5","","-4.4","","70","","","M","","M","","","99.30","","","","","","NA"
"2012-12-12 05:00","2012","12","12","05:00","0.5","","-4.4","","70","","","M","","M","","","99.36","","","","","","NA"
"2012-12-12 06:00","2012","12","12","06:00","-1.6","","-2.3","","95","","","M","","M","","","99.44","","","","","","NA"
"2012-12-12 07:00","2012","12","12","07:00","-2.0","","-3.5","","89","","","M","","M","","","99.53","","","","","","NA"
"2012-12-12 08:00","2012","12","12","08:00","-1.8","","-4.5","","82","","","M","","M","","","99.60","","","","","","NA"
"2012-12-12 09:00","2012","12","12","09:00","-2.8","","-5.7","","80","","","M","","M","","","99.72","","","","","","NA"
"2012-12-12 10:00","2012","12","12","10:00","-2.6","","-6.5","","75","","","M","","M","","","99.81","","","","","","NA"
"2012-12-12 11:00","2012","12","12","11:00","-1.2","","-5.5","","73","","","M","","M","","","99.89","","","","","","NA"
"2012-12-12 12:00","2012","12","12","12:00","-1.1","","-6.2","","68","","","M","","M","","","99.94","","","","","","NA"
"2012-12-12 13:00","2012","12","12","13:00","-1.1","","-6.0","","69","","","M","","M","","","100.00","","","","","","NA"
"2012-12-12 14:00","2012","12","12","14:00","-1.1","","-6.3","","68","","","M","","M","","","100.02","","","","","","NA"
"2012-12-12 15:00","2012","12","12","15:00","-1.1","","-6.4","","67","","","M","","M","","","100.06","","","","","","NA"
"2012-12-12 16:00","2012","12","12","16:00","-0.7","","-7.0","","62","","","M","","M","","","100.12","","","","","","NA"
"2012-12-12 17:00","2012","12","12","17:00","-0.9","","-6.7","","65","","","M","","M","","","100.20","","","","","","NA"
"2012-12-12 18:00","2012","12","12","18:00","-1.3","","-5.8","","71","","","M","","M","","","100.23","","","","","","NA"
"2012-12-12 19:00","2012","12","12","19:00","-1.7","","-5.7","","74","","","M","","M","","","100.24","","","","","","NA"
"2012-12-12 20:00","2012","12","12","20:00","-1.9","","-5.2","","78","","","M","","M","","","100.22","","","","","","NA"
"2012-12-12 21:00","2012","12","12","21:00","-0.9","","-5.5","","71","","","M","","M","","","100.23","","","","","","NA"
"2012-12-12 22:00","2012","12","12","22:00","1.3","","-3.4","","71","","","M","","M","","","100.17","","","","","","NA"
"2012-12-12 23:00","2012","12","12","23:00","2.6","","-1.3","","75","","","M","","M","","","100.16","","","","","","NA"
"2012-12-13 00:00","2012","12","13","00:00","3.5","","0.8","","82","","","M","","M","","","100.10","","","","","","NA"
"2012-12-13 01:00","2012","12","13","01:00","4.1","","0.6","","78","","","M","","M","","","100.06","","","","","","NA"
"2012-12-13 02:00","2012","12","13","02:00","4.0","","-0.5","","72","","","M","","M","","","100.04","","","","","","NA"
"2012-12-13 03:00","2012","12","13","03:00","3.8","","0.1","","77","","","M","","M","","","100.04","","","","","","NA"
"2012-12-13 04:00","2012","12","13","04:00","4.0","","-0.1","","75","","","M","","M","","","99.96","","","","","","NA"
"2012-12-13 05:00","2012","12","13","05:00","4.3","","-1.2","","67","","","M","","M","","","99.87","","","","","","NA"
"2012-12-13 06:00","2012","12","13","06:00","3.9","","-0.3","","74","","","M","","M","","","99.89","","","","","","NA"
"2012-12-13 07:00","2012","12","13","07:00","4.4","","-0.6","","70","","","M","","M","","","99.81","","","","","","NA"
"2012-12-13 08:00","2012","12","13","08:00","3.8","","-0.1","","76","","","M","","M","","","99.83","","","","","","NA"
"2012-12-13 09:00","2012","12","13","09:00","3.9","","0.0","","76","","","M","","M","","","99.83","","","","","","NA"
"2012-12-13 10:00","2012","12","13","10:00","4.2","","0.5","","77","","","M","","M","","","99.81","","","","","","NA"
"2012-12-13 11:00","2012","12","13","11:00","4.6","","0.7","","76","","","M","","M","","","99.76","","","","","","NA"
"2012-12-13 12:00","2012","12","13","12:00","4.6","","0.7","","76","","","M","","M","","","99.70","","","","","","NA"
"2012-12-13 13:00","2012","12","13","13:00","4.5","","0.3","","74","","","M","","M","","","99.63","","","","","","NA"
"2012-12-13 14:00","2012","12","13","14:00","4.4","","0.5","","76","","","M","","M","","","99.59","","","","","","NA"
"2012-12-13 15:00","2012","12","13","15:00","4.3","","0.6","","77","","","M","","M","","","99.47","","","","","","NA"
"2012-12-13 16:00","2012","12","13","16:00","4.4","","0.5","","76","","","M","","M","","","99.48","","","","","","NA"
"2012-12-13 17:00","2012","12","13","17:00","4.6","","0.2","","73","","","M","","M","","","99.43","","","","","","NA"
"2012-12-13 18:00","2012","12","13","18:00","4.9","","-0.5","","68","","","M","","M","","","99.41","","","","","","NA"
"2012-12-13 19:00","2012","12","13","19:00","5.0","","-0.5","","68","","","M","","M","","","99.37","","","","","","NA"
"2012-12-13 20:00","2012","12","13","20:00","5.5","","-1.9","","59","","","M","","M","","","99.39","","","","","","NA"
"2012-12-13 21:00","2012","12","13","21:00","5.0","","-0.3","","69","","","M","","M","","","99.36","","","","","","NA"
"2012-12-13 22:00","2012","12","13","22:00","4.9","","0.0","","71","","","M","","M","","","99.34","","","","","","NA"
"2012-12-13 23:00","2012","12","13","23:00","4.6","","-0.9","","67","","","M","","M","","","99.33","","","","","","NA"
"2012-12-14 00:00","2012","12","14","00:00","4.5","","-1.6","","65","","","M","","M","","","99.31","","","","","","NA"
"2012-12-14 01:00","2012","12","14","01:00","4.4","","-1.5","","65","","","M","","M","","","99.30","","","","","","NA"
"2012-12-14 02:00","2012","12","14","02:00","4.0","","-1.1","","69","","","M","","M","","","99.32","","","","","","NA"
"2012-12-14 03:00","2012","12","14","03:00","3.6","","-1.4","","70","","","M","","M","","","99.38","","","","","","NA"
"2012-12-14 04:00","2012","12","14","04:00","3.0","","-1.0","","75","","","M","","M","","","99.42","","","","","","NA"
"2012-12-14 05:00","2012","12","14","05:00","2.7","","-0.9","","77","","","M","","M","","","99.44","","","","","","NA"
"2012-12-14 06:00","2012","12","14","06:00","2.5","","-0.9","","78","","","M","","M","","","99.50","","","","","","NA"
"2012-12-14 07:00","2012","12","14","07:00","2.3","","-0.8","","80","","","M","","M","","","99.57","","","","","","NA"
"2012-12-14 08:00","2012","12","14","08:00","1.9","","-0.8","","82","","","M","","M","","","99.63","","","","","","NA"
"2012-12-14 09:00","2012","12","14","09:00","1.8","","-1.1","","81","","","M","","M","","","99.71","","","","","","NA"
"2012-12-14 10:00","2012","12","14","10:00","1.4","","-2.2","","77","","","M","","M","","","99.82","","","","","","NA"
"2012-12-14 11:00","2012","12","14","11:00","0.9","","-4.1","","69","","","M","","M","","","99.89","","","","","","NA"
"2012-12-14 12:00","2012","12","14","12:00","-0.3","","-5.4","","68","","","M","","M","","","99.93","","","","","","NA"
"2012-12-14 13:00","2012","12","14","13:00","-0.7","","-6.5","","65","","","M","","M","","","99.97","","","","","","NA"
"2012-12-14 14:00","2012","12","14","14:00","-1.1","","-6.9","","65","","","M","","M","","","100.00","","","","","","NA"
"2012-12-14 15:00","2012","12","14","15:00","-1.1","","-6.7","","66","","","M","","M","","","100.02","","","","","","NA"
"2012-12-14 16:00","2012","12","14","16:00","-2.3","","-7.8","","66","","","M","","M","","","100.12","","","","","","NA"
"2012-12-14 17:00","2012","12","14","17:00","-3.0","","-8.4","","66","","","M","","M","","","100.14","","","","","","NA"
"2012-12-14 18:00","2012","12","14","18:00","-4.2","","-9.1","","69","","","M","","M","","","100.18","","","","","","NA"
"2012-12-14 19:00","2012","12","14","19:00","-5.4","","-10.2","","69","","","M","","M","","","100.24","","","","","","NA"
"2012-12-14 20:00","2012","12","14","20:00","-6.1","","-10.4","","72","","","M","","M","","","100.26","","","","","","NA"
"2012-12-14 21:00","2012","12","14","21:00","-6.4","","-10.6","","72","","","M","","M","","","100.29","","","","","","NA"
"2012-12-14 22:00","2012","12","14","22:00","-6.9","","-10.5","","75","","","M","","M","","","100.34","","","","","","NA"
"2012-12-14 23:00","2012","12","14","23:00","-7.5","","-10.7","","78","","","M","","M","","","100.35","","","","","","NA"
"2012-12-15 00:00","2012","12","15","00:00","-8.2","","-10.9","","81","","","M","","M","","","100.37","","","","","","NA"
"2012-12-15 01:00","2012","12","15","01:00","-8.9","","-10.8","","86","","","M","","M","","","100.29","","","","","","NA"
"2012-12-15 02:00","2012","12","15","02:00","-8.9","","-11.3","","83","","","M","","M","","","100.31","","","","","","NA"
"2012-12-15 03:00","2012","12","15","03:00","-9.0","","-11.3","","83","","","M","","M","","","100.33","","","","","","NA"
"2012-12-15 04:00","2012","12","15","04:00","-9.1","","-11.0","","86","","","M","","M","","","100.26","","","","","","NA"
"2012-12-15 05:00","2012","12","15","05:00","-9.8","","-11.7","","86","","","M","","M","","","100.24","","","","","","NA"
"2012-12-15 06:00","2012","12","15","06:00","-10.0","","-11.5","","89","","","M","","M","","","100.25","","","","","","NA"
"2012-12-15 07:00","2012","12","15","07:00","-9.8","","-11.0","","91","","","M","","M","","","100.22","","","","","","NA"
"2012-12-15 08:00","2012","12","15","08:00","-9.5","","-10.6","","92","","","M","","M","","","100.16","","","","","","NA"
"2012-12-15 09:00","2012","12","15","09:00","-8.7","","-9.8","","92","","","M","","M","","","100.25","","","","","","NA"
"2012-12-15 10:00","2012","12","15","10:00","-8.2","","-9.3","","92","","","M","","M","","","100.16","","","","","","NA"
"2012-12-15 11:00","2012","12","15","11:00","-7.0","","-8.1","","92","","","M","","M","","","100.03","","","","","","NA"
"2012-12-15 12:00","2012","12","15","12:00","-5.2","","-6.7","","89","","","M","","M","","","99.89","","","","","","NA"
"2012-12-15 13:00","2012","12","15","13:00","-3.9","","-5.4","","89","","","M","","M","","","99.74","","","","","","NA"
"2012-12-15 14:00","2012","12","15","14:00","-2.7","","-5.0","","84","","","M","","M","","","99.64","","","","","","NA"
"2012-12-15 15:00","2012","12","15","15:00","-1.9","","-5.3","","78","","","M","","M","","","99.59","","","","","","NA"
"2012-12-15 16:00","2012","12","15","16:00","-1.6","","-5.1","","77","","","M","","M","","","99.55","","","","","","NA"
"2012-12-15 17:00","2012","12","15","17:00","-1.7","","-5.2","","77","","","M","","M","","","99.52","","","","","","NA"
"2012-12-15 18:00","2012","12","15","18:00","-1.9","","-4.8","","81","","","M","","M","","","99.46","","","","","","NA"
"2012-12-15 19:00","2012","12","15","19:00","-1.7","","-4.1","","84","","","M","","M","","","99.34","","","","","","NA"
"2012-12-15 20:00","2012","12","15","20:00","-1.5","","-3.8","","84","","","M","","M","","","99.22","","","","","","NA"
"2012-12-15 21:00","2012","12","15","21:00","-1.3","","-3.7","","84","","","M","","M","","","99.11","","","","","","NA"
"2012-12-15 22:00","2012","12","15","22:00","-0.7","","-3.0","","84","","","M","","M","","","98.99","","","","","","NA"
"2012-12-15 23:00","2012","12","15","23:00","-0.5","","-2.6","","86","","","M","","M","","","98.96","","","","","","NA"
"2012-12-16 00:00","2012","12","16","00:00","-2.0","","-2.7","","95","","","M","","M","","","98.91","","","","","","NA"
"2012-12-16 01:00","2012","12","16","01:00","-2.6","","-3.3","","95","","","M","","M","","","98.84","","","","","","NA"
"2012-12-16 02:00","2012","12","16","02:00","-3.0","","-3.7","","95","","","M","","M","","","98.65","","","","","","NA"
"2012-12-16 03:00","2012","12","16","03:00","-3.0","","-3.8","","94","","","M","","M","","","98.57","","","","","","NA"
"2012-12-16 04:00","2012","12","16","04:00","-2.6","","-3.4","","94","","","M","","M","","","98.45","","","","","","NA"
"2012-12-16 05:00","2012","12","16","05:00","-2.3","","-3.1","","94","","","M","","M","","","98.38","","","","","","NA"
"2012-12-16 06:00","2012","12","16","06:00","-2.5","","-3.1","","96","","","M","","M","","","98.33","","","","","","NA"
"2012-12-16 07:00","2012","12","16","07:00","-2.2","","-2.9","","95","","","M","","M","","","98.30","","","","","","NA"
"2012-12-16 08:00","2012","12","16","08:00","-2.1","","-2.7","","96","","","M","","M","","","98.23","","","","","","NA"
"2012-12-16 09:00","2012","12","16","09:00","-2.1","","-2.7","","96","","","M","","M","","","98.17","","","","","","NA"
"2012-12-16 10:00","2012","12","16","10:00","-0.9","","-1.5","","96","","","M","","M","","","98.15","","","","","","NA"
"2012-12-16 11:00","2012","12","16","11:00","-0.9","","-1.4","","96","","","M","","M","","","98.11","","","","","","NA"
"2012-12-16 12:00","2012","12","16","12:00","0.0","","-0.5","","96","","","M","","M","","","98.04","","","","","","NA"
"2012-12-16 13:00","2012","12","16","13:00","0.2","","-0.3","","96","","","M","","M","","","97.97","","","","","","NA"
"2012-12-16 14:00","2012","12","16","14:00","0.2","","-0.3","","96","","","M","","M","","","97.92","","","","","","NA"
"2012-12-16 15:00","2012","12","16","15:00","0.6","","0.1","","96","","","M","","M","","","97.88","","","","","","NA"
"2012-12-16 16:00","2012","12","16","16:00","0.7","","0.2","","96","","","M","","M","","","97.86","","","","","","NA"
"2012-12-16 17:00","2012","12","16","17:00","0.8","","0.3","","96","","","M","","M","","","97.86","","","","","","NA"
"2012-12-16 18:00","2012","12","16","18:00","1.1","","0.6","","96","","","M","","M","","","97.86","","","","","","NA"
"2012-12-16 19:00","2012","12","16","19:00","1.2","","0.7","","96","","","M","","M","","","97.85","","","","","","NA"
"2012-12-16 20:00","2012","12","16","20:00","1.5","","1.0","","96","","","M","","M","","","97.83","","","","","","NA"
"2012-12-16 21:00","2012","12","16","21:00","1.7","","1.2","","96","","","M","","M","","","97.81","","","","","","NA"
"2012-12-16 22:00","2012","12","16","22:00","1.7","","1.2","","96","","","M","","M","","","97.80","","","","","","NA"
"2012-12-16 23:00","2012","12","16","23:00","1.9","","1.4","","96","","","M","","M","","","97.80","","","","","","NA"
"2012-12-17 00:00","2012","12","17","00:00","2.2","","1.7","","96","","","M","","M","","","97.81","","","","","","NA"
"2012-12-17 01:00","2012","12","17","01:00","2.3","","1.8","","96","","","M","","M","","","97.81","","","","","","NA"
"2012-12-17 02:00","2012","12","17","02:00","2.4","","1.9","","96","","","M","","M","","","97.85","","","","","","NA"
"2012-12-17 03:00","2012","12","17","03:00","2.1","","1.6","","96","","","M","","M","","","97.85","","","","","","NA"
"2012-12-17 04:00","2012","12","17","04:00","2.1","","1.7","","97","","","M","","M","","","97.82","","","","","","NA"
"2012-12-17 05:00","2012","12","17","05:00","1.5","","1.1","","97","","","M","","M","","","97.82","","","","","","NA"
"2012-12-17 06:00","2012","12","17","06:00","1.9","","1.5","","97","","","M","","M","","","97.86","","","","","","NA"
"2012-12-17 07:00","2012","12","17","07:00","2.1","","1.7","","97","","","M","","M","","","97.89","","","","","","NA"
"2012-12-17 08:00","2012","12","17","08:00","2.6","","2.2","","97","","","M","","M","","","97.93","","","","","","NA"
"2012-12-17 09:00","2012","12","17","09:00","2.6","","2.2","","97","","","M","","M","","","97.98","","","","","","NA"
"2012-12-17 10:00","2012","12","17","10:00","3.1","","2.6","","97","","","M","","M","","","98.06","","","","","","NA"
"2012-12-17 11:00","2012","12","17","11:00","3.3","","2.2","","92","","","M","","M","","","98.10","","","","","","NA"
"2012-12-17 12:00","2012","12","17","12:00","3.3","","1.9","","91","","","M","","M","","","98.06","","","","","","NA"
"2012-12-17 13:00","2012","12","17","13:00","3.5","","1.8","","89","","","M","","M","","","98.04","","","","","","NA"
"2012-12-17 14:00","2012","12","17","14:00","3.4","","1.7","","89","","","M","","M","","","98.01","","","","","","NA"
"2012-12-17 15:00","2012","12","17","15:00","3.4","","1.0","","84","","","M","","M","","","98.02","","","","","","NA"
"2012-12-17 16:00","2012","12","17","16:00","3.0","","1.2","","88","","","M","","M","","","98.07","","","","","","NA"
"2012-12-17 17:00","2012","12","17","17:00","2.5","","1.2","","91","","","M","","M","","","98.10","","","","","","NA"
"2012-12-17 18:00","2012","12","17","18:00","2.5","","1.0","","90","","","M","","M","","","98.17","","","","","","NA"
"2012-12-17 19:00","2012","12","17","19:00","2.3","","1.3","","93","","","M","","M","","","98.20","","","","","","NA"
"2012-12-17 20:00","2012","12","17","20:00","1.8","","0.9","","94","","","M","","M","","","98.17","","","","","","NA"
"2012-12-17 21:00","2012","12","17","21:00","2.2","","1.0","","92","","","M","","M","","","98.13","","","","","","NA"
"2012-12-17 22:00","2012","12","17","22:00","1.4","","0.4","","93","","","M","","M","","","98.09","","","","","","NA"
"2012-12-17 23:00","2012","12","17","23:00","0.9","","-0.4","","91","","","M","","M","","","98.09","","","","","","NA"
"2012-12-18 00:00","2012","12","18","00:00","0.7","","-0.5","","92","","","M","","M","","","98.08","","","","","","NA"
"2012-12-18 01:00","2012","12","18","01:00","0.6","","-0.4","","93","","","M","","M","","","98.07","","","","","","NA"
"2012-12-18 02:00","2012","12","18","02:00","0.9","","-0.3","","92","","","M","","M","","","98.08","","","","","","NA"
"2012-12-18 03:00","2012","12","18","03:00","0.8","","-0.4","","92","","","M","","M","","","98.09","","","","","","NA"
"2012-12-18 04:00","2012","12","18","04:00","0.7","","-0.6","","91","","","M","","M","","","98.07","","","","","","NA"
"2012-12-18 05:00","2012","12","18","05:00","0.4","","-0.7","","92","","","M","","M","","","98.06","","","","","","NA"
"2012-12-18 06:00","2012","12","18","06:00","0.3","","-0.6","","94","","","M","","M","","","98.06","","","","","","NA"
"2012-12-18 07:00","2012","12","18","07:00","-0.2","","-1.0","","94","","","M","","M","","","98.08","","","","","","NA"
"2012-12-18 08:00","2012","12","18","08:00","0.2","","-0.6","","94","","","M","","M","","","98.10","","","","","","NA"
"2012-12-18 09:00","2012","12","18","09:00","0.4","","-0.8","","92","","","M","","M","","","98.12","","","","","","NA"
"2012-12-18 10:00","2012","12","18","10:00","1.1","","-0.7","","88","","","M","","M","","","98.16","","","","","","NA"
"2012-12-18 11:00","2012","12","18","11:00","1.6","","-0.6","","85","","","M","","M","","","98.18","","","","","","NA"
"2012-12-18 12:00","2012","12","18","12:00","1.9","","-0.7","","83","","","M","","M","","","98.15","","","","","","NA"
"2012-12-18 13:00","2012","12","18","13:00","2.0","","-0.4","","84","","","M","","M","","","98.14","","","","","","NA"
"2012-12-18 14:00","2012","12","18","14:00","1.8","","-0.4","","85","","","M","","M","","","98.15","","","","","","NA"
"2012-12-18 15:00","2012","12","18","15:00","1.5","","-0.7","","85","","","M","","M","","","98.17","","","","","","NA"
"2012-12-18 16:00","2012","12","18","16:00","1.2","","-1.0","","85","","","M","","M","","","98.19","","","","","","NA"
"2012-12-18 17:00","2012","12","18","17:00","0.8","","-1.4","","85","","","M","","M","","","98.20","","","","","","NA"
"2012-12-18 18:00","2012","12","18","18:00","0.4","","-1.6","","86","","","M","","M","","","98.25","","","","","","NA"
"2012-12-18 19:00","2012","12","18","19:00","-0.1","","-2.0","","87","","","M","","M","","","98.30","","","","","","NA"
"2012-12-18 20:00","2012","12","18","20:00","-0.3","","-2.3","","86","","","M","","M","","","98.36","","","","","","NA"
"2012-12-18 21:00","2012","12","18","21:00","-0.5","","-2.7","","85","","","M","","M","","","98.38","","","","","","NA"
"2012-12-18 22:00","2012","12","18","22:00","-0.7","","-2.7","","86","","","M","","M","","","98.40","","","","","","NA"
"2012-12-18 23:00","2012","12","18","23:00","-1.1","","-2.9","","88","","","M","","M","","","98.43","","","","","","NA"
"2012-12-19 00:00","2012","12","19","00:00","-1.3","","-3.4","","86","","","M","","M","","","98.45","","","","","","NA"
"2012-12-19 01:00","2012","12","19","01:00","-1.3","","-3.3","","86","","","M","","M","","","98.47","","","","","","NA"
"2012-12-19 02:00","2012","12","19","02:00","-1.6","","-4.1","","83","","","M","","M","","","98.54","","","","","","NA"
"2012-12-19 03:00","2012","12","19","03:00","-1.4","","-4.3","","81","","","M","","M","","","98.63","","","","","","NA"
"2012-12-19 04:00","2012","12","19","04:00","-1.4","","-4.7","","78","","","M","","M","","","98.64","","","","","","NA"
"2012-12-19 05:00","2012","12","19","05:00","-1.6","","-4.5","","81","","","M","","M","","","98.70","","","","","","NA"
"2012-12-19 06:00","2012","12","19","06:00","-1.3","","-5.0","","76","","","M","","M","","","98.78","","","","","","NA"
"2012-12-19 07:00","2012","12","19","07:00","-1.4","","-4.6","","79","","","M","","M","","","98.90","","","","","","NA"
"2012-12-19 08:00","2012","12","19","08:00","-1.6","","-4.5","","81","","","M","","M","","","98.95","","","","","","NA"
"2012-12-19 09:00","2012","12","19","09:00","-1.4","","-4.4","","80","","","M","","M","","","99.02","","","","","","NA"
"2012-12-19 10:00","2012","12","19","10:00","-1.0","","-4.0","","80","","","M","","M","","","99.09","","","","","","NA"
"2012-12-19 11:00","2012","12","19","11:00","-0.7","","-4.8","","74","","","M","","M","","","99.15","","","","","","NA"
"2012-12-19 12:00","2012","12","19","12:00","-0.1","","-4.7","","71","","","M","","M","","","99.20","","","","","","NA"
"2012-12-19 13:00","2012","12","19","13:00","0.4","","-3.5","","75","","","M","","M","","","99.23","","","","","","NA"
"2012-12-19 14:00","2012","12","19","14:00","0.7","","-3.2","","75","","","M","","M","","","99.29","","","","","","NA"
"2012-12-19 15:00","2012","12","19","15:00","1.2","","-3.1","","73","","","M","","M","","","99.35","","","","","","NA"
"2012-12-19 16:00","2012","12","19","16:00","1.0","","-2.5","","77","","","M","","M","","","99.43","","","","","","NA"
"2012-12-19 17:00","2012","12","19","17:00","1.0","","-3.3","","73","","","M","","M","","","99.48","","","","","","NA"
"2012-12-19 18:00","2012","12","19","18:00","0.7","","-2.2","","81","","","M","","M","","","99.55","","","","","","NA"
"2012-12-19 19:00","2012","12","19","19:00","0.6","","-2.7","","79","","","M","","M","","","99.58","","","","","","NA"
"2012-12-19 20:00","2012","12","19","20:00","-0.8","","-3.5","","82","","","M","","M","","","99.68","","","","","","NA"
"2012-12-19 21:00","2012","12","19","21:00","-1.0","","-3.3","","84","","","M","","M","","","99.72","","","","","","NA"
"2012-12-19 22:00","2012","12","19","22:00","-2.0","","-3.8","","87","","","M","","M","","","99.72","","","","","","NA"
"2012-12-19 23:00","2012","12","19","23:00","-2.8","","-4.4","","89","","","M","","M","","","99.70","","","","","","NA"
"2012-12-20 00:00","2012","12","20","00:00","-2.9","","-5.8","","80","","","M","","M","","","99.75","","","","","","NA"
"2012-12-20 01:00","2012","12","20","01:00","-3.1","","-5.7","","82","","","M","","M","","","99.75","","","","","","NA"
"2012-12-20 02:00","2012","12","20","02:00","-3.3","","-5.8","","83","","","M","","M","","","99.74","","","","","","NA"
"2012-12-20 03:00","2012","12","20","03:00","-3.4","","-5.9","","83","","","M","","M","","","99.76","","","","","","NA"
"2012-12-20 04:00","2012","12","20","04:00","-3.7","","-6.2","","83","","","M","","M","","","99.62","","","","","","NA"
"2012-12-20 05:00","2012","12","20","05:00","-3.8","","-6.1","","84","","","M","","M","","","99.65","","","","","","NA"
"2012-12-20 06:00","2012","12","20","06:00","-3.7","","-6.0","","84","","","M","","M","","","99.58","","","","","","NA"
"2012-12-20 07:00","2012","12","20","07:00","-3.3","","-5.7","","83","","","M","","M","","","99.56","","","","","","NA"
"2012-12-20 08:00","2012","12","20","08:00","-3.1","","-5.5","","83","","","M","","M","","","99.48","","","","","","NA"
"2012-12-20 09:00","2012","12","20","09:00","-2.9","","-4.7","","87","","","M","","M","","","99.37","","","","","","NA"
"2012-12-20 10:00","2012","12","20","10:00","-3.0","","-4.4","","90","","","M","","M","","","99.27","","","","","","NA"
"2012-12-20 11:00","2012","12","20","11:00","-2.2","","-3.8","","89","","","M","","M","","","99.04","","","","","","NA"
"2012-12-20 12:00","2012","12","20","12:00","-1.6","","-2.3","","95","","","M","","M","","","98.90","","","","","","NA"
"2012-12-20 13:00","2012","12","20","13:00","-1.5","","-2.2","","95","","","M","","M","","","98.62","","","","","","NA"
"2012-12-20 14:00","2012","12","20","14:00","-0.9","","-1.6","","95","","","M","","M","","","98.54","","","","","","NA"
"2012-12-20 15:00","2012","12","20","15:00","-1.2","","-2.1","","94","","","M","","M","","","98.36","","","","","","NA"
"2012-12-20 16:00","2012","12","20","16:00","-1.0","","-2.3","","91","","","M","","M","","","98.21","","","","","","NA"
"2012-12-20 17:00","2012","12","20","17:00","-1.2","","-3.0","","88","","","M","","M","","","97.97","","","","","","NA"
"2012-12-20 18:00","2012","12","20","18:00","-2.1","","-3.7","","89","","","M","","M","","","97.67","","","","","","NA"
"2012-12-20 19:00","2012","12","20","19:00","-2.5","","-3.7","","91","","","M","","M","","","97.60","","","","","","NA"
"2012-12-20 20:00","2012","12","20","20:00","-2.9","","-3.8","","93","","","M","","M","","","97.67","","","","","","NA"
"2012-12-20 21:00","2012","12","20","21:00","-3.7","","-4.6","","93","","","M","","M","","","97.48","","","","","","NA"
"2012-12-20 22:00","2012","12","20","22:00","-3.9","","-4.8","","93","","","M","","M","","","97.34","","","","","","NA"
"2012-12-20 23:00","2012","12","20","23:00","-3.8","","-4.9","","92","","","M","","M","","","97.23","","","","","","NA"
"2012-12-21 00:00","2012","12","21","00:00","-3.4","","-4.4","","93","","","M","","M","","","97.10","","","","","","NA"
"2012-12-21 01:00","2012","12","21","01:00","-3.1","","-4.0","","93","","","M","","M","","","96.98","","","","","","NA"
"2012-12-21 02:00","2012","12","21","02:00","-2.9","","-4.1","","91","","","M","","M","","","96.91","","","","","","NA"
"2012-12-21 03:00","2012","12","21","03:00","-2.5","","-3.6","","92","","","M","","M","","","96.90","","","","","","NA"
"2012-12-21 04:00","2012","12","21","04:00","-1.7","","-3.2","","89","","","M","","M","","","96.88","","","","","","NA"
"2012-12-21 05:00","2012","12","21","05:00","-1.0","","-2.5","","90","","","M","","M","","","96.86","","","","","","NA"
"2012-12-21 06:00","2012","12","21","06:00","-0.8","","-1.9","","92","","","M","","M","","","96.85","","","","","","NA"
"2012-12-21 07:00","2012","12","21","07:00","-1.9","","-3.1","","91","","","M","","M","","","96.89","","","","","","NA"
"2012-12-21 08:00","2012","12","21","08:00","-2.4","","-4.2","","87","","","M","","M","","","96.96","","","","","","NA"
"2012-12-21 09:00","2012","12","21","09:00","-2.3","","-3.9","","89","","","M","","M","","","97.03","","","","","","NA"
"2012-12-21 10:00","2012","12","21","10:00","-2.1","","-3.9","","87","","","M","","M","","","97.08","","","","","","NA"
"2012-12-21 11:00","2012","12","21","11:00","-2.1","","-4.3","","85","","","M","","M","","","97.12","","","","","","NA"
"2012-12-21 12:00","2012","12","21","12:00","-2.2","","-5.1","","80","","","M","","M","","","97.16","","","","","","NA"
"2012-12-21 13:00","2012","12","21","13:00","-2.4","","-5.5","","79","","","M","","M","","","97.18","","","","","","NA"
"2012-12-21 14:00","2012","12","21","14:00","-3.0","","-6.4","","77","","","M","","M","","","97.22","","","","","","NA"
"2012-12-21 15:00","2012","12","21","15:00","-3.8","","-7.2","","77","","","M","","M","","","97.30","","","","","","NA"
"2012-12-21 16:00","2012","12","21","16:00","-3.9","","-7.5","","76","","","M","","M","","","97.40","","","","","","NA"
"2012-12-21 17:00","2012","12","21","17:00","-4.0","","-7.6","","76","","","M","","M","","","97.48","","","","","","NA"
"2012-12-21 18:00","2012","12","21","18:00","-3.9","","-7.5","","76","","","M","","M","","","97.49","","","","","","NA"
"2012-12-21 19:00","2012","12","21","19:00","-3.4","","-7.6","","73","","","M","","M","","","97.61","","","","","","NA"
"2012-12-21 20:00","2012","12","21","20:00","-3.3","","-7.5","","73","","","M","","M","","","97.69","","","","","","NA"
"2012-12-21 21:00","2012","12","21","21:00","-3.5","","-8.0","","71","","","M","","M","","","97.82","","","","","","NA"
"2012-12-21 22:00","2012","12","21","22:00","-3.7","","-8.4","","70","","","M","","M","","","97.89","","","","","","NA"
"2012-12-21 23:00","2012","12","21","23:00","-4.2","","-9.0","","69","","","M","","M","","","98.00","","","","","","NA"
"2012-12-22 00:00","2012","12","22","00:00","-5.0","","-10.0","","68","","","M","","M","","","98.05","","","","","","NA"
"2012-12-22 01:00","2012","12","22","01:00","-5.5","","-10.2","","69","","","M","","M","","","98.10","","","","","","NA"
"2012-12-22 02:00","2012","12","22","02:00","-5.8","","-10.6","","69","","","M","","M","","","98.16","","","","","","NA"
"2012-12-22 03:00","2012","12","22","03:00","-6.2","","-11.1","","68","","","M","","M","","","98.24","","","","","","NA"
"2012-12-22 04:00","2012","12","22","04:00","-6.7","","-11.7","","68","","","M","","M","","","98.28","","","","","","NA"
"2012-12-22 05:00","2012","12","22","05:00","-7.3","","-11.9","","70","","","M","","M","","","98.38","","","","","","NA"
"2012-12-22 06:00","2012","12","22","06:00","-7.9","","-12.3","","71","","","M","","M","","","98.47","","","","","","NA"
"2012-12-22 07:00","2012","12","22","07:00","-8.3","","-12.4","","72","","","M","","M","","","98.55","","","","","","NA"
"2012-12-22 08:00","2012","12","22","08:00","-8.5","","-12.2","","75","","","M","","M","","","98.61","","","","","","NA"
"2012-12-22 09:00","2012","12","22","09:00","-8.1","","-12.3","","72","","","M","","M","","","98.68","","","","","","NA"
"2012-12-22 10:00","2012","12","22","10:00","-8.3","","-13.3","","67","","","M","","M","","","98.70","","","","","","NA"
"2012-12-22 11:00","2012","12","22","11:00","-7.9","","-13.2","","66","","","M","","M","","","98.76","","","","","","NA"
"2012-12-22 12:00","2012","12","22","12:00","-7.0","","-12.6","","64","","","M","","M","","","98.73","","","","","","NA"
"2012-12-22 13:00","2012","12","22","13:00","-6.5","","-12.4","","63","","","M","","M","","","98.69","","","","","","NA"
"2012-12-22 14:00","2012","12","22","14:00","-5.9","","-12.5","","60","","","M","","M","","","98.68","","","","","","NA"
"2012-12-22 15:00","2012","12","22","15:00","-5.2","","-11.9","","59","","","M","","M","","","98.74","","","","","","NA"
"2012-12-22 16:00","2012","12","22","16:00","-5.2","","-11.9","","59","","","M","","M","","","98.77","","","","","","NA"
"2012-12-22 17:00","2012","12","22","17:00","-5.1","","-11.5","","61","","","M","","M","","","98.81","","","","","","NA"
"2012-12-22 18:00","2012","12","22","18:00","-4.9","","-10.7","","64","","","M","","M","","","98.86","","","","","","NA"
"2012-12-22 19:00","2012","12","22","19:00","-4.1","","-10.4","","61","","","M","","M","","","98.87","","","","","","NA"
"2012-12-22 20:00","2012","12","22","20:00","-3.7","","-9.3","","65","","","M","","M","","","98.86","","","","","","NA"
"2012-12-22 21:00","2012","12","22","21:00","-3.6","","-9.2","","65","","","M","","M","","","98.84","","","","","","NA"
"2012-12-22 22:00","2012","12","22","22:00","-3.3","","-9.0","","65","","","M","","M","","","98.82","","","","","","NA"
"2012-12-22 23:00","2012","12","22","23:00","-3.4","","-8.1","","70","","","M","","M","","","98.77","","","","","","NA"
"2012-12-23 00:00","2012","12","23","00:00","-3.6","","-8.2","","70","","","M","","M","","","98.70","","","","","","NA"
"2012-12-23 01:00","2012","12","23","01:00","-3.7","","-7.5","","75","","","M","","M","","","98.64","","","","","","NA"
"2012-12-23 02:00","2012","12","23","02:00","-3.4","","-6.6","","78","","","M","","M","","","98.61","","","","","","NA"
"2012-12-23 03:00","2012","12","23","03:00","-2.8","","-5.4","","82","","","M","","M","","","98.59","","","","","","NA"
"2012-12-23 04:00","2012","12","23","04:00","-2.6","","-4.9","","84","","","M","","M","","","98.50","","","","","","NA"
"2012-12-23 05:00","2012","12","23","05:00","-3.3","","-5.6","","84","","","M","","M","","","98.41","","","","","","NA"
"2012-12-23 06:00","2012","12","23","06:00","-4.3","","-6.6","","84","","","M","","M","","","98.43","","","","","","NA"
"2012-12-23 07:00","2012","12","23","07:00","-4.3","","-6.5","","85","","","M","","M","","","98.45","","","","","","NA"
"2012-12-23 08:00","2012","12","23","08:00","-4.1","","-5.8","","88","","","M","","M","","","98.49","","","","","","NA"
"2012-12-23 09:00","2012","12","23","09:00","-4.3","","-6.3","","86","","","M","","M","","","98.53","","","","","","NA"
"2012-12-23 10:00","2012","12","23","10:00","-5.3","","-8.8","","76","","","M","","M","","","98.64","","","","","","NA"
"2012-12-23 11:00","2012","12","23","11:00","-6.4","","-10.6","","72","","","M","","M","","","98.70","","","","","","NA"
"2012-12-23 12:00","2012","12","23","12:00","-5.9","","-12.0","","62","","","M","","M","","","98.67","","","","","","NA"
"2012-12-23 13:00","2012","12","23","13:00","-6.0","","-12.6","","60","","","M","","M","","","98.64","","","","","","NA"
"2012-12-23 14:00","2012","12","23","14:00","-6.6","","-13.3","","59","","","M","","M","","","98.66","","","","","","NA"
"2012-12-23 15:00","2012","12","23","15:00","-6.8","","-14.2","","56","","","M","","M","","","98.73","","","","","","NA"
"2012-12-23 16:00","2012","12","23","16:00","-6.0","","-13.3","","56","","","M","","M","","","98.79","","","","","","NA"
"2012-12-23 17:00","2012","12","23","17:00","-6.5","","-13.1","","59","","","M","","M","","","98.79","","","","","","NA"
"2012-12-23 18:00","2012","12","23","18:00","-6.3","","-12.2","","63","","","M","","M","","","98.84","","","","","","NA"
"2012-12-23 19:00","2012","12","23","19:00","-5.1","","-10.7","","65","","","M","","M","","","98.84","","","","","","NA"
"2012-12-23 20:00","2012","12","23","20:00","-4.9","","-10.3","","66","","","M","","M","","","98.91","","","","","","NA"
"2012-12-23 21:00","2012","12","23","21:00","-4.0","","-9.2","","67","","","M","","M","","","98.91","","","","","","NA"
"2012-12-23 22:00","2012","12","23","22:00","-3.6","","-8.3","","70","","","M","","M","","","98.92","","","","","","NA"
"2012-12-23 23:00","2012","12","23","23:00","-3.6","","-8.2","","70","","","M","","M","","","98.94","","","","","","NA"
"2012-12-24 00:00","2012","12","24","00:00","-3.4","","-8.0","","70","","","M","","M","","","98.95","","","","","","NA"
"2012-12-24 01:00","2012","12","24","01:00","-2.9","","-8.3","","66","","","M","","M","","","98.94","","","","","","NA"
"2012-12-24 02:00","2012","12","24","02:00","-2.6","","-8.1","","66","","","M","","M","","","99.00","","","","","","NA"
"2012-12-24 03:00","2012","12","24","03:00","-2.6","","-7.5","","69","","","M","","M","","","99.04","","","","","","NA"
"2012-12-24 04:00","2012","12","24","04:00","-2.5","","-7.1","","71","","","M","","M","","","99.03","","","","","","NA"
"2012-12-24 05:00","2012","12","24","05:00","-2.6","","-7.7","","68","","","M","","M","","","99.07","","","","","","NA"
"2012-12-24 06:00","2012","12","24","06:00","-2.4","","-7.3","","69","","","M","","M","","","99.06","","","","","","NA"
"2012-12-24 07:00","2012","12","24","07:00","-3.1","","-7.9","","69","","","M","","M","","","99.05","","","","","","NA"
"2012-12-24 08:00","2012","12","24","08:00","-3.2","","-7.9","","70","","","M","","M","","","99.08","","","","","","NA"
"2012-12-24 09:00","2012","12","24","09:00","-3.2","","-8.1","","69","","","M","","M","","","99.10","","","","","","NA"
"2012-12-24 10:00","2012","12","24","10:00","-2.8","","-8.1","","67","","","M","","M","","","99.19","","","","","","NA"
"2012-12-24 11:00","2012","12","24","11:00","-2.7","","-7.8","","68","","","M","","M","","","99.19","","","","","","NA"
"2012-12-24 12:00","2012","12","24","12:00","-2.6","","-7.4","","70","","","M","","M","","","99.18","","","","","","NA"
"2012-12-24 13:00","2012","12","24","13:00","-2.6","","-7.4","","70","","","M","","M","","","99.11","","","","","","NA"
"2012-12-24 14:00","2012","12","24","14:00","-2.6","","-7.5","","69","","","M","","M","","","99.09","","","","","","NA"
"2012-12-24 15:00","2012","12","24","15:00","-2.3","","-7.3","","69","","","M","","M","","","99.09","","","","","","NA"
"2012-12-24 16:00","2012","12","24","16:00","-2.3","","-7.4","","68","","","M","","M","","","99.10","","","","","","NA"
"2012-12-24 17:00","2012","12","24","17:00","-3.2","","-5.6","","83","","","M","","M","","","99.09","","","","","","NA"
"2012-12-24 18:00","2012","12","24","18:00","-3.4","","-5.2","","87","","","M","","M","","","99.10","","","","","","NA"
"2012-12-24 19:00","2012","12","24","19:00","-3.3","","-4.9","","89","","","M","","M","","","99.16","","","","","","NA"
"2012-12-24 20:00","2012","12","24","20:00","-3.8","","-5.0","","91","","","M","","M","","","99.18","","","","","","NA"
"2012-12-24 21:00","2012","12","24","21:00","-3.9","","-5.1","","91","","","M","","M","","","99.21","","","","","","NA"
"2012-12-24 22:00","2012","12","24","22:00","-3.8","","-5.4","","89","","","M","","M","","","99.25","","","","","","NA"
"2012-12-24 23:00","2012","12","24","23:00","-4.1","","-5.4","","91","","","M","","M","","","99.28","","","","","","NA"
"2012-12-25 00:00","2012","12","25","00:00","-4.5","","-5.8","","91","","","M","","M","","","99.33","","","","","","NA"
"2012-12-25 01:00","2012","12","25","01:00","-4.4","","-5.8","","90","","","M","","M","","","99.38","","","","","","NA"
"2012-12-25 02:00","2012","12","25","02:00","-4.9","","-6.1","","91","","","M","","M","","","99.42","","","","","","NA"
"2012-12-25 03:00","2012","12","25","03:00","-5.4","","-6.6","","91","","","M","","M","","","99.50","","","","","","NA"
"2012-12-25 04:00","2012","12","25","04:00","-5.3","","-6.4","","92","","","M","","M","","","99.57","","","","","","NA"
"2012-12-25 05:00","2012","12","25","05:00","-5.2","","-6.4","","91","","","M","","M","","","99.62","","","","","","NA"
"2012-12-25 06:00","2012","12","25","06:00","-4.7","","-6.0","","91","","","M","","M","","","99.72","","","","","","NA"
"2012-12-25 07:00","2012","12","25","07:00","-4.8","","-6.1","","91","","","M","","M","","","99.83","","","","","","NA"
"2012-12-25 08:00","2012","12","25","08:00","-5.0","","-6.5","","89","","","M","","M","","","99.93","","","","","","NA"
"2012-12-25 09:00","2012","12","25","09:00","-5.2","","-6.8","","88","","","M","","M","","","100.01","","","","","","NA"
"2012-12-25 10:00","2012","12","25","10:00","-5.1","","-7.2","","85","","","M","","M","","","100.09","","","","","","NA"
"2012-12-25 11:00","2012","12","25","11:00","-5.0","","-8.0","","79","","","M","","M","","","100.15","","","","","","NA"
"2012-12-25 12:00","2012","12","25","12:00","-4.4","","-8.0","","76","","","M","","M","","","100.14","","","","","","NA"
"2012-12-25 13:00","2012","12","25","13:00","-4.2","","-8.3","","73","","","M","","M","","","100.14","","","","","","NA"
"2012-12-25 14:00","2012","12","25","14:00","-3.7","","-8.8","","68","","","M","","M","","","100.13","","","","","","NA"
"2012-12-25 15:00","2012","12","25","15:00","-2.3","","-9.0","","60","","","M","","M","","","100.15","","","","","","NA"
"2012-12-25 16:00","2012","12","25","16:00","-4.0","","-10.2","","62","","","M","","M","","","100.26","","","","","","NA"
"2012-12-25 17:00","2012","12","25","17:00","-4.3","","-9.3","","68","","","M","","M","","","100.40","","","","","","NA"
"2012-12-25 18:00","2012","12","25","18:00","-4.7","","-9.2","","71","","","M","","M","","","100.40","","","","","","NA"
"2012-12-25 19:00","2012","12","25","19:00","-5.5","","-8.7","","78","","","M","","M","","","100.43","","","","","","NA"
"2012-12-25 20:00","2012","12","25","20:00","-5.5","","-9.0","","76","","","M","","M","","","100.47","","","","","","NA"
"2012-12-25 21:00","2012","12","25","21:00","-6.8","","-9.2","","83","","","M","","M","","","100.52","","","","","","NA"
"2012-12-25 22:00","2012","12","25","22:00","-7.0","","-9.2","","84","","","M","","M","","","100.61","","","","","","NA"
"2012-12-25 23:00","2012","12","25","23:00","-7.4","","-9.6","","84","","","M","","M","","","100.59","","","","","","NA"
"2012-12-26 00:00","2012","12","26","00:00","-8.1","","-9.9","","87","","","M","","M","","","100.58","","","","","","NA"
"2012-12-26 01:00","2012","12","26","01:00","-8.5","","-10.8","","83","","","M","","M","","","100.51","","","","","","NA"
"2012-12-26 02:00","2012","12","26","02:00","-9.2","","-12.4","","78","","","M","","M","","","100.56","","","","","","NA"
"2012-12-26 03:00","2012","12","26","03:00","-10.1","","-13.2","","78","","","M","","M","","","100.61","","","","","","NA"
"2012-12-26 04:00","2012","12","26","04:00","-10.8","","-13.4","","81","","","M","","M","","","100.57","","","","","","NA"
"2012-12-26 05:00","2012","12","26","05:00","-11.2","","-13.3","","84","","","M","","M","","","100.50","","","","","","NA"
"2012-12-26 06:00","2012","12","26","06:00","-11.5","","-13.5","","85","","","M","","M","","","100.51","","","","","","NA"
"2012-12-26 07:00","2012","12","26","07:00","-11.1","","-13.4","","83","","","M","","M","","","100.44","","","","","","NA"
"2012-12-26 08:00","2012","12","26","08:00","-11.7","","-14.1","","82","","","M","","M","","","100.48","","","","","","NA"
"2012-12-26 09:00","2012","12","26","09:00","-11.9","","-14.5","","81","","","M","","M","","","100.49","","","","","","NA"
"2012-12-26 10:00","2012","12","26","10:00","-11.3","","-14.4","","78","","","M","","M","","","100.44","","","","","","NA"
"2012-12-26 11:00","2012","12","26","11:00","-11.1","","-14.7","","75","","","M","","M","","","100.33","","","","","","NA"
"2012-12-26 12:00","2012","12","26","12:00","-10.6","","-14.1","","75","","","M","","M","","","100.22","","","","","","NA"
"2012-12-26 13:00","2012","12","26","13:00","-10.1","","-14.2","","72","","","M","","M","","","100.13","","","","","","NA"
"2012-12-26 14:00","2012","12","26","14:00","-10.0","","-14.2","","71","","","M","","M","","","99.98","","","","","","NA"
"2012-12-26 15:00","2012","12","26","15:00","-10.1","","-14.5","","70","","","M","","M","","","100.00","","","","","","NA"
"2012-12-26 16:00","2012","12","26","16:00","-10.6","","-15.1","","69","","","M","","M","","","99.98","","","","","","NA"
"2012-12-26 17:00","2012","12","26","17:00","-10.5","","-14.8","","71","","","M","","M","","","99.91","","","","","","NA"
"2012-12-26 18:00","2012","12","26","18:00","-10.3","","-14.4","","72","","","M","","M","","","99.85","","","","","","NA"
"2012-12-26 19:00","2012","12","26","19:00","-9.9","","-14.4","","70","","","M","","M","","","99.81","","","","","","NA"
"2012-12-26 20:00","2012","12","26","20:00","-10.2","","-14.9","","68","","","M","","M","","","99.70","","","","","","NA"
"2012-12-26 21:00","2012","12","26","21:00","-10.6","","-15.1","","69","","","M","","M","","","99.70","","","","","","NA"
"2012-12-26 22:00","2012","12","26","22:00","-10.7","","-15.1","","70","","","M","","M","","","99.68","","","","","","NA"
"2012-12-26 23:00","2012","12","26","23:00","-10.9","","-15.0","","72","","","M","","M","","","99.69","","","","","","NA"
"2012-12-27 00:00","2012","12","27","00:00","-11.1","","-15.2","","72","","","M","","M","","","99.62","","","","","","NA"
"2012-12-27 01:00","2012","12","27","01:00","-11.4","","-15.1","","74","","","M","","M","","","99.58","","","","","","NA"
"2012-12-27 02:00","2012","12","27","02:00","-11.3","","-15.1","","73","","","M","","M","","","99.53","","","","","","NA"
"2012-12-27 03:00","2012","12","27","03:00","-11.3","","-15.4","","72","","","M","","M","","","99.56","","","","","","NA"
"2012-12-27 04:00","2012","12","27","04:00","-11.7","","-15.7","","72","","","M","","M","","","99.58","","","","","","NA"
"2012-12-27 05:00","2012","12","27","05:00","-11.8","","-15.9","","72","","","M","","M","","","99.54","","","","","","NA"
"2012-12-27 06:00","2012","12","27","06:00","-12.1","","-16.2","","71","","","M","","M","","","99.52","","","","","","NA"
"2012-12-27 07:00","2012","12","27","07:00","-12.3","","-16.5","","71","","","M","","M","","","99.53","","","","","","NA"
"2012-12-27 08:00","2012","12","27","08:00","-12.2","","-16.5","","70","","","M","","M","","","99.51","","","","","","NA"
"2012-12-27 09:00","2012","12","27","09:00","-11.9","","-16.4","","69","","","M","","M","","","99.52","","","","","","NA"
"2012-12-27 10:00","2012","12","27","10:00","-11.7","","-16.8","","66","","","M","","M","","","99.51","","","","","","NA"
"2012-12-27 11:00","2012","12","27","11:00","-10.5","","-16.3","","62","","","M","","M","","","99.57","","","","","","NA"
"2012-12-27 12:00","2012","12","27","12:00","-7.9","","-15.3","","55","","","M","","M","","","99.47","","","","","","NA"
"2012-12-27 13:00","2012","12","27","13:00","-6.2","","-14.9","","50","","","M","","M","","","99.44","","","","","","NA"
"2012-12-27 14:00","2012","12","27","14:00","-6.2","","-13.7","","55","","","M","","M","","","99.46","","","","","","NA"
"2012-12-27 15:00","2012","12","27","15:00","-7.1","","-13.9","","58","","","M","","M","","","99.48","","","","","","NA"
"2012-12-27 16:00","2012","12","27","16:00","-7.6","","-13.5","","63","","","M","","M","","","99.51","","","","","","NA"
"2012-12-27 17:00","2012","12","27","17:00","-8.7","","-13.7","","67","","","M","","M","","","99.55","","","","","","NA"
"2012-12-27 18:00","2012","12","27","18:00","-8.9","","-13.6","","69","","","M","","M","","","99.56","","","","","","NA"
"2012-12-27 19:00","2012","12","27","19:00","-9.6","","-13.5","","73","","","M","","M","","","99.61","","","","","","NA"
"2012-12-27 20:00","2012","12","27","20:00","-10.3","","-13.8","","75","","","M","","M","","","99.65","","","","","","NA"
"2012-12-27 21:00","2012","12","27","21:00","-11.2","","-14.4","","77","","","M","","M","","","99.65","","","","","","NA"
"2012-12-27 22:00","2012","12","27","22:00","-11.6","","-14.6","","78","","","M","","M","","","99.69","","","","","","NA"
"2012-12-27 23:00","2012","12","27","23:00","-12.7","","-15.2","","82","","","M","","M","","","99.70","","","","","","NA"
"2012-12-28 00:00","2012","12","28","00:00","-12.9","","-15.5","","81","","","M","","M","","","99.70","","","","","","NA"
"2012-12-28 01:00","2012","12","28","01:00","-13.0","","-15.5","","81","","","M","","M","","","99.71","","","","","","NA"
"2012-12-28 02:00","2012","12","28","02:00","-13.6","","-15.7","","84","","","M","","M","","","99.70","","","","","","NA"
"2012-12-28 03:00","2012","12","28","03:00","-13.2","","-15.5","","83","","","M","","M","","","99.75","","","","","","NA"
"2012-12-28 04:00","2012","12","28","04:00","-13.1","","-15.3","","84","","","M","","M","","","99.76","","","","","","NA"
"2012-12-28 05:00","2012","12","28","05:00","-13.2","","-15.6","","82","","","M","","M","","","99.78","","","","","","NA"
"2012-12-28 06:00","2012","12","28","06:00","-13.1","","-15.5","","82","","","M","","M","","","99.76","","","","","","NA"
"2012-12-28 07:00","2012","12","28","07:00","-13.1","","-15.4","","83","","","M","","M","","","99.76","","","","","","NA"
"2012-12-28 08:00","2012","12","28","08:00","-13.2","","-15.3","","84","","","M","","M","","","99.76","","","","","","NA"
"2012-12-28 09:00","2012","12","28","09:00","-13.0","","-15.3","","83","","","M","","M","","","99.80","","","","","","NA"
"2012-12-28 10:00","2012","12","28","10:00","-12.3","","-15.3","","78","","","M","","M","","","99.80","","","","","","NA"
"2012-12-28 11:00","2012","12","28","11:00","-9.8","","-13.9","","72","","","M","","M","","","99.77","","","","","","NA"
"2012-12-28 12:00","2012","12","28","12:00","-9.8","","-13.9","","72","","","M","","M","","","99.68","","","","","","NA"
"2012-12-28 13:00","2012","12","28","13:00","-9.1","","-13.2","","72","","","M","","M","","","99.65","","","","","","NA"
"2012-12-28 14:00","2012","12","28","14:00","-8.9","","-12.8","","73","","","M","","M","","","99.63","","","","","","NA"
"2012-12-28 15:00","2012","12","28","15:00","-8.5","","-11.8","","77","","","M","","M","","","99.60","","","","","","NA"
"2012-12-28 16:00","2012","12","28","16:00","-9.0","","-12.1","","78","","","M","","M","","","99.55","","","","","","NA"
"2012-12-28 17:00","2012","12","28","17:00","-8.7","","-11.6","","79","","","M","","M","","","99.51","","","","","","NA"
"2012-12-28 18:00","2012","12","28","18:00","-9.1","","-12.3","","78","","","M","","M","","","99.48","","","","","","NA"
"2012-12-28 19:00","2012","12","28","19:00","-10.3","","-13.7","","76","","","M","","M","","","99.49","","","","","","NA"
"2012-12-28 20:00","2012","12","28","20:00","-10.8","","-14.5","","74","","","M","","M","","","99.56","","","","","","NA"
"2012-12-28 21:00","2012","12","28","21:00","-10.7","","-14.3","","75","","","M","","M","","","99.54","","","","","","NA"
"2012-12-28 22:00","2012","12","28","22:00","-11.0","","-14.1","","78","","","M","","M","","","99.47","","","","","","NA"
"2012-12-28 23:00","2012","12","28","23:00","-10.9","","-13.7","","80","","","M","","M","","","99.41","","","","","","NA"
"2012-12-29 00:00","2012","12","29","00:00","-11.3","","-13.9","","81","","","M","","M","","","99.36","","","","","","NA"
"2012-12-29 01:00","2012","12","29","01:00","-11.2","","-13.7","","82","","","M","","M","","","99.31","","","","","","NA"
"2012-12-29 02:00","2012","12","29","02:00","-11.4","","-14.0","","81","","","M","","M","","","99.24","","","","","","NA"
"2012-12-29 03:00","2012","12","29","03:00","-11.3","","-14.1","","80","","","M","","M","","","99.23","","","","","","NA"
"2012-12-29 04:00","2012","12","29","04:00","-11.6","","-14.5","","79","","","M","","M","","","99.25","","","","","","NA"
"2012-12-29 05:00","2012","12","29","05:00","-11.9","","-14.8","","79","","","M","","M","","","99.16","","","","","","NA"
"2012-12-29 06:00","2012","12","29","06:00","-11.9","","-14.8","","79","","","M","","M","","","99.14","","","","","","NA"
"2012-12-29 07:00","2012","12","29","07:00","-11.5","","-14.2","","80","","","M","","M","","","99.13","","","","","","NA"
"2012-12-29 08:00","2012","12","29","08:00","-11.8","","-14.7","","79","","","M","","M","","","99.08","","","","","","NA"
"2012-12-29 09:00","2012","12","29","09:00","-11.6","","-14.4","","80","","","M","","M","","","99.05","","","","","","NA"
"2012-12-29 10:00","2012","12","29","10:00","-11.1","","-14.2","","78","","","M","","M","","","99.06","","","","","","NA"
"2012-12-29 11:00","2012","12","29","11:00","-10.4","","-14.3","","73","","","M","","M","","","99.01","","","","","","NA"
"2012-12-29 12:00","2012","12","29","12:00","-9.4","","-14.1","","69","","","M","","M","","","98.88","","","","","","NA"
"2012-12-29 13:00","2012","12","29","13:00","-8.6","","-14.1","","64","","","M","","M","","","98.76","","","","","","NA"
"2012-12-29 14:00","2012","12","29","14:00","-7.7","","-13.8","","62","","","M","","M","","","98.73","","","","","","NA"
"2012-12-29 15:00","2012","12","29","15:00","-7.7","","-13.8","","62","","","M","","M","","","98.79","","","","","","NA"
"2012-12-29 16:00","2012","12","29","16:00","-8.2","","-13.8","","64","","","M","","M","","","98.83","","","","","","NA"
"2012-12-29 17:00","2012","12","29","17:00","-8.7","","-13.7","","67","","","M","","M","","","98.88","","","","","","NA"
"2012-12-29 18:00","2012","12","29","18:00","-9.1","","-13.6","","70","","","M","","M","","","98.93","","","","","","NA"
"2012-12-29 19:00","2012","12","29","19:00","-10.2","","-13.6","","76","","","M","","M","","","98.98","","","","","","NA"
"2012-12-29 20:00","2012","12","29","20:00","-10.9","","-14.1","","77","","","M","","M","","","99.02","","","","","","NA"
"2012-12-29 21:00","2012","12","29","21:00","-11.4","","-14.2","","80","","","M","","M","","","99.02","","","","","","NA"
"2012-12-29 22:00","2012","12","29","22:00","-11.7","","-14.4","","80","","","M","","M","","","99.04","","","","","","NA"
"2012-12-29 23:00","2012","12","29","23:00","-11.6","","-14.3","","80","","","M","","M","","","99.08","","","","","","NA"
"2012-12-30 00:00","2012","12","30","00:00","-11.8","","-14.6","","80","","","M","","M","","","99.11","","","","","","NA"
"2012-12-30 01:00","2012","12","30","01:00","-12.0","","-14.7","","80","","","M","","M","","","99.15","","","","","","NA"
"2012-12-30 02:00","2012","12","30","02:00","-12.3","","-14.9","","81","","","M","","M","","","99.21","","","","","","NA"
"2012-12-30 03:00","2012","12","30","03:00","-12.5","","-14.9","","82","","","M","","M","","","99.30","","","","","","NA"
"2012-12-30 04:00","2012","12","30","04:00","-12.7","","-15.0","","83","","","M","","M","","","99.36","","","","","","NA"
"2012-12-30 05:00","2012","12","30","05:00","-13.5","","-16.1","","81","","","M","","M","","","99.45","","","","","","NA"
"2012-12-30 06:00","2012","12","30","06:00","-13.6","","-16.6","","78","","","M","","M","","","99.53","","","","","","NA"
"2012-12-30 07:00","2012","12","30","07:00","-13.8","","-16.6","","79","","","M","","M","","","99.63","","","","","","NA"
"2012-12-30 08:00","2012","12","30","08:00","-12.7","","-15.8","","78","","","M","","M","","","99.70","","","","","","NA"
"2012-12-30 09:00","2012","12","30","09:00","-12.3","","-15.9","","74","","","M","","M","","","99.72","","","","","","NA"
"2012-12-30 10:00","2012","12","30","10:00","-10.4","","-14.9","","70","","","M","","M","","","99.75","","","","","","NA"
"2012-12-30 11:00","2012","12","30","11:00","-8.5","","-13.7","","66","","","M","","M","","","99.77","","","","","","NA"
"2012-12-30 12:00","2012","12","30","12:00","-7.2","","-11.7","","70","","","M","","M","","","99.77","","","","","","NA"
"2012-12-30 13:00","2012","12","30","13:00","-6.5","","-9.9","","77","","","M","","M","","","99.69","","","","","","NA"
"2012-12-30 14:00","2012","12","30","14:00","-5.5","","-9.5","","73","","","M","","M","","","99.64","","","","","","NA"
"2012-12-30 15:00","2012","12","30","15:00","-5.0","","-8.0","","79","","","M","","M","","","99.62","","","","","","NA"
"2012-12-30 16:00","2012","12","30","16:00","-5.3","","-8.4","","79","","","M","","M","","","99.65","","","","","","NA"
"2012-12-30 17:00","2012","12","30","17:00","-5.3","","-8.2","","80","","","M","","M","","","99.63","","","","","","NA"
"2012-12-30 18:00","2012","12","30","18:00","-4.7","","-7.1","","83","","","M","","M","","","99.61","","","","","","NA"
"2012-12-30 19:00","2012","12","30","19:00","-5.3","","-8.1","","81","","","M","","M","","","99.56","","","","","","NA"
"2012-12-30 20:00","2012","12","30","20:00","-5.4","","-7.7","","84","","","M","","M","","","99.53","","","","","","NA"
"2012-12-30 21:00","2012","12","30","21:00","-4.0","","-6.0","","86","","","M","","M","","","99.49","","","","","","NA"
"2012-12-30 22:00","2012","12","30","22:00","-2.1","","-5.4","","78","","","M","","M","","","99.44","","","","","","NA"
"2012-12-30 23:00","2012","12","30","23:00","-1.8","","-6.1","","72","","","M","","M","","","99.41","","","","","","NA"
"2012-12-31 00:00","2012","12","31","00:00","-2.0","","-6.4","","72","","","M","","M","","","99.28","","","","","","NA"
"2012-12-31 01:00","2012","12","31","01:00","-2.0","","-5.8","","75","","","M","","M","","","99.17","","","","","","NA"
"2012-12-31 02:00","2012","12","31","02:00","-2.1","","-5.6","","77","","","M","","M","","","99.10","","","","","","NA"
"2012-12-31 03:00","2012","12","31","03:00","-2.5","","-5.3","","81","","","M","","M","","","99.01","","","","","","NA"
"2012-12-31 04:00","2012","12","31","04:00","-2.2","","-4.4","","85","","","M","","M","","","98.97","","","","","","NA"
"2012-12-31 05:00","2012","12","31","05:00","-1.8","","-4.0","","85","","","M","","M","","","98.87","","","","","","NA"
"2012-12-31 06:00","2012","12","31","06:00","-1.2","","-3.4","","85","","","M","","M","","","98.76","","","","","","NA"
"2012-12-31 07:00","2012","12","31","07:00","0.0","","-2.1","","86","","","M","","M","","","98.68","","","","","","NA"
"2012-12-31 08:00","2012","12","31","08:00","0.9","","-1.2","","86","","","M","","M","","","98.57","","","","","","NA"
"2012-12-31 09:00","2012","12","31","09:00","0.9","","-1.3","","85","","","M","","M","","","98.50","","","","","","NA"
"2012-12-31 10:00","2012","12","31","10:00","0.9","","-1.0","","87","","","M","","M","","","98.45","","","","","","NA"
"2012-12-31 11:00","2012","12","31","11:00","0.9","","-1.5","","84","","","M","","M","","","98.40","","","","","","NA"
"2012-12-31 12:00","2012","12","31","12:00","0.6","","-1.5","","86","","","M","","M","","","98.34","","","","","","NA"
"2012-12-31 13:00","2012","12","31","13:00","0.0","","-4.5","","72","","","M","","M","","","98.30","","","","","","NA"
"2012-12-31 14:00","2012","12","31","14:00","-1.1","","-4.3","","79","","","M","","M","","","98.30","","","","","","NA"
"2012-12-31 15:00","2012","12","31","15:00","-1.2","","-6.1","","69","","","M","","M","","","98.32","","","","","","NA"
"2012-12-31 16:00","2012","12","31","16:00","-2.9","","-9.5","","60","","","M","","M","","","98.41","","","","","","NA"
"2012-12-31 17:00","2012","12","31","17:00","-3.8","","-10.2","","61","","","M","","M","","","98.55","","","","","","NA"
"2012-12-31 18:00","2012","12","31","18:00","-5.2","","-13.0","","54","","","M","","M","","","98.65","","","","","","NA"
"2012-12-31 19:00","2012","12","31","19:00","-6.3","","-13.2","","58","","","M","","M","","","98.77","","","","","","NA"
"2012-12-31 20:00","2012","12","31","20:00","-7.3","","-14.9","","55","","","M","","M","","","98.83","","","","","","NA"
"2012-12-31 21:00","2012","12","31","21:00","-8.6","","-15.0","","60","","","M","","M","","","98.92","","","","","","NA"
"2012-12-31 22:00","2012","12","31","22:00","-10.1","","-16.7","","58","","","M","","M","","","98.96","","","","","","NA"
"2012-12-31 23:00","2012","12","31","23:00","-11.1","","-16.9","","62","","","M","","M","","","99.06","","","","","","NA"
