"Station Name","OTTAWA MACDONALD-CARTIER INT'L A"
"Province","ONTARIO"
"Latitude","45.32"
"Longitude","-75.67"
"Elevation","114.00"
"Climate Identifier","6106000"
"WMO Identifier","71628"
"TC Identifier","YOW"
"All times are specified in Local Standard Time (LST). Add 1 hour to adjust for Daylight Saving Time where and when it is observed."

"Legend"
"E","Estimated"
"M","Missing"
"NA","Not Available"

"Date/Time","Year","Month","Day","Time","Temp (°C)","Temp Flag","Dew Point Temp (°C)","Dew Point Temp Flag","Rel Hum (%)","Rel Hum Flag","Wind Dir (10s deg)","Wind Dir Flag","Wind Spd (km/h)","Wind Spd Flag","Visibility (km)","Visibility Flag","Stn Press (kPa)","Stn Press Flag","Hmdx","Hmdx Flag","Wind Chill","Wind Chill Flag","Weather"
"1994-09-01 00:00","1994","09","01","00:00","12.5","","12.2","","98","","33","","9","","24.1","","100.03","","","","","","Cloudy"
"1994-09-01 01:00","1994","09","01","01:00","12.4","","12.2","","99","","35","","9","","16.1","","100.03","","","","","","Rain Showers"
"1994-09-01 02:00","1994","09","01","02:00","11.8","","11.2","","96","","36","","17","","24.1","","100.06","","","","","","Rain Showers"
"1994-09-01 03:00","1994","09","01","03:00","11.2","","10.6","","96","","2","","13","","19.3","","100.09","","","","","","Rain Showers"
"1994-09-01 04:00","1994","09","01","04:00","10.8","","10.2","","96","","2","","11","","25.0","","100.16","","","","","","Mostly Cloudy"
"1994-09-01 05:00","1994","09","01","05:00","10.6","","9.8","","95","","36","","11","","40.2","","100.23","","","","","","Mostly Cloudy"
"1994-09-01 06:00","1994","09","01","06:00","10.4","","9.4","","94","","36","","9","","40.2","","100.33","","","","","","Rain Showers"
"1994-09-01 07:00","1994","09","01","07:00","10.5","","8.6","","88","","34","","11","","40.2","","100.39","","","","","","Mostly Cloudy"
"1994-09-01 08:00","1994","09","01","08:00","11.3","","8.2","","81","","35","","13","","40.2","","100.39","","","","","","Mainly Clear"
"1994-09-01 09:00","1994","09","01","09:00","13.2","","7.3","","67","","35","","11","","40.2","","100.43","","","","","","Mainly Clear"
"1994-09-01 10:00","1994","09","01","10:00","14.4","","6.2","","58","","31","","17","","40.2","","100.46","","","","","","Mainly Clear"
"1994-09-01 11:00","1994","09","01","11:00","14.5","","7.2","","62","","30","","15","","40.2","","100.49","","","","","","Mainly Clear"
"1994-09-01 12:00","1994","09","01","12:00","15.3","","6.6","","56","","29","","13","","40.2","","100.49","","","","","","Mainly Clear"
"1994-09-01 13:00","1994","09","01","13:00","16.2","","6.9","","54","","29","","22","","40.2","","100.49","","","","","","Mainly Clear"
"1994-09-01 14:00","1994","09","01","14:00","17.4","","6.7","","49","","28","","24","","40.2","","100.46","","","","","","Mainly Clear"
"1994-09-01 15:00","1994","09","01","15:00","17.8","","5.8","","45","","29","","15","","40.2","","100.43","","","","","","Mainly Clear"
"1994-09-01 16:00","1994","09","01","16:00","17.9","","5.7","","45","","30","","24","","40.2","","100.43","","","","","","Mainly Clear"
"1994-09-01 17:00","1994","09","01","17:00","17.0","","5.1","","45","","32","","19","","40.2","","100.46","","","","","","Mainly Clear"
"1994-09-01 18:00","1994","09","01","18:00","15.9","","4.9","","48","","31","","13","","40.2","","100.53","","","","","","Mainly Clear"
"1994-09-01 19:00","1994","09","01","19:00","14.2","","6.0","","58","","32","","13","","40.2","","100.56","","","","","","Mainly Clear"
"1994-09-01 20:00","1994","09","01","20:00","13.2","","6.8","","65","","31","","11","","25.0","","100.70","","","","","","Mainly Clear"
"1994-09-01 21:00","1994","09","01","21:00","12.1","","6.7","","70","","32","","15","","25.0","","100.73","","","","","","Clear"
"1994-09-01 22:00","1994","09","01","22:00","11.7","","5.3","","65","","35","","17","","25.0","","100.76","","","","","","Clear"
"1994-09-01 23:00","1994","09","01","23:00","10.6","","5.5","","71","","35","","11","","25.0","","100.80","","","","","","Clear"
"1994-09-02 00:00","1994","09","02","00:00","9.6","","5.9","","78","","33","","11","","25.0","","100.83","","","","","","Clear"
"1994-09-02 01:00","1994","09","02","01:00","9.1","","5.8","","80","","29","","7","","25.0","","100.83","","","","","","Clear"
"1994-09-02 02:00","1994","09","02","02:00","8.4","","6.1","","85","","25","","2","","25.0","","100.90","","","","","","Clear"
"1994-09-02 03:00","1994","09","02","03:00","7.0","","5.9","","93","","23","","6","","25.0","","100.93","","","","","","Clear"
"1994-09-02 04:00","1994","09","02","04:00","6.2","","5.9","","98","","23","","7","","25.0","","100.96","","","","","","Clear"
"1994-09-02 05:00","1994","09","02","05:00","5.4","","5.4","","100","","24","","7","","32.2","","101.00","","","","","","Mainly Clear"
"1994-09-02 06:00","1994","09","02","06:00","6.1","","5.7","","97","","25","","6","","32.2","","101.06","","","","","","Clear"
"1994-09-02 07:00","1994","09","02","07:00","8.9","","7.5","","91","","28","","9","","32.2","","101.10","","","","","","Mainly Clear"
"1994-09-02 08:00","1994","09","02","08:00","10.5","","8.4","","87","","28","","11","","32.2","","101.10","","","","","","Mostly Cloudy"
"1994-09-02 09:00","1994","09","02","09:00","11.1","","8.6","","85","","28","","9","","32.2","","101.13","","","","","","Mostly Cloudy"
"1994-09-02 10:00","1994","09","02","10:00","12.5","","9.0","","79","","25","","7","","32.2","","101.13","","","","","","Mainly Clear"
"1994-09-02 11:00","1994","09","02","11:00","15.2","","8.9","","66","","29","","9","","32.2","","101.13","","","","","","Mainly Clear"
"1994-09-02 12:00","1994","09","02","12:00","16.6","","6.7","","52","","28","","17","","32.2","","101.06","","","","","","Mainly Clear"
"1994-09-02 13:00","1994","09","02","13:00","18.2","","6.5","","46","","28","","20","","32.2","","101.06","","","","","","Mostly Cloudy"
"1994-09-02 14:00","1994","09","02","14:00","17.8","","6.6","","48","","32","","19","","32.2","","101.03","","","","","","Mainly Clear"
"1994-09-02 15:00","1994","09","02","15:00","16.9","","6.8","","51","","31","","22","","32.2","","101.03","","","","","","Mostly Cloudy"
"1994-09-02 16:00","1994","09","02","16:00","16.7","","6.2","","50","","33","","17","","32.2","","101.03","","","","","","Mostly Cloudy"
"1994-09-02 17:00","1994","09","02","17:00","15.4","","8.4","","63","","34","","15","","32.2","","101.03","","","","","","Mostly Cloudy"
"1994-09-02 18:00","1994","09","02","18:00","14.8","","9.1","","69","","35","","11","","40.2","","101.06","","","","","","Mostly Cloudy"
"1994-09-02 19:00","1994","09","02","19:00","14.1","","8.8","","70","","32","","9","","40.2","","101.13","","","","","","Mostly Cloudy"
"1994-09-02 20:00","1994","09","02","20:00","13.0","","8.9","","76","","33","","7","","25.0","","101.16","","","","","","Mostly Cloudy"
"1994-09-02 21:00","1994","09","02","21:00","12.8","","9.9","","83","","33","","4","","25.0","","101.23","","","","","","Mostly Cloudy"
"1994-09-02 22:00","1994","09","02","22:00","12.2","","9.4","","83","","1","","11","","25.0","","101.30","","","","","","Mostly Cloudy"
"1994-09-02 23:00","1994","09","02","23:00","11.3","","8.4","","82","","5","","11","","25.0","","101.37","","","","","","Mostly Cloudy"
"1994-09-03 00:00","1994","09","03","00:00","10.0","","7.6","","85","","3","","9","","25.0","","101.37","","","","","","Mostly Cloudy"
"1994-09-03 01:00","1994","09","03","01:00","9.4","","7.4","","87","","35","","4","","25.0","","101.37","","","","","","Mostly Cloudy"
"1994-09-03 02:00","1994","09","03","02:00","9.1","","7.5","","90","","","","0","","25.0","","101.40","","","","","","Mainly Clear"
"1994-09-03 03:00","1994","09","03","03:00","8.5","","7.3","","92","","32","","4","","25.0","","101.40","","","","","","Mainly Clear"
"1994-09-03 04:00","1994","09","03","04:00","7.8","","6.9","","94","","","","0","","25.0","","101.43","","","","","","Mainly Clear"
"1994-09-03 05:00","1994","09","03","05:00","7.2","","6.6","","96","","","","0","","32.2","","101.43","","","","","","Mainly Clear"
"1994-09-03 06:00","1994","09","03","06:00","6.8","","6.4","","97","","1","","9","","40.2","","101.47","","","","","","Mainly Clear"
"1994-09-03 07:00","1994","09","03","07:00","8.4","","7.1","","92","","","","0","","40.2","","101.53","","","","","","Mostly Cloudy"
"1994-09-03 08:00","1994","09","03","08:00","10.4","","7.2","","81","","2","","9","","40.2","","101.57","","","","","","Mainly Clear"
"1994-09-03 09:00","1994","09","03","09:00","11.7","","6.9","","72","","6","","11","","40.2","","101.57","","","","","","Mostly Cloudy"
"1994-09-03 10:00","1994","09","03","10:00","13.2","","5.3","","59","","1","","7","","40.2","","101.57","","","","","","Mainly Clear"
"1994-09-03 11:00","1994","09","03","11:00","13.8","","5.1","","56","","","","0","","40.2","","101.53","","","","","","Mostly Cloudy"
"1994-09-03 12:00","1994","09","03","12:00","14.3","","4.3","","51","","","","0","","40.2","","101.53","","","","","","Mostly Cloudy"
"1994-09-03 13:00","1994","09","03","13:00","15.0","","4.9","","51","","23","","9","","40.2","","101.53","","","","","","Mostly Cloudy"
"1994-09-03 14:00","1994","09","03","14:00","15.4","","5.8","","53","","23","","7","","40.2","","101.47","","","","","","Mostly Cloudy"
"1994-09-03 15:00","1994","09","03","15:00","15.5","","5.8","","52","","18","","4","","40.2","","101.43","","","","","","Mostly Cloudy"
"1994-09-03 16:00","1994","09","03","16:00","15.2","","6.5","","56","","27","","7","","40.2","","101.43","","","","","","Mostly Cloudy"
"1994-09-03 17:00","1994","09","03","17:00","15.1","","6.8","","58","","","","0","","40.2","","101.43","","","","","","Mostly Cloudy"
"1994-09-03 18:00","1994","09","03","18:00","14.8","","7.1","","60","","","","0","","40.2","","101.43","","","","","","Mostly Cloudy"
"1994-09-03 19:00","1994","09","03","19:00","14.0","","6.7","","61","","","","0","","25.0","","101.47","","","","","","Mainly Clear"
"1994-09-03 20:00","1994","09","03","20:00","12.2","","7.9","","75","","3","","4","","25.0","","101.47","","","","","","Mainly Clear"
"1994-09-03 21:00","1994","09","03","21:00","11.7","","6.8","","72","","","","0","","25.0","","101.50","","","","","","Mainly Clear"
"1994-09-03 22:00","1994","09","03","22:00","10.5","","7.4","","81","","30","","4","","25.0","","101.57","","","","","","Mainly Clear"
"1994-09-03 23:00","1994","09","03","23:00","10.6","","8.0","","84","","35","","4","","25.0","","101.57","","","","","","Clear"
"1994-09-04 00:00","1994","09","04","00:00","9.7","","8.2","","90","","","","0","","24.1","","101.57","","","","","","Clear"
"1994-09-04 01:00","1994","09","04","01:00","9.5","","8.4","","93","","","","0","","24.1","","101.57","","","","","","Clear"
"1994-09-04 02:00","1994","09","04","02:00","8.9","","8.0","","94","","34","","9","","24.1","","101.53","","","","","","Clear"
"1994-09-04 03:00","1994","09","04","03:00","7.8","","7.2","","96","","3","","6","","24.1","","101.53","","","","","","Clear"
"1994-09-04 04:00","1994","09","04","04:00","8.1","","7.0","","93","","35","","11","","24.1","","101.57","","","","","","Clear"
"1994-09-04 05:00","1994","09","04","05:00","8.1","","7.2","","94","","36","","11","","24.1","","101.57","","","","","","Mainly Clear"
"1994-09-04 06:00","1994","09","04","06:00","8.2","","6.8","","91","","35","","13","","40.2","","101.63","","","","","","Mostly Cloudy"
"1994-09-04 07:00","1994","09","04","07:00","8.5","","6.9","","90","","36","","9","","40.2","","101.70","","","","","","Mostly Cloudy"
"1994-09-04 08:00","1994","09","04","08:00","10.1","","6.9","","80","","36","","7","","40.2","","101.73","","","","","","Mainly Clear"
"1994-09-04 09:00","1994","09","04","09:00","11.9","","7.1","","72","","3","","7","","40.2","","101.73","","","","","","Mainly Clear"
"1994-09-04 10:00","1994","09","04","10:00","14.1","","7.9","","66","","3","","9","","40.2","","101.70","","","","","","Clear"
"1994-09-04 11:00","1994","09","04","11:00","16.0","","7.9","","59","","3","","11","","40.2","","101.67","","","","","","Mainly Clear"
"1994-09-04 12:00","1994","09","04","12:00","16.4","","6.2","","51","","6","","13","","40.2","","101.63","","","","","","Mostly Cloudy"
"1994-09-04 13:00","1994","09","04","13:00","17.1","","5.2","","45","","8","","11","","40.2","","101.57","","","","","","Mostly Cloudy"
"1994-09-04 14:00","1994","09","04","14:00","17.9","","6.3","","47","","7","","7","","40.2","","101.53","","","","","","Mainly Clear"
"1994-09-04 15:00","1994","09","04","15:00","17.7","","6.1","","46","","7","","15","","40.2","","101.47","","","","","","Mainly Clear"
"1994-09-04 16:00","1994","09","04","16:00","17.9","","6.4","","47","","8","","9","","40.2","","101.47","","","","","","Mainly Clear"
"1994-09-04 17:00","1994","09","04","17:00","17.5","","6.1","","47","","7","","7","","40.2","","101.43","","","","","","Mainly Clear"
"1994-09-04 18:00","1994","09","04","18:00","16.6","","7.4","","55","","10","","6","","40.2","","101.37","","","","","","Clear"
"1994-09-04 19:00","1994","09","04","19:00","15.4","","7.7","","60","","12","","6","","32.2","","101.37","","","","","","Clear"
"1994-09-04 20:00","1994","09","04","20:00","14.4","","7.3","","62","","12","","6","","25.0","","101.40","","","","","","Clear"
"1994-09-04 21:00","1994","09","04","21:00","13.8","","7.4","","65","","10","","4","","25.0","","101.40","","","","","","Clear"
"1994-09-04 22:00","1994","09","04","22:00","11.2","","7.9","","80","","","","0","","25.0","","101.43","","","","","","Clear"
"1994-09-04 23:00","1994","09","04","23:00","11.5","","8.5","","82","","2","","4","","25.0","","101.43","","","","","","Clear"
"1994-09-05 00:00","1994","09","05","00:00","10.5","","8.9","","90","","3","","7","","25.0","","101.43","","","","","","Mainly Clear"
"1994-09-05 01:00","1994","09","05","01:00","10.0","","9.0","","93","","3","","7","","25.0","","101.33","","","","","","Clear"
"1994-09-05 02:00","1994","09","05","02:00","9.3","","8.7","","96","","2","","7","","24.1","","101.30","","","","","","Clear"
"1994-09-05 03:00","1994","09","05","03:00","8.3","","8.0","","98","","3","","7","","24.1","","101.27","","","","","","Clear"
"1994-09-05 04:00","1994","09","05","04:00","7.6","","7.6","","100","","3","","7","","24.1","","101.23","","","","","","Clear"
"1994-09-05 05:00","1994","09","05","05:00","7.6","","7.6","","100","","2","","9","","24.1","","101.23","","","","","","Clear"
"1994-09-05 06:00","1994","09","05","06:00","7.5","","7.3","","99","","36","","11","","24.1","","101.23","","","","","","Clear"
"1994-09-05 07:00","1994","09","05","07:00","9.5","","8.6","","94","","35","","7","","40.2","","101.23","","","","","","Clear"
"1994-09-05 08:00","1994","09","05","08:00","12.0","","8.2","","78","","35","","7","","40.2","","101.23","","","","","","Clear"
"1994-09-05 09:00","1994","09","05","09:00","14.4","","6.9","","61","","5","","7","","40.2","","101.20","","","","","","Clear"
"1994-09-05 10:00","1994","09","05","10:00","15.4","","7.9","","61","","6","","6","","40.2","","101.16","","","","","","Clear"
"1994-09-05 11:00","1994","09","05","11:00","16.4","","7.9","","57","","","","0","","40.2","","101.06","","","","","","Clear"
"1994-09-05 12:00","1994","09","05","12:00","18.6","","8.6","","52","","1","","9","","40.2","","100.96","","","","","","Clear"
"1994-09-05 13:00","1994","09","05","13:00","19.2","","6.3","","43","","36","","7","","40.2","","100.86","","","","","","Clear"
"1994-09-05 14:00","1994","09","05","14:00","20.0","","6.4","","41","","1","","11","","40.2","","100.76","","","","","","Mainly Clear"
"1994-09-05 15:00","1994","09","05","15:00","21.0","","7.4","","41","","36","","6","","40.2","","100.70","","","","","","Mostly Cloudy"
"1994-09-05 16:00","1994","09","05","16:00","20.0","","5.7","","39","","7","","7","","40.2","","100.63","","","","","","Mostly Cloudy"
"1994-09-05 17:00","1994","09","05","17:00","19.5","","7.0","","44","","12","","6","","40.2","","100.60","","","","","","Mostly Cloudy"
"1994-09-05 18:00","1994","09","05","18:00","18.3","","7.9","","51","","24","","6","","40.2","","100.56","","","","","","Mostly Cloudy"
"1994-09-05 19:00","1994","09","05","19:00","17.4","","8.1","","54","","27","","4","","32.2","","100.53","","","","","","Mainly Clear"
"1994-09-05 20:00","1994","09","05","20:00","15.0","","7.9","","62","","17","","15","","25.0","","100.53","","","","","","Mainly Clear"
"1994-09-05 21:00","1994","09","05","21:00","14.2","","6.9","","61","","","","0","","25.0","","100.53","","","","","","Clear"
"1994-09-05 22:00","1994","09","05","22:00","13.0","","7.2","","68","","30","","7","","25.0","","100.46","","","","","","Clear"
"1994-09-05 23:00","1994","09","05","23:00","12.9","","6.9","","67","","29","","4","","25.0","","100.43","","","","","","Clear"
"1994-09-06 00:00","1994","09","06","00:00","12.3","","7.8","","74","","33","","6","","25.0","","100.33","","","","","","Clear"
"1994-09-06 01:00","1994","09","06","01:00","12.6","","7.8","","73","","30","","6","","25.0","","100.29","","","","","","Clear"
"1994-09-06 02:00","1994","09","06","02:00","12.0","","9.5","","85","","31","","7","","25.0","","100.23","","","","","","Clear"
"1994-09-06 03:00","1994","09","06","03:00","12.0","","9.0","","82","","34","","7","","25.0","","100.19","","","","","","Mainly Clear"
"1994-09-06 04:00","1994","09","06","04:00","11.7","","8.2","","79","","20","","4","","25.0","","100.06","","","","","","Mainly Clear"
"1994-09-06 05:00","1994","09","06","05:00","11.5","","9.1","","85","","24","","4","","25.0","","100.13","","","","","","Mainly Clear"
"1994-09-06 06:00","1994","09","06","06:00","11.1","","8.2","","82","","26","","11","","25.0","","100.03","","","","","","Mostly Cloudy"
"1994-09-06 07:00","1994","09","06","07:00","12.0","","9.9","","87","","30","","7","","32.2","","99.99","","","","","","Mostly Cloudy"
"1994-09-06 08:00","1994","09","06","08:00","13.0","","9.9","","81","","27","","9","","32.2","","99.99","","","","","","Mostly Cloudy"
"1994-09-06 09:00","1994","09","06","09:00","13.4","","10.2","","81","","30","","9","","32.2","","99.93","","","","","","Mostly Cloudy"
"1994-09-06 10:00","1994","09","06","10:00","16.2","","9.7","","65","","29","","9","","32.2","","99.93","","","","","","Mostly Cloudy"
"1994-09-06 11:00","1994","09","06","11:00","18.0","","9.0","","56","","28","","13","","24.1","","99.86","","","","","","Mainly Clear"
"1994-09-06 12:00","1994","09","06","12:00","18.8","","9.2","","54","","27","","13","","32.2","","99.79","","","","","","Mainly Clear"
"1994-09-06 13:00","1994","09","06","13:00","20.3","","8.5","","47","","28","","11","","32.2","","99.76","","","","","","Mainly Clear"
"1994-09-06 14:00","1994","09","06","14:00","20.7","","8.2","","45","","30","","13","","32.2","","99.72","","","","","","Mostly Cloudy"
"1994-09-06 15:00","1994","09","06","15:00","20.4","","7.3","","43","","29","","13","","32.2","","99.66","","","","","","Mainly Clear"
"1994-09-06 16:00","1994","09","06","16:00","20.8","","9.0","","47","","28","","13","","32.2","","99.62","","","","","","Mainly Clear"
"1994-09-06 17:00","1994","09","06","17:00","20.6","","8.2","","45","","29","","13","","32.2","","99.59","","","","","","Mainly Clear"
"1994-09-06 18:00","1994","09","06","18:00","18.2","","10.4","","60","","9","","11","","32.2","","99.59","","","","","","Mainly Clear"
"1994-09-06 19:00","1994","09","06","19:00","16.5","","10.6","","68","","9","","9","","24.1","","99.59","","","","","","Mainly Clear"
"1994-09-06 20:00","1994","09","06","20:00","16.0","","10.1","","68","","","","0","","24.1","","99.62","","","","","","Mostly Cloudy"
"1994-09-06 21:00","1994","09","06","21:00","16.1","","9.2","","64","","24","","6","","24.1","","99.62","","","","","","Mostly Cloudy"
"1994-09-06 22:00","1994","09","06","22:00","15.2","","9.3","","68","","24","","7","","24.1","","99.59","","","","","","Mostly Cloudy"
"1994-09-06 23:00","1994","09","06","23:00","14.7","","9.6","","71","","23","","7","","24.1","","99.56","","","","","","Mostly Cloudy"
"1994-09-07 00:00","1994","09","07","00:00","13.8","","10.6","","81","","22","","7","","24.1","","99.52","","","","","","Mostly Cloudy"
"1994-09-07 01:00","1994","09","07","01:00","12.7","","10.3","","85","","21","","9","","24.1","","99.52","","","","","","Mainly Clear"
"1994-09-07 02:00","1994","09","07","02:00","10.9","","9.9","","94","","24","","6","","24.1","","99.49","","","","","","Mainly Clear"
"1994-09-07 03:00","1994","09","07","03:00","10.7","","9.8","","94","","","","0","","25.0","","99.46","","","","","","Clear"
"1994-09-07 04:00","1994","09","07","04:00","10.2","","9.7","","97","","","","0","","25.0","","99.46","","","","","","Mainly Clear"
"1994-09-07 05:00","1994","09","07","05:00","10.1","","9.8","","98","","23","","7","","9.7","","99.46","","","","","","Fog"
"1994-09-07 06:00","1994","09","07","06:00","10.6","","9.9","","95","","22","","9","","9.7","","99.52","","","","","","Fog"
"1994-09-07 07:00","1994","09","07","07:00","11.0","","9.9","","93","","23","","4","","9.7","","99.56","","","","","","Fog"
"1994-09-07 08:00","1994","09","07","08:00","12.4","","11.7","","95","","22","","4","","9.7","","99.56","","","","","","Fog"
"1994-09-07 09:00","1994","09","07","09:00","13.4","","13.1","","98","","25","","7","","8.0","","99.59","","","","","","Fog"
"1994-09-07 10:00","1994","09","07","10:00","14.5","","13.3","","93","","26","","4","","9.7","","99.59","","","","","","Fog"
"1994-09-07 11:00","1994","09","07","11:00","16.0","","13.9","","87","","20","","4","","9.7","","99.59","","","","","","Haze"
"1994-09-07 12:00","1994","09","07","12:00","16.7","","14.2","","85","","26","","6","","12.9","","99.56","","","","","","Mostly Cloudy"
"1994-09-07 13:00","1994","09","07","13:00","17.7","","13.9","","78","","25","","6","","16.1","","99.56","","","","","","Mostly Cloudy"
"1994-09-07 14:00","1994","09","07","14:00","17.9","","14.2","","79","","22","","13","","16.1","","99.56","","","","","","Rain Showers"
"1994-09-07 15:00","1994","09","07","15:00","17.0","","15.9","","93","","25","","15","","19.3","","99.56","","","","","","Rain Showers"
"1994-09-07 16:00","1994","09","07","16:00","17.3","","15.0","","86","","27","","19","","32.2","","99.59","","","","","","Mostly Cloudy"
"1994-09-07 17:00","1994","09","07","17:00","17.5","","13.7","","78","","27","","19","","40.2","","99.62","","","","","","Mostly Cloudy"
"1994-09-07 18:00","1994","09","07","18:00","17.5","","12.9","","74","","27","","13","","40.2","","99.69","","","","","","Mainly Clear"
"1994-09-07 19:00","1994","09","07","19:00","15.1","","12.7","","86","","24","","7","","32.2","","99.72","","","","","","Mainly Clear"
"1994-09-07 20:00","1994","09","07","20:00","14.0","","12.4","","90","","22","","7","","24.1","","99.76","","","","","","Mainly Clear"
"1994-09-07 21:00","1994","09","07","21:00","13.5","","11.2","","86","","23","","9","","24.1","","99.79","","","","","","Mainly Clear"
"1994-09-07 22:00","1994","09","07","22:00","12.7","","10.4","","86","","26","","9","","24.1","","99.79","","","","","","Clear"
"1994-09-07 23:00","1994","09","07","23:00","12.6","","10.3","","86","","23","","7","","24.1","","99.79","","","","","","Mainly Clear"
"1994-09-08 00:00","1994","09","08","00:00","12.6","","10.6","","88","","23","","7","","24.1","","99.79","","","","","","Mostly Cloudy"
"1994-09-08 01:00","1994","09","08","01:00","12.5","","10.5","","88","","24","","6","","24.1","","99.79","","","","","","Mostly Cloudy"
"1994-09-08 02:00","1994","09","08","02:00","11.9","","10.3","","90","","23","","7","","24.1","","99.76","","","","","","Mainly Clear"
"1994-09-08 03:00","1994","09","08","03:00","11.3","","10.0","","92","","22","","7","","24.1","","99.72","","","","","","Clear"
"1994-09-08 04:00","1994","09","08","04:00","11.0","","9.9","","93","","23","","9","","24.1","","99.76","","","","","","Clear"
"1994-09-08 05:00","1994","09","08","05:00","11.2","","10.1","","93","","22","","7","","24.1","","99.79","","","","","","Mostly Cloudy"
"1994-09-08 06:00","1994","09","08","06:00","10.6","","10.1","","97","","24","","7","","24.1","","99.82","","","","","","Mainly Clear"
"1994-09-08 07:00","1994","09","08","07:00","12.4","","11.1","","92","","27","","7","","24.1","","99.89","","","","","","Mainly Clear"
"1994-09-08 08:00","1994","09","08","08:00","13.8","","11.8","","88","","28","","17","","32.2","","99.89","","","","","","Mainly Clear"
"1994-09-08 09:00","1994","09","08","09:00","15.4","","12.0","","80","","29","","17","","40.2","","99.93","","","","","","Mainly Clear"
"1994-09-08 10:00","1994","09","08","10:00","17.7","","12.9","","73","","27","","19","","40.2","","99.93","","","","","","Mainly Clear"
"1994-09-08 11:00","1994","09","08","11:00","19.3","","13.3","","68","","29","","17","","40.2","","99.93","","","","","","Mainly Clear"
"1994-09-08 12:00","1994","09","08","12:00","19.8","","11.7","","60","","28","","19","","40.2","","99.93","","","","","","Mainly Clear"
"1994-09-08 13:00","1994","09","08","13:00","20.8","","11.9","","57","","28","","20","","32.2","","99.93","","","","","","Mainly Clear"
"1994-09-08 14:00","1994","09","08","14:00","21.7","","10.7","","50","","28","","19","","32.2","","99.89","","","","","","Mainly Clear"
"1994-09-08 15:00","1994","09","08","15:00","21.9","","10.2","","47","","29","","19","","40.2","","99.89","","","","","","Mainly Clear"
"1994-09-08 16:00","1994","09","08","16:00","21.8","","9.8","","46","","26","","15","","40.2","","99.82","","","","","","Mostly Cloudy"
"1994-09-08 17:00","1994","09","08","17:00","21.4","","10.0","","48","","26","","15","","40.2","","99.82","","","","","","Mostly Cloudy"
"1994-09-08 18:00","1994","09","08","18:00","19.4","","10.5","","56","","25","","13","","32.2","","99.89","","","","","","Mostly Cloudy"
"1994-09-08 19:00","1994","09","08","19:00","17.5","","11.5","","68","","25","","9","","24.1","","99.93","","","","","","Mostly Cloudy"
"1994-09-08 20:00","1994","09","08","20:00","16.2","","11.4","","73","","26","","6","","24.1","","99.99","","","","","","Mainly Clear"
"1994-09-08 21:00","1994","09","08","21:00","15.9","","11.3","","74","","24","","6","","24.1","","99.99","","","","","","Mostly Cloudy"
"1994-09-08 22:00","1994","09","08","22:00","14.8","","11.4","","80","","","","0","","24.1","","99.99","","","","","","Mainly Clear"
"1994-09-08 23:00","1994","09","08","23:00","13.5","","11.0","","85","","15","","6","","24.1","","99.96","","","","","","Clear"
"1994-09-09 00:00","1994","09","09","00:00","12.7","","11.4","","92","","16","","4","","24.1","","99.93","","","","","","Mainly Clear"
"1994-09-09 01:00","1994","09","09","01:00","13.4","","11.4","","88","","12","","6","","24.1","","99.82","","","","","","Mainly Clear"
"1994-09-09 02:00","1994","09","09","02:00","12.4","","11.2","","92","","16","","9","","24.1","","99.79","","","","","","Mostly Cloudy"
"1994-09-09 03:00","1994","09","09","03:00","12.2","","11.4","","95","","18","","6","","24.1","","99.76","","","","","","Mainly Clear"
"1994-09-09 04:00","1994","09","09","04:00","11.7","","11.1","","96","","21","","7","","19.3","","99.72","","","","","","Mainly Clear"
"1994-09-09 05:00","1994","09","09","05:00","10.1","","10.0","","99","","26","","7","","12.9","","99.72","","","","","","Mainly Clear"
"1994-09-09 06:00","1994","09","09","06:00","10.5","","10.4","","99","","22","","9","","4.0","","99.76","","","","","","Fog"
"1994-09-09 07:00","1994","09","09","07:00","12.0","","11.5","","97","","23","","11","","16.1","","99.82","","","","","","Mostly Cloudy"
"1994-09-09 08:00","1994","09","09","08:00","13.7","","12.2","","91","","27","","19","","24.1","","99.79","","","","","","Mostly Cloudy"
"1994-09-09 09:00","1994","09","09","09:00","13.6","","11.8","","89","","28","","22","","32.2","","99.86","","","","","","Mostly Cloudy"
"1994-09-09 10:00","1994","09","09","10:00","16.3","","10.9","","70","","30","","20","","32.2","","99.89","","","","","","Mostly Cloudy"
"1994-09-09 11:00","1994","09","09","11:00","16.2","","9.3","","64","","31","","22","","40.2","","99.93","","","","","","Mostly Cloudy"
"1994-09-09 12:00","1994","09","09","12:00","16.7","","8.7","","59","","29","","26","","40.2","","99.99","","","","","","Mainly Clear"
"1994-09-09 13:00","1994","09","09","13:00","15.0","","7.7","","62","","30","","46","","40.2","","100.03","","","","","","Rain Showers"
"1994-09-09 14:00","1994","09","09","14:00","16.2","","5.6","","49","","31","","33","","40.2","","100.06","","","","","","Mainly Clear"
"1994-09-09 15:00","1994","09","09","15:00","16.2","","6.0","","51","","29","","26","","40.2","","100.09","","","","","","Mainly Clear"
"1994-09-09 16:00","1994","09","09","16:00","16.1","","4.8","","47","","30","","26","","40.2","","100.13","","","","","","Mainly Clear"
"1994-09-09 17:00","1994","09","09","17:00","15.5","","5.5","","51","","30","","20","","40.2","","100.13","","","","","","Mainly Clear"
"1994-09-09 18:00","1994","09","09","18:00","14.3","","6.9","","61","","31","","22","","40.2","","100.19","","","","","","Mainly Clear"
"1994-09-09 19:00","1994","09","09","19:00","12.9","","7.1","","68","","30","","15","","32.2","","100.23","","","","","","Mainly Clear"
"1994-09-09 20:00","1994","09","09","20:00","12.2","","6.7","","69","","30","","13","","24.1","","100.29","","","","","","Mainly Clear"
"1994-09-09 21:00","1994","09","09","21:00","11.4","","6.7","","73","","32","","13","","24.1","","100.33","","","","","","Clear"
"1994-09-09 22:00","1994","09","09","22:00","10.6","","6.8","","77","","29","","9","","24.1","","100.36","","","","","","Clear"
"1994-09-09 23:00","1994","09","09","23:00","10.0","","7.0","","82","","26","","9","","24.1","","100.39","","","","","","Clear"
"1994-09-10 00:00","1994","09","10","00:00","7.4","","6.8","","96","","24","","7","","24.1","","100.43","","","","","","Clear"
"1994-09-10 01:00","1994","09","10","01:00","8.5","","7.5","","93","","26","","9","","24.1","","100.43","","","","","","Clear"
"1994-09-10 02:00","1994","09","10","02:00","7.5","","7.0","","97","","25","","4","","24.1","","100.43","","","","","","Clear"
"1994-09-10 03:00","1994","09","10","03:00","8.5","","7.3","","92","","26","","4","","24.1","","100.43","","","","","","Mainly Clear"
"1994-09-10 04:00","1994","09","10","04:00","8.0","","7.3","","95","","29","","7","","24.1","","100.46","","","","","","Mainly Clear"
"1994-09-10 05:00","1994","09","10","05:00","7.6","","7.1","","97","","29","","13","","32.2","","100.53","","","","","","Clear"
"1994-09-10 06:00","1994","09","10","06:00","7.2","","6.8","","97","","27","","17","","40.2","","100.60","","","","","","Clear"
"1994-09-10 07:00","1994","09","10","07:00","8.9","","7.7","","92","","27","","17","","40.2","","100.63","","","","","","Clear"
"1994-09-10 08:00","1994","09","10","08:00","9.9","","7.7","","86","","29","","17","","40.2","","100.63","","","","","","Mainly Clear"
"1994-09-10 09:00","1994","09","10","09:00","11.8","","7.5","","75","","31","","19","","40.2","","100.66","","","","","","Mainly Clear"
"1994-09-10 10:00","1994","09","10","10:00","13.1","","7.3","","68","","30","","24","","40.2","","100.66","","","","","","Mainly Clear"
"1994-09-10 11:00","1994","09","10","11:00","14.8","","7.4","","61","","28","","24","","40.2","","100.66","","","","","","Mainly Clear"
"1994-09-10 12:00","1994","09","10","12:00","15.1","","7.8","","62","","32","","24","","40.2","","100.66","","","","","","Mainly Clear"
"1994-09-10 13:00","1994","09","10","13:00","15.9","","7.5","","57","","30","","19","","40.2","","100.63","","","","","","Mainly Clear"
"1994-09-10 14:00","1994","09","10","14:00","16.5","","7.4","","55","","31","","22","","40.2","","100.60","","","","","","Mostly Cloudy"
"1994-09-10 15:00","1994","09","10","15:00","16.9","","7.9","","55","","29","","24","","40.2","","100.56","","","","","","Mostly Cloudy"
"1994-09-10 16:00","1994","09","10","16:00","16.6","","7.6","","55","","28","","24","","40.2","","100.63","","","","","","Mostly Cloudy"
"1994-09-10 17:00","1994","09","10","17:00","16.4","","8.1","","58","","29","","24","","40.2","","100.63","","","","","","Mostly Cloudy"
"1994-09-10 18:00","1994","09","10","18:00","15.9","","8.2","","60","","31","","17","","40.2","","100.63","","","","","","Mostly Cloudy"
"1994-09-10 19:00","1994","09","10","19:00","15.3","","8.3","","63","","29","","17","","24.1","","100.66","","","","","","Mostly Cloudy"
"1994-09-10 20:00","1994","09","10","20:00","14.6","","8.5","","67","","30","","19","","24.1","","100.73","","","","","","Mostly Cloudy"
"1994-09-10 21:00","1994","09","10","21:00","13.6","","8.3","","70","","31","","22","","24.1","","100.76","","","","","","Mainly Clear"
"1994-09-10 22:00","1994","09","10","22:00","12.3","","7.5","","72","","31","","17","","24.1","","100.80","","","","","","Mainly Clear"
"1994-09-10 23:00","1994","09","10","23:00","11.6","","6.7","","72","","31","","15","","24.1","","100.80","","","","","","Clear"
"1994-09-11 00:00","1994","09","11","00:00","11.0","","6.8","","75","","30","","15","","24.1","","100.80","","","","","","Clear"
"1994-09-11 01:00","1994","09","11","01:00","10.3","","6.9","","79","","27","","7","","24.1","","100.80","","","","","","Clear"
"1994-09-11 02:00","1994","09","11","02:00","9.9","","7.1","","83","","29","","11","","24.1","","100.80","","","","","","Clear"
"1994-09-11 03:00","1994","09","11","03:00","9.9","","7.0","","82","","29","","7","","24.1","","100.80","","","","","","Clear"
"1994-09-11 04:00","1994","09","11","04:00","9.9","","7.3","","84","","30","","11","","24.1","","100.80","","","","","","Mostly Cloudy"
"1994-09-11 05:00","1994","09","11","05:00","10.2","","8.3","","88","","27","","9","","24.1","","100.83","","","","","","Mostly Cloudy"
"1994-09-11 06:00","1994","09","11","06:00","10.8","","8.0","","83","","31","","17","","40.2","","100.93","","","","","","Mostly Cloudy"
"1994-09-11 07:00","1994","09","11","07:00","11.3","","8.2","","81","","31","","20","","40.2","","100.93","","","","","","Mostly Cloudy"
"1994-09-11 08:00","1994","09","11","08:00","11.8","","8.4","","80","","32","","19","","40.2","","100.96","","","","","","Cloudy"
"1994-09-11 09:00","1994","09","11","09:00","12.2","","8.7","","79","","32","","20","","40.2","","100.96","","","","","","Cloudy"
"1994-09-11 10:00","1994","09","11","10:00","13.0","","9.1","","77","","33","","20","","40.2","","100.96","","","","","","Cloudy"
"1994-09-11 11:00","1994","09","11","11:00","14.7","","9.7","","72","","32","","17","","40.2","","101.00","","","","","","Mostly Cloudy"
"1994-09-11 12:00","1994","09","11","12:00","15.5","","9.3","","67","","33","","17","","40.2","","100.96","","","","","","Mainly Clear"
"1994-09-11 13:00","1994","09","11","13:00","16.5","","10.3","","67","","28","","15","","40.2","","100.90","","","","","","Mainly Clear"
"1994-09-11 14:00","1994","09","11","14:00","17.9","","10.4","","61","","30","","17","","40.2","","100.83","","","","","","Mainly Clear"
"1994-09-11 15:00","1994","09","11","15:00","18.0","","9.1","","56","","31","","19","","40.2","","100.83","","","","","","Mainly Clear"
"1994-09-11 16:00","1994","09","11","16:00","18.0","","9.4","","57","","30","","13","","40.2","","100.83","","","","","","Mostly Cloudy"
"1994-09-11 17:00","1994","09","11","17:00","17.9","","9.9","","59","","28","","11","","40.2","","100.80","","","","","","Mainly Clear"
"1994-09-11 18:00","1994","09","11","18:00","17.4","","10.4","","63","","26","","7","","40.2","","100.76","","","","","","Mostly Cloudy"
"1994-09-11 19:00","1994","09","11","19:00","16.3","","9.9","","66","","27","","9","","40.2","","100.80","","","","","","Mainly Clear"
"1994-09-11 20:00","1994","09","11","20:00","15.8","","10.6","","71","","28","","11","","25.0","","100.83","","","","","","Mostly Cloudy"
"1994-09-11 21:00","1994","09","11","21:00","14.4","","10.5","","77","","29","","7","","25.0","","100.86","","","","","","Clear"
"1994-09-11 22:00","1994","09","11","22:00","13.4","","10.8","","84","","30","","9","","25.0","","100.90","","","","","","Clear"
"1994-09-11 23:00","1994","09","11","23:00","12.3","","10.6","","89","","30","","7","","25.0","","100.83","","","","","","Clear"
"1994-09-12 00:00","1994","09","12","00:00","10.5","","9.6","","94","","24","","6","","25.0","","100.80","","","","","","Clear"
"1994-09-12 01:00","1994","09","12","01:00","10.3","","9.2","","93","","24","","6","","24.1","","100.73","","","","","","Mainly Clear"
"1994-09-12 02:00","1994","09","12","02:00","9.8","","9.3","","97","","27","","7","","25.0","","100.73","","","","","","Clear"
"1994-09-12 03:00","1994","09","12","03:00","8.9","","8.9","","100","","27","","9","","24.1","","100.76","","","","","","Clear"
"1994-09-12 04:00","1994","09","12","04:00","9.2","","9.0","","99","","28","","7","","16.1","","100.83","","","","","","Mainly Clear"
"1994-09-12 05:00","1994","09","12","05:00","8.9","","8.9","","100","","25","","7","","16.1","","100.80","","","","","","Mainly Clear"
"1994-09-12 06:00","1994","09","12","06:00","8.7","","8.7","","100","","25","","6","","19.3","","100.80","","","","","","Mostly Cloudy"
"1994-09-12 07:00","1994","09","12","07:00","10.8","","10.2","","96","","27","","15","","24.1","","100.80","","","","","","Cloudy"
"1994-09-12 08:00","1994","09","12","08:00","11.5","","10.1","","91","","29","","15","","24.1","","100.83","","","","","","Mostly Cloudy"
"1994-09-12 09:00","1994","09","12","09:00","13.4","","10.6","","83","","28","","13","","24.1","","100.76","","","","","","Mostly Cloudy"
"1994-09-12 10:00","1994","09","12","10:00","16.0","","11.8","","76","","27","","13","","24.1","","100.73","","","","","","Mainly Clear"
"1994-09-12 11:00","1994","09","12","11:00","17.6","","12.6","","72","","25","","15","","24.1","","100.63","","","","","","Mostly Cloudy"
"1994-09-12 12:00","1994","09","12","12:00","19.4","","13.4","","68","","27","","19","","32.2","","100.53","","","","","","Cloudy"
"1994-09-12 13:00","1994","09","12","13:00","20.3","","13.9","","67","","25","","15","","32.2","","100.46","","","","","","Cloudy"
"1994-09-12 14:00","1994","09","12","14:00","20.1","","14.2","","69","","28","","11","","24.1","","100.43","","","","","","Cloudy"
"1994-09-12 15:00","1994","09","12","15:00","19.9","","15.0","","73","","24","","11","","24.1","","100.39","","","","","","Cloudy"
"1994-09-12 16:00","1994","09","12","16:00","19.9","","14.8","","72","","23","","15","","24.1","","100.33","","","","","","Cloudy"
"1994-09-12 17:00","1994","09","12","17:00","19.3","","14.4","","73","","20","","13","","32.2","","100.23","","","","","","Cloudy"
"1994-09-12 18:00","1994","09","12","18:00","19.1","","14.8","","76","","22","","13","","24.1","","100.19","","","","","","Cloudy"
"1994-09-12 19:00","1994","09","12","19:00","18.9","","15.4","","80","","23","","15","","19.3","","100.13","","","","","","Cloudy"
"1994-09-12 20:00","1994","09","12","20:00","18.7","","15.7","","83","","22","","15","","24.1","","100.09","","","","","","Mostly Cloudy"
"1994-09-12 21:00","1994","09","12","21:00","17.9","","15.7","","87","","23","","15","","24.1","","100.06","","","","","","Mainly Clear"
"1994-09-12 22:00","1994","09","12","22:00","17.3","","15.9","","91","","24","","13","","24.1","","100.06","","","","","","Mainly Clear"
"1994-09-12 23:00","1994","09","12","23:00","17.7","","16.5","","93","","25","","9","","12.9","","100.06","","","","","","Mainly Clear"
"1994-09-13 00:00","1994","09","13","00:00","18.2","","16.6","","90","","24","","9","","12.9","","100.03","","","","","","Mainly Clear"
"1994-09-13 01:00","1994","09","13","01:00","18.3","","16.4","","89","","24","","6","","12.9","","100.03","","","","","","Mainly Clear"
"1994-09-13 02:00","1994","09","13","02:00","18.8","","16.8","","88","","27","","9","","12.9","","99.99","","","","","","Mostly Cloudy"
"1994-09-13 03:00","1994","09","13","03:00","18.2","","16.7","","91","","29","","19","","12.9","","99.99","","","","","","Clear"
"1994-09-13 04:00","1994","09","13","04:00","17.9","","16.9","","94","","29","","17","","11.3","","100.03","","","","","","Mainly Clear"
"1994-09-13 05:00","1994","09","13","05:00","17.4","","16.9","","97","","28","","7","","8.0","","100.06","","","","","","Fog"
"1994-09-13 06:00","1994","09","13","06:00","17.0","","16.7","","98","","27","","11","","4.0","","99.99","","","","","","Fog"
"1994-09-13 07:00","1994","09","13","07:00","17.4","","17.1","","98","","26","","9","","4.0","","100.19","","","","","","Fog"
"1994-09-13 08:00","1994","09","13","08:00","18.7","","16.0","","84","","34","","15","","24.1","","100.19","","","","","","Mainly Clear"
"1994-09-13 09:00","1994","09","13","09:00","19.4","","14.9","","75","","32","","17","","32.2","","100.23","","","","","","Mainly Clear"
"1994-09-13 10:00","1994","09","13","10:00","19.6","","14.9","","74","","33","","13","","40.2","","100.23","","","","","","Mostly Cloudy"
"1994-09-13 11:00","1994","09","13","11:00","20.5","","15.0","","71","","30","","9","","40.2","","100.23","","","","","","Cloudy"
"1994-09-13 12:00","1994","09","13","12:00","20.5","","15.0","","71","","30","","13","","40.2","","100.23","","","","","","Cloudy"
"1994-09-13 13:00","1994","09","13","13:00","20.4","","15.9","","75","","28","","9","","40.2","","100.13","","25","","","","Cloudy"
"1994-09-13 14:00","1994","09","13","14:00","20.0","","15.6","","76","","25","","6","","40.2","","100.06","","","","","","Cloudy"
"1994-09-13 15:00","1994","09","13","15:00","19.5","","16.5","","83","","","","0","","16.1","","99.99","","","","","","Rain Showers"
"1994-09-13 16:00","1994","09","13","16:00","18.7","","17.2","","91","","13","","4","","12.9","","99.93","","","","","","Rain"
"1994-09-13 17:00","1994","09","13","17:00","17.8","","17.5","","98","","9","","4","","2.8","","99.82","","","","","","Moderate Rain,Fog"
"1994-09-13 18:00","1994","09","13","18:00","18.4","","18.1","","98","","22","","13","","6.4","","99.79","","","","","","Rain,Fog"
"1994-09-13 19:00","1994","09","13","19:00","15.8","","15.8","","100","","2","","13","","2.0","","99.82","","","","","","Rain Showers,Fog"
"1994-09-13 20:00","1994","09","13","20:00","15.2","","15.2","","100","","6","","11","","3.6","","99.82","","","","","","Rain Showers,Fog"
"1994-09-13 21:00","1994","09","13","21:00","14.7","","14.7","","100","","4","","17","","4.8","","99.82","","","","","","Rain,Fog"
"1994-09-13 22:00","1994","09","13","22:00","14.6","","14.6","","100","","5","","15","","3.2","","99.82","","","","","","Rain,Fog"
"1994-09-13 23:00","1994","09","13","23:00","14.0","","14.0","","100","","4","","15","","6.4","","99.82","","","","","","Fog"
"1994-09-14 00:00","1994","09","14","00:00","14.0","","14.0","","100","","4","","15","","2.4","","99.89","","","","","","Drizzle,Fog"
"1994-09-14 01:00","1994","09","14","01:00","13.5","","13.5","","100","","7","","13","","4.0","","99.89","","","","","","Fog"
"1994-09-14 02:00","1994","09","14","02:00","13.5","","13.5","","100","","3","","9","","11.3","","99.89","","","","","","Cloudy"
"1994-09-14 03:00","1994","09","14","03:00","13.8","","13.7","","99","","3","","6","","12.9","","99.99","","","","","","Cloudy"
"1994-09-14 04:00","1994","09","14","04:00","13.9","","13.7","","99","","3","","7","","12.9","","99.99","","","","","","Mostly Cloudy"
"1994-09-14 05:00","1994","09","14","05:00","13.6","","13.6","","100","","32","","6","","11.3","","100.06","","","","","","Cloudy"
"1994-09-14 06:00","1994","09","14","06:00","12.9","","12.6","","98","","33","","9","","32.2","","100.19","","","","","","Mostly Cloudy"
"1994-09-14 07:00","1994","09","14","07:00","12.7","","11.2","","91","","1","","13","","32.2","","100.26","","","","","","Mostly Cloudy"
"1994-09-14 08:00","1994","09","14","08:00","12.8","","10.9","","88","","35","","11","","32.2","","100.33","","","","","","Mostly Cloudy"
"1994-09-14 09:00","1994","09","14","09:00","13.6","","10.6","","82","","36","","11","","32.2","","100.36","","","","","","Mainly Clear"
"1994-09-14 10:00","1994","09","14","10:00","16.0","","11.2","","73","","34","","9","","32.2","","100.33","","","","","","Mainly Clear"
"1994-09-14 11:00","1994","09","14","11:00","16.9","","9.3","","61","","36","","13","","32.2","","100.36","","","","","","Clear"
"1994-09-14 12:00","1994","09","14","12:00","18.4","","10.3","","59","","31","","13","","32.2","","100.33","","","","","","Clear"
"1994-09-14 13:00","1994","09","14","13:00","19.1","","11.8","","63","","34","","13","","32.2","","100.33","","","","","","Mainly Clear"
"1994-09-14 14:00","1994","09","14","14:00","19.5","","9.7","","53","","32","","15","","32.2","","100.33","","","","","","Clear"
"1994-09-14 15:00","1994","09","14","15:00","19.6","","10.6","","56","","32","","15","","32.2","","100.36","","","","","","Clear"
"1994-09-14 16:00","1994","09","14","16:00","19.5","","10.3","","55","","31","","15","","32.2","","100.36","","","","","","Clear"
"1994-09-14 17:00","1994","09","14","17:00","19.4","","10.6","","57","","31","","15","","32.2","","100.36","","","","","","Clear"
"1994-09-14 18:00","1994","09","14","18:00","18.1","","10.1","","60","","34","","13","","40.2","","100.43","","","","","","Mainly Clear"
"1994-09-14 19:00","1994","09","14","19:00","15.5","","10.5","","72","","2","","9","","32.2","","100.49","","","","","","Mainly Clear"
"1994-09-14 20:00","1994","09","14","20:00","15.5","","10.3","","71","","1","","7","","25.0","","100.53","","","","","","Mainly Clear"
"1994-09-14 21:00","1994","09","14","21:00","14.5","","10.4","","76","","36","","9","","25.0","","100.53","","","","","","Mainly Clear"
"1994-09-14 22:00","1994","09","14","22:00","13.9","","10.5","","80","","1","","9","","25.0","","100.56","","","","","","Mostly Cloudy"
"1994-09-14 23:00","1994","09","14","23:00","12.8","","10.2","","84","","","","0","","25.0","","100.56","","","","","","Mainly Clear"
"1994-09-15 00:00","1994","09","15","00:00","12.3","","10.3","","88","","32","","6","","25.0","","100.60","","","","","","Mainly Clear"
"1994-09-15 01:00","1994","09","15","01:00","11.7","","9.9","","89","","","","0","","25.0","","100.63","","","","","","Mostly Cloudy"
"1994-09-15 02:00","1994","09","15","02:00","10.8","","9.6","","92","","1","","9","","25.0","","100.63","","","","","","Mainly Clear"
"1994-09-15 03:00","1994","09","15","03:00","10.0","","8.9","","93","","3","","9","","25.0","","100.60","","","","","","Mainly Clear"
"1994-09-15 04:00","1994","09","15","04:00","9.5","","8.8","","95","","2","","7","","25.0","","100.63","","","","","","Mainly Clear"
"1994-09-15 05:00","1994","09","15","05:00","9.2","","8.7","","97","","2","","7","","25.0","","100.66","","","","","","Mainly Clear"
"1994-09-15 06:00","1994","09","15","06:00","8.4","","8.1","","98","","2","","7","","32.2","","100.66","","","","","","Mostly Cloudy"
"1994-09-15 07:00","1994","09","15","07:00","10.2","","9.0","","92","","1","","7","","32.2","","100.80","","","","","","Mostly Cloudy"
"1994-09-15 08:00","1994","09","15","08:00","13.0","","9.9","","81","","5","","7","","32.2","","100.80","","","","","","Mostly Cloudy"
"1994-09-15 09:00","1994","09","15","09:00","15.2","","11.4","","78","","10","","6","","32.2","","100.80","","","","","","Mostly Cloudy"
"1994-09-15 10:00","1994","09","15","10:00","17.1","","10.6","","66","","8","","7","","32.2","","100.73","","","","","","Mostly Cloudy"
"1994-09-15 11:00","1994","09","15","11:00","18.8","","10.0","","57","","14","","7","","32.2","","100.73","","","","","","Mostly Cloudy"
"1994-09-15 12:00","1994","09","15","12:00","20.0","","10.1","","53","","6","","4","","32.2","","100.70","","","","","","Mainly Clear"
"1994-09-15 13:00","1994","09","15","13:00","20.5","","9.4","","49","","9","","9","","32.2","","100.60","","","","","","Mainly Clear"
"1994-09-15 14:00","1994","09","15","14:00","20.8","","9.8","","49","","17","","4","","32.2","","100.53","","","","","","Mainly Clear"
"1994-09-15 15:00","1994","09","15","15:00","21.1","","9.5","","47","","12","","6","","32.2","","100.49","","","","","","Mainly Clear"
"1994-09-15 16:00","1994","09","15","16:00","20.9","","9.6","","48","","8","","11","","32.2","","100.46","","","","","","Mostly Cloudy"
"1994-09-15 17:00","1994","09","15","17:00","20.9","","10.1","","50","","7","","9","","32.2","","100.43","","","","","","Mostly Cloudy"
"1994-09-15 18:00","1994","09","15","18:00","19.7","","10.6","","56","","11","","7","","32.2","","100.43","","","","","","Mostly Cloudy"
"1994-09-15 19:00","1994","09","15","19:00","18.2","","11.1","","63","","10","","9","","25.0","","100.43","","","","","","Mostly Cloudy"
"1994-09-15 20:00","1994","09","15","20:00","17.6","","11.2","","66","","9","","6","","25.0","","100.43","","","","","","Mostly Cloudy"
"1994-09-15 21:00","1994","09","15","21:00","16.6","","10.4","","67","","11","","11","","25.0","","100.43","","","","","","Mostly Cloudy"
"1994-09-15 22:00","1994","09","15","22:00","15.1","","10.4","","73","","8","","7","","25.0","","100.39","","","","","","Mostly Cloudy"
"1994-09-15 23:00","1994","09","15","23:00","15.0","","10.3","","73","","9","","7","","25.0","","100.36","","","","","","Cloudy"
"1994-09-16 00:00","1994","09","16","00:00","14.4","","10.3","","76","","9","","9","","25.0","","100.29","","","","","","Cloudy"
"1994-09-16 01:00","1994","09","16","01:00","13.7","","10.4","","80","","8","","9","","25.0","","100.26","","","","","","Cloudy"
"1994-09-16 02:00","1994","09","16","02:00","13.3","","10.7","","84","","9","","4","","25.0","","100.26","","","","","","Cloudy"
"1994-09-16 03:00","1994","09","16","03:00","13.0","","11.3","","89","","6","","9","","19.3","","100.19","","","","","","Rain Showers"
"1994-09-16 04:00","1994","09","16","04:00","12.3","","11.5","","95","","6","","6","","8.0","","100.19","","","","","","Rain Showers,Fog"
"1994-09-16 05:00","1994","09","16","05:00","12.2","","12.2","","100","","11","","7","","9.7","","100.13","","","","","","Rain Showers,Fog"
"1994-09-16 06:00","1994","09","16","06:00","13.2","","13.2","","100","","10","","6","","4.8","","100.13","","","","","","Rain Showers,Fog"
"1994-09-16 07:00","1994","09","16","07:00","13.8","","13.8","","100","","11","","7","","4.0","","100.09","","","","","","Fog"
"1994-09-16 08:00","1994","09","16","08:00","15.1","","15.1","","100","","14","","4","","6.4","","100.09","","","","","","Fog"
"1994-09-16 09:00","1994","09","16","09:00","16.9","","16.6","","98","","20","","7","","9.7","","100.03","","","","","","Fog"
"1994-09-16 10:00","1994","09","16","10:00","18.1","","17.5","","96","","21","","13","","2.8","","99.99","","","","","","Fog"
"1994-09-16 11:00","1994","09","16","11:00","20.2","","18.6","","91","","22","","15","","9.7","","99.93","","27","","","","Fog"
"1994-09-16 12:00","1994","09","16","12:00","24.1","","19.6","","76","","21","","13","","9.7","","99.82","","31","","","","Haze"
"1994-09-16 13:00","1994","09","16","13:00","26.1","","19.3","","66","","22","","19","","9.7","","99.72","","33","","","","Haze"
"1994-09-16 14:00","1994","09","16","14:00","27.6","","18.2","","57","","24","","28","","9.7","","99.66","","34","","","","Haze"
"1994-09-16 15:00","1994","09","16","15:00","28.1","","19.0","","58","","21","","19","","9.7","","99.59","","35","","","","Haze"
"1994-09-16 16:00","1994","09","16","16:00","27.6","","18.5","","58","","22","","20","","8.0","","99.56","","34","","","","Haze"
"1994-09-16 17:00","1994","09","16","17:00","26.0","","18.0","","61","","21","","19","","8.0","","99.52","","32","","","","Haze"
"1994-09-16 18:00","1994","09","16","18:00","24.4","","18.1","","68","","20","","19","","8.0","","99.52","","30","","","","Haze"
"1994-09-16 19:00","1994","09","16","19:00","23.8","","18.0","","70","","21","","19","","9.7","","99.49","","30","","","","Haze"
"1994-09-16 20:00","1994","09","16","20:00","23.5","","17.5","","69","","21","","22","","9.7","","99.46","","29","","","","Haze"
"1994-09-16 21:00","1994","09","16","21:00","23.5","","17.2","","68","","22","","20","","12.9","","99.46","","29","","","","Cloudy"
"1994-09-16 22:00","1994","09","16","22:00","23.0","","17.0","","69","","22","","17","","12.9","","99.39","","28","","","","Cloudy"
"1994-09-16 23:00","1994","09","16","23:00","22.6","","16.8","","70","","22","","17","","12.9","","99.39","","28","","","","Cloudy"
"1994-09-17 00:00","1994","09","17","00:00","20.2","","18.0","","87","","25","","22","","9.7","","99.42","","26","","","","Rain Showers"
"1994-09-17 01:00","1994","09","17","01:00","19.3","","18.3","","94","","21","","19","","19.3","","99.29","","","","","","Cloudy"
"1994-09-17 02:00","1994","09","17","02:00","20.0","","18.1","","89","","23","","20","","9.7","","99.26","","26","","","","Fog"
"1994-09-17 03:00","1994","09","17","03:00","19.4","","18.2","","93","","22","","17","","16.1","","99.26","","","","","","Rain Showers"
"1994-09-17 04:00","1994","09","17","04:00","19.4","","18.1","","92","","22","","19","","16.1","","99.19","","","","","","Cloudy"
"1994-09-17 05:00","1994","09","17","05:00","19.2","","18.0","","93","","23","","17","","9.7","","99.15","","","","","","Fog"
"1994-09-17 06:00","1994","09","17","06:00","19.2","","17.9","","92","","23","","19","","4.0","","99.12","","","","","","Fog"
"1994-09-17 07:00","1994","09","17","07:00","19.2","","18.0","","93","","24","","17","","4.0","","99.15","","","","","","Fog"
"1994-09-17 08:00","1994","09","17","08:00","20.5","","18.0","","86","","26","","22","","6.4","","99.15","","27","","","","Haze"
"1994-09-17 09:00","1994","09","17","09:00","21.2","","16.6","","75","","27","","28","","11.3","","99.19","","26","","","","Mainly Clear"
"1994-09-17 10:00","1994","09","17","10:00","22.3","","16.1","","68","","27","","20","","24.1","","99.19","","27","","","","Mainly Clear"
"1994-09-17 11:00","1994","09","17","11:00","20.2","","15.1","","72","","33","","33","","40.2","","99.22","","","","","","Mostly Cloudy"
"1994-09-17 12:00","1994","09","17","12:00","17.3","","13.0","","76","","34","","22","","40.2","","99.29","","","","","","Rain Showers"
"1994-09-17 13:00","1994","09","17","13:00","17.3","","13.2","","77","","34","","20","","40.2","","99.32","","","","","","Rain Showers"
"1994-09-17 14:00","1994","09","17","14:00","17.5","","13.5","","77","","34","","13","","40.2","","99.29","","","","","","Mostly Cloudy"
"1994-09-17 15:00","1994","09","17","15:00","18.5","","12.5","","68","","34","","19","","40.2","","99.32","","","","","","Mostly Cloudy"
"1994-09-17 16:00","1994","09","17","16:00","19.3","","10.8","","58","","35","","19","","40.2","","99.32","","","","","","Mostly Cloudy"
"1994-09-17 17:00","1994","09","17","17:00","19.3","","9.8","","54","","34","","19","","40.2","","99.36","","","","","","Mostly Cloudy"
"1994-09-17 18:00","1994","09","17","18:00","17.5","","9.6","","60","","35","","19","","40.2","","99.42","","","","","","Mainly Clear"
"1994-09-17 19:00","1994","09","17","19:00","16.2","","9.7","","65","","34","","15","","25.0","","99.49","","","","","","Mainly Clear"
"1994-09-17 20:00","1994","09","17","20:00","15.2","","8.5","","64","","35","","19","","25.0","","99.56","","","","","","Clear"
"1994-09-17 21:00","1994","09","17","21:00","14.1","","7.4","","64","","35","","13","","25.0","","99.62","","","","","","Clear"
"1994-09-17 22:00","1994","09","17","22:00","13.0","","7.1","","67","","36","","13","","25.0","","99.72","","","","","","Clear"
"1994-09-17 23:00","1994","09","17","23:00","12.2","","6.8","","70","","35","","9","","25.0","","99.76","","","","","","Clear"
"1994-09-18 00:00","1994","09","18","00:00","11.7","","6.5","","70","","34","","11","","25.0","","99.79","","","","","","Mainly Clear"
"1994-09-18 01:00","1994","09","18","01:00","10.1","","7.1","","82","","32","","11","","25.0","","99.79","","","","","","Mainly Clear"
"1994-09-18 02:00","1994","09","18","02:00","9.9","","7.0","","82","","34","","7","","25.0","","99.82","","","","","","Mainly Clear"
"1994-09-18 03:00","1994","09","18","03:00","9.4","","6.8","","84","","34","","9","","25.0","","99.82","","","","","","Clear"
"1994-09-18 04:00","1994","09","18","04:00","8.5","","6.6","","88","","35","","7","","25.0","","99.89","","","","","","Clear"
"1994-09-18 05:00","1994","09","18","05:00","8.1","","6.6","","90","","28","","7","","25.0","","99.93","","","","","","Clear"
"1994-09-18 06:00","1994","09","18","06:00","8.5","","6.9","","90","","23","","4","","40.2","","99.99","","","","","","Mostly Cloudy"
"1994-09-18 07:00","1994","09","18","07:00","8.9","","7.8","","93","","27","","6","","40.2","","99.99","","","","","","Mostly Cloudy"
"1994-09-18 08:00","1994","09","18","08:00","10.0","","8.3","","89","","27","","6","","40.2","","99.99","","","","","","Mostly Cloudy"
"1994-09-18 09:00","1994","09","18","09:00","11.9","","5.3","","64","","32","","9","","40.2","","99.99","","","","","","Mostly Cloudy"
"1994-09-18 10:00","1994","09","18","10:00","12.2","","6.9","","70","","28","","15","","40.2","","100.03","","","","","","Mostly Cloudy"
"1994-09-18 11:00","1994","09","18","11:00","13.5","","4.8","","56","","27","","19","","40.2","","99.99","","","","","","Mostly Cloudy"
"1994-09-18 12:00","1994","09","18","12:00","14.1","","5.4","","56","","27","","15","","40.2","","99.96","","","","","","Mostly Cloudy"
"1994-09-18 13:00","1994","09","18","13:00","14.2","","5.7","","57","","27","","15","","40.2","","99.93","","","","","","Mostly Cloudy"
"1994-09-18 14:00","1994","09","18","14:00","15.0","","6.2","","56","","27","","19","","40.2","","99.89","","","","","","Mostly Cloudy"
"1994-09-18 15:00","1994","09","18","15:00","16.1","","6.7","","54","","27","","20","","40.2","","99.86","","","","","","Mostly Cloudy"
"1994-09-18 16:00","1994","09","18","16:00","16.0","","7.9","","59","","27","","19","","40.2","","99.79","","","","","","Mainly Clear"
"1994-09-18 17:00","1994","09","18","17:00","15.3","","8.2","","63","","24","","15","","40.2","","99.79","","","","","","Mostly Cloudy"
"1994-09-18 18:00","1994","09","18","18:00","14.8","","8.4","","65","","28","","9","","40.2","","99.79","","","","","","Mostly Cloudy"
"1994-09-18 19:00","1994","09","18","19:00","12.5","","10.4","","87","","25","","9","","25.0","","99.86","","","","","","Mostly Cloudy"
"1994-09-18 20:00","1994","09","18","20:00","11.8","","9.8","","88","","27","","7","","25.0","","99.89","","","","","","Mostly Cloudy"
"1994-09-18 21:00","1994","09","18","21:00","11.8","","9.8","","88","","28","","7","","25.0","","99.93","","","","","","Mainly Clear"
"1994-09-18 22:00","1994","09","18","22:00","10.9","","9.6","","92","","23","","7","","25.0","","99.93","","","","","","Mostly Cloudy"
"1994-09-18 23:00","1994","09","18","23:00","12.0","","8.4","","79","","28","","11","","25.0","","99.93","","","","","","Mostly Cloudy"
"1994-09-19 00:00","1994","09","19","00:00","11.1","","7.4","","78","","29","","11","","25.0","","99.99","","","","","","Cloudy"
"1994-09-19 01:00","1994","09","19","01:00","11.1","","6.9","","75","","28","","11","","25.0","","99.99","","","","","","Cloudy"
"1994-09-19 02:00","1994","09","19","02:00","10.7","","6.3","","74","","29","","15","","25.0","","99.99","","","","","","Cloudy"
"1994-09-19 03:00","1994","09","19","03:00","10.1","","4.7","","69","","30","","13","","25.0","","99.99","","","","","","Mostly Cloudy"
"1994-09-19 04:00","1994","09","19","04:00","9.2","","5.8","","79","","28","","13","","25.0","","100.09","","","","","","Mainly Clear"
"1994-09-19 05:00","1994","09","19","05:00","8.6","","6.3","","85","","26","","11","","25.0","","100.13","","","","","","Mainly Clear"
"1994-09-19 06:00","1994","09","19","06:00","7.1","","5.8","","91","","26","","7","","40.2","","100.19","","","","","","Clear"
"1994-09-19 07:00","1994","09","19","07:00","8.5","","6.4","","87","","26","","13","","40.2","","100.23","","","","","","Clear"
"1994-09-19 08:00","1994","09","19","08:00","10.1","","6.7","","79","","29","","22","","40.2","","100.23","","","","","","Clear"
"1994-09-19 09:00","1994","09","19","09:00","11.4","","6.8","","73","","29","","24","","40.2","","100.26","","","","","","Clear"
"1994-09-19 10:00","1994","09","19","10:00","12.7","","6.0","","64","","28","","32","","40.2","","100.26","","","","","","Mainly Clear"
"1994-09-19 11:00","1994","09","19","11:00","14.1","","5.7","","57","","28","","30","","40.2","","100.23","","","","","","Mainly Clear"
"1994-09-19 12:00","1994","09","19","12:00","15.1","","5.0","","51","","30","","30","","40.2","","100.23","","","","","","Mainly Clear"
"1994-09-19 13:00","1994","09","19","13:00","15.8","","5.5","","50","","29","","22","","40.2","","100.19","","","","","","Mostly Cloudy"
"1994-09-19 14:00","1994","09","19","14:00","16.5","","5.7","","49","","29","","33","","40.2","","100.16","","","","","","Mostly Cloudy"
"1994-09-19 15:00","1994","09","19","15:00","17.2","","6.2","","48","","27","","22","","40.2","","100.16","","","","","","Mainly Clear"
"1994-09-19 16:00","1994","09","19","16:00","18.0","","6.6","","47","","27","","19","","40.2","","100.19","","","","","","Mostly Cloudy"
"1994-09-19 17:00","1994","09","19","17:00","17.8","","7.1","","49","","25","","9","","40.2","","100.19","","","","","","Mainly Clear"
"1994-09-19 18:00","1994","09","19","18:00","16.6","","8.2","","58","","24","","7","","40.2","","100.23","","","","","","Mainly Clear"
"1994-09-19 19:00","1994","09","19","19:00","14.9","","8.4","","65","","22","","7","","25.0","","100.26","","","","","","Mainly Clear"
"1994-09-19 20:00","1994","09","19","20:00","14.1","","8.3","","68","","20","","7","","25.0","","100.29","","","","","","Clear"
"1994-09-19 21:00","1994","09","19","21:00","13.8","","8.1","","68","","19","","7","","25.0","","100.29","","","","","","Clear"
"1994-09-19 22:00","1994","09","19","22:00","12.9","","9.0","","77","","22","","11","","25.0","","100.29","","","","","","Clear"
"1994-09-19 23:00","1994","09","19","23:00","11.7","","9.3","","85","","20","","9","","25.0","","100.29","","","","","","Clear"
"1994-09-20 00:00","1994","09","20","00:00","11.7","","9.6","","87","","20","","9","","24.1","","100.33","","","","","","Clear"
"1994-09-20 01:00","1994","09","20","01:00","11.3","","9.9","","91","","22","","13","","24.1","","100.33","","","","","","Clear"
"1994-09-20 02:00","1994","09","20","02:00","11.1","","10.0","","93","","23","","13","","24.1","","100.33","","","","","","Clear"
"1994-09-20 03:00","1994","09","20","03:00","10.7","","9.9","","95","","22","","11","","24.1","","100.36","","","","","","Clear"
"1994-09-20 04:00","1994","09","20","04:00","10.2","","9.7","","97","","21","","9","","24.1","","100.39","","","","","","Clear"
"1994-09-20 05:00","1994","09","20","05:00","10.2","","9.7","","97","","21","","9","","24.1","","100.39","","","","","","Clear"
"1994-09-20 06:00","1994","09","20","06:00","10.2","","9.7","","97","","21","","11","","40.2","","100.43","","","","","","Mainly Clear"
"1994-09-20 07:00","1994","09","20","07:00","11.3","","10.4","","94","","21","","11","","40.2","","100.49","","","","","","Mainly Clear"
"1994-09-20 08:00","1994","09","20","08:00","13.4","","11.5","","88","","22","","15","","32.2","","100.49","","","","","","Mainly Clear"
"1994-09-20 09:00","1994","09","20","09:00","15.6","","11.9","","79","","23","","17","","40.2","","100.53","","","","","","Clear"
"1994-09-20 10:00","1994","09","20","10:00","18.4","","12.7","","69","","22","","11","","40.2","","100.49","","","","","","Mainly Clear"
"1994-09-20 11:00","1994","09","20","11:00","21.5","","13.1","","59","","23","","19","","40.2","","100.43","","","","","","Mainly Clear"
"1994-09-20 12:00","1994","09","20","12:00","23.4","","13.1","","52","","23","","19","","40.2","","100.39","","26","","","","Mainly Clear"
"1994-09-20 13:00","1994","09","20","13:00","24.8","","12.9","","48","","24","","19","","40.2","","100.39","","28","","","","Mainly Clear"
"1994-09-20 14:00","1994","09","20","14:00","25.0","","12.7","","46","","23","","17","","40.2","","100.36","","28","","","","Mainly Clear"
"1994-09-20 15:00","1994","09","20","15:00","25.0","","12.3","","45","","25","","19","","32.2","","100.33","","27","","","","Mostly Cloudy"
"1994-09-20 16:00","1994","09","20","16:00","24.7","","12.0","","45","","25","","22","","32.2","","100.33","","27","","","","Mainly Clear"
"1994-09-20 17:00","1994","09","20","17:00","23.9","","12.5","","49","","22","","13","","32.2","","100.33","","26","","","","Mainly Clear"
"1994-09-20 18:00","1994","09","20","18:00","21.9","","12.5","","55","","22","","9","","32.2","","100.36","","","","","","Mainly Clear"
"1994-09-20 19:00","1994","09","20","19:00","20.3","","11.9","","58","","19","","13","","24.1","","100.39","","","","","","Mainly Clear"
"1994-09-20 20:00","1994","09","20","20:00","18.1","","12.2","","68","","21","","9","","24.1","","100.43","","","","","","Clear"
"1994-09-20 21:00","1994","09","20","21:00","16.9","","12.1","","73","","21","","7","","24.1","","100.49","","","","","","Clear"
"1994-09-20 22:00","1994","09","20","22:00","16.6","","12.0","","74","","23","","13","","25.0","","100.49","","","","","","Clear"
"1994-09-20 23:00","1994","09","20","23:00","14.5","","11.8","","84","","24","","9","","25.0","","100.53","","","","","","Clear"
"1994-09-21 00:00","1994","09","21","00:00","14.8","","12.0","","83","","","","0","","24.1","","100.60","","","","","","Clear"
"1994-09-21 01:00","1994","09","21","01:00","14.7","","12.3","","86","","21","","7","","24.1","","100.60","","","","","","Clear"
"1994-09-21 02:00","1994","09","21","02:00","14.1","","12.4","","89","","20","","7","","24.1","","100.60","","","","","","Clear"
"1994-09-21 03:00","1994","09","21","03:00","13.5","","12.3","","92","","22","","7","","24.1","","100.63","","","","","","Clear"
"1994-09-21 04:00","1994","09","21","04:00","13.1","","12.2","","94","","21","","4","","24.1","","100.66","","","","","","Clear"
"1994-09-21 05:00","1994","09","21","05:00","12.7","","11.8","","94","","23","","4","","24.1","","100.70","","","","","","Clear"
"1994-09-21 06:00","1994","09","21","06:00","12.0","","10.8","","92","","1","","4","","24.1","","100.73","","","","","","Mainly Clear"
"1994-09-21 07:00","1994","09","21","07:00","13.1","","12.4","","96","","4","","6","","24.1","","100.80","","","","","","Mainly Clear"
"1994-09-21 08:00","1994","09","21","08:00","15.2","","13.4","","89","","7","","13","","24.1","","100.83","","","","","","Mainly Clear"
"1994-09-21 09:00","1994","09","21","09:00","16.6","","13.6","","82","","8","","9","","24.1","","100.90","","","","","","Mainly Clear"
"1994-09-21 10:00","1994","09","21","10:00","18.1","","13.9","","76","","7","","11","","32.2","","100.90","","","","","","Mostly Cloudy"
"1994-09-21 11:00","1994","09","21","11:00","19.8","","15.0","","74","","7","","7","","24.1","","100.90","","","","","","Mainly Clear"
"1994-09-21 12:00","1994","09","21","12:00","21.4","","15.5","","69","","12","","7","","24.1","","100.86","","26","","","","Mainly Clear"
"1994-09-21 13:00","1994","09","21","13:00","22.5","","15.6","","65","","12","","6","","24.1","","100.83","","27","","","","Mostly Cloudy"
"1994-09-21 14:00","1994","09","21","14:00","23.9","","15.9","","61","","11","","9","","24.1","","100.80","","28","","","","Mostly Cloudy"
"1994-09-21 15:00","1994","09","21","15:00","23.9","","15.7","","60","","7","","11","","24.1","","100.76","","28","","","","Mostly Cloudy"
"1994-09-21 16:00","1994","09","21","16:00","23.6","","15.8","","62","","8","","13","","24.1","","100.73","","28","","","","Mainly Clear"
"1994-09-21 17:00","1994","09","21","17:00","23.3","","15.7","","62","","8","","11","","24.1","","100.73","","28","","","","Mainly Clear"
"1994-09-21 18:00","1994","09","21","18:00","20.7","","16.6","","77","","7","","13","","16.1","","100.76","","26","","","","Mainly Clear"
"1994-09-21 19:00","1994","09","21","19:00","19.0","","15.6","","81","","9","","17","","16.1","","100.76","","","","","","Mainly Clear"
"1994-09-21 20:00","1994","09","21","20:00","17.8","","14.4","","80","","9","","15","","16.1","","100.83","","","","","","Clear"
"1994-09-21 21:00","1994","09","21","21:00","16.8","","13.4","","80","","8","","15","","19.3","","100.83","","","","","","Clear"
"1994-09-21 22:00","1994","09","21","22:00","15.8","","12.2","","79","","8","","17","","24.1","","100.86","","","","","","Clear"
"1994-09-21 23:00","1994","09","21","23:00","14.9","","11.7","","81","","7","","15","","24.1","","100.83","","","","","","Mostly Cloudy"
"1994-09-22 00:00","1994","09","22","00:00","13.9","","11.2","","84","","6","","13","","24.1","","100.83","","","","","","Mainly Clear"
"1994-09-22 01:00","1994","09","22","01:00","13.1","","10.1","","82","","7","","13","","24.1","","100.83","","","","","","Clear"
"1994-09-22 02:00","1994","09","22","02:00","12.4","","9.6","","83","","7","","11","","24.1","","100.83","","","","","","Clear"
"1994-09-22 03:00","1994","09","22","03:00","11.7","","9.3","","85","","6","","11","","24.1","","100.83","","","","","","Mainly Clear"
"1994-09-22 04:00","1994","09","22","04:00","11.1","","9.0","","87","","7","","11","","24.1","","100.83","","","","","","Mainly Clear"
"1994-09-22 05:00","1994","09","22","05:00","10.5","","8.9","","90","","6","","13","","24.1","","100.86","","","","","","Mainly Clear"
"1994-09-22 06:00","1994","09","22","06:00","10.2","","9.0","","92","","7","","11","","32.2","","100.90","","","","","","Mostly Cloudy"
"1994-09-22 07:00","1994","09","22","07:00","11.1","","9.3","","89","","8","","13","","32.2","","100.93","","","","","","Mostly Cloudy"
"1994-09-22 08:00","1994","09","22","08:00","12.2","","9.9","","86","","9","","13","","32.2","","100.93","","","","","","Mostly Cloudy"
"1994-09-22 09:00","1994","09","22","09:00","15.6","","11.4","","76","","9","","9","","32.2","","100.93","","","","","","Mostly Cloudy"
"1994-09-22 10:00","1994","09","22","10:00","17.8","","13.2","","74","","11","","13","","32.2","","100.90","","","","","","Mostly Cloudy"
"1994-09-22 11:00","1994","09","22","11:00","21.0","","14.3","","66","","12","","13","","24.1","","100.90","","25","","","","Mostly Cloudy"
"1994-09-22 12:00","1994","09","22","12:00","23.4","","13.1","","52","","16","","15","","24.1","","100.86","","26","","","","Cloudy"
"1994-09-22 13:00","1994","09","22","13:00","24.0","","11.6","","46","","19","","24","","32.2","","100.83","","26","","","","Cloudy"
"1994-09-22 14:00","1994","09","22","14:00","23.8","","11.9","","47","","16","","19","","32.2","","100.80","","26","","","","Cloudy"
"1994-09-22 15:00","1994","09","22","15:00","25.0","","12.3","","45","","20","","17","","32.2","","100.80","","27","","","","Mostly Cloudy"
"1994-09-22 16:00","1994","09","22","16:00","23.7","","13.3","","52","","13","","11","","32.2","","100.73","","27","","","","Cloudy"
"1994-09-22 17:00","1994","09","22","17:00","22.4","","13.6","","57","","14","","7","","32.2","","100.73","","26","","","","Cloudy"
"1994-09-22 18:00","1994","09","22","18:00","21.2","","14.5","","66","","12","","9","","24.1","","100.73","","25","","","","Cloudy"
"1994-09-22 19:00","1994","09","22","19:00","20.4","","14.6","","69","","17","","11","","24.1","","100.73","","","","","","Cloudy"
"1994-09-22 20:00","1994","09","22","20:00","18.5","","14.6","","78","","11","","6","","24.1","","100.76","","","","","","Cloudy"
"1994-09-22 21:00","1994","09","22","21:00","17.5","","13.6","","78","","13","","6","","24.1","","100.76","","","","","","Cloudy"
"1994-09-22 22:00","1994","09","22","22:00","16.7","","12.9","","78","","14","","9","","24.1","","100.73","","","","","","Mostly Cloudy"
"1994-09-22 23:00","1994","09","22","23:00","16.2","","12.2","","77","","12","","9","","24.1","","100.76","","","","","","Mostly Cloudy"
"1994-09-23 00:00","1994","09","23","00:00","14.4","","12.8","","90","","5","","9","","24.1","","100.73","","","","","","Cloudy"
"1994-09-23 01:00","1994","09","23","01:00","13.7","","13.1","","96","","7","","11","","19.3","","100.73","","","","","","Mostly Cloudy"
"1994-09-23 02:00","1994","09","23","02:00","13.2","","12.6","","96","","7","","11","","19.3","","100.70","","","","","","Cloudy"
"1994-09-23 03:00","1994","09","23","03:00","12.4","","11.8","","96","","5","","9","","19.3","","100.70","","","","","","Mostly Cloudy"
"1994-09-23 04:00","1994","09","23","04:00","12.6","","11.4","","92","","6","","11","","19.3","","100.70","","","","","","Mostly Cloudy"
"1994-09-23 05:00","1994","09","23","05:00","12.0","","11.0","","94","","5","","15","","24.1","","100.66","","","","","","Mostly Cloudy"
"1994-09-23 06:00","1994","09","23","06:00","12.0","","10.0","","88","","6","","15","","32.2","","100.66","","","","","","Cloudy"
"1994-09-23 07:00","1994","09","23","07:00","12.0","","9.5","","85","","6","","15","","40.2","","100.70","","","","","","Cloudy"
"1994-09-23 08:00","1994","09","23","08:00","12.5","","8.7","","78","","7","","20","","40.2","","100.70","","","","","","Cloudy"
"1994-09-23 09:00","1994","09","23","09:00","13.2","","9.3","","77","","6","","20","","40.2","","100.73","","","","","","Cloudy"
"1994-09-23 10:00","1994","09","23","10:00","14.7","","10.3","","75","","5","","20","","40.2","","100.70","","","","","","Rain"
"1994-09-23 11:00","1994","09","23","11:00","15.0","","10.6","","75","","8","","24","","40.2","","100.70","","","","","","Cloudy"
"1994-09-23 12:00","1994","09","23","12:00","16.2","","11.7","","75","","9","","22","","40.2","","100.66","","","","","","Cloudy"
"1994-09-23 13:00","1994","09","23","13:00","17.1","","12.5","","74","","8","","22","","32.2","","100.60","","","","","","Rain"
"1994-09-23 14:00","1994","09","23","14:00","17.3","","12.1","","71","","8","","19","","32.2","","100.53","","","","","","Rain"
"1994-09-23 15:00","1994","09","23","15:00","17.8","","11.8","","68","","5","","20","","32.2","","100.53","","","","","","Cloudy"
"1994-09-23 16:00","1994","09","23","16:00","16.9","","11.5","","70","","6","","20","","32.2","","100.49","","","","","","Cloudy"
"1994-09-23 17:00","1994","09","23","17:00","16.1","","11.7","","75","","8","","17","","32.2","","100.53","","","","","","Mostly Cloudy"
"1994-09-23 18:00","1994","09","23","18:00","15.0","","11.8","","81","","8","","20","","32.2","","100.53","","","","","","Mostly Cloudy"
"1994-09-23 19:00","1994","09","23","19:00","14.0","","12.4","","90","","6","","20","","24.1","","100.53","","","","","","Cloudy"
"1994-09-23 20:00","1994","09","23","20:00","14.1","","12.6","","91","","6","","17","","19.3","","100.53","","","","","","Cloudy"
"1994-09-23 21:00","1994","09","23","21:00","13.9","","12.6","","92","","6","","20","","19.3","","100.46","","","","","","Mostly Cloudy"
"1994-09-23 22:00","1994","09","23","22:00","13.4","","12.2","","92","","7","","15","","24.1","","100.46","","","","","","Mainly Clear"
"1994-09-23 23:00","1994","09","23","23:00","13.4","","12.1","","92","","8","","11","","24.1","","100.49","","","","","","Cloudy"
"1994-09-24 00:00","1994","09","24","00:00","13.3","","12.3","","94","","5","","13","","19.3","","100.46","","","","","","Cloudy"
"1994-09-24 01:00","1994","09","24","01:00","12.8","","12.4","","97","","5","","7","","19.3","","100.46","","","","","","Mainly Clear"
"1994-09-24 02:00","1994","09","24","02:00","12.6","","12.3","","98","","6","","9","","24.1","","100.49","","","","","","Mostly Cloudy"
"1994-09-24 03:00","1994","09","24","03:00","13.2","","12.5","","96","","4","","6","","24.1","","100.49","","","","","","Mostly Cloudy"
"1994-09-24 04:00","1994","09","24","04:00","13.7","","12.2","","91","","2","","11","","24.1","","100.49","","","","","","Mostly Cloudy"
"1994-09-24 05:00","1994","09","24","05:00","13.0","","11.7","","92","","2","","13","","24.1","","100.49","","","","","","Mainly Clear"
"1994-09-24 06:00","1994","09","24","06:00","12.4","","11.5","","94","","2","","11","","32.2","","100.49","","","","","","Mainly Clear"
"1994-09-24 07:00","1994","09","24","07:00","13.3","","11.8","","91","","3","","7","","40.2","","100.53","","","","","","Mainly Clear"
"1994-09-24 08:00","1994","09","24","08:00","14.2","","12.3","","88","","6","","7","","40.2","","100.60","","","","","","Cloudy"
"1994-09-24 09:00","1994","09","24","09:00","14.5","","12.3","","87","","6","","6","","40.2","","100.56","","","","","","Cloudy"
"1994-09-24 10:00","1994","09","24","10:00","15.9","","13.1","","83","","5","","15","","40.2","","100.49","","","","","","Cloudy"
"1994-09-24 11:00","1994","09","24","11:00","16.3","","13.2","","82","","7","","11","","40.2","","100.49","","","","","","Cloudy"
"1994-09-24 12:00","1994","09","24","12:00","17.9","","14.6","","81","","6","","13","","40.2","","100.46","","","","","","Cloudy"
"1994-09-24 13:00","1994","09","24","13:00","17.6","","13.9","","79","","7","","11","","40.2","","100.46","","","","","","Cloudy"
"1994-09-24 14:00","1994","09","24","14:00","17.5","","14.1","","80","","9","","9","","40.2","","100.46","","","","","","Cloudy"
"1994-09-24 15:00","1994","09","24","15:00","17.6","","14.4","","82","","7","","7","","40.2","","100.46","","","","","","Cloudy"
"1994-09-24 16:00","1994","09","24","16:00","18.7","","14.8","","78","","7","","9","","40.2","","100.39","","","","","","Cloudy"
"1994-09-24 17:00","1994","09","24","17:00","18.1","","14.7","","81","","12","","4","","40.2","","100.43","","","","","","Cloudy"
"1994-09-24 18:00","1994","09","24","18:00","17.8","","14.8","","83","","8","","4","","40.2","","100.39","","","","","","Cloudy"
"1994-09-24 19:00","1994","09","24","19:00","17.3","","14.9","","86","","","","0","","25.0","","100.43","","","","","","Cloudy"
"1994-09-24 20:00","1994","09","24","20:00","17.0","","15.0","","88","","","","0","","24.1","","100.39","","","","","","Cloudy"
"1994-09-24 21:00","1994","09","24","21:00","16.5","","15.3","","93","","1","","6","","19.3","","100.39","","","","","","Mostly Cloudy"
"1994-09-24 22:00","1994","09","24","22:00","16.1","","15.7","","97","","3","","6","","8.0","","100.36","","","","","","Fog"
"1994-09-24 23:00","1994","09","24","23:00","16.0","","15.9","","99","","36","","6","","4.8","","100.36","","","","","","Fog"
"1994-09-25 00:00","1994","09","25","00:00","15.9","","15.8","","99","","35","","6","","4.0","","100.33","","","","","","Fog"
"1994-09-25 01:00","1994","09","25","01:00","15.9","","15.8","","99","","","","0","","4.0","","100.33","","","","","","Fog"
"1994-09-25 02:00","1994","09","25","02:00","15.9","","15.8","","99","","","","0","","4.0","","100.29","","","","","","Drizzle,Fog"
"1994-09-25 03:00","1994","09","25","03:00","15.9","","15.8","","99","","","","0","","4.0","","100.26","","","","","","Fog"
"1994-09-25 04:00","1994","09","25","04:00","15.7","","15.5","","99","","","","0","","6.4","","100.26","","","","","","Fog"
"1994-09-25 05:00","1994","09","25","05:00","15.5","","15.4","","99","","7","","2","","4.8","","100.26","","","","","","Drizzle,Fog"
"1994-09-25 06:00","1994","09","25","06:00","15.2","","15.2","","100","","5","","6","","4.8","","100.23","","","","","","Fog"
"1994-09-25 07:00","1994","09","25","07:00","15.6","","15.6","","100","","9","","6","","4.8","","100.23","","","","","","Fog"
"1994-09-25 08:00","1994","09","25","08:00","15.9","","15.7","","99","","9","","6","","6.4","","100.23","","","","","","Fog"
"1994-09-25 09:00","1994","09","25","09:00","16.2","","15.8","","97","","11","","6","","4.8","","100.23","","","","","","Fog"
"1994-09-25 10:00","1994","09","25","10:00","16.5","","15.8","","96","","","","0","","4.8","","100.23","","","","","","Fog"
"1994-09-25 11:00","1994","09","25","11:00","17.4","","15.9","","91","","8","","7","","8.0","","100.16","","","","","","Fog"
"1994-09-25 12:00","1994","09","25","12:00","17.5","","15.7","","89","","9","","7","","6.4","","100.13","","","","","","Fog"
"1994-09-25 13:00","1994","09","25","13:00","17.0","","16.6","","97","","12","","6","","3.2","","100.09","","","","","","Drizzle,Fog"
"1994-09-25 14:00","1994","09","25","14:00","18.2","","16.5","","90","","8","","4","","24.1","","100.03","","","","","","Cloudy"
"1994-09-25 15:00","1994","09","25","15:00","18.8","","16.1","","84","","9","","7","","19.3","","99.99","","","","","","Cloudy"
"1994-09-25 16:00","1994","09","25","16:00","18.6","","15.8","","84","","10","","9","","19.3","","99.96","","","","","","Cloudy"
"1994-09-25 17:00","1994","09","25","17:00","18.3","","16.0","","86","","9","","9","","24.1","","99.96","","","","","","Cloudy"
"1994-09-25 18:00","1994","09","25","18:00","17.7","","16.4","","92","","10","","6","","19.3","","99.93","","","","","","Mostly Cloudy"
"1994-09-25 19:00","1994","09","25","19:00","17.2","","16.0","","93","","7","","6","","9.7","","99.99","","","","","","Fog"
"1994-09-25 20:00","1994","09","25","20:00","16.7","","15.8","","94","","7","","6","","6.4","","99.99","","","","","","Fog"
"1994-09-25 21:00","1994","09","25","21:00","16.4","","15.6","","95","","7","","6","","8.0","","99.99","","","","","","Fog"
"1994-09-25 22:00","1994","09","25","22:00","15.9","","15.4","","97","","7","","9","","8.0","","99.96","","","","","","Fog"
"1994-09-25 23:00","1994","09","25","23:00","15.9","","15.7","","99","","6","","9","","6.4","","99.96","","","","","","Fog"
"1994-09-26 00:00","1994","09","26","00:00","16.0","","15.6","","97","","7","","15","","4.8","","99.93","","","","","","Fog"
"1994-09-26 01:00","1994","09","26","01:00","15.9","","15.5","","97","","7","","15","","6.4","","99.89","","","","","","Fog"
"1994-09-26 02:00","1994","09","26","02:00","15.9","","15.5","","97","","8","","15","","6.4","","99.89","","","","","","Fog"
"1994-09-26 03:00","1994","09","26","03:00","15.7","","15.5","","99","","8","","17","","6.4","","99.86","","","","","","Fog"
"1994-09-26 04:00","1994","09","26","04:00","15.7","","15.6","","99","","9","","17","","4.8","","99.79","","","","","","Fog"
"1994-09-26 05:00","1994","09","26","05:00","15.7","","15.5","","99","","7","","19","","4.8","","99.79","","","","","","Fog"
"1994-09-26 06:00","1994","09","26","06:00","15.9","","15.6","","98","","8","","17","","4.8","","99.82","","","","","","Thunderstorms,Fog"
"1994-09-26 07:00","1994","09","26","07:00","16.6","","16.4","","99","","9","","9","","8.0","","99.82","","","","","","Thunderstorms,Rain Showers,Fog"
"1994-09-26 08:00","1994","09","26","08:00","16.3","","15.9","","97","","9","","20","","6.4","","99.79","","","","","","Fog"
"1994-09-26 09:00","1994","09","26","09:00","16.5","","16.1","","97","","10","","22","","6.4","","99.82","","","","","","Fog"
"1994-09-26 10:00","1994","09","26","10:00","16.9","","16.4","","97","","10","","17","","4.8","","99.82","","","","","","Fog"
"1994-09-26 11:00","1994","09","26","11:00","17.1","","16.5","","96","","10","","13","","4.8","","99.82","","","","","","Rain Showers,Fog"
"1994-09-26 12:00","1994","09","26","12:00","16.9","","16.9","","100","","11","","11","","1.2","","99.82","","","","","","Rain Showers,Fog"
"1994-09-26 13:00","1994","09","26","13:00","17.1","","17.1","","100","","9","","11","","1.6","","99.82","","","","","","Rain Showers,Fog"
"1994-09-26 14:00","1994","09","26","14:00","17.9","","17.7","","99","","9","","15","","3.2","","99.76","","","","","","Rain Showers,Fog"
"1994-09-26 15:00","1994","09","26","15:00","18.5","","18.0","","97","","9","","13","","4.8","","99.72","","","","","","Fog"
"1994-09-26 16:00","1994","09","26","16:00","19.6","","19.0","","96","","10","","15","","6.4","","99.72","","","","","","Fog"
"1994-09-26 17:00","1994","09","26","17:00","19.0","","18.4","","96","","9","","15","","6.4","","99.72","","","","","","Fog"
"1994-09-26 18:00","1994","09","26","18:00","18.6","","18.1","","97","","9","","17","","4.8","","99.72","","","","","","Fog"
"1994-09-26 19:00","1994","09","26","19:00","18.2","","17.8","","98","","9","","17","","4.8","","99.72","","","","","","Fog"
"1994-09-26 20:00","1994","09","26","20:00","18.0","","17.8","","99","","10","","17","","4.8","","99.72","","","","","","Fog"
"1994-09-26 21:00","1994","09","26","21:00","17.8","","17.8","","100","","9","","17","","4.8","","99.69","","","","","","Fog"
"1994-09-26 22:00","1994","09","26","22:00","17.6","","17.5","","99","","9","","11","","6.4","","99.72","","","","","","Fog"
"1994-09-26 23:00","1994","09","26","23:00","17.3","","17.3","","100","","10","","11","","6.4","","99.72","","","","","","Rain Showers,Fog"
"1994-09-27 00:00","1994","09","27","00:00","17.3","","17.3","","100","","9","","11","","6.4","","99.72","","","","","","Fog"
"1994-09-27 01:00","1994","09","27","01:00","17.6","","17.4","","99","","11","","13","","6.4","","99.69","","","","","","Rain Showers,Fog"
"1994-09-27 02:00","1994","09","27","02:00","17.5","","17.4","","99","","11","","11","","6.4","","99.66","","","","","","Rain Showers,Fog"
"1994-09-27 03:00","1994","09","27","03:00","17.4","","17.2","","99","","12","","13","","6.4","","99.62","","","","","","Rain,Fog"
"1994-09-27 04:00","1994","09","27","04:00","17.0","","17.0","","100","","12","","13","","9.7","","99.56","","","","","","Rain,Fog"
"1994-09-27 05:00","1994","09","27","05:00","16.9","","16.8","","99","","11","","13","","9.7","","99.52","","","","","","Fog"
"1994-09-27 06:00","1994","09","27","06:00","16.7","","16.7","","100","","9","","13","","4.8","","99.52","","","","","","Fog"
"1994-09-27 07:00","1994","09","27","07:00","16.8","","16.6","","99","","13","","17","","4.0","","99.52","","","","","","Rain,Fog"
"1994-09-27 08:00","1994","09","27","08:00","16.8","","16.6","","99","","12","","11","","4.8","","99.46","","","","","","Rain,Fog"
"1994-09-27 09:00","1994","09","27","09:00","17.2","","16.9","","98","","12","","13","","9.7","","99.39","","","","","","Fog"
"1994-09-27 10:00","1994","09","27","10:00","19.0","","16.8","","87","","13","","20","","12.9","","99.32","","","","","","Mostly Cloudy"
"1994-09-27 11:00","1994","09","27","11:00","19.4","","16.9","","85","","12","","15","","19.3","","99.29","","","","","","Mostly Cloudy"
"1994-09-27 12:00","1994","09","27","12:00","19.5","","16.8","","84","","12","","17","","19.3","","99.22","","","","","","Cloudy"
"1994-09-27 13:00","1994","09","27","13:00","19.2","","17.5","","90","","10","","15","","19.3","","99.12","","","","","","Cloudy"
"1994-09-27 14:00","1994","09","27","14:00","21.4","","17.6","","79","","12","","13","","19.3","","99.05","","27","","","","Mostly Cloudy"
"1994-09-27 15:00","1994","09","27","15:00","22.6","","15.8","","65","","17","","19","","19.3","","99.02","","27","","","","Mostly Cloudy"
"1994-09-27 16:00","1994","09","27","16:00","21.3","","16.3","","73","","15","","11","","24.1","","98.99","","26","","","","Mostly Cloudy"
"1994-09-27 17:00","1994","09","27","17:00","20.4","","17.0","","81","","14","","6","","24.1","","98.95","","26","","","","Cloudy"
"1994-09-27 18:00","1994","09","27","18:00","17.5","","15.5","","88","","12","","19","","16.1","","99.05","","","","","","Thunderstorms,Rain Showers"
"1994-09-27 19:00","1994","09","27","19:00","17.0","","16.5","","97","","14","","13","","8.0","","99.05","","","","","","Thunderstorms,Moderate Rain Showers"
"1994-09-27 20:00","1994","09","27","20:00","16.2","","16.0","","99","","17","","9","","16.1","","99.09","","","","","","Cloudy"
"1994-09-27 21:00","1994","09","27","21:00","16.0","","15.5","","97","","16","","20","","16.1","","99.05","","","","","","Cloudy"
"1994-09-27 22:00","1994","09","27","22:00","15.6","","15.3","","98","","18","","11","","9.7","","98.99","","","","","","Fog"
"1994-09-27 23:00","1994","09","27","23:00","15.1","","14.9","","99","","16","","9","","24.1","","98.99","","","","","","Mainly Clear"
"1994-09-28 00:00","1994","09","28","00:00","14.4","","14.4","","100","","19","","11","","24.1","","99.02","","","","","","Clear"
"1994-09-28 01:00","1994","09","28","01:00","13.4","","13.0","","97","","19","","13","","24.1","","99.05","","","","","","Mainly Clear"
"1994-09-28 02:00","1994","09","28","02:00","12.5","","12.4","","99","","16","","9","","24.1","","99.02","","","","","","Mainly Clear"
"1994-09-28 03:00","1994","09","28","03:00","11.3","","11.2","","99","","15","","11","","12.9","","99.02","","","","","","Mainly Clear"
"1994-09-28 04:00","1994","09","28","04:00","11.3","","11.1","","99","","15","","15","","12.9","","99.02","","","","","","Mainly Clear"
"1994-09-28 05:00","1994","09","28","05:00","11.7","","11.7","","100","","16","","15","","12.9","","99.02","","","","","","Clear"
"1994-09-28 06:00","1994","09","28","06:00","11.8","","11.7","","99","","16","","11","","6.4","","99.09","","","","","","Fog"
"1994-09-28 07:00","1994","09","28","07:00","12.1","","12.1","","100","","15","","11","","4.8","","99.09","","","","","","Fog"
"1994-09-28 08:00","1994","09","28","08:00","13.6","","12.9","","96","","17","","19","","9.7","","99.09","","","","","","Fog"
"1994-09-28 09:00","1994","09","28","09:00","14.8","","13.0","","89","","19","","15","","12.9","","99.09","","","","","","Cloudy"
"1994-09-28 10:00","1994","09","28","10:00","14.5","","12.6","","88","","17","","17","","14.5","","99.05","","","","","","Cloudy"
"1994-09-28 11:00","1994","09","28","11:00","14.6","","12.2","","86","","16","","17","","16.1","","98.99","","","","","","Cloudy"
"1994-09-28 12:00","1994","09","28","12:00","14.5","","11.5","","82","","17","","22","","16.1","","98.99","","","","","","Cloudy"
"1994-09-28 13:00","1994","09","28","13:00","14.8","","12.1","","84","","19","","24","","14.5","","98.92","","","","","","Rain Showers"
"1994-09-28 14:00","1994","09","28","14:00","14.5","","12.4","","87","","19","","17","","16.1","","98.89","","","","","","Cloudy"
"1994-09-28 15:00","1994","09","28","15:00","13.8","","12.8","","94","","19","","15","","12.9","","98.89","","","","","","Rain Showers"
"1994-09-28 16:00","1994","09","28","16:00","13.0","","12.2","","95","","19","","13","","12.9","","98.89","","","","","","Rain"
"1994-09-28 17:00","1994","09","28","17:00","12.7","","12.6","","99","","17","","9","","8.0","","98.85","","","","","","Rain,Fog"
"1994-09-28 18:00","1994","09","28","18:00","12.5","","11.9","","96","","19","","9","","9.7","","98.85","","","","","","Rain,Fog"
"1994-09-28 19:00","1994","09","28","19:00","12.0","","12.0","","100","","14","","6","","8.0","","98.79","","","","","","Rain,Fog"
"1994-09-28 20:00","1994","09","28","20:00","11.9","","11.9","","100","","14","","7","","6.4","","98.75","","","","","","Rain,Fog"
"1994-09-28 21:00","1994","09","28","21:00","11.6","","11.6","","100","","14","","9","","4.8","","98.72","","","","","","Fog"
"1994-09-28 22:00","1994","09","28","22:00","11.3","","11.3","","100","","15","","9","","8.0","","98.69","","","","","","Fog"
"1994-09-28 23:00","1994","09","28","23:00","11.2","","11.0","","99","","18","","4","","8.0","","98.62","","","","","","Fog"
"1994-09-29 00:00","1994","09","29","00:00","10.7","","10.6","","99","","19","","11","","9.7","","98.59","","","","","","Fog"
"1994-09-29 01:00","1994","09","29","01:00","9.9","","9.9","","100","","18","","11","","8.0","","98.55","","","","","","Fog"
"1994-09-29 02:00","1994","09","29","02:00","9.8","","9.8","","100","","16","","7","","3.6","","98.52","","","","","","Fog"
"1994-09-29 03:00","1994","09","29","03:00","10.0","","10.0","","100","","19","","9","","3.6","","98.49","","","","","","Fog"
"1994-09-29 04:00","1994","09","29","04:00","10.5","","10.5","","100","","20","","9","","4.0","","98.49","","","","","","Fog"
"1994-09-29 05:00","1994","09","29","05:00","10.7","","10.7","","100","","22","","7","","4.8","","98.49","","","","","","Rain Showers,Fog"
"1994-09-29 06:00","1994","09","29","06:00","10.6","","10.6","","100","","22","","4","","6.4","","98.49","","","","","","Rain Showers,Fog"
"1994-09-29 07:00","1994","09","29","07:00","10.7","","10.7","","100","","23","","7","","4.8","","98.52","","","","","","Fog"
"1994-09-29 08:00","1994","09","29","08:00","11.0","","10.9","","99","","24","","7","","6.4","","98.55","","","","","","Fog"
"1994-09-29 09:00","1994","09","29","09:00","12.4","","11.3","","93","","29","","7","","12.9","","98.59","","","","","","Mostly Cloudy"
"1994-09-29 10:00","1994","09","29","10:00","12.4","","11.2","","92","","24","","15","","16.1","","98.59","","","","","","Cloudy"
"1994-09-29 11:00","1994","09","29","11:00","12.9","","11.3","","90","","26","","13","","19.3","","98.59","","","","","","Cloudy"
"1994-09-29 12:00","1994","09","29","12:00","13.7","","11.2","","85","","28","","24","","24.1","","98.59","","","","","","Mostly Cloudy"
"1994-09-29 13:00","1994","09","29","13:00","14.9","","9.6","","71","","29","","24","","32.2","","98.59","","","","","","Mostly Cloudy"
"1994-09-29 14:00","1994","09","29","14:00","13.6","","9.0","","74","","28","","33","","32.2","","98.65","","","","","","Mostly Cloudy"
"1994-09-29 15:00","1994","09","29","15:00","12.5","","8.1","","75","","29","","35","","32.2","","98.75","","","","","","Mostly Cloudy"
"1994-09-29 16:00","1994","09","29","16:00","11.4","","7.1","","75","","29","","37","","32.2","","98.85","","","","","","Mostly Cloudy"
"1994-09-29 17:00","1994","09","29","17:00","10.4","","7.0","","79","","30","","32","","32.2","","98.95","","","","","","Mostly Cloudy"
"1994-09-29 18:00","1994","09","29","18:00","9.5","","5.7","","77","","30","","30","","40.2","","99.05","","","","","","Cloudy"
"1994-09-29 19:00","1994","09","29","19:00","8.4","","7.4","","93","","28","","26","","4.8","","99.15","","","","","","Rain Showers"
"1994-09-29 20:00","1994","09","29","20:00","8.0","","7.0","","93","","29","","33","","25.0","","99.22","","","","","","Rain Showers"
"1994-09-29 21:00","1994","09","29","21:00","7.8","","5.8","","87","","30","","33","","25.0","","99.29","","","","","","Cloudy"
"1994-09-29 22:00","1994","09","29","22:00","8.1","","5.3","","82","","29","","32","","25.0","","99.36","","","","","","Cloudy"
"1994-09-29 23:00","1994","09","29","23:00","8.1","","5.3","","82","","29","","37","","25.0","","99.32","","","","","","Cloudy"
"1994-09-30 00:00","1994","09","30","00:00","7.7","","4.3","","79","","29","","28","","25.0","","99.39","","","","","","Cloudy"
"1994-09-30 01:00","1994","09","30","01:00","7.6","","3.5","","75","","29","","39","","25.0","","99.36","","","","","","Cloudy"
"1994-09-30 02:00","1994","09","30","02:00","7.1","","4.2","","82","","27","","24","","25.0","","99.39","","","","","","Mostly Cloudy"
"1994-09-30 03:00","1994","09","30","03:00","7.0","","4.0","","81","","28","","24","","25.0","","99.46","","","","","","Mostly Cloudy"
"1994-09-30 04:00","1994","09","30","04:00","6.7","","3.9","","82","","28","","20","","25.0","","99.52","","","","","","Mostly Cloudy"
"1994-09-30 05:00","1994","09","30","05:00","6.3","","3.3","","81","","30","","32","","25.0","","99.59","","","","","","Rain Showers"
"1994-09-30 06:00","1994","09","30","06:00","5.7","","1.8","","76","","30","","37","","32.2","","99.66","","","","","","Rain Showers"
"1994-09-30 07:00","1994","09","30","07:00","5.9","","1.6","","74","","29","","24","","32.2","","99.72","","","","","","Mainly Clear"
"1994-09-30 08:00","1994","09","30","08:00","6.8","","2.9","","76","","30","","35","","32.2","","99.79","","","","","","Mainly Clear"
"1994-09-30 09:00","1994","09","30","09:00","7.1","","2.1","","70","","30","","33","","32.2","","99.82","","","","","","Mostly Cloudy"
"1994-09-30 10:00","1994","09","30","10:00","8.0","","1.9","","65","","30","","32","","32.2","","99.82","","","","","","Mostly Cloudy"
"1994-09-30 11:00","1994","09","30","11:00","9.6","","2.6","","62","","29","","35","","32.2","","99.86","","","","","","Mostly Cloudy"
"1994-09-30 12:00","1994","09","30","12:00","10.0","","1.3","","55","","31","","32","","32.2","","99.86","","","","","","Mostly Cloudy"
"1994-09-30 13:00","1994","09","30","13:00","11.1","","2.1","","54","","29","","32","","32.2","","99.82","","","","","","Mostly Cloudy"
"1994-09-30 14:00","1994","09","30","14:00","10.3","","1.7","","55","","29","","33","","32.2","","99.82","","","","","","Mostly Cloudy"
"1994-09-30 15:00","1994","09","30","15:00","10.7","","1.6","","53","","30","","32","","32.2","","99.82","","","","","","Mostly Cloudy"
"1994-09-30 16:00","1994","09","30","16:00","10.3","","1.2","","53","","30","","24","","32.2","","99.82","","","","","","Mostly Cloudy"
"1994-09-30 17:00","1994","09","30","17:00","10.4","","2.2","","57","","29","","15","","32.2","","99.86","","","","","","Mostly Cloudy"
"1994-09-30 18:00","1994","09","30","18:00","10.0","","2.3","","59","","26","","11","","40.2","","99.93","","","","","","Mostly Cloudy"
"1994-09-30 19:00","1994","09","30","19:00","8.0","","3.1","","71","","26","","15","","25.0","","99.96","","","","","","Mostly Cloudy"
"1994-09-30 20:00","1994","09","30","20:00","6.3","","2.6","","77","","25","","11","","25.0","","99.99","","","","","","Mainly Clear"
"1994-09-30 21:00","1994","09","30","21:00","6.6","","2.7","","76","","24","","11","","25.0","","100.03","","","","","","Clear"
"1994-09-30 22:00","1994","09","30","22:00","6.1","","2.9","","80","","24","","6","","25.0","","100.03","","","","","","Clear"
"1994-09-30 23:00","1994","09","30","23:00","5.0","","2.7","","85","","24","","7","","25.0","","100.06","","","","","","Clear"
