"Station Name","OTTAWA INTL A"
"Province","ONTARIO"
"Current Station Operator","NAV Canada"
"Latitude","45.32"
"Longitude","-75.67"
"Elevation","114.90"
"Climate Identifier","6106001"
"WMO Identifier","71628"
"TC Identifier","YOW"
"All times are specified in Local Standard Time (LST). Add 1 hour to adjust for Daylight Saving Time where and when it is observed."

"Legend"
"E","Estimated"
"M","Missing"
"NA","Not Available"

"Date/Time","Year","Month","Day","Time","Temp (°C)","Temp Flag","Dew Point Temp (°C)","Dew Point Temp Flag","Rel Hum (%)","Rel Hum Flag","Wind Dir (10s deg)","Wind Dir Flag","Wind Spd (km/h)","Wind Spd Flag","Visibility (km)","Visibility Flag","Stn Press (kPa)","Stn Press Flag","Hmdx","Hmdx Flag","Wind Chill","Wind Chill Flag","Weather"
"2019-03-01 00:00","2019","03","01","00:00","-13.8","","-18.5","","68","","17","","7","","24.1","","101.15","","","","-18","","NA"
"2019-03-01 01:00","2019","03","01","01:00","-15.5","","-18.6","","77","","16","","5","","24.1","","101.17","","","","-19","","Mostly Cloudy"
"2019-03-01 02:00","2019","03","01","02:00","-14.4","","-17.9","","75","","15","","7","","24.1","","101.16","","","","-19","","NA"
"2019-03-01 03:00","2019","03","01","03:00","-15.1","","-18.2","","78","","17","","8","","24.1","","101.11","","","","-20","","NA"
"2019-03-01 04:00","2019","03","01","04:00","-16.1","","-19.0","","78","","17","","9","","24.1","","101.12","","","","-22","","Mainly Clear"
"2019-03-01 05:00","2019","03","01","05:00","-15.5","","-18.0","","81","","17","","7","","24.1","","101.17","","","","-20","","NA"
"2019-03-01 06:00","2019","03","01","06:00","-19.4","","-21.9","","81","","18","","3","","24.1","","101.20","","","","-22","","NA"
"2019-03-01 07:00","2019","03","01","07:00","-16.7","","-18.6","","85","","19","","4","","24.1","","101.21","","","","-20","","Clear"
"2019-03-01 08:00","2019","03","01","08:00","-15.9","","-18.5","","81","","36","","3","","24.1","","101.24","","","","-18","","NA"
"2019-03-01 09:00","2019","03","01","09:00","-14.0","","-17.1","","78","","36","","2","","24.1","","101.29","","","","-15","","NA"
"2019-03-01 10:00","2019","03","01","10:00","-10.8","","-15.1","","71","","0","","1","","24.1","","101.29","","","","-11","","Clear"
"2019-03-01 11:00","2019","03","01","11:00","-7.8","","-14.3","","60","","36","","2","","24.1","","101.26","","","","-9","","NA"
"2019-03-01 12:00","2019","03","01","12:00","-6.0","","-15.0","","50","","26","","6","","24.1","","101.21","","","","-9","","NA"
"2019-03-01 13:00","2019","03","01","13:00","-4.6","","-15.1","","44","","6","","3","","24.1","","101.16","","","","-6","","Clear"
"2019-03-01 14:00","2019","03","01","14:00","-3.6","","-12.9","","48","","14","","5","","24.1","","101.07","","","","-6","","NA"
"2019-03-01 15:00","2019","03","01","15:00","-3.9","","-12.3","","52","","10","","10","","24.1","","101.06","","","","-8","","NA"
"2019-03-01 16:00","2019","03","01","16:00","-4.2","","-12.4","","53","","9","","13","","24.1","","100.99","","","","-9","","Clear"
"2019-03-01 17:00","2019","03","01","17:00","-4.8","","-12.9","","53","","9","","10","","24.1","","100.97","","","","-9","","NA"
"2019-03-01 18:00","2019","03","01","18:00","-5.9","","-12.8","","58","","6","","10","","24.1","","100.98","","","","-10","","NA"
"2019-03-01 19:00","2019","03","01","19:00","-6.7","","-13.7","","58","","6","","10","","24.1","","101.01","","","","-11","","Clear"
"2019-03-01 20:00","2019","03","01","20:00","-7.1","","-13.9","","59","","8","","10","","24.1","","101.04","","","","-12","","NA"
"2019-03-01 21:00","2019","03","01","21:00","-8.6","","-14.6","","62","","8","","10","","24.1","","101.03","","","","-14","","NA"
"2019-03-01 22:00","2019","03","01","22:00","-9.0","","-15.2","","61","","7","","10","","24.1","","101.02","","","","-14","","Mainly Clear"
"2019-03-01 23:00","2019","03","01","23:00","-10.1","","-15.3","","66","","4","","11","","24.1","","100.95","","","","-16","","NA"
"2019-03-02 00:00","2019","03","02","00:00","-9.9","","-14.9","","67","","4","","8","","24.1","","100.94","","","","-14","","NA"
"2019-03-02 01:00","2019","03","02","01:00","-10.3","","-14.5","","71","","5","","12","","24.1","","100.92","","","","-16","","Mostly Cloudy"
"2019-03-02 02:00","2019","03","02","02:00","-11.0","","-16.0","","67","","5","","9","","24.1","","100.92","","","","-16","","NA"
"2019-03-02 03:00","2019","03","02","03:00","-11.1","","-15.5","","70","","4","","13","","24.1","","100.84","","","","-18","","NA"
"2019-03-02 04:00","2019","03","02","04:00","-11.1","","-15.2","","72","","4","","19","","24.1","","100.77","","","","-19","","Mostly Cloudy"
"2019-03-02 05:00","2019","03","02","05:00","-11.5","","-16.1","","69","","5","","13","","24.1","","100.76","","","","-18","","NA"
"2019-03-02 06:00","2019","03","02","06:00","-10.7","","-15.1","","70","","3","","14","","24.1","","100.79","","","","-17","","NA"
"2019-03-02 07:00","2019","03","02","07:00","-10.3","","-14.9","","69","","4","","18","","24.1","","100.75","","","","-18","","Mostly Cloudy"
"2019-03-02 08:00","2019","03","02","08:00","-8.8","","-15.2","","60","","5","","20","","24.1","","100.71","","","","-16","","NA"
"2019-03-02 09:00","2019","03","02","09:00","-8.1","","-14.6","","60","","6","","20","","24.1","","100.68","","","","-15","","NA"
"2019-03-02 10:00","2019","03","02","10:00","-7.0","","-14.3","","56","","7","","11","","24.1","","100.63","","","","-12","","Cloudy"
"2019-03-02 11:00","2019","03","02","11:00","-5.6","","-13.3","","55","","4","","13","","24.1","","100.57","","","","-11","","NA"
"2019-03-02 12:00","2019","03","02","12:00","-4.9","","-13.0","","54","","2","","9","","24.1","","100.52","","","","-9","","NA"
"2019-03-02 13:00","2019","03","02","13:00","-4.6","","-12.9","","53","","34","","11","","24.1","","100.49","","","","-9","","Cloudy"
"2019-03-02 14:00","2019","03","02","14:00","-4.2","","-11.7","","56","","36","","11","","24.1","","100.39","","","","-9","","NA"
"2019-03-02 15:00","2019","03","02","15:00","-3.4","","-11.8","","53","","3","","8","","24.1","","100.36","","","","-7","","NA"
"2019-03-02 16:00","2019","03","02","16:00","-3.1","","-12.2","","50","","34","","5","","24.1","","100.38","","","","-5","","Cloudy"
"2019-03-02 17:00","2019","03","02","17:00","-4.1","","-7.5","","77","","3","","7","","4.8","","100.37","","","","-7","","Snow"
"2019-03-02 18:00","2019","03","02","18:00","-4.8","","-6.5","","88","","36","","1","","2.4","","100.41","","","","-5","","Snow"
"2019-03-02 19:00","2019","03","02","19:00","-5.1","","-6.1","","93","","25","","7","","3.2","","100.44","","","","-8","","Snow"
"2019-03-02 20:00","2019","03","02","20:00","-5.4","","-6.4","","93","","25","","9","","4.8","","100.44","","","","-9","","Snow"
"2019-03-02 21:00","2019","03","02","21:00","-5.4","","-6.3","","93","","27","","7","","6.4","","100.45","","","","-9","","Snow"
"2019-03-02 22:00","2019","03","02","22:00","-7.1","","-8.1","","93","","26","","7","","12.9","","100.43","","","","-11","","Snow"
"2019-03-02 23:00","2019","03","02","23:00","-7.7","","-8.5","","94","","26","","11","","12.9","","100.45","","","","-13","","Snow"
"2019-03-03 00:00","2019","03","03","00:00","-9.9","","-10.9","","92","","28","","9","","11.3","","100.41","","","","-15","","NA"
"2019-03-03 01:00","2019","03","03","01:00","-9.0","","-10.1","","91","","22","","8","","6.4","","100.40","","","","-13","","Fog"
"2019-03-03 02:00","2019","03","03","02:00","-9.4","","-10.6","","91","","22","","9","","12.9","","100.43","","","","-14","","Snow Showers,Fog"
"2019-03-03 03:00","2019","03","03","03:00","-8.9","","-10.0","","91","","23","","5","","12.9","","100.43","","","","-12","","Snow Showers"
"2019-03-03 04:00","2019","03","03","04:00","-8.7","","-9.9","","91","","20","","4","","12.9","","100.44","","","","-11","","Cloudy"
"2019-03-03 05:00","2019","03","03","05:00","-8.2","","-9.3","","92","","21","","7","","12.9","","100.50","","","","-12","","NA"
"2019-03-03 06:00","2019","03","03","06:00","-7.3","","-8.4","","92","","28","","17","","12.9","","100.54","","","","-14","","NA"
"2019-03-03 07:00","2019","03","03","07:00"
"2019-03-03 08:00","2019","03","03","08:00"
"2019-03-03 09:00","2019","03","03","09:00","-6.6","","-7.8","","91","","28","","13","","16.1","","100.63","","","","-12","","NA"
"2019-03-03 10:00","2019","03","03","10:00","-5.3","","-8.5","","78","","25","","13","","24.1","","100.62","","","","-10","","Mostly Cloudy"
"2019-03-03 11:00","2019","03","03","11:00","-4.0","","-8.5","","71","","20","","13","","24.1","","100.55","","","","-9","","NA"
"2019-03-03 12:00","2019","03","03","12:00","-3.4","","-8.9","","66","","19","","9","","24.1","","100.45","","","","-7","","NA"
"2019-03-03 13:00","2019","03","03","13:00","-2.7","","-9.0","","62","","20","","18","","24.1","","100.38","","","","-8","","Mostly Cloudy"
"2019-03-03 14:00","2019","03","03","14:00","-1.9","","-9.2","","58","","21","","11","","24.1","","100.25","","","","-6","","NA"
"2019-03-03 15:00","2019","03","03","15:00","-2.0","","-9.0","","59","","17","","5","","24.1","","100.19","","","","-4","","NA"
"2019-03-03 16:00","2019","03","03","16:00","-1.9","","-8.7","","60","","18","","17","","24.1","","100.13","","","","-7","","Mostly Cloudy"
"2019-03-03 17:00","2019","03","03","17:00","-2.4","","-9.0","","61","","19","","20","","24.1","","100.10","","","","-8","","NA"
"2019-03-03 18:00","2019","03","03","18:00","-3.0","","-8.3","","67","","20","","22","","24.1","","100.14","","","","-9","","NA"
"2019-03-03 19:00","2019","03","03","19:00","-3.6","","-8.3","","70","","25","","8","","24.1","","100.10","","","","-7","","Cloudy"
"2019-03-03 20:00","2019","03","03","20:00","-3.9","","-7.9","","74","","21","","21","","12.9","","100.06","","","","-10","","NA"
"2019-03-03 21:00","2019","03","03","21:00","-3.9","","-7.5","","76","","22","","10","","12.9","","100.05","","","","-8","","NA"
"2019-03-03 22:00","2019","03","03","22:00","-4.4","","-6.5","","86","","23","","9","","6.4","","100.01","","","","-8","","Snow"
"2019-03-03 23:00","2019","03","03","23:00","-4.7","","-6.1","","90","","21","","7","","6.4","","99.97","","","","-8","","Snow"
"2019-03-04 00:00","2019","03","04","00:00","-5.2","","-6.3","","92","","26","","12","","11.3","","99.95","","","","-10","","Snow"
"2019-03-04 01:00","2019","03","04","01:00","-6.1","","-7.4","","90","","29","","7","","12.9","","99.91","","","","-9","","Snow"
"2019-03-04 02:00","2019","03","04","02:00","-6.3","","-7.2","","94","","26","","5","","24.1","","99.87","","","","-9","","Snow"
"2019-03-04 03:00","2019","03","04","03:00","-5.8","","-6.9","","92","","28","","10","","12.9","","99.80","","","","-10","","Snow"
"2019-03-04 04:00","2019","03","04","04:00","-6.3","","-7.8","","89","","29","","17","","12.9","","99.78","","","","-13","","Snow"
"2019-03-04 05:00","2019","03","04","05:00","-6.9","","-9.8","","80","","33","","21","","24.1","","99.80","","","","-14","","Snow"
"2019-03-04 06:00","2019","03","04","06:00","-7.8","","-11.6","","74","","33","","22","","24.1","","99.80","","","","-15","","NA"
"2019-03-04 07:00","2019","03","04","07:00","-10.3","","-12.2","","86","","29","","22","","24.1","","99.81","","","","-19","","Mainly Clear"
"2019-03-04 08:00","2019","03","04","08:00","-11.2","","-14.5","","77","","29","","20","","24.1","","99.82","","","","-19","","NA"
"2019-03-04 09:00","2019","03","04","09:00","-10.6","","-15.8","","66","","29","","23","","24.1","","99.82","","","","-19","","NA"
"2019-03-04 10:00","2019","03","04","10:00","-9.8","","-15.9","","61","","29","","23","","24.1","","99.80","","","","-18","","Clear"
"2019-03-04 11:00","2019","03","04","11:00","-8.8","","-15.0","","61","","30","","22","","24.1","","99.78","","","","-17","","NA"
"2019-03-04 12:00","2019","03","04","12:00","-8.2","","-15.4","","56","","27","","27","","24.1","","99.74","","","","-17","","NA"
"2019-03-04 13:00","2019","03","04","13:00","-7.6","","-15.7","","53","","28","","31","","24.1","","99.67","","","","-17","","Clear"
"2019-03-04 14:00","2019","03","04","14:00","-6.9","","-15.6","","50","","28","","28","","24.1","","99.64","","","","-15","","NA"
"2019-03-04 15:00","2019","03","04","15:00","-7.0","","-15.4","","51","","29","","26","","24.1","","99.65","","","","-15","","NA"
"2019-03-04 16:00","2019","03","04","16:00","-6.9","","-14.9","","53","","30","","18","","24.1","","99.63","","","","-14","","Clear"
"2019-03-04 17:00","2019","03","04","17:00","-7.4","","-15.9","","51","","29","","22","","24.1","","99.63","","","","-15","","NA"
"2019-03-04 18:00","2019","03","04","18:00","-8.5","","-15.7","","57","","31","","14","","24.1","","99.68","","","","-15","","NA"
"2019-03-04 19:00","2019","03","04","19:00","-8.0","","-16.7","","50","","29","","13","","24.1","","99.74","","","","-14","","Mostly Cloudy"
"2019-03-04 20:00","2019","03","04","20:00","-9.1","","-17.5","","51","","27","","15","","24.1","","99.79","","","","-16","","NA"
"2019-03-04 21:00","2019","03","04","21:00","-9.6","","-19.1","","46","","27","","17","","24.1","","99.87","","","","-17","","NA"
"2019-03-04 22:00","2019","03","04","22:00","-10.5","","-19.9","","46","","28","","23","","24.1","","99.95","","","","-19","","Mostly Cloudy"
"2019-03-04 23:00","2019","03","04","23:00","-11.7","","-20.3","","49","","27","","17","","24.1","","99.97","","","","-19","","NA"
"2019-03-05 00:00","2019","03","05","00:00","-13.2","","-20.7","","54","","27","","11","","24.1","","100.01","","","","-19","","NA"
"2019-03-05 01:00","2019","03","05","01:00","-14.4","","-21.3","","56","","25","","9","","24.1","","100.02","","","","-20","","Clear"
"2019-03-05 02:00","2019","03","05","02:00","-15.8","","-22.0","","59","","24","","13","","24.1","","100.01","","","","-23","","NA"
"2019-03-05 03:00","2019","03","05","03:00","-16.2","","-21.8","","63","","23","","12","","24.1","","100.00","","","","-23","","NA"
"2019-03-05 04:00","2019","03","05","04:00","-16.4","","-20.2","","73","","24","","11","","24.1","","99.99","","","","-23","","Clear"
"2019-03-05 05:00","2019","03","05","05:00","-17.0","","-20.6","","74","","23","","11","","24.1","","100.01","","","","-24","","NA"
"2019-03-05 06:00","2019","03","05","06:00","-18.1","","-21.1","","77","","21","","12","","24.1","","100.00","","","","-26","","NA"
"2019-03-05 07:00","2019","03","05","07:00","-18.5","","-21.1","","80","","22","","11","","24.1","","100.00","","","","-26","","Clear"
"2019-03-05 08:00","2019","03","05","08:00","-16.4","","-19.9","","75","","22","","12","","24.1","","100.02","","","","-24","","NA"
"2019-03-05 09:00","2019","03","05","09:00","-14.9","","-19.2","","70","","21","","15","","24.1","","100.06","","","","-23","","NA"
"2019-03-05 10:00","2019","03","05","10:00","-13.6","","-17.2","","75","","22","","13","","6.4","","100.02","","","","-21","","Snow"
"2019-03-05 11:00","2019","03","05","11:00","-12.7","","-16.6","","73","","23","","13","","16.1","","99.98","","","","-20","","Snow"
"2019-03-05 12:00","2019","03","05","12:00","-11.0","","-16.8","","63","","21","","16","","24.1","","99.95","","","","-18","","NA"
"2019-03-05 13:00","2019","03","05","13:00","-9.7","","-17.9","","51","","21","","20","","24.1","","99.86","","","","-17","","Mostly Cloudy"
"2019-03-05 14:00","2019","03","05","14:00","-8.5","","-17.2","","50","","24","","23","","24.1","","99.78","","","","-17","","NA"
"2019-03-05 15:00","2019","03","05","15:00","-8.3","","-17.1","","50","","23","","9","","24.1","","99.75","","","","-13","","NA"
"2019-03-05 16:00","2019","03","05","16:00","-9.0","","-12.4","","77","","22","","12","","9.7","","99.76","","","","-15","","Snow"
"2019-03-05 17:00","2019","03","05","17:00","-8.8","","-11.4","","82","","21","","14","","4.8","","99.76","","","","-15","","Snow"
"2019-03-05 18:00","2019","03","05","18:00","-9.2","","-11.4","","84","","26","","14","","2.4","","99.78","","","","-16","","Snow"
"2019-03-05 19:00","2019","03","05","19:00","-10.0","","-12.0","","85","","27","","7","","24.1","","99.83","","","","-14","","Cloudy"
"2019-03-05 20:00","2019","03","05","20:00","-11.2","","-13.6","","83","","21","","10","","24.1","","99.83","","","","-17","","NA"
"2019-03-05 21:00","2019","03","05","21:00","-12.5","","-15.1","","81","","24","","12","","24.1","","99.87","","","","-19","","NA"
"2019-03-05 22:00","2019","03","05","22:00","-14.4","","-17.4","","78","","26","","10","","24.1","","99.90","","","","-21","","Mainly Clear"
"2019-03-05 23:00","2019","03","05","23:00","-12.9","","-15.8","","79","","26","","15","","24.1","","99.93","","","","-20","","NA"
"2019-03-06 00:00","2019","03","06","00:00","-14.7","","-17.0","","83","","26","","15","","24.1","","99.93","","","","-23","","NA"
"2019-03-06 01:00","2019","03","06","01:00","-15.2","","-17.9","","81","","26","","15","","24.1","","99.97","","","","-23","","Mostly Cloudy"
"2019-03-06 02:00","2019","03","06","02:00","-14.8","","-18.4","","75","","26","","15","","24.1","","100.03","","","","-23","","NA"
"2019-03-06 03:00","2019","03","06","03:00","-15.9","","-18.8","","79","","25","","13","","24.1","","100.05","","","","-23","","NA"
"2019-03-06 04:00","2019","03","06","04:00","-17.3","","-20.0","","80","","27","","10","","24.1","","100.09","","","","-24","","Mainly Clear"
"2019-03-06 05:00","2019","03","06","05:00","-16.8","","-19.1","","83","","24","","9","","24.1","","100.14","","","","-23","","NA"
"2019-03-06 06:00","2019","03","06","06:00","-19.1","","-20.9","","86","","23","","10","","24.1","","100.19","","","","-26","","NA"
"2019-03-06 07:00","2019","03","06","07:00","-18.8","","-21.2","","82","","24","","8","","24.1","","100.21","","","","-25","","Clear"
"2019-03-06 08:00","2019","03","06","08:00","-18.9","","-21.0","","83","","29","","5","","24.1","","100.26","","","","-23","","NA"
"2019-03-06 09:00","2019","03","06","09:00","-15.2","","-19.5","","70","","29","","23","","24.1","","100.31","","","","-25","","NA"
"2019-03-06 10:00","2019","03","06","10:00","-14.6","","-19.0","","70","","30","","21","","24.1","","100.36","","","","-24","","Clear"
"2019-03-06 11:00","2019","03","06","11:00","-12.7","","-18.0","","65","","23","","14","","24.1","","100.37","","","","-20","","NA"
"2019-03-06 12:00","2019","03","06","12:00","-11.4","","-17.5","","61","","27","","21","","24.1","","100.37","","","","-20","","NA"
"2019-03-06 13:00","2019","03","06","13:00","-10.8","","-17.3","","59","","27","","29","","24.1","","100.37","","","","-20","","Mainly Clear"
"2019-03-06 14:00","2019","03","06","14:00","-10.5","","-18.2","","54","","29","","31","","24.1","","100.37","","","","-20","","NA"
"2019-03-06 15:00","2019","03","06","15:00","-10.5","","-20.1","","46","","28","","32","","24.1","","100.41","","","","-20","","NA"
"2019-03-06 16:00","2019","03","06","16:00","-10.3","","-21.1","","42","","29","","28","","24.1","","100.43","","","","-20","","Clear"
"2019-03-06 17:00","2019","03","06","17:00","-10.7","","-21.3","","42","","29","","23","","24.1","","100.47","","","","-19","","NA"
"2019-03-06 18:00","2019","03","06","18:00","-11.8","","-20.7","","48","","30","","21","","24.1","","100.50","","","","-20","","NA"
"2019-03-06 19:00","2019","03","06","19:00","-12.4","","-20.9","","50","","29","","10","","24.1","","100.55","","","","-18","","Clear"
"2019-03-06 20:00","2019","03","06","20:00","-14.1","","-21.9","","52","","25","","8","","24.1","","100.57","","","","-19","","NA"
"2019-03-06 21:00","2019","03","06","21:00","-14.5","","-21.6","","55","","25","","9","","24.1","","100.60","","","","-20","","NA"
"2019-03-06 22:00","2019","03","06","22:00","-14.9","","-21.4","","58","","23","","7","","24.1","","100.61","","","","-20","","Mostly Cloudy"
"2019-03-06 23:00","2019","03","06","23:00","-15.3","","-20.6","","64","","24","","9","","24.1","","100.64","","","","-21","","NA"
"2019-03-07 00:00","2019","03","07","00:00","-15.4","","-20.1","","68","","25","","12","","24.1","","100.63","","","","-22","","NA"
"2019-03-07 01:00","2019","03","07","01:00","-17.1","","-19.8","","80","","24","","10","","24.1","","100.64","","","","-24","","Mainly Clear"
"2019-03-07 02:00","2019","03","07","02:00","-17.1","","-18.9","","86","","24","","3","","24.1","","100.65","","","","-19","","NA"
"2019-03-07 03:00","2019","03","07","03:00","-19.2","","-22.0","","79","","22","","4","","24.1","","100.64","","","","-23","","NA"
"2019-03-07 04:00","2019","03","07","04:00","-18.8","","-21.5","","79","","24","","8","","24.1","","100.64","","","","-25","","Mainly Clear"
"2019-03-07 05:00","2019","03","07","05:00","-18.7","","-21.7","","78","","24","","9","","24.1","","100.68","","","","-25","","NA"
"2019-03-07 06:00","2019","03","07","06:00","-21.1","","-23.8","","79","","22","","11","","24.1","","100.71","","","","-29","","NA"
"2019-03-07 07:00","2019","03","07","07:00","-21.0","","-23.5","","80","","24","","4","","24.1","","100.74","","","","-25","","Mainly Clear"
"2019-03-07 08:00","2019","03","07","08:00","-18.8","","-21.6","","79","","26","","7","","24.1","","100.80","","","","-24","","NA"
"2019-03-07 09:00","2019","03","07","09:00","-15.8","","-19.8","","72","","31","","8","","24.1","","100.84","","","","-21","","NA"
"2019-03-07 10:00","2019","03","07","10:00","-13.7","","-19.0","","65","","25","","16","","24.1","","100.84","","","","-22","","Mainly Clear"
"2019-03-07 11:00","2019","03","07","11:00","-11.8","","-18.1","","60","","23","","7","","24.1","","100.85","","","","-16","","NA"
"2019-03-07 12:00","2019","03","07","12:00","-10.6","","-17.3","","58","","26","","16","","24.1","","100.85","","","","-18","","NA"
"2019-03-07 13:00","2019","03","07","13:00","-9.4","","-17.5","","52","","27","","19","","24.1","","100.81","","","","-17","","Mainly Clear"
"2019-03-07 14:00","2019","03","07","14:00","-8.8","","-18.2","","47","","26","","22","","24.1","","100.83","","","","-17","","NA"
"2019-03-07 15:00","2019","03","07","15:00","-8.3","","-19.0","","42","","29","","19","","24.1","","100.82","","","","-16","","NA"
"2019-03-07 16:00","2019","03","07","16:00","-8.2","","-18.0","","46","","28","","10","","24.1","","100.81","","","","-13","","Mainly Clear"
"2019-03-07 17:00","2019","03","07","17:00","-8.5","","-18.9","","43","","26","","11","","24.1","","100.80","","","","-14","","NA"
"2019-03-07 18:00","2019","03","07","18:00","-10.2","","-20.6","","43","","22","","6","","24.1","","100.81","","","","-14","","NA"
"2019-03-07 19:00","2019","03","07","19:00","-9.8","","-19.3","","46","","19","","9","","24.1","","100.82","","","","-15","","Clear"
"2019-03-07 20:00","2019","03","07","20:00","-11.3","","-20.0","","49","","24","","12","","24.1","","100.83","","","","-17","","NA"
"2019-03-07 21:00","2019","03","07","21:00","-12.4","","-19.9","","54","","24","","13","","24.1","","100.88","","","","-19","","NA"
"2019-03-07 22:00","2019","03","07","22:00","-12.2","","-19.1","","57","","22","","9","","24.1","","100.93","","","","-17","","Clear"
"2019-03-07 23:00","2019","03","07","23:00","-12.4","","-18.6","","61","","22","","8","","24.1","","101.00","","","","-17","","NA"
"2019-03-08 00:00","2019","03","08","00:00","-13.6","","-19.0","","64","","25","","12","","24.1","","101.04","","","","-20","","NA"
"2019-03-08 01:00","2019","03","08","01:00","-14.7","","-19.3","","68","","22","","9","","24.1","","101.08","","","","-20","","Clear"
"2019-03-08 02:00","2019","03","08","02:00","-14.7","","-19.0","","70","","21","","10","","24.1","","101.09","","","","-21","","NA"
"2019-03-08 03:00","2019","03","08","03:00","-15.4","","-19.2","","73","","21","","11","","24.1","","101.07","","","","-22","","NA"
"2019-03-08 04:00","2019","03","08","04:00","-15.0","","-18.6","","74","","22","","15","","24.1","","101.04","","","","-23","","Clear"
"2019-03-08 05:00","2019","03","08","05:00","-14.9","","-18.0","","78","","21","","15","","24.1","","101.06","","","","-23","","NA"
"2019-03-08 06:00","2019","03","08","06:00","-15.3","","-17.9","","81","","21","","12","","24.1","","101.06","","","","-22","","NA"
"2019-03-08 07:00","2019","03","08","07:00","-15.2","","-17.7","","81","","23","","13","","24.1","","101.06","","","","-23","","Mainly Clear"
"2019-03-08 08:00","2019","03","08","08:00","-13.3","","-16.6","","77","","23","","22","","24.1","","101.10","","","","-22","","NA"
"2019-03-08 09:00","2019","03","08","09:00","-11.2","","-15.5","","71","","24","","18","","24.1","","101.14","","","","-19","","NA"
"2019-03-08 10:00","2019","03","08","10:00","-9.1","","-14.4","","66","","23","","19","","24.1","","101.11","","","","-17","","Mainly Clear"
"2019-03-08 11:00","2019","03","08","11:00","-7.1","","-13.2","","62","","23","","19","","24.1","","101.06","","","","-14","","NA"
"2019-03-08 12:00","2019","03","08","12:00","-4.9","","-12.3","","56","","24","","21","","24.1","","100.99","","","","-12","","NA"
"2019-03-08 13:00","2019","03","08","13:00","-3.6","","-11.7","","54","","25","","24","","24.1","","100.86","","","","-10","","Mostly Cloudy"
"2019-03-08 14:00","2019","03","08","14:00","-2.3","","-11.8","","48","","22","","21","","24.1","","100.71","","","","-8","","NA"
"2019-03-08 15:00","2019","03","08","15:00","-1.5","","-11.7","","46","","22","","21","","24.1","","100.63","","","","-7","","NA"
"2019-03-08 16:00","2019","03","08","16:00","-1.8","","-10.2","","53","","21","","18","","24.1","","100.57","","","","-7","","Mainly Clear"
"2019-03-08 17:00","2019","03","08","17:00","-2.5","","-10.2","","56","","20","","24","","24.1","","100.51","","","","-9","","NA"
"2019-03-08 18:00","2019","03","08","18:00","-3.8","","-9.4","","65","","19","","19","","24.1","","100.48","","","","-10","","NA"
"2019-03-08 19:00","2019","03","08","19:00","-4.8","","-9.6","","70","","19","","21","","24.1","","100.53","","","","-11","","Mainly Clear"
"2019-03-08 20:00","2019","03","08","20:00","-6.0","","-10.1","","73","","19","","17","","24.1","","100.54","","","","-12","","NA"
"2019-03-08 21:00","2019","03","08","21:00","-6.4","","-10.6","","72","","21","","17","","24.1","","100.57","","","","-13","","NA"
"2019-03-08 22:00","2019","03","08","22:00","-7.5","","-11.5","","73","","21","","12","","24.1","","100.61","","","","-13","","Clear"
"2019-03-08 23:00","2019","03","08","23:00","-7.8","","-11.6","","74","","20","","17","","24.1","","100.64","","","","-14","","NA"
"2019-03-09 00:00","2019","03","09","00:00","-8.7","","-11.9","","77","","22","","15","","24.1","","100.68","","","","-15","","NA"
"2019-03-09 01:00","2019","03","09","01:00","-9.3","","-12.5","","78","","23","","15","","24.1","","100.73","","","","-16","","Clear"
"2019-03-09 02:00","2019","03","09","02:00","-10.0","","-13.3","","77","","23","","12","","24.1","","100.79","","","","-16","","NA"
"2019-03-09 03:00","2019","03","09","03:00","-10.5","","-13.7","","77","","24","","13","","24.1","","100.82","","","","-17","","NA"
"2019-03-09 04:00","2019","03","09","04:00","-11.4","","-13.6","","84","","24","","9","","24.1","","100.90","","","","-17","","Clear"
"2019-03-09 05:00","2019","03","09","05:00","-13.2","","-14.9","","87","","23","","8","","24.1","","101.00","","","","-18","","NA"
"2019-03-09 06:00","2019","03","09","06:00","-12.9","","-14.5","","88","","20","","7","","24.1","","101.10","","","","-17","","NA"
"2019-03-09 07:00","2019","03","09","07:00","-12.1","","-13.9","","87","","21","","7","","24.1","","101.20","","","","-16","","Clear"
"2019-03-09 08:00","2019","03","09","08:00","-11.4","","-13.7","","84","","21","","5","","24.1","","101.33","","","","-15","","NA"
"2019-03-09 09:00","2019","03","09","09:00","-8.5","","-12.9","","71","","28","","4","","24.1","","101.40","","","","-11","","NA"
"2019-03-09 10:00","2019","03","09","10:00","-5.6","","-11.4","","64","","36","","2","","24.1","","101.43","","","","-7","","Clear"
"2019-03-09 11:00","2019","03","09","11:00","-2.8","","-11.2","","52","","8","","10","","24.1","","101.44","","","","-7","","NA"
"2019-03-09 12:00","2019","03","09","12:00","-2.2","","-11.9","","47","","17","","7","","24.1","","101.49","","","","-5","","NA"
"2019-03-09 13:00","2019","03","09","13:00","-1.2","","-11.6","","45","","36","","2","","24.1","","101.46","","","","-2","","Mainly Clear"
"2019-03-09 14:00","2019","03","09","14:00","-0.7","","-10.8","","46","","10","","10","","24.1","","101.44","","","","-4","","NA"
"2019-03-09 15:00","2019","03","09","15:00","-0.6","","-12.2","","41","","11","","8","","24.1","","101.43","","","","-3","","NA"
"2019-03-09 16:00","2019","03","09","16:00","-1.0","","-12.0","","43","","9","","17","","24.1","","101.42","","","","-6","","Mainly Clear"
"2019-03-09 17:00","2019","03","09","17:00","-1.9","","-13.2","","42","","9","","10","","24.1","","101.44","","","","-6","","NA"
"2019-03-09 18:00","2019","03","09","18:00","-2.9","","-12.2","","49","","10","","17","","24.1","","101.40","","","","-8","","NA"
"2019-03-09 19:00","2019","03","09","19:00","-4.1","","-12.4","","53","","9","","17","","24.1","","101.37","","","","-10","","Mainly Clear"
"2019-03-09 20:00","2019","03","09","20:00","-4.9","","-13.2","","52","","7","","26","","24.1","","101.24","","","","-12","","NA"
"2019-03-09 21:00","2019","03","09","21:00","-5.4","","-17.2","","39","","8","","26","","24.1","","101.28","","","","-13","","NA"
"2019-03-09 22:00","2019","03","09","22:00","-6.6","","-16.7","","45","","8","","22","","24.1","","101.25","","","","-14","","Mostly Cloudy"
"2019-03-09 23:00","2019","03","09","23:00","-6.5","","-17.0","","44","","8","","33","","24.1","","101.08","","","","-15","","NA"
"2019-03-10 00:00","2019","03","10","00:00","-6.7","","-16.1","","48","","8","","32","","24.1","","100.96","","","","-15","","Blowing Snow"
"2019-03-10 01:00","2019","03","10","01:00","-6.6","","-16.1","","47","","8","","32","","24.1","","100.91","","","","-15","","Cloudy"
"2019-03-10 02:00","2019","03","10","02:00","-6.8","","-15.9","","49","","8","","28","","24.1","","100.74","","","","-15","","NA"
"2019-03-10 03:00","2019","03","10","03:00","-6.6","","-15.3","","50","","7","","34","","24.1","","100.47","","","","-16","","NA"
"2019-03-10 04:00","2019","03","10","04:00","-6.7","","-14.3","","55","","7","","33","","24.1","","100.24","","","","-16","","Cloudy"
"2019-03-10 05:00","2019","03","10","05:00","-6.4","","-13.8","","56","","8","","35","","24.1","","100.17","","","","-15","","NA"
"2019-03-10 06:00","2019","03","10","06:00","-6.9","","-11.2","","71","","7","","25","","6.4","","100.15","","","","-15","","Snow"
"2019-03-10 07:00","2019","03","10","07:00","-7.3","","-9.1","","87","","7","","23","","1.6","","100.09","","","","-15","","Snow"
"2019-03-10 08:00","2019","03","10","08:00","-6.4","","-7.7","","90","","7","","28","","1.2","","99.95","","","","-15","","Snow"
"2019-03-10 09:00","2019","03","10","09:00","-5.2","","-6.5","","90","","7","","31","","1.2","","99.82","","","","-13","","Snow"
"2019-03-10 10:00","2019","03","10","10:00","-4.5","","-5.7","","91","","8","","30","","0.8","","99.66","","","","-12","","Moderate Snow"
"2019-03-10 11:00","2019","03","10","11:00","-3.3","","-4.5","","92","","8","","27","","3.2","","99.56","","","","-10","","Freezing Rain,Snow"
"2019-03-10 12:00","2019","03","10","12:00","-1.5","","-2.5","","93","","9","","31","","3.2","","99.44","","","","-9","","Snow"
"2019-03-10 13:00","2019","03","10","13:00","-0.2","","-1.1","","94","","9","","21","","3.2","","99.36","","","","-6","","Freezing Drizzle,Fog"
"2019-03-10 14:00","2019","03","10","14:00","0.3","","-0.4","","95","","11","","21","","6.4","","99.27","","","","","","Drizzle,Fog"
"2019-03-10 15:00","2019","03","10","15:00","1.3","","0.6","","95","","12","","21","","9.7","","99.21","","","","","","Drizzle,Fog"
"2019-03-10 16:00","2019","03","10","16:00","2.7","","1.6","","92","","17","","20","","12.9","","99.19","","","","","","Drizzle"
"2019-03-10 17:00","2019","03","10","17:00","2.5","","1.4","","93","","18","","26","","9.7","","99.18","","","","","","Drizzle,Fog"
"2019-03-10 18:00","2019","03","10","18:00","2.4","","1.2","","92","","19","","23","","12.9","","99.16","","","","","","Drizzle"
"2019-03-10 19:00","2019","03","10","19:00","1.9","","0.8","","93","","20","","27","","12.9","","99.22","","","","","","Rain,Snow"
"2019-03-10 20:00","2019","03","10","20:00","1.8","","0.6","","92","","20","","23","","12.9","","99.24","","","","","","Rain"
"2019-03-10 21:00","2019","03","10","21:00","1.8","","0.5","","91","","21","","27","","12.9","","99.26","","","","","","Rain"
"2019-03-10 22:00","2019","03","10","22:00","1.5","","0.0","","90","","22","","22","","11.3","","99.29","","","","","","Rain"
"2019-03-10 23:00","2019","03","10","23:00","1.2","","-0.3","","89","","23","","19","","12.9","","99.29","","","","","","Rain,Snow"
"2019-03-11 00:00","2019","03","11","00:00","1.6","","-0.8","","84","","23","","22","","12.9","","99.33","","","","","","NA"
"2019-03-11 01:00","2019","03","11","01:00","1.7","","-1.9","","77","","22","","23","","24.1","","99.33","","","","","","Cloudy"
"2019-03-11 02:00","2019","03","11","02:00","1.8","","-3.0","","71","","23","","30","","24.1","","99.35","","","","","","NA"
"2019-03-11 03:00","2019","03","11","03:00","1.7","","-3.0","","71","","23","","32","","24.1","","99.31","","","","","","NA"
"2019-03-11 04:00","2019","03","11","04:00","1.5","","-2.6","","74","","23","","30","","12.9","","99.31","","","","","","Snow Showers"
"2019-03-11 05:00","2019","03","11","05:00","1.6","","-2.8","","72","","23","","30","","12.9","","99.34","","","","","","Moderate Snow Showers"
"2019-03-11 06:00","2019","03","11","06:00","1.7","","-2.8","","72","","24","","28","","16.1","","99.35","","","","","","Snow Showers"
"2019-03-11 07:00","2019","03","11","07:00","1.8","","-3.1","","70","","24","","32","","16.1","","99.38","","","","","","Snow Showers"
"2019-03-11 08:00","2019","03","11","08:00","2.1","","-3.6","","66","","24","","34","","24.1","","99.44","","","","","","NA"
"2019-03-11 09:00","2019","03","11","09:00","2.5","","-3.7","","64","","25","","37","","24.1","","99.49","","","","","","NA"
"2019-03-11 10:00","2019","03","11","10:00","2.3","","-3.3","","66","","25","","35","","24.1","","99.54","","","","","","Snow"
"2019-03-11 11:00","2019","03","11","11:00","2.3","","-3.4","","66","","26","","31","","16.1","","99.60","","","","","","Snow"
"2019-03-11 12:00","2019","03","11","12:00","1.2","","-1.6","","82","","29","","23","","12.9","","99.70","","","","","","Snow"
"2019-03-11 13:00","2019","03","11","13:00","1.6","","-2.9","","72","","28","","41","","24.1","","99.71","","","","","","Snow"
"2019-03-11 14:00","2019","03","11","14:00","0.8","","-2.4","","79","","29","","32","","24.1","","99.74","","","","","","NA"
"2019-03-11 15:00","2019","03","11","15:00","1.1","","-4.1","","68","","28","","27","","24.1","","99.78","","","","","","NA"
"2019-03-11 16:00","2019","03","11","16:00","0.8","","-3.9","","71","","29","","27","","16.1","","99.85","","","","","","Cloudy"
"2019-03-11 17:00","2019","03","11","17:00","0.6","","-3.8","","72","","27","","25","","24.1","","99.91","","","","","","NA"
"2019-03-11 18:00","2019","03","11","18:00","-0.3","","-3.0","","82","","29","","21","","3.2","","100.01","","","","-6","","Freezing Drizzle,Snow"
"2019-03-11 19:00","2019","03","11","19:00","-1.1","","-5.0","","75","","29","","36","","12.9","","100.14","","","","-9","","Snow"
"2019-03-11 20:00","2019","03","11","20:00","-1.4","","-5.6","","74","","29","","21","","24.1","","100.22","","","","-7","","NA"
"2019-03-11 21:00","2019","03","11","21:00","-1.6","","-6.1","","72","","29","","20","","24.1","","100.27","","","","-7","","NA"
"2019-03-11 22:00","2019","03","11","22:00","-2.1","","-5.9","","75","","27","","12","","24.1","","100.31","","","","-6","","Mostly Cloudy"
"2019-03-11 23:00","2019","03","11","23:00","-2.0","","-5.1","","79","","27","","16","","24.1","","100.33","","","","-7","","Snow"
"2019-03-12 00:00","2019","03","12","00:00","-2.3","","-3.7","","90","","29","","14","","6.4","","100.37","","","","-7","","Snow"
"2019-03-12 01:00","2019","03","12","01:00","-2.4","","-3.5","","92","","30","","18","","3.2","","100.41","","","","-8","","Snow"
"2019-03-12 02:00","2019","03","12","02:00","-2.5","","-5.3","","81","","31","","23","","11.3","","100.48","","","","-9","","Snow"
"2019-03-12 03:00","2019","03","12","03:00","-3.2","","-6.6","","77","","31","","21","","12.9","","100.51","","","","-9","","Snow"
"2019-03-12 04:00","2019","03","12","04:00","-4.3","","-8.4","","73","","29","","21","","24.1","","100.56","","","","-11","","Mostly Cloudy"
"2019-03-12 05:00","2019","03","12","05:00","-5.5","","-10.0","","70","","30","","25","","24.1","","100.65","","","","-13","","NA"
"2019-03-12 06:00","2019","03","12","06:00","-6.9","","-10.7","","74","","28","","15","","24.1","","100.74","","","","-13","","NA"
"2019-03-12 07:00","2019","03","12","07:00","-7.0","","-10.5","","76","","30","","24","","16.1","","100.90","","","","-15","","Mostly Cloudy"
"2019-03-12 08:00","2019","03","12","08:00","-7.6","","-12.0","","71","","31","","22","","24.1","","101.00","","","","-15","","NA"
"2019-03-12 09:00","2019","03","12","09:00","-6.8","","-12.4","","65","","31","","23","","24.1","","101.06","","","","-14","","NA"
"2019-03-12 10:00","2019","03","12","10:00","-6.0","","-11.3","","66","","30","","30","","24.1","","101.08","","","","-14","","Mainly Clear"
"2019-03-12 11:00","2019","03","12","11:00","-5.0","","-11.6","","61","","28","","21","","24.1","","101.04","","","","-12","","NA"
"2019-03-12 12:00","2019","03","12","12:00","-4.0","","-11.4","","56","","29","","24","","24.1","","101.05","","","","-11","","NA"
"2019-03-12 13:00","2019","03","12","13:00","-3.0","","-10.6","","56","","29","","21","","24.1","","101.03","","","","-9","","Clear"
"2019-03-12 14:00","2019","03","12","14:00","-2.2","","-11.2","","50","","27","","21","","24.1","","100.98","","","","-8","","NA"
"2019-03-12 15:00","2019","03","12","15:00","-1.3","","-11.6","","46","","29","","21","","24.1","","101.00","","","","-7","","NA"
"2019-03-12 16:00","2019","03","12","16:00","-1.0","","-10.7","","48","","30","","16","","24.1","","100.95","","","","-6","","Mainly Clear"
"2019-03-12 17:00","2019","03","12","17:00","-1.2","","-11.2","","47","","30","","10","","24.1","","100.99","","","","-5","","NA"
"2019-03-12 18:00","2019","03","12","18:00","-1.8","","-11.5","","48","","32","","4","","24.1","","100.98","","","","-3","","NA"
"2019-03-12 19:00","2019","03","12","19:00","-3.1","","-12.3","","50","","14","","8","","24.1","","101.00","","","","-6","","Clear"
"2019-03-12 20:00","2019","03","12","20:00","-4.4","","-12.2","","55","","13","","11","","24.1","","100.97","","","","-9","","NA"
"2019-03-12 21:00","2019","03","12","21:00","-4.8","","-11.7","","59","","15","","11","","24.1","","100.94","","","","-9","","NA"
"2019-03-12 22:00","2019","03","12","22:00","-4.3","","-8.9","","70","","20","","9","","24.1","","100.93","","","","-8","","Clear"
"2019-03-12 23:00","2019","03","12","23:00","-4.2","","-8.9","","70","","23","","14","","24.1","","100.94","","","","-9","","NA"
"2019-03-13 00:00","2019","03","13","00:00","-4.7","","-9.1","","71","","21","","10","","24.1","","100.99","","","","-9","","NA"
"2019-03-13 01:00","2019","03","13","01:00","-5.3","","-8.9","","76","","19","","9","","24.1","","101.02","","","","-9","","Clear"
"2019-03-13 02:00","2019","03","13","02:00","-6.0","","-9.1","","79","","17","","11","","24.1","","100.97","","","","-11","","NA"
"2019-03-13 03:00","2019","03","13","03:00","-5.5","","-8.6","","80","","19","","12","","24.1","","100.98","","","","-10","","NA"
"2019-03-13 04:00","2019","03","13","04:00","-6.0","","-7.7","","88","","19","","11","","24.1","","100.96","","","","-11","","Clear"
"2019-03-13 05:00","2019","03","13","05:00","-6.4","","-7.3","","93","","17","","10","","16.1","","100.96","","","","-11","","NA"
"2019-03-13 06:00","2019","03","13","06:00","-6.1","","-6.8","","95","","17","","8","","12.9","","101.04","","","","-10","","NA"
"2019-03-13 07:00","2019","03","13","07:00","-5.6","","-6.3","","94","","19","","9","","12.9","","101.06","","","","-10","","Cloudy"
"2019-03-13 08:00","2019","03","13","08:00","-4.0","","-4.8","","94","","20","","16","","6.4","","101.09","","","","-10","","Fog"
"2019-03-13 09:00","2019","03","13","09:00","-2.6","","-4.0","","91","","20","","10","","9.7","","101.10","","","","-6","","Fog"
"2019-03-13 10:00","2019","03","13","10:00","-1.1","","-3.3","","85","","17","","10","","16.1","","100.99","","","","-5","","Cloudy"
"2019-03-13 11:00","2019","03","13","11:00","-0.2","","-3.4","","79","","20","","13","","16.1","","100.96","","","","-4","","NA"
"2019-03-13 12:00","2019","03","13","12:00","0.5","","-4.0","","72","","18","","19","","16.1","","100.89","","","","","","NA"
"2019-03-13 13:00","2019","03","13","13:00","0.6","","-4.7","","68","","17","","16","","16.1","","100.78","","","","","","Cloudy"
"2019-03-13 14:00","2019","03","13","14:00","0.8","","-5.0","","65","","16","","13","","16.1","","100.79","","","","","","NA"
"2019-03-13 15:00","2019","03","13","15:00","0.9","","-4.3","","68","","20","","13","","4.8","","100.85","","","","","","Snow"
"2019-03-13 16:00","2019","03","13","16:00","-1.2","","-2.1","","93","","22","","13","","1.2","","100.96","","","","-5","","Snow"
"2019-03-13 17:00","2019","03","13","17:00","-1.4","","-1.9","","96","","16","","8","","0.6","","100.88","","","","-4","","Moderate Snow"
"2019-03-13 18:00","2019","03","13","18:00","-1.5","","-2.0","","96","","16","","6","","6.4","","100.91","","","","-4","","Snow"
"2019-03-13 19:00","2019","03","13","19:00","-1.6","","-2.2","","96","","13","","7","","24.1","","100.91","","","","-4","","Cloudy"
"2019-03-13 20:00","2019","03","13","20:00","-1.2","","-1.9","","95","","14","","13","","24.1","","100.86","","","","-5","","NA"
"2019-03-13 21:00","2019","03","13","21:00","-1.0","","-1.7","","95","","8","","11","","24.1","","100.86","","","","-5","","NA"
"2019-03-13 22:00","2019","03","13","22:00","-1.2","","-1.7","","96","","7","","14","","8.1","","100.85","","","","-6","","Fog"
"2019-03-13 23:00","2019","03","13","23:00","-1.1","","-1.6","","97","","5","","16","","6.4","","100.85","","","","-6","","Fog"
"2019-03-14 00:00","2019","03","14","00:00","-1.1","","-1.5","","97","","7","","17","","6.4","","100.78","","","","-6","","Fog"
"2019-03-14 01:00","2019","03","14","01:00","-1.0","","-1.4","","97","","7","","17","","4.0","","100.69","","","","-6","","Fog"
"2019-03-14 02:00","2019","03","14","02:00","-0.9","","-1.2","","97","","6","","17","","2.4","","100.71","","","","-6","","Fog"
"2019-03-14 03:00","2019","03","14","03:00","-0.8","","-1.2","","97","","6","","21","","1.6","","100.65","","","","-6","","Fog"
"2019-03-14 04:00","2019","03","14","04:00","-0.7","","-1.1","","97","","5","","20","","4.8","","100.69","","","","-6","","Fog"
"2019-03-14 05:00","2019","03","14","05:00","-0.6","","-1.1","","96","","6","","13","","8.1","","100.75","","","","-5","","Fog"
"2019-03-14 06:00","2019","03","14","06:00","-0.6","","-1.2","","96","","6","","15","","4.8","","100.70","","","","-5","","Fog"
"2019-03-14 07:00","2019","03","14","07:00","-0.4","","-0.9","","96","","8","","20","","4.8","","100.60","","","","-6","","Fog"
"2019-03-14 08:00","2019","03","14","08:00","0.1","","-0.8","","94","","8","","16","","6.4","","100.58","","","","","","Fog"
"2019-03-14 09:00","2019","03","14","09:00","0.7","","-0.5","","92","","7","","17","","6.4","","100.56","","","","","","Fog"
"2019-03-14 10:00","2019","03","14","10:00","1.2","","-0.3","","90","","8","","19","","12.9","","100.45","","","","","","Cloudy"
"2019-03-14 11:00","2019","03","14","11:00","2.2","","0.0","","86","","9","","17","","16.1","","100.35","","","","","","NA"
"2019-03-14 12:00","2019","03","14","12:00","2.8","","0.1","","83","","8","","21","","24.1","","100.22","","","","","","NA"
"2019-03-14 13:00","2019","03","14","13:00","3.2","","0.1","","80","","7","","23","","24.1","","100.14","","","","","","Mostly Cloudy"
"2019-03-14 14:00","2019","03","14","14:00","3.8","","0.2","","77","","8","","21","","24.1","","99.95","","","","","","NA"
"2019-03-14 15:00","2019","03","14","15:00","2.3","","0.5","","88","","6","","14","","12.9","","99.85","","","","","","Rain"
"2019-03-14 16:00","2019","03","14","16:00","2.6","","0.2","","84","","6","","10","","16.1","","99.77","","","","","","Cloudy"
"2019-03-14 17:00","2019","03","14","17:00","2.5","","0.0","","83","","7","","17","","12.9","","99.63","","","","","","NA"
"2019-03-14 18:00","2019","03","14","18:00","2.6","","-0.3","","81","","3","","5","","12.9","","99.66","","","","","","NA"
"2019-03-14 19:00","2019","03","14","19:00","1.9","","-0.3","","85","","5","","15","","16.1","","99.60","","","","","","Rain"
"2019-03-14 20:00","2019","03","14","20:00","2.4","","-0.2","","83","","6","","16","","24.1","","99.46","","","","","","NA"
"2019-03-14 21:00","2019","03","14","21:00","2.1","","-0.1","","85","","9","","15","","24.1","","99.36","","","","","","NA"
"2019-03-14 22:00","2019","03","14","22:00","2.1","","-0.2","","84","","7","","12","","24.1","","99.27","","","","","","Cloudy"
"2019-03-14 23:00","2019","03","14","23:00","2.1","","-0.1","","85","","8","","15","","16.1","","99.14","","","","","","Rain"
"2019-03-15 00:00","2019","03","15","00:00","2.5","","0.6","","87","","12","","6","","12.9","","98.99","","","","","","Rain"
"2019-03-15 01:00","2019","03","15","01:00","5.8","","3.4","","84","","13","","25","","24.1","","98.67","","","","","","Cloudy"
"2019-03-15 02:00","2019","03","15","02:00","5.1","","3.9","","91","","11","","10","","24.1","","98.68","","","","","","NA"
"2019-03-15 03:00","2019","03","15","03:00","3.1","","2.4","","95","","5","","12","","24.1","","98.64","","","","","","NA"
"2019-03-15 04:00","2019","03","15","04:00","2.1","","1.5","","96","","5","","13","","8.1","","98.59","","","","","","Rain"
"2019-03-15 05:00","2019","03","15","05:00","2.5","","2.1","","98","","7","","11","","16.1","","98.52","","","","","","NA"
"2019-03-15 06:00","2019","03","15","06:00","2.3","","2.0","","97","","10","","13","","12.9","","98.52","","","","","","NA"
"2019-03-15 07:00","2019","03","15","07:00","7.8","","6.1","","89","","21","","25","","24.1","","98.53","","","","","","Mainly Clear"
"2019-03-15 08:00","2019","03","15","08:00","7.3","","2.6","","72","","22","","26","","24.1","","98.64","","","","","","NA"
"2019-03-15 09:00","2019","03","15","09:00","6.5","","2.2","","74","","22","","26","","24.1","","98.77","","","","","","NA"
"2019-03-15 10:00","2019","03","15","10:00","5.8","","2.4","","78","","21","","22","","24.1","","98.83","","","","","","Cloudy"
"2019-03-15 11:00","2019","03","15","11:00","6.7","","1.9","","71","","21","","18","","24.1","","98.84","","","","","","NA"
"2019-03-15 12:00","2019","03","15","12:00","6.5","","1.8","","72","","21","","25","","24.1","","98.87","","","","","","NA"
"2019-03-15 13:00","2019","03","15","13:00","6.4","","1.4","","71","","22","","22","","24.1","","98.90","","","","","","Cloudy"
"2019-03-15 14:00","2019","03","15","14:00","6.0","","1.5","","73","","22","","19","","24.1","","98.92","","","","","","NA"
"2019-03-15 15:00","2019","03","15","15:00","6.3","","1.2","","70","","22","","17","","24.1","","98.94","","","","","","NA"
"2019-03-15 16:00","2019","03","15","16:00","6.3","","1.2","","70","","21","","18","","24.1","","98.94","","","","","","Cloudy"
"2019-03-15 17:00","2019","03","15","17:00","5.6","","1.4","","74","","21","","22","","24.1","","98.97","","","","","","Rain Showers"
"2019-03-15 18:00","2019","03","15","18:00","4.8","","1.9","","81","","22","","14","","12.9","","98.99","","","","","","Rain Showers"
"2019-03-15 19:00","2019","03","15","19:00","4.0","","2.1","","87","","21","","12","","12.9","","99.02","","","","","","Rain Showers"
"2019-03-15 20:00","2019","03","15","20:00","3.7","","1.8","","87","","21","","14","","12.9","","99.02","","","","","","Rain Showers"
"2019-03-15 21:00","2019","03","15","21:00","3.2","","1.7","","90","","20","","16","","12.9","","98.99","","","","","","Rain Showers"
"2019-03-15 22:00","2019","03","15","22:00","3.0","","1.8","","92","","21","","17","","12.9","","98.97","","","","","","Rain Showers,Fog"
"2019-03-15 23:00","2019","03","15","23:00","3.0","","1.7","","91","","22","","22","","12.9","","98.97","","","","","","Drizzle,Fog"
"2019-03-16 00:00","2019","03","16","00:00","1.9","","0.4","","90","","25","","16","","24.1","","98.99","","","","","","Fog"
"2019-03-16 01:00","2019","03","16","01:00","2.0","","-1.0","","81","","25","","23","","24.1","","99.02","","","","","","Mostly Cloudy"
"2019-03-16 02:00","2019","03","16","02:00","1.3","","-3.5","","70","","25","","33","","24.1","","99.05","","","","","","NA"
"2019-03-16 03:00","2019","03","16","03:00","1.1","","-3.8","","70","","26","","31","","24.1","","99.08","","","","","","NA"
"2019-03-16 04:00","2019","03","16","04:00","0.7","","-3.9","","71","","27","","25","","24.1","","99.15","","","","","","Cloudy"
"2019-03-16 05:00","2019","03","16","05:00","0.1","","-4.5","","71","","27","","36","","24.1","","99.25","","","","","","Snow Showers"
"2019-03-16 06:00","2019","03","16","06:00","-1.9","","-5.3","","78","","30","","34","","24.1","","99.40","","","","-9","","Snow Showers"
"2019-03-16 07:00","2019","03","16","07:00","-3.6","","-8.3","","70","","29","","42","","24.1","","99.55","","","","-12","","Cloudy"
"2019-03-16 08:00","2019","03","16","08:00","-3.9","","-10.5","","60","","29","","51","","24.1","","99.68","","","","-14","","NA"
"2019-03-16 09:00","2019","03","16","09:00","-3.9","","-10.5","","60","","29","","31","","24.1","","99.82","","","","-12","","NA"
"2019-03-16 10:00","2019","03","16","10:00","-4.0","","-10.9","","59","","29","","37","","24.1","","99.91","","","","-12","","Cloudy"
"2019-03-16 11:00","2019","03","16","11:00","-3.1","","-9.7","","61","","29","","35","","24.1","","99.95","","","","-11","","NA"
"2019-03-16 12:00","2019","03","16","12:00","-3.0","","-9.9","","59","","29","","30","","24.1","","99.99","","","","-10","","NA"
"2019-03-16 13:00","2019","03","16","13:00","-2.6","","-9.9","","57","","30","","36","","24.1","","100.00","","","","-10","","Mainly Clear"
"2019-03-16 14:00","2019","03","16","14:00","-1.3","","-8.7","","58","","30","","26","","24.1","","100.02","","","","-8","","NA"
"2019-03-16 15:00","2019","03","16","15:00","-1.1","","-8.8","","56","","30","","28","","24.1","","100.03","","","","-8","","NA"
"2019-03-16 16:00","2019","03","16","16:00","-1.1","","-8.9","","56","","30","","27","","24.1","","100.03","","","","-8","","Mainly Clear"
"2019-03-16 17:00","2019","03","16","17:00","-1.8","","-8.8","","59","","30","","25","","24.1","","100.07","","","","-8","","NA"
"2019-03-16 18:00","2019","03","16","18:00","-2.4","","-9.2","","60","","30","","27","","24.1","","100.14","","","","-9","","NA"
"2019-03-16 19:00","2019","03","16","19:00","-3.2","","-9.2","","63","","30","","33","","24.1","","100.23","","","","-11","","Mostly Cloudy"
"2019-03-16 20:00","2019","03","16","20:00","-3.8","","-10.9","","58","","29","","26","","24.1","","100.31","","","","-11","","NA"
"2019-03-16 21:00","2019","03","16","21:00","-4.6","","-11.0","","61","","30","","29","","24.1","","100.36","","","","-12","","NA"
"2019-03-16 22:00","2019","03","16","22:00","-5.3","","-11.7","","61","","30","","35","","24.1","","100.39","","","","-14","","Mostly Cloudy"
"2019-03-16 23:00","2019","03","16","23:00","-5.5","","-10.9","","66","","29","","29","","24.1","","100.43","","","","-14","","NA"
"2019-03-17 00:00","2019","03","17","00:00","-6.6","","-10.8","","72","","27","","14","","24.1","","100.45","","","","-12","","NA"
"2019-03-17 01:00","2019","03","17","01:00","-6.7","","-10.8","","73","","26","","12","","24.1","","100.50","","","","-12","","Mostly Cloudy"
"2019-03-17 02:00","2019","03","17","02:00","-6.5","","-11.0","","71","","30","","23","","24.1","","100.51","","","","-14","","Snow Showers"
"2019-03-17 03:00","2019","03","17","03:00","-6.7","","-12.5","","64","","30","","27","","24.1","","100.52","","","","-15","","NA"
"2019-03-17 04:00","2019","03","17","04:00","-7.6","","-11.6","","74","","28","","17","","24.1","","100.56","","","","-14","","Mainly Clear"
"2019-03-17 05:00","2019","03","17","05:00","-8.1","","-12.6","","71","","29","","14","","24.1","","100.64","","","","-14","","NA"
"2019-03-17 06:00","2019","03","17","06:00","-9.1","","-12.8","","74","","26","","10","","24.1","","100.70","","","","-14","","NA"
"2019-03-17 07:00","2019","03","17","07:00","-8.5","","-12.2","","75","","25","","13","","24.1","","100.74","","","","-14","","Mostly Cloudy"
"2019-03-17 08:00","2019","03","17","08:00","-6.8","","-13.7","","58","","28","","26","","24.1","","100.76","","","","-15","","NA"
"2019-03-17 09:00","2019","03","17","09:00","-6.2","","-13.8","","55","","28","","29","","24.1","","100.80","","","","-14","","NA"
"2019-03-17 10:00","2019","03","17","10:00","-5.8","","-14.3","","51","","28","","30","","24.1","","100.78","","","","-14","","Cloudy"
"2019-03-17 11:00","2019","03","17","11:00","-5.3","","-13.8","","52","","28","","24","","24.1","","100.74","","","","-13","","NA"
"2019-03-17 12:00","2019","03","17","12:00","-4.9","","-13.2","","53","","30","","23","","24.1","","100.74","","","","-12","","NA"
"2019-03-17 13:00","2019","03","17","13:00","-3.3","","-12.3","","50","","27","","17","","24.1","","100.70","","","","-9","","Mainly Clear"
"2019-03-17 14:00","2019","03","17","14:00","-3.1","","-11.8","","51","","29","","32","","24.1","","100.65","","","","-11","","NA"
"2019-03-17 15:00","2019","03","17","15:00","-2.7","","-12.3","","48","","27","","24","","24.1","","100.61","","","","-9","","NA"
"2019-03-17 16:00","2019","03","17","16:00","-2.5","","-11.0","","52","","27","","22","","24.1","","100.57","","","","-9","","Mainly Clear"
"2019-03-17 17:00","2019","03","17","17:00","-2.8","","-10.8","","54","","30","","17","","24.1","","100.57","","","","-8","","NA"
"2019-03-17 18:00","2019","03","17","18:00","-3.4","","-11.2","","55","","28","","16","","24.1","","100.61","","","","-9","","NA"
"2019-03-17 19:00","2019","03","17","19:00","-4.6","","-11.6","","58","","30","","13","","24.1","","100.68","","","","-10","","Mainly Clear"
"2019-03-17 20:00","2019","03","17","20:00","-4.3","","-12.5","","53","","29","","15","","24.1","","100.74","","","","-10","","NA"
"2019-03-17 21:00","2019","03","17","21:00","-5.3","","-12.3","","58","","28","","13","","24.1","","100.76","","","","-10","","NA"
"2019-03-17 22:00","2019","03","17","22:00","-6.5","","-13.4","","58","","25","","9","","24.1","","100.79","","","","-11","","Clear"
"2019-03-17 23:00","2019","03","17","23:00","-7.9","","-13.8","","63","","26","","10","","24.1","","100.83","","","","-13","","NA"
"2019-03-18 00:00","2019","03","18","00:00","-8.1","","-13.6","","65","","23","","9","","24.1","","100.84","","","","-13","","NA"
"2019-03-18 01:00","2019","03","18","01:00","-9.2","","-14.2","","67","","25","","11","","24.1","","100.85","","","","-15","","Clear"
"2019-03-18 02:00","2019","03","18","02:00","-10.3","","-14.2","","74","","24","","5","","24.1","","100.86","","","","-13","","NA"
"2019-03-18 03:00","2019","03","18","03:00","-11.4","","-15.2","","74","","24","","9","","24.1","","100.85","","","","-17","","NA"
"2019-03-18 04:00","2019","03","18","04:00","-11.6","","-15.3","","74","","23","","8","","24.1","","100.85","","","","-16","","Clear"
"2019-03-18 05:00","2019","03","18","05:00","-10.6","","-14.6","","73","","33","","9","","24.1","","100.88","","","","-16","","NA"
"2019-03-18 06:00","2019","03","18","06:00","-11.9","","-14.6","","80","","25","","5","","24.1","","100.92","","","","-15","","NA"
"2019-03-18 07:00","2019","03","18","07:00","-10.5","","-14.2","","75","","30","","9","","24.1","","100.97","","","","-15","","Clear"
"2019-03-18 08:00","2019","03","18","08:00","-9.4","","-13.1","","75","","31","","5","","24.1","","101.04","","","","-12","","NA"
"2019-03-18 09:00","2019","03","18","09:00","-6.7","","-13.0","","61","","31","","9","","24.1","","101.08","","","","-11","","NA"
"2019-03-18 10:00","2019","03","18","10:00","-5.3","","-14.5","","49","","32","","7","","24.1","","101.11","","","","-9","","Clear"
"2019-03-18 11:00","2019","03","18","11:00","-4.1","","-14.9","","43","","29","","19","","24.1","","101.10","","","","-10","","NA"
"2019-03-18 12:00","2019","03","18","12:00","-3.3","","-13.6","","45","","26","","21","","24.1","","101.11","","","","-10","","NA"
"2019-03-18 13:00","2019","03","18","13:00","-2.7","","-13.6","","43","","30","","27","","24.1","","101.07","","","","-10","","Clear"
"2019-03-18 14:00","2019","03","18","14:00","-2.4","","-15.2","","37","","29","","22","","24.1","","101.04","","","","-9","","NA"
"2019-03-18 15:00","2019","03","18","15:00","-2.2","","-15.2","","37","","29","","25","","24.1","","101.02","","","","-9","","NA"
"2019-03-18 16:00","2019","03","18","16:00","-1.7","","-13.7","","40","","29","","20","","24.1","","101.00","","","","-7","","Mainly Clear"
"2019-03-18 17:00","2019","03","18","17:00","-1.8","","-14.8","","37","","29","","14","","24.1","","101.02","","","","-6","","NA"
"2019-03-18 18:00","2019","03","18","18:00","-2.4","","-16.4","","34","","28","","13","","24.1","","101.03","","","","-7","","NA"
"2019-03-18 19:00","2019","03","18","19:00","-3.1","","-14.8","","40","","28","","8","","24.1","","101.09","","","","-6","","Mainly Clear"
"2019-03-18 20:00","2019","03","18","20:00","-4.0","","-13.9","","47","","27","","8","","24.1","","101.15","","","","-7","","NA"
"2019-03-18 21:00","2019","03","18","21:00","-4.8","","-13.6","","51","","27","","8","","24.1","","101.18","","","","-8","","NA"
"2019-03-18 22:00","2019","03","18","22:00","-7.2","","-14.6","","56","","21","","5","","24.1","","101.22","","","","-10","","Mainly Clear"
"2019-03-18 23:00","2019","03","18","23:00","-7.7","","-13.8","","62","","28","","7","","24.1","","101.25","","","","-11","","NA"
"2019-03-19 00:00","2019","03","19","00:00","-7.6","","-15.0","","56","","30","","9","","24.1","","101.27","","","","-12","","NA"
"2019-03-19 01:00","2019","03","19","01:00","-8.4","","-14.1","","64","","31","","11","","24.1","","101.31","","","","-14","","Clear"
"2019-03-19 02:00","2019","03","19","02:00","-8.2","","-15.8","","55","","30","","7","","24.1","","101.34","","","","-12","","NA"
"2019-03-19 03:00","2019","03","19","03:00","-10.9","","-14.9","","72","","31","","8","","24.1","","101.33","","","","-16","","NA"
"2019-03-19 04:00","2019","03","19","04:00","-11.5","","-16.1","","69","","36","","3","","24.1","","101.36","","","","-13","","Clear"
"2019-03-19 05:00","2019","03","19","05:00","-10.6","","-15.4","","68","","31","","7","","24.1","","101.40","","","","-15","","NA"
"2019-03-19 06:00","2019","03","19","06:00","-11.8","","-15.6","","74","","34","","3","","24.1","","101.45","","","","-14","","NA"
"2019-03-19 07:00","2019","03","19","07:00","-11.4","","-15.0","","75","","36","","2","","24.1","","101.51","","","","-13","","Clear"
"2019-03-19 08:00","2019","03","19","08:00","-9.3","","-13.5","","72","","29","","3","","24.1","","101.52","","","","-11","","NA"
"2019-03-19 09:00","2019","03","19","09:00","-6.3","","-11.4","","67","","36","","1","","24.1","","101.57","","","","-7","","NA"
"2019-03-19 10:00","2019","03","19","10:00","-3.6","","-17.1","","35","","19","","6","","24.1","","101.59","","","","-6","","Clear"
"2019-03-19 11:00","2019","03","19","11:00","-2.3","","-16.2","","34","","19","","7","","24.1","","101.57","","","","-5","","NA"
"2019-03-19 12:00","2019","03","19","12:00","-1.5","","-17.6","","28","","22","","5","","24.1","","101.57","","","","-3","","NA"
"2019-03-19 13:00","2019","03","19","13:00","-0.3","","-13.9","","35","","16","","11","","24.1","","101.50","","","","-4","","Mainly Clear"
"2019-03-19 14:00","2019","03","19","14:00","0.7","","-11.3","","40","","20","","8","","24.1","","101.45","","","","","","NA"
"2019-03-19 15:00","2019","03","19","15:00","1.4","","-12.4","","35","","23","","16","","24.1","","101.39","","","","","","NA"
"2019-03-19 16:00","2019","03","19","16:00","1.6","","-11.7","","37","","22","","17","","24.1","","101.35","","","","","","Mostly Cloudy"
"2019-03-19 17:00","2019","03","19","17:00","1.7","","-10.9","","39","","23","","14","","24.1","","101.32","","","","","","NA"
"2019-03-19 18:00","2019","03","19","18:00","0.2","","-10.2","","46","","22","","8","","24.1","","101.30","","","","","","NA"
"2019-03-19 19:00","2019","03","19","19:00","-0.5","","-9.7","","50","","19","","8","","24.1","","101.30","","","","-3","","Mainly Clear"
"2019-03-19 20:00","2019","03","19","20:00","-1.2","","-7.3","","63","","19","","10","","24.1","","101.30","","","","-5","","NA"
"2019-03-19 21:00","2019","03","19","21:00","-1.8","","-6.2","","72","","19","","10","","24.1","","101.29","","","","-5","","NA"
"2019-03-19 22:00","2019","03","19","22:00","-2.5","","-5.9","","78","","19","","9","","24.1","","101.29","","","","-6","","Clear"
"2019-03-19 23:00","2019","03","19","23:00","-3.5","","-6.0","","82","","18","","8","","24.1","","101.26","","","","-7","","NA"
"2019-03-20 00:00","2019","03","20","00:00","-4.0","","-6.0","","86","","19","","9","","24.1","","101.25","","","","-8","","NA"
"2019-03-20 01:00","2019","03","20","01:00","-4.2","","-5.8","","88","","19","","11","","24.1","","101.24","","","","-9","","Clear"
"2019-03-20 02:00","2019","03","20","02:00","-4.8","","-6.1","","91","","19","","11","","24.1","","101.21","","","","-9","","NA"
"2019-03-20 03:00","2019","03","20","03:00","-5.2","","-6.3","","92","","18","","5","","24.1","","101.15","","","","-7","","NA"
"2019-03-20 04:00","2019","03","20","04:00","-5.4","","-6.6","","91","","18","","5","","24.1","","101.13","","","","-8","","Mainly Clear"
"2019-03-20 05:00","2019","03","20","05:00","-5.5","","-6.5","","93","","13","","4","","24.1","","101.09","","","","-7","","NA"
"2019-03-20 06:00","2019","03","20","06:00","-6.8","","-7.8","","93","","16","","7","","24.1","","101.07","","","","-10","","NA"
"2019-03-20 07:00","2019","03","20","07:00","-4.4","","-6.2","","87","","19","","9","","24.1","","101.06","","","","-8","","Mostly Cloudy"
"2019-03-20 08:00","2019","03","20","08:00","-2.2","","-4.9","","82","","21","","9","","24.1","","101.03","","","","-6","","NA"
"2019-03-20 09:00","2019","03","20","09:00","-0.1","","-4.1","","75","","20","","15","","24.1","","101.04","","","","-5","","NA"
"2019-03-20 10:00","2019","03","20","10:00","2.4","","-3.3","","66","","19","","18","","24.1","","101.03","","","","","","Mostly Cloudy"
"2019-03-20 11:00","2019","03","20","11:00","3.6","","-3.1","","62","","19","","19","","24.1","","100.98","","","","","","NA"
"2019-03-20 12:00","2019","03","20","12:00","4.8","","-3.8","","54","","19","","21","","24.1","","100.93","","","","","","NA"
"2019-03-20 13:00","2019","03","20","13:00","5.9","","-3.8","","50","","20","","21","","24.1","","100.85","","","","","","Mainly Clear"
"2019-03-20 14:00","2019","03","20","14:00","6.5","","-3.6","","48","","19","","22","","24.1","","100.74","","","","","","NA"
"2019-03-20 15:00","2019","03","20","15:00","6.5","","-3.2","","50","","18","","21","","24.1","","100.68","","","","","","NA"
"2019-03-20 16:00","2019","03","20","16:00","6.0","","-3.3","","51","","19","","18","","24.1","","100.65","","","","","","Mostly Cloudy"
"2019-03-20 17:00","2019","03","20","17:00","6.4","","-3.8","","48","","19","","18","","24.1","","100.64","","","","","","NA"
"2019-03-20 18:00","2019","03","20","18:00","5.1","","-3.1","","55","","19","","15","","24.1","","100.65","","","","","","NA"
"2019-03-20 19:00","2019","03","20","19:00","4.2","","-3.1","","59","","19","","15","","24.1","","100.62","","","","","","Mainly Clear"
"2019-03-20 20:00","2019","03","20","20:00","3.2","","-3.5","","62","","17","","9","","24.1","","100.64","","","","","","NA"
"2019-03-20 21:00","2019","03","20","21:00","3.2","","-3.7","","61","","17","","9","","24.1","","100.62","","","","","","NA"
"2019-03-20 22:00","2019","03","20","22:00","3.2","","-4.0","","59","","19","","6","","24.1","","100.59","","","","","","Cloudy"
"2019-03-20 23:00","2019","03","20","23:00","1.6","","-4.2","","65","","15","","10","","24.1","","100.55","","","","","","NA"
"2019-03-21 00:00","2019","03","21","00:00","1.1","","-4.5","","66","","15","","11","","24.1","","100.50","","","","","","NA"
"2019-03-21 01:00","2019","03","21","01:00","1.4","","-4.4","","66","","16","","9","","24.1","","100.49","","","","","","Cloudy"
"2019-03-21 02:00","2019","03","21","02:00","2.1","","-4.3","","62","","17","","9","","24.1","","100.47","","","","","","NA"
"2019-03-21 03:00","2019","03","21","03:00","1.0","","-3.3","","73","","1","","9","","24.1","","100.43","","","","","","NA"
"2019-03-21 04:00","2019","03","21","04:00","0.1","","-3.3","","78","","6","","9","","24.1","","100.37","","","","","","Cloudy"
"2019-03-21 05:00","2019","03","21","05:00","-0.1","","-2.9","","81","","7","","7","","24.1","","100.33","","","","-3","","NA"
"2019-03-21 06:00","2019","03","21","06:00","1.1","","-3.8","","70","","14","","9","","24.1","","100.31","","","","","","NA"
"2019-03-21 07:00","2019","03","21","07:00","2.8","","-2.9","","66","","16","","13","","24.1","","100.30","","","","","","Cloudy"
"2019-03-21 08:00","2019","03","21","08:00","3.9","","-1.3","","69","","17","","18","","24.1","","100.28","","","","","","NA"
"2019-03-21 09:00","2019","03","21","09:00","4.2","","-0.2","","73","","17","","14","","24.1","","100.23","","","","","","NA"
"2019-03-21 10:00","2019","03","21","10:00","4.7","","-0.5","","69","","18","","18","","24.1","","100.18","","","","","","Cloudy"
"2019-03-21 11:00","2019","03","21","11:00","5.7","","-1.4","","61","","16","","17","","24.1","","100.11","","","","","","NA"
"2019-03-21 12:00","2019","03","21","12:00","5.6","","-1.6","","60","","18","","13","","24.1","","100.07","","","","","","NA"
"2019-03-21 13:00","2019","03","21","13:00","5.8","","-1.3","","60","","19","","12","","24.1","","100.00","","","","","","Cloudy"
"2019-03-21 14:00","2019","03","21","14:00","5.5","","-1.3","","61","","15","","12","","24.1","","99.85","","","","","","NA"
"2019-03-21 15:00","2019","03","21","15:00","4.8","","-0.8","","67","","14","","8","","24.1","","99.76","","","","","","NA"
"2019-03-21 16:00","2019","03","21","16:00","4.8","","-0.2","","70","","16","","7","","24.1","","99.70","","","","","","Rain Showers"
"2019-03-21 17:00","2019","03","21","17:00","4.5","","0.6","","76","","12","","7","","24.1","","99.66","","","","","","Rain"
"2019-03-21 18:00","2019","03","21","18:00","3.2","","1.0","","85","","6","","10","","16.1","","99.61","","","","","","NA"
"2019-03-21 19:00","2019","03","21","19:00","2.9","","0.5","","84","","10","","9","","16.1","","99.57","","","","","","Cloudy"
"2019-03-21 20:00","2019","03","21","20:00","3.0","","0.4","","83","","9","","8","","16.1","","99.54","","","","","","Rain"
"2019-03-21 21:00","2019","03","21","21:00","2.5","","1.5","","93","","4","","3","","16.1","","99.48","","","","","","Rain"
"2019-03-21 22:00","2019","03","21","22:00","1.8","","1.3","","97","","10","","4","","16.1","","99.38","","","","","","Rain"
"2019-03-21 23:00","2019","03","21","23:00","2.7","","2.3","","97","","16","","10","","16.1","","99.31","","","","","","Rain"
"2019-03-22 00:00","2019","03","22","00:00","2.8","","2.4","","97","","17","","11","","12.9","","99.24","","","","","","Rain"
"2019-03-22 01:00","2019","03","22","01:00","2.6","","2.1","","97","","16","","6","","16.1","","99.13","","","","","","Rain"
"2019-03-22 02:00","2019","03","22","02:00","2.4","","2.0","","97","","16","","10","","16.1","","99.08","","","","","","Rain"
"2019-03-22 03:00","2019","03","22","03:00","2.0","","1.7","","97","","20","","5","","12.9","","98.95","","","","","","Rain"
"2019-03-22 04:00","2019","03","22","04:00","1.9","","1.6","","98","","16","","9","","8.1","","98.85","","","","","","Rain"
"2019-03-22 05:00","2019","03","22","05:00","2.1","","1.8","","98","","29","","3","","8.1","","98.78","","","","","","Rain,Fog"
"2019-03-22 06:00","2019","03","22","06:00","1.5","","1.2","","98","","32","","9","","1.0","","98.74","","","","","","Rain,Fog"
"2019-03-22 07:00","2019","03","22","07:00","1.9","","1.7","","98","","35","","14","","3.2","","98.71","","","","","","Rain,Fog"
"2019-03-22 08:00","2019","03","22","08:00","1.6","","1.1","","96","","34","","12","","8.1","","98.67","","","","","","Rain,Fog"
"2019-03-22 09:00","2019","03","22","09:00","1.6","","0.9","","95","","34","","15","","12.9","","98.64","","","","","","Rain"
"2019-03-22 10:00","2019","03","22","10:00","1.6","","0.8","","94","","35","","19","","12.9","","98.61","","","","","","Rain"
"2019-03-22 11:00","2019","03","22","11:00","1.9","","1.1","","94","","36","","14","","12.9","","98.56","","","","","","Rain"
"2019-03-22 12:00","2019","03","22","12:00","2.5","","1.5","","94","","33","","15","","12.9","","98.49","","","","","","Rain"
"2019-03-22 13:00","2019","03","22","13:00","2.4","","1.5","","93","","33","","22","","12.9","","98.42","","","","","","Rain"
"2019-03-22 14:00","2019","03","22","14:00","2.6","","1.4","","91","","33","","31","","12.9","","98.36","","","","","","Rain"
"2019-03-22 15:00","2019","03","22","15:00","1.5","","0.2","","91","","32","","32","","12.9","","98.37","","","","","","Rain,Snow"
"2019-03-22 16:00","2019","03","22","16:00","0.7","","-1.2","","87","","32","","40","","6.4","","98.42","","","","","","Snow"
"2019-03-22 17:00","2019","03","22","17:00","0.0","","-2.2","","85","","31","","33","","12.9","","98.53","","","","-7","","Snow"
"2019-03-22 18:00","2019","03","22","18:00","-1.0","","-2.8","","87","","31","","34","","4.8","","98.64","","","","-8","","Snow"
"2019-03-22 19:00","2019","03","22","19:00","-1.6","","-3.8","","85","","30","","42","","6.4","","98.71","","","","-10","","Snow,Blowing Snow"
"2019-03-22 20:00","2019","03","22","20:00","-1.9","","-4.4","","83","","31","","36","","12.9","","98.79","","","","-10","","Snow"
"2019-03-22 21:00","2019","03","22","21:00","-2.2","","-5.1","","81","","31","","42","","12.9","","98.84","","","","-11","","Snow"
"2019-03-22 22:00","2019","03","22","22:00","-2.7","","-5.9","","79","","32","","44","","12.9","","98.88","","","","-11","","Cloudy"
"2019-03-22 23:00","2019","03","22","23:00","-3.0","","-7.0","","74","","32","","52","","12.9","","98.90","","","","-12","","NA"
"2019-03-23 00:00","2019","03","23","00:00","-3.5","","-7.7","","73","","30","","45","","24.1","","98.93","","","","-13","","NA"
"2019-03-23 01:00","2019","03","23","01:00","-4.7","","-10.0","","67","","31","","54","","24.1","","99.04","","","","-15","","Cloudy"
"2019-03-23 02:00","2019","03","23","02:00","-5.8","","-10.8","","68","","31","","51","","24.1","","99.13","","","","-16","","NA"
"2019-03-23 03:00","2019","03","23","03:00","-6.5","","-11.1","","70","","31","","36","","24.1","","99.23","","","","-16","","NA"
"2019-03-23 04:00","2019","03","23","04:00","-7.3","","-12.2","","69","","31","","40","","24.1","","99.34","","","","-17","","Cloudy"
"2019-03-23 05:00","2019","03","23","05:00","-8.2","","-12.5","","71","","30","","39","","24.1","","99.45","","","","-18","","NA"
"2019-03-23 06:00","2019","03","23","06:00","-8.8","","-12.9","","72","","31","","39","","24.1","","99.59","","","","-19","","NA"
"2019-03-23 07:00","2019","03","23","07:00","-8.9","","-13.5","","70","","31","","37","","24.1","","99.71","","","","-19","","Mainly Clear"
"2019-03-23 08:00","2019","03","23","08:00","-8.3","","-14.1","","64","","31","","35","","24.1","","99.84","","","","-18","","NA"
"2019-03-23 09:00","2019","03","23","09:00","-7.2","","-14.6","","56","","30","","35","","24.1","","99.93","","","","-16","","NA"
"2019-03-23 10:00","2019","03","23","10:00","-7.1","","-14.6","","56","","28","","34","","24.1","","100.03","","","","-16","","Mainly Clear"
"2019-03-23 11:00","2019","03","23","11:00","-6.0","","-14.9","","50","","28","","30","","24.1","","100.07","","","","-14","","NA"
"2019-03-23 12:00","2019","03","23","12:00","-4.7","","-14.8","","46","","28","","36","","24.1","","100.10","","","","-13","","NA"
"2019-03-23 13:00","2019","03","23","13:00","-4.0","","-14.8","","43","","26","","30","","24.1","","100.12","","","","-12","","Clear"
"2019-03-23 14:00","2019","03","23","14:00","-2.6","","-13.7","","43","","27","","32","","24.1","","100.14","","","","-10","","NA"
"2019-03-23 15:00","2019","03","23","15:00","-1.1","","-12.8","","41","","27","","32","","24.1","","100.14","","","","-8","","NA"
"2019-03-23 16:00","2019","03","23","16:00","-0.1","","-13.9","","35","","27","","32","","24.1","","100.16","","","","-7","","Clear"
"2019-03-23 17:00","2019","03","23","17:00","0.4","","-11.2","","42","","25","","21","","24.1","","100.16","","","","","","NA"
"2019-03-23 18:00","2019","03","23","18:00","0.1","","-11.9","","40","","24","","8","","24.1","","100.17","","","","","","NA"
"2019-03-23 19:00","2019","03","23","19:00","-1.6","","-10.8","","50","","25","","15","","24.1","","100.15","","","","-6","","Mainly Clear"
"2019-03-23 20:00","2019","03","23","20:00","-1.5","","-12.8","","42","","22","","9","","24.1","","100.17","","","","-5","","NA"
"2019-03-23 21:00","2019","03","23","21:00","-1.7","","-11.7","","47","","25","","16","","24.1","","100.19","","","","-7","","NA"
"2019-03-23 22:00","2019","03","23","22:00","-1.3","","-11.8","","45","","24","","21","","24.1","","100.22","","","","-7","","Clear"
"2019-03-23 23:00","2019","03","23","23:00","-2.4","","-11.8","","49","","22","","13","","24.1","","100.24","","","","-7","","NA"
"2019-03-24 00:00","2019","03","24","00:00","-2.7","","-11.0","","53","","23","","14","","24.1","","100.27","","","","-8","","NA"
"2019-03-24 01:00","2019","03","24","01:00","-2.9","","-10.0","","58","","22","","16","","24.1","","100.24","","","","-8","","Clear"
"2019-03-24 02:00","2019","03","24","02:00","-3.6","","-9.3","","64","","21","","15","","24.1","","100.21","","","","-9","","NA"
"2019-03-24 03:00","2019","03","24","03:00","-3.9","","-8.9","","68","","22","","12","","24.1","","100.14","","","","-9","","NA"
"2019-03-24 04:00","2019","03","24","04:00","-3.6","","-8.8","","67","","22","","19","","24.1","","100.12","","","","-10","","Clear"
"2019-03-24 05:00","2019","03","24","05:00","-3.8","","-8.8","","69","","21","","17","","24.1","","100.10","","","","-10","","NA"
"2019-03-24 06:00","2019","03","24","06:00","-4.3","","-8.7","","72","","21","","13","","24.1","","100.14","","","","-9","","NA"
"2019-03-24 07:00","2019","03","24","07:00","-3.4","","-8.0","","71","","22","","18","","24.1","","100.18","","","","-9","","Mainly Clear"
"2019-03-24 08:00","2019","03","24","08:00","-1.6","","-7.1","","66","","23","","20","","24.1","","100.22","","","","-7","","NA"
"2019-03-24 09:00","2019","03","24","09:00","0.4","","-5.9","","63","","24","","18","","24.1","","100.25","","","","","","NA"
"2019-03-24 10:00","2019","03","24","10:00","2.0","","-4.8","","61","","29","","22","","24.1","","100.27","","","","","","Mostly Cloudy"
"2019-03-24 11:00","2019","03","24","11:00","2.6","","-4.9","","58","","28","","18","","24.1","","100.27","","","","","","NA"
"2019-03-24 12:00","2019","03","24","12:00","3.2","","-5.0","","55","","29","","15","","24.1","","100.26","","","","","","NA"
"2019-03-24 13:00","2019","03","24","13:00","3.1","","-4.8","","56","","32","","22","","24.1","","100.23","","","","","","Mostly Cloudy"
"2019-03-24 14:00","2019","03","24","14:00","2.9","","-4.7","","57","","35","","17","","24.1","","100.17","","","","","","NA"
"2019-03-24 15:00","2019","03","24","15:00","1.2","","-3.5","","71","","35","","23","","24.1","","100.19","","","","","","NA"
"2019-03-24 16:00","2019","03","24","16:00","0.0","","-3.1","","80","","34","","21","","9.7","","100.20","","","","-5","","Snow"
"2019-03-24 17:00","2019","03","24","17:00","-1.2","","-3.9","","82","","34","","26","","16.1","","100.21","","","","-8","","Snow"
"2019-03-24 18:00","2019","03","24","18:00","-1.9","","-3.7","","87","","33","","21","","2.4","","100.27","","","","-8","","Snow"
"2019-03-24 19:00","2019","03","24","19:00","-2.4","","-5.5","","79","","33","","23","","6.4","","100.33","","","","-9","","Snow"
"2019-03-24 20:00","2019","03","24","20:00","-2.6","","-4.6","","87","","27","","11","","24.1","","100.38","","","","-7","","NA"
"2019-03-24 21:00","2019","03","24","21:00","-3.4","","-5.9","","83","","29","","18","","24.1","","100.42","","","","-9","","NA"
"2019-03-24 22:00","2019","03","24","22:00","-4.2","","-6.1","","87","","29","","21","","24.1","","100.45","","","","-11","","Mainly Clear"
"2019-03-24 23:00","2019","03","24","23:00","-4.7","","-6.6","","87","","29","","16","","24.1","","100.50","","","","-10","","NA"
"2019-03-25 00:00","2019","03","25","00:00","-5.6","","-7.8","","85","","29","","13","","24.1","","100.56","","","","-11","","NA"
"2019-03-25 01:00","2019","03","25","01:00","-6.8","","-10.2","","77","","32","","10","","24.1","","100.59","","","","-11","","Clear"
"2019-03-25 02:00","2019","03","25","02:00","-7.6","","-10.7","","78","","30","","13","","24.1","","100.66","","","","-13","","NA"
"2019-03-25 03:00","2019","03","25","03:00","-7.4","","-11.9","","70","","30","","8","","24.1","","100.71","","","","-11","","NA"
"2019-03-25 04:00","2019","03","25","04:00","-7.0","","-17.2","","45","","32","","20","","24.1","","100.76","","","","-14","","Clear"
"2019-03-25 05:00","2019","03","25","05:00","-8.6","","-17.4","","49","","32","","13","","24.1","","100.81","","","","-15","","NA"
"2019-03-25 06:00","2019","03","25","06:00","-9.8","","-18.6","","49","","26","","6","","24.1","","100.85","","","","-13","","NA"
"2019-03-25 07:00","2019","03","25","07:00","-10.1","","-18.1","","52","","24","","10","","24.1","","100.91","","","","-15","","Clear"
"2019-03-25 08:00","2019","03","25","08:00","-7.8","","-15.9","","53","","25","","13","","24.1","","100.94","","","","-14","","NA"
"2019-03-25 09:00","2019","03","25","09:00","-6.0","","-17.4","","40","","26","","18","","24.1","","100.96","","","","-12","","NA"
"2019-03-25 10:00","2019","03","25","10:00","-5.1","","-17.4","","38","","25","","19","","24.1","","100.92","","","","-12","","Clear"
"2019-03-25 11:00","2019","03","25","11:00","-4.0","","-16.8","","37","","25","","26","","24.1","","100.87","","","","-11","","NA"
"2019-03-25 12:00","2019","03","25","12:00","-3.4","","-16.0","","37","","25","","28","","24.1","","100.80","","","","-11","","NA"
"2019-03-25 13:00","2019","03","25","13:00","-2.0","","-17.2","","31","","28","","27","","24.1","","100.71","","","","-9","","Clear"
"2019-03-25 14:00","2019","03","25","14:00","-1.3","","-14.3","","37","","25","","22","","24.1","","100.60","","","","-7","","NA"
"2019-03-25 15:00","2019","03","25","15:00","-0.4","","-16.0","","30","","26","","19","","24.1","","100.51","","","","-6","","NA"
"2019-03-25 16:00","2019","03","25","16:00","0.2","","-15.6","","30","","27","","23","","24.1","","100.43","","","","","","Clear"
"2019-03-25 17:00","2019","03","25","17:00","-0.1","","-14.0","","35","","30","","20","","24.1","","100.40","","","","-5","","NA"
"2019-03-25 18:00","2019","03","25","18:00","-0.1","","-14.7","","33","","29","","11","","24.1","","100.40","","","","-4","","NA"
"2019-03-25 19:00","2019","03","25","19:00","-1.8","","-13.8","","40","","27","","13","","24.1","","100.45","","","","-6","","Clear"
"2019-03-25 20:00","2019","03","25","20:00","-2.7","","-14.5","","40","","27","","11","","24.1","","100.55","","","","-7","","NA"
"2019-03-25 21:00","2019","03","25","21:00","-4.7","","-13.5","","50","","21","","10","","24.1","","100.62","","","","-9","","NA"
"2019-03-25 22:00","2019","03","25","22:00","-5.1","","-12.8","","55","","22","","11","","24.1","","100.65","","","","-10","","Clear"
"2019-03-25 23:00","2019","03","25","23:00","-4.6","","-14.8","","45","","27","","15","","24.1","","100.76","","","","-10","","NA"
"2019-03-26 00:00","2019","03","26","00:00","-4.3","","-14.6","","45","","27","","14","","24.1","","100.84","","","","-9","","NA"
"2019-03-26 01:00","2019","03","26","01:00","-4.2","","-14.2","","46","","29","","15","","24.1","","100.94","","","","-10","","Clear"
"2019-03-26 02:00","2019","03","26","02:00","-6.0","","-14.9","","50","","32","","12","","24.1","","101.04","","","","-11","","NA"
"2019-03-26 03:00","2019","03","26","03:00","-5.3","","-16.6","","41","","33","","21","","24.1","","101.09","","","","-12","","NA"
"2019-03-26 04:00","2019","03","26","04:00","-6.0","","-16.6","","43","","34","","19","","24.1","","101.14","","","","-13","","Clear"
"2019-03-26 05:00","2019","03","26","05:00","-6.8","","-16.6","","46","","34","","16","","24.1","","101.22","","","","-13","","NA"
"2019-03-26 06:00","2019","03","26","06:00","-8.0","","-15.5","","55","","32","","14","","24.1","","101.31","","","","-14","","NA"
"2019-03-26 07:00","2019","03","26","07:00","-6.9","","-16.8","","46","","34","","15","","24.1","","101.44","","","","-13","","Clear"
"2019-03-26 08:00","2019","03","26","08:00","-6.2","","-16.0","","46","","34","","18","","24.1","","101.51","","","","-13","","NA"
"2019-03-26 09:00","2019","03","26","09:00","-5.1","","-16.0","","43","","32","","18","","24.1","","101.58","","","","-11","","NA"
"2019-03-26 10:00","2019","03","26","10:00","-4.3","","-14.5","","45","","28","","16","","24.1","","101.56","","","","-10","","Clear"
"2019-03-26 11:00","2019","03","26","11:00","-3.8","","-15.0","","42","","26","","22","","24.1","","101.56","","","","-10","","NA"
"2019-03-26 12:00","2019","03","26","12:00","-2.8","","-14.0","","42","","25","","20","","24.1","","101.52","","","","-9","","NA"
"2019-03-26 13:00","2019","03","26","13:00","-1.9","","-14.7","","37","","25","","17","","24.1","","101.50","","","","-7","","Clear"
"2019-03-26 14:00","2019","03","26","14:00","-1.5","","-13.5","","40","","25","","26","","24.1","","101.47","","","","-8","","NA"
"2019-03-26 15:00","2019","03","26","15:00","-0.6","","-13.9","","36","","28","","18","","24.1","","101.45","","","","-6","","NA"
"2019-03-26 16:00","2019","03","26","16:00","0.0","","-15.5","","30","","28","","25","","24.1","","101.43","","","","-6","","Clear"
"2019-03-26 17:00","2019","03","26","17:00","0.2","","-13.0","","37","","29","","21","","24.1","","101.44","","","","","","NA"
"2019-03-26 18:00","2019","03","26","18:00","-0.1","","-14.2","","34","","29","","14","","24.1","","101.44","","","","-4","","NA"
"2019-03-26 19:00","2019","03","26","19:00","-1.4","","-15.7","","33","","24","","8","","24.1","","101.46","","","","-4","","Clear"
"2019-03-26 20:00","2019","03","26","20:00","-1.7","","-16.7","","31","","22","","7","","24.1","","101.51","","","","-4","","NA"
"2019-03-26 21:00","2019","03","26","21:00","-3.0","","-15.5","","38","","21","","9","","24.1","","101.53","","","","-7","","NA"
"2019-03-26 22:00","2019","03","26","22:00","-3.8","","-14.9","","42","","19","","8","","24.1","","101.54","","","","-7","","Clear"
"2019-03-26 23:00","2019","03","26","23:00","-4.2","","-14.0","","47","","20","","10","","24.1","","101.51","","","","-8","","NA"
"2019-03-27 00:00","2019","03","27","00:00","-4.7","","-11.6","","58","","19","","12","","24.1","","101.51","","","","-9","","NA"
"2019-03-27 01:00","2019","03","27","01:00","-5.7","","-11.3","","65","","20","","9","","24.1","","101.54","","","","-10","","Clear"
"2019-03-27 02:00","2019","03","27","02:00","-6.1","","-10.5","","71","","20","","10","","24.1","","101.57","","","","-11","","NA"
"2019-03-27 03:00","2019","03","27","03:00","-6.6","","-10.5","","74","","20","","7","","24.1","","101.58","","","","-10","","NA"
"2019-03-27 04:00","2019","03","27","04:00","-7.6","","-10.6","","79","","19","","7","","24.1","","101.62","","","","-11","","Clear"
"2019-03-27 05:00","2019","03","27","05:00","-8.5","","-11.1","","82","","19","","6","","24.1","","101.64","","","","-12","","NA"
"2019-03-27 06:00","2019","03","27","06:00","-9.2","","-11.4","","84","","16","","7","","24.1","","101.68","","","","-13","","NA"
"2019-03-27 07:00","2019","03","27","07:00","-7.8","","-10.3","","82","","20","","7","","24.1","","101.74","","","","-11","","Mainly Clear"
"2019-03-27 08:00","2019","03","27","08:00","-5.0","","-10.1","","68","","20","","9","","24.1","","101.77","","","","-9","","NA"
"2019-03-27 09:00","2019","03","27","09:00","-2.2","","-9.9","","56","","20","","8","","24.1","","101.79","","","","-5","","NA"
"2019-03-27 10:00","2019","03","27","10:00","0.5","","-8.7","","50","","21","","8","","24.1","","101.76","","","","","","Clear"
"2019-03-27 11:00","2019","03","27","11:00","2.5","","-10.8","","37","","22","","14","","24.1","","101.69","","","","","","NA"
"2019-03-27 12:00","2019","03","27","12:00","3.2","","-12.5","","31","","21","","14","","24.1","","101.63","","","","","","NA"
"2019-03-27 13:00","2019","03","27","13:00","4.0","","-10.3","","34","","21","","16","","24.1","","101.54","","","","","","Clear"
"2019-03-27 14:00","2019","03","27","14:00","4.9","","-8.7","","37","","18","","16","","24.1","","101.45","","","","","","NA"
"2019-03-27 15:00","2019","03","27","15:00","5.1","","-9.2","","35","","21","","19","","24.1","","101.34","","","","","","NA"
"2019-03-27 16:00","2019","03","27","16:00","5.2","","-7.5","","40","","19","","22","","24.1","","101.33","","","","","","Clear"
"2019-03-27 17:00","2019","03","27","17:00","4.7","","-7.2","","42","","20","","16","","24.1","","101.30","","","","","","NA"
"2019-03-27 18:00","2019","03","27","18:00","3.3","","-8.6","","42","","20","","21","","24.1","","101.27","","","","","","NA"
"2019-03-27 19:00","2019","03","27","19:00","1.8","","-10.6","","39","","20","","10","","24.1","","101.23","","","","","","Mainly Clear"
"2019-03-27 20:00","2019","03","27","20:00","0.6","","-11.3","","41","","16","","8","","24.1","","101.20","","","","","","NA"
"2019-03-27 21:00","2019","03","27","21:00","-0.6","","-10.4","","48","","13","","7","","24.1","","101.10","","","","-3","","NA"
"2019-03-27 22:00","2019","03","27","22:00","-0.5","","-10.1","","49","","16","","10","","24.1","","100.97","","","","-4","","Mainly Clear"
"2019-03-27 23:00","2019","03","27","23:00","-1.0","","-10.2","","50","","13","","8","","24.1","","100.87","","","","-4","","NA"
"2019-03-28 00:00","2019","03","28","00:00","-0.6","","-9.8","","50","","11","","6","","24.1","","100.84","","","","-3","","NA"
"2019-03-28 01:00","2019","03","28","01:00","-1.4","","-9.4","","54","","10","","7","","24.1","","100.77","","","","-4","","Clear"
"2019-03-28 02:00","2019","03","28","02:00","-1.1","","-9.9","","51","","16","","8","","24.1","","100.72","","","","-4","","NA"
"2019-03-28 03:00","2019","03","28","03:00","-0.2","","-9.7","","49","","18","","14","","24.1","","100.68","","","","-4","","NA"
"2019-03-28 04:00","2019","03","28","04:00","0.6","","-8.3","","52","","18","","17","","24.1","","100.60","","","","","","Mainly Clear"
"2019-03-28 05:00","2019","03","28","05:00","1.3","","-7.6","","52","","18","","15","","24.1","","100.56","","","","","","NA"
"2019-03-28 06:00","2019","03","28","06:00","2.8","","-6.7","","50","","19","","19","","24.1","","100.53","","","","","","NA"
"2019-03-28 07:00","2019","03","28","07:00","3.8","","-6.4","","47","","19","","19","","24.1","","100.50","","","","","","Mostly Cloudy"
"2019-03-28 08:00","2019","03","28","08:00","3.2","","-5.8","","51","","18","","20","","24.1","","100.41","","","","","","NA"
"2019-03-28 09:00","2019","03","28","09:00","4.2","","-6.0","","47","","18","","20","","24.1","","100.37","","","","","","NA"
"2019-03-28 10:00","2019","03","28","10:00","5.1","","-5.8","","45","","19","","17","","24.1","","100.29","","","","","","Cloudy"
"2019-03-28 11:00","2019","03","28","11:00","6.4","","-5.3","","43","","20","","25","","24.1","","100.24","","","","","","NA"
"2019-03-28 12:00","2019","03","28","12:00","6.5","","-3.4","","49","","20","","25","","24.1","","100.16","","","","","","NA"
"2019-03-28 13:00","2019","03","28","13:00","6.2","","-2.6","","53","","20","","18","","24.1","","100.08","","","","","","Cloudy"
"2019-03-28 14:00","2019","03","28","14:00","6.2","","-2.3","","54","","21","","17","","24.1","","100.04","","","","","","NA"
"2019-03-28 15:00","2019","03","28","15:00","6.5","","-1.6","","56","","21","","21","","24.1","","99.99","","","","","","NA"
"2019-03-28 16:00","2019","03","28","16:00","6.6","","-1.1","","58","","22","","17","","24.1","","99.99","","","","","","Cloudy"
"2019-03-28 17:00","2019","03","28","17:00","6.5","","-1.3","","58","","22","","15","","24.1","","99.96","","","","","","NA"
"2019-03-28 18:00","2019","03","28","18:00","6.4","","0.4","","66","","23","","22","","24.1","","100.02","","","","","","NA"
"2019-03-28 19:00","2019","03","28","19:00","6.1","","1.4","","72","","23","","22","","24.1","","100.07","","","","","","Cloudy"
"2019-03-28 20:00","2019","03","28","20:00","5.8","","2.0","","77","","21","","17","","24.1","","100.13","","","","","","NA"
"2019-03-28 21:00","2019","03","28","21:00","5.8","","2.3","","78","","22","","17","","24.1","","100.13","","","","","","NA"
"2019-03-28 22:00","2019","03","28","22:00","5.8","","2.4","","79","","22","","17","","24.1","","100.14","","","","","","Cloudy"
"2019-03-28 23:00","2019","03","28","23:00","5.6","","2.3","","79","","21","","19","","24.1","","100.07","","","","","","NA"
"2019-03-29 00:00","2019","03","29","00:00","5.3","","2.3","","81","","22","","10","","24.1","","100.09","","","","","","NA"
"2019-03-29 01:00","2019","03","29","01:00","4.7","","1.6","","80","","26","","12","","24.1","","100.11","","","","","","Cloudy"
"2019-03-29 02:00","2019","03","29","02:00","4.1","","1.4","","83","","25","","14","","24.1","","100.08","","","","","","NA"
"2019-03-29 03:00","2019","03","29","03:00","4.0","","1.3","","82","","23","","10","","24.1","","100.10","","","","","","NA"
"2019-03-29 04:00","2019","03","29","04:00","4.2","","-0.2","","73","","26","","16","","24.1","","100.12","","","","","","Rain"
"2019-03-29 05:00","2019","03","29","05:00","3.4","","-0.1","","78","","23","","9","","24.1","","100.13","","","","","","NA"
"2019-03-29 06:00","2019","03","29","06:00","2.3","","-0.4","","82","","26","","11","","24.1","","100.18","","","","","","NA"
"2019-03-29 07:00","2019","03","29","07:00","2.2","","-0.9","","79","","29","","19","","24.1","","100.25","","","","","","Mostly Cloudy"
"2019-03-29 08:00","2019","03","29","08:00","2.4","","-0.5","","81","","29","","18","","24.1","","100.31","","","","","","NA"
"2019-03-29 09:00","2019","03","29","09:00","2.8","","-1.4","","74","","33","","23","","24.1","","100.38","","","","","","NA"
"2019-03-29 10:00","2019","03","29","10:00","3.2","","-1.9","","69","","30","","23","","24.1","","100.42","","","","","","Mostly Cloudy"
"2019-03-29 11:00","2019","03","29","11:00","3.7","","-3.0","","62","","27","","26","","24.1","","100.47","","","","","","NA"
"2019-03-29 12:00","2019","03","29","12:00","4.1","","-3.2","","59","","28","","27","","24.1","","100.46","","","","","","NA"
"2019-03-29 13:00","2019","03","29","13:00","4.1","","-4.2","","54","","28","","22","","24.1","","100.49","","","","","","Mainly Clear"
"2019-03-29 14:00","2019","03","29","14:00","4.0","","-5.9","","48","","26","","22","","24.1","","100.48","","","","","","NA"
"2019-03-29 15:00","2019","03","29","15:00","4.5","","-6.8","","44","","28","","20","","24.1","","100.49","","","","","","NA"
"2019-03-29 16:00","2019","03","29","16:00","4.2","","-6.0","","47","","29","","10","","24.1","","100.52","","","","","","Clear"
"2019-03-29 17:00","2019","03","29","17:00","4.1","","-5.8","","48","","31","","14","","24.1","","100.54","","","","","","NA"
"2019-03-29 18:00","2019","03","29","18:00","3.4","","-6.3","","49","","31","","12","","24.1","","100.57","","","","","","NA"
"2019-03-29 19:00","2019","03","29","19:00","3.1","","-9.5","","39","","23","","4","","24.1","","100.62","","","","","","Clear"
"2019-03-29 20:00","2019","03","29","20:00","1.4","","-6.9","","54","","5","","4","","24.1","","100.67","","","","","","NA"
"2019-03-29 21:00","2019","03","29","21:00","0.8","","-7.4","","54","","10","","9","","24.1","","100.71","","","","","","NA"
"2019-03-29 22:00","2019","03","29","22:00","-0.6","","-6.8","","63","","9","","10","","24.1","","100.66","","","","-4","","Clear"
"2019-03-29 23:00","2019","03","29","23:00","-0.2","","-7.2","","59","","10","","10","","24.1","","100.65","","","","-4","","NA"
"2019-03-30 00:00","2019","03","30","00:00","-0.2","","-7.2","","60","","9","","10","","24.1","","100.61","","","","-4","","NA"
"2019-03-30 01:00","2019","03","30","01:00","0.1","","-6.0","","64","","7","","10","","24.1","","100.57","","","","","","Mostly Cloudy"
"2019-03-30 02:00","2019","03","30","02:00","-0.1","","-6.3","","63","","8","","10","","24.1","","100.53","","","","-3","","NA"
"2019-03-30 03:00","2019","03","30","03:00","0.1","","-6.1","","63","","7","","17","","24.1","","100.44","","","","","","NA"
"2019-03-30 04:00","2019","03","30","04:00","-0.2","","-6.3","","64","","7","","17","","24.1","","100.37","","","","-5","","Cloudy"
"2019-03-30 05:00","2019","03","30","05:00","-0.2","","-5.6","","67","","8","","20","","24.1","","100.35","","","","-5","","NA"
"2019-03-30 06:00","2019","03","30","06:00","-0.6","","-4.1","","77","","6","","13","","24.1","","100.33","","","","-5","","NA"
"2019-03-30 07:00","2019","03","30","07:00","-0.6","","-3.5","","81","","8","","16","","24.1","","100.28","","","","-5","","Cloudy"
"2019-03-30 08:00","2019","03","30","08:00","-0.9","","-2.6","","88","","7","","17","","2.4","","100.16","","","","-6","","Snow"
"2019-03-30 09:00","2019","03","30","09:00","-1.3","","-2.4","","92","","4","","21","","3.2","","100.05","","","","-7","","Snow"
"2019-03-30 10:00","2019","03","30","10:00","-1.3","","-2.2","","93","","5","","28","","1.6","","99.91","","","","-8","","Snow,Ice Pellets"
"2019-03-30 11:00","2019","03","30","11:00","-0.5","","-1.4","","94","","6","","19","","8.1","","99.79","","","","-6","","Freezing Rain,Fog"
"2019-03-30 12:00","2019","03","30","12:00","-0.2","","-1.0","","95","","6","","24","","9.7","","99.63","","","","-6","","Freezing Rain,Fog"
"2019-03-30 13:00","2019","03","30","13:00","-0.2","","-1.0","","94","","6","","24","","6.4","","99.51","","","","-6","","Freezing Rain,Fog"
"2019-03-30 14:00","2019","03","30","14:00","-0.2","","-0.8","","95","","5","","22","","16.1","","99.33","","","","-6","","Freezing Rain"
"2019-03-30 15:00","2019","03","30","15:00","-0.1","","-0.7","","96","","6","","24","","6.4","","99.13","","","","-6","","Freezing Rain,Fog"
"2019-03-30 16:00","2019","03","30","16:00","0.0","","-0.4","","97","","5","","15","","4.8","","99.10","","","","-4","","Rain,Fog"
"2019-03-30 17:00","2019","03","30","17:00","0.5","","0.0","","96","","1","","15","","4.8","","99.21","","","","","","Rain,Fog"
"2019-03-30 18:00","2019","03","30","18:00","0.9","","0.4","","96","","36","","10","","4.8","","99.20","","","","","","Rain,Fog"
"2019-03-30 19:00","2019","03","30","19:00","0.7","","0.3","","97","","31","","15","","6.4","","99.26","","","","","","Rain,Fog"
"2019-03-30 20:00","2019","03","30","20:00","0.8","","0.3","","97","","32","","12","","6.4","","99.26","","","","","","Rain,Fog"
"2019-03-30 21:00","2019","03","30","21:00","0.6","","0.3","","97","","31","","14","","3.2","","99.20","","","","","","Rain,Fog"
"2019-03-30 22:00","2019","03","30","22:00","0.7","","0.2","","97","","33","","17","","8.1","","99.14","","","","","","Rain,Fog"
"2019-03-30 23:00","2019","03","30","23:00","0.6","","0.0","","96","","32","","18","","8.1","","99.05","","","","","","Rain,Fog"
"2019-03-31 00:00","2019","03","31","00:00","0.5","","-0.1","","96","","31","","14","","8.1","","99.00","","","","","","Rain,Fog"
"2019-03-31 01:00","2019","03","31","01:00","0.4","","-0.2","","96","","32","","21","","8.1","","98.91","","","","","","Rain,Fog"
"2019-03-31 02:00","2019","03","31","02:00","0.3","","-0.4","","95","","32","","18","","11.3","","98.88","","","","","","Rain,Fog"
"2019-03-31 03:00","2019","03","31","03:00","0.0","","-0.6","","95","","33","","15","","11.3","","98.76","","","","-4","","Rain,Fog"
"2019-03-31 04:00","2019","03","31","04:00","0.0","","-0.6","","95","","32","","18","","11.3","","98.67","","","","-5","","Moderate Rain"
"2019-03-31 05:00","2019","03","31","05:00","-0.2","","-0.9","","95","","31","","26","","11.3","","98.66","","","","-6","","Freezing Rain"
"2019-03-31 06:00","2019","03","31","06:00","-0.5","","-1.8","","91","","30","","26","","6.4","","98.85","","","","-7","","Freezing Rain,Ice Pellets,Fog"
"2019-03-31 07:00","2019","03","31","07:00","-1.3","","-2.3","","93","","32","","28","","1.2","","98.92","","","","-8","","Snow"
"2019-03-31 08:00","2019","03","31","08:00","-1.3","","-3.1","","87","","31","","26","","24.1","","99.05","","","","-8","","Snow"
"2019-03-31 09:00","2019","03","31","09:00","-1.1","","-3.2","","86","","30","","23","","24.1","","99.14","","","","-7","","NA"
"2019-03-31 10:00","2019","03","31","10:00","-0.8","","-3.3","","83","","32","","26","","24.1","","99.27","","","","-7","","Cloudy"
"2019-03-31 11:00","2019","03","31","11:00","-0.1","","-3.3","","79","","32","","26","","24.1","","99.31","","","","-6","","NA"
"2019-03-31 12:00","2019","03","31","12:00","0.4","","-2.7","","80","","30","","21","","24.1","","99.36","","","","","","NA"
"2019-03-31 13:00","2019","03","31","13:00","0.0","","-2.2","","85","","28","","22","","16.1","","99.44","","","","-6","","Snow"
"2019-03-31 14:00","2019","03","31","14:00","0.0","","-2.4","","84","","28","","27","","4.8","","99.48","","","","-6","","Snow"
"2019-03-31 15:00","2019","03","31","15:00","-0.1","","-2.2","","86","","28","","25","","4.8","","99.56","","","","-6","","Snow"
"2019-03-31 16:00","2019","03","31","16:00","0.0","","-2.2","","85","","29","","27","","9.7","","99.59","","","","-6","","Snow"
"2019-03-31 17:00","2019","03","31","17:00","0.4","","-2.5","","81","","29","","25","","12.9","","99.63","","","","","","Snow"
"2019-03-31 18:00","2019","03","31","18:00","0.2","","-2.9","","80","","31","","26","","12.9","","99.70","","","","","","Snow"
"2019-03-31 19:00","2019","03","31","19:00","0.0","","-3.1","","80","","30","","18","","24.1","","99.78","","","","-5","","Cloudy"
"2019-03-31 20:00","2019","03","31","20:00","-0.2","","-4.3","","74","","31","","21","","24.1","","99.89","","","","-6","","NA"
"2019-03-31 21:00","2019","03","31","21:00","-0.6","","-4.9","","72","","31","","22","","24.1","","99.96","","","","-6","","NA"
"2019-03-31 22:00","2019","03","31","22:00","-1.7","","-6.3","","71","","34","","24","","24.1","","100.01","","","","-8","","Cloudy"
"2019-03-31 23:00","2019","03","31","23:00","-2.5","","-7.3","","69","","31","","23","","24.1","","100.06","","","","-9","","NA"
