"Station Name","OTTAWA INTL A"
"Province","ONTARIO"
"Latitude","45.32"
"Longitude","-75.67"
"Elevation","114.90"
"Climate Identifier","6106001"
"WMO Identifier","71628"
"TC Identifier","YOW"
"All times are specified in Local Standard Time (LST). Add 1 hour to adjust for Daylight Saving Time where and when it is observed."

"Legend"
"E","Estimated"
"M","Missing"
"NA","Not Available"

"Date/Time","Year","Month","Day","Time","Temp (°C)","Temp Flag","Dew Point Temp (°C)","Dew Point Temp Flag","Rel Hum (%)","Rel Hum Flag","Wind Dir (10s deg)","Wind Dir Flag","Wind Spd (km/h)","Wind Spd Flag","Visibility (km)","Visibility Flag","Stn Press (kPa)","Stn Press Flag","Hmdx","Hmdx Flag","Wind Chill","Wind Chill Flag","Weather"
"2017-01-01 00:00","2017","01","01","00:00","-8.0","","-9.4","","90","","5","","11","","16.1","","98.87","","","","-13","","NA"
"2017-01-01 01:00","2017","01","01","01:00","-6.8","","-8.0","","91","","3","","7","","16.1","","98.90","","","","-10","","Cloudy"
"2017-01-01 02:00","2017","01","01","02:00","-4.9","","-5.4","","96","","20","","7","","16.1","","98.95","","","","-8","","NA"
"2017-01-01 03:00","2017","01","01","03:00","-4.0","","-5.0","","93","","29","","10","","12.9","","99.11","","","","-8","","Snow"
"2017-01-01 04:00","2017","01","01","04:00","-2.9","","-3.6","","95","","26","","11","","16.1","","99.22","","","","-7","","Snow"
"2017-01-01 05:00","2017","01","01","05:00","-3.7","","-5.6","","87","","29","","32","","24.1","","99.47","","","","-12","","Blowing Snow"
"2017-01-01 06:00","2017","01","01","06:00","-4.2","","-6.8","","82","","27","","24","","24.1","","99.70","","","","-11","","Blowing Snow"
"2017-01-01 07:00","2017","01","01","07:00","-5.7","","-8.5","","81","","28","","23","","24.1","","99.92","","","","-13","","Blowing Snow"
"2017-01-01 08:00","2017","01","01","08:00","-6.6","","-10.0","","77","","28","","21","","24.1","","100.15","","","","-14","","Blowing Snow"
"2017-01-01 09:00","2017","01","01","09:00","-7.0","","-10.5","","76","","30","","18","","24.1","","100.33","","","","-14","","Blowing Snow"
"2017-01-01 10:00","2017","01","01","10:00","-7.1","","-11.2","","73","","28","","16","","24.1","","100.46","","","","-13","","Mostly Cloudy"
"2017-01-01 11:00","2017","01","01","11:00","-6.6","","-11.0","","71","","24","","16","","24.1","","100.57","","","","-13","","NA"
"2017-01-01 12:00","2017","01","01","12:00","-5.2","","-10.2","","68","","26","","23","","24.1","","100.68","","","","-12","","NA"
"2017-01-01 13:00","2017","01","01","13:00","-4.1","","-8.8","","70","","31","","13","","24.1","","100.70","","","","-9","","Mostly Cloudy"
"2017-01-01 14:00","2017","01","01","14:00","-3.7","","-8.6","","69","","26","","6","","24.1","","100.77","","","","-6","","NA"
"2017-01-01 15:00","2017","01","01","15:00","-3.2","","-8.1","","69","","9","","3","","24.1","","100.81","","","","-4","","NA"
"2017-01-01 16:00","2017","01","01","16:00","-2.3","","-7.1","","70","","24","","4","","24.1","","100.87","","","","-4","","Mostly Cloudy"
"2017-01-01 17:00","2017","01","01","17:00","-3.8","","-7.4","","76","","36","","1","","24.1","","101.00","","","","-4","","NA"
"2017-01-01 18:00","2017","01","01","18:00","-5.8","","-7.9","","85","","14","","5","","24.1","","101.10","","","","-8","","NA"
"2017-01-01 19:00","2017","01","01","19:00","-4.9","","-7.7","","81","","13","","7","","24.1","","101.17","","","","-8","","Mostly Cloudy"
"2017-01-01 20:00","2017","01","01","20:00","-4.1","","-7.2","","79","","15","","10","","24.1","","101.17","","","","-8","","NA"
"2017-01-01 21:00","2017","01","01","21:00","-3.6","","-6.4","","81","","18","","10","","24.1","","101.24","","","","-8","","NA"
"2017-01-01 22:00","2017","01","01","22:00","-4.5","","-6.3","","87","","20","","5","","24.1","","101.29","","","","-7","","Clear"
"2017-01-01 23:00","2017","01","01","23:00","-5.8","","-6.6","","94","","20","","4","","24.1","","101.42","","","","-8","","NA"
"2017-01-02 00:00","2017","01","02","00:00","-5.8","","-6.2","","97","","17","","9","","16.1","","101.43","","","","-10","","NA"
"2017-01-02 01:00","2017","01","02","01:00","-5.7","","-6.2","","96","","18","","9","","16.1","","101.44","","","","-10","","Clear"
"2017-01-02 02:00","2017","01","02","02:00","-9.1","","-9.6","","96","","22","","4","","16.1","","101.50","","","","-11","","NA"
"2017-01-02 03:00","2017","01","02","03:00","-6.8","","-7.5","","95","","23","","5","","16.1","","101.58","","","","-9","","NA"
"2017-01-02 04:00","2017","01","02","04:00","-9.8","","-10.6","","94","","36","","3","","0.4","","101.65","","","","-12","","Freezing Fog"
"2017-01-02 05:00","2017","01","02","05:00","-9.4","","-10.5","","92","","36","","2","","2.4","","101.66","","","","-11","","Fog"
"2017-01-02 06:00","2017","01","02","06:00","-9.9","","-11.1","","91","","7","","5","","8.1","","101.68","","","","-13","","Fog"
"2017-01-02 07:00","2017","01","02","07:00","-9.2","","-10.3","","92","","4","","7","","9.7","","101.72","","","","-13","","Fog"
"2017-01-02 08:00","2017","01","02","08:00","-10.1","","-11.3","","91","","5","","12","","16.1","","101.70","","","","-16","","NA"
"2017-01-02 09:00","2017","01","02","09:00","-9.6","","-10.7","","92","","6","","10","","16.1","","101.78","","","","-15","","NA"
"2017-01-02 10:00","2017","01","02","10:00","-7.5","","-8.4","","93","","5","","9","","24.1","","101.84","","","","-12","","Mainly Clear"
"2017-01-02 11:00","2017","01","02","11:00","-4.8","","-6.2","","90","","3","","9","","24.1","","101.81","","","","-9","","NA"
"2017-01-02 12:00","2017","01","02","12:00","-3.2","","-6.0","","81","","3","","10","","24.1","","101.76","","","","-7","","NA"
"2017-01-02 13:00","2017","01","02","13:00","-2.0","","-5.2","","79","","3","","18","","24.1","","101.67","","","","-7","","Clear"
"2017-01-02 14:00","2017","01","02","14:00","-1.1","","-4.5","","78","","5","","13","","24.1","","101.61","","","","-5","","NA"
"2017-01-02 15:00","2017","01","02","15:00","-1.1","","-4.5","","78","","5","","16","","24.1","","101.60","","","","-6","","NA"
"2017-01-02 16:00","2017","01","02","16:00","-1.3","","-4.7","","78","","6","","15","","24.1","","101.61","","","","-6","","Clear"
"2017-01-02 17:00","2017","01","02","17:00","-2.2","","-4.7","","83","","6","","16","","24.1","","101.54","","","","-7","","NA"
"2017-01-02 18:00","2017","01","02","18:00","-2.7","","-5.4","","82","","7","","19","","24.1","","101.46","","","","-8","","NA"
"2017-01-02 19:00","2017","01","02","19:00","-4.2","","-6.2","","86","","6","","19","","24.1","","101.43","","","","-10","","Clear"
"2017-01-02 20:00","2017","01","02","20:00","-4.2","","-6.2","","86","","7","","20","","24.1","","101.37","","","","-11","","NA"
"2017-01-02 21:00","2017","01","02","21:00","-4.0","","-6.0","","86","","6","","20","","24.1","","101.35","","","","-10","","NA"
"2017-01-02 22:00","2017","01","02","22:00","-4.0","","-6.2","","85","","7","","25","","24.1","","101.18","","","","-11","","Cloudy"
"2017-01-02 23:00","2017","01","02","23:00","-3.7","","-6.2","","83","","6","","23","","24.1","","101.17","","","","-10","","NA"
"2017-01-03 00:00","2017","01","03","00:00","-3.7","","-6.0","","84","","7","","19","","24.1","","101.08","","","","-10","","NA"
"2017-01-03 01:00","2017","01","03","01:00","-3.2","","-5.7","","83","","7","","10","","24.1","","101.05","","","","-7","","Cloudy"
"2017-01-03 02:00","2017","01","03","02:00","-3.0","","-5.7","","82","","7","","15","","24.1","","100.97","","","","-8","","NA"
"2017-01-03 03:00","2017","01","03","03:00","-3.0","","-5.8","","81","","9","","26","","24.1","","100.91","","","","-10","","NA"
"2017-01-03 04:00","2017","01","03","04:00","-3.2","","-5.7","","83","","7","","21","","24.1","","100.77","","","","-9","","Cloudy"
"2017-01-03 05:00","2017","01","03","05:00","-3.1","","-5.1","","86","","7","","19","","6.4","","100.69","","","","-9","","Snow,Fog"
"2017-01-03 06:00","2017","01","03","06:00","-3.3","","-4.0","","95","","6","","19","","2.8","","100.58","","","","-9","","Snow,Fog"
"2017-01-03 07:00","2017","01","03","07:00","-3.3","","-3.9","","96","","8","","23","","4.8","","100.43","","","","-10","","Snow,Ice Pellets"
"2017-01-03 08:00","2017","01","03","08:00","-2.5","","-3.1","","96","","8","","24","","4.8","","100.31","","","","-9","","Snow,Ice Pellets"
"2017-01-03 09:00","2017","01","03","09:00","-2.2","","-2.8","","96","","9","","28","","4.8","","100.21","","","","-9","","Freezing Rain"
"2017-01-03 10:00","2017","01","03","10:00","-1.7","","-2.1","","97","","8","","16","","4.8","","100.20","","","","-7","","Freezing Rain"
"2017-01-03 11:00","2017","01","03","11:00","-1.0","","-1.4","","97","","8","","19","","4.8","","100.06","","","","-6","","Freezing Rain"
"2017-01-03 12:00","2017","01","03","12:00","-0.8","","-1.2","","97","","8","","20","","6.4","","99.87","","","","-6","","Freezing Rain"
"2017-01-03 13:00","2017","01","03","13:00","-0.8","","-1.1","","98","","6","","18","","4.8","","99.74","","","","-6","","Freezing Rain"
"2017-01-03 14:00","2017","01","03","14:00","-0.7","","-1.0","","98","","7","","21","","4.8","","99.63","","","","-6","","Freezing Rain"
"2017-01-03 15:00","2017","01","03","15:00","-0.5","","-0.8","","98","","7","","23","","4.8","","99.54","","","","-6","","Freezing Rain"
"2017-01-03 16:00","2017","01","03","16:00","-0.3","","-0.6","","98","","7","","21","","4.8","","99.43","","","","-6","","Freezing Rain"
"2017-01-03 17:00","2017","01","03","17:00","-0.1","","-0.4","","98","","8","","17","","9.7","","99.32","","","","-5","","Freezing Rain"
"2017-01-03 18:00","2017","01","03","18:00","0.0","","-0.3","","98","","8","","22","","12.9","","99.23","","","","-6","","Rain"
"2017-01-03 19:00","2017","01","03","19:00","0.0","","-0.4","","97","","8","","22","","8.1","","99.10","","","","-6","","Rain,Fog"
"2017-01-03 20:00","2017","01","03","20:00","0.0","","-0.4","","97","","7","","23","","8.1","","98.96","","","","-6","","Rain,Fog"
"2017-01-03 21:00","2017","01","03","21:00","0.1","","-0.3","","97","","8","","22","","8.1","","98.83","","","","","","Rain,Fog"
"2017-01-03 22:00","2017","01","03","22:00","0.1","","-0.3","","97","","7","","20","","6.4","","98.71","","","","","","Rain,Snow,Fog"
"2017-01-03 23:00","2017","01","03","23:00","0.2","","-0.1","","98","","7","","18","","6.4","","98.55","","","","","","Snow,Fog"
"2017-01-04 00:00","2017","01","04","00:00","0.1","","-0.2","","98","","8","","17","","3.2","","98.42","","","","","","Snow,Fog"
"2017-01-04 01:00","2017","01","04","01:00","0.0","","-0.3","","98","","9","","10","","1.6","","98.34","","","","-3","","Snow,Fog"
"2017-01-04 02:00","2017","01","04","02:00","0.0","","-0.3","","98","","9","","13","","8.1","","98.27","","","","-4","","Snow,Fog"
"2017-01-04 03:00","2017","01","04","03:00","0.0","","-0.3","","98","","10","","14","","6.4","","98.16","","","","-4","","Snow,Fog"
"2017-01-04 04:00","2017","01","04","04:00","0.0","","-0.3","","98","","10","","9","","6.4","","98.09","","","","-3","","Snow,Fog"
"2017-01-04 05:00","2017","01","04","05:00","-0.1","","-0.2","","99","","8","","9","","4.8","","98.00","","","","-3","","Freezing Drizzle,Fog"
"2017-01-04 06:00","2017","01","04","06:00","-0.3","","-0.4","","99","","8","","4","","2.4","","97.99","","","","-2","","Freezing Drizzle,Fog"
"2017-01-04 07:00","2017","01","04","07:00","-0.5","","-0.6","","99","","8","","8","","6.4","","97.90","","","","-3","","Snow Grains"
"2017-01-04 08:00","2017","01","04","08:00","-0.5","","-0.6","","99","","11","","8","","3.2","","97.84","","","","-3","","Snow"
"2017-01-04 09:00","2017","01","04","09:00","-0.2","","-0.3","","99","","36","","3","","1.6","","97.83","","","","-1","","Snow"
"2017-01-04 10:00","2017","01","04","10:00","0.2","","0.1","","99","","21","","12","","4.8","","97.82","","","","","","Snow"
"2017-01-04 11:00","2017","01","04","11:00","1.2","","-0.1","","91","","23","","24","","24.1","","97.79","","","","","","NA"
"2017-01-04 12:00","2017","01","04","12:00","1.6","","-0.2","","88","","23","","26","","24.1","","97.74","","","","","","NA"
"2017-01-04 13:00","2017","01","04","13:00","2.0","","-0.4","","84","","22","","28","","24.1","","97.73","","","","","","Mostly Cloudy"
"2017-01-04 14:00","2017","01","04","14:00","2.7","","-0.6","","79","","23","","26","","24.1","","97.68","","","","","","NA"
"2017-01-04 15:00","2017","01","04","15:00","0.0","","-0.6","","96","","26","","29","","0.6","","97.76","","","","-6","","Heavy Snow"
"2017-01-04 16:00","2017","01","04","16:00","-0.4","","-1.3","","94","","25","","25","","9.7","","97.85","","","","-6","","Snow"
"2017-01-04 17:00","2017","01","04","17:00","-1.6","","-3.3","","88","","26","","33","","4.8","","98.02","","","","-9","","Snow"
"2017-01-04 18:00","2017","01","04","18:00","-2.7","","-7.4","","70","","24","","34","","16.1","","98.18","","","","-10","","Snow"
"2017-01-04 19:00","2017","01","04","19:00","-4.4","","-8.9","","71","","23","","28","","24.1","","98.24","","","","-12","","Blowing Snow"
"2017-01-04 20:00","2017","01","04","20:00","-4.7","","-9.2","","71","","22","","45","","24.1","","98.28","","","","-14","","Blowing Snow"
"2017-01-04 21:00","2017","01","04","21:00","-5.9","","-10.3","","71","","23","","36","","24.1","","98.33","","","","-15","","Blowing Snow"
"2017-01-04 22:00","2017","01","04","22:00","-6.2","","-10.8","","70","","23","","36","","24.1","","98.39","","","","-15","","Blowing Snow"
"2017-01-04 23:00","2017","01","04","23:00","-6.7","","-11.5","","69","","22","","37","","24.1","","98.41","","","","-16","","Blowing Snow"
"2017-01-05 00:00","2017","01","05","00:00","-7.4","","-12.3","","68","","21","","34","","24.1","","98.39","","","","-17","","Blowing Snow"
"2017-01-05 01:00","2017","01","05","01:00","-7.6","","-12.4","","69","","23","","38","","24.1","","98.41","","","","-17","","Blowing Snow"
"2017-01-05 02:00","2017","01","05","02:00","-7.7","","-12.4","","69","","23","","37","","24.1","","98.45","","","","-17","","Blowing Snow"
"2017-01-05 03:00","2017","01","05","03:00","-7.9","","-12.8","","68","","23","","37","","24.1","","98.50","","","","-18","","Blowing Snow"
"2017-01-05 04:00","2017","01","05","04:00","-8.0","","-12.0","","73","","25","","32","","12.9","","98.62","","","","-17","","Snow,Blowing Snow"
"2017-01-05 05:00","2017","01","05","05:00","-9.6","","-11.8","","84","","27","","28","","3.2","","98.80","","","","-19","","Snow Showers,Blowing Snow"
"2017-01-05 06:00","2017","01","05","06:00","-11.5","","-15.1","","75","","30","","21","","24.1","","98.96","","","","-20","","NA"
"2017-01-05 07:00","2017","01","05","07:00","-12.7","","-16.1","","76","","28","","14","","24.1","","99.08","","","","-20","","Mainly Clear"
"2017-01-05 08:00","2017","01","05","08:00","-13.2","","-16.3","","78","","29","","10","","24.1","","99.20","","","","-19","","NA"
"2017-01-05 09:00","2017","01","05","09:00","-13.7","","-17.1","","76","","30","","8","","24.1","","99.27","","","","-19","","NA"
"2017-01-05 10:00","2017","01","05","10:00","-10.8","","-15.1","","71","","25","","14","","24.1","","99.34","","","","-17","","Clear"
"2017-01-05 11:00","2017","01","05","11:00","-8.7","","-14.5","","63","","25","","26","","24.1","","99.35","","","","-17","","NA"
"2017-01-05 12:00","2017","01","05","12:00","-7.9","","-14.2","","61","","24","","26","","24.1","","99.33","","","","-16","","NA"
"2017-01-05 13:00","2017","01","05","13:00","-7.8","","-13.5","","64","","25","","31","","24.1","","99.33","","","","-17","","Mostly Cloudy"
"2017-01-05 14:00","2017","01","05","14:00","-6.8","","-12.1","","66","","25","","18","","24.1","","99.33","","","","-13","","NA"
"2017-01-05 15:00","2017","01","05","15:00","-6.4","","-10.8","","71","","24","","13","","16.1","","99.35","","","","-12","","NA"
"2017-01-05 16:00","2017","01","05","16:00","-6.2","","-11.2","","68","","22","","18","","24.1","","99.37","","","","-13","","Mostly Cloudy"
"2017-01-05 17:00","2017","01","05","17:00","-6.1","","-11.3","","67","","25","","16","","16.1","","99.40","","","","-12","","Snow"
"2017-01-05 18:00","2017","01","05","18:00","-6.3","","-11.9","","65","","23","","19","","16.1","","99.43","","","","-13","","Snow"
"2017-01-05 19:00","2017","01","05","19:00","-6.8","","-11.6","","69","","22","","19","","24.1","","99.47","","","","-14","","Mostly Cloudy"
"2017-01-05 20:00","2017","01","05","20:00","-7.5","","-12.6","","67","","22","","22","","24.1","","99.54","","","","-15","","NA"
"2017-01-05 21:00","2017","01","05","21:00","-8.8","","-13.9","","67","","25","","17","","24.1","","99.62","","","","-16","","NA"
"2017-01-05 22:00","2017","01","05","22:00","-9.1","","-13.8","","69","","25","","15","","24.1","","99.65","","","","-16","","Cloudy"
"2017-01-05 23:00","2017","01","05","23:00","-9.3","","-13.8","","70","","24","","16","","24.1","","99.68","","","","-16","","NA"
"2017-01-06 00:00","2017","01","06","00:00","-10.4","","-14.0","","75","","24","","11","","24.1","","99.74","","","","-16","","NA"
"2017-01-06 01:00","2017","01","06","01:00","-11.0","","-14.4","","76","","23","","10","","24.1","","99.76","","","","-16","","Mainly Clear"
"2017-01-06 02:00","2017","01","06","02:00","-11.8","","-15.1","","77","","24","","10","","24.1","","99.82","","","","-17","","NA"
"2017-01-06 03:00","2017","01","06","03:00","-12.2","","-15.3","","78","","24","","10","","24.1","","99.88","","","","-18","","NA"
"2017-01-06 04:00","2017","01","06","04:00","-15.0","","-17.3","","83","","27","","4","","24.1","","99.90","","","","-18","","Mainly Clear"
"2017-01-06 05:00","2017","01","06","05:00","-14.7","","-16.4","","87","","16","","8","","24.1","","99.94","","","","-20","","NA"
"2017-01-06 06:00","2017","01","06","06:00","-15.1","","-16.8","","87","","21","","8","","24.1","","100.01","","","","-20","","NA"
"2017-01-06 07:00","2017","01","06","07:00","-15.4","","-17.1","","87","","20","","10","","24.1","","100.11","","","","-22","","Clear"
"2017-01-06 08:00","2017","01","06","08:00","-15.8","","-17.5","","87","","21","","10","","24.1","","100.17","","","","-22","","NA"
"2017-01-06 09:00","2017","01","06","09:00","-16.1","","-18.1","","85","","26","","10","","24.1","","100.25","","","","-23","","NA"
"2017-01-06 10:00","2017","01","06","10:00","-13.6","","-15.9","","83","","27","","5","","24.1","","100.34","","","","-17","","Clear"
"2017-01-06 11:00","2017","01","06","11:00","-12.6","","-15.7","","78","","22","","6","","24.1","","100.40","","","","-17","","NA"
"2017-01-06 12:00","2017","01","06","12:00","-10.7","","-15.0","","71","","18","","9","","24.1","","100.38","","","","-16","","NA"
"2017-01-06 13:00","2017","01","06","13:00","-10.1","","-14.8","","69","","24","","7","","24.1","","100.41","","","","-14","","Clear"
"2017-01-06 14:00","2017","01","06","14:00","-9.5","","-14.2","","69","","30","","8","","24.1","","100.47","","","","-14","","NA"
"2017-01-06 15:00","2017","01","06","15:00","-8.7","","-14.0","","66","","32","","4","","24.1","","100.48","","","","-11","","NA"
"2017-01-06 16:00","2017","01","06","16:00","-8.8","","-14.1","","66","","30","","4","","24.1","","100.54","","","","-11","","Mainly Clear"
"2017-01-06 17:00","2017","01","06","17:00","-10.8","","-14.6","","74","","4","","5","","24.1","","100.60","","","","-14","","NA"
"2017-01-06 18:00","2017","01","06","18:00","-11.8","","-14.6","","80","","7","","6","","24.1","","100.66","","","","-16","","NA"
"2017-01-06 19:00","2017","01","06","19:00","-12.1","","-14.7","","81","","12","","9","","24.1","","100.73","","","","-17","","Mainly Clear"
"2017-01-06 20:00","2017","01","06","20:00","-12.7","","-14.3","","88","","29","","3","","24.1","","100.81","","","","-15","","NA"
"2017-01-06 21:00","2017","01","06","21:00","-15.2","","-16.8","","88","","16","","8","","24.1","","100.86","","","","-21","","NA"
"2017-01-06 22:00","2017","01","06","22:00","-14.7","","-16.0","","90","","18","","5","","24.1","","100.87","","","","-18","","Clear"
"2017-01-06 23:00","2017","01","06","23:00","-14.4","","-16.0","","88","","1","","4","","24.1","","100.95","","","","-17","","NA"
"2017-01-07 00:00","2017","01","07","00:00","-15.9","","-17.3","","89","","36","","2","","24.1","","100.99","","","","-17","","NA"
"2017-01-07 01:00","2017","01","07","01:00","-18.3","","-20.4","","84","","24","","4","","16.1","","101.01","","","","-22","","Clear"
"2017-01-07 02:00","2017","01","07","02:00","-16.4","","-18.2","","86","","31","","5","","24.1","","101.13","","","","-20","","NA"
"2017-01-07 03:00","2017","01","07","03:00","-18.5","","-20.6","","84","","26","","8","","24.1","","101.19","","","","-24","","NA"
"2017-01-07 04:00","2017","01","07","04:00","-17.8","","-19.9","","84","","25","","9","","24.1","","101.28","","","","-24","","Clear"
"2017-01-07 05:00","2017","01","07","05:00","-18.0","","-20.1","","84","","30","","7","","24.1","","101.29","","","","-23","","NA"
"2017-01-07 06:00","2017","01","07","06:00","-18.5","","-20.9","","82","","30","","4","","24.1","","101.32","","","","-22","","NA"
"2017-01-07 07:00","2017","01","07","07:00","-18.7","","-20.9","","83","","31","","12","","24.1","","101.36","","","","-26","","Clear"
"2017-01-07 08:00","2017","01","07","08:00","-20.5","","-22.8","","82","","28","","4","","24.1","","101.43","","","","-24","","NA"
"2017-01-07 09:00","2017","01","07","09:00","-18.2","","-20.4","","83","","32","","5","","24.1","","101.44","","","","-22","","NA"
"2017-01-07 10:00","2017","01","07","10:00","-16.9","","-19.0","","84","","36","","1","","24.1","","101.50","","","","-18","","Clear"
"2017-01-07 11:00","2017","01","07","11:00","-13.9","","-15.6","","87","","1","","4","","24.1","","101.47","","","","-17","","NA"
"2017-01-07 12:00","2017","01","07","12:00","-13.7","","-15.4","","87","","34","","3","","24.1","","101.41","","","","-16","","NA"
"2017-01-07 13:00","2017","01","07","13:00","-12.8","","-14.7","","86","","36","","1","","24.1","","101.34","","","","-13","","Mainly Clear"
"2017-01-07 14:00","2017","01","07","14:00","-11.4","","-16.6","","66","","2","","8","","24.1","","101.24","","","","-16","","NA"
"2017-01-07 15:00","2017","01","07","15:00","-11.6","","-17.1","","64","","3","","9","","24.1","","101.19","","","","-17","","NA"
"2017-01-07 16:00","2017","01","07","16:00","-12.3","","-17.4","","66","","6","","9","","24.1","","101.13","","","","-18","","Mainly Clear"
"2017-01-07 17:00","2017","01","07","17:00","-13.8","","-18.2","","70","","8","","7","","24.1","","101.14","","","","-18","","NA"
"2017-01-07 18:00","2017","01","07","18:00","-15.3","","-19.0","","74","","10","","8","","24.1","","101.13","","","","-21","","NA"
"2017-01-07 19:00","2017","01","07","19:00","-15.9","","-19.4","","75","","9","","5","","24.1","","101.12","","","","-20","","Mainly Clear"
"2017-01-07 20:00","2017","01","07","20:00","-16.5","","-19.2","","80","","6","","7","","24.1","","101.08","","","","-22","","NA"
"2017-01-07 21:00","2017","01","07","21:00","-18.3","","-20.4","","84","","6","","6","","24.1","","101.02","","","","-23","","NA"
"2017-01-07 22:00","2017","01","07","22:00","-18.2","","-20.1","","85","","5","","10","","24.1","","100.94","","","","-25","","Mainly Clear"
"2017-01-07 23:00","2017","01","07","23:00","-18.8","","-20.7","","85","","4","","13","","24.1","","100.89","","","","-27","","NA"
"2017-01-08 00:00","2017","01","08","00:00","-17.8","","-20.2","","82","","6","","13","","24.1","","100.79","","","","-26","","NA"
"2017-01-08 01:00","2017","01","08","01:00","-17.9","","-20.3","","82","","6","","10","","24.1","","100.76","","","","-25","","Mostly Cloudy"
"2017-01-08 02:00","2017","01","08","02:00","-17.8","","-19.9","","84","","4","","10","","24.1","","100.81","","","","-25","","NA"
"2017-01-08 03:00","2017","01","08","03:00","-18.2","","-20.3","","84","","4","","15","","24.1","","100.80","","","","-27","","NA"
"2017-01-08 04:00","2017","01","08","04:00","-17.6","","-19.8","","83","","4","","15","","24.1","","100.77","","","","-26","","Cloudy"
"2017-01-08 05:00","2017","01","08","05:00","-17.3","","-19.7","","82","","4","","17","","24.1","","100.75","","","","-26","","NA"
"2017-01-08 06:00","2017","01","08","06:00","-17.0","","-19.5","","81","","4","","11","","24.1","","100.80","","","","-24","","NA"
"2017-01-08 07:00","2017","01","08","07:00","-16.2","","-18.7","","81","","3","","15","","16.1","","100.83","","","","-24","","Snow"
"2017-01-08 08:00","2017","01","08","08:00","-15.3","","-18.2","","79","","3","","12","","16.1","","100.87","","","","-22","","Snow"
"2017-01-08 09:00","2017","01","08","09:00","-14.6","","-17.8","","77","","1","","10","","12.9","","100.95","","","","-21","","Snow"
"2017-01-08 10:00","2017","01","08","10:00","-14.2","","-16.9","","80","","36","","13","","3.2","","101.05","","","","-21","","Snow"
"2017-01-08 11:00","2017","01","08","11:00","-13.5","","-16.3","","80","","34","","19","","2.4","","101.11","","","","-22","","Snow"
"2017-01-08 12:00","2017","01","08","12:00","-12.9","","-17.1","","71","","33","","19","","24.1","","101.12","","","","-21","","NA"
"2017-01-08 13:00","2017","01","08","13:00","-12.6","","-16.5","","73","","33","","21","","16.1","","101.15","","","","-21","","Snow"
"2017-01-08 14:00","2017","01","08","14:00","-13.4","","-17.9","","69","","33","","26","","24.1","","101.27","","","","-23","","NA"
"2017-01-08 15:00","2017","01","08","15:00","-13.5","","-18.6","","66","","32","","28","","24.1","","101.40","","","","-24","","NA"
"2017-01-08 16:00","2017","01","08","16:00","-13.6","","-18.9","","65","","32","","21","","24.1","","101.49","","","","-23","","Clear"
"2017-01-08 17:00","2017","01","08","17:00","-14.5","","-18.3","","73","","29","","22","","24.1","","101.60","","","","-24","","NA"
"2017-01-08 18:00","2017","01","08","18:00","-15.4","","-20.6","","65","","29","","22","","24.1","","101.71","","","","-25","","NA"
"2017-01-08 19:00","2017","01","08","19:00","-16.3","","-20.9","","68","","29","","24","","24.1","","101.81","","","","-27","","Clear"
"2017-01-08 20:00","2017","01","08","20:00","-17.4","","-21.6","","70","","28","","17","","24.1","","101.89","","","","-26","","NA"
"2017-01-08 21:00","2017","01","08","21:00","-18.1","","-22.3","","70","","28","","12","","24.1","","101.97","","","","-26","","NA"
"2017-01-08 22:00","2017","01","08","22:00","-19.6","","-23.0","","75","","25","","12","","24.1","","102.02","","","","-28","","Clear"
"2017-01-08 23:00","2017","01","08","23:00","-19.8","","-22.7","","78","","24","","13","","24.1","","102.03","","","","-28","","NA"
"2017-01-09 00:00","2017","01","09","00:00","-20.6","","-23.2","","80","","24","","10","","24.1","","102.04","","","","-28","","NA"
"2017-01-09 01:00","2017","01","09","01:00","-21.1","","-23.4","","82","","21","","10","","24.1","","102.04","","","","-29","","Clear"
"2017-01-09 02:00","2017","01","09","02:00","-21.0","","-23.3","","82","","21","","8","","24.1","","102.07","","","","-27","","NA"
"2017-01-09 03:00","2017","01","09","03:00","-22.4","","-24.6","","83","","21","","8","","24.1","","102.11","","","","-29","","NA"
"2017-01-09 04:00","2017","01","09","04:00","-24.1","","-26.4","","82","","18","","7","","24.1","","102.11","","","","-30","","Mainly Clear"
"2017-01-09 05:00","2017","01","09","05:00","-23.8","","-25.9","","83","","16","","8","","24.1","","102.05","","","","-31","","NA"
"2017-01-09 06:00","2017","01","09","06:00","-21.1","","-23.4","","82","","19","","9","","24.1","","102.05","","","","-28","","NA"
"2017-01-09 07:00","2017","01","09","07:00","-20.4","","-22.9","","81","","17","","7","","24.1","","102.05","","","","-26","","Mostly Cloudy"
"2017-01-09 08:00","2017","01","09","08:00","-18.7","","-21.2","","81","","14","","14","","24.1","","101.99","","","","-27","","NA"
"2017-01-09 09:00","2017","01","09","09:00","-17.3","","-20.1","","79","","17","","13","","24.1","","102.00","","","","-25","","NA"
"2017-01-09 10:00","2017","01","09","10:00","-16.1","","-19.1","","78","","14","","12","","24.1","","101.89","","","","-23","","Cloudy"
"2017-01-09 11:00","2017","01","09","11:00","-14.0","","-17.7","","74","","13","","13","","24.1","","101.81","","","","-21","","NA"
"2017-01-09 12:00","2017","01","09","12:00","-12.2","","-16.3","","72","","14","","15","","16.1","","101.64","","","","-19","","Snow"
"2017-01-09 13:00","2017","01","09","13:00","-10.7","","-14.6","","73","","14","","10","","16.1","","101.54","","","","-16","","Cloudy"
"2017-01-09 14:00","2017","01","09","14:00","-7.9","","-12.8","","68","","17","","23","","16.1","","101.42","","","","-16","","Snow"
"2017-01-09 15:00","2017","01","09","15:00","-6.4","","-13.0","","60","","19","","17","","24.1","","101.43","","","","-13","","NA"
"2017-01-09 16:00","2017","01","09","16:00","-6.7","","-13.0","","61","","20","","15","","24.1","","101.41","","","","-13","","Mainly Clear"
"2017-01-09 17:00","2017","01","09","17:00","-7.1","","-11.5","","71","","19","","19","","24.1","","101.45","","","","-14","","NA"
"2017-01-09 18:00","2017","01","09","18:00","-7.5","","-10.4","","80","","18","","17","","24.1","","101.45","","","","-14","","Snow"
"2017-01-09 19:00","2017","01","09","19:00","-7.5","","-10.2","","81","","18","","13","","40.2","","101.51","","","","-13","","Cloudy"
"2017-01-09 20:00","2017","01","09","20:00","-7.1","","-9.5","","83","","19","","18","","9.7","","101.51","","","","-14","","Snow"
"2017-01-09 21:00","2017","01","09","21:00","-7.0","","-9.4","","83","","19","","13","","16.1","","101.54","","","","-13","","NA"
"2017-01-09 22:00","2017","01","09","22:00","-7.7","","-9.8","","85","","15","","11","","24.1","","101.54","","","","-13","","Cloudy"
"2017-01-09 23:00","2017","01","09","23:00","-7.2","","-9.9","","81","","15","","13","","24.1","","101.55","","","","-13","","NA"
"2017-01-10 00:00","2017","01","10","00:00","-6.6","","-10.2","","76","","18","","13","","24.1","","101.54","","","","-12","","NA"
"2017-01-10 01:00","2017","01","10","01:00","-6.0","","-10.8","","69","","19","","23","","16.1","","101.52","","","","-13","","Snow"
"2017-01-10 02:00","2017","01","10","02:00","-6.0","","-10.8","","69","","18","","22","","16.1","","101.54","","","","-13","","Snow"
"2017-01-10 03:00","2017","01","10","03:00","-6.4","","-12.0","","65","","16","","17","","24.1","","101.58","","","","-13","","NA"
"2017-01-10 04:00","2017","01","10","04:00","-6.5","","-12.2","","64","","17","","14","","24.1","","101.56","","","","-12","","Cloudy"
"2017-01-10 05:00","2017","01","10","05:00","-6.4","","-12.8","","61","","16","","11","","24.1","","101.55","","","","-11","","NA"
"2017-01-10 06:00","2017","01","10","06:00","-6.8","","-12.7","","63","","14","","12","","24.1","","101.52","","","","-12","","NA"
"2017-01-10 07:00","2017","01","10","07:00","-6.9","","-13.0","","62","","15","","14","","24.1","","101.51","","","","-13","","Cloudy"
"2017-01-10 08:00","2017","01","10","08:00","-7.2","","-13.1","","63","","14","","16","","16.1","","101.48","","","","-14","","NA"
"2017-01-10 09:00","2017","01","10","09:00","-6.9","","-13.0","","62","","13","","18","","24.1","","101.46","","","","-14","","NA"
"2017-01-10 10:00","2017","01","10","10:00","-6.4","","-12.8","","61","","14","","17","","16.1","","101.41","","","","-13","","Cloudy"
"2017-01-10 11:00","2017","01","10","11:00","-5.5","","-11.9","","61","","13","","18","","24.1","","101.28","","","","-12","","Snow"
"2017-01-10 12:00","2017","01","10","12:00","-4.6","","-11.5","","59","","12","","14","","24.1","","101.08","","","","-10","","NA"
"2017-01-10 13:00","2017","01","10","13:00","-4.2","","-10.7","","61","","13","","21","","24.1","","100.88","","","","-11","","Cloudy"
"2017-01-10 14:00","2017","01","10","14:00","-4.2","","-8.9","","70","","12","","27","","6.4","","100.71","","","","-12","","Snow"
"2017-01-10 15:00","2017","01","10","15:00","-5.3","","-6.8","","89","","9","","18","","2.4","","100.59","","","","-12","","Snow"
"2017-01-10 16:00","2017","01","10","16:00","-5.8","","-6.9","","92","","9","","18","","1.2","","100.44","","","","-12","","Moderate Snow"
"2017-01-10 17:00","2017","01","10","17:00","-5.1","","-5.9","","94","","10","","14","","1.6","","100.24","","","","-10","","Snow"
"2017-01-10 18:00","2017","01","10","18:00","-4.2","","-4.9","","95","","9","","18","","2.4","","100.06","","","","-10","","Snow"
"2017-01-10 19:00","2017","01","10","19:00","-3.5","","-4.2","","95","","11","","18","","1.6","","99.97","","","","-9","","Snow"
"2017-01-10 20:00","2017","01","10","20:00","-2.0","","-2.7","","95","","14","","26","","4.8","","99.72","","","","-9","","Snow,Blowing Snow"
"2017-01-10 21:00","2017","01","10","21:00","-1.4","","-2.4","","93","","15","","26","","1.2","","99.52","","","","-8","","Snow,Blowing Snow"
"2017-01-10 22:00","2017","01","10","22:00","-0.6","","-2.2","","89","","16","","26","","12.9","","99.35","","","","-7","","Freezing Rain"
"2017-01-10 23:00","2017","01","10","23:00","0.1","","-1.1","","92","","16","","26","","12.9","","99.19","","","","","","Rain"
"2017-01-11 00:00","2017","01","11","00:00","0.7","","-0.3","","93","","16","","27","","12.9","","99.04","","","","","","NA"
"2017-01-11 01:00","2017","01","11","01:00","1.0","","0.1","","94","","16","","21","","12.9","","98.87","","","","","","Rain"
"2017-01-11 02:00","2017","01","11","02:00","1.5","","0.6","","94","","17","","35","","12.9","","98.73","","","","","","Rain"
"2017-01-11 03:00","2017","01","11","03:00","1.9","","0.9","","93","","18","","32","","24.1","","98.59","","","","","","Rain"
"2017-01-11 04:00","2017","01","11","04:00","3.6","","1.3","","85","","19","","49","","24.1","","98.59","","","","","","Cloudy"
"2017-01-11 05:00","2017","01","11","05:00","3.6","","0.8","","82","","22","","39","","24.1","","98.86","","","","","","NA"
"2017-01-11 06:00","2017","01","11","06:00","3.3","","-1.5","","71","","23","","42","","24.1","","99.14","","","","","","NA"
"2017-01-11 07:00","2017","01","11","07:00","3.3","","-1.7","","70","","24","","36","","24.1","","99.38","","","","","","Cloudy"
"2017-01-11 08:00","2017","01","11","08:00","3.8","","-3.3","","60","","24","","49","","24.1","","99.63","","","","","","NA"
"2017-01-11 09:00","2017","01","11","09:00","3.5","","-1.9","","68","","23","","32","","24.1","","99.87","","","","","","NA"
"2017-01-11 10:00","2017","01","11","10:00","3.6","","-4.1","","57","","25","","46","","24.1","","100.14","","","","","","Mostly Cloudy"
"2017-01-11 11:00","2017","01","11","11:00","3.7","","-3.1","","61","","23","","28","","24.1","","100.23","","","","","","NA"
"2017-01-11 12:00","2017","01","11","12:00","3.6","","-3.5","","60","","21","","29","","24.1","","100.28","","","","","","NA"
"2017-01-11 13:00","2017","01","11","13:00","4.2","","-3.1","","59","","21","","20","","24.1","","100.29","","","","","","Mainly Clear"
"2017-01-11 14:00","2017","01","11","14:00","4.1","","-3.0","","60","","21","","27","","24.1","","100.23","","","","","","NA"
"2017-01-11 15:00","2017","01","11","15:00","3.5","","-1.9","","68","","20","","18","","24.1","","100.34","","","","","","NA"
"2017-01-11 16:00","2017","01","11","16:00","3.4","","-2.4","","66","","19","","20","","24.1","","100.43","","","","","","Mostly Cloudy"
"2017-01-11 17:00","2017","01","11","17:00","3.3","","-3.3","","62","","18","","15","","24.1","","100.37","","","","","","NA"
"2017-01-11 18:00","2017","01","11","18:00","2.8","","-2.9","","66","","17","","15","","24.1","","100.21","","","","","","NA"
"2017-01-11 19:00","2017","01","11","19:00","2.3","","-2.8","","69","","16","","16","","24.1","","100.10","","","","","","Cloudy"
"2017-01-11 20:00","2017","01","11","20:00","4.2","","-2.0","","64","","17","","15","","24.1","","99.96","","","","","","NA"
"2017-01-11 21:00","2017","01","11","21:00","4.7","","-2.0","","62","","17","","20","","24.1","","99.91","","","","","","NA"
"2017-01-11 22:00","2017","01","11","22:00","5.0","","-2.1","","60","","18","","25","","24.1","","99.81","","","","","","Cloudy"
"2017-01-11 23:00","2017","01","11","23:00","5.5","","-2.1","","58","","18","","23","","24.1","","99.73","","","","","","NA"
"2017-01-12 00:00","2017","01","12","00:00","5.7","","-1.9","","58","","18","","20","","24.1","","99.65","","","","","","NA"
"2017-01-12 01:00","2017","01","12","01:00","5.7","","-1.7","","59","","18","","23","","24.1","","99.57","","","","","","Cloudy"
"2017-01-12 02:00","2017","01","12","02:00","5.7","","-0.8","","63","","16","","17","","24.1","","99.48","","","","","","NA"
"2017-01-12 03:00","2017","01","12","03:00","5.7","","0.5","","69","","16","","18","","24.1","","99.32","","","","","","Rain"
"2017-01-12 04:00","2017","01","12","04:00","4.7","","2.7","","87","","17","","10","","11.3","","99.24","","","","","","Rain"
"2017-01-12 05:00","2017","01","12","05:00","4.5","","3.9","","96","","16","","14","","16.1","","99.12","","","","","","NA"
"2017-01-12 06:00","2017","01","12","06:00","4.8","","4.7","","99","","18","","14","","6.4","","99.11","","","","","","Rain,Fog"
"2017-01-12 07:00","2017","01","12","07:00","3.2","","3.1","","99","","34","","8","","1.2","","99.18","","","","","","Rain,Fog"
"2017-01-12 08:00","2017","01","12","08:00","3.2","","3.1","","99","","2","","4","","1.2","","99.24","","","","","","Rain,Fog"
"2017-01-12 09:00","2017","01","12","09:00","3.9","","3.9","","100","","36","","3","","1.2","","99.35","","","","","","Rain,Fog"
"2017-01-12 10:00","2017","01","12","10:00","3.5","","3.5","","100","","28","","8","","1.2","","99.39","","","","","","Rain,Fog"
"2017-01-12 11:00","2017","01","12","11:00","2.6","","2.6","","100","","26","","9","","0.8","","99.45","","","","","","Fog"
"2017-01-12 12:00","2017","01","12","12:00","2.4","","2.4","","100","","29","","11","","1.2","","99.42","","","","","","Fog"
"2017-01-12 13:00","2017","01","12","13:00","2.4","","2.4","","100","","29","","17","","4.0","","99.43","","","","","","Fog"
"2017-01-12 14:00","2017","01","12","14:00","2.0","","1.9","","99","","28","","13","","24.1","","99.56","","","","","","NA"
"2017-01-12 15:00","2017","01","12","15:00","1.3","","1.0","","98","","29","","15","","24.1","","99.55","","","","","","NA"
"2017-01-12 16:00","2017","01","12","16:00","0.6","","0.2","","97","","29","","15","","16.1","","99.59","","","","","","Rain"
"2017-01-12 17:00","2017","01","12","17:00","0.2","","-0.2","","97","","30","","17","","16.1","","99.66","","","","","","Rain"
"2017-01-12 18:00","2017","01","12","18:00","0.0","","-0.6","","96","","27","","14","","16.1","","99.79","","","","-4","","NA"
"2017-01-12 19:00","2017","01","12","19:00","-0.5","","-1.2","","95","","28","","23","","8.1","","99.90","","","","-6","","Snow"
"2017-01-12 20:00","2017","01","12","20:00","-1.2","","-1.9","","95","","27","","17","","24.1","","100.01","","","","-6","","NA"
"2017-01-12 21:00","2017","01","12","21:00","-1.9","","-4.1","","85","","26","","19","","24.1","","100.15","","","","-7","","NA"
"2017-01-12 22:00","2017","01","12","22:00","-2.6","","-5.3","","82","","28","","29","","24.1","","100.28","","","","-10","","Mainly Clear"
"2017-01-12 23:00","2017","01","12","23:00","-2.9","","-4.6","","88","","27","","13","","24.1","","100.39","","","","-8","","NA"
"2017-01-13 00:00","2017","01","13","00:00","-3.3","","-5.9","","82","","29","","18","","24.1","","100.46","","","","-9","","NA"
"2017-01-13 01:00","2017","01","13","01:00","-3.5","","-6.6","","79","","28","","35","","24.1","","100.61","","","","-12","","Mostly Cloudy"
"2017-01-13 02:00","2017","01","13","02:00","-3.8","","-8.0","","73","","28","","14","","24.1","","100.78","","","","-9","","NA"
"2017-01-13 03:00","2017","01","13","03:00","-3.4","","-7.6","","73","","24","","20","","24.1","","100.83","","","","-10","","NA"
"2017-01-13 04:00","2017","01","13","04:00","-2.8","","-6.1","","78","","23","","18","","16.1","","100.91","","","","-8","","Snow"
"2017-01-13 05:00","2017","01","13","05:00","-2.3","","-6.0","","76","","29","","21","","3.2","","101.03","","","","-8","","Snow,Fog"
"2017-01-13 06:00","2017","01","13","06:00","-5.0","","-9.1","","73","","29","","30","","24.1","","101.27","","","","-13","","NA"
"2017-01-13 07:00","2017","01","13","07:00","-5.9","","-12.3","","61","","29","","30","","24.1","","101.44","","","","-14","","Clear"
"2017-01-13 08:00","2017","01","13","08:00","-6.5","","-12.2","","64","","28","","20","","24.1","","101.59","","","","-13","","NA"
"2017-01-13 09:00","2017","01","13","09:00","-7.0","","-12.9","","63","","29","","32","","24.1","","101.81","","","","-16","","Blowing Snow"
"2017-01-13 10:00","2017","01","13","10:00","-7.9","","-14.8","","58","","29","","36","","24.1","","101.95","","","","-18","","Blowing Snow"
"2017-01-13 11:00","2017","01","13","11:00","-7.6","","-15.6","","53","","28","","38","","24.1","","102.09","","","","-17","","Blowing Snow"
"2017-01-13 12:00","2017","01","13","12:00","-7.4","","-14.3","","58","","30","","35","","24.1","","102.17","","","","-17","","NA"
"2017-01-13 13:00","2017","01","13","13:00","-8.3","","-15.4","","57","","30","","36","","24.1","","102.25","","","","-18","","Blowing Snow"
"2017-01-13 14:00","2017","01","13","14:00","-8.6","","-17.0","","51","","28","","38","","24.1","","102.34","","","","-19","","Blowing Snow"
"2017-01-13 15:00","2017","01","13","15:00","-9.2","","-18.3","","48","","29","","26","","24.1","","102.42","","","","-18","","NA"
"2017-01-13 16:00","2017","01","13","16:00","-10.1","","-19.2","","48","","30","","31","","24.1","","102.50","","","","-20","","Clear"
"2017-01-13 17:00","2017","01","13","17:00","-11.1","","-20.3","","47","","30","","23","","24.1","","102.58","","","","-20","","NA"
"2017-01-13 18:00","2017","01","13","18:00","-11.7","","-19.9","","51","","30","","18","","24.1","","102.69","","","","-20","","NA"
"2017-01-13 19:00","2017","01","13","19:00","-13.1","","-19.3","","60","","32","","14","","24.1","","102.80","","","","-20","","Clear"
"2017-01-13 20:00","2017","01","13","20:00","-12.9","","-19.5","","58","","34","","14","","24.1","","102.86","","","","-20","","NA"
"2017-01-13 21:00","2017","01","13","21:00","-13.4","","-19.8","","59","","33","","17","","24.1","","102.92","","","","-21","","NA"
"2017-01-13 22:00","2017","01","13","22:00","-14.1","","-20.3","","60","","33","","21","","24.1","","102.93","","","","-23","","Clear"
"2017-01-13 23:00","2017","01","13","23:00","-14.7","","-20.1","","64","","33","","13","","24.1","","102.91","","","","-22","","NA"
"2017-01-14 00:00","2017","01","14","00:00","-15.4","","-20.8","","64","","33","","10","","24.1","","102.85","","","","-22","","NA"
"2017-01-14 01:00","2017","01","14","01:00","-15.6","","-21.0","","64","","1","","6","","24.1","","102.83","","","","-20","","Clear"
"2017-01-14 02:00","2017","01","14","02:00","-16.3","","-21.3","","66","","2","","9","","24.1","","102.80","","","","-22","","NA"
"2017-01-14 03:00","2017","01","14","03:00","-17.2","","-20.8","","74","","4","","8","","24.1","","102.76","","","","-23","","NA"
"2017-01-14 04:00","2017","01","14","04:00","-19.7","","-22.3","","80","","17","","4","","24.1","","102.74","","","","-23","","Clear"
"2017-01-14 05:00","2017","01","14","05:00","-20.3","","-22.5","","83","","16","","3","","24.1","","102.65","","","","-23","","NA"
"2017-01-14 06:00","2017","01","14","06:00","-20.4","","-22.7","","82","","20","","4","","24.1","","102.58","","","","-24","","NA"
"2017-01-14 07:00","2017","01","14","07:00","-19.7","","-21.6","","85","","26","","8","","24.1","","102.57","","","","-26","","Mostly Cloudy"
"2017-01-14 08:00","2017","01","14","08:00","-19.1","","-21.4","","82","","26","","6","","24.1","","102.53","","","","-24","","NA"
"2017-01-14 09:00","2017","01","14","09:00","-18.3","","-20.8","","81","","36","","1","","24.1","","102.48","","","","-19","","NA"
"2017-01-14 10:00","2017","01","14","10:00","-16.5","","-20.1","","74","","12","","4","","24.1","","102.40","","","","-20","","Cloudy"
"2017-01-14 11:00","2017","01","14","11:00","-15.5","","-21.1","","63","","15","","9","","24.1","","102.23","","","","-21","","NA"
"2017-01-14 12:00","2017","01","14","12:00","-14.7","","-20.9","","60","","12","","5","","24.1","","102.05","","","","-18","","NA"
"2017-01-14 13:00","2017","01","14","13:00","-13.5","","-20.5","","56","","17","","7","","24.1","","101.89","","","","-18","","Cloudy"
"2017-01-14 14:00","2017","01","14","14:00","-12.7","","-19.2","","59","","15","","9","","24.1","","101.73","","","","-18","","NA"
"2017-01-14 15:00","2017","01","14","15:00","-12.3","","-18.4","","61","","10","","8","","24.1","","101.60","","","","-17","","NA"
"2017-01-14 16:00","2017","01","14","16:00","-12.4","","-17.9","","64","","7","","8","","24.1","","101.53","","","","-17","","Cloudy"
"2017-01-14 17:00","2017","01","14","17:00","-12.4","","-17.0","","69","","10","","9","","24.1","","101.43","","","","-18","","NA"
"2017-01-14 18:00","2017","01","14","18:00","-12.2","","-16.4","","71","","11","","7","","24.1","","101.35","","","","-17","","NA"
"2017-01-14 19:00","2017","01","14","19:00","-12.2","","-15.9","","74","","7","","6","","24.1","","101.26","","","","-16","","Snow"
"2017-01-14 20:00","2017","01","14","20:00","-12.1","","-15.5","","76","","9","","3","","24.1","","101.18","","","","-14","","NA"
"2017-01-14 21:00","2017","01","14","21:00","-11.8","","-14.7","","79","","15","","5","","24.1","","101.15","","","","-15","","NA"
"2017-01-14 22:00","2017","01","14","22:00","-11.1","","-14.2","","78","","19","","7","","24.1","","101.09","","","","-15","","Cloudy"
"2017-01-14 23:00","2017","01","14","23:00","-9.3","","-12.1","","80","","22","","4","","24.1","","101.04","","","","-12","","NA"
"2017-01-15 00:00","2017","01","15","00:00","-6.5","","-9.7","","78","","24","","13","","24.1","","101.01","","","","-12","","NA"
"2017-01-15 01:00","2017","01","15","01:00","-6.8","","-9.7","","80","","23","","11","","24.1","","101.00","","","","-12","","Cloudy"
"2017-01-15 02:00","2017","01","15","02:00","-9.5","","-12.2","","81","","29","","10","","24.1","","101.04","","","","-15","","NA"
"2017-01-15 03:00","2017","01","15","03:00","-10.2","","-12.4","","84","","29","","5","","24.1","","101.10","","","","-13","","NA"
"2017-01-15 04:00","2017","01","15","04:00","-10.5","","-12.1","","88","","24","","7","","24.1","","101.11","","","","-15","","Clear"
"2017-01-15 05:00","2017","01","15","05:00","-10.1","","-11.9","","87","","30","","10","","24.1","","101.17","","","","-15","","NA"
"2017-01-15 06:00","2017","01","15","06:00","-10.3","","-12.1","","87","","26","","14","","24.1","","101.25","","","","-17","","NA"
"2017-01-15 07:00","2017","01","15","07:00","-10.6","","-12.1","","89","","29","","13","","24.1","","101.37","","","","-17","","Mainly Clear"
"2017-01-15 08:00","2017","01","15","08:00","-9.8","","-11.7","","86","","36","","13","","24.1","","101.47","","","","-16","","NA"
"2017-01-15 09:00","2017","01","15","09:00","-9.2","","-13.7","","70","","1","","16","","24.1","","101.55","","","","-16","","NA"
"2017-01-15 10:00","2017","01","15","10:00","-8.8","","-14.6","","63","","36","","19","","24.1","","101.61","","","","-16","","Mainly Clear"
"2017-01-15 11:00","2017","01","15","11:00","-8.3","","-14.0","","64","","2","","5","","24.1","","101.61","","","","-11","","NA"
"2017-01-15 12:00","2017","01","15","12:00","-8.1","","-14.4","","61","","29","","3","","24.1","","101.55","","","","-10","","NA"
"2017-01-15 13:00","2017","01","15","13:00","-7.7","","-14.4","","59","","23","","9","","24.1","","101.49","","","","-12","","Mostly Cloudy"
"2017-01-15 14:00","2017","01","15","14:00","-7.7","","-14.0","","61","","25","","15","","24.1","","101.47","","","","-14","","NA"
"2017-01-15 15:00","2017","01","15","15:00","-7.7","","-14.0","","61","","25","","13","","24.1","","101.48","","","","-13","","NA"
"2017-01-15 16:00","2017","01","15","16:00","-7.3","","-14.0","","59","","26","","13","","24.1","","101.50","","","","-13","","Mostly Cloudy"
"2017-01-15 17:00","2017","01","15","17:00","-8.5","","-14.2","","64","","32","","7","","24.1","","101.50","","","","-12","","NA"
"2017-01-15 18:00","2017","01","15","18:00","-9.8","","-14.1","","71","","36","","3","","24.1","","101.49","","","","-12","","NA"
"2017-01-15 19:00","2017","01","15","19:00","-9.5","","-14.6","","67","","10","","7","","24.1","","101.48","","","","-13","","Mainly Clear"
"2017-01-15 20:00","2017","01","15","20:00","-10.8","","-14.9","","72","","9","","5","","24.1","","101.51","","","","-14","","NA"
"2017-01-15 21:00","2017","01","15","21:00","-11.7","","-15.0","","77","","14","","11","","24.1","","101.46","","","","-18","","NA"
"2017-01-15 22:00","2017","01","15","22:00","-11.1","","-14.7","","75","","14","","12","","24.1","","101.42","","","","-17","","Mainly Clear"
"2017-01-15 23:00","2017","01","15","23:00","-10.9","","-13.9","","79","","15","","12","","24.1","","101.40","","","","-17","","NA"
"2017-01-16 00:00","2017","01","16","00:00","-11.1","","-13.4","","83","","21","","7","","24.1","","101.34","","","","-15","","NA"
"2017-01-16 01:00","2017","01","16","01:00","-12.0","","-14.2","","84","","29","","9","","24.1","","101.37","","","","-17","","Clear"
"2017-01-16 02:00","2017","01","16","02:00","-10.6","","-12.7","","85","","23","","9","","24.1","","101.37","","","","-16","","NA"
"2017-01-16 03:00","2017","01","16","03:00","-10.4","","-12.2","","87","","19","","11","","24.1","","101.29","","","","-16","","NA"
"2017-01-16 04:00","2017","01","16","04:00","-10.3","","-12.4","","85","","19","","8","","24.1","","101.22","","","","-15","","Mainly Clear"
"2017-01-16 05:00","2017","01","16","05:00","-10.2","","-11.8","","88","","17","","3","","24.1","","101.18","","","","-12","","NA"
"2017-01-16 06:00","2017","01","16","06:00","-10.9","","-12.4","","89","","15","","5","","24.1","","101.19","","","","-14","","NA"
"2017-01-16 07:00","2017","01","16","07:00","-9.1","","-10.7","","88","","18","","7","","24.1","","101.12","","","","-13","","Mainly Clear"
"2017-01-16 08:00","2017","01","16","08:00","-8.6","","-10.0","","90","","20","","10","","24.1","","101.06","","","","-14","","NA"
"2017-01-16 09:00","2017","01","16","09:00","-5.3","","-7.3","","86","","22","","16","","24.1","","101.03","","","","-11","","NA"
"2017-01-16 10:00","2017","01","16","10:00","-2.0","","-5.7","","76","","23","","23","","24.1","","101.01","","","","-8","","Mainly Clear"
"2017-01-16 11:00","2017","01","16","11:00","-0.5","","-5.3","","70","","23","","25","","24.1","","100.99","","","","-7","","NA"
"2017-01-16 12:00","2017","01","16","12:00","1.0","","-5.3","","63","","23","","27","","24.1","","100.91","","","","","","NA"
"2017-01-16 13:00","2017","01","16","13:00","2.0","","-6.1","","55","","23","","25","","24.1","","100.85","","","","","","Clear"
"2017-01-16 14:00","2017","01","16","14:00","2.8","","-6.1","","52","","22","","22","","24.1","","100.76","","","","","","NA"
"2017-01-16 15:00","2017","01","16","15:00","2.8","","-6.9","","49","","22","","28","","24.1","","100.73","","","","","","NA"
"2017-01-16 16:00","2017","01","16","16:00","2.3","","-7.1","","50","","22","","25","","24.1","","100.76","","","","","","Clear"
"2017-01-16 17:00","2017","01","16","17:00","1.2","","-6.9","","55","","23","","18","","24.1","","100.79","","","","","","NA"
"2017-01-16 18:00","2017","01","16","18:00","0.1","","-6.1","","63","","22","","17","","24.1","","100.83","","","","","","NA"
"2017-01-16 19:00","2017","01","16","19:00","-0.7","","-6.7","","64","","23","","19","","24.1","","100.87","","","","-6","","Clear"
"2017-01-16 20:00","2017","01","16","20:00","-1.5","","-7.3","","65","","22","","12","","24.1","","100.90","","","","-6","","NA"
"2017-01-16 21:00","2017","01","16","21:00","-2.4","","-7.7","","67","","21","","10","","24.1","","100.93","","","","-6","","NA"
"2017-01-16 22:00","2017","01","16","22:00","-3.0","","-7.9","","69","","22","","13","","24.1","","100.93","","","","-8","","Clear"
"2017-01-16 23:00","2017","01","16","23:00","-3.7","","-8.2","","71","","23","","10","","24.1","","100.92","","","","-8","","NA"
"2017-01-17 00:00","2017","01","17","00:00","-3.9","","-8.1","","73","","23","","9","","24.1","","100.92","","","","-8","","NA"
"2017-01-17 01:00","2017","01","17","01:00","-6.0","","-8.8","","81","","23","","4","","24.1","","100.93","","","","-8","","Clear"
"2017-01-17 02:00","2017","01","17","02:00","-6.1","","-8.4","","84","","25","","4","","24.1","","100.97","","","","-8","","NA"
"2017-01-17 03:00","2017","01","17","03:00","-5.8","","-7.9","","85","","24","","5","","24.1","","100.97","","","","-8","","NA"
"2017-01-17 04:00","2017","01","17","04:00","-6.7","","-8.1","","90","","29","","5","","24.1","","100.94","","","","-9","","Mainly Clear"
"2017-01-17 05:00","2017","01","17","05:00","-5.5","","-7.6","","85","","31","","4","","24.1","","100.94","","","","-7","","NA"
"2017-01-17 06:00","2017","01","17","06:00","-8.1","","-9.2","","92","","0","","1","","24.1","","100.97","","","","-9","","NA"
"2017-01-17 07:00","2017","01","17","07:00","-9.1","","-10.3","","91","","6","","6","","24.1","","100.97","","","","-12","","Clear"
"2017-01-17 08:00","2017","01","17","08:00","-8.9","","-10.3","","90","","6","","11","","24.1","","100.96","","","","-14","","NA"
"2017-01-17 09:00","2017","01","17","09:00","-5.3","","-7.6","","84","","6","","14","","24.1","","100.96","","","","-11","","NA"
"2017-01-17 10:00","2017","01","17","10:00","-3.6","","-6.9","","78","","7","","16","","24.1","","100.88","","","","-9","","Mostly Cloudy"
"2017-01-17 11:00","2017","01","17","11:00","-1.4","","-6.0","","71","","7","","21","","24.1","","100.79","","","","-7","","NA"
"2017-01-17 12:00","2017","01","17","12:00","-0.9","","-5.7","","70","","9","","26","","24.1","","100.71","","","","-7","","NA"
"2017-01-17 13:00","2017","01","17","13:00","-0.5","","-5.5","","69","","7","","19","","24.1","","100.62","","","","-6","","Cloudy"
"2017-01-17 14:00","2017","01","17","14:00","-1.2","","-5.1","","75","","6","","22","","24.1","","100.48","","","","-7","","NA"
"2017-01-17 15:00","2017","01","17","15:00","-1.3","","-5.5","","73","","7","","14","","24.1","","100.45","","","","-6","","NA"
"2017-01-17 16:00","2017","01","17","16:00","-1.9","","-6.1","","73","","7","","26","","24.1","","100.35","","","","-8","","Cloudy"
"2017-01-17 17:00","2017","01","17","17:00","-2.2","","-6.6","","72","","8","","26","","24.1","","100.30","","","","-9","","NA"
"2017-01-17 18:00","2017","01","17","18:00","-2.7","","-6.9","","73","","7","","26","","24.1","","100.23","","","","-10","","NA"
"2017-01-17 19:00","2017","01","17","19:00","-3.1","","-6.9","","75","","7","","23","","24.1","","100.19","","","","-10","","Freezing Rain,Snow"
"2017-01-17 20:00","2017","01","17","20:00","-3.0","","-6.1","","79","","8","","25","","12.9","","100.12","","","","-10","","Freezing Rain"
"2017-01-17 21:00","2017","01","17","21:00","-3.4","","-5.6","","85","","7","","22","","8.1","","100.03","","","","-10","","Snow"
"2017-01-17 22:00","2017","01","17","22:00","-3.9","","-5.0","","92","","6","","22","","3.2","","100.01","","","","-10","","Snow"
"2017-01-17 23:00","2017","01","17","23:00","-4.1","","-5.2","","92","","6","","23","","2.8","","99.96","","","","-11","","Snow"
"2017-01-18 00:00","2017","01","18","00:00","-4.4","","-5.4","","93","","6","","23","","6.4","","99.89","","","","-11","","Snow"
"2017-01-18 01:00","2017","01","18","01:00","-4.7","","-5.7","","93","","7","","22","","6.4","","99.83","","","","-12","","Snow"
"2017-01-18 02:00","2017","01","18","02:00","-4.7","","-5.5","","94","","6","","18","","6.4","","99.82","","","","-11","","Freezing Drizzle,Snow"
"2017-01-18 03:00","2017","01","18","03:00","-4.7","","-5.5","","94","","5","","17","","3.2","","99.79","","","","-11","","Snow"
"2017-01-18 04:00","2017","01","18","04:00","-4.6","","-5.4","","94","","7","","17","","6.4","","99.77","","","","-10","","Freezing Drizzle"
"2017-01-18 05:00","2017","01","18","05:00","-4.6","","-5.1","","96","","6","","18","","6.4","","99.80","","","","-11","","Freezing Drizzle"
"2017-01-18 06:00","2017","01","18","06:00","-4.5","","-5.0","","96","","7","","14","","6.4","","99.82","","","","-10","","Freezing Drizzle"
"2017-01-18 07:00","2017","01","18","07:00","-4.2","","-4.6","","97","","5","","16","","6.4","","99.87","","","","-10","","Freezing Drizzle"
"2017-01-18 08:00","2017","01","18","08:00","-4.1","","-4.5","","97","","8","","11","","4.8","","99.82","","","","-9","","Freezing Drizzle"
"2017-01-18 09:00","2017","01","18","09:00","-3.8","","-4.2","","97","","4","","13","","4.8","","99.90","","","","-9","","Freezing Drizzle,Fog"
"2017-01-18 10:00","2017","01","18","10:00","-3.4","","-3.8","","97","","5","","12","","4.8","","99.97","","","","-8","","Freezing Drizzle,Fog"
"2017-01-18 11:00","2017","01","18","11:00","-3.1","","-3.4","","98","","6","","7","","4.8","","99.96","","","","-6","","Freezing Drizzle,Fog"
"2017-01-18 12:00","2017","01","18","12:00","-2.7","","-3.1","","97","","36","","1","","6.4","","99.88","","","","-3","","Freezing Drizzle,Fog"
"2017-01-18 13:00","2017","01","18","13:00","-2.4","","-2.8","","97","","36","","1","","6.4","","99.88","","","","-3","","Freezing Drizzle,Fog"
"2017-01-18 14:00","2017","01","18","14:00","-2.5","","-2.8","","98","","23","","3","","1.6","","99.94","","","","-4","","Fog"
"2017-01-18 15:00","2017","01","18","15:00","-2.3","","-2.4","","99","","19","","7","","1.6","","99.97","","","","-5","","Fog"
"2017-01-18 16:00","2017","01","18","16:00","-2.2","","-2.3","","99","","21","","7","","2.4","","100.00","","","","-5","","Freezing Drizzle,Fog"
"2017-01-18 17:00","2017","01","18","17:00","-1.9","","-2.0","","99","","22","","9","","2.4","","100.07","","","","-5","","Freezing Drizzle,Fog"
"2017-01-18 18:00","2017","01","18","18:00","-1.6","","-1.7","","99","","22","","9","","4.0","","100.07","","","","-5","","Freezing Drizzle,Fog"
"2017-01-18 19:00","2017","01","18","19:00","-1.8","","-2.1","","98","","17","","8","","8.1","","100.03","","","","-5","","Fog"
"2017-01-18 20:00","2017","01","18","20:00","-1.8","","-2.1","","98","","21","","6","","8.1","","100.05","","","","-4","","Fog"
"2017-01-18 21:00","2017","01","18","21:00","-1.7","","-2.0","","98","","21","","5","","6.4","","100.02","","","","-4","","Fog"
"2017-01-18 22:00","2017","01","18","22:00","-1.3","","-1.4","","99","","17","","9","","3.2","","99.99","","","","-5","","Fog"
"2017-01-18 23:00","2017","01","18","23:00","-1.0","","-1.1","","99","","22","","5","","2.4","","100.01","","","","-3","","Fog"
"2017-01-19 00:00","2017","01","19","00:00","-0.3","","-0.4","","99","","21","","11","","6.4","","99.96","","","","-4","","Fog"
"2017-01-19 01:00","2017","01","19","01:00","0.0","","-0.1","","99","","20","","10","","8.1","","99.95","","","","-3","","Fog"
"2017-01-19 02:00","2017","01","19","02:00","0.2","","0.1","","99","","22","","9","","8.1","","100.03","","","","","","Fog"
"2017-01-19 03:00","2017","01","19","03:00","0.2","","0.1","","99","","21","","10","","8.1","","100.02","","","","","","Fog"
"2017-01-19 04:00","2017","01","19","04:00","0.2","","0.1","","99","","22","","10","","24.1","","100.01","","","","","","Mostly Cloudy"
"2017-01-19 05:00","2017","01","19","05:00","0.2","","-0.1","","98","","22","","9","","11.3","","100.04","","","","","","NA"
"2017-01-19 06:00","2017","01","19","06:00","0.2","","-0.1","","98","","23","","8","","9.7","","100.09","","","","","","Fog"
"2017-01-19 07:00","2017","01","19","07:00","0.1","","0.0","","99","","23","","12","","12.9","","100.14","","","","","","Cloudy"
"2017-01-19 08:00","2017","01","19","08:00","0.2","","-0.1","","98","","22","","11","","16.1","","100.22","","","","","","NA"
"2017-01-19 09:00","2017","01","19","09:00","0.5","","0.1","","97","","24","","12","","16.1","","100.29","","","","","","NA"
"2017-01-19 10:00","2017","01","19","10:00","0.6","","0.0","","96","","25","","13","","24.1","","100.33","","","","","","Cloudy"
"2017-01-19 11:00","2017","01","19","11:00","0.9","","0.2","","95","","24","","14","","24.1","","100.34","","","","","","NA"
"2017-01-19 12:00","2017","01","19","12:00","1.2","","0.3","","94","","25","","14","","24.1","","100.26","","","","","","NA"
"2017-01-19 13:00","2017","01","19","13:00","1.4","","0.4","","93","","26","","11","","24.1","","100.20","","","","","","Cloudy"
"2017-01-19 14:00","2017","01","19","14:00","1.6","","0.6","","93","","25","","9","","24.1","","100.18","","","","","","NA"
"2017-01-19 15:00","2017","01","19","15:00","1.7","","0.5","","92","","26","","9","","24.1","","100.22","","","","","","NA"
"2017-01-19 16:00","2017","01","19","16:00","1.7","","0.7","","93","","25","","5","","24.1","","100.19","","","","","","Mostly Cloudy"
"2017-01-19 17:00","2017","01","19","17:00","1.6","","0.7","","94","","25","","6","","24.1","","100.22","","","","","","NA"
"2017-01-19 18:00","2017","01","19","18:00","2.0","","-0.9","","81","","24","","5","","24.1","","100.28","","","","","","NA"
"2017-01-19 19:00","2017","01","19","19:00","1.1","","0.5","","96","","21","","5","","24.1","","100.36","","","","","","Cloudy"
"2017-01-19 20:00","2017","01","19","20:00","0.9","","0.3","","96","","36","","1","","24.1","","100.40","","","","","","NA"
"2017-01-19 21:00","2017","01","19","21:00","0.9","","0.5","","97","","36","","2","","24.1","","100.42","","","","","","NA"
"2017-01-19 22:00","2017","01","19","22:00","0.6","","0.2","","97","","9","","5","","24.1","","100.36","","","","","","Cloudy"
"2017-01-19 23:00","2017","01","19","23:00","0.7","","0.3","","97","","9","","7","","24.1","","100.29","","","","","","NA"
"2017-01-20 00:00","2017","01","20","00:00","0.4","","-0.2","","96","","10","","5","","24.1","","100.19","","","","","","NA"
"2017-01-20 01:00","2017","01","20","01:00","0.5","","-0.1","","96","","14","","8","","24.1","","100.20","","","","","","Cloudy"
"2017-01-20 02:00","2017","01","20","02:00","0.5","","-0.1","","96","","16","","11","","12.9","","100.18","","","","","","NA"
"2017-01-20 03:00","2017","01","20","03:00","0.4","","0.1","","98","","14","","5","","9.7","","100.21","","","","","","Fog"
"2017-01-20 04:00","2017","01","20","04:00","0.2","","0.1","","99","","13","","4","","4.0","","100.19","","","","","","Fog"
"2017-01-20 05:00","2017","01","20","05:00","0.2","","0.1","","99","","14","","7","","6.4","","100.09","","","","","","Fog"
"2017-01-20 06:00","2017","01","20","06:00","0.2","","0.1","","99","","12","","6","","6.4","","100.06","","","","","","Fog"
"2017-01-20 07:00","2017","01","20","07:00","0.3","","0.2","","99","","10","","7","","8.1","","100.03","","","","","","Fog"
"2017-01-20 08:00","2017","01","20","08:00","0.8","","-0.1","","94","","14","","10","","16.1","","100.03","","","","","","NA"
"2017-01-20 09:00","2017","01","20","09:00","0.7","","-0.2","","94","","13","","9","","16.1","","100.04","","","","","","NA"
"2017-01-20 10:00","2017","01","20","10:00","0.7","","-0.2","","94","","12","","10","","12.9","","100.01","","","","","","Drizzle"
"2017-01-20 11:00","2017","01","20","11:00","1.0","","0.0","","93","","11","","10","","16.1","","99.96","","","","","","NA"
"2017-01-20 12:00","2017","01","20","12:00","1.2","","-0.4","","89","","10","","17","","16.1","","99.88","","","","","","NA"
"2017-01-20 13:00","2017","01","20","13:00","1.0","","0.1","","94","","13","","11","","12.9","","99.79","","","","","","Snow"
"2017-01-20 14:00","2017","01","20","14:00","1.1","","-0.4","","90","","13","","10","","16.1","","99.78","","","","","","Snow"
"2017-01-20 15:00","2017","01","20","15:00","0.8","","-0.5","","91","","11","","12","","16.1","","99.74","","","","","","Snow"
"2017-01-20 16:00","2017","01","20","16:00","0.9","","-1.2","","86","","11","","10","","24.1","","99.74","","","","","","Cloudy"
"2017-01-20 17:00","2017","01","20","17:00","1.0","","-1.7","","82","","11","","13","","24.1","","99.70","","","","","","NA"
"2017-01-20 18:00","2017","01","20","18:00","0.8","","-1.6","","84","","9","","11","","24.1","","99.71","","","","","","NA"
"2017-01-20 19:00","2017","01","20","19:00","0.8","","-1.6","","84","","6","","9","","24.1","","99.69","","","","","","Cloudy"
"2017-01-20 20:00","2017","01","20","20:00","0.5","","-1.4","","87","","7","","13","","24.1","","99.64","","","","","","NA"
"2017-01-20 21:00","2017","01","20","21:00","0.4","","-1.7","","86","","7","","9","","24.1","","99.63","","","","","","NA"
"2017-01-20 22:00","2017","01","20","22:00","0.3","","-1.5","","88","","7","","8","","24.1","","99.63","","","","","","Cloudy"
"2017-01-20 23:00","2017","01","20","23:00","0.3","","-1.3","","89","","6","","6","","24.1","","99.64","","","","","","NA"
"2017-01-21 00:00","2017","01","21","00:00","0.1","","-1.1","","92","","6","","7","","24.1","","99.57","","","","","","NA"
"2017-01-21 01:00","2017","01","21","01:00","0.3","","-1.2","","90","","7","","8","","24.1","","99.54","","","","","","Cloudy"
"2017-01-21 02:00","2017","01","21","02:00","0.2","","-1.1","","91","","7","","7","","24.1","","99.57","","","","","","NA"
"2017-01-21 03:00","2017","01","21","03:00","0.2","","-1.0","","92","","7","","5","","24.1","","99.58","","","","","","NA"
"2017-01-21 04:00","2017","01","21","04:00","0.0","","-0.6","","96","","6","","7","","12.9","","99.54","","","","-2","","Cloudy"
"2017-01-21 05:00","2017","01","21","05:00","-0.2","","-0.3","","99","","5","","10","","2.4","","99.50","","","","-4","","Snow,Fog"
"2017-01-21 06:00","2017","01","21","06:00","-0.2","","-0.3","","99","","6","","11","","2.8","","99.47","","","","-4","","Fog"
"2017-01-21 07:00","2017","01","21","07:00","-0.2","","-0.3","","99","","5","","8","","2.4","","99.49","","","","-3","","Fog"
"2017-01-21 08:00","2017","01","21","08:00","-0.2","","-0.3","","99","","6","","3","","1.2","","99.50","","","","-1","","Fog"
"2017-01-21 09:00","2017","01","21","09:00","0.1","","0.0","","99","","5","","6","","3.2","","99.50","","","","","","Fog"
"2017-01-21 10:00","2017","01","21","10:00","0.3","","0.2","","99","","36","","1","","2.0","","99.53","","","","","","Fog"
"2017-01-21 11:00","2017","01","21","11:00","0.6","","0.5","","99","","5","","6","","2.0","","99.43","","","","","","Fog"
"2017-01-21 12:00","2017","01","21","12:00","0.9","","0.8","","99","","21","","9","","3.2","","99.44","","","","","","Fog"
"2017-01-21 13:00","2017","01","21","13:00","1.0","","0.9","","99","","25","","6","","3.2","","99.41","","","","","","Fog"
"2017-01-21 14:00","2017","01","21","14:00","1.3","","0.9","","97","","24","","8","","4.8","","99.38","","","","","","Fog"
"2017-01-21 15:00","2017","01","21","15:00","1.7","","1.3","","97","","26","","4","","6.4","","99.39","","","","","","Fog"
"2017-01-21 16:00","2017","01","21","16:00","1.8","","1.2","","96","","22","","5","","6.4","","99.42","","","","","","Fog"
"2017-01-21 17:00","2017","01","21","17:00","2.0","","1.4","","96","","23","","6","","6.4","","99.48","","","","","","Fog"
"2017-01-21 18:00","2017","01","21","18:00","2.0","","1.6","","97","","29","","5","","9.7","","99.49","","","","","","Fog"
"2017-01-21 19:00","2017","01","21","19:00","1.8","","1.5","","98","","17","","7","","6.4","","99.48","","","","","","Fog"
"2017-01-21 20:00","2017","01","21","20:00","1.3","","1.0","","98","","36","","1","","6.4","","99.48","","","","","","Fog"
"2017-01-21 21:00","2017","01","21","21:00","1.7","","1.6","","99","","16","","4","","8.1","","99.46","","","","","","Fog"
"2017-01-21 22:00","2017","01","21","22:00","1.2","","1.1","","99","","0","","1","","4.8","","99.51","","","","","","Fog"
"2017-01-21 23:00","2017","01","21","23:00","1.2","","1.1","","99","","36","","1","","4.0","","99.53","","","","","","Fog"
"2017-01-22 00:00","2017","01","22","00:00","0.6","","0.5","","99","","12","","3","","2.4","","99.45","","","","","","Fog"
"2017-01-22 01:00","2017","01","22","01:00","1.2","","1.2","","100","","2","","5","","2.4","","99.47","","","","","","Fog"
"2017-01-22 02:00","2017","01","22","02:00","0.9","","0.9","","100","","3","","10","","4.0","","99.46","","","","","","Fog"
"2017-01-22 03:00","2017","01","22","03:00","1.0","","1.0","","100","","5","","10","","3.2","","99.50","","","","","","Rain,Fog"
"2017-01-22 04:00","2017","01","22","04:00","1.1","","1.0","","99","","4","","12","","4.0","","99.49","","","","","","Rain,Fog"
"2017-01-22 05:00","2017","01","22","05:00","1.1","","1.0","","99","","5","","15","","4.8","","99.49","","","","","","Rain,Fog"
"2017-01-22 06:00","2017","01","22","06:00","1.2","","0.9","","98","","6","","15","","8.1","","99.51","","","","","","Rain,Fog"
"2017-01-22 07:00","2017","01","22","07:00","0.5","","0.2","","98","","6","","16","","9.7","","99.58","","","","","","Rain,Fog"
"2017-01-22 08:00","2017","01","22","08:00","0.1","","-0.2","","98","","6","","19","","6.4","","99.64","","","","","","Fog"
"2017-01-22 09:00","2017","01","22","09:00","0.2","","-0.5","","95","","7","","19","","12.9","","99.69","","","","","","NA"
"2017-01-22 10:00","2017","01","22","10:00","0.4","","-1.2","","89","","7","","22","","24.1","","99.69","","","","","","Cloudy"
"2017-01-22 11:00","2017","01","22","11:00","1.0","","-1.2","","85","","6","","16","","24.1","","99.78","","","","","","NA"
"2017-01-22 12:00","2017","01","22","12:00","1.4","","-1.7","","80","","7","","8","","24.1","","99.83","","","","","","NA"
"2017-01-22 13:00","2017","01","22","13:00","1.8","","-1.8","","77","","8","","23","","24.1","","99.80","","","","","","Mostly Cloudy"
"2017-01-22 14:00","2017","01","22","14:00","1.9","","-2.4","","73","","6","","29","","24.1","","99.76","","","","","","NA"
"2017-01-22 15:00","2017","01","22","15:00","1.9","","-3.0","","70","","7","","27","","24.1","","99.80","","","","","","NA"
"2017-01-22 16:00","2017","01","22","16:00","1.9","","-2.8","","71","","6","","28","","24.1","","99.79","","","","","","Mainly Clear"
"2017-01-22 17:00","2017","01","22","17:00","1.4","","-2.7","","74","","7","","24","","24.1","","99.84","","","","","","NA"
"2017-01-22 18:00","2017","01","22","18:00","1.4","","-2.9","","73","","7","","22","","24.1","","99.90","","","","","","NA"
"2017-01-22 19:00","2017","01","22","19:00","1.2","","-2.6","","76","","7","","23","","24.1","","99.96","","","","","","Mostly Cloudy"
"2017-01-22 20:00","2017","01","22","20:00","0.8","","-3.1","","75","","6","","28","","24.1","","99.98","","","","","","NA"
"2017-01-22 21:00","2017","01","22","21:00","0.5","","-3.6","","74","","7","","23","","24.1","","99.96","","","","","","NA"
"2017-01-22 22:00","2017","01","22","22:00","0.3","","-4.4","","71","","7","","32","","24.1","","100.05","","","","","","Cloudy"
"2017-01-22 23:00","2017","01","22","23:00","-0.2","","-4.3","","74","","8","","32","","24.1","","100.06","","","","-7","","NA"
"2017-01-23 00:00","2017","01","23","00:00","-0.9","","-4.6","","76","","6","","32","","24.1","","100.04","","","","-8","","NA"
"2017-01-23 01:00","2017","01","23","01:00","-1.5","","-4.9","","78","","7","","32","","24.1","","100.01","","","","-9","","Cloudy"
"2017-01-23 02:00","2017","01","23","02:00","-1.9","","-4.9","","80","","7","","33","","24.1","","100.05","","","","-9","","NA"
"2017-01-23 03:00","2017","01","23","03:00","-2.1","","-4.8","","82","","7","","30","","24.1","","100.11","","","","-9","","NA"
"2017-01-23 04:00","2017","01","23","04:00","-2.3","","-4.5","","85","","6","","29","","24.1","","100.15","","","","-9","","Cloudy"
"2017-01-23 05:00","2017","01","23","05:00","-2.7","","-4.1","","90","","7","","30","","9.7","","100.14","","","","-10","","Freezing Drizzle,Snow"
"2017-01-23 06:00","2017","01","23","06:00","-2.9","","-3.7","","94","","6","","26","","4.8","","100.13","","","","-10","","Freezing Drizzle,Fog"
"2017-01-23 07:00","2017","01","23","07:00","-2.9","","-4.0","","92","","7","","29","","8.1","","100.11","","","","-10","","Freezing Drizzle,Fog"
"2017-01-23 08:00","2017","01","23","08:00","-2.5","","-4.7","","85","","7","","30","","24.1","","100.14","","","","-10","","NA"
"2017-01-23 09:00","2017","01","23","09:00","-2.2","","-4.5","","84","","7","","27","","24.1","","100.18","","","","-9","","NA"
"2017-01-23 10:00","2017","01","23","10:00","-1.9","","-4.4","","83","","8","","25","","24.1","","100.22","","","","-8","","Cloudy"
"2017-01-23 11:00","2017","01","23","11:00","-1.6","","-4.8","","79","","7","","28","","24.1","","100.16","","","","-8","","NA"
"2017-01-23 12:00","2017","01","23","12:00","-1.5","","-4.5","","80","","6","","37","","24.1","","100.11","","","","-9","","NA"
"2017-01-23 13:00","2017","01","23","13:00","-1.0","","-4.2","","79","","7","","27","","24.1","","100.10","","","","-7","","Cloudy"
"2017-01-23 14:00","2017","01","23","14:00","-1.0","","-4.7","","76","","6","","30","","24.1","","100.07","","","","-8","","NA"
"2017-01-23 15:00","2017","01","23","15:00","-1.5","","-5.2","","76","","6","","35","","24.1","","100.06","","","","-9","","NA"
"2017-01-23 16:00","2017","01","23","16:00","-1.6","","-5.1","","77","","6","","27","","24.1","","100.05","","","","-8","","Cloudy"
"2017-01-23 17:00","2017","01","23","17:00","-1.7","","-5.6","","75","","7","","30","","24.1","","100.03","","","","-9","","NA"
"2017-01-23 18:00","2017","01","23","18:00","-1.7","","-5.9","","73","","7","","32","","24.1","","100.04","","","","-9","","NA"
"2017-01-23 19:00","2017","01","23","19:00","-2.1","","-6.3","","73","","6","","33","","24.1","","100.05","","","","-10","","Mainly Clear"
"2017-01-23 20:00","2017","01","23","20:00","-2.4","","-6.8","","72","","6","","31","","24.1","","100.08","","","","-10","","NA"
"2017-01-23 21:00","2017","01","23","21:00","-2.7","","-7.3","","71","","6","","26","","24.1","","100.02","","","","-10","","NA"
"2017-01-23 22:00","2017","01","23","22:00","-3.1","","-7.5","","72","","7","","22","","24.1","","100.00","","","","-9","","Mainly Clear"
"2017-01-23 23:00","2017","01","23","23:00","-3.2","","-7.4","","73","","7","","25","","24.1","","99.92","","","","-10","","NA"
"2017-01-24 00:00","2017","01","24","00:00","-3.2","","-7.4","","73","","7","","23","","24.1","","99.86","","","","-10","","NA"
"2017-01-24 01:00","2017","01","24","01:00","-3.2","","-7.4","","73","","7","","23","","24.1","","99.80","","","","-10","","Cloudy"
"2017-01-24 02:00","2017","01","24","02:00","-3.1","","-7.6","","71","","6","","26","","24.1","","99.73","","","","-10","","NA"
"2017-01-24 03:00","2017","01","24","03:00","-3.1","","-7.8","","70","","6","","30","","24.1","","99.65","","","","-11","","NA"
"2017-01-24 04:00","2017","01","24","04:00","-2.9","","-8.2","","67","","6","","32","","24.1","","99.57","","","","-10","","Mostly Cloudy"
"2017-01-24 05:00","2017","01","24","05:00","-2.5","","-8.6","","63","","6","","27","","24.1","","99.49","","","","-9","","NA"
"2017-01-24 06:00","2017","01","24","06:00","-2.3","","-8.8","","61","","6","","26","","24.1","","99.45","","","","-9","","NA"
"2017-01-24 07:00","2017","01","24","07:00","-2.3","","-8.2","","64","","6","","22","","24.1","","99.45","","","","-8","","Snow"
"2017-01-24 08:00","2017","01","24","08:00","-2.6","","-7.5","","69","","6","","22","","16.1","","99.42","","","","-9","","Snow"
"2017-01-24 09:00","2017","01","24","09:00","-2.5","","-5.2","","82","","6","","20","","12.9","","99.41","","","","-8","","Snow"
"2017-01-24 10:00","2017","01","24","10:00","-2.8","","-4.8","","86","","5","","20","","6.4","","99.37","","","","-9","","Freezing Rain,Ice Pellets"
"2017-01-24 11:00","2017","01","24","11:00","-2.9","","-4.5","","89","","3","","21","","3.2","","99.29","","","","-9","","Snow"
"2017-01-24 12:00","2017","01","24","12:00","-2.8","","-3.8","","93","","2","","14","","2.4","","99.18","","","","-8","","Snow"
"2017-01-24 13:00","2017","01","24","13:00","-2.6","","-3.3","","95","","1","","13","","1.2","","99.07","","","","-7","","Snow"
"2017-01-24 14:00","2017","01","24","14:00","-2.6","","-3.4","","94","","2","","9","","1.2","","99.00","","","","-6","","Snow"
"2017-01-24 15:00","2017","01","24","15:00","-2.4","","-3.2","","94","","5","","10","","1.6","","99.02","","","","-6","","Snow"
"2017-01-24 16:00","2017","01","24","16:00","-2.4","","-3.5","","92","","6","","13","","3.2","","99.00","","","","-7","","Snow"
"2017-01-24 17:00","2017","01","24","17:00","-2.8","","-4.2","","90","","6","","16","","16.1","","98.99","","","","-8","","Snow"
"2017-01-24 18:00","2017","01","24","18:00","-3.0","","-4.3","","91","","7","","9","","16.1","","98.99","","","","-7","","Snow"
"2017-01-24 19:00","2017","01","24","19:00","-3.0","","-4.4","","90","","5","","8","","12.9","","98.98","","","","-6","","Snow"
"2017-01-24 20:00","2017","01","24","20:00","-3.2","","-3.9","","95","","6","","4","","12.9","","98.99","","","","-5","","Snow"
"2017-01-24 21:00","2017","01","24","21:00","-3.2","","-3.8","","96","","36","","3","","6.4","","98.96","","","","-4","","Freezing Drizzle,Snow Grains"
"2017-01-24 22:00","2017","01","24","22:00","-3.2","","-3.6","","97","","25","","9","","6.4","","98.94","","","","-7","","Snow Grains,Fog"
"2017-01-24 23:00","2017","01","24","23:00","-3.3","","-3.9","","96","","26","","8","","6.4","","98.90","","","","-7","","Snow,Fog"
"2017-01-25 00:00","2017","01","25","00:00","-3.4","","-3.8","","97","","25","","12","","6.4","","98.87","","","","-8","","Snow,Fog"
"2017-01-25 01:00","2017","01","25","01:00","-3.4","","-4.0","","96","","28","","10","","12.9","","98.87","","","","-7","","Cloudy"
"2017-01-25 02:00","2017","01","25","02:00","-3.5","","-3.9","","97","","26","","13","","11.3","","98.87","","","","-8","","NA"
"2017-01-25 03:00","2017","01","25","03:00","-3.4","","-4.0","","96","","27","","11","","24.1","","98.86","","","","-8","","NA"
"2017-01-25 04:00","2017","01","25","04:00","-3.6","","-4.2","","96","","25","","8","","12.9","","98.82","","","","-7","","Cloudy"
"2017-01-25 05:00","2017","01","25","05:00","-3.5","","-4.2","","95","","25","","12","","12.9","","98.84","","","","-8","","NA"
"2017-01-25 06:00","2017","01","25","06:00","-3.4","","-4.0","","96","","25","","16","","12.9","","98.82","","","","-9","","NA"
"2017-01-25 07:00","2017","01","25","07:00","-3.3","","-3.7","","97","","26","","17","","6.4","","98.83","","","","-9","","Fog"
"2017-01-25 08:00","2017","01","25","08:00","-3.3","","-3.9","","96","","25","","14","","6.4","","98.80","","","","-8","","Fog"
"2017-01-25 09:00","2017","01","25","09:00","-2.9","","-3.9","","93","","24","","14","","24.1","","98.84","","","","-8","","NA"
"2017-01-25 10:00","2017","01","25","10:00","-2.6","","-4.2","","89","","25","","21","","24.1","","98.85","","","","-9","","Cloudy"
"2017-01-25 11:00","2017","01","25","11:00","-1.9","","-4.3","","84","","27","","22","","24.1","","98.80","","","","-8","","NA"
"2017-01-25 12:00","2017","01","25","12:00","-1.3","","-3.8","","83","","27","","12","","24.1","","98.75","","","","-5","","NA"
"2017-01-25 13:00","2017","01","25","13:00","-0.8","","-3.8","","80","","23","","15","","24.1","","98.66","","","","-5","","Mostly Cloudy"
"2017-01-25 14:00","2017","01","25","14:00","-0.5","","-3.4","","81","","22","","14","","24.1","","98.63","","","","-5","","NA"
"2017-01-25 15:00","2017","01","25","15:00","-0.1","","-3.0","","81","","22","","16","","24.1","","98.64","","","","-5","","NA"
"2017-01-25 16:00","2017","01","25","16:00","0.1","","-2.8","","81","","21","","7","","24.1","","98.62","","","","","","Cloudy"
"2017-01-25 17:00","2017","01","25","17:00","0.2","","-2.4","","83","","21","","8","","24.1","","98.63","","","","","","NA"
"2017-01-25 18:00","2017","01","25","18:00","0.1","","-2.0","","86","","20","","6","","24.1","","98.61","","","","","","NA"
"2017-01-25 19:00","2017","01","25","19:00","-0.1","","-1.5","","90","","14","","7","","24.1","","98.53","","","","-3","","Cloudy"
"2017-01-25 20:00","2017","01","25","20:00","0.2","","-1.3","","90","","17","","7","","24.1","","98.49","","","","","","NA"
"2017-01-25 21:00","2017","01","25","21:00","0.7","","-0.6","","91","","20","","13","","9.7","","98.46","","","","","","Snow"
"2017-01-25 22:00","2017","01","25","22:00","0.4","","0.0","","97","","21","","13","","9.7","","98.42","","","","","","Snow,Fog"
"2017-01-25 23:00","2017","01","25","23:00","0.2","","-0.1","","98","","21","","9","","1.6","","98.38","","","","","","Snow,Fog"
"2017-01-26 00:00","2017","01","26","00:00","0.2","","0.1","","99","","20","","4","","6.4","","98.25","","","","","","Snow,Fog"
"2017-01-26 01:00","2017","01","26","01:00","0.3","","0.2","","99","","19","","8","","6.4","","98.17","","","","","","Fog"
"2017-01-26 02:00","2017","01","26","02:00","0.3","","0.2","","99","","20","","5","","6.4","","98.08","","","","","","Fog"
"2017-01-26 03:00","2017","01","26","03:00","0.2","","0.1","","99","","21","","5","","2.4","","98.04","","","","","","Snow,Fog"
"2017-01-26 04:00","2017","01","26","04:00","0.1","","0.0","","99","","18","","8","","2.4","","97.97","","","","","","Snow,Fog"
"2017-01-26 05:00","2017","01","26","05:00","0.2","","0.1","","99","","21","","7","","3.2","","97.90","","","","","","Snow,Fog"
"2017-01-26 06:00","2017","01","26","06:00","0.2","","0.1","","99","","23","","8","","4.0","","97.88","","","","","","Snow,Fog"
"2017-01-26 07:00","2017","01","26","07:00","0.3","","0.2","","99","","24","","8","","4.0","","97.88","","","","","","Snow"
"2017-01-26 08:00","2017","01","26","08:00","0.5","","0.4","","99","","27","","12","","6.4","","97.90","","","","","","Snow"
"2017-01-26 09:00","2017","01","26","09:00","0.4","","-0.5","","94","","27","","13","","12.9","","97.87","","","","","","Snow"
"2017-01-26 10:00","2017","01","26","10:00","0.3","","-0.4","","95","","27","","14","","4.0","","97.86","","","","","","Snow"
"2017-01-26 11:00","2017","01","26","11:00","0.3","","-0.6","","94","","28","","17","","4.0","","97.82","","","","","","Snow"
"2017-01-26 12:00","2017","01","26","12:00","-0.1","","-1.0","","94","","28","","19","","3.2","","97.76","","","","-5","","Snow"
"2017-01-26 13:00","2017","01","26","13:00","-0.3","","-2.2","","87","","30","","22","","24.1","","97.72","","","","-6","","Cloudy"
"2017-01-26 14:00","2017","01","26","14:00","-0.1","","-3.0","","81","","30","","30","","24.1","","97.75","","","","-7","","NA"
"2017-01-26 15:00","2017","01","26","15:00","-0.3","","-2.7","","84","","28","","21","","24.1","","97.80","","","","-6","","NA"
"2017-01-26 16:00","2017","01","26","16:00","-0.4","","-3.3","","81","","27","","23","","24.1","","97.86","","","","-6","","Cloudy"
"2017-01-26 17:00","2017","01","26","17:00","-0.3","","-2.8","","83","","27","","18","","24.1","","97.93","","","","-5","","NA"
"2017-01-26 18:00","2017","01","26","18:00","0.0","","-2.9","","81","","27","","24","","24.1","","97.98","","","","-6","","NA"
"2017-01-26 19:00","2017","01","26","19:00","0.0","","-2.5","","83","","26","","26","","24.1","","98.00","","","","-6","","Cloudy"
"2017-01-26 20:00","2017","01","26","20:00","0.2","","-2.5","","82","","25","","22","","24.1","","98.01","","","","","","NA"
"2017-01-26 21:00","2017","01","26","21:00","0.1","","-2.3","","84","","25","","18","","24.1","","98.01","","","","","","NA"
"2017-01-26 22:00","2017","01","26","22:00","0.4","","-2.0","","84","","26","","22","","24.1","","98.01","","","","","","Cloudy"
"2017-01-26 23:00","2017","01","26","23:00","0.4","","-1.7","","86","","26","","28","","24.1","","98.02","","","","","","NA"
"2017-01-27 00:00","2017","01","27","00:00","0.5","","-3.4","","75","","27","","30","","24.1","","98.04","","","","","","NA"
"2017-01-27 01:00","2017","01","27","01:00","0.3","","-3.6","","75","","26","","32","","24.1","","98.05","","","","","","Cloudy"
"2017-01-27 02:00","2017","01","27","02:00","0.1","","-3.3","","78","","26","","31","","24.1","","98.06","","","","","","NA"
"2017-01-27 03:00","2017","01","27","03:00","0.1","","-3.3","","78","","25","","31","","24.1","","98.08","","","","","","NA"
"2017-01-27 04:00","2017","01","27","04:00","0.0","","-4.5","","72","","27","","36","","22.5","","98.12","","","","-7","","Cloudy"
"2017-01-27 05:00","2017","01","27","05:00","-0.3","","-4.2","","75","","26","","26","","24.1","","98.15","","","","-6","","Snow"
"2017-01-27 06:00","2017","01","27","06:00","-0.8","","-5.1","","73","","26","","21","","24.1","","98.19","","","","-6","","NA"
"2017-01-27 07:00","2017","01","27","07:00","-1.0","","-5.8","","70","","26","","32","","24.1","","98.19","","","","-8","","Cloudy"
"2017-01-27 08:00","2017","01","27","08:00","-1.0","","-6.0","","69","","26","","26","","24.1","","98.24","","","","-7","","NA"
"2017-01-27 09:00","2017","01","27","09:00","-1.4","","-6.4","","69","","25","","34","","24.1","","98.29","","","","-9","","NA"
"2017-01-27 10:00","2017","01","27","10:00","-1.3","","-6.3","","69","","25","","30","","24.1","","98.28","","","","-8","","Cloudy"
"2017-01-27 11:00","2017","01","27","11:00","-0.9","","-6.3","","67","","25","","39","","24.1","","98.25","","","","-9","","NA"
"2017-01-27 12:00","2017","01","27","12:00","-0.9","","-6.3","","67","","25","","29","","24.1","","98.17","","","","-8","","NA"
"2017-01-27 13:00","2017","01","27","13:00","-0.8","","-4.9","","74","","27","","39","","24.1","","98.12","","","","-8","","Snow"
"2017-01-27 14:00","2017","01","27","14:00","-1.3","","-2.9","","89","","26","","25","","4.0","","98.09","","","","-8","","Snow"
"2017-01-27 15:00","2017","01","27","15:00","-1.2","","-2.6","","90","","26","","28","","3.2","","98.10","","","","-8","","Snow"
"2017-01-27 16:00","2017","01","27","16:00","-1.3","","-2.3","","93","","26","","22","","2.4","","98.15","","","","-7","","Snow"
"2017-01-27 17:00","2017","01","27","17:00","-1.4","","-2.5","","92","","27","","27","","2.4","","98.19","","","","-8","","Snow"
"2017-01-27 18:00","2017","01","27","18:00","-1.7","","-3.3","","89","","26","","28","","16.1","","98.22","","","","-8","","Snow"
"2017-01-27 19:00","2017","01","27","19:00","-1.9","","-3.0","","92","","27","","22","","6.4","","98.27","","","","-8","","Snow"
"2017-01-27 20:00","2017","01","27","20:00","-1.8","","-3.8","","86","","27","","27","","16.1","","98.32","","","","-8","","Snow"
"2017-01-27 21:00","2017","01","27","21:00","-1.8","","-5.0","","79","","28","","32","","16.1","","98.35","","","","-9","","Snow"
"2017-01-27 22:00","2017","01","27","22:00","-1.9","","-5.8","","75","","27","","27","","24.1","","98.36","","","","-9","","Mostly Cloudy"
"2017-01-27 23:00","2017","01","27","23:00","-2.5","","-6.2","","76","","27","","19","","24.1","","98.38","","","","-8","","NA"
"2017-01-28 00:00","2017","01","28","00:00","-2.3","","-6.0","","76","","27","","23","","24.1","","98.37","","","","-9","","NA"
"2017-01-28 01:00","2017","01","28","01:00","-2.4","","-6.1","","76","","26","","20","","24.1","","98.37","","","","-8","","Mostly Cloudy"
"2017-01-28 02:00","2017","01","28","02:00","-2.2","","-6.4","","73","","26","","23","","24.1","","98.40","","","","-8","","NA"
"2017-01-28 03:00","2017","01","28","03:00","-2.9","","-6.4","","77","","28","","23","","24.1","","98.46","","","","-9","","NA"
"2017-01-28 04:00","2017","01","28","04:00","-3.9","","-6.9","","80","","24","","17","","24.1","","98.48","","","","-10","","Mostly Cloudy"
"2017-01-28 05:00","2017","01","28","05:00","-4.6","","-7.4","","81","","24","","15","","24.1","","98.47","","","","-10","","NA"
"2017-01-28 06:00","2017","01","28","06:00","-5.7","","-8.0","","84","","23","","12","","24.1","","98.49","","","","-11","","NA"
"2017-01-28 07:00","2017","01","28","07:00","-5.7","","-7.7","","86","","24","","8","","24.1","","98.50","","","","-9","","Mostly Cloudy"
"2017-01-28 08:00","2017","01","28","08:00","-4.7","","-7.0","","84","","23","","7","","19.3","","98.51","","","","-8","","NA"
"2017-01-28 09:00","2017","01","28","09:00","-3.4","","-5.7","","84","","23","","12","","19.3","","98.52","","","","-8","","Snow"
"2017-01-28 10:00","2017","01","28","10:00","-2.2","","-4.1","","87","","23","","12","","16.1","","98.54","","","","-6","","Snow"
"2017-01-28 11:00","2017","01","28","11:00","-1.4","","-2.8","","90","","23","","14","","3.2","","98.55","","","","-6","","Snow"
"2017-01-28 12:00","2017","01","28","12:00","-1.1","","-2.2","","92","","23","","16","","4.8","","98.49","","","","-6","","Snow"
"2017-01-28 13:00","2017","01","28","13:00","-0.7","","-2.8","","86","","22","","14","","6.4","","98.44","","","","-5","","Snow"
"2017-01-28 14:00","2017","01","28","14:00","-0.3","","-3.2","","81","","23","","23","","12.9","","98.42","","","","-6","","Snow"
"2017-01-28 15:00","2017","01","28","15:00","0.2","","-3.5","","76","","23","","18","","12.9","","98.44","","","","","","Snow"
"2017-01-28 16:00","2017","01","28","16:00","-0.1","","-3.8","","76","","23","","16","","16.1","","98.45","","","","-5","","Cloudy"
"2017-01-28 17:00","2017","01","28","17:00","-0.3","","-4.0","","76","","22","","15","","19.3","","98.48","","","","-5","","NA"
"2017-01-28 18:00","2017","01","28","18:00","-0.6","","-3.6","","80","","20","","15","","19.3","","98.51","","","","-5","","NA"
"2017-01-28 19:00","2017","01","28","19:00","-0.7","","-3.6","","81","","20","","14","","24.1","","98.52","","","","-5","","Cloudy"
"2017-01-28 20:00","2017","01","28","20:00","-0.9","","-3.8","","81","","21","","15","","24.1","","98.50","","","","-6","","NA"
"2017-01-28 21:00","2017","01","28","21:00","-1.4","","-4.4","","80","","21","","18","","24.1","","98.48","","","","-7","","NA"
"2017-01-28 22:00","2017","01","28","22:00","-1.5","","-4.3","","81","","21","","18","","24.1","","98.50","","","","-7","","Snow"
"2017-01-28 23:00","2017","01","28","23:00","-1.6","","-3.6","","86","","21","","21","","4.8","","98.49","","","","-7","","Snow"
"2017-01-29 00:00","2017","01","29","00:00","-1.7","","-3.4","","88","","22","","17","","4.8","","98.48","","","","-7","","Snow"
"2017-01-29 01:00","2017","01","29","01:00","-1.9","","-3.2","","91","","22","","14","","6.4","","98.45","","","","-7","","Snow"
"2017-01-29 02:00","2017","01","29","02:00","-2.3","","-2.9","","96","","21","","11","","4.8","","98.43","","","","-6","","Snow"
"2017-01-29 03:00","2017","01","29","03:00","-2.2","","-2.8","","96","","25","","13","","4.8","","98.45","","","","-7","","Snow"
"2017-01-29 04:00","2017","01","29","04:00","-3.0","","-4.3","","91","","28","","18","","12.9","","98.49","","","","-9","","Snow"
"2017-01-29 05:00","2017","01","29","05:00","-4.1","","-6.0","","87","","27","","15","","16.1","","98.55","","","","-9","","NA"
"2017-01-29 06:00","2017","01","29","06:00","-5.9","","-7.1","","91","","25","","11","","24.1","","98.60","","","","-11","","NA"
"2017-01-29 07:00","2017","01","29","07:00","-6.8","","-7.8","","93","","28","","10","","24.1","","98.65","","","","-11","","Mostly Cloudy"
"2017-01-29 08:00","2017","01","29","08:00","-5.7","","-7.4","","88","","27","","9","","24.1","","98.71","","","","-10","","NA"
"2017-01-29 09:00","2017","01","29","09:00","-5.6","","-7.1","","89","","27","","6","","24.1","","98.76","","","","-8","","NA"
"2017-01-29 10:00","2017","01","29","10:00","-4.7","","-6.2","","89","","30","","8","","2.4","","98.80","","","","-8","","Snow"
"2017-01-29 11:00","2017","01","29","11:00","-4.5","","-6.0","","89","","27","","4","","1.6","","98.84","","","","-6","","Snow"
"2017-01-29 12:00","2017","01","29","12:00","-3.9","","-6.2","","84","","4","","3","","4.0","","98.83","","","","-5","","Snow"
"2017-01-29 13:00","2017","01","29","13:00","-4.2","","-5.8","","89","","31","","5","","1.2","","98.82","","","","-6","","Snow"
"2017-01-29 14:00","2017","01","29","14:00","-3.9","","-6.1","","85","","31","","5","","4.8","","98.84","","","","-6","","Snow"
"2017-01-29 15:00","2017","01","29","15:00","-3.8","","-6.4","","82","","31","","7","","12.9","","98.87","","","","-7","","Snow"
"2017-01-29 16:00","2017","01","29","16:00","-3.9","","-6.2","","84","","29","","14","","4.8","","98.94","","","","-9","","Snow"
"2017-01-29 17:00","2017","01","29","17:00","-5.7","","-8.1","","83","","29","","27","","16.1","","99.04","","","","-14","","Snow"
"2017-01-29 18:00","2017","01","29","18:00","-6.2","","-9.1","","80","","28","","19","","24.1","","99.12","","","","-13","","NA"
"2017-01-29 19:00","2017","01","29","19:00","-6.9","","-10.1","","78","","28","","23","","24.1","","99.19","","","","-14","","Cloudy"
"2017-01-29 20:00","2017","01","29","20:00","-7.8","","-10.4","","82","","28","","15","","24.1","","99.23","","","","-14","","NA"
"2017-01-29 21:00","2017","01","29","21:00","-7.9","","-10.6","","81","","29","","16","","16.1","","99.26","","","","-14","","Snow"
"2017-01-29 22:00","2017","01","29","22:00","-8.7","","-10.9","","84","","29","","17","","12.9","","99.28","","","","-16","","Snow"
"2017-01-29 23:00","2017","01","29","23:00","-8.9","","-11.9","","79","","29","","15","","12.9","","99.32","","","","-15","","Snow"
"2017-01-30 00:00","2017","01","30","00:00","-9.4","","-12.7","","77","","31","","16","","16.1","","99.34","","","","-16","","Snow"
"2017-01-30 01:00","2017","01","30","01:00","-11.3","","-14.4","","78","","29","","17","","24.1","","99.36","","","","-19","","Snow"
"2017-01-30 02:00","2017","01","30","02:00","-12.8","","-15.9","","78","","29","","17","","24.1","","99.38","","","","-21","","Snow"
"2017-01-30 03:00","2017","01","30","03:00","-14.1","","-16.8","","80","","29","","14","","24.1","","99.41","","","","-22","","NA"
"2017-01-30 04:00","2017","01","30","04:00","-15.1","","-17.7","","81","","29","","15","","24.1","","99.43","","","","-23","","Clear"
"2017-01-30 05:00","2017","01","30","05:00","-15.5","","-17.8","","83","","29","","18","","24.1","","99.45","","","","-24","","NA"
"2017-01-30 06:00","2017","01","30","06:00","-16.2","","-18.3","","84","","28","","13","","24.1","","99.48","","","","-24","","NA"
"2017-01-30 07:00","2017","01","30","07:00","-16.8","","-18.8","","85","","29","","8","","24.1","","99.53","","","","-22","","Mainly Clear"
"2017-01-30 08:00","2017","01","30","08:00","-16.9","","-18.9","","85","","28","","13","","24.1","","99.59","","","","-25","","NA"
"2017-01-30 09:00","2017","01","30","09:00","-15.7","","-18.7","","78","","30","","15","","24.1","","99.64","","","","-24","","NA"
"2017-01-30 10:00","2017","01","30","10:00","-14.6","","-18.3","","74","","30","","16","","24.1","","99.69","","","","-23","","Clear"
"2017-01-30 11:00","2017","01","30","11:00","-13.2","","-17.8","","69","","31","","14","","24.1","","99.70","","","","-20","","NA"
"2017-01-30 12:00","2017","01","30","12:00","-12.1","","-17.1","","67","","25","","14","","24.1","","99.67","","","","-19","","NA"
"2017-01-30 13:00","2017","01","30","13:00","-12.1","","-17.1","","67","","25","","18","","24.1","","99.67","","","","-20","","Mostly Cloudy"
"2017-01-30 14:00","2017","01","30","14:00","-11.6","","-17.9","","60","","27","","20","","24.1","","99.68","","","","-20","","NA"
"2017-01-30 15:00","2017","01","30","15:00","-11.5","","-17.4","","62","","24","","20","","24.1","","99.72","","","","-20","","NA"
"2017-01-30 16:00","2017","01","30","16:00","-11.3","","-18.2","","57","","28","","19","","24.1","","99.78","","","","-19","","Mainly Clear"
"2017-01-30 17:00","2017","01","30","17:00","-12.5","","-18.4","","62","","26","","15","","24.1","","99.83","","","","-20","","NA"
"2017-01-30 18:00","2017","01","30","18:00","-14.0","","-19.1","","66","","26","","10","","24.1","","99.89","","","","-20","","NA"
"2017-01-30 19:00","2017","01","30","19:00","-14.3","","-18.5","","71","","26","","7","","24.1","","99.93","","","","-19","","Mainly Clear"
"2017-01-30 20:00","2017","01","30","20:00","-15.6","","-19.6","","72","","25","","9","","24.1","","99.93","","","","-22","","NA"
"2017-01-30 21:00","2017","01","30","21:00","-15.6","","-18.5","","79","","21","","8","","24.1","","99.93","","","","-21","","NA"
"2017-01-30 22:00","2017","01","30","22:00","-17.7","","-19.6","","85","","21","","7","","24.1","","99.94","","","","-23","","Clear"
"2017-01-30 23:00","2017","01","30","23:00","-16.7","","-18.5","","86","","22","","8","","24.1","","99.95","","","","-22","","NA"
"2017-01-31 00:00","2017","01","31","00:00","-17.8","","-19.6","","86","","19","","4","","24.1","","99.95","","","","-21","","NA"
"2017-01-31 01:00","2017","01","31","01:00","-17.6","","-19.1","","88","","24","","4","","24.1","","99.94","","","","-21","","Clear"
"2017-01-31 02:00","2017","01","31","02:00","-17.9","","-19.8","","85","","36","","2","","24.1","","99.95","","","","-19","","NA"
"2017-01-31 03:00","2017","01","31","03:00","-21.0","","-23.6","","80","","6","","4","","24.1","","99.90","","","","-25","","NA"
"2017-01-31 04:00","2017","01","31","04:00","-19.8","","-22.1","","82","","11","","4","","24.1","","99.85","","","","-23","","Clear"
"2017-01-31 05:00","2017","01","31","05:00","-19.3","","-21.5","","83","","36","","3","","16.1","","99.83","","","","-22","","NA"
"2017-01-31 06:00","2017","01","31","06:00","-18.4","","-20.6","","83","","6","","7","","8.1","","99.80","","","","-24","","Fog"
"2017-01-31 07:00","2017","01","31","07:00","-20.2","","-22.2","","84","","10","","7","","12.9","","99.81","","","","-26","","Mainly Clear"
"2017-01-31 08:00","2017","01","31","08:00","-20.6","","-22.5","","85","","6","","9","","12.9","","99.82","","","","-27","","NA"
"2017-01-31 09:00","2017","01","31","09:00","-18.4","","-20.5","","84","","7","","6","","24.1","","99.84","","","","-23","","NA"
"2017-01-31 10:00","2017","01","31","10:00","-15.6","","-17.6","","85","","7","","8","","24.1","","99.83","","","","-21","","Clear"
"2017-01-31 11:00","2017","01","31","11:00","-13.3","","-15.5","","84","","6","","9","","24.1","","99.80","","","","-19","","NA"
"2017-01-31 12:00","2017","01","31","12:00","-11.6","","-15.7","","72","","7","","14","","24.1","","99.73","","","","-18","","NA"
"2017-01-31 13:00","2017","01","31","13:00","-9.5","","-15.7","","61","","7","","12","","24.1","","99.64","","","","-15","","Mainly Clear"
"2017-01-31 14:00","2017","01","31","14:00","-9.2","","-15.6","","60","","3","","16","","24.1","","99.56","","","","-16","","NA"
"2017-01-31 15:00","2017","01","31","15:00","-9.2","","-15.2","","62","","5","","17","","24.1","","99.52","","","","-16","","NA"
"2017-01-31 16:00","2017","01","31","16:00","-9.2","","-15.6","","60","","6","","19","","24.1","","99.55","","","","-17","","Mostly Cloudy"
"2017-01-31 17:00","2017","01","31","17:00","-10.2","","-15.8","","64","","5","","16","","24.1","","99.59","","","","-17","","NA"
"2017-01-31 18:00","2017","01","31","18:00","-10.2","","-16.0","","63","","6","","17","","24.1","","99.61","","","","-17","","NA"
"2017-01-31 19:00","2017","01","31","19:00","-10.3","","-15.7","","65","","6","","11","","24.1","","99.65","","","","-16","","Cloudy"
"2017-01-31 20:00","2017","01","31","20:00","-10.7","","-15.7","","67","","6","","13","","24.1","","99.60","","","","-17","","NA"
"2017-01-31 21:00","2017","01","31","21:00","-11.1","","-15.2","","72","","5","","15","","24.1","","99.58","","","","-18","","NA"
"2017-01-31 22:00","2017","01","31","22:00","-11.3","","-15.4","","72","","6","","14","","24.1","","99.57","","","","-18","","Mostly Cloudy"
"2017-01-31 23:00","2017","01","31","23:00","-11.6","","-15.4","","74","","6","","17","","24.1","","99.51","","","","-19","","NA"
