"Station Name","OTTAWA MACDONALD-CARTIER INT'L A"
"Province","ONTARIO"
"Latitude","45.32"
"Longitude","-75.67"
"Elevation","114.00"
"Climate Identifier","6106000"
"WMO Identifier","71628"
"TC Identifier","YOW"
"All times are specified in Local Standard Time (LST). Add 1 hour to adjust for Daylight Saving Time where and when it is observed."

"Legend"
"E","Estimated"
"M","Missing"
"NA","Not Available"

"Date/Time","Year","Month","Day","Time","Temp (°C)","Temp Flag","Dew Point Temp (°C)","Dew Point Temp Flag","Rel Hum (%)","Rel Hum Flag","Wind Dir (10s deg)","Wind Dir Flag","Wind Spd (km/h)","Wind Spd Flag","Visibility (km)","Visibility Flag","Stn Press (kPa)","Stn Press Flag","Hmdx","Hmdx Flag","Wind Chill","Wind Chill Flag","Weather"
"1998-09-01 00:00","1998","09","01","00:00","15.6","","10.8","","73","","32","","6","","25.0","","100.09","","","","","","Clear"
"1998-09-01 01:00","1998","09","01","01:00","15.1","","10.6","","74","","33","","4","","25.0","","100.06","","","","","","Clear"
"1998-09-01 02:00","1998","09","01","02:00","14.7","","10.6","","76","","33","","4","","25.0","","100.06","","","","","","Clear"
"1998-09-01 03:00","1998","09","01","03:00","12.4","","9.3","","81","","25","","4","","25.0","","100.03","","","","","","Mainly Clear"
"1998-09-01 04:00","1998","09","01","04:00","12.2","","10.1","","87","","28","","4","","25.0","","100.06","","","","","","Mainly Clear"
"1998-09-01 05:00","1998","09","01","05:00","12.7","","10.3","","85","","","","0","","32.2","","100.06","","","","","","Mostly Cloudy"
"1998-09-01 06:00","1998","09","01","06:00","13.2","","10.8","","85","","","","0","","32.2","","100.09","","","","","","Mostly Cloudy"
"1998-09-01 07:00","1998","09","01","07:00","14.4","","11.8","","84","","","","0","","32.2","","100.09","","","","","","Mostly Cloudy"
"1998-09-01 08:00","1998","09","01","08:00","16.5","","12.9","","79","","","","0","","32.2","","100.09","","","","","","Mainly Clear"
"1998-09-01 09:00","1998","09","01","09:00","17.6","","11.8","","69","","24","","4","","32.2","","100.09","","","","","","Mainly Clear"
"1998-09-01 10:00","1998","09","01","10:00","19.1","","12.0","","63","","21","","6","","32.2","","100.09","","","","","","Mainly Clear"
"1998-09-01 11:00","1998","09","01","11:00","20.4","","11.8","","58","","23","","6","","32.2","","100.03","","","","","","Mainly Clear"
"1998-09-01 12:00","1998","09","01","12:00","21.7","","12.4","","55","","","","0","","32.2","","99.96","","","","","","Mainly Clear"
"1998-09-01 13:00","1998","09","01","13:00","22.1","","12.0","","53","","20","","7","","40.2","","99.96","","","","","","Mainly Clear"
"1998-09-01 14:00","1998","09","01","14:00","22.5","","11.3","","49","","24","","4","","40.2","","99.93","","","","","","Mainly Clear"
"1998-09-01 15:00","1998","09","01","15:00","23.0","","10.9","","46","","20","","4","","40.2","","99.86","","25","","","","Mostly Cloudy"
"1998-09-01 16:00","1998","09","01","16:00","22.8","","10.0","","44","","18","","7","","40.2","","99.79","","","","","","Mostly Cloudy"
"1998-09-01 17:00","1998","09","01","17:00","22.8","","10.7","","46","","19","","6","","40.2","","99.72","","","","","","Mostly Cloudy"
"1998-09-01 18:00","1998","09","01","18:00","21.2","","11.7","","55","","17","","4","","40.2","","99.69","","","","","","Mostly Cloudy"
"1998-09-01 19:00","1998","09","01","19:00","19.7","","12.0","","61","","16","","4","","32.2","","99.69","","","","","","Mostly Cloudy"
"1998-09-01 20:00","1998","09","01","20:00","18.6","","12.0","","65","","16","","4","","24.1","","99.72","","","","","","Mostly Cloudy"
"1998-09-01 21:00","1998","09","01","21:00","17.5","","11.9","","70","","15","","6","","24.1","","99.66","","","","","","Mostly Cloudy"
"1998-09-01 22:00","1998","09","01","22:00","17.3","","11.9","","71","","15","","6","","24.1","","99.62","","","","","","Mostly Cloudy"
"1998-09-01 23:00","1998","09","01","23:00","16.9","","11.6","","71","","17","","6","","24.1","","99.59","","","","","","Mostly Cloudy"
"1998-09-02 00:00","1998","09","02","00:00","15.6","","11.3","","76","","15","","4","","24.1","","99.56","","","","","","Mainly Clear"
"1998-09-02 01:00","1998","09","02","01:00","15.1","","11.4","","79","","14","","6","","24.1","","99.49","","","","","","Mostly Cloudy"
"1998-09-02 02:00","1998","09","02","02:00","15.2","","12.2","","82","","14","","4","","24.1","","99.42","","","","","","Mostly Cloudy"
"1998-09-02 03:00","1998","09","02","03:00","15.1","","12.3","","83","","","","0","","24.1","","99.36","","","","","","Mostly Cloudy"
"1998-09-02 04:00","1998","09","02","04:00","14.4","","11.8","","84","","11","","6","","24.1","","99.32","","","","","","Mostly Cloudy"
"1998-09-02 05:00","1998","09","02","05:00","13.6","","11.5","","87","","9","","4","","24.1","","99.29","","","","","","Mostly Cloudy"
"1998-09-02 06:00","1998","09","02","06:00","13.1","","11.3","","89","","7","","6","","32.2","","99.29","","","","","","Mostly Cloudy"
"1998-09-02 07:00","1998","09","02","07:00","13.6","","12.1","","91","","8","","4","","32.2","","99.22","","","","","","Cloudy"
"1998-09-02 08:00","1998","09","02","08:00","15.5","","13.6","","88","","7","","7","","32.2","","99.12","","","","","","Mostly Cloudy"
"1998-09-02 09:00","1998","09","02","09:00","17.8","","15.0","","84","","11","","9","","32.2","","99.09","","","","","","Cloudy"
"1998-09-02 10:00","1998","09","02","10:00","18.8","","14.1","","74","","14","","9","","32.2","","99.02","","","","","","Cloudy"
"1998-09-02 11:00","1998","09","02","11:00","19.2","","14.8","","76","","13","","6","","32.2","","98.92","","","","","","Cloudy"
"1998-09-02 12:00","1998","09","02","12:00","20.4","","15.9","","75","","16","","7","","24.1","","98.85","","25","","","","Cloudy"
"1998-09-02 13:00","1998","09","02","13:00","15.8","","12.8","","82","","22","","17","","4.8","","98.92","","","","","","Thunderstorms,Heavy Rain Showers"
"1998-09-02 14:00","1998","09","02","14:00","15.2","","13.9","","92","","19","","9","","19.3","","98.82","","","","","","Rain Showers"
"1998-09-02 15:00","1998","09","02","15:00","16.9","","15.6","","92","","22","","9","","19.3","","98.82","","","","","","Mostly Cloudy"
"1998-09-02 16:00","1998","09","02","16:00","19.3","","15.3","","78","","24","","11","","32.2","","98.82","","","","","","Mostly Cloudy"
"1998-09-02 17:00","1998","09","02","17:00","18.8","","14.2","","75","","26","","7","","32.2","","98.89","","","","","","Mostly Cloudy"
"1998-09-02 18:00","1998","09","02","18:00","18.5","","14.3","","77","","27","","7","","32.2","","98.89","","","","","","Mostly Cloudy"
"1998-09-02 19:00","1998","09","02","19:00","16.8","","12.6","","76","","25","","4","","32.2","","98.99","","","","","","Mainly Clear"
"1998-09-02 20:00","1998","09","02","20:00","16.0","","12.7","","81","","","","0","","24.1","","99.09","","","","","","Mainly Clear"
"1998-09-02 21:00","1998","09","02","21:00","15.4","","12.4","","82","","20","","4","","24.1","","99.12","","","","","","Mostly Cloudy"
"1998-09-02 22:00","1998","09","02","22:00","14.5","","12.4","","87","","","","0","","24.1","","99.19","","","","","","Thunderstorms"
"1998-09-02 23:00","1998","09","02","23:00","14.0","","12.0","","88","","24","","4","","24.1","","99.19","","","","","","Clear"
"1998-09-03 00:00","1998","09","03","00:00","13.6","","11.6","","88","","22","","6","","24.1","","99.19","","","","","","Clear"
"1998-09-03 01:00","1998","09","03","01:00","13.2","","11.5","","89","","22","","6","","19.3","","99.22","","","","","","Clear"
"1998-09-03 02:00","1998","09","03","02:00","12.8","","11.0","","89","","23","","6","","19.3","","99.19","","","","","","Clear"
"1998-09-03 03:00","1998","09","03","03:00","11.9","","10.3","","90","","23","","6","","24.1","","99.22","","","","","","Clear"
"1998-09-03 04:00","1998","09","03","04:00","11.7","","10.4","","92","","23","","4","","24.1","","99.29","","","","","","Clear"
"1998-09-03 05:00","1998","09","03","05:00","11.8","","10.6","","92","","21","","6","","19.3","","99.29","","","","","","Mainly Clear"
"1998-09-03 06:00","1998","09","03","06:00","12.2","","11.1","","93","","24","","7","","16.1","","99.39","","","","","","Mostly Cloudy"
"1998-09-03 07:00","1998","09","03","07:00","13.1","","12.3","","95","","21","","6","","12.9","","99.46","","","","","","Mostly Cloudy"
"1998-09-03 08:00","1998","09","03","08:00","14.4","","13.1","","92","","17","","7","","16.1","","99.49","","","","","","Mostly Cloudy"
"1998-09-03 09:00","1998","09","03","09:00","16.1","","13.9","","87","","18","","7","","16.1","","99.52","","","","","","Mostly Cloudy"
"1998-09-03 10:00","1998","09","03","10:00","18.6","","14.6","","78","","22","","6","","19.3","","99.49","","","","","","Mostly Cloudy"
"1998-09-03 11:00","1998","09","03","11:00","19.2","","14.0","","72","","18","","13","","24.1","","99.49","","","","","","Mostly Cloudy"
"1998-09-03 12:00","1998","09","03","12:00","18.7","","13.4","","71","","21","","9","","24.1","","99.46","","","","","","Rain Showers"
"1998-09-03 13:00","1998","09","03","13:00","19.4","","13.9","","70","","17","","11","","24.1","","99.39","","","","","","Rain Showers"
"1998-09-03 14:00","1998","09","03","14:00","19.1","","14.4","","74","","17","","13","","19.3","","99.36","","","","","","Rain Showers"
"1998-09-03 15:00","1998","09","03","15:00","18.8","","14.8","","78","","20","","7","","24.1","","99.36","","","","","","Rain Showers"
"1998-09-03 16:00","1998","09","03","16:00","19.5","","14.6","","73","","20","","7","","19.3","","99.39","","","","","","Mostly Cloudy"
"1998-09-03 17:00","1998","09","03","17:00","18.3","","14.0","","76","","18","","7","","19.3","","99.39","","","","","","Mostly Cloudy"
"1998-09-03 18:00","1998","09","03","18:00","17.7","","13.4","","76","","","","0","","24.1","","99.39","","","","","","Mostly Cloudy"
"1998-09-03 19:00","1998","09","03","19:00","15.8","","12.8","","82","","15","","6","","24.1","","99.46","","","","","","Mostly Cloudy"
"1998-09-03 20:00","1998","09","03","20:00","14.9","","13.1","","89","","17","","4","","24.1","","99.49","","","","","","Mostly Cloudy"
"1998-09-03 21:00","1998","09","03","21:00","15.2","","13.7","","91","","","","0","","16.1","","99.56","","","","","","Moderate Rain Showers"
"1998-09-03 22:00","1998","09","03","22:00","14.8","","12.6","","87","","17","","6","","24.1","","99.56","","","","","","Mostly Cloudy"
"1998-09-03 23:00","1998","09","03","23:00","14.4","","12.4","","88","","24","","4","","24.1","","99.59","","","","","","Mostly Cloudy"
"1998-09-04 00:00","1998","09","04","00:00","12.9","","11.2","","89","","22","","4","","24.1","","99.59","","","","","","Mainly Clear"
"1998-09-04 01:00","1998","09","04","01:00","11.7","","10.6","","93","","22","","4","","24.1","","99.59","","","","","","Clear"
"1998-09-04 02:00","1998","09","04","02:00","11.8","","10.7","","93","","","","0","","24.1","","99.62","","","","","","Clear"
"1998-09-04 03:00","1998","09","04","03:00","10.9","","9.8","","93","","23","","7","","24.1","","99.66","","","","","","Clear"
"1998-09-04 04:00","1998","09","04","04:00","9.9","","9.5","","97","","22","","6","","19.3","","99.69","","","","","","Clear"
"1998-09-04 05:00","1998","09","04","05:00","9.7","","9.4","","98","","20","","6","","16.1","","99.72","","","","","","Clear"
"1998-09-04 06:00","1998","09","04","06:00","9.3","","8.9","","97","","21","","6","","6.4","","99.79","","","","","","Fog"
"1998-09-04 07:00","1998","09","04","07:00","11.3","","10.6","","95","","27","","6","","16.1","","99.82","","","","","","Mainly Clear"
"1998-09-04 08:00","1998","09","04","08:00","13.4","","12.8","","96","","30","","9","","24.1","","99.82","","","","","","Mainly Clear"
"1998-09-04 09:00","1998","09","04","09:00","15.1","","13.3","","89","","28","","7","","24.1","","99.86","","","","","","Mainly Clear"
"1998-09-04 10:00","1998","09","04","10:00","17.0","","13.0","","77","","29","","9","","32.2","","99.86","","","","","","Mainly Clear"
"1998-09-04 11:00","1998","09","04","11:00","18.1","","9.8","","58","","28","","9","","32.2","","99.86","","","","","","Mainly Clear"
"1998-09-04 12:00","1998","09","04","12:00","18.8","","9.7","","55","","29","","6","","32.2","","99.82","","","","","","Mainly Clear"
"1998-09-04 13:00","1998","09","04","13:00","19.7","","8.8","","49","","28","","9","","32.2","","99.79","","","","","","Mainly Clear"
"1998-09-04 14:00","1998","09","04","14:00","20.5","","9.9","","51","","26","","15","","32.2","","99.76","","","","","","Mainly Clear"
"1998-09-04 15:00","1998","09","04","15:00","20.3","","9.2","","49","","30","","13","","32.2","","99.72","","","","","","Mainly Clear"
"1998-09-04 16:00","1998","09","04","16:00","20.4","","9.9","","51","","30","","15","","32.2","","99.72","","","","","","Mostly Cloudy"
"1998-09-04 17:00","1998","09","04","17:00","20.2","","10.1","","52","","29","","15","","32.2","","99.76","","","","","","Mainly Clear"
"1998-09-04 18:00","1998","09","04","18:00","19.3","","10.1","","55","","29","","7","","32.2","","99.82","","","","","","Mostly Cloudy"
"1998-09-04 19:00","1998","09","04","19:00","16.6","","10.9","","69","","31","","11","","32.2","","99.86","","","","","","Rain Showers"
"1998-09-04 20:00","1998","09","04","20:00","16.6","","11.7","","73","","30","","7","","24.1","","99.93","","","","","","Mainly Clear"
"1998-09-04 21:00","1998","09","04","21:00","16.0","","11.1","","73","","27","","4","","24.1","","99.96","","","","","","Mainly Clear"
"1998-09-04 22:00","1998","09","04","22:00","15.1","","11.6","","80","","29","","6","","24.1","","99.96","","","","","","Mainly Clear"
"1998-09-04 23:00","1998","09","04","23:00","14.3","","10.8","","79","","27","","7","","24.1","","99.99","","","","","","Mainly Clear"
"1998-09-05 00:00","1998","09","05","00:00","13.4","","10.5","","83","","25","","6","","24.1","","100.03","","","","","","Clear"
"1998-09-05 01:00","1998","09","05","01:00","12.5","","9.8","","84","","25","","7","","24.1","","100.03","","","","","","Clear"
"1998-09-05 02:00","1998","09","05","02:00","13.2","","10.8","","85","","28","","7","","24.1","","100.06","","","","","","Clear"
"1998-09-05 03:00","1998","09","05","03:00","12.7","","10.7","","88","","24","","6","","24.1","","100.09","","","","","","Clear"
"1998-09-05 04:00","1998","09","05","04:00","11.4","","9.8","","90","","27","","7","","24.1","","100.13","","","","","","Clear"
"1998-09-05 05:00","1998","09","05","05:00","11.8","","10.4","","91","","26","","9","","24.1","","100.19","","","","","","Clear"
"1998-09-05 06:00","1998","09","05","06:00","11.6","","10.1","","91","","28","","9","","32.2","","100.26","","","","","","Clear"
"1998-09-05 07:00","1998","09","05","07:00","12.4","","10.8","","90","","29","","13","","40.2","","100.36","","","","","","Clear"
"1998-09-05 08:00","1998","09","05","08:00","14.1","","11.4","","84","","29","","13","","40.2","","100.36","","","","","","Clear"
"1998-09-05 09:00","1998","09","05","09:00","16.4","","11.0","","70","","29","","11","","40.2","","100.39","","","","","","Clear"
"1998-09-05 10:00","1998","09","05","10:00","18.2","","11.2","","64","","29","","13","","40.2","","100.39","","","","","","Clear"
"1998-09-05 11:00","1998","09","05","11:00","19.5","","10.7","","57","","30","","15","","40.2","","100.36","","","","","","Mainly Clear"
"1998-09-05 12:00","1998","09","05","12:00","21.3","","10.7","","51","","30","","17","","40.2","","100.33","","","","","","Mainly Clear"
"1998-09-05 13:00","1998","09","05","13:00","21.8","","10.0","","47","","30","","15","","40.2","","100.26","","","","","","Mainly Clear"
"1998-09-05 14:00","1998","09","05","14:00","23.2","","10.7","","45","","30","","9","","40.2","","100.16","","25","","","","Mainly Clear"
"1998-09-05 15:00","1998","09","05","15:00","23.2","","10.2","","44","","27","","9","","40.2","","100.09","","25","","","","Mainly Clear"
"1998-09-05 16:00","1998","09","05","16:00","24.3","","10.2","","41","","26","","15","","40.2","","100.03","","26","","","","Mainly Clear"
"1998-09-05 17:00","1998","09","05","17:00","23.7","","11.6","","47","","21","","11","","40.2","","99.96","","26","","","","Mainly Clear"
"1998-09-05 18:00","1998","09","05","18:00","22.3","","13.2","","56","","22","","7","","40.2","","99.93","","25","","","","Mainly Clear"
"1998-09-05 19:00","1998","09","05","19:00","20.2","","13.2","","64","","22","","11","","40.2","","99.86","","","","","","Mainly Clear"
"1998-09-05 20:00","1998","09","05","20:00","19.0","","13.1","","69","","22","","11","","25.0","","99.89","","","","","","Clear"
"1998-09-05 21:00","1998","09","05","21:00","18.0","","12.0","","68","","21","","9","","25.0","","99.82","","","","","","Clear"
"1998-09-05 22:00","1998","09","05","22:00","17.5","","11.9","","70","","21","","11","","25.0","","99.72","","","","","","Clear"
"1998-09-05 23:00","1998","09","05","23:00","17.1","","12.7","","75","","22","","9","","25.0","","99.69","","","","","","Clear"
"1998-09-06 00:00","1998","09","06","00:00","16.6","","13.6","","82","","22","","7","","25.0","","99.66","","","","","","Clear"
"1998-09-06 01:00","1998","09","06","01:00","16.7","","14.3","","86","","22","","6","","25.0","","99.59","","","","","","Clear"
"1998-09-06 02:00","1998","09","06","02:00","17.2","","15.0","","87","","22","","11","","25.0","","99.52","","","","","","Clear"
"1998-09-06 03:00","1998","09","06","03:00","18.2","","15.2","","83","","22","","11","","25.0","","99.52","","","","","","Clear"
"1998-09-06 04:00","1998","09","06","04:00","18.3","","14.8","","80","","22","","15","","25.0","","99.46","","","","","","Clear"
"1998-09-06 05:00","1998","09","06","05:00","18.2","","14.6","","80","","22","","11","","25.0","","99.46","","","","","","Clear"
"1998-09-06 06:00","1998","09","06","06:00","17.4","","14.4","","83","","23","","9","","24.1","","99.49","","","","","","Clear"
"1998-09-06 07:00","1998","09","06","07:00","18.1","","14.9","","82","","23","","9","","32.2","","99.52","","","","","","Clear"
"1998-09-06 08:00","1998","09","06","08:00","19.8","","15.8","","78","","4","","13","","32.2","","99.49","","","","","","Clear"
"1998-09-06 09:00","1998","09","06","09:00","22.1","","16.4","","70","","24","","13","","40.2","","99.46","","27","","","","Mainly Clear"
"1998-09-06 10:00","1998","09","06","10:00","24.0","","16.5","","63","","28","","15","","40.2","","99.46","","29","","","","Mainly Clear"
"1998-09-06 11:00","1998","09","06","11:00","24.7","","16.6","","61","","27","","13","","40.2","","99.39","","30","","","","Mainly Clear"
"1998-09-06 12:00","1998","09","06","12:00","24.9","","16.8","","61","","28","","13","","40.2","","99.36","","30","","","","Mostly Cloudy"
"1998-09-06 13:00","1998","09","06","13:00","26.0","","17.3","","59","","29","","11","","40.2","","99.29","","31","","","","Mostly Cloudy"
"1998-09-06 14:00","1998","09","06","14:00","26.1","","17.2","","58","","30","","11","","40.2","","99.22","","32","","","","Mostly Cloudy"
"1998-09-06 15:00","1998","09","06","15:00","26.7","","17.4","","57","","30","","11","","40.2","","99.19","","32","","","","Mainly Clear"
"1998-09-06 16:00","1998","09","06","16:00","26.7","","17.2","","56","","29","","13","","40.2","","99.19","","32","","","","Mainly Clear"
"1998-09-06 17:00","1998","09","06","17:00","25.4","","16.2","","57","","30","","7","","32.2","","99.12","","30","","","","Cloudy"
"1998-09-06 18:00","1998","09","06","18:00","24.9","","15.7","","57","","30","","11","","24.1","","99.12","","29","","","","Cloudy"
"1998-09-06 19:00","1998","09","06","19:00","23.7","","15.8","","61","","31","","6","","19.3","","99.09","","28","","","","Cloudy"
"1998-09-06 20:00","1998","09","06","20:00","23.4","","15.9","","63","","24","","4","","24.1","","99.12","","28","","","","Cloudy"
"1998-09-06 21:00","1998","09","06","21:00","22.6","","15.7","","65","","30","","4","","24.1","","99.15","","27","","","","Cloudy"
"1998-09-06 22:00","1998","09","06","22:00","20.5","","12.4","","60","","34","","17","","24.1","","99.15","","","","","","Rain Showers"
"1998-09-06 23:00","1998","09","06","23:00","19.9","","12.3","","62","","33","","13","","24.1","","99.15","","","","","","Cloudy"
"1998-09-07 00:00","1998","09","07","00:00","19.1","","10.7","","58","","36","","9","","25.0","","99.12","","","","","","Cloudy"
"1998-09-07 01:00","1998","09","07","01:00","18.4","","10.6","","60","","35","","4","","25.0","","99.19","","","","","","Cloudy"
"1998-09-07 02:00","1998","09","07","02:00","17.0","","10.4","","65","","33","","6","","25.0","","99.22","","","","","","Cloudy"
"1998-09-07 03:00","1998","09","07","03:00","15.8","","10.5","","71","","33","","11","","25.0","","99.22","","","","","","Mainly Clear"
"1998-09-07 04:00","1998","09","07","04:00","15.2","","10.6","","74","","36","","7","","25.0","","99.19","","","","","","Mostly Cloudy"
"1998-09-07 05:00","1998","09","07","05:00","14.9","","10.4","","74","","","","0","","25.0","","99.19","","","","","","Mostly Cloudy"
"1998-09-07 06:00","1998","09","07","06:00","14.0","","10.7","","80","","33","","6","","32.2","","99.26","","","","","","Mostly Cloudy"
"1998-09-07 07:00","1998","09","07","07:00","14.1","","10.7","","80","","30","","7","","40.2","","99.29","","","","","","Mostly Cloudy"
"1998-09-07 08:00","1998","09","07","08:00","16.5","","12.3","","76","","29","","6","","40.2","","99.22","","","","","","Mainly Clear"
"1998-09-07 09:00","1998","09","07","09:00","18.1","","10.0","","59","","27","","6","","40.2","","99.22","","","","","","Mainly Clear"
"1998-09-07 10:00","1998","09","07","10:00","19.0","","10.5","","58","","26","","6","","40.2","","99.22","","","","","","Mainly Clear"
"1998-09-07 11:00","1998","09","07","11:00","19.7","","10.5","","55","","31","","7","","40.2","","99.19","","","","","","Mostly Cloudy"
"1998-09-07 12:00","1998","09","07","12:00","18.8","","10.0","","57","","30","","15","","40.2","","99.12","","","","","","Mostly Cloudy"
"1998-09-07 13:00","1998","09","07","13:00","18.4","","10.8","","61","","30","","9","","40.2","","99.05","","","","","","Cloudy"
"1998-09-07 14:00","1998","09","07","14:00","18.8","","10.7","","59","","32","","9","","40.2","","98.95","","","","","","Mostly Cloudy"
"1998-09-07 15:00","1998","09","07","15:00","20.5","","11.3","","56","","34","","11","","32.2","","98.89","","","","","","Mainly Clear"
"1998-09-07 16:00","1998","09","07","16:00","18.9","","10.5","","58","","30","","15","","32.2","","98.89","","","","","","Cloudy"
"1998-09-07 17:00","1998","09","07","17:00","15.9","","12.3","","79","","36","","4","","16.1","","98.85","","","","","","Rain Showers"
"1998-09-07 18:00","1998","09","07","18:00","16.2","","13.0","","81","","20","","6","","32.2","","98.85","","","","","","Mostly Cloudy"
"1998-09-07 19:00","1998","09","07","19:00","14.9","","12.9","","88","","19","","4","","32.2","","98.89","","","","","","Mostly Cloudy"
"1998-09-07 20:00","1998","09","07","20:00","14.6","","12.9","","90","","23","","4","","25.0","","98.92","","","","","","Mostly Cloudy"
"1998-09-07 21:00","1998","09","07","21:00","14.7","","13.0","","90","","","","0","","25.0","","98.92","","","","","","Mostly Cloudy"
"1998-09-07 22:00","1998","09","07","22:00","13.6","","11.6","","88","","32","","4","","25.0","","98.89","","","","","","Mainly Clear"
"1998-09-07 23:00","1998","09","07","23:00","13.2","","11.3","","88","","","","0","","25.0","","98.89","","","","","","Mainly Clear"
"1998-09-08 00:00","1998","09","08","00:00","12.4","","10.2","","86","","31","","6","","25.0","","98.89","","","","","","Mainly Clear"
"1998-09-08 01:00","1998","09","08","01:00","11.7","","8.8","","82","","31","","7","","25.0","","98.89","","","","","","Mainly Clear"
"1998-09-08 02:00","1998","09","08","02:00","10.9","","8.5","","85","","30","","7","","25.0","","98.89","","","","","","Mainly Clear"
"1998-09-08 03:00","1998","09","08","03:00","11.5","","8.8","","83","","32","","11","","25.0","","98.89","","","","","","Mostly Cloudy"
"1998-09-08 04:00","1998","09","08","04:00","11.0","","8.5","","85","","31","","7","","25.0","","98.89","","","","","","Mostly Cloudy"
"1998-09-08 05:00","1998","09","08","05:00","10.9","","8.5","","85","","32","","7","","25.0","","98.92","","","","","","Mostly Cloudy"
"1998-09-08 06:00","1998","09","08","06:00","11.4","","9.0","","85","","33","","11","","40.2","","98.99","","","","","","Mostly Cloudy"
"1998-09-08 07:00","1998","09","08","07:00","12.4","","9.8","","84","","35","","9","","40.2","","99.02","","","","","","Mainly Clear"
"1998-09-08 08:00","1998","09","08","08:00","14.3","","9.5","","73","","36","","15","","40.2","","99.05","","","","","","Mainly Clear"
"1998-09-08 09:00","1998","09","08","09:00","14.9","","8.6","","66","","32","","17","","40.2","","99.09","","","","","","Mostly Cloudy"
"1998-09-08 10:00","1998","09","08","10:00","15.3","","8.4","","63","","34","","17","","40.2","","99.12","","","","","","Mostly Cloudy"
"1998-09-08 11:00","1998","09","08","11:00","16.2","","9.2","","63","","34","","13","","40.2","","99.12","","","","","","Mostly Cloudy"
"1998-09-08 12:00","1998","09","08","12:00","17.2","","8.3","","56","","34","","17","","40.2","","99.05","","","","","","Mostly Cloudy"
"1998-09-08 13:00","1998","09","08","13:00","17.8","","7.8","","52","","35","","17","","40.2","","99.05","","","","","","Mostly Cloudy"
"1998-09-08 14:00","1998","09","08","14:00","18.6","","7.8","","49","","36","","19","","40.2","","99.02","","","","","","Mostly Cloudy"
"1998-09-08 15:00","1998","09","08","15:00","17.1","","6.9","","51","","35","","17","","32.2","","99.05","","","","","","Mostly Cloudy"
"1998-09-08 16:00","1998","09","08","16:00","16.6","","7.4","","55","","35","","15","","32.2","","99.09","","","","","","Mostly Cloudy"
"1998-09-08 17:00","1998","09","08","17:00","14.3","","7.5","","64","","34","","15","","24.1","","99.15","","","","","","Rain Showers"
"1998-09-08 18:00","1998","09","08","18:00","12.6","","8.5","","76","","35","","20","","24.1","","99.22","","","","","","Moderate Rain Showers"
"1998-09-08 19:00","1998","09","08","19:00","12.2","","9.0","","81","","34","","11","","24.1","","99.29","","","","","","Mostly Cloudy"
"1998-09-08 20:00","1998","09","08","20:00","12.2","","9.5","","84","","30","","9","","24.1","","99.32","","","","","","Cloudy"
"1998-09-08 21:00","1998","09","08","21:00","12.4","","9.4","","82","","32","","9","","25.0","","99.32","","","","","","Cloudy"
"1998-09-08 22:00","1998","09","08","22:00","12.2","","9.5","","84","","34","","9","","19.3","","99.32","","","","","","Rain Showers"
"1998-09-08 23:00","1998","09","08","23:00","11.9","","10.1","","89","","30","","7","","19.3","","99.32","","","","","","Rain Showers"
"1998-09-09 00:00","1998","09","09","00:00","12.0","","9.9","","87","","30","","7","","25.0","","99.29","","","","","","Rain Showers"
"1998-09-09 01:00","1998","09","09","01:00","12.3","","9.6","","84","","32","","13","","25.0","","99.26","","","","","","Mostly Cloudy"
"1998-09-09 02:00","1998","09","09","02:00","12.2","","8.8","","80","","32","","17","","25.0","","99.26","","","","","","Rain"
"1998-09-09 03:00","1998","09","09","03:00","11.7","","8.6","","81","","32","","19","","25.0","","99.29","","","","","","Cloudy"
"1998-09-09 04:00","1998","09","09","04:00","11.6","","8.8","","83","","31","","13","","25.0","","99.36","","","","","","Mostly Cloudy"
"1998-09-09 05:00","1998","09","09","05:00","11.8","","9.0","","83","","30","","15","","25.0","","99.39","","","","","","Mostly Cloudy"
"1998-09-09 06:00","1998","09","09","06:00","12.1","","9.2","","82","","31","","9","","32.2","","99.42","","","","","","Mostly Cloudy"
"1998-09-09 07:00","1998","09","09","07:00","12.7","","9.6","","81","","32","","19","","40.2","","99.46","","","","","","Mostly Cloudy"
"1998-09-09 08:00","1998","09","09","08:00","13.5","","9.9","","79","","33","","19","","40.2","","99.49","","","","","","Mostly Cloudy"
"1998-09-09 09:00","1998","09","09","09:00","15.0","","10.3","","73","","32","","19","","40.2","","99.49","","","","","","Mostly Cloudy"
"1998-09-09 10:00","1998","09","09","10:00","15.5","","9.3","","67","","29","","19","","40.2","","99.56","","","","","","Mainly Clear"
"1998-09-09 11:00","1998","09","09","11:00","17.0","","8.5","","57","","33","","22","","40.2","","99.56","","","","","","Mostly Cloudy"
"1998-09-09 12:00","1998","09","09","12:00","17.7","","7.6","","52","","36","","26","","40.2","","99.56","","","","","","Mostly Cloudy"
"1998-09-09 13:00","1998","09","09","13:00","17.2","","6.8","","50","","35","","15","","40.2","","99.59","","","","","","Mostly Cloudy"
"1998-09-09 14:00","1998","09","09","14:00","17.6","","6.7","","49","","33","","15","","40.2","","99.52","","","","","","Mostly Cloudy"
"1998-09-09 15:00","1998","09","09","15:00","18.2","","6.5","","46","","34","","13","","40.2","","99.52","","","","","","Mainly Clear"
"1998-09-09 16:00","1998","09","09","16:00","17.3","","6.9","","50","","31","","26","","32.2","","99.56","","","","","","Mainly Clear"
"1998-09-09 17:00","1998","09","09","17:00","16.0","","8.9","","63","","32","","19","","40.2","","99.62","","","","","","Mainly Clear"
"1998-09-09 18:00","1998","09","09","18:00","15.5","","9.1","","66","","31","","19","","40.2","","99.72","","","","","","Mostly Cloudy"
"1998-09-09 19:00","1998","09","09","19:00","14.5","","8.8","","69","","30","","13","","32.2","","99.76","","","","","","Mainly Clear"
"1998-09-09 20:00","1998","09","09","20:00","14.1","","8.7","","70","","30","","15","","25.0","","99.79","","","","","","Mainly Clear"
"1998-09-09 21:00","1998","09","09","21:00","13.6","","8.4","","71","","29","","15","","25.0","","99.86","","","","","","Mainly Clear"
"1998-09-09 22:00","1998","09","09","22:00","13.0","","8.3","","73","","29","","13","","25.0","","99.89","","","","","","Clear"
"1998-09-09 23:00","1998","09","09","23:00","12.7","","8.4","","75","","29","","15","","25.0","","99.93","","","","","","Mainly Clear"
"1998-09-10 00:00","1998","09","10","00:00","11.4","","8.2","","81","","29","","17","","25.0","","99.96","","","","","","Mainly Clear"
"1998-09-10 01:00","1998","09","10","01:00","10.6","","8.2","","85","","28","","13","","25.0","","99.96","","","","","","Mainly Clear"
"1998-09-10 02:00","1998","09","10","02:00","10.6","","8.5","","87","","28","","17","","25.0","","99.99","","","","","","Mainly Clear"
"1998-09-10 03:00","1998","09","10","03:00","10.3","","8.6","","89","","28","","15","","25.0","","100.03","","","","","","Clear"
"1998-09-10 04:00","1998","09","10","04:00","9.6","","8.0","","90","","29","","13","","25.0","","100.06","","","","","","Mainly Clear"
"1998-09-10 05:00","1998","09","10","05:00","9.2","","8.1","","93","","28","","15","","25.0","","100.09","","","","","","Mainly Clear"
"1998-09-10 06:00","1998","09","10","06:00","9.1","","8.0","","93","","29","","13","","32.2","","100.16","","","","","","Clear"
"1998-09-10 07:00","1998","09","10","07:00","10.2","","8.8","","91","","28","","17","","32.2","","100.23","","","","","","Clear"
"1998-09-10 08:00","1998","09","10","08:00","11.3","","9.1","","86","","28","","17","","32.2","","100.26","","","","","","Mainly Clear"
"1998-09-10 09:00","1998","09","10","09:00","13.0","","9.2","","78","","28","","19","","40.2","","100.29","","","","","","Mainly Clear"
"1998-09-10 10:00","1998","09","10","10:00","14.3","","9.6","","73","","29","","17","","40.2","","100.26","","","","","","Mainly Clear"
"1998-09-10 11:00","1998","09","10","11:00","15.9","","9.8","","67","","29","","13","","40.2","","100.26","","","","","","Mainly Clear"
"1998-09-10 12:00","1998","09","10","12:00","17.4","","10.1","","62","","27","","17","","40.2","","100.23","","","","","","Mainly Clear"
"1998-09-10 13:00","1998","09","10","13:00","18.6","","8.9","","53","","26","","9","","40.2","","100.13","","","","","","Mainly Clear"
"1998-09-10 14:00","1998","09","10","14:00","19.4","","8.1","","48","","30","","22","","40.2","","100.09","","","","","","Mainly Clear"
"1998-09-10 15:00","1998","09","10","15:00","19.7","","7.9","","46","","27","","19","","40.2","","100.06","","","","","","Mostly Cloudy"
"1998-09-10 16:00","1998","09","10","16:00","19.4","","8.2","","48","","27","","17","","40.2","","100.06","","","","","","Mostly Cloudy"
"1998-09-10 17:00","1998","09","10","17:00","18.8","","6.9","","46","","28","","17","","40.2","","100.06","","","","","","Mostly Cloudy"
"1998-09-10 18:00","1998","09","10","18:00","17.9","","7.9","","52","","26","","9","","40.2","","100.06","","","","","","Mostly Cloudy"
"1998-09-10 19:00","1998","09","10","19:00","16.0","","7.7","","58","","23","","6","","32.2","","100.06","","","","","","Mostly Cloudy"
"1998-09-10 20:00","1998","09","10","20:00","15.1","","7.3","","60","","23","","4","","25.0","","100.09","","","","","","Mostly Cloudy"
"1998-09-10 21:00","1998","09","10","21:00","13.8","","6.9","","63","","23","","4","","25.0","","100.09","","","","","","Mainly Clear"
"1998-09-10 22:00","1998","09","10","22:00","12.7","","6.7","","67","","25","","6","","25.0","","100.09","","","","","","Mostly Cloudy"
"1998-09-10 23:00","1998","09","10","23:00","13.1","","7.0","","66","","23","","2","","25.0","","100.13","","","","","","Mainly Clear"
"1998-09-11 00:00","1998","09","11","00:00","11.8","","6.8","","71","","22","","2","","25.0","","100.13","","","","","","Mainly Clear"
"1998-09-11 01:00","1998","09","11","01:00","10.9","","6.5","","74","","","","0","","25.0","","100.13","","","","","","Mainly Clear"
"1998-09-11 02:00","1998","09","11","02:00","9.1","","6.1","","81","","25","","6","","25.0","","100.13","","","","","","Mainly Clear"
"1998-09-11 03:00","1998","09","11","03:00","10.7","","7.7","","82","","28","","2","","25.0","","100.09","","","","","","Mostly Cloudy"
"1998-09-11 04:00","1998","09","11","04:00","10.3","","7.0","","80","","22","","4","","25.0","","100.06","","","","","","Mostly Cloudy"
"1998-09-11 05:00","1998","09","11","05:00","11.5","","8.3","","81","","","","0","","25.0","","100.06","","","","","","Mainly Clear"
"1998-09-11 06:00","1998","09","11","06:00","10.6","","6.9","","78","","22","","4","","32.2","","100.03","","","","","","Mainly Clear"
"1998-09-11 07:00","1998","09","11","07:00","12.1","","8.6","","79","","","","0","","32.2","","100.06","","","","","","Mostly Cloudy"
"1998-09-11 08:00","1998","09","11","08:00","14.5","","10.5","","77","","","","0","","32.2","","100.03","","","","","","Mostly Cloudy"
"1998-09-11 09:00","1998","09","11","09:00","16.0","","11.7","","76","","","","0","","32.2","","99.96","","","","","","Mostly Cloudy"
"1998-09-11 10:00","1998","09","11","10:00","17.3","","12.2","","72","","16","","6","","32.2","","99.93","","","","","","Mostly Cloudy"
"1998-09-11 11:00","1998","09","11","11:00","19.0","","13.0","","68","","19","","4","","32.2","","99.89","","","","","","Mostly Cloudy"
"1998-09-11 12:00","1998","09","11","12:00","20.1","","12.2","","60","","18","","6","","32.2","","99.86","","","","","","Mostly Cloudy"
"1998-09-11 13:00","1998","09","11","13:00","21.5","","13.4","","60","","18","","4","","32.2","","99.76","","25","","","","Mostly Cloudy"
"1998-09-11 14:00","1998","09","11","14:00","23.4","","13.5","","54","","21","","7","","40.2","","99.69","","26","","","","Mainly Clear"
"1998-09-11 15:00","1998","09","11","15:00","24.4","","13.9","","52","","20","","7","","40.2","","99.62","","28","","","","Mainly Clear"
"1998-09-11 16:00","1998","09","11","16:00","24.6","","13.5","","50","","20","","7","","40.2","","99.59","","28","","","","Mainly Clear"
"1998-09-11 17:00","1998","09","11","17:00","24.3","","13.8","","52","","18","","7","","40.2","","99.56","","28","","","","Clear"
"1998-09-11 18:00","1998","09","11","18:00","22.4","","15.0","","63","","17","","7","","40.2","","99.52","","26","","","","Mainly Clear"
"1998-09-11 19:00","1998","09","11","19:00","20.1","","14.6","","71","","16","","6","","32.2","","99.49","","","","","","Mainly Clear"
"1998-09-11 20:00","1998","09","11","20:00","19.3","","14.0","","71","","18","","6","","24.1","","99.52","","","","","","Mostly Cloudy"
"1998-09-11 21:00","1998","09","11","21:00","18.8","","14.3","","75","","19","","7","","24.1","","99.46","","","","","","Mostly Cloudy"
"1998-09-11 22:00","1998","09","11","22:00","18.5","","14.5","","78","","18","","7","","24.1","","99.39","","","","","","Mostly Cloudy"
"1998-09-11 23:00","1998","09","11","23:00","18.7","","14.9","","79","","23","","4","","19.3","","99.42","","","","","","Mostly Cloudy"
"1998-09-12 00:00","1998","09","12","00:00","18.9","","15.2","","79","","20","","4","","19.3","","99.32","","","","","","Mostly Cloudy"
"1998-09-12 01:00","1998","09","12","01:00","18.2","","15.3","","83","","20","","6","","16.1","","99.32","","","","","","Rain Showers"
"1998-09-12 02:00","1998","09","12","02:00","17.8","","15.8","","88","","19","","7","","19.3","","99.26","","","","","","Mostly Cloudy"
"1998-09-12 03:00","1998","09","12","03:00","17.4","","15.7","","90","","21","","6","","19.3","","99.22","","","","","","Mostly Cloudy"
"1998-09-12 04:00","1998","09","12","04:00","17.7","","15.9","","89","","20","","9","","19.3","","99.19","","","","","","Mostly Cloudy"
"1998-09-12 05:00","1998","09","12","05:00","17.7","","16.1","","90","","20","","6","","19.3","","99.22","","","","","","Thunderstorms"
"1998-09-12 06:00","1998","09","12","06:00","17.9","","15.7","","87","","24","","7","","24.1","","99.32","","","","","","Cloudy"
"1998-09-12 07:00","1998","09","12","07:00","18.8","","15.8","","83","","28","","15","","32.2","","99.39","","","","","","Mostly Cloudy"
"1998-09-12 08:00","1998","09","12","08:00","19.4","","16.4","","83","","29","","13","","32.2","","99.49","","","","","","Mostly Cloudy"
"1998-09-12 09:00","1998","09","12","09:00","19.7","","16.1","","80","","31","","17","","32.2","","99.52","","","","","","Mostly Cloudy"
"1998-09-12 10:00","1998","09","12","10:00","19.1","","15.4","","79","","33","","20","","32.2","","99.59","","","","","","Mostly Cloudy"
"1998-09-12 11:00","1998","09","12","11:00","19.5","","14.3","","72","","32","","19","","40.2","","99.66","","","","","","Mainly Clear"
"1998-09-12 12:00","1998","09","12","12:00","18.1","","12.6","","70","","32","","20","","40.2","","99.76","","","","","","Mainly Clear"
"1998-09-12 13:00","1998","09","12","13:00","19.1","","11.7","","62","","33","","17","","40.2","","99.76","","","","","","Mainly Clear"
"1998-09-12 14:00","1998","09","12","14:00","19.5","","10.3","","55","","33","","19","","40.2","","99.76","","","","","","Clear"
"1998-09-12 15:00","1998","09","12","15:00","20.1","","10.6","","54","","33","","17","","40.2","","99.76","","","","","","Clear"
"1998-09-12 16:00","1998","09","12","16:00","20.0","","9.9","","52","","35","","13","","40.2","","99.79","","","","","","Clear"
"1998-09-12 17:00","1998","09","12","17:00","18.9","","9.2","","53","","35","","13","","40.2","","99.86","","","","","","Clear"
"1998-09-12 18:00","1998","09","12","18:00","17.9","","8.9","","56","","1","","9","","40.2","","99.93","","","","","","Clear"
"1998-09-12 19:00","1998","09","12","19:00","16.9","","8.9","","59","","36","","9","","40.2","","99.99","","","","","","Clear"
"1998-09-12 20:00","1998","09","12","20:00","16.0","","8.8","","62","","34","","6","","25.0","","100.06","","","","","","Clear"
"1998-09-12 21:00","1998","09","12","21:00","13.9","","8.5","","70","","32","","7","","25.0","","100.13","","","","","","Clear"
"1998-09-12 22:00","1998","09","12","22:00","13.2","","8.9","","75","","33","","6","","25.0","","100.13","","","","","","Clear"
"1998-09-12 23:00","1998","09","12","23:00","12.5","","8.9","","79","","32","","6","","25.0","","100.13","","","","","","Clear"
"1998-09-13 00:00","1998","09","13","00:00","12.4","","9.1","","80","","1","","6","","25.0","","100.13","","","","","","Mainly Clear"
"1998-09-13 01:00","1998","09","13","01:00","11.5","","8.5","","82","","1","","9","","25.0","","100.19","","","","","","Mainly Clear"
"1998-09-13 02:00","1998","09","13","02:00","10.6","","8.5","","87","","2","","9","","25.0","","100.19","","","","","","Clear"
"1998-09-13 03:00","1998","09","13","03:00","10.6","","8.2","","85","","36","","7","","25.0","","100.23","","","","","","Clear"
"1998-09-13 04:00","1998","09","13","04:00","9.6","","7.7","","88","","2","","6","","25.0","","100.26","","","","","","Clear"
"1998-09-13 05:00","1998","09","13","05:00","9.0","","7.9","","93","","3","","9","","25.0","","100.26","","","","","","Clear"
"1998-09-13 06:00","1998","09","13","06:00","8.7","","7.3","","91","","2","","6","","40.2","","100.33","","","","","","Mainly Clear"
"1998-09-13 07:00","1998","09","13","07:00","10.7","","9.3","","91","","3","","7","","40.2","","100.36","","","","","","Mainly Clear"
"1998-09-13 08:00","1998","09","13","08:00","12.6","","10.2","","85","","4","","7","","40.2","","100.43","","","","","","Mainly Clear"
"1998-09-13 09:00","1998","09","13","09:00","15.3","","9.8","","70","","11","","7","","40.2","","100.46","","","","","","Mainly Clear"
"1998-09-13 10:00","1998","09","13","10:00","16.5","","10.1","","66","","16","","4","","40.2","","100.46","","","","","","Mainly Clear"
"1998-09-13 11:00","1998","09","13","11:00","18.4","","9.8","","57","","","","0","","40.2","","100.43","","","","","","Mainly Clear"
"1998-09-13 12:00","1998","09","13","12:00","19.2","","9.9","","55","","14","","4","","40.2","","100.39","","","","","","Mostly Cloudy"
"1998-09-13 13:00","1998","09","13","13:00","19.1","","9.3","","53","","","","0","","40.2","","100.33","","","","","","Mostly Cloudy"
"1998-09-13 14:00","1998","09","13","14:00","20.2","","9.7","","51","","","","0","","40.2","","100.26","","","","","","Mostly Cloudy"
"1998-09-13 15:00","1998","09","13","15:00","19.1","","9.1","","52","","","","0","","40.2","","100.26","","","","","","Cloudy"
"1998-09-13 16:00","1998","09","13","16:00","19.2","","9.2","","52","","","","0","","40.2","","100.26","","","","","","Cloudy"
"1998-09-13 17:00","1998","09","13","17:00","18.7","","9.6","","55","","","","0","","40.2","","100.29","","","","","","Cloudy"
"1998-09-13 18:00","1998","09","13","18:00","17.9","","9.8","","59","","","","0","","40.2","","100.29","","","","","","Cloudy"
"1998-09-13 19:00","1998","09","13","19:00","17.4","","9.3","","59","","10","","4","","25.0","","100.29","","","","","","Mostly Cloudy"
"1998-09-13 20:00","1998","09","13","20:00","16.5","","10.0","","65","","","","0","","25.0","","100.36","","","","","","Mostly Cloudy"
"1998-09-13 21:00","1998","09","13","21:00","15.8","","9.8","","67","","11","","4","","25.0","","100.33","","","","","","Mostly Cloudy"
"1998-09-13 22:00","1998","09","13","22:00","15.1","","9.6","","70","","","","0","","25.0","","100.36","","","","","","Mainly Clear"
"1998-09-13 23:00","1998","09","13","23:00","14.1","","9.3","","73","","","","0","","25.0","","100.36","","","","","","Clear"
"1998-09-14 00:00","1998","09","14","00:00","12.7","","9.4","","80","","","","0","","25.0","","100.36","","","","","","Clear"
"1998-09-14 01:00","1998","09","14","01:00","12.3","","9.2","","81","","","","0","","25.0","","100.36","","","","","","Mainly Clear"
"1998-09-14 02:00","1998","09","14","02:00","11.7","","9.4","","86","","","","0","","25.0","","100.39","","","","","","Clear"
"1998-09-14 03:00","1998","09","14","03:00","11.1","","9.5","","90","","","","0","","25.0","","100.39","","","","","","Mainly Clear"
"1998-09-14 04:00","1998","09","14","04:00","10.2","","9.0","","92","","4","","7","","24.1","","100.43","","","","","","Mainly Clear"
"1998-09-14 05:00","1998","09","14","05:00","9.3","","8.6","","95","","3","","4","","24.1","","100.43","","","","","","Mainly Clear"
"1998-09-14 06:00","1998","09","14","06:00","9.9","","9.0","","94","","4","","6","","32.2","","100.49","","","","","","Mainly Clear"
"1998-09-14 07:00","1998","09","14","07:00","10.8","","9.9","","94","","7","","4","","40.2","","100.49","","","","","","Mostly Cloudy"
"1998-09-14 08:00","1998","09","14","08:00","12.2","","11.2","","94","","","","0","","40.2","","100.56","","","","","","Mostly Cloudy"
"1998-09-14 09:00","1998","09","14","09:00","16.0","","13.1","","83","","10","","4","","40.2","","100.56","","","","","","Mostly Cloudy"
"1998-09-14 10:00","1998","09","14","10:00","16.4","","11.1","","71","","11","","4","","40.2","","100.53","","","","","","Cloudy"
"1998-09-14 11:00","1998","09","14","11:00","16.7","","11.0","","69","","8","","6","","40.2","","100.53","","","","","","Cloudy"
"1998-09-14 12:00","1998","09","14","12:00","15.8","","12.4","","80","","","","0","","9.7","","100.60","","","","","","Rain"
"1998-09-14 13:00","1998","09","14","13:00","14.8","","13.0","","89","","","","0","","24.1","","100.60","","","","","","Rain"
"1998-09-14 14:00","1998","09","14","14:00","14.8","","13.2","","90","","","","0","","32.2","","100.49","","","","","","Cloudy"
"1998-09-14 15:00","1998","09","14","15:00","15.3","","13.4","","88","","11","","2","","40.2","","100.46","","","","","","Cloudy"
"1998-09-14 16:00","1998","09","14","16:00","16.2","","13.6","","85","","14","","6","","32.2","","100.43","","","","","","Mostly Cloudy"
"1998-09-14 17:00","1998","09","14","17:00","15.7","","12.7","","82","","16","","4","","32.2","","100.39","","","","","","Mostly Cloudy"
"1998-09-14 18:00","1998","09","14","18:00","15.3","","12.1","","81","","","","0","","32.2","","100.39","","","","","","Mostly Cloudy"
"1998-09-14 19:00","1998","09","14","19:00","14.8","","12.0","","83","","","","0","","24.1","","100.36","","","","","","Cloudy"
"1998-09-14 20:00","1998","09","14","20:00","14.0","","11.3","","84","","3","","4","","24.1","","100.36","","","","","","Cloudy"
"1998-09-14 21:00","1998","09","14","21:00","14.8","","13.0","","89","","","","0","","24.1","","100.39","","","","","","Cloudy"
"1998-09-14 22:00","1998","09","14","22:00","14.5","","12.8","","90","","","","0","","24.1","","100.36","","","","","","Cloudy"
"1998-09-14 23:00","1998","09","14","23:00","14.5","","12.8","","90","","","","0","","24.1","","100.33","","","","","","Cloudy"
"1998-09-15 00:00","1998","09","15","00:00","14.2","","12.6","","90","","","","0","","24.1","","100.29","","","","","","Cloudy"
"1998-09-15 01:00","1998","09","15","01:00","14.0","","12.7","","92","","7","","4","","24.1","","100.26","","","","","","Rain Showers"
"1998-09-15 02:00","1998","09","15","02:00","13.8","","12.3","","91","","","","0","","24.1","","100.19","","","","","","Cloudy"
"1998-09-15 03:00","1998","09","15","03:00","13.6","","12.5","","93","","8","","4","","24.1","","100.13","","","","","","Cloudy"
"1998-09-15 04:00","1998","09","15","04:00","13.6","","12.3","","92","","5","","4","","24.1","","100.13","","","","","","Cloudy"
"1998-09-15 05:00","1998","09","15","05:00","13.3","","12.4","","94","","6","","7","","19.3","","100.06","","","","","","Rain"
"1998-09-15 06:00","1998","09","15","06:00","13.4","","12.7","","96","","5","","7","","16.1","","100.13","","","","","","Rain"
"1998-09-15 07:00","1998","09","15","07:00","13.8","","13.3","","97","","","","0","","6.4","","100.16","","","","","","Rain,Fog"
"1998-09-15 08:00","1998","09","15","08:00","14.5","","14.1","","97","","","","0","","9.7","","100.09","","","","","","Fog"
"1998-09-15 09:00","1998","09","15","09:00","15.4","","14.8","","96","","","","0","","9.7","","100.06","","","","","","Rain,Fog"
"1998-09-15 10:00","1998","09","15","10:00","16.5","","16.0","","97","","","","0","","12.9","","99.96","","","","","","Rain"
"1998-09-15 11:00","1998","09","15","11:00","18.1","","17.4","","96","","","","0","","12.9","","99.99","","","","","","Cloudy"
"1998-09-15 12:00","1998","09","15","12:00","18.3","","17.5","","95","","","","0","","4.8","","99.93","","","","","","Rain,Fog"
"1998-09-15 13:00","1998","09","15","13:00","19.7","","18.4","","92","","21","","6","","4.8","","99.93","","","","","","Rain,Fog"
"1998-09-15 14:00","1998","09","15","14:00","20.0","","18.7","","92","","22","","9","","4.0","","99.93","","27","","","","Rain,Fog"
"1998-09-15 15:00","1998","09","15","15:00","20.2","","19.5","","96","","","","0","","1.6","","99.93","","27","","","","Rain,Drizzle,Fog"
"1998-09-15 16:00","1998","09","15","16:00","20.1","","19.0","","93","","23","","13","","2.8","","99.93","","27","","","","Rain,Fog"
"1998-09-15 17:00","1998","09","15","17:00","20.0","","18.9","","93","","26","","11","","6.4","","99.96","","27","","","","Fog"
"1998-09-15 18:00","1998","09","15","18:00","19.7","","18.6","","93","","30","","7","","8.0","","99.96","","","","","","Fog"
"1998-09-15 19:00","1998","09","15","19:00","19.5","","18.3","","93","","31","","6","","8.0","","99.96","","","","","","Fog"
"1998-09-15 20:00","1998","09","15","20:00","19.3","","18.2","","93","","31","","9","","8.0","","99.99","","","","","","Fog"
"1998-09-15 21:00","1998","09","15","21:00","19.3","","17.7","","90","","35","","15","","12.9","","100.06","","","","","","Mainly Clear"
"1998-09-15 22:00","1998","09","15","22:00","18.6","","16.6","","88","","35","","11","","24.1","","100.13","","","","","","Mostly Cloudy"
"1998-09-15 23:00","1998","09","15","23:00","18.0","","15.4","","85","","35","","15","","24.1","","100.19","","","","","","Cloudy"
"1998-09-16 00:00","1998","09","16","00:00","16.9","","14.2","","84","","35","","15","","25.0","","100.26","","","","","","Mostly Cloudy"
"1998-09-16 01:00","1998","09","16","01:00","15.8","","12.7","","82","","34","","17","","25.0","","100.36","","","","","","Clear"
"1998-09-16 02:00","1998","09","16","02:00","13.8","","10.1","","78","","33","","19","","25.0","","100.49","","","","","","Clear"
"1998-09-16 03:00","1998","09","16","03:00","12.4","","8.5","","77","","36","","15","","25.0","","100.60","","","","","","Clear"
"1998-09-16 04:00","1998","09","16","04:00","11.3","","7.5","","77","","36","","15","","25.0","","100.60","","","","","","Clear"
"1998-09-16 05:00","1998","09","16","05:00","10.6","","7.0","","78","","36","","13","","25.0","","100.66","","","","","","Clear"
"1998-09-16 06:00","1998","09","16","06:00","10.1","","6.6","","79","","36","","9","","40.2","","100.76","","","","","","Mainly Clear"
"1998-09-16 07:00","1998","09","16","07:00","10.7","","6.6","","76","","2","","13","","40.2","","100.83","","","","","","Mainly Clear"
"1998-09-16 08:00","1998","09","16","08:00","12.0","","5.9","","66","","3","","13","","40.2","","100.93","","","","","","Mainly Clear"
"1998-09-16 09:00","1998","09","16","09:00","13.1","","6.0","","62","","1","","11","","40.2","","100.93","","","","","","Mainly Clear"
"1998-09-16 10:00","1998","09","16","10:00","14.4","","6.5","","59","","6","","2","","40.2","","100.93","","","","","","Mainly Clear"
"1998-09-16 11:00","1998","09","16","11:00","15.7","","5.6","","51","","1","","6","","40.2","","100.90","","","","","","Mainly Clear"
"1998-09-16 12:00","1998","09","16","12:00","16.5","","5.2","","47","","7","","6","","40.2","","100.83","","","","","","Mainly Clear"
"1998-09-16 13:00","1998","09","16","13:00","18.0","","6.2","","46","","","","0","","40.2","","100.80","","","","","","Mainly Clear"
"1998-09-16 14:00","1998","09","16","14:00","18.8","","5.4","","41","","35","","2","","40.2","","100.73","","","","","","Mainly Clear"
"1998-09-16 15:00","1998","09","16","15:00","19.8","","5.7","","40","","34","","6","","40.2","","100.66","","","","","","Mainly Clear"
"1998-09-16 16:00","1998","09","16","16:00","19.5","","5.7","","40","","29","","6","","40.2","","100.63","","","","","","Mainly Clear"
"1998-09-16 17:00","1998","09","16","17:00","18.9","","6.2","","43","","32","","2","","40.2","","100.60","","","","","","Mainly Clear"
"1998-09-16 18:00","1998","09","16","18:00","17.8","","6.3","","47","","26","","4","","40.2","","100.60","","","","","","Clear"
"1998-09-16 19:00","1998","09","16","19:00","16.2","","6.9","","54","","","","0","","25.0","","100.63","","","","","","Clear"
"1998-09-16 20:00","1998","09","16","20:00","14.7","","6.8","","59","","26","","4","","25.0","","100.63","","","","","","Clear"
"1998-09-16 21:00","1998","09","16","21:00","13.6","","6.4","","62","","26","","4","","25.0","","100.60","","","","","","Clear"
"1998-09-16 22:00","1998","09","16","22:00","13.1","","6.1","","62","","","","0","","25.0","","100.60","","","","","","Clear"
"1998-09-16 23:00","1998","09","16","23:00","12.7","","6.1","","64","","25","","4","","25.0","","100.56","","","","","","Clear"
"1998-09-17 00:00","1998","09","17","00:00","12.0","","6.5","","69","","","","0","","25.0","","100.56","","","","","","Mainly Clear"
"1998-09-17 01:00","1998","09","17","01:00","9.4","","6.0","","79","","22","","6","","25.0","","100.53","","","","","","Mainly Clear"
"1998-09-17 02:00","1998","09","17","02:00","10.3","","7.4","","82","","23","","4","","25.0","","100.49","","","","","","Mainly Clear"
"1998-09-17 03:00","1998","09","17","03:00","8.9","","6.4","","84","","22","","4","","25.0","","100.46","","","","","","Mainly Clear"
"1998-09-17 04:00","1998","09","17","04:00","9.1","","6.4","","83","","23","","4","","25.0","","100.43","","","","","","Clear"
"1998-09-17 05:00","1998","09","17","05:00","9.3","","5.8","","79","","22","","6","","25.0","","100.46","","","","","","Mainly Clear"
"1998-09-17 06:00","1998","09","17","06:00","8.4","","5.1","","80","","21","","7","","40.2","","100.43","","","","","","Mainly Clear"
"1998-09-17 07:00","1998","09","17","07:00","9.7","","6.8","","82","","22","","6","","40.2","","100.43","","","","","","Mainly Clear"
"1998-09-17 08:00","1998","09","17","08:00","13.4","","8.3","","71","","28","","13","","40.2","","100.43","","","","","","Mainly Clear"
"1998-09-17 09:00","1998","09","17","09:00","14.9","","9.2","","69","","29","","15","","40.2","","100.43","","","","","","Mainly Clear"
"1998-09-17 10:00","1998","09","17","10:00","16.6","","10.4","","67","","29","","15","","40.2","","100.43","","","","","","Mainly Clear"
"1998-09-17 11:00","1998","09","17","11:00","18.0","","11.6","","66","","30","","9","","40.2","","100.43","","","","","","Clear"
"1998-09-17 12:00","1998","09","17","12:00","20.2","","12.2","","60","","27","","11","","40.2","","100.43","","","","","","Mainly Clear"
"1998-09-17 13:00","1998","09","17","13:00","20.7","","10.8","","53","","33","","9","","40.2","","100.43","","","","","","Mostly Cloudy"
"1998-09-17 14:00","1998","09","17","14:00","21.9","","10.8","","49","","31","","19","","40.2","","100.39","","","","","","Mainly Clear"
"1998-09-17 15:00","1998","09","17","15:00","20.4","","9.9","","51","","34","","15","","40.2","","100.43","","","","","","Mostly Cloudy"
"1998-09-17 16:00","1998","09","17","16:00","19.9","","10.3","","54","","1","","11","","40.2","","100.43","","","","","","Mainly Clear"
"1998-09-17 17:00","1998","09","17","17:00","19.0","","10.8","","59","","35","","15","","40.2","","100.53","","","","","","Mostly Cloudy"
"1998-09-17 18:00","1998","09","17","18:00","17.4","","9.6","","60","","1","","11","","40.2","","100.56","","","","","","Mainly Clear"
"1998-09-17 19:00","1998","09","17","19:00","16.1","","8.0","","59","","36","","7","","25.0","","100.60","","","","","","Clear"
"1998-09-17 20:00","1998","09","17","20:00","15.2","","7.7","","61","","1","","7","","25.0","","100.63","","","","","","Clear"
"1998-09-17 21:00","1998","09","17","21:00","14.5","","6.9","","60","","1","","9","","25.0","","100.66","","","","","","Mainly Clear"
"1998-09-17 22:00","1998","09","17","22:00","13.4","","6.5","","63","","2","","9","","25.0","","100.70","","","","","","Mainly Clear"
"1998-09-17 23:00","1998","09","17","23:00","11.8","","6.1","","68","","3","","9","","25.0","","100.70","","","","","","Mainly Clear"
"1998-09-18 00:00","1998","09","18","00:00","11.2","","5.9","","70","","4","","7","","25.0","","100.73","","","","","","Clear"
"1998-09-18 01:00","1998","09","18","01:00","10.0","","4.9","","71","","5","","6","","25.0","","100.73","","","","","","Clear"
"1998-09-18 02:00","1998","09","18","02:00","9.9","","5.1","","72","","5","","9","","25.0","","100.73","","","","","","Clear"
"1998-09-18 03:00","1998","09","18","03:00","9.5","","4.4","","70","","6","","9","","25.0","","100.73","","","","","","Clear"
"1998-09-18 04:00","1998","09","18","04:00","8.0","","3.6","","74","","5","","7","","25.0","","100.73","","","","","","Clear"
"1998-09-18 05:00","1998","09","18","05:00","7.2","","3.5","","77","","4","","9","","25.0","","100.73","","","","","","Clear"
"1998-09-18 06:00","1998","09","18","06:00","7.1","","3.8","","80","","5","","9","","40.2","","100.73","","","","","","Mainly Clear"
"1998-09-18 07:00","1998","09","18","07:00","8.0","","4.7","","80","","5","","9","","40.2","","100.73","","","","","","Mainly Clear"
"1998-09-18 08:00","1998","09","18","08:00","10.3","","5.2","","71","","8","","9","","40.2","","100.70","","","","","","Mainly Clear"
"1998-09-18 09:00","1998","09","18","09:00","12.7","","6.2","","65","","7","","6","","40.2","","100.70","","","","","","Mostly Cloudy"
"1998-09-18 10:00","1998","09","18","10:00","14.5","","7.4","","62","","12","","4","","40.2","","100.63","","","","","","Mostly Cloudy"
"1998-09-18 11:00","1998","09","18","11:00","16.9","","8.3","","57","","","","0","","40.2","","100.60","","","","","","Mostly Cloudy"
"1998-09-18 12:00","1998","09","18","12:00","18.7","","8.9","","53","","11","","6","","40.2","","100.53","","","","","","Mainly Clear"
"1998-09-18 13:00","1998","09","18","13:00","20.5","","9.6","","50","","12","","4","","40.2","","100.43","","","","","","Mainly Clear"
"1998-09-18 14:00","1998","09","18","14:00","21.4","","10.3","","49","","17","","4","","40.2","","100.29","","","","","","Mainly Clear"
"1998-09-18 15:00","1998","09","18","15:00","22.8","","11.4","","49","","17","","7","","32.2","","100.19","","25","","","","Mainly Clear"
"1998-09-18 16:00","1998","09","18","16:00","22.4","","12.2","","52","","17","","9","","32.2","","100.13","","25","","","","Mainly Clear"
"1998-09-18 17:00","1998","09","18","17:00","22.3","","12.9","","55","","19","","9","","32.2","","100.09","","25","","","","Mainly Clear"
"1998-09-18 18:00","1998","09","18","18:00","20.5","","13.3","","63","","18","","7","","32.2","","100.06","","","","","","Mostly Cloudy"
"1998-09-18 19:00","1998","09","18","19:00","19.4","","13.6","","69","","18","","7","","24.1","","100.06","","","","","","Mainly Clear"
"1998-09-18 20:00","1998","09","18","20:00","18.7","","14.4","","76","","19","","6","","24.1","","100.06","","","","","","Mainly Clear"
"1998-09-18 21:00","1998","09","18","21:00","17.5","","13.5","","77","","20","","9","","24.1","","100.03","","","","","","Mainly Clear"
"1998-09-18 22:00","1998","09","18","22:00","16.7","","13.1","","79","","19","","6","","24.1","","100.03","","","","","","Mainly Clear"
"1998-09-18 23:00","1998","09","18","23:00","15.5","","12.7","","83","","","","0","","24.1","","100.03","","","","","","Clear"
"1998-09-19 00:00","1998","09","19","00:00","14.9","","12.2","","84","","","","0","","24.1","","100.03","","","","","","Clear"
"1998-09-19 01:00","1998","09","19","01:00","14.5","","12.0","","85","","22","","4","","24.1","","99.99","","","","","","Clear"
"1998-09-19 02:00","1998","09","19","02:00","14.3","","12.1","","87","","22","","4","","24.1","","99.99","","","","","","Clear"
"1998-09-19 03:00","1998","09","19","03:00","13.8","","11.5","","86","","21","","4","","24.1","","99.99","","","","","","Clear"
"1998-09-19 04:00","1998","09","19","04:00","12.9","","10.9","","88","","19","","4","","24.1","","99.96","","","","","","Clear"
"1998-09-19 05:00","1998","09","19","05:00","12.8","","11.0","","89","","19","","7","","19.3","","99.96","","","","","","Clear"
"1998-09-19 06:00","1998","09","19","06:00","12.6","","11.4","","92","","18","","7","","4.0","","99.96","","","","","","Fog"
"1998-09-19 07:00","1998","09","19","07:00","13.7","","12.9","","95","","18","","7","","4.8","","99.96","","","","","","Fog"
"1998-09-19 08:00","1998","09","19","08:00","15.9","","15.0","","94","","21","","6","","19.3","","99.96","","","","","","Clear"
"1998-09-19 09:00","1998","09","19","09:00","17.7","","15.7","","88","","26","","6","","19.3","","99.96","","","","","","Clear"
"1998-09-19 10:00","1998","09","19","10:00","21.2","","16.6","","75","","23","","13","","24.1","","99.89","","26","","","","Clear"
"1998-09-19 11:00","1998","09","19","11:00","23.8","","15.6","","60","","26","","11","","24.1","","99.86","","28","","","","Mainly Clear"
"1998-09-19 12:00","1998","09","19","12:00","25.2","","15.2","","54","","24","","11","","32.2","","99.79","","29","","","","Mainly Clear"
"1998-09-19 13:00","1998","09","19","13:00","26.3","","14.8","","49","","24","","11","","32.2","","99.76","","30","","","","Mostly Cloudy"
"1998-09-19 14:00","1998","09","19","14:00","27.3","","14.8","","46","","23","","15","","24.1","","99.69","","31","","","","Mostly Cloudy"
"1998-09-19 15:00","1998","09","19","15:00","26.9","","15.1","","48","","23","","11","","32.2","","99.62","","31","","","","Mostly Cloudy"
"1998-09-19 16:00","1998","09","19","16:00","25.1","","17.2","","62","","19","","13","","32.2","","99.66","","31","","","","Mainly Clear"
"1998-09-19 17:00","1998","09","19","17:00","23.6","","17.1","","67","","18","","11","","16.1","","99.69","","29","","","","Mainly Clear"
"1998-09-19 18:00","1998","09","19","18:00","22.2","","17.2","","73","","10","","6","","12.9","","99.69","","28","","","","Mainly Clear"
"1998-09-19 19:00","1998","09","19","19:00","21.1","","16.9","","77","","","","0","","11.3","","99.69","","26","","","","Mainly Clear"
"1998-09-19 20:00","1998","09","19","20:00","20.5","","16.7","","79","","17","","4","","8.0","","99.72","","26","","","","Haze"
"1998-09-19 21:00","1998","09","19","21:00","19.2","","16.1","","82","","34","","7","","6.4","","99.76","","","","","","Haze"
"1998-09-19 22:00","1998","09","19","22:00","18.8","","16.0","","84","","36","","9","","9.7","","99.79","","","","","","Haze"
"1998-09-19 23:00","1998","09","19","23:00","17.4","","14.6","","84","","1","","11","","24.1","","99.79","","","","","","Clear"
"1998-09-20 00:00","1998","09","20","00:00","16.2","","14.1","","87","","2","","9","","24.1","","99.82","","","","","","Clear"
"1998-09-20 01:00","1998","09","20","01:00","15.1","","13.4","","90","","4","","6","","24.1","","99.86","","","","","","Clear"
"1998-09-20 02:00","1998","09","20","02:00","15.2","","13.2","","88","","36","","11","","24.1","","99.86","","","","","","Mostly Cloudy"
"1998-09-20 03:00","1998","09","20","03:00","15.2","","12.7","","85","","1","","11","","24.1","","99.86","","","","","","Cloudy"
"1998-09-20 04:00","1998","09","20","04:00","14.7","","11.9","","83","","5","","9","","24.1","","99.86","","","","","","Cloudy"
"1998-09-20 05:00","1998","09","20","05:00","14.8","","12.5","","86","","5","","9","","24.1","","99.89","","","","","","Cloudy"
"1998-09-20 06:00","1998","09","20","06:00","14.8","","12.6","","87","","5","","11","","24.1","","99.96","","","","","","Cloudy"
"1998-09-20 07:00","1998","09","20","07:00","14.3","","10.9","","80","","5","","9","","32.2","","100.03","","","","","","Cloudy"
"1998-09-20 08:00","1998","09","20","08:00","14.5","","10.3","","76","","7","","13","","32.2","","100.03","","","","","","Cloudy"
"1998-09-20 09:00","1998","09","20","09:00","14.5","","9.2","","70","","6","","9","","32.2","","100.03","","","","","","Cloudy"
"1998-09-20 10:00","1998","09","20","10:00","15.0","","9.3","","69","","6","","11","","32.2","","99.99","","","","","","Cloudy"
"1998-09-20 11:00","1998","09","20","11:00","15.5","","10.0","","70","","8","","7","","24.1","","99.96","","","","","","Cloudy"
"1998-09-20 12:00","1998","09","20","12:00","16.1","","10.4","","69","","8","","11","","24.1","","99.89","","","","","","Cloudy"
"1998-09-20 13:00","1998","09","20","13:00","16.1","","11.3","","73","","7","","7","","24.1","","99.86","","","","","","Cloudy"
"1998-09-20 14:00","1998","09","20","14:00","16.3","","11.8","","75","","8","","6","","24.1","","99.79","","","","","","Cloudy"
"1998-09-20 15:00","1998","09","20","15:00","17.3","","13.4","","78","","7","","7","","16.1","","99.76","","","","","","Cloudy"
"1998-09-20 16:00","1998","09","20","16:00","17.8","","13.7","","77","","6","","7","","16.1","","99.69","","","","","","Cloudy"
"1998-09-20 17:00","1998","09","20","17:00","17.6","","13.8","","78","","7","","7","","16.1","","99.69","","","","","","Mainly Clear"
"1998-09-20 18:00","1998","09","20","18:00","16.7","","13.5","","81","","7","","7","","9.7","","99.62","","","","","","Haze"
"1998-09-20 19:00","1998","09","20","19:00","15.1","","12.8","","86","","7","","7","","16.1","","99.59","","","","","","Clear"
"1998-09-20 20:00","1998","09","20","20:00","14.5","","12.6","","88","","6","","7","","12.9","","99.59","","","","","","Clear"
"1998-09-20 21:00","1998","09","20","21:00","13.4","","12.1","","92","","4","","7","","9.7","","99.59","","","","","","Fog"
"1998-09-20 22:00","1998","09","20","22:00","13.8","","12.3","","91","","6","","6","","9.7","","99.59","","","","","","Fog"
"1998-09-20 23:00","1998","09","20","23:00","13.1","","12.1","","94","","5","","6","","9.7","","99.52","","","","","","Fog"
"1998-09-21 00:00","1998","09","21","00:00","13.0","","11.9","","93","","6","","6","","8.0","","99.46","","","","","","Fog"
"1998-09-21 01:00","1998","09","21","01:00","12.8","","11.7","","93","","6","","7","","8.0","","99.39","","","","","","Fog"
"1998-09-21 02:00","1998","09","21","02:00","13.1","","12.2","","94","","9","","4","","6.4","","99.32","","","","","","Fog"
"1998-09-21 03:00","1998","09","21","03:00","13.6","","12.8","","95","","12","","4","","4.8","","99.26","","","","","","Fog"
"1998-09-21 04:00","1998","09","21","04:00","13.6","","13.3","","98","","","","0","","2.4","","99.22","","","","","","Fog"
"1998-09-21 05:00","1998","09","21","05:00","13.5","","12.9","","96","","","","0","","2.0","","99.26","","","","","","Fog"
"1998-09-21 06:00","1998","09","21","06:00","19.0","","18.1","","95","","18","","7","","2.0","","99.22","","","","","","Rain,Fog"
"1998-09-21 07:00","1998","09","21","07:00","19.9","","19.0","","95","","19","","7","","4.0","","99.26","","","","","","Rain,Fog"
"1998-09-21 08:00","1998","09","21","08:00","20.7","","19.6","","93","","20","","11","","4.8","","99.26","","28","","","","Fog"
"1998-09-21 09:00","1998","09","21","09:00","22.5","","19.8","","85","","22","","15","","6.4","","99.22","","30","","","","Fog"
"1998-09-21 10:00","1998","09","21","10:00","23.5","","18.9","","75","","24","","13","","8.0","","99.22","","30","","","","Haze"
"1998-09-21 11:00","1998","09","21","11:00","25.3","","19.5","","70","","23","","15","","8.0","","99.22","","32","","","","Haze"
"1998-09-21 12:00","1998","09","21","12:00","25.7","","17.9","","62","","24","","15","","12.9","","99.22","","32","","","","Mostly Cloudy"
"1998-09-21 13:00","1998","09","21","13:00","27.3","","16.6","","52","","21","","19","","24.1","","99.19","","32","","","","Mainly Clear"
"1998-09-21 14:00","1998","09","21","14:00","28.0","","14.8","","45","","23","","19","","24.1","","99.15","","32","","","","Mainly Clear"
"1998-09-21 15:00","1998","09","21","15:00","27.8","","14.2","","43","","23","","20","","32.2","","99.19","","31","","","","Mainly Clear"
"1998-09-21 16:00","1998","09","21","16:00","27.5","","12.7","","40","","22","","22","","32.2","","99.19","","30","","","","Mainly Clear"
"1998-09-21 17:00","1998","09","21","17:00","26.0","","12.4","","43","","24","","15","","32.2","","99.19","","28","","","","Mostly Cloudy"
"1998-09-21 18:00","1998","09","21","18:00","24.4","","10.5","","42","","29","","19","","32.2","","99.29","","26","","","","Mostly Cloudy"
"1998-09-21 19:00","1998","09","21","19:00","21.6","","11.1","","51","","29","","19","","25.0","","99.39","","","","","","Mostly Cloudy"
"1998-09-21 20:00","1998","09","21","20:00","20.3","","9.9","","51","","27","","9","","25.0","","99.52","","","","","","Mainly Clear"
"1998-09-21 21:00","1998","09","21","21:00","18.2","","9.6","","57","","30","","9","","25.0","","99.59","","","","","","Mainly Clear"
"1998-09-21 22:00","1998","09","21","22:00","17.0","","9.2","","60","","32","","7","","25.0","","99.62","","","","","","Mainly Clear"
"1998-09-21 23:00","1998","09","21","23:00","16.5","","8.4","","59","","35","","9","","25.0","","99.69","","","","","","Mainly Clear"
"1998-09-22 00:00","1998","09","22","00:00","16.2","","7.7","","57","","35","","7","","25.0","","99.72","","","","","","Mostly Cloudy"
"1998-09-22 01:00","1998","09","22","01:00","15.6","","7.2","","57","","35","","7","","25.0","","99.76","","","","","","Mostly Cloudy"
"1998-09-22 02:00","1998","09","22","02:00","14.5","","7.4","","62","","36","","9","","25.0","","99.82","","","","","","Mostly Cloudy"
"1998-09-22 03:00","1998","09","22","03:00","13.7","","7.9","","68","","36","","7","","25.0","","99.86","","","","","","Mostly Cloudy"
"1998-09-22 04:00","1998","09","22","04:00","13.5","","7.8","","68","","35","","9","","25.0","","99.89","","","","","","Mostly Cloudy"
"1998-09-22 05:00","1998","09","22","05:00","12.9","","7.3","","69","","35","","11","","25.0","","99.93","","","","","","Mostly Cloudy"
"1998-09-22 06:00","1998","09","22","06:00","12.5","","6.0","","65","","36","","9","","40.2","","99.96","","","","","","Mostly Cloudy"
"1998-09-22 07:00","1998","09","22","07:00","12.0","","6.3","","68","","34","","11","","40.2","","99.99","","","","","","Cloudy"
"1998-09-22 08:00","1998","09","22","08:00","10.3","","7.4","","82","","34","","9","","24.1","","100.06","","","","","","Rain"
"1998-09-22 09:00","1998","09","22","09:00","10.2","","8.0","","86","","36","","9","","32.2","","100.09","","","","","","Rain"
"1998-09-22 10:00","1998","09","22","10:00","10.7","","8.6","","87","","34","","9","","40.2","","100.06","","","","","","Cloudy"
"1998-09-22 11:00","1998","09","22","11:00","10.7","","8.1","","84","","36","","9","","40.2","","100.03","","","","","","Cloudy"
"1998-09-22 12:00","1998","09","22","12:00","10.9","","7.4","","79","","34","","9","","40.2","","100.09","","","","","","Rain"
"1998-09-22 13:00","1998","09","22","13:00","11.5","","7.5","","76","","33","","6","","40.2","","100.06","","","","","","Rain"
"1998-09-22 14:00","1998","09","22","14:00","11.5","","6.0","","69","","32","","9","","40.2","","100.03","","","","","","Rain"
"1998-09-22 15:00","1998","09","22","15:00","11.9","","5.6","","65","","32","","11","","40.2","","99.99","","","","","","Mostly Cloudy"
"1998-09-22 16:00","1998","09","22","16:00","12.3","","4.7","","60","","33","","9","","40.2","","99.96","","","","","","Mostly Cloudy"
"1998-09-22 17:00","1998","09","22","17:00","12.9","","4.1","","55","","33","","6","","40.2","","99.93","","","","","","Mainly Clear"
"1998-09-22 18:00","1998","09","22","18:00","11.8","","2.5","","53","","33","","6","","40.2","","99.96","","","","","","Mainly Clear"
"1998-09-22 19:00","1998","09","22","19:00","11.1","","2.0","","53","","33","","4","","25.0","","99.96","","","","","","Mainly Clear"
"1998-09-22 20:00","1998","09","22","20:00","10.3","","2.2","","57","","30","","6","","25.0","","100.03","","","","","","Mostly Cloudy"
"1998-09-22 21:00","1998","09","22","21:00","10.4","","0.8","","51","","34","","13","","25.0","","100.06","","","","","","Mainly Clear"
"1998-09-22 22:00","1998","09","22","22:00","9.8","","0.6","","53","","35","","9","","25.0","","100.09","","","","","","Mostly Cloudy"
"1998-09-22 23:00","1998","09","22","23:00","8.9","","0.1","","54","","30","","9","","25.0","","100.16","","","","","","Mostly Cloudy"
"1998-09-23 00:00","1998","09","23","00:00","7.6","","0.2","","59","","34","","13","","25.0","","100.19","","","","","","Clear"
"1998-09-23 01:00","1998","09","23","01:00","7.1","","0.3","","62","","33","","11","","25.0","","100.23","","","","","","Clear"
"1998-09-23 02:00","1998","09","23","02:00","6.0","","0.4","","67","","32","","7","","25.0","","100.29","","","","","","Clear"
"1998-09-23 03:00","1998","09","23","03:00","5.9","","0.3","","67","","31","","11","","25.0","","100.36","","","","","","Clear"
"1998-09-23 04:00","1998","09","23","04:00","4.7","","0.2","","73","","29","","7","","25.0","","100.46","","","","","","Clear"
"1998-09-23 05:00","1998","09","23","05:00","3.9","","0.1","","76","","28","","7","","25.0","","100.49","","","","","","Clear"
"1998-09-23 06:00","1998","09","23","06:00","2.9","","0.0","","81","","26","","7","","32.2","","100.56","","","","","","Clear"
"1998-09-23 07:00","1998","09","23","07:00","4.7","","1.6","","80","","28","","9","","40.2","","100.63","","","","","","Clear"
"1998-09-23 08:00","1998","09","23","08:00","6.8","","3.5","","79","","30","","11","","40.2","","100.66","","","","","","Clear"
"1998-09-23 09:00","1998","09","23","09:00","8.8","","3.0","","67","","28","","9","","40.2","","100.70","","","","","","Clear"
"1998-09-23 10:00","1998","09","23","10:00","10.5","","2.0","","56","","30","","17","","40.2","","100.70","","","","","","Mainly Clear"
"1998-09-23 11:00","1998","09","23","11:00","11.3","","1.2","","50","","30","","17","","40.2","","100.63","","","","","","Mainly Clear"
"1998-09-23 12:00","1998","09","23","12:00","12.4","","0.7","","45","","28","","19","","40.2","","100.63","","","","","","Mainly Clear"
"1998-09-23 13:00","1998","09","23","13:00","12.8","","0.0","","41","","30","","17","","40.2","","100.60","","","","","","Mainly Clear"
"1998-09-23 14:00","1998","09","23","14:00","13.6","","0.3","","40","","30","","17","","40.2","","100.56","","","","","","Mainly Clear"
"1998-09-23 15:00","1998","09","23","15:00","13.7","","-0.1","","39","","29","","17","","40.2","","100.53","","","","","","Mainly Clear"
"1998-09-23 16:00","1998","09","23","16:00","13.5","","-1.1","","36","","31","","15","","40.2","","100.49","","","","","","Mainly Clear"
"1998-09-23 17:00","1998","09","23","17:00","13.3","","-1.3","","36","","28","","9","","40.2","","100.49","","","","","","Clear"
"1998-09-23 18:00","1998","09","23","18:00","12.1","","-1.1","","40","","30","","6","","40.2","","100.49","","","","","","Clear"
"1998-09-23 19:00","1998","09","23","19:00","10.8","","-0.8","","45","","","","0","","25.0","","100.53","","","","","","Clear"
"1998-09-23 20:00","1998","09","23","20:00","9.7","","-0.5","","49","","22","","2","","25.0","","100.53","","","","","","Clear"
"1998-09-23 21:00","1998","09","23","21:00","9.2","","0.0","","53","","19","","2","","25.0","","100.53","","","","","","Clear"
"1998-09-23 22:00","1998","09","23","22:00","7.5","","-0.2","","58","","20","","4","","25.0","","100.53","","","","","","Mainly Clear"
"1998-09-23 23:00","1998","09","23","23:00","6.7","","0.1","","63","","20","","4","","25.0","","100.53","","","","","","Mainly Clear"
"1998-09-24 00:00","1998","09","24","00:00","6.5","","0.0","","63","","21","","2","","25.0","","100.56","","","","","","Mainly Clear"
"1998-09-24 01:00","1998","09","24","01:00","5.3","","-0.2","","68","","21","","4","","25.0","","100.56","","","","","","Mainly Clear"
"1998-09-24 02:00","1998","09","24","02:00","4.8","","0.8","","75","","20","","4","","25.0","","100.56","","","","","","Mainly Clear"
"1998-09-24 03:00","1998","09","24","03:00","3.3","","0.3","","81","","20","","6","","25.0","","100.56","","","","","","Mainly Clear"
"1998-09-24 04:00","1998","09","24","04:00","2.9","","0.3","","83","","23","","6","","25.0","","100.60","","","","","","Mainly Clear"
"1998-09-24 05:00","1998","09","24","05:00","3.0","","0.7","","85","","21","","4","","25.0","","100.63","","","","","","Mostly Cloudy"
"1998-09-24 06:00","1998","09","24","06:00","3.5","","1.5","","87","","","","0","","32.2","","100.63","","","","","","Mostly Cloudy"
"1998-09-24 07:00","1998","09","24","07:00","4.3","","2.2","","86","","20","","4","","32.2","","100.63","","","","","","Mostly Cloudy"
"1998-09-24 08:00","1998","09","24","08:00","5.7","","3.1","","83","","20","","4","","32.2","","100.66","","","","","","Mostly Cloudy"
"1998-09-24 09:00","1998","09","24","09:00","9.5","","5.8","","78","","21","","7","","32.2","","100.63","","","","","","Mostly Cloudy"
"1998-09-24 10:00","1998","09","24","10:00","13.0","","5.4","","60","","19","","7","","32.2","","100.60","","","","","","Mostly Cloudy"
"1998-09-24 11:00","1998","09","24","11:00","12.8","","5.1","","59","","18","","6","","32.2","","100.53","","","","","","Cloudy"
"1998-09-24 12:00","1998","09","24","12:00","14.9","","6.3","","56","","20","","13","","32.2","","100.49","","","","","","Cloudy"
"1998-09-24 13:00","1998","09","24","13:00","15.1","","7.4","","60","","19","","9","","32.2","","100.43","","","","","","Cloudy"
"1998-09-24 14:00","1998","09","24","14:00","13.2","","9.0","","76","","21","","7","","24.1","","100.39","","","","","","Rain Showers"
"1998-09-24 15:00","1998","09","24","15:00","12.7","","9.8","","82","","17","","6","","32.2","","100.39","","","","","","Cloudy"
"1998-09-24 16:00","1998","09","24","16:00","12.9","","9.2","","78","","18","","7","","32.2","","100.39","","","","","","Cloudy"
"1998-09-24 17:00","1998","09","24","17:00","13.2","","8.6","","74","","19","","9","","24.1","","100.36","","","","","","Cloudy"
"1998-09-24 18:00","1998","09","24","18:00","13.2","","8.0","","71","","18","","7","","32.2","","100.36","","","","","","Cloudy"
"1998-09-24 19:00","1998","09","24","19:00","12.6","","7.9","","73","","17","","6","","25.0","","100.39","","","","","","Cloudy"
"1998-09-24 20:00","1998","09","24","20:00","12.4","","7.9","","74","","19","","9","","25.0","","100.39","","","","","","Rain Showers"
"1998-09-24 21:00","1998","09","24","21:00","12.7","","8.4","","75","","18","","6","","25.0","","100.39","","","","","","Cloudy"
"1998-09-24 22:00","1998","09","24","22:00","12.7","","8.5","","76","","17","","6","","25.0","","100.36","","","","","","Cloudy"
"1998-09-24 23:00","1998","09","24","23:00","12.7","","8.8","","77","","18","","6","","25.0","","100.33","","","","","","Cloudy"
"1998-09-25 00:00","1998","09","25","00:00","12.7","","8.7","","77","","17","","6","","25.0","","100.29","","","","","","Cloudy"
"1998-09-25 01:00","1998","09","25","01:00","12.5","","8.6","","77","","17","","7","","25.0","","100.29","","","","","","Cloudy"
"1998-09-25 02:00","1998","09","25","02:00","12.2","","8.6","","79","","17","","4","","24.1","","100.26","","","","","","Mainly Clear"
"1998-09-25 03:00","1998","09","25","03:00","11.2","","7.9","","80","","17","","4","","24.1","","100.26","","","","","","Mostly Cloudy"
"1998-09-25 04:00","1998","09","25","04:00","11.5","","7.9","","79","","17","","6","","24.1","","100.23","","","","","","Mostly Cloudy"
"1998-09-25 05:00","1998","09","25","05:00","11.6","","7.9","","78","","17","","6","","24.1","","100.23","","","","","","Mostly Cloudy"
"1998-09-25 06:00","1998","09","25","06:00","11.8","","8.4","","80","","16","","4","","24.1","","100.26","","","","","","Mostly Cloudy"
"1998-09-25 07:00","1998","09","25","07:00","11.8","","8.7","","81","","","","0","","24.1","","100.26","","","","","","Mostly Cloudy"
"1998-09-25 08:00","1998","09","25","08:00","13.3","","9.7","","79","","20","","4","","24.1","","100.26","","","","","","Mostly Cloudy"
"1998-09-25 09:00","1998","09","25","09:00","16.5","","11.5","","72","","20","","6","","24.1","","100.26","","","","","","Mostly Cloudy"
"1998-09-25 10:00","1998","09","25","10:00","17.5","","11.2","","67","","19","","9","","24.1","","100.23","","","","","","Mostly Cloudy"
"1998-09-25 11:00","1998","09","25","11:00","19.5","","11.7","","61","","18","","9","","24.1","","100.16","","","","","","Mainly Clear"
"1998-09-25 12:00","1998","09","25","12:00","20.9","","10.9","","53","","19","","13","","24.1","","100.16","","","","","","Mostly Cloudy"
"1998-09-25 13:00","1998","09","25","13:00","19.1","","11.1","","60","","16","","6","","32.2","","100.13","","","","","","Cloudy"
"1998-09-25 14:00","1998","09","25","14:00","18.9","","11.6","","63","","17","","6","","32.2","","100.13","","","","","","Cloudy"
"1998-09-25 15:00","1998","09","25","15:00","20.1","","11.3","","57","","20","","9","","32.2","","100.09","","","","","","Mainly Clear"
"1998-09-25 16:00","1998","09","25","16:00","20.1","","10.8","","55","","18","","6","","24.1","","100.06","","","","","","Mostly Cloudy"
"1998-09-25 17:00","1998","09","25","17:00","20.0","","10.5","","54","","19","","6","","24.1","","100.13","","","","","","Mostly Cloudy"
"1998-09-25 18:00","1998","09","25","18:00","18.6","","9.8","","57","","18","","6","","24.1","","100.16","","","","","","Mostly Cloudy"
"1998-09-25 19:00","1998","09","25","19:00","17.6","","9.2","","58","","18","","7","","24.1","","100.16","","","","","","Mainly Clear"
"1998-09-25 20:00","1998","09","25","20:00","16.2","","9.6","","65","","18","","6","","24.1","","100.19","","","","","","Mainly Clear"
"1998-09-25 21:00","1998","09","25","21:00","15.4","","9.8","","69","","18","","6","","24.1","","100.19","","","","","","Mainly Clear"
"1998-09-25 22:00","1998","09","25","22:00","14.6","","10.2","","75","","18","","6","","19.3","","100.19","","","","","","Mainly Clear"
"1998-09-25 23:00","1998","09","25","23:00","13.6","","10.4","","81","","18","","6","","16.1","","100.19","","","","","","Mainly Clear"
"1998-09-26 00:00","1998","09","26","00:00","13.1","","10.8","","86","","17","","4","","11.3","","100.23","","","","","","Mostly Cloudy"
"1998-09-26 01:00","1998","09","26","01:00","12.6","","11.0","","90","","21","","4","","8.0","","100.23","","","","","","Fog"
"1998-09-26 02:00","1998","09","26","02:00","11.7","","10.4","","92","","10","","2","","4.8","","100.16","","","","","","Fog"
"1998-09-26 03:00","1998","09","26","03:00","12.0","","10.8","","92","","9","","2","","4.8","","100.19","","","","","","Fog"
"1998-09-26 04:00","1998","09","26","04:00","11.2","","10.0","","92","","12","","4","","4.0","","100.16","","","","","","Fog"
"1998-09-26 05:00","1998","09","26","05:00","12.3","","11.4","","94","","15","","6","","4.0","","100.09","","","","","","Fog"
"1998-09-26 06:00","1998","09","26","06:00","13.4","","12.6","","95","","19","","6","","0.4","","100.16","","","","","","Fog"
"1998-09-26 07:00","1998","09","26","07:00","14.0","","13.8","","99","","19","","4","","0.4","","100.19","","","","","","Fog"
"1998-09-26 08:00","1998","09","26","08:00","15.2","","14.9","","98","","20","","4","","0.4","","100.16","","","","","","Fog"
"1998-09-26 09:00","1998","09","26","09:00","17.0","","16.5","","97","","20","","4","","1.6","","100.19","","","","","","Fog"
"1998-09-26 10:00","1998","09","26","10:00","19.0","","17.4","","90","","23","","11","","9.7","","100.23","","","","","","Fog"
"1998-09-26 11:00","1998","09","26","11:00","20.3","","16.6","","79","","23","","9","","12.9","","100.19","","25","","","","Cloudy"
"1998-09-26 12:00","1998","09","26","12:00","21.3","","16.7","","75","","21","","9","","19.3","","100.16","","26","","","","Cloudy"
"1998-09-26 13:00","1998","09","26","13:00","22.0","","16.9","","73","","18","","11","","19.3","","100.03","","27","","","","Mostly Cloudy"
"1998-09-26 14:00","1998","09","26","14:00","22.0","","17.0","","73","","16","","11","","16.1","","99.86","","27","","","","Cloudy"
"1998-09-26 15:00","1998","09","26","15:00","21.8","","17.6","","77","","17","","6","","12.9","","99.86","","28","","","","Cloudy"
"1998-09-26 16:00","1998","09","26","16:00","21.6","","17.6","","78","","16","","4","","16.1","","99.82","","27","","","","Cloudy"
"1998-09-26 17:00","1998","09","26","17:00","21.4","","17.8","","80","","","","0","","12.9","","99.89","","27","","","","Rain"
"1998-09-26 18:00","1998","09","26","18:00","20.2","","17.7","","86","","15","","6","","4.8","","99.69","","26","","","","Rain,Fog"
"1998-09-26 19:00","1998","09","26","19:00","19.5","","17.9","","90","","22","","13","","2.4","","99.62","","","","","","Thunderstorms,Heavy Rain Showers"
"1998-09-26 20:00","1998","09","26","20:00","19.5","","18.3","","93","","21","","17","","4.8","","99.42","","","","","","Rain,Fog"
"1998-09-26 21:00","1998","09","26","21:00","19.2","","18.0","","93","","16","","9","","16.1","","99.19","","","","","","Mostly Cloudy"
"1998-09-26 22:00","1998","09","26","22:00","18.7","","17.7","","94","","17","","6","","8.0","","99.15","","","","","","Fog"
"1998-09-26 23:00","1998","09","26","23:00","18.4","","17.5","","94","","19","","11","","16.1","","99.29","","","","","","Mostly Cloudy"
"1998-09-27 00:00","1998","09","27","00:00","18.0","","16.9","","93","","18","","13","","16.1","","99.19","","","","","","Thunderstorms,Rain Showers"
"1998-09-27 01:00","1998","09","27","01:00","17.8","","17.1","","96","","29","","9","","1.6","","99.39","","","","","","Heavy Thunderstorms,Heavy Rain Showers"
"1998-09-27 02:00","1998","09","27","02:00","17.5","","17.4","","99","","28","","11","","4.8","","99.26","","","","","","Thunderstorms,Moderate Rain Showers"
"1998-09-27 03:00","1998","09","27","03:00","17.4","","16.9","","97","","19","","9","","12.9","","99.19","","","","","","Rain Showers"
"1998-09-27 04:00","1998","09","27","04:00","17.2","","17.0","","99","","","","0","","25.0","","99.05","","","","","","Cloudy"
"1998-09-27 05:00","1998","09","27","05:00","17.5","","16.8","","96","","18","","9","","24.1","","98.99","","","","","","Rain Showers"
"1998-09-27 06:00","1998","09","27","06:00","18.1","","17.1","","94","","18","","13","","24.1","","98.95","","","","","","Cloudy"
"1998-09-27 07:00","1998","09","27","07:00","18.8","","17.8","","94","","19","","7","","4.8","","98.85","","","","","","Rain"
"1998-09-27 08:00","1998","09","27","08:00","20.1","","18.8","","92","","25","","7","","8.0","","98.85","","27","","","","Fog"
"1998-09-27 09:00","1998","09","27","09:00","21.6","","19.9","","90","","22","","11","","9.7","","98.85","","29","","","","Fog"
"1998-09-27 10:00","1998","09","27","10:00","24.5","","21.8","","85","","25","","20","","11.3","","98.79","","34","","","","Mostly Cloudy"
"1998-09-27 11:00","1998","09","27","11:00","26.0","","18.8","","65","","27","","19","","12.9","","98.72","","33","","","","Mostly Cloudy"
"1998-09-27 12:00","1998","09","27","12:00","26.8","","18.7","","61","","26","","19","","12.9","","98.72","","33","","","","Mostly Cloudy"
"1998-09-27 13:00","1998","09","27","13:00","27.2","","18.0","","57","","24","","24","","12.9","","98.69","","33","","","","Mainly Clear"
"1998-09-27 14:00","1998","09","27","14:00","24.1","","17.1","","65","","29","","44","","0.4","","98.72","","29","","","","Thunderstorms,Heavy Rain Showers,Fog"
"1998-09-27 15:00","1998","09","27","15:00","21.2","","19.4","","89","","25","","17","","16.1","","98.62","","28","","","","Rain Showers"
"1998-09-27 16:00","1998","09","27","16:00","21.4","","19.8","","91","","26","","15","","19.3","","98.59","","29","","","","Mainly Clear"
"1998-09-27 17:00","1998","09","27","17:00","21.9","","20.0","","89","","27","","13","","32.2","","98.59","","29","","","","Mainly Clear"
"1998-09-27 18:00","1998","09","27","18:00","21.1","","16.0","","73","","28","","13","","40.2","","98.65","","26","","","","Mostly Cloudy"
"1998-09-27 19:00","1998","09","27","19:00","19.8","","14.9","","73","","29","","9","","25.0","","98.72","","","","","","Mostly Cloudy"
"1998-09-27 20:00","1998","09","27","20:00","19.2","","13.7","","70","","34","","11","","25.0","","98.82","","","","","","Mostly Cloudy"
"1998-09-27 21:00","1998","09","27","21:00","16.4","","13.1","","81","","33","","6","","24.1","","98.89","","","","","","Rain Showers"
"1998-09-27 22:00","1998","09","27","22:00","16.2","","14.3","","89","","26","","6","","25.0","","98.95","","","","","","Mostly Cloudy"
"1998-09-27 23:00","1998","09","27","23:00","16.2","","13.8","","86","","27","","13","","25.0","","98.99","","","","","","Mostly Cloudy"
"1998-09-28 00:00","1998","09","28","00:00","15.6","","12.5","","82","","27","","11","","24.1","","99.02","","","","","","Rain Showers"
"1998-09-28 01:00","1998","09","28","01:00","15.1","","12.3","","83","","27","","9","","25.0","","99.05","","","","","","Mainly Clear"
"1998-09-28 02:00","1998","09","28","02:00","14.4","","12.0","","85","","27","","13","","19.3","","99.12","","","","","","Rain Showers"
"1998-09-28 03:00","1998","09","28","03:00","14.0","","12.3","","89","","27","","13","","25.0","","99.15","","","","","","Mainly Clear"
"1998-09-28 04:00","1998","09","28","04:00","13.5","","12.0","","91","","28","","15","","25.0","","99.19","","","","","","Clear"
"1998-09-28 05:00","1998","09","28","05:00","12.8","","10.8","","88","","27","","17","","25.0","","99.29","","","","","","Mainly Clear"
"1998-09-28 06:00","1998","09","28","06:00","12.2","","10.3","","88","","26","","9","","40.2","","99.39","","","","","","Mainly Clear"
"1998-09-28 07:00","1998","09","28","07:00","12.0","","9.2","","83","","28","","22","","40.2","","99.46","","","","","","Mainly Clear"
"1998-09-28 08:00","1998","09","28","08:00","11.9","","7.9","","76","","28","","26","","40.2","","99.52","","","","","","Mainly Clear"
"1998-09-28 09:00","1998","09","28","09:00","12.7","","6.6","","66","","28","","26","","40.2","","99.59","","","","","","Mainly Clear"
"1998-09-28 10:00","1998","09","28","10:00","13.0","","5.6","","61","","28","","26","","40.2","","99.66","","","","","","Mainly Clear"
"1998-09-28 11:00","1998","09","28","11:00","13.8","","5.6","","58","","29","","24","","40.2","","99.69","","","","","","Mainly Clear"
"1998-09-28 12:00","1998","09","28","12:00","14.1","","5.1","","55","","29","","24","","40.2","","99.76","","","","","","Mainly Clear"
"1998-09-28 13:00","1998","09","28","13:00","14.8","","4.9","","51","","28","","20","","40.2","","99.79","","","","","","Mainly Clear"
"1998-09-28 14:00","1998","09","28","14:00","15.6","","5.2","","50","","28","","20","","40.2","","99.86","","","","","","Mainly Clear"
"1998-09-28 15:00","1998","09","28","15:00","15.9","","5.1","","49","","28","","17","","40.2","","99.86","","","","","","Mainly Clear"
"1998-09-28 16:00","1998","09","28","16:00","16.1","","5.1","","48","","28","","19","","40.2","","99.86","","","","","","Clear"
"1998-09-28 17:00","1998","09","28","17:00","15.5","","4.8","","49","","29","","15","","40.2","","99.89","","","","","","Mainly Clear"
"1998-09-28 18:00","1998","09","28","18:00","14.3","","4.6","","52","","30","","9","","40.2","","99.96","","","","","","Clear"
"1998-09-28 19:00","1998","09","28","19:00","13.4","","4.8","","56","","30","","6","","25.0","","99.99","","","","","","Clear"
"1998-09-28 20:00","1998","09","28","20:00","12.3","","5.1","","61","","36","","6","","25.0","","100.06","","","","","","Clear"
"1998-09-28 21:00","1998","09","28","21:00","11.6","","5.1","","64","","36","","4","","25.0","","100.06","","","","","","Clear"
"1998-09-28 22:00","1998","09","28","22:00","10.4","","4.6","","67","","","","0","","25.0","","100.06","","","","","","Clear"
"1998-09-28 23:00","1998","09","28","23:00","10.2","","4.7","","69","","","","0","","25.0","","100.09","","","","","","Clear"
"1998-09-29 00:00","1998","09","29","00:00","8.9","","4.5","","74","","","","0","","25.0","","100.13","","","","","","Clear"
"1998-09-29 01:00","1998","09","29","01:00","8.9","","4.4","","73","","19","","6","","25.0","","100.16","","","","","","Clear"
"1998-09-29 02:00","1998","09","29","02:00","8.1","","4.7","","79","","","","0","","25.0","","100.16","","","","","","Clear"
"1998-09-29 03:00","1998","09","29","03:00","7.6","","4.5","","81","","22","","4","","25.0","","100.16","","","","","","Clear"
"1998-09-29 04:00","1998","09","29","04:00","7.1","","4.4","","83","","","","0","","25.0","","100.19","","","","","","Clear"
"1998-09-29 05:00","1998","09","29","05:00","7.2","","4.6","","84","","","","0","","25.0","","100.19","","","","","","Clear"
"1998-09-29 06:00","1998","09","29","06:00","8.8","","5.5","","80","","19","","4","","40.2","","100.19","","","","","","Clear"
"1998-09-29 07:00","1998","09","29","07:00","9.1","","5.2","","77","","18","","4","","40.2","","100.19","","","","","","Clear"
"1998-09-29 08:00","1998","09","29","08:00","10.9","","6.8","","76","","","","0","","32.2","","100.16","","","","","","Clear"
"1998-09-29 09:00","1998","09","29","09:00","12.2","","7.5","","73","","20","","6","","32.2","","100.16","","","","","","Clear"
"1998-09-29 10:00","1998","09","29","10:00","15.2","","8.1","","63","","23","","4","","32.2","","100.13","","","","","","Mainly Clear"
"1998-09-29 11:00","1998","09","29","11:00","17.1","","6.8","","51","","22","","11","","40.2","","100.06","","","","","","Mainly Clear"
"1998-09-29 12:00","1998","09","29","12:00","18.1","","6.0","","45","","24","","9","","40.2","","99.99","","","","","","Mostly Cloudy"
"1998-09-29 13:00","1998","09","29","13:00","18.1","","5.4","","43","","24","","19","","40.2","","99.89","","","","","","Mostly Cloudy"
"1998-09-29 14:00","1998","09","29","14:00","18.2","","5.6","","44","","23","","13","","32.2","","99.82","","","","","","Mostly Cloudy"
"1998-09-29 15:00","1998","09","29","15:00","18.0","","5.7","","44","","23","","13","","32.2","","99.82","","","","","","Mostly Cloudy"
"1998-09-29 16:00","1998","09","29","16:00","17.3","","6.0","","47","","22","","6","","32.2","","99.76","","","","","","Mostly Cloudy"
"1998-09-29 17:00","1998","09","29","17:00","16.8","","6.8","","52","","21","","4","","32.2","","99.76","","","","","","Mostly Cloudy"
"1998-09-29 18:00","1998","09","29","18:00","16.2","","8.9","","62","","20","","9","","32.2","","99.72","","","","","","Cloudy"
"1998-09-29 19:00","1998","09","29","19:00","15.3","","9.4","","68","","18","","7","","25.0","","99.72","","","","","","Cloudy"
"1998-09-29 20:00","1998","09","29","20:00","14.8","","9.4","","70","","20","","9","","25.0","","99.69","","","","","","Mostly Cloudy"
"1998-09-29 21:00","1998","09","29","21:00","14.3","","9.8","","74","","20","","9","","16.1","","99.69","","","","","","Rain Showers"
"1998-09-29 22:00","1998","09","29","22:00","13.2","","11.1","","87","","21","","6","","25.0","","99.69","","","","","","Rain Showers"
"1998-09-29 23:00","1998","09","29","23:00","13.0","","11.4","","90","","21","","4","","16.1","","99.69","","","","","","Rain Showers"
"1998-09-30 00:00","1998","09","30","00:00","12.8","","11.7","","93","","22","","4","","16.1","","99.66","","","","","","Rain Showers"
"1998-09-30 01:00","1998","09","30","01:00","13.0","","12.3","","96","","","","0","","16.1","","99.62","","","","","","Rain Showers"
"1998-09-30 02:00","1998","09","30","02:00","13.0","","12.0","","94","","17","","4","","25.0","","99.62","","","","","","Rain Showers"
"1998-09-30 03:00","1998","09","30","03:00","13.1","","11.9","","92","","21","","6","","16.1","","99.59","","","","","","Rain Showers"
"1998-09-30 04:00","1998","09","30","04:00","13.0","","12.2","","95","","21","","4","","25.0","","99.59","","","","","","Cloudy"
"1998-09-30 05:00","1998","09","30","05:00","13.2","","12.3","","94","","23","","4","","16.1","","99.59","","","","","","Cloudy"
"1998-09-30 06:00","1998","09","30","06:00","13.1","","12.7","","97","","26","","4","","4.8","","99.62","","","","","","Fog"
"1998-09-30 07:00","1998","09","30","07:00","13.6","","12.9","","96","","","","0","","6.4","","99.69","","","","","","Fog"
"1998-09-30 08:00","1998","09","30","08:00","14.1","","13.1","","94","","32","","4","","24.1","","99.72","","","","","","Cloudy"
"1998-09-30 09:00","1998","09","30","09:00","14.1","","11.6","","85","","1","","6","","40.2","","99.76","","","","","","Mostly Cloudy"
"1998-09-30 10:00","1998","09","30","10:00","15.1","","10.6","","74","","2","","6","","40.2","","99.76","","","","","","Mostly Cloudy"
"1998-09-30 11:00","1998","09","30","11:00","15.9","","10.7","","71","","1","","4","","40.2","","99.69","","","","","","Mostly Cloudy"
"1998-09-30 12:00","1998","09","30","12:00","17.5","","11.6","","68","","","","0","","40.2","","99.66","","","","","","Mainly Clear"
"1998-09-30 13:00","1998","09","30","13:00","16.8","","9.7","","63","","","","0","","40.2","","99.59","","","","","","Mostly Cloudy"
"1998-09-30 14:00","1998","09","30","14:00","17.0","","10.2","","64","","","","0","","40.2","","99.52","","","","","","Mostly Cloudy"
"1998-09-30 15:00","1998","09","30","15:00","17.6","","10.0","","61","","28","","4","","40.2","","99.46","","","","","","Mostly Cloudy"
"1998-09-30 16:00","1998","09","30","16:00","18.0","","9.8","","59","","","","0","","40.2","","99.39","","","","","","Mainly Clear"
"1998-09-30 17:00","1998","09","30","17:00","17.4","","9.6","","60","","","","0","","32.2","","99.39","","","","","","Mostly Cloudy"
"1998-09-30 18:00","1998","09","30","18:00","15.9","","9.3","","65","","","","0","","32.2","","99.39","","","","","","Mostly Cloudy"
"1998-09-30 19:00","1998","09","30","19:00","16.3","","9.7","","65","","","","0","","24.1","","99.36","","","","","","Mostly Cloudy"
"1998-09-30 20:00","1998","09","30","20:00","15.0","","9.9","","72","","12","","6","","24.1","","99.22","","","","","","Cloudy"
"1998-09-30 21:00","1998","09","30","21:00","14.5","","11.0","","79","","17","","4","","24.1","","99.19","","","","","","Cloudy"
"1998-09-30 22:00","1998","09","30","22:00","14.2","","11.6","","84","","16","","7","","24.1","","99.09","","","","","","Cloudy"
"1998-09-30 23:00","1998","09","30","23:00","14.4","","12.4","","88","","17","","6","","16.1","","98.92","","","","","","Rain"
