"Station Name","OTTAWA MACDONALD-CARTIER INT'L A"
"Province","ONTARIO"
"Latitude","45.32"
"Longitude","-75.67"
"Elevation","114.00"
"Climate Identifier","6106000"
"WMO Identifier","71628"
"TC Identifier","YOW"
"All times are specified in Local Standard Time (LST). Add 1 hour to adjust for Daylight Saving Time where and when it is observed."

"Legend"
"E","Estimated"
"M","Missing"
"NA","Not Available"

"Date/Time","Year","Month","Day","Time","Temp (°C)","Temp Flag","Dew Point Temp (°C)","Dew Point Temp Flag","Rel Hum (%)","Rel Hum Flag","Wind Dir (10s deg)","Wind Dir Flag","Wind Spd (km/h)","Wind Spd Flag","Visibility (km)","Visibility Flag","Stn Press (kPa)","Stn Press Flag","Hmdx","Hmdx Flag","Wind Chill","Wind Chill Flag","Weather"
"2000-10-01 00:00","2000","10","01","00:00","12.2","","8.6","","79","","20","","4","","24.1","","100.49","","","","","","Clear"
"2000-10-01 01:00","2000","10","01","01:00","12.2","","9.0","","81","","19","","9","","16.1","","100.53","","","","","","Clear"
"2000-10-01 02:00","2000","10","01","02:00","11.4","","8.9","","85","","19","","9","","16.1","","100.49","","","","","","Mainly Clear"
"2000-10-01 03:00","2000","10","01","03:00","11.7","","9.9","","89","","21","","11","","12.9","","100.49","","","","","","Mainly Clear"
"2000-10-01 04:00","2000","10","01","04:00","11.6","","10.6","","94","","21","","9","","8.0","","100.49","","","","","","Fog"
"2000-10-01 05:00","2000","10","01","05:00","10.6","","10.1","","97","","21","","7","","8.0","","100.49","","","","","","Fog"
"2000-10-01 06:00","2000","10","01","06:00","10.8","","10.6","","99","","18","","7","","1.6","","100.53","","","","","","Fog"
"2000-10-01 07:00","2000","10","01","07:00","11.3","","10.8","","97","","19","","7","","1.2","","100.49","","","","","","Fog"
"2000-10-01 08:00","2000","10","01","08:00","13.0","","12.3","","96","","21","","13","","4.0","","100.53","","","","","","Fog"
"2000-10-01 09:00","2000","10","01","09:00","14.9","","12.8","","87","","22","","15","","6.4","","100.53","","","","","","Fog"
"2000-10-01 10:00","2000","10","01","10:00","17.4","","12.9","","75","","22","","13","","24.1","","100.49","","","","","","Mostly Cloudy"
"2000-10-01 11:00","2000","10","01","11:00","20.1","","12.9","","63","","22","","15","","24.1","","100.46","","","","","","Mostly Cloudy"
"2000-10-01 12:00","2000","10","01","12:00","21.4","","12.5","","57","","21","","19","","40.2","","100.36","","","","","","Mainly Clear"
"2000-10-01 13:00","2000","10","01","13:00","22.1","","10.7","","48","","21","","19","","40.2","","100.29","","","","","","Mainly Clear"
"2000-10-01 14:00","2000","10","01","14:00","22.3","","10.7","","48","","22","","20","","40.2","","100.26","","","","","","Mainly Clear"
"2000-10-01 15:00","2000","10","01","15:00","22.4","","10.2","","46","","21","","19","","40.2","","100.23","","","","","","Mainly Clear"
"2000-10-01 16:00","2000","10","01","16:00","21.7","","10.5","","49","","20","","19","","40.2","","100.19","","","","","","Clear"
"2000-10-01 17:00","2000","10","01","17:00","20.2","","9.9","","52","","20","","19","","32.2","","100.19","","","","","","Mainly Clear"
"2000-10-01 18:00","2000","10","01","18:00","17.9","","10.1","","60","","20","","11","","24.1","","100.16","","","","","","Mainly Clear"
"2000-10-01 19:00","2000","10","01","19:00","16.4","","10.0","","66","","20","","11","","16.1","","100.19","","","","","","Mainly Clear"
"2000-10-01 20:00","2000","10","01","20:00","15.3","","10.2","","72","","19","","7","","16.1","","100.19","","","","","","Mainly Clear"
"2000-10-01 21:00","2000","10","01","21:00","14.5","","10.2","","75","","16","","4","","16.1","","100.19","","","","","","Clear"
"2000-10-01 22:00","2000","10","01","22:00","14.4","","10.5","","77","","18","","7","","16.1","","100.16","","","","","","Clear"
"2000-10-01 23:00","2000","10","01","23:00","13.4","","10.4","","82","","19","","7","","12.9","","100.13","","","","","","Clear"
"2000-10-02 00:00","2000","10","02","00:00","13.0","","10.2","","83","","17","","7","","12.9","","100.13","","","","","","Clear"
"2000-10-02 01:00","2000","10","02","01:00","12.4","","10.0","","85","","17","","7","","12.9","","100.09","","","","","","Clear"
"2000-10-02 02:00","2000","10","02","02:00","12.0","","9.6","","85","","17","","6","","12.9","","100.06","","","","","","Clear"
"2000-10-02 03:00","2000","10","02","03:00","11.9","","9.4","","85","","18","","9","","12.9","","100.03","","","","","","Clear"
"2000-10-02 04:00","2000","10","02","04:00","11.4","","9.3","","87","","18","","9","","12.9","","100.03","","","","","","Clear"
"2000-10-02 05:00","2000","10","02","05:00","11.1","","9.3","","89","","17","","7","","19.3","","100.03","","","","","","Clear"
"2000-10-02 06:00","2000","10","02","06:00","11.1","","9.4","","89","","16","","7","","12.9","","100.09","","","","","","Mainly Clear"
"2000-10-02 07:00","2000","10","02","07:00","11.4","","9.8","","90","","16","","7","","12.9","","100.03","","","","","","Mainly Clear"
"2000-10-02 08:00","2000","10","02","08:00","13.1","","11.0","","87","","16","","11","","16.1","","99.99","","","","","","Mainly Clear"
"2000-10-02 09:00","2000","10","02","09:00","16.0","","12.0","","77","","16","","17","","24.1","","99.93","","","","","","Mainly Clear"
"2000-10-02 10:00","2000","10","02","10:00","18.1","","12.2","","68","","18","","15","","24.1","","99.89","","","","","","Mainly Clear"
"2000-10-02 11:00","2000","10","02","11:00","20.0","","11.9","","60","","17","","19","","24.1","","99.76","","","","","","Mainly Clear"
"2000-10-02 12:00","2000","10","02","12:00","21.8","","11.6","","52","","19","","22","","24.1","","99.69","","","","","","Mainly Clear"
"2000-10-02 13:00","2000","10","02","13:00","22.4","","12.5","","53","","18","","20","","24.1","","99.59","","25","","","","Mainly Clear"
"2000-10-02 14:00","2000","10","02","14:00","22.8","","12.0","","51","","18","","22","","24.1","","99.52","","25","","","","Mainly Clear"
"2000-10-02 15:00","2000","10","02","15:00","22.1","","12.4","","54","","19","","19","","24.1","","99.46","","25","","","","Mostly Cloudy"
"2000-10-02 16:00","2000","10","02","16:00","21.1","","12.5","","58","","18","","17","","24.1","","99.42","","","","","","Rain"
"2000-10-02 17:00","2000","10","02","17:00","20.1","","12.2","","60","","17","","9","","24.1","","99.42","","","","","","Mostly Cloudy"
"2000-10-02 18:00","2000","10","02","18:00","19.2","","12.4","","65","","17","","15","","19.3","","99.36","","","","","","Mostly Cloudy"
"2000-10-02 19:00","2000","10","02","19:00","19.2","","12.4","","65","","17","","13","","19.3","","99.29","","","","","","Mostly Cloudy"
"2000-10-02 20:00","2000","10","02","20:00","19.2","","12.6","","66","","19","","17","","16.1","","99.29","","","","","","Rain"
"2000-10-02 21:00","2000","10","02","21:00","17.1","","13.9","","81","","24","","15","","16.1","","99.29","","","","","","Rain"
"2000-10-02 22:00","2000","10","02","22:00","16.9","","13.5","","80","","18","","11","","16.1","","99.19","","","","","","Mostly Cloudy"
"2000-10-02 23:00","2000","10","02","23:00","16.6","","13.2","","80","","20","","15","","16.1","","99.09","","","","","","Mainly Clear"
"2000-10-03 00:00","2000","10","03","00:00","16.3","","13.0","","81","","21","","15","","16.1","","99.09","","","","","","Mainly Clear"
"2000-10-03 01:00","2000","10","03","01:00","15.7","","13.0","","84","","21","","15","","16.1","","99.05","","","","","","Clear"
"2000-10-03 02:00","2000","10","03","02:00","15.5","","13.3","","87","","20","","9","","16.1","","99.05","","","","","","Clear"
"2000-10-03 03:00","2000","10","03","03:00","14.9","","13.4","","91","","20","","9","","12.9","","99.05","","","","","","Clear"
"2000-10-03 04:00","2000","10","03","04:00","14.5","","13.5","","94","","22","","7","","11.3","","99.09","","","","","","Clear"
"2000-10-03 05:00","2000","10","03","05:00","14.5","","13.7","","95","","23","","11","","12.9","","99.09","","","","","","Clear"
"2000-10-03 06:00","2000","10","03","06:00","14.3","","13.4","","94","","22","","11","","4.8","","99.15","","","","","","Fog"
"2000-10-03 07:00","2000","10","03","07:00","14.5","","13.5","","94","","23","","11","","6.4","","99.22","","","","","","Fog"
"2000-10-03 08:00","2000","10","03","08:00","15.8","","14.0","","89","","24","","13","","9.7","","99.29","","","","","","Fog"
"2000-10-03 09:00","2000","10","03","09:00","17.9","","14.3","","79","","27","","19","","24.1","","99.36","","","","","","Mainly Clear"
"2000-10-03 10:00","2000","10","03","10:00","18.9","","13.6","","71","","28","","22","","40.2","","99.42","","","","","","Mainly Clear"
"2000-10-03 11:00","2000","10","03","11:00","18.3","","12.8","","70","","29","","24","","40.2","","99.52","","","","","","Mainly Clear"
"2000-10-03 12:00","2000","10","03","12:00","20.0","","12.6","","62","","30","","26","","40.2","","99.59","","","","","","Mainly Clear"
"2000-10-03 13:00","2000","10","03","13:00","19.6","","11.8","","61","","28","","20","","40.2","","99.56","","","","","","Mainly Clear"
"2000-10-03 14:00","2000","10","03","14:00","20.5","","10.6","","53","","29","","30","","40.2","","99.59","","","","","","Mainly Clear"
"2000-10-03 15:00","2000","10","03","15:00","20.3","","10.0","","52","","29","","24","","40.2","","99.62","","","","","","Mainly Clear"
"2000-10-03 16:00","2000","10","03","16:00","19.4","","9.6","","53","","30","","19","","40.2","","99.66","","","","","","Mainly Clear"
"2000-10-03 17:00","2000","10","03","17:00","18.3","","9.0","","55","","29","","17","","40.2","","99.72","","","","","","Mainly Clear"
"2000-10-03 18:00","2000","10","03","18:00","16.6","","8.9","","60","","28","","9","","32.2","","99.79","","","","","","Mainly Clear"
"2000-10-03 19:00","2000","10","03","19:00","15.3","","8.8","","65","","27","","7","","25.0","","99.82","","","","","","Mostly Cloudy"
"2000-10-03 20:00","2000","10","03","20:00","14.4","","9.2","","71","","25","","9","","25.0","","99.89","","","","","","Mainly Clear"
"2000-10-03 21:00","2000","10","03","21:00","12.6","","8.9","","78","","23","","9","","25.0","","99.96","","","","","","Mainly Clear"
"2000-10-03 22:00","2000","10","03","22:00","12.3","","8.8","","79","","22","","11","","25.0","","100.03","","","","","","Mainly Clear"
"2000-10-03 23:00","2000","10","03","23:00","11.1","","7.2","","77","","25","","6","","25.0","","99.99","","","","","","Mainly Clear"
"2000-10-04 00:00","2000","10","04","00:00","10.9","","6.4","","74","","25","","9","","25.0","","99.96","","","","","","Mainly Clear"
"2000-10-04 01:00","2000","10","04","01:00","11.0","","6.2","","72","","24","","6","","25.0","","100.03","","","","","","Cloudy"
"2000-10-04 02:00","2000","10","04","02:00","10.8","","5.9","","72","","23","","7","","25.0","","100.06","","","","","","Mostly Cloudy"
"2000-10-04 03:00","2000","10","04","03:00","10.7","","5.7","","71","","24","","7","","25.0","","100.06","","","","","","Cloudy"
"2000-10-04 04:00","2000","10","04","04:00","10.9","","5.9","","71","","23","","6","","25.0","","100.03","","","","","","Cloudy"
"2000-10-04 05:00","2000","10","04","05:00","11.1","","5.8","","70","","19","","6","","25.0","","100.06","","","","","","Cloudy"
"2000-10-04 06:00","2000","10","04","06:00","10.8","","6.6","","75","","21","","9","","40.2","","100.09","","","","","","Mostly Cloudy"
"2000-10-04 07:00","2000","10","04","07:00","11.1","","6.5","","73","","24","","4","","40.2","","100.13","","","","","","Cloudy"
"2000-10-04 08:00","2000","10","04","08:00","11.3","","7.5","","77","","21","","7","","32.2","","100.19","","","","","","Rain Showers"
"2000-10-04 09:00","2000","10","04","09:00","10.8","","8.7","","87","","19","","9","","24.1","","100.19","","","","","","Rain"
"2000-10-04 10:00","2000","10","04","10:00","11.0","","9.8","","92","","19","","11","","32.2","","100.16","","","","","","Rain"
"2000-10-04 11:00","2000","10","04","11:00","11.3","","10.1","","92","","20","","15","","32.2","","100.16","","","","","","Rain"
"2000-10-04 12:00","2000","10","04","12:00","11.4","","10.5","","94","","19","","9","","24.1","","100.09","","","","","","Rain"
"2000-10-04 13:00","2000","10","04","13:00","11.4","","10.0","","91","","19","","17","","32.2","","99.96","","","","","","Mostly Cloudy"
"2000-10-04 14:00","2000","10","04","14:00","11.3","","10.2","","93","","20","","11","","40.2","","99.99","","","","","","Mostly Cloudy"
"2000-10-04 15:00","2000","10","04","15:00","12.8","","10.8","","88","","19","","13","","40.2","","99.99","","","","","","Mostly Cloudy"
"2000-10-04 16:00","2000","10","04","16:00","13.0","","10.0","","82","","20","","15","","40.2","","99.99","","","","","","Mainly Clear"
"2000-10-04 17:00","2000","10","04","17:00","12.1","","9.8","","86","","20","","9","","40.2","","99.99","","","","","","Mainly Clear"
"2000-10-04 18:00","2000","10","04","18:00","11.3","","9.8","","90","","19","","9","","40.2","","100.06","","","","","","Mainly Clear"
"2000-10-04 19:00","2000","10","04","19:00","10.6","","9.3","","92","","19","","9","","25.0","","100.06","","","","","","Mainly Clear"
"2000-10-04 20:00","2000","10","04","20:00","10.1","","9.3","","95","","20","","7","","25.0","","100.09","","","","","","Mostly Cloudy"
"2000-10-04 21:00","2000","10","04","21:00","10.4","","9.6","","95","","25","","6","","24.1","","100.09","","","","","","Mainly Clear"
"2000-10-04 22:00","2000","10","04","22:00","9.6","","9.1","","97","","29","","7","","24.1","","100.19","","","","","","Mainly Clear"
"2000-10-04 23:00","2000","10","04","23:00","9.3","","8.9","","97","","31","","9","","24.1","","100.26","","","","","","Mainly Clear"
"2000-10-05 00:00","2000","10","05","00:00","8.9","","6.1","","83","","35","","9","","25.0","","100.39","","","","","","Mainly Clear"
"2000-10-05 01:00","2000","10","05","01:00","8.0","","5.1","","82","","35","","17","","25.0","","100.43","","","","","","Mainly Clear"
"2000-10-05 02:00","2000","10","05","02:00","6.8","","4.1","","83","","1","","11","","25.0","","100.43","","","","","","Mainly Clear"
"2000-10-05 03:00","2000","10","05","03:00","6.1","","3.3","","82","","1","","13","","25.0","","100.53","","","","","","Clear"
"2000-10-05 04:00","2000","10","05","04:00","5.4","","2.7","","83","","36","","13","","25.0","","100.60","","","","","","Clear"
"2000-10-05 05:00","2000","10","05","05:00","5.0","","2.2","","82","","36","","13","","25.0","","100.60","","","","","","Mainly Clear"
"2000-10-05 06:00","2000","10","05","06:00","4.6","","1.0","","77","","1","","11","","40.2","","100.63","","","","","","Mainly Clear"
"2000-10-05 07:00","2000","10","05","07:00","4.8","","1.0","","76","","4","","9","","40.2","","100.70","","","","","","Mostly Cloudy"
"2000-10-05 08:00","2000","10","05","08:00","7.3","","1.0","","64","","5","","13","","40.2","","100.70","","","","","","Mostly Cloudy"
"2000-10-05 09:00","2000","10","05","09:00","8.4","","1.3","","61","","7","","13","","40.2","","100.70","","","","","","Mostly Cloudy"
"2000-10-05 10:00","2000","10","05","10:00","9.6","","1.7","","58","","8","","15","","40.2","","100.70","","","","","","Mostly Cloudy"
"2000-10-05 11:00","2000","10","05","11:00","10.2","","1.1","","53","","5","","7","","40.2","","100.66","","","","","","Cloudy"
"2000-10-05 12:00","2000","10","05","12:00","10.8","","0.8","","50","","4","","11","","40.2","","100.60","","","","","","Cloudy"
"2000-10-05 13:00","2000","10","05","13:00","10.5","","-0.6","","46","","5","","13","","40.2","","100.49","","","","","","Mostly Cloudy"
"2000-10-05 14:00","2000","10","05","14:00","10.6","","1.3","","53","","7","","13","","40.2","","100.46","","","","","","Cloudy"
"2000-10-05 15:00","2000","10","05","15:00","10.4","","1.4","","54","","6","","15","","40.2","","100.46","","","","","","Cloudy"
"2000-10-05 16:00","2000","10","05","16:00","10.0","","2.0","","57","","7","","11","","40.2","","100.36","","","","","","Cloudy"
"2000-10-05 17:00","2000","10","05","17:00","9.6","","1.9","","59","","8","","11","","40.2","","100.33","","","","","","Cloudy"
"2000-10-05 18:00","2000","10","05","18:00","8.8","","2.6","","65","","5","","11","","32.2","","100.36","","","","","","Cloudy"
"2000-10-05 19:00","2000","10","05","19:00","8.4","","3.1","","69","","6","","17","","25.0","","100.29","","","","","","Rain"
"2000-10-05 20:00","2000","10","05","20:00","7.5","","3.8","","77","","7","","19","","24.1","","100.29","","","","","","Rain"
"2000-10-05 21:00","2000","10","05","21:00","6.5","","4.1","","85","","7","","20","","19.3","","100.29","","","","","","Rain"
"2000-10-05 22:00","2000","10","05","22:00","5.9","","4.1","","88","","7","","17","","19.3","","100.26","","","","","","Rain"
"2000-10-05 23:00","2000","10","05","23:00","5.7","","4.6","","93","","6","","17","","16.1","","100.19","","","","","","Rain"
"2000-10-06 00:00","2000","10","06","00:00","5.3","","4.3","","93","","7","","17","","16.1","","100.09","","","","","","Rain"
"2000-10-06 01:00","2000","10","06","01:00","5.1","","4.2","","94","","6","","17","","19.3","","99.99","","","","","","Rain"
"2000-10-06 02:00","2000","10","06","02:00","5.0","","4.2","","95","","6","","17","","24.1","","99.93","","","","","","Rain"
"2000-10-06 03:00","2000","10","06","03:00","4.9","","4.3","","96","","4","","17","","24.1","","99.89","","","","","","Rain"
"2000-10-06 04:00","2000","10","06","04:00","4.9","","4.3","","96","","4","","19","","12.9","","99.79","","","","","","Drizzle"
"2000-10-06 05:00","2000","10","06","05:00","5.1","","4.7","","97","","4","","20","","9.7","","99.76","","","","","","Drizzle,Fog"
"2000-10-06 06:00","2000","10","06","06:00","5.4","","5.2","","99","","2","","19","","4.8","","99.79","","","","","","Drizzle,Fog"
"2000-10-06 07:00","2000","10","06","07:00","5.5","","5.4","","99","","2","","20","","2.8","","99.76","","","","","","Drizzle,Fog"
"2000-10-06 08:00","2000","10","06","08:00","5.5","","5.4","","99","","1","","19","","3.2","","99.76","","","","","","Rain,Drizzle,Fog"
"2000-10-06 09:00","2000","10","06","09:00","5.8","","5.6","","99","","1","","17","","8.0","","99.76","","","","","","Rain,Drizzle,Fog"
"2000-10-06 10:00","2000","10","06","10:00","6.4","","6.2","","99","","2","","15","","6.4","","99.72","","","","","","Drizzle,Fog"
"2000-10-06 11:00","2000","10","06","11:00","6.6","","6.0","","96","","36","","13","","6.4","","99.72","","","","","","Drizzle,Fog"
"2000-10-06 12:00","2000","10","06","12:00","6.9","","6.6","","98","","33","","13","","3.2","","99.76","","","","","","Drizzle,Fog"
"2000-10-06 13:00","2000","10","06","13:00","6.9","","6.6","","98","","33","","13","","9.7","","99.72","","","","","","Fog"
"2000-10-06 14:00","2000","10","06","14:00","6.5","","6.4","","99","","32","","15","","4.0","","99.79","","","","","","Drizzle,Fog"
"2000-10-06 15:00","2000","10","06","15:00","7.4","","6.1","","91","","29","","11","","32.2","","99.82","","","","","","Cloudy"
"2000-10-06 16:00","2000","10","06","16:00","7.2","","5.4","","88","","27","","19","","32.2","","99.93","","","","","","Cloudy"
"2000-10-06 17:00","2000","10","06","17:00","6.8","","4.6","","86","","31","","19","","40.2","","99.99","","","","","","Cloudy"
"2000-10-06 18:00","2000","10","06","18:00","6.6","","4.5","","86","","30","","9","","32.2","","100.06","","","","","","Cloudy"
"2000-10-06 19:00","2000","10","06","19:00","6.6","","3.9","","83","","27","","9","","25.0","","100.13","","","","","","Cloudy"
"2000-10-06 20:00","2000","10","06","20:00","6.6","","3.9","","83","","30","","11","","25.0","","100.16","","","","","","Cloudy"
"2000-10-06 21:00","2000","10","06","21:00","6.6","","3.7","","82","","28","","7","","25.0","","100.16","","","","","","Cloudy"
"2000-10-06 22:00","2000","10","06","22:00","6.5","","3.1","","79","","32","","9","","25.0","","100.16","","","","","","Mostly Cloudy"
"2000-10-06 23:00","2000","10","06","23:00","5.6","","2.6","","81","","","","0","","25.0","","100.16","","","","","","Mainly Clear"
"2000-10-07 00:00","2000","10","07","00:00","5.0","","2.5","","84","","19","","7","","25.0","","100.13","","","","","","Mostly Cloudy"
"2000-10-07 01:00","2000","10","07","01:00","5.0","","4.5","","97","","29","","6","","24.1","","100.19","","","","","","Cloudy"
"2000-10-07 02:00","2000","10","07","02:00","5.2","","3.7","","90","","33","","7","","24.1","","100.19","","","","","","Cloudy"
"2000-10-07 03:00","2000","10","07","03:00","4.6","","2.1","","84","","34","","9","","25.0","","100.19","","","","","","Mostly Cloudy"
"2000-10-07 04:00","2000","10","07","04:00","4.4","","2.2","","86","","35","","9","","25.0","","100.23","","","","","","Mostly Cloudy"
"2000-10-07 05:00","2000","10","07","05:00","3.8","","1.5","","85","","34","","17","","25.0","","100.26","","","","","","Cloudy"
"2000-10-07 06:00","2000","10","07","06:00","3.7","","1.2","","84","","34","","13","","32.2","","100.26","","","","","","Mostly Cloudy"
"2000-10-07 07:00","2000","10","07","07:00","3.5","","0.8","","82","","33","","11","","40.2","","100.29","","","","","","Mostly Cloudy"
"2000-10-07 08:00","2000","10","07","08:00","4.3","","1.0","","79","","33","","15","","40.2","","100.33","","","","","","Mostly Cloudy"
"2000-10-07 09:00","2000","10","07","09:00","5.2","","1.5","","77","","32","","15","","40.2","","100.33","","","","","","Mostly Cloudy"
"2000-10-07 10:00","2000","10","07","10:00","6.1","","1.8","","74","","34","","11","","40.2","","100.33","","","","","","Mostly Cloudy"
"2000-10-07 11:00","2000","10","07","11:00","6.6","","0.4","","65","","33","","7","","40.2","","100.33","","","","","","Mostly Cloudy"
"2000-10-07 12:00","2000","10","07","12:00","7.1","","0.4","","62","","34","","7","","40.2","","100.33","","","","","","Mostly Cloudy"
"2000-10-07 13:00","2000","10","07","13:00","7.0","","0.0","","61","","31","","11","","40.2","","100.29","","","","","","Mostly Cloudy"
"2000-10-07 14:00","2000","10","07","14:00","7.1","","0.9","","65","","30","","11","","40.2","","100.33","","","","","","Mostly Cloudy"
"2000-10-07 15:00","2000","10","07","15:00","8.1","","0.5","","59","","30","","15","","40.2","","100.33","","","","","","Mostly Cloudy"
"2000-10-07 16:00","2000","10","07","16:00","7.2","","0.7","","63","","30","","17","","40.2","","100.39","","","","","","Cloudy"
"2000-10-07 17:00","2000","10","07","17:00","6.6","","0.7","","66","","35","","9","","40.2","","100.43","","","","","","Mostly Cloudy"
"2000-10-07 18:00","2000","10","07","18:00","6.1","","0.0","","65","","34","","13","","40.2","","100.46","","","","","","Mostly Cloudy"
"2000-10-07 19:00","2000","10","07","19:00","5.6","","1.0","","72","","33","","13","","24.1","","100.49","","","","","","Mostly Cloudy"
"2000-10-07 20:00","2000","10","07","20:00","5.2","","1.4","","76","","32","","15","","24.1","","100.49","","","","","","Mostly Cloudy"
"2000-10-07 21:00","2000","10","07","21:00","4.6","","0.8","","76","","35","","15","","24.1","","100.49","","","","","","Mostly Cloudy"
"2000-10-07 22:00","2000","10","07","22:00","3.2","","0.7","","84","","33","","15","","24.1","","100.53","","","","","","Mainly Clear"
"2000-10-07 23:00","2000","10","07","23:00","2.2","","0.6","","89","","32","","11","","24.1","","100.53","","","","","","Mostly Cloudy"
"2000-10-08 00:00","2000","10","08","00:00","2.2","","0.7","","90","","32","","15","","24.1","","100.53","","","","","","Mostly Cloudy"
"2000-10-08 01:00","2000","10","08","01:00","2.2","","0.3","","87","","31","","17","","24.1","","100.53","","","","","","Mostly Cloudy"
"2000-10-08 02:00","2000","10","08","02:00","1.9","","0.0","","87","","31","","15","","24.1","","100.49","","","","","","Mostly Cloudy"
"2000-10-08 03:00","2000","10","08","03:00","1.5","","-0.5","","87","","31","","13","","24.1","","100.49","","","","","","Mainly Clear"
"2000-10-08 04:00","2000","10","08","04:00","2.2","","-0.3","","84","","31","","17","","24.1","","100.49","","","","","","Mostly Cloudy"
"2000-10-08 05:00","2000","10","08","05:00","1.8","","-0.3","","86","","29","","17","","25.0","","100.53","","","","","","Mostly Cloudy"
"2000-10-08 06:00","2000","10","08","06:00","1.4","","-0.6","","87","","31","","15","","32.2","","100.56","","","","","","Mostly Cloudy"
"2000-10-08 07:00","2000","10","08","07:00","2.1","","-0.4","","83","","31","","19","","40.2","","100.56","","","","","","Mainly Clear"
"2000-10-08 08:00","2000","10","08","08:00","2.7","","-0.5","","79","","31","","22","","40.2","","100.63","","","","","","Mostly Cloudy"
"2000-10-08 09:00","2000","10","08","09:00","3.4","","-0.7","","74","","29","","22","","40.2","","100.66","","","","","","Mostly Cloudy"
"2000-10-08 10:00","2000","10","08","10:00","4.1","","-0.9","","70","","29","","20","","40.2","","100.70","","","","","","Mostly Cloudy"
"2000-10-08 11:00","2000","10","08","11:00","4.9","","-2.6","","58","","33","","24","","40.2","","100.70","","","","","","Mostly Cloudy"
"2000-10-08 12:00","2000","10","08","12:00","4.9","","-1.6","","63","","32","","15","","40.2","","100.70","","","","","","Mostly Cloudy"
"2000-10-08 13:00","2000","10","08","13:00","5.4","","-2.0","","59","","28","","19","","40.2","","100.70","","","","","","Mostly Cloudy"
"2000-10-08 14:00","2000","10","08","14:00","4.9","","-2.4","","59","","30","","17","","40.2","","100.73","","","","","","Mostly Cloudy"
"2000-10-08 15:00","2000","10","08","15:00","5.1","","-2.4","","58","","29","","11","","40.2","","100.76","","","","","","Mostly Cloudy"
"2000-10-08 16:00","2000","10","08","16:00","4.9","","-2.2","","60","","31","","19","","40.2","","100.80","","","","","","Mostly Cloudy"
"2000-10-08 17:00","2000","10","08","17:00","4.2","","-1.6","","66","","31","","22","","16.1","","100.86","","","","","","Snow Pellets"
"2000-10-08 18:00","2000","10","08","18:00","3.0","","-0.7","","77","","25","","7","","32.2","","100.90","","","","","","Mostly Cloudy"
"2000-10-08 19:00","2000","10","08","19:00","2.5","","-0.1","","83","","26","","7","","24.1","","100.93","","","","","","Mostly Cloudy"
"2000-10-08 20:00","2000","10","08","20:00","2.6","","-0.3","","81","","32","","11","","24.1","","100.96","","","","","","Mostly Cloudy"
"2000-10-08 21:00","2000","10","08","21:00","1.9","","-1.4","","79","","32","","11","","24.1","","100.96","","","","","","Mostly Cloudy"
"2000-10-08 22:00","2000","10","08","22:00","2.0","","-1.4","","78","","31","","11","","24.1","","101.00","","","","","","Mostly Cloudy"
"2000-10-08 23:00","2000","10","08","23:00","2.0","","-0.6","","83","","31","","11","","24.1","","101.03","","","","","","Mostly Cloudy"
"2000-10-09 00:00","2000","10","09","00:00","2.1","","-1.5","","77","","32","","15","","24.1","","101.03","","","","","","Cloudy"
"2000-10-09 01:00","2000","10","09","01:00","1.9","","-1.3","","79","","33","","9","","24.1","","101.03","","","","","","Mostly Cloudy"
"2000-10-09 02:00","2000","10","09","02:00","1.8","","-1.2","","80","","32","","11","","24.1","","101.00","","","","","","Mostly Cloudy"
"2000-10-09 03:00","2000","10","09","03:00","1.7","","-1.5","","79","","34","","13","","24.1","","100.96","","","","","","Mostly Cloudy"
"2000-10-09 04:00","2000","10","09","04:00","0.7","","-1.7","","84","","33","","11","","24.1","","100.96","","","","","","Mainly Clear"
"2000-10-09 05:00","2000","10","09","05:00","-0.1","","-1.9","","88","","33","","7","","24.1","","101.00","","","","-3","","Mainly Clear"
"2000-10-09 06:00","2000","10","09","06:00","-0.2","","-2.0","","88","","34","","7","","32.2","","101.03","","","","-3","","Clear"
"2000-10-09 07:00","2000","10","09","07:00","-0.6","","-2.2","","89","","32","","6","","40.2","","101.06","","","","-3","","Mainly Clear"
"2000-10-09 08:00","2000","10","09","08:00","1.6","","-1.1","","82","","1","","9","","40.2","","101.03","","","","","","Mainly Clear"
"2000-10-09 09:00","2000","10","09","09:00","3.7","","-1.9","","67","","2","","11","","40.2","","101.03","","","","","","Mainly Clear"
"2000-10-09 10:00","2000","10","09","10:00","5.2","","-2.7","","57","","3","","13","","40.2","","101.00","","","","","","Mainly Clear"
"2000-10-09 11:00","2000","10","09","11:00","5.7","","-3.8","","50","","36","","7","","40.2","","100.96","","","","","","Mostly Cloudy"
"2000-10-09 12:00","2000","10","09","12:00","6.6","","-4.3","","46","","30","","4","","40.2","","100.90","","","","","","Mostly Cloudy"
"2000-10-09 13:00","2000","10","09","13:00","5.9","","-5.1","","45","","2","","7","","40.2","","100.80","","","","","","Mostly Cloudy"
"2000-10-09 14:00","2000","10","09","14:00","5.9","","-4.6","","47","","32","","9","","40.2","","100.76","","","","","","Cloudy"
"2000-10-09 15:00","2000","10","09","15:00","5.9","","-4.2","","48","","31","","13","","40.2","","100.70","","","","","","Mostly Cloudy"
"2000-10-09 16:00","2000","10","09","16:00","5.8","","-4.2","","49","","29","","7","","40.2","","100.70","","","","","","Mostly Cloudy"
"2000-10-09 17:00","2000","10","09","17:00","5.3","","-4.4","","50","","30","","13","","40.2","","100.66","","","","","","Mostly Cloudy"
"2000-10-09 18:00","2000","10","09","18:00","4.8","","-3.9","","53","","34","","13","","24.1","","100.66","","","","","","Mostly Cloudy"
"2000-10-09 19:00","2000","10","09","19:00","4.7","","-3.8","","54","","35","","13","","24.1","","100.66","","","","","","Mostly Cloudy"
"2000-10-09 20:00","2000","10","09","20:00","4.3","","-3.5","","57","","36","","13","","24.1","","100.63","","","","","","Mostly Cloudy"
"2000-10-09 21:00","2000","10","09","21:00","3.7","","-3.3","","60","","3","","9","","24.1","","100.60","","","","","","Mostly Cloudy"
"2000-10-09 22:00","2000","10","09","22:00","3.5","","-3.3","","61","","4","","6","","24.1","","100.53","","","","","","Mostly Cloudy"
"2000-10-09 23:00","2000","10","09","23:00","3.0","","-2.9","","65","","33","","6","","24.1","","100.46","","","","","","Mostly Cloudy"
"2000-10-10 00:00","2000","10","10","00:00","2.8","","-2.1","","70","","33","","7","","24.1","","100.43","","","","","","Mostly Cloudy"
"2000-10-10 01:00","2000","10","10","01:00","2.3","","-2.0","","73","","33","","13","","24.1","","100.39","","","","","","Mostly Cloudy"
"2000-10-10 02:00","2000","10","10","02:00","2.3","","-1.6","","75","","32","","13","","24.1","","100.29","","","","","","Snow Showers"
"2000-10-10 03:00","2000","10","10","03:00","2.3","","-1.1","","78","","33","","9","","24.1","","100.23","","","","","","Snow Showers"
"2000-10-10 04:00","2000","10","10","04:00","2.2","","-0.8","","81","","32","","11","","24.1","","100.23","","","","","","Cloudy"
"2000-10-10 05:00","2000","10","10","05:00","2.2","","-0.6","","82","","34","","7","","25.0","","100.23","","","","","","Snow"
"2000-10-10 06:00","2000","10","10","06:00","2.1","","-0.4","","83","","33","","11","","32.2","","100.19","","","","","","Cloudy"
"2000-10-10 07:00","2000","10","10","07:00","2.3","","-0.3","","83","","31","","9","","40.2","","100.19","","","","","","Mostly Cloudy"
"2000-10-10 08:00","2000","10","10","08:00","2.9","","-0.3","","79","","27","","9","","40.2","","100.09","","","","","","Mostly Cloudy"
"2000-10-10 09:00","2000","10","10","09:00","2.9","","0.4","","84","","27","","17","","40.2","","100.03","","","","","","Mostly Cloudy"
"2000-10-10 10:00","2000","10","10","10:00","2.0","","0.7","","91","","30","","13","","16.1","","100.03","","","","","","Rain,Snow"
"2000-10-10 11:00","2000","10","10","11:00","0.9","","0.5","","97","","29","","13","","1.6","","100.03","","","","","","Snow"
"2000-10-10 12:00","2000","10","10","12:00","2.7","","2.2","","97","","27","","11","","16.1","","99.96","","","","","","Cloudy"
"2000-10-10 13:00","2000","10","10","13:00","3.1","","2.2","","94","","28","","15","","40.2","","99.86","","","","","","Cloudy"
"2000-10-10 14:00","2000","10","10","14:00","3.1","","1.8","","91","","28","","15","","32.2","","99.79","","","","","","Cloudy"
"2000-10-10 15:00","2000","10","10","15:00","3.3","","2.0","","91","","27","","6","","32.2","","99.72","","","","","","Mostly Cloudy"
"2000-10-10 16:00","2000","10","10","16:00","3.8","","2.3","","90","","21","","4","","32.2","","99.76","","","","","","Cloudy"
"2000-10-10 17:00","2000","10","10","17:00","3.6","","2.5","","93","","15","","6","","32.2","","99.72","","","","","","Cloudy"
"2000-10-10 18:00","2000","10","10","18:00","3.6","","2.4","","92","","20","","6","","24.1","","99.72","","","","","","Cloudy"
"2000-10-10 19:00","2000","10","10","19:00","3.6","","2.5","","93","","23","","9","","24.1","","99.66","","","","","","Cloudy"
"2000-10-10 20:00","2000","10","10","20:00","3.4","","2.4","","93","","23","","7","","24.1","","99.66","","","","","","Cloudy"
"2000-10-10 21:00","2000","10","10","21:00","3.8","","2.2","","89","","24","","9","","24.1","","99.62","","","","","","Cloudy"
"2000-10-10 22:00","2000","10","10","22:00","3.5","","1.9","","89","","24","","11","","24.1","","99.59","","","","","","Cloudy"
"2000-10-10 23:00","2000","10","10","23:00","3.9","","2.0","","87","","23","","11","","24.1","","99.56","","","","","","Mostly Cloudy"
"2000-10-11 00:00","2000","10","11","00:00","3.5","","1.4","","86","","22","","11","","24.1","","99.49","","","","","","Mostly Cloudy"
"2000-10-11 01:00","2000","10","11","01:00","3.2","","1.0","","85","","23","","11","","24.1","","99.46","","","","","","Mainly Clear"
"2000-10-11 02:00","2000","10","11","02:00","3.4","","0.7","","82","","25","","13","","24.1","","99.42","","","","","","Mostly Cloudy"
"2000-10-11 03:00","2000","10","11","03:00","3.4","","0.6","","82","","24","","11","","24.1","","99.49","","","","","","Mostly Cloudy"
"2000-10-11 04:00","2000","10","11","04:00","2.9","","0.6","","85","","24","","15","","24.1","","99.52","","","","","","Mainly Clear"
"2000-10-11 05:00","2000","10","11","05:00","2.7","","0.4","","85","","23","","13","","24.1","","99.62","","","","","","Clear"
"2000-10-11 06:00","2000","10","11","06:00","2.3","","-0.2","","84","","25","","9","","40.2","","99.72","","","","","","Clear"
"2000-10-11 07:00","2000","10","11","07:00","3.3","","-0.4","","77","","25","","13","","40.2","","99.82","","","","","","Clear"
"2000-10-11 08:00","2000","10","11","08:00","5.7","","1.0","","72","","26","","11","","40.2","","99.99","","","","","","Mainly Clear"
"2000-10-11 09:00","2000","10","11","09:00","7.7","","1.1","","63","","30","","26","","40.2","","100.06","","","","","","Mainly Clear"
"2000-10-11 10:00","2000","10","11","10:00","9.0","","0.4","","55","","28","","22","","40.2","","100.09","","","","","","Mainly Clear"
"2000-10-11 11:00","2000","10","11","11:00","11.0","","0.5","","48","","29","","24","","40.2","","100.16","","","","","","Mainly Clear"
"2000-10-11 12:00","2000","10","11","12:00","12.2","","-0.4","","42","","29","","22","","40.2","","100.19","","","","","","Mainly Clear"
"2000-10-11 13:00","2000","10","11","13:00","13.1","","-0.4","","39","","28","","28","","40.2","","100.19","","","","","","Mainly Clear"
"2000-10-11 14:00","2000","10","11","14:00","14.0","","-0.4","","37","","30","","22","","40.2","","100.26","","","","","","Clear"
"2000-10-11 15:00","2000","10","11","15:00","14.6","","-0.2","","36","","29","","28","","40.2","","100.29","","","","","","Clear"
"2000-10-11 16:00","2000","10","11","16:00","14.8","","0.0","","36","","28","","19","","40.2","","100.33","","","","","","Clear"
"2000-10-11 17:00","2000","10","11","17:00","13.6","","0.6","","41","","26","","13","","40.2","","100.39","","","","","","Clear"
"2000-10-11 18:00","2000","10","11","18:00","11.0","","0.3","","48","","25","","7","","32.2","","100.46","","","","","","Clear"
"2000-10-11 19:00","2000","10","11","19:00","10.3","","0.3","","50","","26","","9","","25.0","","100.53","","","","","","Clear"
"2000-10-11 20:00","2000","10","11","20:00","10.2","","0.0","","49","","24","","6","","25.0","","100.60","","","","","","Clear"
"2000-10-11 21:00","2000","10","11","21:00","9.1","","0.4","","54","","23","","6","","25.0","","100.63","","","","","","Clear"
"2000-10-11 22:00","2000","10","11","22:00","7.8","","0.1","","58","","21","","6","","25.0","","100.66","","","","","","Clear"
"2000-10-11 23:00","2000","10","11","23:00","6.5","","0.2","","64","","23","","6","","25.0","","100.66","","","","","","Clear"
"2000-10-12 00:00","2000","10","12","00:00","5.0","","0.1","","71","","21","","9","","25.0","","100.70","","","","","","Clear"
"2000-10-12 01:00","2000","10","12","01:00","4.8","","0.1","","72","","22","","7","","25.0","","100.73","","","","","","Clear"
"2000-10-12 02:00","2000","10","12","02:00","4.6","","0.1","","73","","23","","9","","25.0","","100.73","","","","","","Clear"
"2000-10-12 03:00","2000","10","12","03:00","4.2","","0.2","","75","","23","","4","","25.0","","100.73","","","","","","Clear"
"2000-10-12 04:00","2000","10","12","04:00","3.1","","0.1","","81","","21","","7","","25.0","","100.73","","","","","","Clear"
"2000-10-12 05:00","2000","10","12","05:00","2.6","","0.1","","84","","22","","7","","24.1","","100.76","","","","","","Clear"
"2000-10-12 06:00","2000","10","12","06:00","3.6","","0.3","","79","","23","","11","","40.2","","100.76","","","","","","Clear"
"2000-10-12 07:00","2000","10","12","07:00","3.7","","0.9","","82","","20","","11","","32.2","","100.80","","","","","","Clear"
"2000-10-12 08:00","2000","10","12","08:00","5.2","","2.3","","82","","21","","9","","32.2","","100.80","","","","","","Clear"
"2000-10-12 09:00","2000","10","12","09:00","9.1","","4.5","","73","","23","","11","","32.2","","100.76","","","","","","Clear"
"2000-10-12 10:00","2000","10","12","10:00","13.0","","5.4","","60","","24","","13","","32.2","","100.73","","","","","","Clear"
"2000-10-12 11:00","2000","10","12","11:00","15.2","","4.8","","50","","25","","15","","32.2","","100.70","","","","","","Clear"
"2000-10-12 12:00","2000","10","12","12:00","17.7","","5.7","","45","","23","","15","","32.2","","100.63","","","","","","Clear"
"2000-10-12 13:00","2000","10","12","13:00","19.2","","4.3","","37","","22","","26","","32.2","","100.53","","","","","","Clear"
"2000-10-12 14:00","2000","10","12","14:00","20.0","","3.0","","32","","25","","24","","32.2","","100.49","","","","","","Clear"
"2000-10-12 15:00","2000","10","12","15:00","19.7","","2.7","","32","","23","","22","","32.2","","100.43","","","","","","Mainly Clear"
"2000-10-12 16:00","2000","10","12","16:00","19.1","","3.1","","35","","23","","19","","32.2","","100.39","","","","","","Mainly Clear"
"2000-10-12 17:00","2000","10","12","17:00","17.4","","3.1","","38","","22","","15","","32.2","","100.39","","","","","","Mainly Clear"
"2000-10-12 18:00","2000","10","12","18:00","14.3","","2.9","","46","","20","","15","","32.2","","100.36","","","","","","Clear"
"2000-10-12 19:00","2000","10","12","19:00","13.0","","2.4","","48","","20","","13","","25.0","","100.39","","","","","","Mainly Clear"
"2000-10-12 20:00","2000","10","12","20:00","11.7","","3.0","","55","","21","","13","","25.0","","100.43","","","","","","Mainly Clear"
"2000-10-12 21:00","2000","10","12","21:00","11.3","","3.9","","60","","23","","13","","25.0","","100.46","","","","","","Mainly Clear"
"2000-10-12 22:00","2000","10","12","22:00","11.6","","2.9","","55","","23","","17","","25.0","","100.46","","","","","","Mainly Clear"
"2000-10-12 23:00","2000","10","12","23:00","10.3","","3.2","","61","","23","","11","","25.0","","100.43","","","","","","Mostly Cloudy"
"2000-10-13 00:00","2000","10","13","00:00","8.9","","3.9","","71","","22","","11","","25.0","","100.43","","","","","","Mainly Clear"
"2000-10-13 01:00","2000","10","13","01:00","8.8","","3.8","","71","","20","","9","","25.0","","100.43","","","","","","Mostly Cloudy"
"2000-10-13 02:00","2000","10","13","02:00","8.7","","4.1","","73","","21","","13","","25.0","","100.39","","","","","","Mostly Cloudy"
"2000-10-13 03:00","2000","10","13","03:00","9.4","","4.3","","70","","20","","11","","25.0","","100.39","","","","","","Mostly Cloudy"
"2000-10-13 04:00","2000","10","13","04:00","10.6","","4.1","","64","","22","","11","","25.0","","100.36","","","","","","Mainly Clear"
"2000-10-13 05:00","2000","10","13","05:00","10.3","","3.9","","64","","22","","13","","25.0","","100.36","","","","","","Mostly Cloudy"
"2000-10-13 06:00","2000","10","13","06:00","9.6","","3.9","","68","","21","","9","","32.2","","100.39","","","","","","Mostly Cloudy"
"2000-10-13 07:00","2000","10","13","07:00","9.7","","4.1","","68","","22","","9","","32.2","","100.39","","","","","","Mostly Cloudy"
"2000-10-13 08:00","2000","10","13","08:00","11.6","","4.7","","63","","23","","13","","32.2","","100.39","","","","","","Mostly Cloudy"
"2000-10-13 09:00","2000","10","13","09:00","12.9","","4.9","","58","","23","","19","","32.2","","100.43","","","","","","Mostly Cloudy"
"2000-10-13 10:00","2000","10","13","10:00","14.7","","6.1","","56","","23","","13","","32.2","","100.43","","","","","","Mostly Cloudy"
"2000-10-13 11:00","2000","10","13","11:00","17.1","","7.1","","52","","25","","11","","32.2","","100.39","","","","","","Mostly Cloudy"
"2000-10-13 12:00","2000","10","13","12:00","17.6","","7.2","","50","","22","","15","","32.2","","100.36","","","","","","Cloudy"
"2000-10-13 13:00","2000","10","13","13:00","17.7","","7.2","","50","","24","","13","","32.2","","100.36","","","","","","Cloudy"
"2000-10-13 14:00","2000","10","13","14:00","17.6","","7.3","","51","","23","","15","","32.2","","100.33","","","","","","Cloudy"
"2000-10-13 15:00","2000","10","13","15:00","16.6","","8.1","","57","","24","","24","","32.2","","100.33","","","","","","Cloudy"
"2000-10-13 16:00","2000","10","13","16:00","15.5","","9.4","","67","","23","","13","","32.2","","100.29","","","","","","Cloudy"
"2000-10-13 17:00","2000","10","13","17:00","14.3","","9.9","","75","","23","","11","","24.1","","100.29","","","","","","Cloudy"
"2000-10-13 18:00","2000","10","13","18:00","13.7","","9.7","","77","","23","","13","","24.1","","100.33","","","","","","Cloudy"
"2000-10-13 19:00","2000","10","13","19:00","13.1","","10.0","","81","","23","","7","","24.1","","100.36","","","","","","Cloudy"
"2000-10-13 20:00","2000","10","13","20:00","12.0","","10.7","","92","","19","","7","","19.3","","100.26","","","","","","Cloudy"
"2000-10-13 21:00","2000","10","13","21:00","11.6","","10.4","","92","","18","","4","","16.1","","100.23","","","","","","Cloudy"
"2000-10-13 22:00","2000","10","13","22:00","11.8","","10.8","","94","","20","","7","","6.4","","100.19","","","","","","Rain Showers,Fog"
"2000-10-13 23:00","2000","10","13","23:00","12.1","","11.1","","94","","20","","9","","6.4","","100.09","","","","","","Fog"
"2000-10-14 00:00","2000","10","14","00:00","12.5","","11.5","","94","","22","","6","","8.0","","100.09","","","","","","Fog"
"2000-10-14 01:00","2000","10","14","01:00","12.6","","11.6","","94","","21","","6","","6.4","","100.06","","","","","","Rain Showers,Fog"
"2000-10-14 02:00","2000","10","14","02:00","12.8","","11.9","","94","","22","","11","","8.0","","100.06","","","","","","Rain Showers,Fog"
"2000-10-14 03:00","2000","10","14","03:00","12.8","","11.8","","94","","20","","11","","8.0","","100.03","","","","","","Fog"
"2000-10-14 04:00","2000","10","14","04:00","12.7","","11.2","","91","","22","","15","","8.0","","99.99","","","","","","Rain Showers,Fog"
"2000-10-14 05:00","2000","10","14","05:00","12.6","","10.7","","88","","22","","19","","12.9","","99.96","","","","","","Rain"
"2000-10-14 06:00","2000","10","14","06:00","12.2","","10.8","","91","","21","","15","","12.9","","99.96","","","","","","Rain"
"2000-10-14 07:00","2000","10","14","07:00","12.6","","10.9","","89","","20","","15","","24.1","","99.93","","","","","","Rain"
"2000-10-14 08:00","2000","10","14","08:00","13.1","","11.1","","88","","21","","20","","19.3","","99.96","","","","","","Rain"
"2000-10-14 09:00","2000","10","14","09:00","13.5","","11.8","","89","","20","","19","","19.3","","99.89","","","","","","Rain"
"2000-10-14 10:00","2000","10","14","10:00","14.2","","11.8","","85","","21","","19","","24.1","","99.86","","","","","","Cloudy"
"2000-10-14 11:00","2000","10","14","11:00","17.0","","12.5","","75","","21","","19","","24.1","","99.79","","","","","","Cloudy"
"2000-10-14 12:00","2000","10","14","12:00","18.9","","11.5","","62","","20","","20","","32.2","","99.69","","","","","","Mostly Cloudy"
"2000-10-14 13:00","2000","10","14","13:00","19.2","","10.7","","58","","21","","20","","32.2","","99.62","","","","","","Cloudy"
"2000-10-14 14:00","2000","10","14","14:00","19.6","","10.6","","56","","21","","22","","32.2","","99.52","","","","","","Cloudy"
"2000-10-14 15:00","2000","10","14","15:00","19.2","","10.2","","56","","21","","22","","40.2","","99.49","","","","","","Mostly Cloudy"
"2000-10-14 16:00","2000","10","14","16:00","19.3","","10.1","","55","","21","","20","","40.2","","99.46","","","","","","Mostly Cloudy"
"2000-10-14 17:00","2000","10","14","17:00","18.7","","10.6","","59","","22","","15","","24.1","","99.49","","","","","","Mostly Cloudy"
"2000-10-14 18:00","2000","10","14","18:00","18.2","","10.7","","62","","21","","15","","24.1","","99.52","","","","","","Mostly Cloudy"
"2000-10-14 19:00","2000","10","14","19:00","18.0","","11.0","","64","","23","","19","","24.1","","99.59","","","","","","Mostly Cloudy"
"2000-10-14 20:00","2000","10","14","20:00","17.6","","11.3","","67","","24","","20","","24.1","","99.62","","","","","","Mostly Cloudy"
"2000-10-14 21:00","2000","10","14","21:00","16.7","","11.5","","71","","24","","17","","24.1","","99.72","","","","","","Mostly Cloudy"
"2000-10-14 22:00","2000","10","14","22:00","16.3","","11.7","","74","","23","","11","","24.1","","99.76","","","","","","Mostly Cloudy"
"2000-10-14 23:00","2000","10","14","23:00","15.8","","12.1","","79","","25","","15","","16.1","","99.76","","","","","","Mostly Cloudy"
"2000-10-15 00:00","2000","10","15","00:00","15.7","","12.4","","81","","26","","7","","24.1","","99.82","","","","","","Mostly Cloudy"
"2000-10-15 01:00","2000","10","15","01:00","13.0","","10.0","","82","","34","","19","","24.1","","99.99","","","","","","Mostly Cloudy"
"2000-10-15 02:00","2000","10","15","02:00","10.8","","6.9","","77","","33","","20","","24.1","","100.09","","","","","","Cloudy"
"2000-10-15 03:00","2000","10","15","03:00","9.4","","6.0","","79","","32","","19","","24.1","","100.23","","","","","","Mostly Cloudy"
"2000-10-15 04:00","2000","10","15","04:00","8.7","","4.5","","75","","35","","17","","24.1","","100.33","","","","","","Mainly Clear"
"2000-10-15 05:00","2000","10","15","05:00","8.1","","5.0","","81","","35","","15","","25.0","","100.39","","","","","","Mainly Clear"
"2000-10-15 06:00","2000","10","15","06:00","7.9","","4.1","","77","","35","","15","","25.0","","100.53","","","","","","Mostly Cloudy"
"2000-10-15 07:00","2000","10","15","07:00","7.8","","3.7","","75","","36","","17","","40.2","","100.63","","","","","","Mostly Cloudy"
"2000-10-15 08:00","2000","10","15","08:00","7.9","","2.7","","70","","2","","19","","40.2","","100.73","","","","","","Mostly Cloudy"
"2000-10-15 09:00","2000","10","15","09:00","8.5","","2.0","","64","","1","","20","","40.2","","100.80","","","","","","Mostly Cloudy"
"2000-10-15 10:00","2000","10","15","10:00","9.0","","1.1","","58","","36","","15","","40.2","","100.83","","","","","","Mostly Cloudy"
"2000-10-15 11:00","2000","10","15","11:00","9.1","","0.9","","56","","36","","15","","40.2","","100.86","","","","","","Mostly Cloudy"
"2000-10-15 12:00","2000","10","15","12:00","9.8","","0.1","","51","","1","","15","","40.2","","100.86","","","","","","Mainly Clear"
"2000-10-15 13:00","2000","10","15","13:00","10.4","","0.1","","49","","3","","13","","40.2","","100.86","","","","","","Mostly Cloudy"
"2000-10-15 14:00","2000","10","15","14:00","10.1","","-1.4","","45","","1","","11","","40.2","","100.83","","","","","","Mostly Cloudy"
"2000-10-15 15:00","2000","10","15","15:00","10.6","","-1.4","","43","","5","","9","","40.2","","100.83","","","","","","Mainly Clear"
"2000-10-15 16:00","2000","10","15","16:00","10.3","","-1.8","","43","","9","","7","","40.2","","100.86","","","","","","Mostly Cloudy"
"2000-10-15 17:00","2000","10","15","17:00","8.5","","-0.9","","52","","3","","19","","40.2","","100.86","","","","","","Mostly Cloudy"
"2000-10-15 18:00","2000","10","15","18:00","7.7","","-1.3","","53","","2","","17","","32.2","","100.96","","","","","","Mostly Cloudy"
"2000-10-15 19:00","2000","10","15","19:00","7.2","","-1.9","","52","","4","","19","","24.1","","100.96","","","","","","Mostly Cloudy"
"2000-10-15 20:00","2000","10","15","20:00","6.4","","-1.3","","58","","4","","19","","24.1","","101.00","","","","","","Mostly Cloudy"
"2000-10-15 21:00","2000","10","15","21:00","5.6","","-0.9","","63","","5","","17","","24.1","","101.03","","","","","","Mostly Cloudy"
"2000-10-15 22:00","2000","10","15","22:00","4.3","","-1.4","","66","","5","","17","","24.1","","101.06","","","","","","Mostly Cloudy"
"2000-10-15 23:00","2000","10","15","23:00","3.9","","-1.6","","67","","5","","17","","24.1","","101.03","","","","","","Mostly Cloudy"
"2000-10-16 00:00","2000","10","16","00:00","3.8","","-1.9","","66","","5","","17","","24.1","","101.03","","","","","","Mostly Cloudy"
"2000-10-16 01:00","2000","10","16","01:00","2.9","","-2.4","","68","","6","","15","","24.1","","101.03","","","","","","Mainly Clear"
"2000-10-16 02:00","2000","10","16","02:00","2.0","","-2.7","","71","","6","","13","","24.1","","101.03","","","","","","Mostly Cloudy"
"2000-10-16 03:00","2000","10","16","03:00","1.9","","-3.4","","68","","5","","15","","24.1","","101.00","","","","","","Mostly Cloudy"
"2000-10-16 04:00","2000","10","16","04:00","1.6","","-4.2","","65","","6","","17","","24.1","","101.03","","","","","","Mostly Cloudy"
"2000-10-16 05:00","2000","10","16","05:00","2.2","","-4.6","","61","","6","","19","","25.0","","101.03","","","","","","Mostly Cloudy"
"2000-10-16 06:00","2000","10","16","06:00","2.2","","-4.9","","59","","5","","17","","25.0","","101.06","","","","","","Mostly Cloudy"
"2000-10-16 07:00","2000","10","16","07:00","1.7","","-4.8","","62","","5","","15","","40.2","","101.06","","","","","","Mostly Cloudy"
"2000-10-16 08:00","2000","10","16","08:00","3.2","","-3.6","","61","","4","","17","","40.2","","101.13","","","","","","Mostly Cloudy"
"2000-10-16 09:00","2000","10","16","09:00","4.9","","-4.0","","52","","5","","22","","40.2","","101.13","","","","","","Mostly Cloudy"
"2000-10-16 10:00","2000","10","16","10:00","6.2","","-4.1","","48","","5","","15","","40.2","","101.13","","","","","","Mostly Cloudy"
"2000-10-16 11:00","2000","10","16","11:00","6.5","","-4.0","","47","","5","","15","","40.2","","101.13","","","","","","Mostly Cloudy"
"2000-10-16 12:00","2000","10","16","12:00","7.0","","-4.2","","45","","6","","17","","40.2","","101.10","","","","","","Mostly Cloudy"
"2000-10-16 13:00","2000","10","16","13:00","7.8","","-3.7","","44","","7","","13","","40.2","","101.06","","","","","","Mostly Cloudy"
"2000-10-16 14:00","2000","10","16","14:00","8.2","","-2.7","","46","","5","","11","","40.2","","101.06","","","","","","Mostly Cloudy"
"2000-10-16 15:00","2000","10","16","15:00","8.1","","-3.1","","45","","8","","9","","40.2","","101.03","","","","","","Mostly Cloudy"
"2000-10-16 16:00","2000","10","16","16:00","7.6","","-2.5","","49","","10","","13","","40.2","","100.96","","","","","","Mostly Cloudy"
"2000-10-16 17:00","2000","10","16","17:00","7.0","","-2.5","","51","","","","0","","40.2","","101.06","","","","","","Mostly Cloudy"
"2000-10-16 18:00","2000","10","16","18:00","5.9","","-2.1","","56","","","","0","","40.2","","101.06","","","","","","Mainly Clear"
"2000-10-16 19:00","2000","10","16","19:00","5.2","","-1.8","","61","","","","0","","24.1","","101.10","","","","","","Mainly Clear"
"2000-10-16 20:00","2000","10","16","20:00","5.9","","-1.8","","58","","10","","6","","24.1","","101.10","","","","","","Mostly Cloudy"
"2000-10-16 21:00","2000","10","16","21:00","5.2","","-1.8","","61","","7","","7","","24.1","","101.13","","","","","","Mainly Clear"
"2000-10-16 22:00","2000","10","16","22:00","4.6","","-1.8","","63","","9","","9","","24.1","","101.10","","","","","","Mainly Clear"
"2000-10-16 23:00","2000","10","16","23:00","5.0","","-1.6","","62","","","","0","","24.1","","101.10","","","","","","Cloudy"
"2000-10-17 00:00","2000","10","17","00:00","5.0","","-1.6","","62","","8","","9","","24.1","","101.10","","","","","","Cloudy"
"2000-10-17 01:00","2000","10","17","01:00","4.7","","-0.7","","68","","7","","6","","24.1","","101.13","","","","","","Cloudy"
"2000-10-17 02:00","2000","10","17","02:00","4.4","","-0.2","","72","","9","","11","","24.1","","101.06","","","","","","Mostly Cloudy"
"2000-10-17 03:00","2000","10","17","03:00","4.5","","0.4","","75","","8","","6","","24.1","","101.06","","","","","","Cloudy"
"2000-10-17 04:00","2000","10","17","04:00","4.4","","1.0","","79","","5","","6","","24.1","","101.06","","","","","","Cloudy"
"2000-10-17 05:00","2000","10","17","05:00","4.6","","1.5","","80","","5","","4","","19.3","","101.13","","","","","","Cloudy"
"2000-10-17 06:00","2000","10","17","06:00","4.7","","2.9","","88","","5","","7","","24.1","","101.13","","","","","","Cloudy"
"2000-10-17 07:00","2000","10","17","07:00","4.9","","3.1","","88","","","","0","","12.9","","101.16","","","","","","Cloudy"
"2000-10-17 08:00","2000","10","17","08:00","5.5","","3.4","","86","","5","","4","","12.9","","101.20","","","","","","Cloudy"
"2000-10-17 09:00","2000","10","17","09:00","6.2","","3.6","","83","","9","","6","","16.1","","101.20","","","","","","Cloudy"
"2000-10-17 10:00","2000","10","17","10:00","7.1","","3.9","","80","","7","","7","","16.1","","101.20","","","","","","Cloudy"
"2000-10-17 11:00","2000","10","17","11:00","7.6","","5.3","","85","","7","","7","","12.9","","101.16","","","","","","Cloudy"
"2000-10-17 12:00","2000","10","17","12:00","8.5","","5.7","","83","","11","","4","","12.9","","101.13","","","","","","Cloudy"
"2000-10-17 13:00","2000","10","17","13:00","8.9","","6.1","","83","","7","","7","","12.9","","101.06","","","","","","Cloudy"
"2000-10-17 14:00","2000","10","17","14:00","9.5","","6.4","","81","","7","","11","","14.5","","101.00","","","","","","Cloudy"
"2000-10-17 15:00","2000","10","17","15:00","9.5","","6.6","","82","","7","","7","","16.1","","101.00","","","","","","Cloudy"
"2000-10-17 16:00","2000","10","17","16:00","9.5","","7.0","","84","","8","","9","","12.9","","100.93","","","","","","Cloudy"
"2000-10-17 17:00","2000","10","17","17:00","9.1","","7.1","","87","","9","","9","","11.3","","100.93","","","","","","Rain"
"2000-10-17 18:00","2000","10","17","18:00","8.7","","6.9","","88","","8","","9","","9.7","","100.93","","","","","","Rain,Fog"
"2000-10-17 19:00","2000","10","17","19:00","8.3","","7.2","","93","","6","","7","","11.3","","100.90","","","","","","Rain"
"2000-10-17 20:00","2000","10","17","20:00","7.9","","7.2","","95","","5","","11","","9.7","","100.86","","","","","","Rain,Fog"
"2000-10-17 21:00","2000","10","17","21:00","7.7","","7.3","","97","","4","","11","","8.0","","100.83","","","","","","Rain,Fog"
"2000-10-17 22:00","2000","10","17","22:00","7.5","","7.1","","97","","5","","13","","8.0","","100.80","","","","","","Rain,Fog"
"2000-10-17 23:00","2000","10","17","23:00","7.4","","6.9","","97","","5","","9","","8.0","","100.73","","","","","","Rain,Fog"
"2000-10-18 00:00","2000","10","18","00:00","7.4","","7.0","","97","","6","","11","","8.0","","100.66","","","","","","Rain,Fog"
"2000-10-18 01:00","2000","10","18","01:00","7.5","","7.2","","98","","7","","7","","8.0","","100.63","","","","","","Fog"
"2000-10-18 02:00","2000","10","18","02:00","7.5","","7.4","","99","","6","","6","","4.8","","100.56","","","","","","Drizzle,Fog"
"2000-10-18 03:00","2000","10","18","03:00","7.6","","7.6","","100","","8","","7","","1.6","","100.49","","","","","","Drizzle,Fog"
"2000-10-18 04:00","2000","10","18","04:00","7.8","","7.8","","100","","8","","4","","1.6","","100.46","","","","","","Rain,Fog"
"2000-10-18 05:00","2000","10","18","05:00","7.9","","7.9","","100","","9","","7","","1.2","","100.39","","","","","","Rain,Fog"
"2000-10-18 06:00","2000","10","18","06:00","7.9","","7.9","","100","","5","","7","","2.8","","100.36","","","","","","Rain,Fog"
"2000-10-18 07:00","2000","10","18","07:00","7.9","","7.9","","100","","3","","7","","2.0","","100.36","","","","","","Rain,Fog"
"2000-10-18 08:00","2000","10","18","08:00","8.1","","8.1","","100","","31","","9","","2.8","","100.39","","","","","","Rain,Fog"
"2000-10-18 09:00","2000","10","18","09:00","8.4","","8.3","","99","","","","0","","4.8","","100.36","","","","","","Rain,Fog"
"2000-10-18 10:00","2000","10","18","10:00","8.8","","8.6","","99","","30","","13","","9.7","","100.36","","","","","","Rain,Fog"
"2000-10-18 11:00","2000","10","18","11:00","9.9","","9.6","","98","","26","","15","","19.3","","100.36","","","","","","Cloudy"
"2000-10-18 12:00","2000","10","18","12:00","10.3","","8.9","","91","","30","","15","","19.3","","100.33","","","","","","Cloudy"
"2000-10-18 13:00","2000","10","18","13:00","11.5","","8.7","","83","","33","","15","","19.3","","100.29","","","","","","Mainly Clear"
"2000-10-18 14:00","2000","10","18","14:00","12.2","","8.3","","77","","26","","7","","24.1","","100.23","","","","","","Mainly Clear"
"2000-10-18 15:00","2000","10","18","15:00","13.1","","8.2","","72","","27","","9","","24.1","","100.23","","","","","","Mainly Clear"
"2000-10-18 16:00","2000","10","18","16:00","12.7","","8.2","","74","","32","","11","","32.2","","100.19","","","","","","Mainly Clear"
"2000-10-18 17:00","2000","10","18","17:00","12.4","","7.4","","72","","29","","6","","32.2","","100.19","","","","","","Mainly Clear"
"2000-10-18 18:00","2000","10","18","18:00","11.7","","7.3","","74","","20","","4","","25.0","","100.23","","","","","","Mostly Cloudy"
"2000-10-18 19:00","2000","10","18","19:00","10.7","","8.2","","85","","17","","6","","25.0","","100.23","","","","","","Cloudy"
"2000-10-18 20:00","2000","10","18","20:00","9.9","","7.9","","87","","17","","9","","25.0","","100.23","","","","","","Cloudy"
"2000-10-18 21:00","2000","10","18","21:00","10.4","","8.3","","87","","22","","4","","24.1","","100.23","","","","","","Cloudy"
"2000-10-18 22:00","2000","10","18","22:00","9.8","","8.0","","89","","30","","7","","24.1","","100.19","","","","","","Cloudy"
"2000-10-18 23:00","2000","10","18","23:00","9.1","","7.0","","87","","26","","6","","24.1","","100.19","","","","","","Mostly Cloudy"
"2000-10-19 00:00","2000","10","19","00:00","8.2","","5.8","","85","","","","0","","24.1","","100.13","","","","","","Mainly Clear"
"2000-10-19 01:00","2000","10","19","01:00","8.4","","6.9","","90","","28","","7","","25.0","","100.09","","","","","","Mostly Cloudy"
"2000-10-19 02:00","2000","10","19","02:00","8.4","","7.2","","92","","28","","7","","25.0","","100.06","","","","","","Cloudy"
"2000-10-19 03:00","2000","10","19","03:00","9.1","","7.4","","89","","29","","9","","25.0","","100.06","","","","","","Cloudy"
"2000-10-19 04:00","2000","10","19","04:00","9.2","","7.8","","91","","32","","13","","19.3","","100.09","","","","","","Rain Showers"
"2000-10-19 05:00","2000","10","19","05:00","8.9","","7.9","","93","","33","","11","","19.3","","100.13","","","","","","Rain Showers"
"2000-10-19 06:00","2000","10","19","06:00","8.3","","7.3","","93","","33","","19","","24.1","","100.19","","","","","","Mainly Clear"
"2000-10-19 07:00","2000","10","19","07:00","7.7","","6.5","","92","","33","","20","","32.2","","100.29","","","","","","Clear"
"2000-10-19 08:00","2000","10","19","08:00","8.6","","6.1","","84","","31","","13","","32.2","","100.36","","","","","","Clear"
"2000-10-19 09:00","2000","10","19","09:00","9.6","","5.7","","77","","32","","19","","32.2","","100.39","","","","","","Clear"
"2000-10-19 10:00","2000","10","19","10:00","11.0","","4.8","","66","","31","","20","","32.2","","100.39","","","","","","Mainly Clear"
"2000-10-19 11:00","2000","10","19","11:00","12.1","","3.3","","55","","32","","26","","32.2","","100.39","","","","","","Mainly Clear"
"2000-10-19 12:00","2000","10","19","12:00","13.3","","2.7","","49","","32","","24","","32.2","","100.36","","","","","","Mainly Clear"
"2000-10-19 13:00","2000","10","19","13:00","12.9","","3.5","","53","","29","","24","","32.2","","100.36","","","","","","Mainly Clear"
"2000-10-19 14:00","2000","10","19","14:00","12.7","","4.8","","59","","29","","24","","32.2","","100.36","","","","","","Mainly Clear"
"2000-10-19 15:00","2000","10","19","15:00","13.1","","2.6","","49","","29","","24","","32.2","","100.36","","","","","","Mainly Clear"
"2000-10-19 16:00","2000","10","19","16:00","12.6","","1.9","","48","","29","","19","","32.2","","100.36","","","","","","Mostly Cloudy"
"2000-10-19 17:00","2000","10","19","17:00","12.0","","2.8","","53","","27","","9","","32.2","","100.39","","","","","","Mainly Clear"
"2000-10-19 18:00","2000","10","19","18:00","11.0","","2.6","","56","","25","","7","","25.0","","100.46","","","","","","Mostly Cloudy"
"2000-10-19 19:00","2000","10","19","19:00","9.6","","2.3","","60","","25","","11","","25.0","","100.49","","","","","","Mainly Clear"
"2000-10-19 20:00","2000","10","19","20:00","8.0","","1.7","","64","","25","","11","","25.0","","100.49","","","","","","Clear"
"2000-10-19 21:00","2000","10","19","21:00","7.6","","1.7","","66","","24","","6","","25.0","","100.53","","","","","","Clear"
"2000-10-19 22:00","2000","10","19","22:00","7.7","","1.3","","64","","22","","9","","25.0","","100.53","","","","","","Clear"
"2000-10-19 23:00","2000","10","19","23:00","6.6","","1.1","","68","","22","","9","","25.0","","100.53","","","","","","Clear"
"2000-10-20 00:00","2000","10","20","00:00","5.8","","0.9","","71","","22","","7","","25.0","","100.56","","","","","","Clear"
"2000-10-20 01:00","2000","10","20","01:00","5.3","","0.7","","72","","23","","7","","25.0","","100.60","","","","","","Clear"
"2000-10-20 02:00","2000","10","20","02:00","4.6","","0.6","","75","","22","","7","","25.0","","100.60","","","","","","Clear"
"2000-10-20 03:00","2000","10","20","03:00","4.5","","0.7","","76","","23","","9","","25.0","","100.63","","","","","","Clear"
"2000-10-20 04:00","2000","10","20","04:00","4.1","","0.6","","78","","18","","6","","25.0","","100.66","","","","","","Clear"
"2000-10-20 05:00","2000","10","20","05:00","3.3","","0.6","","82","","20","","11","","25.0","","100.70","","","","","","Mainly Clear"
"2000-10-20 06:00","2000","10","20","06:00","3.9","","1.3","","83","","19","","9","","40.2","","100.66","","","","","","Mainly Clear"
"2000-10-20 07:00","2000","10","20","07:00","3.2","","1.2","","87","","19","","7","","40.2","","100.73","","","","","","Mainly Clear"
"2000-10-20 08:00","2000","10","20","08:00","5.0","","3.0","","87","","19","","7","","32.2","","100.70","","","","","","Mainly Clear"
"2000-10-20 09:00","2000","10","20","09:00","9.1","","5.0","","75","","18","","13","","32.2","","100.66","","","","","","Clear"
"2000-10-20 10:00","2000","10","20","10:00","12.6","","6.9","","68","","21","","19","","32.2","","100.60","","","","","","Clear"
"2000-10-20 11:00","2000","10","20","11:00","14.9","","6.7","","58","","21","","17","","32.2","","100.49","","","","","","Clear"
"2000-10-20 12:00","2000","10","20","12:00","16.2","","8.4","","60","","21","","20","","32.2","","100.43","","","","","","Clear"
"2000-10-20 13:00","2000","10","20","13:00","18.1","","7.2","","49","","21","","24","","32.2","","100.33","","","","","","Clear"
"2000-10-20 14:00","2000","10","20","14:00","18.2","","8.0","","51","","20","","20","","32.2","","100.26","","","","","","Clear"
"2000-10-20 15:00","2000","10","20","15:00","18.1","","8.2","","52","","20","","28","","32.2","","100.16","","","","","","Clear"
"2000-10-20 16:00","2000","10","20","16:00","17.4","","6.7","","49","","20","","26","","32.2","","100.13","","","","","","Clear"
"2000-10-20 17:00","2000","10","20","17:00","15.8","","6.2","","53","","20","","22","","32.2","","100.13","","","","","","Clear"
"2000-10-20 18:00","2000","10","20","18:00","14.6","","5.7","","55","","19","","20","","25.0","","100.13","","","","","","Mainly Clear"
"2000-10-20 19:00","2000","10","20","19:00","14.5","","8.0","","65","","19","","22","","24.1","","100.03","","","","","","Mainly Clear"
"2000-10-20 20:00","2000","10","20","20:00","14.4","","8.9","","70","","23","","11","","24.1","","100.03","","","","","","Mainly Clear"
"2000-10-20 21:00","2000","10","20","21:00","14.0","","9.4","","74","","21","","9","","24.1","","100.03","","","","","","Mainly Clear"
"2000-10-20 22:00","2000","10","20","22:00","14.1","","9.5","","74","","21","","22","","24.1","","99.93","","","","","","Mainly Clear"
"2000-10-20 23:00","2000","10","20","23:00","14.8","","8.9","","68","","22","","22","","19.3","","99.96","","","","","","Mainly Clear"
"2000-10-21 00:00","2000","10","21","00:00","15.5","","8.3","","62","","22","","20","","24.1","","99.93","","","","","","Mostly Cloudy"
"2000-10-21 01:00","2000","10","21","01:00","15.3","","8.7","","65","","21","","22","","24.1","","99.89","","","","","","Mostly Cloudy"
"2000-10-21 02:00","2000","10","21","02:00","14.4","","9.0","","70","","21","","19","","24.1","","99.93","","","","","","Cloudy"
"2000-10-21 03:00","2000","10","21","03:00","13.4","","9.1","","75","","20","","11","","19.3","","99.86","","","","","","Mostly Cloudy"
"2000-10-21 04:00","2000","10","21","04:00","13.1","","9.3","","78","","21","","17","","19.3","","99.86","","","","","","Mostly Cloudy"
"2000-10-21 05:00","2000","10","21","05:00","12.8","","9.9","","83","","21","","11","","19.3","","99.89","","","","","","Cloudy"
"2000-10-21 06:00","2000","10","21","06:00","12.8","","9.9","","83","","22","","15","","19.3","","99.89","","","","","","Mostly Cloudy"
"2000-10-21 07:00","2000","10","21","07:00","12.9","","9.6","","80","","24","","17","","19.3","","99.99","","","","","","Mainly Clear"
"2000-10-21 08:00","2000","10","21","08:00","13.2","","9.7","","79","","25","","17","","19.3","","100.09","","","","","","Mainly Clear"
"2000-10-21 09:00","2000","10","21","09:00","14.4","","9.5","","72","","30","","22","","19.3","","100.16","","","","","","Mainly Clear"
"2000-10-21 10:00","2000","10","21","10:00","15.3","","7.9","","61","","28","","28","","32.2","","100.26","","","","","","Mainly Clear"
"2000-10-21 11:00","2000","10","21","11:00","15.6","","5.9","","52","","29","","28","","40.2","","100.33","","","","","","Mainly Clear"
"2000-10-21 12:00","2000","10","21","12:00","16.0","","4.2","","45","","29","","26","","40.2","","100.36","","","","","","Mainly Clear"
"2000-10-21 13:00","2000","10","21","13:00","15.1","","2.5","","43","","29","","30","","40.2","","100.43","","","","","","Mainly Clear"
"2000-10-21 14:00","2000","10","21","14:00","14.7","","1.7","","41","","29","","30","","40.2","","100.49","","","","","","Clear"
"2000-10-21 15:00","2000","10","21","15:00","14.3","","-0.8","","35","","30","","28","","40.2","","100.63","","","","","","Clear"
"2000-10-21 16:00","2000","10","21","16:00","13.8","","-1.2","","35","","31","","28","","40.2","","100.76","","","","","","Clear"
"2000-10-21 17:00","2000","10","21","17:00","11.9","","-2.8","","36","","34","","22","","40.2","","100.86","","","","","","Mainly Clear"
"2000-10-21 18:00","2000","10","21","18:00","10.3","","-2.4","","41","","34","","24","","32.2","","101.06","","","","","","Mainly Clear"
"2000-10-21 19:00","2000","10","21","19:00","8.9","","-2.3","","45","","33","","24","","24.1","","101.20","","","","","","Clear"
"2000-10-21 20:00","2000","10","21","20:00","7.8","","-2.1","","50","","34","","20","","24.1","","101.33","","","","","","Clear"
"2000-10-21 21:00","2000","10","21","21:00","7.0","","-2.7","","50","","35","","20","","24.1","","101.47","","","","","","Clear"
"2000-10-21 22:00","2000","10","21","22:00","6.1","","-2.5","","54","","35","","15","","24.1","","101.53","","","","","","Clear"
"2000-10-21 23:00","2000","10","21","23:00","4.3","","-2.3","","62","","33","","11","","24.1","","101.60","","","","","","Clear"
"2000-10-22 00:00","2000","10","22","00:00","4.4","","-3.0","","59","","34","","13","","24.1","","101.67","","","","","","Clear"
"2000-10-22 01:00","2000","10","22","01:00","3.5","","-3.0","","62","","31","","9","","24.1","","101.73","","","","","","Clear"
"2000-10-22 02:00","2000","10","22","02:00","3.2","","-2.7","","65","","29","","11","","24.1","","101.77","","","","","","Clear"
"2000-10-22 03:00","2000","10","22","03:00","2.9","","-2.8","","66","","32","","17","","24.1","","101.80","","","","","","Clear"
"2000-10-22 04:00","2000","10","22","04:00","2.1","","-2.8","","70","","33","","19","","24.1","","101.83","","","","","","Clear"
"2000-10-22 05:00","2000","10","22","05:00","1.6","","-2.7","","73","","32","","13","","24.1","","101.94","","","","","","Clear"
"2000-10-22 06:00","2000","10","22","06:00","0.8","","-2.8","","77","","32","","13","","40.2","","102.04","","","","","","Clear"
"2000-10-22 07:00","2000","10","22","07:00","0.5","","-2.7","","79","","33","","15","","40.2","","102.17","","","","","","Clear"
"2000-10-22 08:00","2000","10","22","08:00","2.2","","-2.2","","73","","33","","9","","40.2","","102.27","","","","","","Clear"
"2000-10-22 09:00","2000","10","22","09:00","3.3","","-2.9","","64","","2","","15","","40.2","","102.30","","","","","","Clear"
"2000-10-22 10:00","2000","10","22","10:00","4.4","","-2.8","","59","","2","","17","","40.2","","102.34","","","","","","Clear"
"2000-10-22 11:00","2000","10","22","11:00","5.7","","-2.9","","54","","6","","6","","40.2","","102.34","","","","","","Clear"
"2000-10-22 12:00","2000","10","22","12:00","6.7","","-3.3","","49","","1","","9","","40.2","","102.27","","","","","","Clear"
"2000-10-22 13:00","2000","10","22","13:00","8.5","","-3.2","","44","","2","","9","","40.2","","102.24","","","","","","Clear"
"2000-10-22 14:00","2000","10","22","14:00","8.8","","-4.4","","39","","35","","9","","40.2","","102.20","","","","","","Clear"
"2000-10-22 15:00","2000","10","22","15:00","9.3","","-3.0","","42","","27","","4","","40.2","","102.17","","","","","","Clear"
"2000-10-22 16:00","2000","10","22","16:00","9.6","","-3.7","","39","","","","0","","40.2","","102.20","","","","","","Clear"
"2000-10-22 17:00","2000","10","22","17:00","8.5","","-2.7","","45","","24","","4","","40.2","","102.20","","","","","","Clear"
"2000-10-22 18:00","2000","10","22","18:00","7.8","","-3.3","","45","","19","","4","","24.1","","102.24","","","","","","Clear"
"2000-10-22 19:00","2000","10","22","19:00","7.0","","-3.4","","47","","23","","7","","24.1","","102.24","","","","","","Clear"
"2000-10-22 20:00","2000","10","22","20:00","5.0","","-2.9","","57","","27","","6","","24.1","","102.27","","","","","","Clear"
"2000-10-22 21:00","2000","10","22","21:00","4.5","","-3.5","","56","","34","","9","","24.1","","102.27","","","","","","Clear"
"2000-10-22 22:00","2000","10","22","22:00","2.7","","-1.6","","73","","20","","7","","24.1","","102.27","","","","","","Clear"
"2000-10-22 23:00","2000","10","22","23:00","3.1","","-3.0","","64","","","","0","","24.1","","102.27","","","","","","Clear"
"2000-10-23 00:00","2000","10","23","00:00","0.6","","-3.3","","75","","28","","9","","24.1","","102.30","","","","","","Clear"
"2000-10-23 01:00","2000","10","23","01:00","1.6","","-3.2","","70","","","","0","","24.1","","102.27","","","","","","Clear"
"2000-10-23 02:00","2000","10","23","02:00","0.4","","-3.2","","77","","","","0","","24.1","","102.27","","","","","","Clear"
"2000-10-23 03:00","2000","10","23","03:00","0.1","","-2.4","","83","","","","0","","24.1","","102.27","","","","","","Clear"
"2000-10-23 04:00","2000","10","23","04:00","-1.1","","-3.1","","86","","1","","7","","24.1","","102.24","","","","-4","","Clear"
"2000-10-23 05:00","2000","10","23","05:00","-0.1","","-2.1","","86","","9","","9","","25.0","","102.20","","","","-3","","Clear"
"2000-10-23 06:00","2000","10","23","06:00","-0.5","","-3.3","","81","","12","","7","","25.0","","102.20","","","","-3","","Clear"
"2000-10-23 07:00","2000","10","23","07:00","-1.3","","-3.5","","85","","11","","4","","40.2","","102.20","","","","-3","","Clear"
"2000-10-23 08:00","2000","10","23","08:00","-0.3","","-2.6","","84","","7","","4","","40.2","","102.24","","","","-2","","Clear"
"2000-10-23 09:00","2000","10","23","09:00","2.9","","-0.7","","77","","3","","4","","40.2","","102.24","","","","","","Clear"
"2000-10-23 10:00","2000","10","23","10:00","6.5","","-0.5","","61","","","","0","","40.2","","102.17","","","","","","Clear"
"2000-10-23 11:00","2000","10","23","11:00","9.0","","0.7","","56","","19","","6","","40.2","","102.10","","","","","","Mainly Clear"
"2000-10-23 12:00","2000","10","23","12:00","10.4","","0.1","","49","","22","","7","","40.2","","102.00","","","","","","Mostly Cloudy"
"2000-10-23 13:00","2000","10","23","13:00","11.0","","-1.8","","41","","20","","7","","40.2","","101.97","","","","","","Mostly Cloudy"
"2000-10-23 14:00","2000","10","23","14:00","11.7","","-0.2","","44","","14","","6","","40.2","","101.87","","","","","","Mostly Cloudy"
"2000-10-23 15:00","2000","10","23","15:00","12.5","","-0.4","","41","","21","","13","","40.2","","101.83","","","","","","Mostly Cloudy"
"2000-10-23 16:00","2000","10","23","16:00","12.0","","-0.2","","43","","18","","6","","40.2","","101.80","","","","","","Mostly Cloudy"
"2000-10-23 17:00","2000","10","23","17:00","12.0","","-1.3","","40","","","","0","","32.2","","101.80","","","","","","Cloudy"
"2000-10-23 18:00","2000","10","23","18:00","10.6","","0.0","","48","","13","","7","","24.1","","101.77","","","","","","Mostly Cloudy"
"2000-10-23 19:00","2000","10","23","19:00","10.2","","-0.5","","47","","14","","6","","24.1","","101.73","","","","","","Mostly Cloudy"
"2000-10-23 20:00","2000","10","23","20:00","8.9","","-1.3","","49","","16","","11","","24.1","","101.63","","","","","","Mostly Cloudy"
"2000-10-23 21:00","2000","10","23","21:00","9.0","","0.0","","53","","16","","11","","24.1","","101.60","","","","","","Mostly Cloudy"
"2000-10-23 22:00","2000","10","23","22:00","8.4","","1.2","","60","","21","","9","","24.1","","101.53","","","","","","Mostly Cloudy"
"2000-10-23 23:00","2000","10","23","23:00","8.7","","2.6","","65","","","","0","","24.1","","101.53","","","","","","Cloudy"
"2000-10-24 00:00","2000","10","24","00:00","8.7","","3.0","","67","","18","","6","","24.1","","101.53","","","","","","Cloudy"
"2000-10-24 01:00","2000","10","24","01:00","8.6","","3.6","","71","","19","","7","","16.1","","101.47","","","","","","Cloudy"
"2000-10-24 02:00","2000","10","24","02:00","8.5","","3.9","","73","","19","","4","","24.1","","101.40","","","","","","Cloudy"
"2000-10-24 03:00","2000","10","24","03:00","8.2","","4.3","","76","","20","","4","","24.1","","101.33","","","","","","Cloudy"
"2000-10-24 04:00","2000","10","24","04:00","8.5","","4.5","","76","","19","","6","","24.1","","101.27","","","","","","Cloudy"
"2000-10-24 05:00","2000","10","24","05:00","8.8","","5.1","","78","","20","","4","","24.1","","101.23","","","","","","Cloudy"
"2000-10-24 06:00","2000","10","24","06:00","8.8","","5.6","","80","","22","","7","","24.1","","101.20","","","","","","Cloudy"
"2000-10-24 07:00","2000","10","24","07:00","9.5","","5.5","","76","","26","","6","","24.1","","101.23","","","","","","Cloudy"
"2000-10-24 08:00","2000","10","24","08:00","9.8","","5.7","","76","","27","","4","","32.2","","101.23","","","","","","Cloudy"
"2000-10-24 09:00","2000","10","24","09:00","10.1","","6.1","","76","","22","","9","","32.2","","101.23","","","","","","Cloudy"
"2000-10-24 10:00","2000","10","24","10:00","10.8","","6.5","","75","","24","","15","","32.2","","101.20","","","","","","Cloudy"
"2000-10-24 11:00","2000","10","24","11:00","12.3","","7.2","","71","","23","","11","","24.1","","101.16","","","","","","Mostly Cloudy"
"2000-10-24 12:00","2000","10","24","12:00","13.7","","7.9","","68","","26","","9","","24.1","","101.13","","","","","","Cloudy"
"2000-10-24 13:00","2000","10","24","13:00","15.2","","9.4","","68","","27","","13","","24.1","","101.06","","","","","","Mostly Cloudy"
"2000-10-24 14:00","2000","10","24","14:00","15.6","","10.0","","69","","26","","15","","16.1","","101.00","","","","","","Mostly Cloudy"
"2000-10-24 15:00","2000","10","24","15:00","16.6","","10.6","","68","","24","","13","","16.1","","100.96","","","","","","Cloudy"
"2000-10-24 16:00","2000","10","24","16:00","16.3","","10.9","","70","","25","","11","","16.1","","100.96","","","","","","Cloudy"
"2000-10-24 17:00","2000","10","24","17:00","14.2","","10.5","","78","","26","","9","","16.1","","101.00","","","","","","Cloudy"
"2000-10-24 18:00","2000","10","24","18:00","13.9","","10.1","","78","","26","","6","","16.1","","101.06","","","","","","Cloudy"
"2000-10-24 19:00","2000","10","24","19:00","13.0","","10.0","","82","","21","","6","","16.1","","101.06","","","","","","Mostly Cloudy"
"2000-10-24 20:00","2000","10","24","20:00","11.5","","9.4","","87","","22","","9","","16.1","","101.10","","","","","","Mainly Clear"
"2000-10-24 21:00","2000","10","24","21:00","11.4","","9.7","","89","","24","","7","","16.1","","101.10","","","","","","Mainly Clear"
"2000-10-24 22:00","2000","10","24","22:00","10.5","","9.7","","95","","","","0","","12.9","","101.10","","","","","","Clear"
"2000-10-24 23:00","2000","10","24","23:00","9.5","","9.1","","97","","24","","6","","2.4","","101.13","","","","","","Fog"
"2000-10-25 00:00","2000","10","25","00:00","9.2","","9.0","","99","","22","","4","","0.8","","101.13","","","","","","Fog"
"2000-10-25 01:00","2000","10","25","01:00","6.8","","6.8","","100","","29","","7","","0.8","","101.16","","","","","","Fog"
"2000-10-25 02:00","2000","10","25","02:00","4.8","","4.8","","100","","20","","7","","0.2","","101.16","","","","","","Fog"
"2000-10-25 03:00","2000","10","25","03:00","5.9","","5.9","","100","","20","","6","","0.2","","101.16","","","","","","Fog"
"2000-10-25 04:00","2000","10","25","04:00","6.4","","6.4","","100","","29","","6","","0.4","","101.16","","","","","","Fog"
"2000-10-25 05:00","2000","10","25","05:00","5.4","","5.4","","100","","27","","4","","0.2","","101.20","","","","","","Fog"
"2000-10-25 06:00","2000","10","25","06:00","5.3","","5.3","","100","","33","","6","","0.2","","101.27","","","","","","Fog"
"2000-10-25 07:00","2000","10","25","07:00","5.1","","5.1","","100","","","","0","","0.4","","101.27","","","","","","Fog"
"2000-10-25 08:00","2000","10","25","08:00","5.3","","5.3","","100","","","","0","","0.2","","101.33","","","","","","Fog"
"2000-10-25 09:00","2000","10","25","09:00","6.4","","6.4","","100","","16","","6","","0.2","","101.30","","","","","","Fog"
"2000-10-25 10:00","2000","10","25","10:00","7.2","","7.2","","100","","7","","2","","0.2","","101.33","","","","","","Fog"
"2000-10-25 11:00","2000","10","25","11:00","9.5","","9.2","","98","","19","","2","","6.4","","101.30","","","","","","Fog"
"2000-10-25 12:00","2000","10","25","12:00","12.4","","10.2","","86","","23","","7","","16.1","","101.23","","","","","","Mostly Cloudy"
"2000-10-25 13:00","2000","10","25","13:00","15.2","","10.0","","71","","19","","9","","19.3","","101.16","","","","","","Mostly Cloudy"
"2000-10-25 14:00","2000","10","25","14:00","16.2","","10.7","","70","","22","","13","","19.3","","101.10","","","","","","Mostly Cloudy"
"2000-10-25 15:00","2000","10","25","15:00","15.9","","10.9","","72","","17","","13","","19.3","","101.03","","","","","","Mostly Cloudy"
"2000-10-25 16:00","2000","10","25","16:00","16.2","","10.6","","69","","23","","19","","19.3","","101.03","","","","","","Mostly Cloudy"
"2000-10-25 17:00","2000","10","25","17:00","13.1","","9.5","","79","","21","","6","","16.1","","101.03","","","","","","Mostly Cloudy"
"2000-10-25 18:00","2000","10","25","18:00","12.6","","9.6","","82","","18","","6","","19.3","","101.03","","","","","","Mainly Clear"
"2000-10-25 19:00","2000","10","25","19:00","11.9","","9.7","","86","","17","","4","","16.1","","101.03","","","","","","Mainly Clear"
"2000-10-25 20:00","2000","10","25","20:00","10.4","","9.2","","92","","20","","9","","16.1","","101.03","","","","","","Clear"
"2000-10-25 21:00","2000","10","25","21:00","10.0","","9.1","","94","","20","","7","","12.9","","101.00","","","","","","Clear"
"2000-10-25 22:00","2000","10","25","22:00","9.8","","9.0","","95","","20","","9","","11.3","","100.96","","","","","","Mainly Clear"
"2000-10-25 23:00","2000","10","25","23:00","8.7","","8.3","","97","","23","","9","","8.0","","100.96","","","","","","Fog"
"2000-10-26 00:00","2000","10","26","00:00","8.3","","8.2","","99","","23","","7","","6.4","","100.96","","","","","","Fog"
"2000-10-26 01:00","2000","10","26","01:00","9.2","","9.2","","100","","27","","9","","0.4","","101.00","","","","","","Fog"
"2000-10-26 02:00","2000","10","26","02:00","9.1","","9.1","","100","","26","","6","","0.2","","101.00","","","","","","Fog"
"2000-10-26 03:00","2000","10","26","03:00","9.0","","9.0","","100","","20","","6","","0.0","","100.96","","","","","","Fog"
"2000-10-26 04:00","2000","10","26","04:00","9.0","","9.0","","100","","23","","4","","0.0","","100.93","","","","","","Fog"
"2000-10-26 05:00","2000","10","26","05:00","8.9","","8.9","","100","","24","","6","","0.2","","100.96","","","","","","Drizzle,Fog"
"2000-10-26 06:00","2000","10","26","06:00","9.0","","9.0","","100","","23","","6","","0.0","","100.96","","","","","","Drizzle,Fog"
"2000-10-26 07:00","2000","10","26","07:00","9.2","","9.2","","100","","25","","9","","0.2","","101.00","","","","","","Drizzle,Fog"
"2000-10-26 08:00","2000","10","26","08:00","9.4","","9.4","","100","","24","","7","","0.4","","101.03","","","","","","Drizzle,Fog"
"2000-10-26 09:00","2000","10","26","09:00","9.9","","9.9","","100","","24","","11","","0.4","","101.06","","","","","","Drizzle,Fog"
"2000-10-26 10:00","2000","10","26","10:00","10.9","","10.9","","100","","26","","11","","0.4","","101.03","","","","","","Fog"
"2000-10-26 11:00","2000","10","26","11:00","12.3","","12.3","","100","","25","","9","","4.8","","101.03","","","","","","Fog"
"2000-10-26 12:00","2000","10","26","12:00","14.2","","13.3","","94","","21","","11","","6.4","","100.96","","","","","","Fog"
"2000-10-26 13:00","2000","10","26","13:00","15.9","","12.6","","81","","18","","9","","12.9","","100.90","","","","","","Mostly Cloudy"
"2000-10-26 14:00","2000","10","26","14:00","17.6","","13.6","","77","","17","","11","","9.7","","100.86","","","","","","Haze"
"2000-10-26 15:00","2000","10","26","15:00","16.5","","13.7","","84","","19","","9","","8.0","","100.83","","","","","","Haze"
"2000-10-26 16:00","2000","10","26","16:00","16.4","","13.7","","84","","18","","9","","9.7","","100.76","","","","","","Haze"
"2000-10-26 17:00","2000","10","26","17:00","15.9","","13.5","","86","","17","","6","","8.0","","100.73","","","","","","Haze"
"2000-10-26 18:00","2000","10","26","18:00","14.7","","12.9","","89","","15","","7","","9.7","","100.73","","","","","","Fog"
"2000-10-26 19:00","2000","10","26","19:00","13.1","","12.0","","93","","","","0","","8.0","","100.73","","","","","","Fog"
"2000-10-26 20:00","2000","10","26","20:00","13.0","","12.7","","98","","","","0","","4.8","","100.73","","","","","","Fog"
"2000-10-26 21:00","2000","10","26","21:00","13.3","","12.8","","97","","16","","6","","4.8","","100.70","","","","","","Fog"
"2000-10-26 22:00","2000","10","26","22:00","12.8","","12.4","","97","","12","","4","","4.0","","100.66","","","","","","Fog"
"2000-10-26 23:00","2000","10","26","23:00","11.9","","11.8","","99","","10","","4","","3.2","","100.60","","","","","","Fog"
"2000-10-27 00:00","2000","10","27","00:00","12.0","","11.7","","98","","12","","7","","3.2","","100.56","","","","","","Fog"
"2000-10-27 01:00","2000","10","27","01:00","12.0","","11.9","","99","","13","","4","","3.2","","100.49","","","","","","Fog"
"2000-10-27 02:00","2000","10","27","02:00","12.0","","11.7","","98","","14","","7","","3.2","","100.46","","","","","","Fog"
"2000-10-27 03:00","2000","10","27","03:00","11.3","","11.3","","100","","","","0","","4.0","","100.39","","","","","","Fog"
"2000-10-27 04:00","2000","10","27","04:00","11.8","","11.3","","97","","17","","7","","6.4","","100.29","","","","","","Fog"
"2000-10-27 05:00","2000","10","27","05:00","12.0","","11.0","","94","","20","","9","","8.0","","100.26","","","","","","Fog"
"2000-10-27 06:00","2000","10","27","06:00","12.0","","10.8","","92","","20","","9","","6.4","","100.26","","","","","","Fog"
"2000-10-27 07:00","2000","10","27","07:00","12.1","","10.9","","92","","19","","9","","4.8","","100.23","","","","","","Fog"
"2000-10-27 08:00","2000","10","27","08:00","13.1","","11.7","","91","","20","","15","","4.8","","100.26","","","","","","Fog"
"2000-10-27 09:00","2000","10","27","09:00","14.1","","11.8","","86","","22","","17","","8.0","","100.23","","","","","","Haze"
"2000-10-27 10:00","2000","10","27","10:00","14.5","","12.3","","87","","22","","17","","6.4","","100.19","","","","","","Rain Showers,Haze"
"2000-10-27 11:00","2000","10","27","11:00","14.0","","12.8","","92","","22","","15","","4.8","","100.13","","","","","","Moderate Rain Showers,Fog"
"2000-10-27 12:00","2000","10","27","12:00","14.3","","13.6","","96","","19","","17","","4.0","","99.99","","","","","","Rain Showers,Fog"
"2000-10-27 13:00","2000","10","27","13:00","15.2","","14.4","","95","","20","","11","","4.0","","99.96","","","","","","Rain Showers,Fog"
"2000-10-27 14:00","2000","10","27","14:00","15.9","","14.8","","93","","21","","13","","4.8","","99.89","","","","","","Fog"
"2000-10-27 15:00","2000","10","27","15:00","16.2","","14.9","","92","","20","","15","","4.8","","99.89","","","","","","Fog"
"2000-10-27 16:00","2000","10","27","16:00","16.2","","14.8","","91","","21","","19","","6.4","","99.86","","","","","","Fog"
"2000-10-27 17:00","2000","10","27","17:00","14.8","","14.2","","96","","20","","9","","3.6","","99.82","","","","","","Fog"
"2000-10-27 18:00","2000","10","27","18:00","14.5","","14.0","","97","","22","","17","","4.0","","99.86","","","","","","Fog"
"2000-10-27 19:00","2000","10","27","19:00","9.2","","7.3","","88","","33","","37","","19.3","","100.16","","","","","","Rain Showers"
"2000-10-27 20:00","2000","10","27","20:00","7.0","","4.3","","83","","33","","35","","24.1","","100.29","","","","","","Rain Showers"
"2000-10-27 21:00","2000","10","27","21:00","6.5","","2.8","","77","","33","","28","","24.1","","100.39","","","","","","Mostly Cloudy"
"2000-10-27 22:00","2000","10","27","22:00","6.3","","1.7","","72","","32","","35","","24.1","","100.46","","","","","","Mostly Cloudy"
"2000-10-27 23:00","2000","10","27","23:00","5.1","","0.7","","73","","33","","24","","24.1","","100.53","","","","","","Mainly Clear"
"2000-10-28 00:00","2000","10","28","00:00","4.4","","0.4","","75","","34","","22","","24.1","","100.63","","","","","","Mainly Clear"
"2000-10-28 01:00","2000","10","28","01:00","4.1","","-0.3","","73","","34","","24","","24.1","","100.70","","","","","","Mostly Cloudy"
"2000-10-28 02:00","2000","10","28","02:00","3.9","","-0.9","","71","","32","","24","","24.1","","100.76","","","","","","Mostly Cloudy"
"2000-10-28 03:00","2000","10","28","03:00","3.6","","-2.5","","64","","34","","24","","24.1","","100.80","","","","","","Mostly Cloudy"
"2000-10-28 04:00","2000","10","28","04:00","3.3","","-2.3","","67","","32","","24","","24.1","","100.86","","","","","","Mostly Cloudy"
"2000-10-28 05:00","2000","10","28","05:00","2.9","","-3.7","","62","","35","","33","","24.1","","100.93","","","","","","Mostly Cloudy"
"2000-10-28 06:00","2000","10","28","06:00","2.6","","-2.7","","68","","32","","20","","25.0","","101.00","","","","","","Mostly Cloudy"
"2000-10-28 07:00","2000","10","28","07:00","1.9","","-4.1","","64","","32","","22","","32.2","","101.10","","","","","","Mostly Cloudy"
"2000-10-28 08:00","2000","10","28","08:00","2.2","","-4.6","","61","","34","","30","","40.2","","101.13","","","","","","Mostly Cloudy"
"2000-10-28 09:00","2000","10","28","09:00","2.7","","-4.8","","58","","34","","33","","40.2","","101.16","","","","","","Mostly Cloudy"
"2000-10-28 10:00","2000","10","28","10:00","3.6","","-4.3","","56","","31","","30","","40.2","","101.16","","","","","","Mostly Cloudy"
"2000-10-28 11:00","2000","10","28","11:00","4.3","","-4.2","","54","","32","","32","","40.2","","101.20","","","","","","Mainly Clear"
"2000-10-28 12:00","2000","10","28","12:00","4.9","","-5.4","","47","","32","","28","","40.2","","101.16","","","","","","Mainly Clear"
"2000-10-28 13:00","2000","10","28","13:00","5.7","","-6.1","","42","","32","","28","","40.2","","101.10","","","","","","Clear"
"2000-10-28 14:00","2000","10","28","14:00","5.9","","-7.4","","38","","33","","33","","40.2","","101.06","","","","","","Clear"
"2000-10-28 15:00","2000","10","28","15:00","5.8","","-9.1","","33","","34","","32","","40.2","","101.10","","","","","","Clear"
"2000-10-28 16:00","2000","10","28","16:00","5.0","","-8.7","","36","","32","","35","","40.2","","101.13","","","","","","Clear"
"2000-10-28 17:00","2000","10","28","17:00","3.7","","-9.3","","38","","33","","32","","40.2","","101.16","","","","","","Clear"
"2000-10-28 18:00","2000","10","28","18:00","3.3","","-9.4","","39","","33","","30","","24.1","","101.20","","","","","","Clear"
"2000-10-28 19:00","2000","10","28","19:00","2.4","","-8.7","","44","","34","","19","","24.1","","101.23","","","","","","Clear"
"2000-10-28 20:00","2000","10","28","20:00","1.9","","-8.6","","46","","35","","24","","24.1","","101.27","","","","","","Clear"
"2000-10-28 21:00","2000","10","28","21:00","1.2","","-8.2","","49","","35","","26","","24.1","","101.30","","","","","","Clear"
"2000-10-28 22:00","2000","10","28","22:00","0.4","","-7.9","","54","","34","","20","","24.1","","101.27","","","","","","Clear"
"2000-10-28 23:00","2000","10","28","23:00","-0.4","","-7.5","","59","","33","","17","","24.1","","101.27","","","","-5","","Clear"
"2000-10-29 00:00","2000","10","29","00:00","-1.0","","-7.2","","63","","32","","22","","24.1","","101.27","","","","-7","","Clear"
"2000-10-29 01:00","2000","10","29","01:00","-1.4","","-7.2","","65","","32","","20","","24.1","","101.23","","","","-7","","Clear"
"2000-10-29 02:00","2000","10","29","02:00","-1.4","","-7.2","","65","","34","","20","","24.1","","101.20","","","","-7","","Clear"
"2000-10-29 03:00","2000","10","29","03:00","-1.9","","-7.1","","68","","33","","20","","24.1","","101.20","","","","-8","","Mainly Clear"
"2000-10-29 04:00","2000","10","29","04:00","-1.6","","-6.9","","67","","34","","20","","24.1","","101.16","","","","-7","","Mostly Cloudy"
"2000-10-29 05:00","2000","10","29","05:00","-1.8","","-7.2","","67","","34","","22","","24.1","","101.16","","","","-8","","Mainly Clear"
"2000-10-29 06:00","2000","10","29","06:00","-2.3","","-7.2","","69","","33","","20","","25.0","","101.16","","","","-8","","Mainly Clear"
"2000-10-29 07:00","2000","10","29","07:00","-2.5","","-6.9","","72","","32","","19","","40.2","","101.16","","","","-8","","Mainly Clear"
"2000-10-29 08:00","2000","10","29","08:00","-1.9","","-6.6","","70","","32","","22","","40.2","","101.10","","","","-8","","Mostly Cloudy"
"2000-10-29 09:00","2000","10","29","09:00","-1.2","","-7.1","","64","","35","","22","","40.2","","101.06","","","","-7","","Mainly Clear"
"2000-10-29 10:00","2000","10","29","10:00","-0.4","","-7.2","","60","","36","","26","","40.2","","101.10","","","","-7","","Mostly Cloudy"
"2000-10-29 11:00","2000","10","29","11:00","1.0","","-6.6","","57","","34","","20","","40.2","","101.03","","","","","","Mostly Cloudy"
"2000-10-29 12:00","2000","10","29","12:00","1.2","","-6.9","","55","","34","","20","","40.2","","100.96","","","","","","Mostly Cloudy"
"2000-10-29 13:00","2000","10","29","13:00","3.2","","-7.0","","47","","35","","22","","40.2","","100.90","","","","","","Mainly Clear"
"2000-10-29 14:00","2000","10","29","14:00","4.7","","-6.5","","44","","32","","13","","40.2","","100.90","","","","","","Mainly Clear"
"2000-10-29 15:00","2000","10","29","15:00","6.1","","-8.3","","35","","36","","20","","40.2","","100.90","","","","","","Mostly Cloudy"
"2000-10-29 16:00","2000","10","29","16:00","6.3","","-8.1","","35","","36","","19","","40.2","","100.93","","","","","","Mostly Cloudy"
"2000-10-29 17:00","2000","10","29","17:00","5.6","","-8.4","","36","","36","","17","","40.2","","100.93","","","","","","Mainly Clear"
"2000-10-29 18:00","2000","10","29","18:00","6.2","","-8.0","","35","","36","","15","","24.1","","100.96","","","","","","Mostly Cloudy"
"2000-10-29 19:00","2000","10","29","19:00","5.4","","-8.1","","37","","36","","15","","24.1","","100.93","","","","","","Mainly Clear"
"2000-10-29 20:00","2000","10","29","20:00","4.7","","-8.1","","39","","36","","15","","24.1","","100.96","","","","","","Mainly Clear"
"2000-10-29 21:00","2000","10","29","21:00","4.8","","-8.3","","38","","35","","17","","24.1","","100.90","","","","","","Mainly Clear"
"2000-10-29 22:00","2000","10","29","22:00","3.2","","-7.2","","46","","32","","20","","24.1","","100.86","","","","","","Clear"
"2000-10-29 23:00","2000","10","29","23:00","3.1","","-6.6","","49","","32","","15","","24.1","","100.83","","","","","","Mainly Clear"
"2000-10-30 00:00","2000","10","30","00:00","2.8","","-6.2","","52","","32","","15","","24.1","","100.83","","","","","","Mainly Clear"
"2000-10-30 01:00","2000","10","30","01:00","2.1","","-6.1","","55","","33","","19","","24.1","","100.80","","","","","","Clear"
"2000-10-30 02:00","2000","10","30","02:00","1.9","","-5.8","","57","","33","","17","","24.1","","100.80","","","","","","Clear"
"2000-10-30 03:00","2000","10","30","03:00","2.0","","-5.6","","57","","33","","20","","24.1","","100.76","","","","","","Mainly Clear"
"2000-10-30 04:00","2000","10","30","04:00","2.0","","-5.7","","57","","33","","20","","24.1","","100.80","","","","","","Mostly Cloudy"
"2000-10-30 05:00","2000","10","30","05:00","1.9","","-5.7","","57","","34","","13","","24.1","","100.86","","","","","","Mostly Cloudy"
"2000-10-30 06:00","2000","10","30","06:00","1.8","","-5.6","","58","","36","","15","","25.0","","100.86","","","","","","Mainly Clear"
"2000-10-30 07:00","2000","10","30","07:00","2.0","","-6.1","","55","","36","","15","","32.2","","100.93","","","","","","Mainly Clear"
"2000-10-30 08:00","2000","10","30","08:00","2.2","","-6.0","","55","","35","","15","","40.2","","100.96","","","","","","Mainly Clear"
"2000-10-30 09:00","2000","10","30","09:00","3.3","","-6.4","","49","","1","","19","","40.2","","101.00","","","","","","Mainly Clear"
"2000-10-30 10:00","2000","10","30","10:00","4.6","","-6.5","","44","","3","","22","","40.2","","101.00","","","","","","Mainly Clear"
"2000-10-30 11:00","2000","10","30","11:00","6.4","","-5.3","","43","","5","","20","","40.2","","101.00","","","","","","Mostly Cloudy"
"2000-10-30 12:00","2000","10","30","12:00","6.8","","-4.9","","43","","1","","19","","40.2","","101.00","","","","","","Mostly Cloudy"
"2000-10-30 13:00","2000","10","30","13:00","7.5","","-4.2","","43","","36","","19","","40.2","","100.96","","","","","","Mainly Clear"
"2000-10-30 14:00","2000","10","30","14:00","8.0","","-4.1","","42","","36","","20","","40.2","","100.96","","","","","","Mainly Clear"
"2000-10-30 15:00","2000","10","30","15:00","8.7","","-3.9","","41","","4","","19","","40.2","","101.00","","","","","","Mainly Clear"
"2000-10-30 16:00","2000","10","30","16:00","8.6","","-4.0","","41","","3","","15","","40.2","","101.06","","","","","","Mainly Clear"
"2000-10-30 17:00","2000","10","30","17:00","6.7","","-4.2","","46","","12","","13","","24.1","","101.10","","","","","","Mainly Clear"
"2000-10-30 18:00","2000","10","30","18:00","5.3","","-2.5","","57","","16","","7","","32.2","","101.16","","","","","","Mainly Clear"
"2000-10-30 19:00","2000","10","30","19:00","4.7","","-2.4","","60","","","","0","","25.0","","101.20","","","","","","Mainly Clear"
"2000-10-30 20:00","2000","10","30","20:00","4.0","","-2.5","","63","","","","0","","25.0","","101.23","","","","","","Mainly Clear"
"2000-10-30 21:00","2000","10","30","21:00","2.4","","-2.6","","70","","30","","7","","25.0","","101.23","","","","","","Clear"
"2000-10-30 22:00","2000","10","30","22:00","2.5","","-2.5","","70","","32","","9","","24.1","","101.16","","","","","","Mainly Clear"
"2000-10-30 23:00","2000","10","30","23:00","2.2","","-2.1","","73","","34","","7","","24.1","","101.16","","","","","","Clear"
"2000-10-31 00:00","2000","10","31","00:00","1.9","","-2.1","","75","","34","","11","","25.0","","101.16","","","","","","Mainly Clear"
"2000-10-31 01:00","2000","10","31","01:00","1.5","","-2.4","","75","","3","","7","","25.0","","101.13","","","","","","Mostly Cloudy"
"2000-10-31 02:00","2000","10","31","02:00","1.3","","-2.4","","76","","1","","13","","24.1","","101.16","","","","","","Mainly Clear"
"2000-10-31 03:00","2000","10","31","03:00","0.6","","-2.9","","77","","33","","4","","25.0","","101.13","","","","","","Clear"
"2000-10-31 04:00","2000","10","31","04:00","0.5","","-2.4","","81","","35","","13","","25.0","","101.16","","","","","","Clear"
"2000-10-31 05:00","2000","10","31","05:00","0.8","","-2.5","","79","","36","","11","","25.0","","101.20","","","","","","Clear"
"2000-10-31 06:00","2000","10","31","06:00","0.1","","-2.2","","84","","35","","7","","25.0","","101.20","","","","","","Clear"
"2000-10-31 07:00","2000","10","31","07:00","-0.7","","-2.0","","91","","33","","11","","40.2","","101.23","","","","-4","","Clear"
"2000-10-31 08:00","2000","10","31","08:00","1.1","","-1.4","","83","","35","","7","","40.2","","101.27","","","","","","Mainly Clear"
"2000-10-31 09:00","2000","10","31","09:00","3.3","","-1.2","","72","","2","","13","","40.2","","101.27","","","","","","Clear"
"2000-10-31 10:00","2000","10","31","10:00","4.9","","-1.4","","64","","3","","11","","40.2","","101.27","","","","","","Clear"
"2000-10-31 11:00","2000","10","31","11:00","6.5","","-0.9","","59","","1","","6","","40.2","","101.23","","","","","","Mainly Clear"
"2000-10-31 12:00","2000","10","31","12:00","6.8","","-1.2","","57","","36","","9","","40.2","","101.16","","","","","","Clear"
"2000-10-31 13:00","2000","10","31","13:00","7.4","","-1.0","","55","","34","","11","","40.2","","101.13","","","","","","Clear"
"2000-10-31 14:00","2000","10","31","14:00","8.0","","-1.1","","53","","6","","7","","40.2","","101.10","","","","","","Clear"
"2000-10-31 15:00","2000","10","31","15:00","8.6","","-1.2","","50","","9","","7","","40.2","","101.06","","","","","","Clear"
"2000-10-31 16:00","2000","10","31","16:00","9.0","","-1.1","","49","","","","0","","40.2","","101.06","","","","","","Clear"
"2000-10-31 17:00","2000","10","31","17:00","7.8","","-1.2","","53","","","","0","","40.2","","101.10","","","","","","Clear"
"2000-10-31 18:00","2000","10","31","18:00","6.8","","-1.4","","56","","","","0","","25.0","","101.10","","","","","","Clear"
"2000-10-31 19:00","2000","10","31","19:00","5.7","","-1.5","","60","","","","0","","25.0","","101.06","","","","","","Clear"
"2000-10-31 20:00","2000","10","31","20:00","3.3","","-1.3","","72","","27","","7","","25.0","","101.10","","","","","","Clear"
"2000-10-31 21:00","2000","10","31","21:00","4.1","","-0.8","","70","","31","","11","","25.0","","101.10","","","","","","Clear"
"2000-10-31 22:00","2000","10","31","22:00","3.3","","-0.3","","77","","32","","11","","25.0","","101.06","","","","","","Clear"
"2000-10-31 23:00","2000","10","31","23:00","2.9","","0.4","","84","","32","","11","","25.0","","101.03","","","","","","Clear"
