"Station Name","OTTAWA INTL A"
"Province","ONTARIO"
"Latitude","45.32"
"Longitude","-75.67"
"Elevation","114.90"
"Climate Identifier","6106001"
"WMO Identifier","71628"
"TC Identifier","YOW"
"All times are specified in Local Standard Time (LST). Add 1 hour to adjust for Daylight Saving Time where and when it is observed."

"Legend"
"E","Estimated"
"M","Missing"
"NA","Not Available"

"Date/Time","Year","Month","Day","Time","Temp (°C)","Temp Flag","Dew Point Temp (°C)","Dew Point Temp Flag","Rel Hum (%)","Rel Hum Flag","Wind Dir (10s deg)","Wind Dir Flag","Wind Spd (km/h)","Wind Spd Flag","Visibility (km)","Visibility Flag","Stn Press (kPa)","Stn Press Flag","Hmdx","Hmdx Flag","Wind Chill","Wind Chill Flag","Weather"
"2017-02-01 00:00","2017","02","01","00:00","-11.7","","-15.5","","74","","5","","18","","24.1","","99.47","","","","-20","","NA"
"2017-02-01 01:00","2017","02","01","01:00","-11.8","","-15.7","","73","","6","","15","","24.1","","99.46","","","","-19","","Cloudy"
"2017-02-01 02:00","2017","02","01","02:00","-12.0","","-14.6","","81","","5","","16","","4.8","","99.47","","","","-19","","Snow"
"2017-02-01 03:00","2017","02","01","03:00","-12.2","","-14.4","","84","","5","","16","","2.0","","99.47","","","","-20","","Snow"
"2017-02-01 04:00","2017","02","01","04:00","-12.0","","-14.0","","85","","5","","17","","6.4","","99.45","","","","-20","","Snow"
"2017-02-01 05:00","2017","02","01","05:00","-11.9","","-13.9","","85","","6","","15","","6.4","","99.43","","","","-19","","Snow"
"2017-02-01 06:00","2017","02","01","06:00","-11.7","","-13.7","","85","","6","","13","","6.4","","99.43","","","","-18","","Snow"
"2017-02-01 07:00","2017","02","01","07:00","-11.9","","-13.6","","87","","7","","9","","9.7","","99.47","","","","-17","","Snow"
"2017-02-01 08:00","2017","02","01","08:00","-12.5","","-14.2","","87","","5","","8","","16.1","","99.51","","","","-17","","Snow"
"2017-02-01 09:00","2017","02","01","09:00","-12.1","","-14.0","","86","","4","","7","","24.1","","99.55","","","","-16","","NA"
"2017-02-01 10:00","2017","02","01","10:00","-10.7","","-13.7","","79","","5","","6","","24.1","","99.57","","","","-14","","Mainly Clear"
"2017-02-01 11:00","2017","02","01","11:00","-9.2","","-13.0","","74","","8","","3","","24.1","","99.58","","","","-11","","NA"
"2017-02-01 12:00","2017","02","01","12:00","-9.0","","-12.5","","76","","36","","2","","12.9","","99.56","","","","-10","","Snow"
"2017-02-01 13:00","2017","02","01","13:00","-8.1","","-12.1","","73","","21","","8","","24.1","","99.55","","","","-12","","Mainly Clear"
"2017-02-01 14:00","2017","02","01","14:00","-7.4","","-11.4","","73","","21","","4","","24.1","","99.58","","","","-9","","NA"
"2017-02-01 15:00","2017","02","01","15:00","-6.3","","-11.1","","69","","22","","7","","24.1","","99.60","","","","-10","","NA"
"2017-02-01 16:00","2017","02","01","16:00","-6.9","","-11.5","","70","","23","","5","","24.1","","99.67","","","","-9","","Mostly Cloudy"
"2017-02-01 17:00","2017","02","01","17:00","-5.9","","-10.3","","71","","13","","6","","12.9","","99.74","","","","-9","","Snow"
"2017-02-01 18:00","2017","02","01","18:00","-5.8","","-9.4","","76","","10","","4","","12.9","","99.79","","","","-8","","Snow"
"2017-02-01 19:00","2017","02","01","19:00","-6.5","","-9.6","","79","","36","","2","","24.1","","99.82","","","","-7","","Mostly Cloudy"
"2017-02-01 20:00","2017","02","01","20:00","-9.0","","-11.2","","84","","26","","3","","24.1","","99.88","","","","-11","","NA"
"2017-02-01 21:00","2017","02","01","21:00","-7.5","","-10.2","","81","","19","","3","","24.1","","99.90","","","","-9","","NA"
"2017-02-01 22:00","2017","02","01","22:00","-7.4","","-9.8","","83","","36","","1","","24.1","","99.84","","","","-8","","Cloudy"
"2017-02-01 23:00","2017","02","01","23:00","-6.4","","-8.8","","83","","34","","7","","24.1","","99.84","","","","-10","","NA"
"2017-02-02 00:00","2017","02","02","00:00","-6.7","","-8.7","","86","","36","","3","","24.1","","99.81","","","","-8","","NA"
"2017-02-02 01:00","2017","02","02","01:00","-7.7","","-9.2","","89","","29","","8","","12.9","","99.86","","","","-12","","Cloudy"
"2017-02-02 02:00","2017","02","02","02:00","-6.8","","-8.3","","89","","28","","16","","8.1","","99.96","","","","-13","","Snow"
"2017-02-02 03:00","2017","02","02","03:00","-7.6","","-9.9","","84","","28","","23","","4.8","","100.04","","","","-15","","Snow"
"2017-02-02 04:00","2017","02","02","04:00","-10.0","","-14.1","","72","","29","","22","","24.1","","100.05","","","","-18","","Clear"
"2017-02-02 05:00","2017","02","02","05:00","-11.4","","-15.5","","72","","28","","22","","24.1","","100.13","","","","-20","","NA"
"2017-02-02 06:00","2017","02","02","06:00","-14.1","","-17.1","","78","","26","","15","","24.1","","100.18","","","","-22","","NA"
"2017-02-02 07:00","2017","02","02","07:00","-14.8","","-17.8","","78","","28","","14","","24.1","","100.27","","","","-22","","Clear"
"2017-02-02 08:00","2017","02","02","08:00","-15.6","","-18.2","","81","","26","","10","","24.1","","100.34","","","","-22","","NA"
"2017-02-02 09:00","2017","02","02","09:00","-14.0","","-17.7","","74","","30","","9","","24.1","","100.37","","","","-20","","NA"
"2017-02-02 10:00","2017","02","02","10:00","-13.0","","-17.2","","71","","26","","3","","24.1","","100.36","","","","-15","","Mainly Clear"
"2017-02-02 11:00","2017","02","02","11:00","-10.6","","-16.4","","63","","22","","11","","24.1","","100.37","","","","-16","","NA"
"2017-02-02 12:00","2017","02","02","12:00","-8.9","","-15.3","","60","","22","","10","","24.1","","100.24","","","","-14","","NA"
"2017-02-02 13:00","2017","02","02","13:00","-7.7","","-14.8","","57","","20","","3","","24.1","","100.15","","","","-9","","Mostly Cloudy"
"2017-02-02 14:00","2017","02","02","14:00","-7.0","","-12.0","","68","","25","","10","","4.8","","100.12","","","","-12","","Snow"
"2017-02-02 15:00","2017","02","02","15:00","-7.5","","-9.5","","86","","34","","4","","2.4","","100.10","","","","-10","","Snow"
"2017-02-02 16:00","2017","02","02","16:00","-7.2","","-9.5","","84","","28","","11","","1.6","","100.16","","","","-12","","Snow"
"2017-02-02 17:00","2017","02","02","17:00","-8.7","","-10.6","","86","","25","","9","","24.1","","100.19","","","","-13","","NA"
"2017-02-02 18:00","2017","02","02","18:00","-7.8","","-10.7","","80","","29","","13","","16.1","","100.26","","","","-14","","Snow"
"2017-02-02 19:00","2017","02","02","19:00","-8.3","","-11.3","","79","","29","","14","","24.1","","100.34","","","","-14","","Snow"
"2017-02-02 20:00","2017","02","02","20:00","-8.3","","-11.3","","79","","29","","14","","24.1","","100.41","","","","-14","","NA"
"2017-02-02 21:00","2017","02","02","21:00","-8.4","","-13.1","","69","","29","","14","","24.1","","100.49","","","","-15","","NA"
"2017-02-02 22:00","2017","02","02","22:00","-8.8","","-14.3","","65","","29","","9","","24.1","","100.51","","","","-13","","Cloudy"
"2017-02-02 23:00","2017","02","02","23:00","-9.2","","-14.6","","65","","24","","4","","24.1","","100.50","","","","-11","","NA"
"2017-02-03 00:00","2017","02","03","00:00","-9.1","","-14.7","","64","","19","","8","","24.1","","100.48","","","","-13","","Snow"
"2017-02-03 01:00","2017","02","03","01:00","-9.2","","-13.5","","71","","18","","6","","24.1","","100.44","","","","-13","","Snow"
"2017-02-03 02:00","2017","02","03","02:00","-8.8","","-11.7","","80","","19","","8","","24.1","","100.42","","","","-13","","Snow"
"2017-02-03 03:00","2017","02","03","03:00","-7.9","","-10.8","","80","","22","","13","","24.1","","100.41","","","","-14","","Snow"
"2017-02-03 04:00","2017","02","03","04:00","-7.4","","-11.8","","71","","24","","17","","24.1","","100.39","","","","-14","","Snow"
"2017-02-03 05:00","2017","02","03","05:00","-7.7","","-11.7","","73","","24","","15","","24.1","","100.39","","","","-14","","NA"
"2017-02-03 06:00","2017","02","03","06:00","-8.2","","-13.3","","67","","25","","11","","24.1","","100.40","","","","-13","","NA"
"2017-02-03 07:00","2017","02","03","07:00","-8.4","","-12.6","","72","","26","","12","","24.1","","100.44","","","","-14","","Mostly Cloudy"
"2017-02-03 08:00","2017","02","03","08:00","-8.6","","-14.6","","62","","28","","15","","24.1","","100.49","","","","-15","","NA"
"2017-02-03 09:00","2017","02","03","09:00","-8.9","","-15.5","","59","","29","","18","","24.1","","100.53","","","","-16","","NA"
"2017-02-03 10:00","2017","02","03","10:00","-8.2","","-15.1","","58","","30","","18","","24.1","","100.55","","","","-15","","Mainly Clear"
"2017-02-03 11:00","2017","02","03","11:00","-8.0","","-15.1","","57","","29","","14","","24.1","","100.51","","","","-14","","NA"
"2017-02-03 12:00","2017","02","03","12:00","-6.9","","-14.5","","55","","25","","15","","24.1","","100.45","","","","-13","","NA"
"2017-02-03 13:00","2017","02","03","13:00","-6.4","","-14.7","","52","","28","","19","","24.1","","100.36","","","","-13","","Mainly Clear"
"2017-02-03 14:00","2017","02","03","14:00","-6.2","","-13.9","","55","","26","","22","","24.1","","100.30","","","","-13","","NA"
"2017-02-03 15:00","2017","02","03","15:00","-6.2","","-15.0","","50","","26","","18","","24.1","","100.30","","","","-13","","NA"
"2017-02-03 16:00","2017","02","03","16:00","-6.3","","-14.6","","52","","26","","18","","24.1","","100.33","","","","-13","","Mostly Cloudy"
"2017-02-03 17:00","2017","02","03","17:00","-6.5","","-13.9","","56","","26","","17","","24.1","","100.34","","","","-13","","NA"
"2017-02-03 18:00","2017","02","03","18:00","-7.4","","-14.1","","59","","24","","8","","24.1","","100.35","","","","-11","","NA"
"2017-02-03 19:00","2017","02","03","19:00","-6.4","","-13.4","","58","","24","","16","","24.1","","100.38","","","","-13","","Cloudy"
"2017-02-03 20:00","2017","02","03","20:00","-6.5","","-14.1","","55","","27","","18","","24.1","","100.43","","","","-13","","NA"
"2017-02-03 21:00","2017","02","03","21:00","-7.2","","-15.0","","54","","28","","17","","24.1","","100.49","","","","-14","","NA"
"2017-02-03 22:00","2017","02","03","22:00","-9.2","","-16.2","","57","","26","","14","","24.1","","100.53","","","","-16","","Clear"
"2017-02-03 23:00","2017","02","03","23:00","-9.7","","-16.3","","59","","28","","12","","24.1","","100.59","","","","-16","","NA"
"2017-02-04 00:00","2017","02","04","00:00","-10.8","","-16.2","","65","","25","","9","","24.1","","100.63","","","","-16","","NA"
"2017-02-04 01:00","2017","02","04","01:00","-12.4","","-17.2","","68","","25","","14","","24.1","","100.64","","","","-19","","Mainly Clear"
"2017-02-04 02:00","2017","02","04","02:00","-12.4","","-17.0","","69","","25","","14","","24.1","","100.70","","","","-19","","NA"
"2017-02-04 03:00","2017","02","04","03:00","-12.8","","-17.0","","71","","24","","12","","24.1","","100.73","","","","-19","","NA"
"2017-02-04 04:00","2017","02","04","04:00","-13.1","","-16.8","","74","","23","","14","","24.1","","100.76","","","","-20","","Mainly Clear"
"2017-02-04 05:00","2017","02","04","05:00","-13.3","","-16.7","","76","","24","","11","","24.1","","100.80","","","","-20","","NA"
"2017-02-04 06:00","2017","02","04","06:00","-13.7","","-16.6","","79","","23","","12","","24.1","","100.81","","","","-20","","NA"
"2017-02-04 07:00","2017","02","04","07:00","-14.1","","-16.7","","81","","22","","10","","24.1","","100.85","","","","-20","","Clear"
"2017-02-04 08:00","2017","02","04","08:00","-13.2","","-15.8","","81","","21","","9","","24.1","","100.87","","","","-19","","NA"
"2017-02-04 09:00","2017","02","04","09:00","-9.8","","-12.8","","79","","23","","17","","24.1","","100.86","","","","-17","","NA"
"2017-02-04 10:00","2017","02","04","10:00","-7.9","","-11.1","","78","","24","","17","","24.1","","100.86","","","","-15","","Snow"
"2017-02-04 11:00","2017","02","04","11:00","-6.4","","-10.5","","73","","23","","21","","24.1","","100.80","","","","-13","","NA"
"2017-02-04 12:00","2017","02","04","12:00","-5.1","","-10.1","","68","","23","","27","","24.1","","100.70","","","","-13","","NA"
"2017-02-04 13:00","2017","02","04","13:00","-4.5","","-9.9","","66","","24","","28","","24.1","","100.63","","","","-12","","Mostly Cloudy"
"2017-02-04 14:00","2017","02","04","14:00","-3.7","","-10.2","","61","","23","","26","","24.1","","100.55","","","","-11","","NA"
"2017-02-04 15:00","2017","02","04","15:00","-3.7","","-10.8","","58","","23","","32","","24.1","","100.53","","","","-12","","NA"
"2017-02-04 16:00","2017","02","04","16:00","-3.7","","-10.4","","60","","22","","26","","24.1","","100.55","","","","-11","","Cloudy"
"2017-02-04 17:00","2017","02","04","17:00","-3.9","","-10.4","","61","","23","","22","","24.1","","100.54","","","","-10","","NA"
"2017-02-04 18:00","2017","02","04","18:00","-4.1","","-10.8","","60","","22","","23","","24.1","","100.52","","","","-11","","NA"
"2017-02-04 19:00","2017","02","04","19:00","-4.3","","-11.0","","60","","22","","25","","24.1","","100.52","","","","-11","","Mostly Cloudy"
"2017-02-04 20:00","2017","02","04","20:00","-4.6","","-10.8","","62","","22","","27","","24.1","","100.53","","","","-12","","NA"
"2017-02-04 21:00","2017","02","04","21:00","-5.0","","-11.0","","63","","22","","25","","24.1","","100.52","","","","-12","","NA"
"2017-02-04 22:00","2017","02","04","22:00","-5.3","","-11.3","","63","","21","","20","","24.1","","100.46","","","","-12","","Cloudy"
"2017-02-04 23:00","2017","02","04","23:00","-6.0","","-9.9","","74","","21","","22","","6.4","","100.43","","","","-13","","Snow"
"2017-02-05 00:00","2017","02","05","00:00","-5.5","","-11.5","","63","","22","","18","","24.1","","100.32","","","","-12","","NA"
"2017-02-05 01:00","2017","02","05","01:00","-5.9","","-11.7","","64","","21","","10","","24.1","","100.21","","","","-10","","Cloudy"
"2017-02-05 02:00","2017","02","05","02:00","-6.4","","-12.0","","65","","18","","9","","24.1","","100.11","","","","-11","","NA"
"2017-02-05 03:00","2017","02","05","03:00","-5.1","","-11.7","","60","","20","","13","","24.1","","100.03","","","","-10","","NA"
"2017-02-05 04:00","2017","02","05","04:00","-5.3","","-10.9","","65","","18","","12","","16.1","","99.94","","","","-10","","Snow"
"2017-02-05 05:00","2017","02","05","05:00","-5.6","","-10.4","","69","","16","","12","","24.1","","99.83","","","","-11","","Snow"
"2017-02-05 06:00","2017","02","05","06:00","-5.8","","-7.3","","89","","17","","14","","2.4","","99.74","","","","-11","","Snow"
"2017-02-05 07:00","2017","02","05","07:00","-5.5","","-6.6","","92","","17","","12","","4.0","","99.61","","","","-10","","Snow"
"2017-02-05 08:00","2017","02","05","08:00","-5.3","","-7.6","","84","","15","","13","","9.7","","99.50","","","","-10","","Snow"
"2017-02-05 09:00","2017","02","05","09:00","-4.3","","-9.4","","68","","19","","13","","9.7","","99.44","","","","-9","","Snow"
"2017-02-05 10:00","2017","02","05","10:00","-4.2","","-5.9","","88","","19","","15","","2.0","","99.31","","","","-10","","Snow"
"2017-02-05 11:00","2017","02","05","11:00","-3.0","","-5.3","","84","","20","","17","","3.2","","99.23","","","","-9","","Snow"
"2017-02-05 12:00","2017","02","05","12:00","-2.1","","-4.3","","85","","22","","22","","4.0","","99.11","","","","-8","","Snow"
"2017-02-05 13:00","2017","02","05","13:00","-1.9","","-3.5","","89","","22","","17","","3.2","","98.99","","","","-7","","Snow,Blowing Snow"
"2017-02-05 14:00","2017","02","05","14:00","-1.2","","-4.1","","81","","22","","24","","12.9","","98.94","","","","-7","","Snow,Blowing Snow"
"2017-02-05 15:00","2017","02","05","15:00","-0.8","","-4.7","","75","","23","","26","","16.1","","98.92","","","","-7","","Snow,Blowing Snow"
"2017-02-05 16:00","2017","02","05","16:00","-1.0","","-4.5","","77","","22","","20","","16.1","","98.90","","","","-7","","Snow,Blowing Snow"
"2017-02-05 17:00","2017","02","05","17:00","-1.0","","-4.0","","80","","22","","26","","12.9","","98.96","","","","-7","","Snow,Blowing Snow"
"2017-02-05 18:00","2017","02","05","18:00","-1.1","","-3.3","","85","","23","","26","","16.1","","99.02","","","","-7","","Snow,Blowing Snow"
"2017-02-05 19:00","2017","02","05","19:00","-1.9","","-2.7","","94","","27","","21","","12.9","","99.16","","","","-8","","Snow,Blowing Snow"
"2017-02-05 20:00","2017","02","05","20:00","-2.7","","-5.5","","81","","31","","49","","3.2","","99.32","","","","-12","","Snow,Blowing Snow"
"2017-02-05 21:00","2017","02","05","21:00","-4.4","","-8.5","","73","","29","","30","","24.1","","99.47","","","","-12","","Blowing Snow"
"2017-02-05 22:00","2017","02","05","22:00","-6.8","","-11.0","","72","","29","","32","","24.1","","99.72","","","","-16","","Blowing Snow"
"2017-02-05 23:00","2017","02","05","23:00","-8.8","","-13.7","","68","","30","","35","","24.1","","99.88","","","","-19","","Blowing Snow"
"2017-02-06 00:00","2017","02","06","00:00","-9.7","","-14.9","","66","","28","","22","","24.1","","100.03","","","","-18","","NA"
"2017-02-06 01:00","2017","02","06","01:00","-10.7","","-16.1","","65","","29","","25","","24.1","","100.16","","","","-20","","Mainly Clear"
"2017-02-06 02:00","2017","02","06","02:00","-12.2","","-17.1","","67","","32","","22","","24.1","","100.32","","","","-21","","NA"
"2017-02-06 03:00","2017","02","06","03:00","-14.2","","-18.5","","70","","31","","18","","24.1","","100.43","","","","-23","","NA"
"2017-02-06 04:00","2017","02","06","04:00","-14.0","","-18.0","","72","","32","","7","","24.1","","100.47","","","","-19","","Mainly Clear"
"2017-02-06 05:00","2017","02","06","05:00","-14.1","","-17.6","","75","","26","","4","","24.1","","100.46","","","","-17","","NA"
"2017-02-06 06:00","2017","02","06","06:00","-14.5","","-17.9","","76","","26","","7","","24.1","","100.57","","","","-19","","NA"
"2017-02-06 07:00","2017","02","06","07:00","-14.1","","-18.1","","72","","23","","5","","24.1","","100.61","","","","-18","","Cloudy"
"2017-02-06 08:00","2017","02","06","08:00","-14.2","","-18.2","","72","","23","","7","","24.1","","100.61","","","","-19","","NA"
"2017-02-06 09:00","2017","02","06","09:00","-13.3","","-18.4","","66","","16","","4","","24.1","","100.64","","","","-16","","NA"
"2017-02-06 10:00","2017","02","06","10:00","-12.2","","-18.7","","59","","36","","2","","24.1","","100.64","","","","-13","","Mostly Cloudy"
"2017-02-06 11:00","2017","02","06","11:00","-11.3","","-17.6","","60","","24","","4","","24.1","","100.66","","","","-14","","NA"
"2017-02-06 12:00","2017","02","06","12:00","-10.4","","-17.2","","58","","22","","11","","24.1","","100.61","","","","-16","","NA"
"2017-02-06 13:00","2017","02","06","13:00","-10.0","","-16.4","","60","","24","","11","","16.1","","100.51","","","","-16","","Cloudy"
"2017-02-06 14:00","2017","02","06","14:00","-10.0","","-15.4","","65","","21","","8","","12.9","","100.52","","","","-14","","Snow"
"2017-02-06 15:00","2017","02","06","15:00","-9.9","","-14.0","","72","","18","","7","","12.9","","100.51","","","","-14","","Snow"
"2017-02-06 16:00","2017","02","06","16:00","-9.8","","-12.5","","81","","16","","11","","4.0","","100.49","","","","-15","","Snow"
"2017-02-06 17:00","2017","02","06","17:00","-10.2","","-12.3","","85","","10","","10","","3.2","","100.46","","","","-15","","Snow"
"2017-02-06 18:00","2017","02","06","18:00","-10.0","","-11.8","","87","","9","","10","","4.0","","100.44","","","","-15","","Snow"
"2017-02-06 19:00","2017","02","06","19:00","-10.1","","-11.7","","88","","8","","9","","3.2","","100.44","","","","-15","","Snow"
"2017-02-06 20:00","2017","02","06","20:00","-10.2","","-11.8","","88","","6","","10","","6.4","","100.41","","","","-15","","Snow"
"2017-02-06 21:00","2017","02","06","21:00","-10.1","","-11.6","","89","","7","","11","","8.1","","100.40","","","","-16","","Snow"
"2017-02-06 22:00","2017","02","06","22:00","-9.9","","-11.4","","89","","5","","10","","6.4","","100.41","","","","-15","","Snow"
"2017-02-06 23:00","2017","02","06","23:00","-10.0","","-11.6","","88","","7","","10","","8.1","","100.38","","","","-15","","Snow"
"2017-02-07 00:00","2017","02","07","00:00","-10.1","","-11.7","","88","","6","","12","","3.2","","100.40","","","","-16","","Snow"
"2017-02-07 01:00","2017","02","07","01:00","-10.3","","-11.9","","88","","5","","17","","4.8","","100.40","","","","-18","","Snow"
"2017-02-07 02:00","2017","02","07","02:00","-10.5","","-12.3","","87","","5","","19","","3.2","","100.41","","","","-18","","Snow"
"2017-02-07 03:00","2017","02","07","03:00","-10.6","","-12.5","","86","","6","","21","","12.9","","100.41","","","","-19","","Snow"
"2017-02-07 04:00","2017","02","07","04:00","-10.5","","-12.4","","86","","6","","22","","9.7","","100.42","","","","-19","","Snow"
"2017-02-07 05:00","2017","02","07","05:00","-10.5","","-12.6","","85","","6","","20","","16.1","","100.42","","","","-18","","NA"
"2017-02-07 06:00","2017","02","07","06:00","-10.5","","-12.7","","84","","7","","19","","24.1","","100.40","","","","-18","","NA"
"2017-02-07 07:00","2017","02","07","07:00","-10.9","","-13.1","","84","","5","","24","","16.1","","100.42","","","","-20","","Snow"
"2017-02-07 08:00","2017","02","07","08:00","-10.8","","-13.5","","81","","7","","24","","16.1","","100.36","","","","-20","","Snow"
"2017-02-07 09:00","2017","02","07","09:00","-10.5","","-13.5","","79","","7","","25","","24.1","","100.40","","","","-19","","NA"
"2017-02-07 10:00","2017","02","07","10:00","-10.7","","-13.8","","78","","6","","31","","12.9","","100.35","","","","-21","","Blowing Snow"
"2017-02-07 11:00","2017","02","07","11:00","-10.7","","-15.2","","70","","6","","29","","24.1","","100.25","","","","-20","","Blowing Snow"
"2017-02-07 12:00","2017","02","07","12:00","-10.3","","-15.9","","64","","6","","37","","24.1","","100.02","","","","-21","","Blowing Snow"
"2017-02-07 13:00","2017","02","07","13:00","-10.1","","-15.9","","63","","7","","25","","24.1","","99.91","","","","-19","","Blowing Snow"
"2017-02-07 14:00","2017","02","07","14:00","-9.8","","-15.6","","63","","6","","22","","24.1","","99.67","","","","-18","","Blowing Snow"
"2017-02-07 15:00","2017","02","07","15:00","-9.9","","-14.9","","67","","7","","30","","24.1","","99.54","","","","-19","","Blowing Snow"
"2017-02-07 16:00","2017","02","07","16:00","-9.9","","-14.0","","72","","8","","26","","24.1","","99.39","","","","-19","","Blowing Snow"
"2017-02-07 17:00","2017","02","07","17:00","-10.1","","-12.9","","80","","8","","30","","12.9","","99.19","","","","-20","","Freezing Rain,Blowing Snow"
"2017-02-07 18:00","2017","02","07","18:00","-10.6","","-12.5","","86","","6","","32","","3.2","","98.97","","","","-21","","Snow,Ice Pellets,Blowing Snow"
"2017-02-07 19:00","2017","02","07","19:00","-10.3","","-11.9","","88","","7","","28","","1.6","","98.76","","","","-20","","Snow,Ice Pellets,Blowing Snow"
"2017-02-07 20:00","2017","02","07","20:00","-9.7","","-11.3","","88","","7","","32","","1.6","","98.46","","","","-19","","Snow,Ice Pellets,Blowing Snow"
"2017-02-07 21:00","2017","02","07","21:00","-8.8","","-10.2","","90","","8","","24","","2.0","","98.21","","","","-17","","Snow,Ice Pellets,Blowing Snow"
"2017-02-07 22:00","2017","02","07","22:00","-7.5","","-8.9","","90","","8","","27","","2.0","","98.00","","","","-16","","Snow,Ice Pellets,Blowing Snow"
"2017-02-07 23:00","2017","02","07","23:00","-6.1","","-7.1","","93","","8","","22","","3.2","","97.87","","","","-13","","Freezing Rain,Snow,Ice Pellets"
"2017-02-08 00:00","2017","02","08","00:00","-5.5","","-6.3","","94","","7","","21","","8.1","","97.70","","","","-12","","Freezing Rain,Fog"
"2017-02-08 01:00","2017","02","08","01:00","-4.8","","-5.3","","96","","6","","19","","8.1","","97.51","","","","-11","","Freezing Rain,Fog"
"2017-02-08 02:00","2017","02","08","02:00","-3.6","","-4.0","","97","","7","","12","","6.4","","97.44","","","","-8","","Freezing Rain,Fog"
"2017-02-08 03:00","2017","02","08","03:00","-3.1","","-3.5","","97","","1","","4","","6.4","","97.52","","","","-5","","Snow Grains,Fog"
"2017-02-08 04:00","2017","02","08","04:00","-0.1","","-0.4","","98","","25","","17","","12.9","","97.68","","","","-5","","Cloudy"
"2017-02-08 05:00","2017","02","08","05:00","1.6","","0.9","","95","","25","","16","","12.9","","97.79","","","","","","NA"
"2017-02-08 06:00","2017","02","08","06:00","2.4","","1.2","","92","","23","","23","","24.1","","98.00","","","","","","NA"
"2017-02-08 07:00","2017","02","08","07:00","2.8","","0.5","","85","","23","","26","","24.1","","98.17","","","","","","Cloudy"
"2017-02-08 08:00","2017","02","08","08:00","-1.8","","-3.7","","87","","29","","28","","24.1","","98.59","","","","-9","","Snow Showers,Blowing Snow"
"2017-02-08 09:00","2017","02","08","09:00","-2.5","","-6.7","","73","","29","","33","","24.1","","98.83","","","","-10","","Blowing Snow"
"2017-02-08 10:00","2017","02","08","10:00","-3.9","","-8.4","","71","","30","","34","","24.1","","99.00","","","","-12","","Blowing Snow"
"2017-02-08 11:00","2017","02","08","11:00","-4.2","","-9.1","","69","","30","","27","","24.1","","99.16","","","","-12","","NA"
"2017-02-08 12:00","2017","02","08","12:00","-3.7","","-9.4","","65","","30","","28","","24.1","","99.23","","","","-11","","NA"
"2017-02-08 13:00","2017","02","08","13:00","-4.0","","-10.1","","63","","31","","32","","24.1","","99.25","","","","-12","","Mainly Clear"
"2017-02-08 14:00","2017","02","08","14:00","-3.6","","-10.1","","61","","30","","23","","24.1","","99.33","","","","-10","","NA"
"2017-02-08 15:00","2017","02","08","15:00","-3.2","","-10.6","","57","","31","","21","","24.1","","99.38","","","","-9","","NA"
"2017-02-08 16:00","2017","02","08","16:00","-3.8","","-11.6","","55","","30","","23","","24.1","","99.45","","","","-11","","Mainly Clear"
"2017-02-08 17:00","2017","02","08","17:00","-4.5","","-13.0","","52","","31","","23","","24.1","","99.49","","","","-11","","NA"
"2017-02-08 18:00","2017","02","08","18:00","-5.6","","-13.3","","55","","31","","24","","24.1","","99.55","","","","-13","","NA"
"2017-02-08 19:00","2017","02","08","19:00","-6.6","","-13.6","","58","","29","","20","","24.1","","99.68","","","","-14","","Mostly Cloudy"
"2017-02-08 20:00","2017","02","08","20:00","-8.2","","-14.3","","62","","32","","16","","24.1","","99.73","","","","-15","","NA"
"2017-02-08 21:00","2017","02","08","21:00","-9.0","","-14.8","","63","","34","","19","","24.1","","99.85","","","","-16","","NA"
"2017-02-08 22:00","2017","02","08","22:00","-10.3","","-16.1","","63","","35","","22","","24.1","","99.93","","","","-19","","Mostly Cloudy"
"2017-02-08 23:00","2017","02","08","23:00","-11.5","","-17.6","","61","","34","","18","","24.1","","99.95","","","","-19","","NA"
"2017-02-09 00:00","2017","02","09","00:00","-12.3","","-18.6","","60","","34","","24","","24.1","","99.98","","","","-22","","NA"
"2017-02-09 01:00","2017","02","09","01:00","-13.2","","-19.4","","60","","36","","21","","24.1","","100.00","","","","-22","","Cloudy"
"2017-02-09 02:00","2017","02","09","02:00","-14.2","","-20.0","","62","","1","","18","","24.1","","99.96","","","","-23","","NA"
"2017-02-09 03:00","2017","02","09","03:00","-14.8","","-20.8","","61","","2","","22","","24.1","","99.95","","","","-24","","NA"
"2017-02-09 04:00","2017","02","09","04:00","-15.2","","-21.0","","62","","3","","19","","24.1","","99.92","","","","-24","","Cloudy"
"2017-02-09 05:00","2017","02","09","05:00","-15.4","","-21.3","","61","","1","","10","","24.1","","100.01","","","","-22","","NA"
"2017-02-09 06:00","2017","02","09","06:00","-15.7","","-21.4","","62","","36","","12","","24.1","","100.07","","","","-23","","NA"
"2017-02-09 07:00","2017","02","09","07:00","-16.2","","-21.9","","62","","34","","18","","24.1","","100.03","","","","-25","","Cloudy"
"2017-02-09 08:00","2017","02","09","08:00","-16.5","","-22.2","","62","","36","","14","","24.1","","100.03","","","","-24","","NA"
"2017-02-09 09:00","2017","02","09","09:00","-16.3","","-22.6","","59","","36","","16","","24.1","","100.06","","","","-25","","NA"
"2017-02-09 10:00","2017","02","09","10:00","-15.5","","-22.0","","58","","35","","10","","24.1","","100.05","","","","-22","","Mostly Cloudy"
"2017-02-09 11:00","2017","02","09","11:00","-14.9","","-21.7","","57","","32","","8","","24.1","","100.04","","","","-20","","NA"
"2017-02-09 12:00","2017","02","09","12:00","-13.5","","-21.6","","51","","31","","10","","24.1","","99.98","","","","-19","","NA"
"2017-02-09 13:00","2017","02","09","13:00","-13.1","","-21.0","","52","","28","","21","","24.1","","99.98","","","","-22","","Mostly Cloudy"
"2017-02-09 14:00","2017","02","09","14:00","-12.4","","-20.6","","51","","29","","20","","24.1","","99.92","","","","-21","","NA"
"2017-02-09 15:00","2017","02","09","15:00","-11.7","","-20.2","","50","","31","","19","","24.1","","99.94","","","","-20","","NA"
"2017-02-09 16:00","2017","02","09","16:00","-11.5","","-20.2","","49","","28","","19","","24.1","","99.95","","","","-20","","Mainly Clear"
"2017-02-09 17:00","2017","02","09","17:00","-12.5","","-20.0","","54","","24","","16","","24.1","","100.00","","","","-20","","NA"
"2017-02-09 18:00","2017","02","09","18:00","-13.8","","-20.4","","58","","25","","11","","24.1","","100.05","","","","-20","","NA"
"2017-02-09 19:00","2017","02","09","19:00","-14.2","","-20.8","","58","","25","","10","","24.1","","100.04","","","","-20","","Clear"
"2017-02-09 20:00","2017","02","09","20:00","-14.4","","-21.0","","58","","23","","5","","24.1","","100.02","","","","-18","","NA"
"2017-02-09 21:00","2017","02","09","21:00","-15.3","","-20.3","","66","","20","","6","","24.1","","100.03","","","","-20","","NA"
"2017-02-09 22:00","2017","02","09","22:00","-15.8","","-20.8","","66","","23","","13","","24.1","","100.02","","","","-23","","Cloudy"
"2017-02-09 23:00","2017","02","09","23:00","-15.6","","-21.1","","63","","24","","12","","24.1","","100.02","","","","-23","","NA"
"2017-02-10 00:00","2017","02","10","00:00","-16.1","","-20.9","","67","","25","","14","","24.1","","100.08","","","","-24","","NA"
"2017-02-10 01:00","2017","02","10","01:00","-15.8","","-19.8","","72","","28","","14","","24.1","","100.12","","","","-24","","Mainly Clear"
"2017-02-10 02:00","2017","02","10","02:00","-15.8","","-19.8","","72","","27","","20","","24.1","","100.25","","","","-25","","NA"
"2017-02-10 03:00","2017","02","10","03:00","-16.0","","-19.2","","77","","28","","16","","24.1","","100.38","","","","-24","","NA"
"2017-02-10 04:00","2017","02","10","04:00","-15.7","","-19.0","","76","","29","","17","","24.1","","100.49","","","","-24","","Snow"
"2017-02-10 05:00","2017","02","10","05:00","-16.1","","-19.4","","76","","28","","23","","24.1","","100.62","","","","-26","","Snow"
"2017-02-10 06:00","2017","02","10","06:00","-16.6","","-23.7","","55","","29","","30","","24.1","","100.69","","","","-28","","NA"
"2017-02-10 07:00","2017","02","10","07:00","-17.4","","-25.3","","51","","29","","25","","24.1","","100.82","","","","-28","","Clear"
"2017-02-10 08:00","2017","02","10","08:00","-17.8","","-25.4","","52","","29","","17","","24.1","","100.93","","","","-27","","NA"
"2017-02-10 09:00","2017","02","10","09:00","-17.3","","-25.2","","51","","30","","19","","24.1","","101.00","","","","-27","","NA"
"2017-02-10 10:00","2017","02","10","10:00","-16.6","","-25.2","","48","","27","","19","","24.1","","101.07","","","","-26","","Clear"
"2017-02-10 11:00","2017","02","10","11:00","-16.0","","-25.2","","46","","31","","19","","24.1","","101.08","","","","-25","","NA"
"2017-02-10 12:00","2017","02","10","12:00","-15.1","","-24.6","","45","","30","","15","","24.1","","101.00","","","","-23","","NA"
"2017-02-10 13:00","2017","02","10","13:00","-14.4","","-25.0","","41","","29","","12","","24.1","","100.93","","","","-21","","Mainly Clear"
"2017-02-10 14:00","2017","02","10","14:00","-13.9","","-24.8","","40","","31","","10","","24.1","","100.86","","","","-20","","NA"
"2017-02-10 15:00","2017","02","10","15:00","-13.2","","-24.7","","38","","34","","6","","24.1","","100.82","","","","-17","","NA"
"2017-02-10 16:00","2017","02","10","16:00","-13.5","","-26.0","","35","","36","","1","","24.1","","100.74","","","","-14","","Mostly Cloudy"
"2017-02-10 17:00","2017","02","10","17:00","-13.5","","-25.0","","38","","13","","9","","24.1","","100.69","","","","-19","","NA"
"2017-02-10 18:00","2017","02","10","18:00","-13.5","","-23.3","","44","","12","","18","","24.1","","100.58","","","","-22","","NA"
"2017-02-10 19:00","2017","02","10","19:00","-14.0","","-21.9","","52","","11","","16","","16.1","","100.53","","","","-22","","Snow"
"2017-02-10 20:00","2017","02","10","20:00","-14.6","","-18.4","","73","","10","","19","","6.4","","100.47","","","","-23","","Snow"
"2017-02-10 21:00","2017","02","10","21:00","-14.7","","-17.3","","81","","8","","17","","2.4","","100.35","","","","-23","","Snow"
"2017-02-10 22:00","2017","02","10","22:00","-14.9","","-17.3","","82","","7","","21","","2.8","","100.29","","","","-24","","Snow"
"2017-02-10 23:00","2017","02","10","23:00","-14.7","","-17.1","","82","","7","","19","","2.4","","100.18","","","","-24","","Snow"
"2017-02-11 00:00","2017","02","11","00:00","-14.6","","-17.0","","82","","7","","27","","4.8","","100.08","","","","-25","","Snow"
"2017-02-11 01:00","2017","02","11","01:00","-14.5","","-16.9","","82","","8","","24","","4.8","","99.93","","","","-24","","Snow"
"2017-02-11 02:00","2017","02","11","02:00","-14.3","","-16.7","","82","","7","","25","","8.1","","99.86","","","","-24","","Snow"
"2017-02-11 03:00","2017","02","11","03:00","-14.2","","-16.6","","82","","6","","19","","16.1","","99.84","","","","-23","","NA"
"2017-02-11 04:00","2017","02","11","04:00","-13.9","","-16.3","","82","","7","","18","","16.1","","99.77","","","","-22","","Cloudy"
"2017-02-11 05:00","2017","02","11","05:00","-13.8","","-16.2","","82","","6","","17","","16.1","","99.79","","","","-22","","NA"
"2017-02-11 06:00","2017","02","11","06:00","-13.9","","-16.3","","82","","5","","17","","16.1","","99.80","","","","-22","","NA"
"2017-02-11 07:00","2017","02","11","07:00","-13.8","","-16.0","","84","","5","","17","","16.1","","99.86","","","","-22","","Cloudy"
"2017-02-11 08:00","2017","02","11","08:00","-13.6","","-15.6","","85","","6","","17","","6.4","","99.85","","","","-22","","Freezing Drizzle,Fog"
"2017-02-11 09:00","2017","02","11","09:00","-13.2","","-15.4","","84","","7","","20","","4.8","","99.92","","","","-22","","Freezing Drizzle,Fog"
"2017-02-11 10:00","2017","02","11","10:00","-12.8","","-15.3","","82","","7","","13","","8.1","","99.98","","","","-20","","Fog"
"2017-02-11 11:00","2017","02","11","11:00","-12.3","","-15.2","","79","","6","","14","","8.1","","100.02","","","","-19","","Fog"
"2017-02-11 12:00","2017","02","11","12:00","-12.0","","-14.5","","82","","6","","13","","4.8","","100.08","","","","-19","","Freezing Drizzle,Fog"
"2017-02-11 13:00","2017","02","11","13:00","-11.7","","-14.2","","82","","5","","12","","6.4","","100.11","","","","-18","","Freezing Drizzle,Fog"
"2017-02-11 14:00","2017","02","11","14:00","-11.3","","-13.6","","83","","5","","11","","6.4","","100.19","","","","-17","","Snow,Fog"
"2017-02-11 15:00","2017","02","11","15:00","-11.2","","-13.0","","87","","6","","9","","4.8","","100.25","","","","-16","","Snow,Fog"
"2017-02-11 16:00","2017","02","11","16:00","-10.8","","-12.6","","87","","7","","10","","2.4","","100.35","","","","-16","","Snow"
"2017-02-11 17:00","2017","02","11","17:00","-10.4","","-12.8","","83","","6","","7","","16.1","","100.48","","","","-14","","NA"
"2017-02-11 18:00","2017","02","11","18:00","-10.3","","-13.0","","81","","6","","11","","24.1","","100.56","","","","-16","","NA"
"2017-02-11 19:00","2017","02","11","19:00","-10.1","","-12.8","","81","","6","","10","","24.1","","100.63","","","","-15","","Cloudy"
"2017-02-11 20:00","2017","02","11","20:00","-10.2","","-13.0","","80","","7","","12","","24.1","","100.71","","","","-16","","NA"
"2017-02-11 21:00","2017","02","11","21:00","-10.3","","-13.3","","79","","8","","8","","24.1","","100.81","","","","-15","","NA"
"2017-02-11 22:00","2017","02","11","22:00","-10.3","","-13.8","","76","","6","","15","","24.1","","100.78","","","","-17","","Cloudy"
"2017-02-11 23:00","2017","02","11","23:00","-10.7","","-14.3","","75","","6","","16","","24.1","","100.80","","","","-18","","NA"
"2017-02-12 00:00","2017","02","12","00:00","-10.9","","-14.2","","77","","6","","12","","24.1","","100.85","","","","-17","","NA"
"2017-02-12 01:00","2017","02","12","01:00","-11.3","","-14.7","","76","","7","","14","","24.1","","100.81","","","","-18","","Cloudy"
"2017-02-12 02:00","2017","02","12","02:00","-11.8","","-15.2","","76","","6","","16","","24.1","","100.79","","","","-19","","NA"
"2017-02-12 03:00","2017","02","12","03:00","-12.2","","-14.5","","83","","7","","15","","24.1","","100.72","","","","-19","","NA"
"2017-02-12 04:00","2017","02","12","04:00","-12.3","","-14.3","","85","","6","","16","","16.1","","100.68","","","","-20","","Snow Grains"
"2017-02-12 05:00","2017","02","12","05:00","-12.1","","-13.8","","87","","5","","14","","16.1","","100.63","","","","-19","","Snow Grains"
"2017-02-12 06:00","2017","02","12","06:00","-12.0","","-13.9","","86","","6","","16","","16.1","","100.50","","","","-19","","Snow Grains"
"2017-02-12 07:00","2017","02","12","07:00","-12.1","","-13.8","","87","","6","","16","","16.1","","100.42","","","","-20","","Cloudy"
"2017-02-12 08:00","2017","02","12","08:00","-12.1","","-13.8","","87","","5","","24","","16.1","","100.31","","","","-21","","NA"
"2017-02-12 09:00","2017","02","12","09:00","-11.7","","-13.5","","87","","7","","17","","4.8","","100.30","","","","-19","","Snow"
"2017-02-12 10:00","2017","02","12","10:00","-11.4","","-13.4","","85","","7","","24","","4.8","","100.13","","","","-20","","Snow"
"2017-02-12 11:00","2017","02","12","11:00","-10.8","","-12.9","","85","","6","","18","","1.2","","99.97","","","","-18","","Snow"
"2017-02-12 12:00","2017","02","12","12:00","-10.1","","-12.2","","85","","8","","22","","1.2","","99.80","","","","-18","","Snow"
"2017-02-12 13:00","2017","02","12","13:00","-10.2","","-12.1","","86","","5","","19","","0.8","","99.70","","","","-18","","Moderate Snow"
"2017-02-12 14:00","2017","02","12","14:00","-10.5","","-12.4","","86","","7","","21","","0.4","","99.55","","","","-19","","Heavy Snow"
"2017-02-12 15:00","2017","02","12","15:00","-10.3","","-12.1","","87","","7","","18","","0.4","","99.40","","","","-18","","Heavy Snow"
"2017-02-12 16:00","2017","02","12","16:00","-9.9","","-11.5","","88","","8","","17","","0.8","","99.29","","","","-17","","Moderate Snow"
"2017-02-12 17:00","2017","02","12","17:00","-9.3","","-10.9","","88","","8","","21","","0.8","","99.18","","","","-17","","Moderate Snow"
"2017-02-12 18:00","2017","02","12","18:00","-8.9","","-10.3","","90","","5","","12","","1.2","","99.12","","","","-15","","Snow"
"2017-02-12 19:00","2017","02","12","19:00","-8.3","","-9.5","","91","","3","","13","","1.6","","99.02","","","","-14","","Snow"
"2017-02-12 20:00","2017","02","12","20:00","-7.8","","-8.9","","92","","4","","11","","1.0","","98.91","","","","-13","","Snow"
"2017-02-12 21:00","2017","02","12","21:00","-7.1","","-8.2","","92","","34","","8","","1.6","","98.83","","","","-11","","Snow"
"2017-02-12 22:00","2017","02","12","22:00","-6.9","","-7.9","","93","","30","","13","","2.4","","98.79","","","","-12","","Snow"
"2017-02-12 23:00","2017","02","12","23:00","-7.8","","-9.0","","91","","29","","20","","3.2","","98.80","","","","-15","","Snow"
"2017-02-13 00:00","2017","02","13","00:00","-7.7","","-8.9","","91","","29","","19","","4.8","","98.83","","","","-15","","Snow"
"2017-02-13 01:00","2017","02","13","01:00","-7.3","","-8.4","","92","","30","","17","","4.0","","98.89","","","","-14","","Snow"
"2017-02-13 02:00","2017","02","13","02:00","-7.2","","-8.4","","91","","29","","20","","2.4","","98.99","","","","-14","","Snow"
"2017-02-13 03:00","2017","02","13","03:00","-7.2","","-8.7","","89","","30","","29","","2.4","","99.09","","","","-16","","Snow"
"2017-02-13 04:00","2017","02","13","04:00","-7.4","","-9.1","","88","","30","","26","","6.4","","99.21","","","","-16","","Snow,Blowing Snow"
"2017-02-13 05:00","2017","02","13","05:00","-7.6","","-9.3","","88","","30","","25","","6.4","","99.34","","","","-16","","Snow,Blowing Snow"
"2017-02-13 06:00","2017","02","13","06:00","-7.7","","-9.7","","86","","30","","26","","9.7","","99.49","","","","-16","","Snow,Blowing Snow"
"2017-02-13 07:00","2017","02","13","07:00","-7.6","","-9.9","","84","","30","","25","","12.9","","99.61","","","","-16","","Snow,Blowing Snow"
"2017-02-13 08:00","2017","02","13","08:00","-7.5","","-10.1","","82","","30","","30","","16.1","","99.76","","","","-16","","Snow,Blowing Snow"
"2017-02-13 09:00","2017","02","13","09:00","-7.3","","-10.2","","80","","31","","25","","24.1","","99.88","","","","-15","","Snow"
"2017-02-13 10:00","2017","02","13","10:00","-6.1","","-10.2","","73","","33","","23","","24.1","","99.94","","","","-13","","Mostly Cloudy"
"2017-02-13 11:00","2017","02","13","11:00","-5.3","","-10.0","","70","","31","","24","","24.1","","100.03","","","","-13","","NA"
"2017-02-13 12:00","2017","02","13","12:00","-4.7","","-9.7","","68","","33","","24","","24.1","","100.06","","","","-12","","NA"
"2017-02-13 13:00","2017","02","13","13:00","-4.7","","-9.7","","68","","31","","22","","24.1","","100.10","","","","-12","","Mostly Cloudy"
"2017-02-13 14:00","2017","02","13","14:00","-4.6","","-9.5","","69","","29","","26","","24.1","","100.14","","","","-12","","Snow"
"2017-02-13 15:00","2017","02","13","15:00","-4.3","","-9.5","","67","","29","","22","","24.1","","100.19","","","","-11","","Snow"
"2017-02-13 16:00","2017","02","13","16:00","-4.6","","-9.5","","69","","31","","22","","24.1","","100.24","","","","-11","","Snow"
"2017-02-13 17:00","2017","02","13","17:00","-4.8","","-9.7","","69","","30","","17","","24.1","","100.28","","","","-11","","NA"
"2017-02-13 18:00","2017","02","13","18:00","-6.0","","-8.6","","82","","28","","16","","24.1","","100.28","","","","-12","","NA"
"2017-02-13 19:00","2017","02","13","19:00","-6.7","","-9.4","","81","","29","","12","","24.1","","100.29","","","","-12","","Snow"
"2017-02-13 20:00","2017","02","13","20:00","-7.1","","-9.8","","81","","29","","8","","24.1","","100.24","","","","-11","","NA"
"2017-02-13 21:00","2017","02","13","21:00","-6.6","","-9.3","","81","","29","","10","","16.1","","100.25","","","","-11","","Snow"
"2017-02-13 22:00","2017","02","13","22:00","-8.1","","-11.0","","80","","30","","12","","24.1","","100.22","","","","-14","","Mainly Clear"
"2017-02-13 23:00","2017","02","13","23:00","-9.0","","-11.2","","84","","29","","9","","24.1","","100.20","","","","-14","","NA"
"2017-02-14 00:00","2017","02","14","00:00","-10.7","","-11.6","","93","","23","","7","","24.1","","100.14","","","","-15","","NA"
"2017-02-14 01:00","2017","02","14","01:00","-11.1","","-12.2","","92","","24","","9","","24.1","","100.11","","","","-16","","Mostly Cloudy"
"2017-02-14 02:00","2017","02","14","02:00","-11.8","","-13.0","","91","","21","","5","","24.1","","100.11","","","","-15","","NA"
"2017-02-14 03:00","2017","02","14","03:00","-10.3","","-11.6","","90","","34","","4","","12.9","","100.06","","","","-13","","Snow"
"2017-02-14 04:00","2017","02","14","04:00","-12.0","","-13.6","","88","","17","","4","","16.1","","99.97","","","","-15","","Snow"
"2017-02-14 05:00","2017","02","14","05:00","-13.4","","-15.1","","87","","9","","7","","24.1","","99.86","","","","-18","","NA"
"2017-02-14 06:00","2017","02","14","06:00","-13.9","","-15.6","","87","","21","","11","","24.1","","99.85","","","","-20","","NA"
"2017-02-14 07:00","2017","02","14","07:00","-10.7","","-12.0","","90","","14","","10","","24.1","","99.83","","","","-16","","Mostly Cloudy"
"2017-02-14 08:00","2017","02","14","08:00","-9.3","","-10.5","","91","","15","","9","","24.1","","99.82","","","","-14","","NA"
"2017-02-14 09:00","2017","02","14","09:00","-8.4","","-9.6","","91","","9","","11","","24.1","","99.73","","","","-14","","NA"
"2017-02-14 10:00","2017","02","14","10:00","-7.4","","-9.1","","88","","13","","12","","24.1","","99.62","","","","-13","","Cloudy"
"2017-02-14 11:00","2017","02","14","11:00","-6.0","","-9.2","","78","","11","","9","","24.1","","99.51","","","","-10","","NA"
"2017-02-14 12:00","2017","02","14","12:00","-4.7","","-8.7","","74","","13","","14","","16.1","","99.37","","","","-10","","Snow"
"2017-02-14 13:00","2017","02","14","13:00","-4.7","","-6.5","","87","","10","","17","","3.2","","99.22","","","","-11","","Snow"
"2017-02-14 14:00","2017","02","14","14:00","-4.1","","-6.3","","85","","11","","18","","16.1","","99.10","","","","-10","","Snow"
"2017-02-14 15:00","2017","02","14","15:00","-4.0","","-6.0","","86","","8","","14","","16.1","","99.09","","","","-9","","NA"
"2017-02-14 16:00","2017","02","14","16:00","-3.8","","-6.0","","85","","9","","20","","16.1","","99.00","","","","-10","","Snow"
"2017-02-14 17:00","2017","02","14","17:00","-3.6","","-6.4","","81","","9","","20","","9.7","","98.96","","","","-10","","Snow"
"2017-02-14 18:00","2017","02","14","18:00","-3.8","","-6.6","","81","","9","","23","","16.1","","98.95","","","","-11","","Snow"
"2017-02-14 19:00","2017","02","14","19:00","-4.8","","-7.3","","83","","9","","22","","8.1","","98.94","","","","-12","","Snow"
"2017-02-14 20:00","2017","02","14","20:00","-5.1","","-6.8","","88","","8","","24","","6.4","","98.89","","","","-12","","Snow"
"2017-02-14 21:00","2017","02","14","21:00","-5.3","","-6.4","","92","","8","","20","","3.2","","98.83","","","","-12","","Snow"
"2017-02-14 22:00","2017","02","14","22:00","-5.2","","-6.3","","92","","7","","16","","2.0","","98.78","","","","-11","","Snow"
"2017-02-14 23:00","2017","02","14","23:00","-5.2","","-6.2","","93","","6","","17","","2.4","","98.68","","","","-11","","Snow"
"2017-02-15 00:00","2017","02","15","00:00","-5.0","","-6.0","","93","","6","","22","","3.2","","98.61","","","","-12","","Snow"
"2017-02-15 01:00","2017","02","15","01:00","-5.2","","-6.2","","93","","6","","13","","6.4","","98.54","","","","-10","","Snow"
"2017-02-15 02:00","2017","02","15","02:00","-5.7","","-6.7","","93","","3","","12","","8.1","","98.54","","","","-11","","Snow"
"2017-02-15 03:00","2017","02","15","03:00","-5.9","","-6.9","","93","","5","","13","","2.4","","98.48","","","","-11","","Snow"
"2017-02-15 04:00","2017","02","15","04:00","-6.0","","-7.0","","93","","5","","14","","2.0","","98.43","","","","-12","","Snow"
"2017-02-15 05:00","2017","02","15","05:00","-5.8","","-6.8","","93","","5","","16","","1.6","","98.36","","","","-12","","Snow"
"2017-02-15 06:00","2017","02","15","06:00","-5.6","","-6.6","","93","","5","","13","","2.4","","98.34","","","","-11","","Snow"
"2017-02-15 07:00","2017","02","15","07:00","-5.4","","-6.4","","93","","5","","17","","2.0","","98.31","","","","-11","","Snow"
"2017-02-15 08:00","2017","02","15","08:00","-5.4","","-6.4","","93","","3","","9","","1.6","","98.34","","","","-9","","Snow"
"2017-02-15 09:00","2017","02","15","09:00","-5.5","","-6.3","","94","","4","","13","","0.8","","98.30","","","","-11","","Moderate Snow"
"2017-02-15 10:00","2017","02","15","10:00","-4.6","","-6.4","","87","","4","","14","","6.4","","98.27","","","","-10","","Snow"
"2017-02-15 11:00","2017","02","15","11:00","-3.7","","-6.0","","84","","4","","13","","16.1","","98.27","","","","-9","","Snow"
"2017-02-15 12:00","2017","02","15","12:00","-2.6","","-5.4","","81","","1","","11","","24.1","","98.26","","","","-7","","NA"
"2017-02-15 13:00","2017","02","15","13:00","-2.5","","-5.5","","80","","2","","10","","24.1","","98.23","","","","-6","","Mostly Cloudy"
"2017-02-15 14:00","2017","02","15","14:00","-1.7","","-4.9","","79","","3","","10","","24.1","","98.23","","","","-5","","NA"
"2017-02-15 15:00","2017","02","15","15:00","-1.7","","-4.7","","80","","7","","4","","16.1","","98.25","","","","-3","","NA"
"2017-02-15 16:00","2017","02","15","16:00","-1.8","","-4.3","","83","","9","","4","","16.1","","98.27","","","","-3","","Cloudy"
"2017-02-15 17:00","2017","02","15","17:00","-2.5","","-4.1","","89","","11","","8","","4.8","","98.32","","","","-6","","Snow"
"2017-02-15 18:00","2017","02","15","18:00","-2.9","","-3.5","","96","","36","","3","","4.0","","98.37","","","","-4","","Snow"
"2017-02-15 19:00","2017","02","15","19:00","-3.1","","-3.5","","97","","36","","2","","2.4","","98.39","","","","-4","","Snow"
"2017-02-15 20:00","2017","02","15","20:00","-2.0","","-2.6","","96","","31","","19","","2.4","","98.42","","","","-8","","Snow"
"2017-02-15 21:00","2017","02","15","21:00","-3.3","","-4.1","","94","","29","","19","","6.4","","98.45","","","","-9","","Snow"
"2017-02-15 22:00","2017","02","15","22:00","-3.7","","-4.7","","93","","30","","18","","8.1","","98.46","","","","-10","","Snow"
"2017-02-15 23:00","2017","02","15","23:00","-4.2","","-5.3","","92","","29","","18","","9.7","","98.44","","","","-10","","Snow"
"2017-02-16 00:00","2017","02","16","00:00","-4.6","","-6.1","","89","","30","","21","","24.1","","98.48","","","","-11","","NA"
"2017-02-16 01:00","2017","02","16","01:00","-5.2","","-7.0","","87","","29","","21","","24.1","","98.50","","","","-12","","Snow"
"2017-02-16 02:00","2017","02","16","02:00","-5.8","","-7.6","","87","","30","","21","","24.1","","98.52","","","","-13","","Snow"
"2017-02-16 03:00","2017","02","16","03:00","-6.4","","-8.1","","88","","29","","26","","12.9","","98.53","","","","-14","","Snow"
"2017-02-16 04:00","2017","02","16","04:00","-6.7","","-8.8","","85","","30","","27","","8.1","","98.56","","","","-15","","Snow,Blowing Snow"
"2017-02-16 05:00","2017","02","16","05:00","-7.7","","-10.1","","83","","29","","25","","24.1","","98.61","","","","-16","","Snow"
"2017-02-16 06:00","2017","02","16","06:00","-8.4","","-10.6","","84","","29","","32","","8.1","","98.67","","","","-18","","Snow,Blowing Snow"
"2017-02-16 07:00","2017","02","16","07:00","-9.0","","-11.1","","85","","29","","26","","4.8","","98.75","","","","-18","","Snow,Blowing Snow"
"2017-02-16 08:00","2017","02","16","08:00","-9.0","","-11.1","","85","","30","","27","","9.7","","98.84","","","","-18","","Snow,Blowing Snow"
"2017-02-16 09:00","2017","02","16","09:00","-9.0","","-11.4","","83","","29","","24","","2.4","","98.91","","","","-17","","Snow,Blowing Snow"
"2017-02-16 10:00","2017","02","16","10:00","-8.4","","-11.3","","80","","28","","22","","3.2","","98.95","","","","-16","","Snow"
"2017-02-16 11:00","2017","02","16","11:00","-7.7","","-10.4","","81","","29","","26","","2.4","","99.00","","","","-16","","Snow"
"2017-02-16 12:00","2017","02","16","12:00","-6.6","","-9.7","","79","","29","","20","","4.8","","99.00","","","","-14","","Snow,Blowing Snow"
"2017-02-16 13:00","2017","02","16","13:00","-5.5","","-9.8","","72","","29","","24","","24.1","","98.99","","","","-13","","Mostly Cloudy"
"2017-02-16 14:00","2017","02","16","14:00","-4.6","","-9.1","","71","","28","","26","","24.1","","99.02","","","","-12","","NA"
"2017-02-16 15:00","2017","02","16","15:00","-4.8","","-9.5","","70","","29","","27","","24.1","","99.08","","","","-12","","NA"
"2017-02-16 16:00","2017","02","16","16:00","-4.8","","-9.7","","69","","28","","28","","24.1","","99.13","","","","-12","","Mostly Cloudy"
"2017-02-16 17:00","2017","02","16","17:00","-4.5","","-9.2","","70","","30","","21","","24.1","","99.19","","","","-11","","NA"
"2017-02-16 18:00","2017","02","16","18:00","-4.6","","-9.5","","69","","29","","22","","24.1","","99.28","","","","-11","","NA"
"2017-02-16 19:00","2017","02","16","19:00","-5.1","","-9.8","","70","","31","","27","","24.1","","99.39","","","","-13","","Snow"
"2017-02-16 20:00","2017","02","16","20:00","-5.2","","-9.3","","73","","31","","18","","24.1","","99.45","","","","-11","","Snow"
"2017-02-16 21:00","2017","02","16","21:00","-5.3","","-9.1","","75","","29","","16","","24.1","","99.47","","","","-11","","Snow"
"2017-02-16 22:00","2017","02","16","22:00","-5.3","","-9.2","","74","","33","","17","","24.1","","99.49","","","","-11","","Snow"
"2017-02-16 23:00","2017","02","16","23:00","-6.3","","-9.0","","81","","30","","16","","24.1","","99.51","","","","-12","","Snow"
"2017-02-17 00:00","2017","02","17","00:00","-6.9","","-9.6","","81","","29","","18","","24.1","","99.54","","","","-14","","Snow"
"2017-02-17 01:00","2017","02","17","01:00","-8.0","","-10.7","","81","","29","","21","","24.1","","99.55","","","","-16","","Snow"
"2017-02-17 02:00","2017","02","17","02:00","-8.5","","-11.2","","81","","28","","19","","24.1","","99.57","","","","-16","","Snow"
"2017-02-17 03:00","2017","02","17","03:00","-8.8","","-11.5","","81","","29","","21","","24.1","","99.59","","","","-17","","Snow"
"2017-02-17 04:00","2017","02","17","04:00","-8.8","","-11.7","","80","","28","","21","","24.1","","99.63","","","","-17","","Snow"
"2017-02-17 05:00","2017","02","17","05:00","-9.2","","-12.2","","79","","29","","15","","24.1","","99.64","","","","-16","","Snow"
"2017-02-17 06:00","2017","02","17","06:00","-11.4","","-14.0","","81","","27","","13","","24.1","","99.64","","","","-18","","NA"
"2017-02-17 07:00","2017","02","17","07:00","-12.8","","-14.4","","88","","27","","13","","24.1","","99.73","","","","-20","","Clear"
"2017-02-17 08:00","2017","02","17","08:00","-12.7","","-14.4","","87","","25","","14","","24.1","","99.81","","","","-20","","NA"
"2017-02-17 09:00","2017","02","17","09:00","-10.8","","-13.9","","78","","25","","19","","24.1","","99.82","","","","-19","","NA"
"2017-02-17 10:00","2017","02","17","10:00","-9.2","","-13.4","","72","","25","","18","","24.1","","99.83","","","","-16","","Mainly Clear"
"2017-02-17 11:00","2017","02","17","11:00","-7.7","","-12.6","","68","","24","","16","","24.1","","99.82","","","","-14","","NA"
"2017-02-17 12:00","2017","02","17","12:00","-6.5","","-12.0","","65","","25","","15","","24.1","","99.74","","","","-12","","NA"
"2017-02-17 13:00","2017","02","17","13:00","-4.9","","-11.1","","62","","28","","26","","24.1","","99.73","","","","-12","","Mainly Clear"
"2017-02-17 14:00","2017","02","17","14:00","-4.5","","-10.9","","61","","25","","20","","24.1","","99.68","","","","-11","","NA"
"2017-02-17 15:00","2017","02","17","15:00","-3.9","","-10.6","","60","","25","","22","","24.1","","99.68","","","","-10","","NA"
"2017-02-17 16:00","2017","02","17","16:00","-3.2","","-10.6","","57","","25","","9","","24.1","","99.67","","","","-7","","Mostly Cloudy"
"2017-02-17 17:00","2017","02","17","17:00","-3.8","","-10.5","","60","","24","","9","","24.1","","99.65","","","","-8","","NA"
"2017-02-17 18:00","2017","02","17","18:00","-4.1","","-10.6","","61","","26","","8","","24.1","","99.69","","","","-8","","NA"
"2017-02-17 19:00","2017","02","17","19:00","-5.1","","-10.5","","66","","19","","5","","24.1","","99.70","","","","-7","","Mostly Cloudy"
"2017-02-17 20:00","2017","02","17","20:00","-4.3","","-10.1","","64","","19","","8","","24.1","","99.65","","","","-8","","NA"
"2017-02-17 21:00","2017","02","17","21:00","-4.1","","-9.0","","69","","19","","10","","24.1","","99.65","","","","-8","","NA"
"2017-02-17 22:00","2017","02","17","22:00","-3.8","","-8.7","","69","","19","","13","","24.1","","99.58","","","","-9","","Mostly Cloudy"
"2017-02-17 23:00","2017","02","17","23:00","-4.3","","-8.8","","71","","19","","13","","24.1","","99.52","","","","-9","","NA"
"2017-02-18 00:00","2017","02","18","00:00","-4.7","","-8.5","","75","","20","","14","","24.1","","99.51","","","","-10","","NA"
"2017-02-18 01:00","2017","02","18","01:00","-4.8","","-7.7","","80","","18","","9","","24.1","","99.48","","","","-9","","Mostly Cloudy"
"2017-02-18 02:00","2017","02","18","02:00","-5.6","","-8.2","","82","","18","","10","","24.1","","99.41","","","","-10","","NA"
"2017-02-18 03:00","2017","02","18","03:00","-6.2","","-8.2","","86","","17","","8","","24.1","","99.30","","","","-10","","NA"
"2017-02-18 04:00","2017","02","18","04:00","-5.4","","-7.5","","85","","10","","7","","24.1","","99.19","","","","-9","","Mostly Cloudy"
"2017-02-18 05:00","2017","02","18","05:00","-5.8","","-8.1","","84","","10","","8","","24.1","","99.10","","","","-10","","NA"
"2017-02-18 06:00","2017","02","18","06:00","-7.5","","-9.0","","89","","6","","6","","24.1","","99.04","","","","-11","","NA"
"2017-02-18 07:00","2017","02","18","07:00","-8.2","","-9.6","","90","","8","","8","","24.1","","98.94","","","","-12","","Clear"
"2017-02-18 08:00","2017","02","18","08:00","-7.1","","-9.4","","84","","11","","9","","24.1","","98.90","","","","-11","","NA"
"2017-02-18 09:00","2017","02","18","09:00","-5.1","","-8.7","","76","","4","","9","","24.1","","98.81","","","","-9","","NA"
"2017-02-18 10:00","2017","02","18","10:00","-2.3","","-8.0","","65","","14","","12","","24.1","","98.66","","","","-7","","Mainly Clear"
"2017-02-18 11:00","2017","02","18","11:00","0.3","","-6.6","","60","","17","","10","","24.1","","98.58","","","","","","NA"
"2017-02-18 12:00","2017","02","18","12:00","4.0","","-3.5","","58","","20","","14","","24.1","","98.42","","","","","","NA"
"2017-02-18 13:00","2017","02","18","13:00","6.3","","-0.9","","60","","19","","16","","24.1","","98.23","","","","","","Mainly Clear"
"2017-02-18 14:00","2017","02","18","14:00","7.7","","0.5","","60","","21","","14","","24.1","","98.19","","","","","","NA"
"2017-02-18 15:00","2017","02","18","15:00","8.3","","0.8","","59","","21","","12","","24.1","","98.14","","","","","","NA"
"2017-02-18 16:00","2017","02","18","16:00","9.1","","0.8","","56","","22","","20","","24.1","","98.12","","","","","","Mainly Clear"
"2017-02-18 17:00","2017","02","18","17:00","8.5","","1.0","","59","","21","","18","","24.1","","98.16","","","","","","NA"
"2017-02-18 18:00","2017","02","18","18:00","7.2","","1.1","","65","","20","","18","","24.1","","98.22","","","","","","NA"
"2017-02-18 19:00","2017","02","18","19:00","6.7","","1.0","","67","","21","","18","","24.1","","98.30","","","","","","Clear"
"2017-02-18 20:00","2017","02","18","20:00","5.7","","1.1","","72","","20","","12","","24.1","","98.41","","","","","","NA"
"2017-02-18 21:00","2017","02","18","21:00","5.5","","1.3","","74","","24","","8","","24.1","","98.51","","","","","","NA"
"2017-02-18 22:00","2017","02","18","22:00","4.9","","0.7","","74","","22","","13","","24.1","","98.59","","","","","","Clear"
"2017-02-18 23:00","2017","02","18","23:00","4.3","","0.8","","78","","21","","16","","24.1","","98.66","","","","","","NA"
"2017-02-19 00:00","2017","02","19","00:00","3.6","","0.7","","81","","22","","16","","24.1","","98.70","","","","","","NA"
"2017-02-19 01:00","2017","02","19","01:00","2.7","","0.4","","85","","22","","16","","24.1","","98.74","","","","","","Clear"
"2017-02-19 02:00","2017","02","19","02:00","1.5","","-0.3","","88","","21","","13","","24.1","","98.79","","","","","","NA"
"2017-02-19 03:00","2017","02","19","03:00","1.9","","0.3","","89","","22","","16","","24.1","","98.87","","","","","","NA"
"2017-02-19 04:00","2017","02","19","04:00","1.6","","-0.2","","88","","23","","15","","24.1","","98.92","","","","","","Clear"
"2017-02-19 05:00","2017","02","19","05:00","1.3","","0.0","","91","","23","","16","","24.1","","98.97","","","","","","NA"
"2017-02-19 06:00","2017","02","19","06:00","1.7","","0.2","","90","","24","","20","","24.1","","99.02","","","","","","NA"
"2017-02-19 07:00","2017","02","19","07:00","0.6","","-0.6","","92","","25","","17","","24.1","","99.09","","","","","","Clear"
"2017-02-19 08:00","2017","02","19","08:00","1.7","","-0.1","","88","","25","","21","","24.1","","99.14","","","","","","NA"
"2017-02-19 09:00","2017","02","19","09:00","4.1","","0.1","","75","","28","","23","","24.1","","99.28","","","","","","NA"
"2017-02-19 10:00","2017","02","19","10:00","5.2","","0.0","","69","","28","","31","","24.1","","99.33","","","","","","Clear"
"2017-02-19 11:00","2017","02","19","11:00","5.7","","0.1","","67","","29","","24","","24.1","","99.37","","","","","","NA"
"2017-02-19 12:00","2017","02","19","12:00","5.8","","-0.1","","66","","28","","30","","24.1","","99.41","","","","","","NA"
"2017-02-19 13:00","2017","02","19","13:00","6.4","","-0.1","","63","","29","","28","","24.1","","99.46","","","","","","Clear"
"2017-02-19 14:00","2017","02","19","14:00","6.7","","-0.3","","61","","28","","22","","24.1","","99.53","","","","","","NA"
"2017-02-19 15:00","2017","02","19","15:00","6.6","","-0.6","","60","","29","","21","","24.1","","99.62","","","","","","NA"
"2017-02-19 16:00","2017","02","19","16:00","5.8","","-0.7","","63","","28","","21","","24.1","","99.72","","","","","","Mostly Cloudy"
"2017-02-19 17:00","2017","02","19","17:00","5.7","","-1.0","","62","","29","","21","","24.1","","99.84","","","","","","NA"
"2017-02-19 18:00","2017","02","19","18:00","5.1","","-0.3","","68","","33","","18","","24.1","","100.00","","","","","","NA"
"2017-02-19 19:00","2017","02","19","19:00","4.1","","-1.3","","68","","34","","18","","24.1","","100.13","","","","","","Mostly Cloudy"
"2017-02-19 20:00","2017","02","19","20:00","3.0","","-2.3","","68","","32","","20","","24.1","","100.25","","","","","","NA"
"2017-02-19 21:00","2017","02","19","21:00","2.1","","-3.4","","67","","35","","17","","24.1","","100.36","","","","","","NA"
"2017-02-19 22:00","2017","02","19","22:00","1.0","","-4.1","","69","","33","","17","","24.1","","100.48","","","","","","Mainly Clear"
"2017-02-19 23:00","2017","02","19","23:00","-0.2","","-5.6","","67","","32","","21","","24.1","","100.55","","","","-6","","NA"
"2017-02-20 00:00","2017","02","20","00:00","-1.1","","-6.1","","69","","33","","21","","24.1","","100.61","","","","-7","","NA"
"2017-02-20 01:00","2017","02","20","01:00","-3.1","","-6.9","","75","","32","","13","","24.1","","100.68","","","","-8","","Clear"
"2017-02-20 02:00","2017","02","20","02:00","-2.6","","-7.3","","70","","33","","16","","24.1","","100.73","","","","-8","","NA"
"2017-02-20 03:00","2017","02","20","03:00","-2.9","","-7.8","","69","","33","","13","","24.1","","100.78","","","","-8","","NA"
"2017-02-20 04:00","2017","02","20","04:00","-3.5","","-8.0","","71","","33","","19","","24.1","","100.86","","","","-9","","Clear"
"2017-02-20 05:00","2017","02","20","05:00","-4.5","","-8.5","","74","","32","","16","","24.1","","100.98","","","","-10","","NA"
"2017-02-20 06:00","2017","02","20","06:00","-6.1","","-9.5","","77","","31","","13","","24.1","","101.07","","","","-11","","NA"
"2017-02-20 07:00","2017","02","20","07:00","-6.0","","-10.8","","69","","31","","17","","24.1","","101.19","","","","-12","","Clear"
"2017-02-20 08:00","2017","02","20","08:00","-5.7","","-11.7","","63","","31","","19","","24.1","","101.31","","","","-12","","NA"
"2017-02-20 09:00","2017","02","20","09:00","-4.8","","-12.5","","55","","31","","19","","24.1","","101.41","","","","-11","","NA"
"2017-02-20 10:00","2017","02","20","10:00","-4.0","","-13.5","","48","","32","","19","","24.1","","101.44","","","","-10","","Clear"
"2017-02-20 11:00","2017","02","20","11:00","-3.0","","-11.3","","53","","30","","15","","24.1","","101.52","","","","-8","","NA"
"2017-02-20 12:00","2017","02","20","12:00","-2.0","","-12.4","","45","","30","","15","","24.1","","101.50","","","","-7","","NA"
"2017-02-20 13:00","2017","02","20","13:00","-0.8","","-11.0","","46","","32","","14","","32.2","","101.46","","","","-5","","Clear"
"2017-02-20 14:00","2017","02","20","14:00","0.3","","-11.2","","42","","32","","12","","32.2","","101.45","","","","","","NA"
"2017-02-20 15:00","2017","02","20","15:00","0.8","","-9.8","","45","","29","","7","","24.1","","101.42","","","","","","NA"
"2017-02-20 16:00","2017","02","20","16:00","0.3","","-10.9","","43","","25","","12","","32.2","","101.49","","","","","","Mainly Clear"
"2017-02-20 17:00","2017","02","20","17:00","-0.2","","-11.3","","43","","25","","8","","32.2","","101.53","","","","-3","","NA"
"2017-02-20 18:00","2017","02","20","18:00","-0.5","","-13.2","","38","","24","","7","","24.1","","101.56","","","","-3","","NA"
"2017-02-20 19:00","2017","02","20","19:00","-1.6","","-11.8","","46","","26","","8","","24.1","","101.56","","","","-5","","Clear"
"2017-02-20 20:00","2017","02","20","20:00","-2.4","","-10.5","","54","","28","","6","","24.1","","101.56","","","","-5","","NA"
"2017-02-20 21:00","2017","02","20","21:00","-4.6","","-12.8","","53","","36","","2","","24.1","","101.57","","","","-5","","NA"
"2017-02-20 22:00","2017","02","20","22:00","-4.4","","-11.9","","56","","36","","2","","24.1","","101.59","","","","-5","","Clear"
"2017-02-20 23:00","2017","02","20","23:00","-5.8","","-11.4","","65","","6","","7","","24.1","","101.51","","","","-9","","NA"
"2017-02-21 00:00","2017","02","21","00:00","-8.3","","-13.4","","67","","0","","1","","24.1","","101.49","","","","-9","","NA"
"2017-02-21 01:00","2017","02","21","01:00","-8.0","","-13.3","","66","","13","","4","","24.1","","101.41","","","","-10","","Clear"
"2017-02-21 02:00","2017","02","21","02:00","-8.4","","-12.8","","71","","10","","8","","24.1","","101.37","","","","-13","","NA"
"2017-02-21 03:00","2017","02","21","03:00","-6.4","","-12.8","","61","","10","","12","","24.1","","101.31","","","","-12","","NA"
"2017-02-21 04:00","2017","02","21","04:00","-9.1","","-13.4","","71","","8","","7","","24.1","","101.29","","","","-13","","Clear"
"2017-02-21 05:00","2017","02","21","05:00","-9.2","","-13.2","","73","","8","","9","","24.1","","101.21","","","","-14","","NA"
"2017-02-21 06:00","2017","02","21","06:00","-7.9","","-12.8","","68","","9","","16","","24.1","","101.08","","","","-14","","NA"
"2017-02-21 07:00","2017","02","21","07:00","-7.3","","-12.2","","68","","9","","18","","24.1","","101.06","","","","-14","","Mostly Cloudy"
"2017-02-21 08:00","2017","02","21","08:00","-6.2","","-12.0","","64","","9","","14","","24.1","","100.99","","","","-12","","NA"
"2017-02-21 09:00","2017","02","21","09:00","-5.2","","-11.2","","63","","7","","11","","24.1","","100.95","","","","-10","","NA"
"2017-02-21 10:00","2017","02","21","10:00","-3.4","","-10.3","","59","","9","","16","","24.1","","100.84","","","","-9","","Mostly Cloudy"
"2017-02-21 11:00","2017","02","21","11:00","-2.5","","-9.7","","58","","9","","19","","24.1","","100.65","","","","-8","","NA"
"2017-02-21 12:00","2017","02","21","12:00","-1.0","","-8.9","","55","","9","","13","","24.1","","100.54","","","","-5","","NA"
"2017-02-21 13:00","2017","02","21","13:00","0.6","","-6.7","","58","","12","","11","","24.1","","100.39","","","","","","Mostly Cloudy"
"2017-02-21 14:00","2017","02","21","14:00","1.1","","-7.7","","52","","11","","21","","24.1","","100.24","","","","","","NA"
"2017-02-21 15:00","2017","02","21","15:00","0.9","","-6.7","","57","","11","","17","","16.1","","100.22","","","","","","NA"
"2017-02-21 16:00","2017","02","21","16:00","0.7","","-5.6","","63","","11","","14","","16.1","","100.17","","","","","","Cloudy"
"2017-02-21 17:00","2017","02","21","17:00","0.4","","-4.8","","68","","9","","10","","16.1","","100.11","","","","","","NA"
"2017-02-21 18:00","2017","02","21","18:00","-0.3","","-2.5","","85","","12","","20","","16.1","","100.05","","","","-6","","Freezing Rain"
"2017-02-21 19:00","2017","02","21","19:00","0.0","","-2.4","","84","","1","","7","","24.1","","100.15","","","","-2","","Cloudy"
"2017-02-21 20:00","2017","02","21","20:00","-0.4","","-1.5","","92","","7","","6","","24.1","","100.12","","","","-2","","Freezing Rain"
"2017-02-21 21:00","2017","02","21","21:00","-0.6","","-1.7","","92","","3","","14","","24.1","","100.09","","","","-5","","NA"
"2017-02-21 22:00","2017","02","21","22:00","-0.7","","-1.6","","94","","4","","6","","12.9","","100.04","","","","-3","","Freezing Rain"
"2017-02-21 23:00","2017","02","21","23:00","-0.7","","-1.4","","95","","9","","7","","12.9","","100.00","","","","-3","","NA"
"2017-02-22 00:00","2017","02","22","00:00","-0.5","","-1.2","","95","","10","","4","","12.9","","100.01","","","","-2","","NA"
"2017-02-22 01:00","2017","02","22","01:00","-0.2","","-0.9","","95","","","","0","","12.9","","100.02","","","","","","Cloudy"
"2017-02-22 02:00","2017","02","22","02:00","-0.2","","-0.8","","96","","3","","8","","6.4","","100.03","","","","-3","","Fog"
"2017-02-22 03:00","2017","02","22","03:00","-0.1","","-0.5","","97","","7","","4","","12.9","","99.98","","","","-1","","NA"
"2017-02-22 04:00","2017","02","22","04:00","0.0","","-0.3","","98","","36","","3","","6.4","","100.01","","","","-1","","Fog"
"2017-02-22 05:00","2017","02","22","05:00","0.2","","-0.2","","97","","36","","2","","24.1","","100.06","","","","","","NA"
"2017-02-22 06:00","2017","02","22","06:00","0.2","","-0.1","","98","","36","","2","","24.1","","100.03","","","","","","NA"
"2017-02-22 07:00","2017","02","22","07:00","0.3","","0.0","","98","","7","","3","","4.8","","100.08","","","","","","Fog"
"2017-02-22 08:00","2017","02","22","08:00","0.4","","0.1","","98","","10","","7","","4.8","","100.07","","","","","","Fog"
"2017-02-22 09:00","2017","02","22","09:00","0.8","","0.5","","98","","13","","8","","4.8","","100.08","","","","","","Fog"
"2017-02-22 10:00","2017","02","22","10:00","2.8","","1.8","","93","","5","","3","","16.1","","100.04","","","","","","Cloudy"
"2017-02-22 11:00","2017","02","22","11:00","3.2","","1.6","","89","","12","","13","","16.1","","99.95","","","","","","NA"
"2017-02-22 12:00","2017","02","22","12:00","3.1","","1.8","","91","","9","","9","","16.1","","99.94","","","","","","NA"
"2017-02-22 13:00","2017","02","22","13:00","3.1","","1.3","","88","","11","","10","","16.1","","99.85","","","","","","Cloudy"
"2017-02-22 14:00","2017","02","22","14:00","4.1","","1.7","","84","","7","","7","","16.1","","99.79","","","","","","NA"
"2017-02-22 15:00","2017","02","22","15:00","4.1","","1.1","","81","","9","","13","","16.1","","99.76","","","","","","NA"
"2017-02-22 16:00","2017","02","22","16:00","3.5","","0.9","","83","","11","","12","","16.1","","99.69","","","","","","Cloudy"
"2017-02-22 17:00","2017","02","22","17:00","4.1","","1.1","","81","","9","","9","","16.1","","99.63","","","","","","NA"
"2017-02-22 18:00","2017","02","22","18:00","3.1","","0.7","","84","","7","","4","","16.1","","99.62","","","","","","NA"
"2017-02-22 19:00","2017","02","22","19:00","3.0","","0.7","","85","","4","","10","","24.1","","99.61","","","","","","Mostly Cloudy"
"2017-02-22 20:00","2017","02","22","20:00","2.7","","0.6","","86","","5","","13","","24.1","","99.61","","","","","","NA"
"2017-02-22 21:00","2017","02","22","21:00","2.7","","0.6","","86","","9","","9","","24.1","","99.54","","","","","","NA"
"2017-02-22 22:00","2017","02","22","22:00","2.2","","0.4","","88","","6","","9","","24.1","","99.53","","","","","","Cloudy"
"2017-02-22 23:00","2017","02","22","23:00","2.5","","0.6","","87","","8","","9","","22.5","","99.47","","","","","","NA"
"2017-02-23 00:00","2017","02","23","00:00","2.5","","0.7","","88","","10","","12","","24.1","","99.39","","","","","","NA"
"2017-02-23 01:00","2017","02","23","01:00","1.9","","0.6","","91","","4","","9","","24.1","","99.40","","","","","","Cloudy"
"2017-02-23 02:00","2017","02","23","02:00","2.3","","0.8","","90","","8","","8","","12.9","","99.33","","","","","","Rain"
"2017-02-23 03:00","2017","02","23","03:00","2.0","","1.0","","93","","10","","9","","12.9","","99.24","","","","","","NA"
"2017-02-23 04:00","2017","02","23","04:00","1.9","","0.9","","93","","12","","8","","14.5","","99.17","","","","","","Cloudy"
"2017-02-23 05:00","2017","02","23","05:00","2.9","","1.3","","89","","13","","8","","12.9","","99.10","","","","","","NA"
"2017-02-23 06:00","2017","02","23","06:00","4.6","","3.1","","90","","36","","1","","12.9","","99.08","","","","","","NA"
"2017-02-23 07:00","2017","02","23","07:00","5.6","","4.3","","91","","16","","10","","16.1","","98.98","","","","","","Mostly Cloudy"
"2017-02-23 08:00","2017","02","23","08:00","7.0","","5.8","","92","","20","","4","","24.1","","98.95","","","","","","NA"
"2017-02-23 09:00","2017","02","23","09:00","8.2","","6.0","","86","","19","","16","","12.9","","98.85","","","","","","NA"
"2017-02-23 10:00","2017","02","23","10:00","7.3","","6.3","","93","","20","","15","","9.7","","98.79","","","","","","Rain Showers,Fog"
"2017-02-23 11:00","2017","02","23","11:00","8.6","","6.2","","85","","21","","18","","12.9","","98.75","","","","","","Rain Showers"
"2017-02-23 12:00","2017","02","23","12:00","9.6","","7.2","","85","","20","","27","","16.1","","98.69","","","","","","NA"
"2017-02-23 13:00","2017","02","23","13:00","9.5","","8.0","","90","","21","","24","","16.1","","98.69","","","","","","Cloudy"
"2017-02-23 14:00","2017","02","23","14:00","10.7","","8.0","","83","","22","","22","","16.1","","98.69","","","","","","NA"
"2017-02-23 15:00","2017","02","23","15:00","11.2","","7.9","","80","","22","","26","","24.1","","98.75","","","","","","NA"
"2017-02-23 16:00","2017","02","23","16:00","11.2","","7.9","","80","","23","","19","","24.1","","98.85","","","","","","Mainly Clear"
"2017-02-23 17:00","2017","02","23","17:00","10.2","","7.5","","83","","26","","19","","24.1","","99.01","","","","","","NA"
"2017-02-23 18:00","2017","02","23","18:00","9.8","","4.8","","71","","28","","26","","24.1","","99.20","","","","","","NA"
"2017-02-23 19:00","2017","02","23","19:00","7.4","","4.0","","79","","29","","21","","24.1","","99.39","","","","","","Cloudy"
"2017-02-23 20:00","2017","02","23","20:00","6.0","","2.8","","80","","29","","22","","24.1","","99.51","","","","","","NA"
"2017-02-23 21:00","2017","02","23","21:00","4.8","","2.3","","84","","29","","20","","24.1","","99.63","","","","","","NA"
"2017-02-23 22:00","2017","02","23","22:00","4.1","","2.1","","87","","29","","21","","24.1","","99.72","","","","","","Mainly Clear"
"2017-02-23 23:00","2017","02","23","23:00","3.6","","0.8","","82","","30","","18","","24.1","","99.80","","","","","","NA"
"2017-02-24 00:00","2017","02","24","00:00","2.9","","1.0","","87","","29","","15","","24.1","","99.82","","","","","","NA"
"2017-02-24 01:00","2017","02","24","01:00","1.8","","0.3","","90","","27","","9","","24.1","","99.88","","","","","","Mainly Clear"
"2017-02-24 02:00","2017","02","24","02:00","1.2","","0.3","","94","","29","","6","","24.1","","99.97","","","","","","NA"
"2017-02-24 03:00","2017","02","24","03:00","1.3","","-0.2","","90","","31","","3","","24.1","","99.98","","","","","","NA"
"2017-02-24 04:00","2017","02","24","04:00","-0.5","","-0.9","","97","","29","","5","","24.1","","100.02","","","","-2","","Mostly Cloudy"
"2017-02-24 05:00","2017","02","24","05:00","0.8","","-0.7","","90","","34","","9","","24.1","","100.02","","","","","","NA"
"2017-02-24 06:00","2017","02","24","06:00","0.5","","-1.1","","89","","3","","3","","24.1","","100.00","","","","","","NA"
"2017-02-24 07:00","2017","02","24","07:00","0.3","","-1.3","","89","","5","","7","","32.2","","99.98","","","","","","Mostly Cloudy"
"2017-02-24 08:00","2017","02","24","08:00","0.6","","-1.5","","86","","4","","13","","24.1","","100.00","","","","","","NA"
"2017-02-24 09:00","2017","02","24","09:00","1.5","","-1.1","","83","","2","","13","","24.1","","100.01","","","","","","NA"
"2017-02-24 10:00","2017","02","24","10:00","1.6","","-1.0","","83","","2","","18","","24.1","","99.90","","","","","","Rain"
"2017-02-24 11:00","2017","02","24","11:00","2.0","","-1.8","","76","","4","","18","","24.1","","99.83","","","","","","NA"
"2017-02-24 12:00","2017","02","24","12:00","2.2","","-1.6","","76","","3","","15","","24.1","","99.82","","","","","","NA"
"2017-02-24 13:00","2017","02","24","13:00","2.0","","-0.3","","85","","5","","16","","24.1","","99.64","","","","","","Rain"
"2017-02-24 14:00","2017","02","24","14:00","1.9","","0.3","","89","","7","","17","","9.7","","99.57","","","","","","Rain,Fog"
"2017-02-24 15:00","2017","02","24","15:00","1.9","","0.9","","93","","3","","10","","16.1","","99.66","","","","","","Rain"
"2017-02-24 16:00","2017","02","24","16:00","1.7","","1.4","","98","","7","","12","","4.8","","99.57","","","","","","Rain,Fog"
"2017-02-24 17:00","2017","02","24","17:00","1.8","","1.4","","97","","5","","14","","4.8","","99.56","","","","","","Rain,Fog"
"2017-02-24 18:00","2017","02","24","18:00","1.6","","1.3","","98","","9","","22","","4.8","","99.49","","","","","","Drizzle,Fog"
"2017-02-24 19:00","2017","02","24","19:00","1.4","","1.1","","98","","2","","20","","9.7","","99.54","","","","","","Fog"
"2017-02-24 20:00","2017","02","24","20:00","1.1","","1.0","","99","","5","","22","","11.3","","99.53","","","","","","NA"
"2017-02-24 21:00","2017","02","24","21:00","1.2","","0.5","","95","","7","","28","","16.1","","99.41","","","","","","NA"
"2017-02-24 22:00","2017","02","24","22:00","1.0","","0.4","","96","","7","","24","","16.1","","99.30","","","","","","Cloudy"
"2017-02-24 23:00","2017","02","24","23:00","1.4","","0.5","","94","","2","","17","","16.1","","99.38","","","","","","NA"
"2017-02-25 00:00","2017","02","25","00:00","0.9","","0.2","","95","","7","","19","","16.1","","99.21","","","","","","NA"
"2017-02-25 01:00","2017","02","25","01:00","1.0","","0.4","","96","","8","","25","","16.1","","99.13","","","","","","Cloudy"
"2017-02-25 02:00","2017","02","25","02:00","1.0","","0.7","","98","","8","","20","","16.1","","99.04","","","","","","NA"
"2017-02-25 03:00","2017","02","25","03:00","0.7","","0.6","","99","","8","","26","","2.4","","98.94","","","","","","Fog"
"2017-02-25 04:00","2017","02","25","04:00","0.6","","0.5","","99","","8","","22","","1.2","","98.91","","","","","","Fog"
"2017-02-25 05:00","2017","02","25","05:00","0.4","","0.4","","100","","8","","17","","0.8","","98.86","","","","","","Fog"
"2017-02-25 06:00","2017","02","25","06:00","0.4","","0.3","","99","","8","","16","","1.6","","98.79","","","","","","Fog"
"2017-02-25 07:00","2017","02","25","07:00","0.5","","0.4","","99","","5","","11","","0.8","","98.78","","","","","","Fog"
"2017-02-25 08:00","2017","02","25","08:00","0.4","","0.3","","99","","8","","18","","0.4","","98.74","","","","","","Drizzle,Fog"
"2017-02-25 09:00","2017","02","25","09:00","0.6","","0.5","","99","","8","","22","","0.4","","98.57","","","","","","Fog"
"2017-02-25 10:00","2017","02","25","10:00","1.1","","1.0","","99","","8","","19","","1.2","","98.48","","","","","","Fog"
"2017-02-25 11:00","2017","02","25","11:00","1.3","","1.2","","99","","8","","14","","3.2","","98.38","","","","","","Fog"
"2017-02-25 12:00","2017","02","25","12:00","1.7","","1.6","","99","","7","","19","","1.6","","98.15","","","","","","Rain,Fog"
"2017-02-25 13:00","2017","02","25","13:00","1.6","","1.5","","99","","29","","21","","1.6","","98.04","","","","","","Rain,Fog"
"2017-02-25 14:00","2017","02","25","14:00","1.5","","1.4","","99","","2","","9","","3.2","","97.97","","","","","","Rain,Fog"
"2017-02-25 15:00","2017","02","25","15:00","2.1","","2.0","","99","","18","","9","","4.0","","98.13","","","","","","Rain,Fog"
"2017-02-25 16:00","2017","02","25","16:00","3.5","","3.5","","100","","26","","20","","3.2","","98.35","","","","","","Rain,Fog"
"2017-02-25 17:00","2017","02","25","17:00","3.0","","2.4","","96","","27","","10","","24.1","","98.44","","","","","","Rain"
"2017-02-25 18:00","2017","02","25","18:00","2.8","","2.4","","97","","19","","8","","24.1","","98.50","","","","","","NA"
"2017-02-25 19:00","2017","02","25","19:00","2.7","","2.4","","98","","26","","16","","8.1","","98.66","","","","","","Rain,Fog"
"2017-02-25 20:00","2017","02","25","20:00","2.4","","0.1","","85","","20","","12","","24.1","","98.56","","","","","","NA"
"2017-02-25 21:00","2017","02","25","21:00","1.9","","0.3","","89","","22","","18","","24.1","","98.66","","","","","","NA"
"2017-02-25 22:00","2017","02","25","22:00","1.9","","-2.4","","73","","23","","26","","24.1","","98.68","","","","","","Cloudy"
"2017-02-25 23:00","2017","02","25","23:00","0.9","","-3.2","","74","","25","","27","","24.1","","98.76","","","","","","NA"
"2017-02-26 00:00","2017","02","26","00:00","-0.1","","-6.3","","63","","25","","30","","24.1","","98.83","","","","-7","","NA"
"2017-02-26 01:00","2017","02","26","01:00","-1.1","","-7.5","","62","","26","","35","","24.1","","98.89","","","","-8","","Mainly Clear"
"2017-02-26 02:00","2017","02","26","02:00","-1.6","","-7.4","","65","","26","","22","","24.1","","98.95","","","","-8","","NA"
"2017-02-26 03:00","2017","02","26","03:00","-2.5","","-9.5","","59","","28","","36","","24.1","","99.08","","","","-10","","NA"
"2017-02-26 04:00","2017","02","26","04:00","-3.7","","-10.4","","60","","28","","25","","24.1","","99.18","","","","-11","","Mostly Cloudy"
"2017-02-26 05:00","2017","02","26","05:00","-4.6","","-8.7","","73","","28","","25","","12.9","","99.34","","","","-12","","Snow Showers"
"2017-02-26 06:00","2017","02","26","06:00","-5.9","","-12.5","","60","","28","","30","","24.1","","99.50","","","","-14","","NA"
"2017-02-26 07:00","2017","02","26","07:00","-6.7","","-12.4","","64","","27","","24","","24.1","","99.66","","","","-14","","Mainly Clear"
"2017-02-26 08:00","2017","02","26","08:00","-7.1","","-11.5","","71","","28","","31","","24.1","","99.80","","","","-16","","NA"
"2017-02-26 09:00","2017","02","26","09:00","-7.1","","-11.5","","71","","26","","27","","24.1","","99.93","","","","-15","","NA"
"2017-02-26 10:00","2017","02","26","10:00","-6.0","","-12.8","","59","","28","","26","","24.1","","99.98","","","","-14","","Mainly Clear"
"2017-02-26 11:00","2017","02","26","11:00","-5.7","","-12.5","","59","","25","","27","","24.1","","100.05","","","","-14","","NA"
"2017-02-26 12:00","2017","02","26","12:00","-4.3","","-12.8","","52","","27","","30","","24.1","","100.08","","","","-12","","NA"
"2017-02-26 13:00","2017","02","26","13:00","-3.0","","-11.5","","52","","28","","25","","24.1","","100.05","","","","-10","","Clear"
"2017-02-26 14:00","2017","02","26","14:00","-1.6","","-10.7","","50","","28","","23","","24.1","","100.07","","","","-8","","NA"
"2017-02-26 15:00","2017","02","26","15:00","-0.8","","-10.8","","47","","33","","9","","24.1","","100.06","","","","-4","","NA"
"2017-02-26 16:00","2017","02","26","16:00","0.0","","-11.5","","42","","26","","10","","24.1","","100.07","","","","-3","","Mainly Clear"
"2017-02-26 17:00","2017","02","26","17:00","-0.4","","-12.4","","40","","14","","3","","24.1","","100.08","","","","-1","","NA"
"2017-02-26 18:00","2017","02","26","18:00","-0.6","","-8.3","","56","","21","","20","","24.1","","100.11","","","","-6","","NA"
"2017-02-26 19:00","2017","02","26","19:00","-1.3","","-8.5","","58","","21","","16","","24.1","","100.14","","","","-6","","Clear"
"2017-02-26 20:00","2017","02","26","20:00","-1.7","","-8.5","","60","","19","","18","","24.1","","100.13","","","","-7","","NA"
"2017-02-26 21:00","2017","02","26","21:00","-2.1","","-7.6","","66","","21","","19","","24.1","","100.18","","","","-8","","NA"
"2017-02-26 22:00","2017","02","26","22:00","-1.5","","-6.7","","68","","21","","22","","24.1","","100.15","","","","-7","","Mostly Cloudy"
"2017-02-26 23:00","2017","02","26","23:00","-1.4","","-5.1","","76","","21","","34","","24.1","","100.09","","","","-9","","NA"
"2017-02-27 00:00","2017","02","27","00:00","-1.3","","-4.3","","80","","20","","31","","24.1","","100.08","","","","-8","","NA"
"2017-02-27 01:00","2017","02","27","01:00","-0.6","","-4.9","","73","","23","","33","","24.1","","100.06","","","","-8","","Mostly Cloudy"
"2017-02-27 02:00","2017","02","27","02:00","0.0","","-5.2","","68","","22","","30","","24.1","","100.04","","","","-6","","NA"
"2017-02-27 03:00","2017","02","27","03:00","0.7","","-4.7","","67","","22","","34","","24.1","","100.06","","","","","","NA"
"2017-02-27 04:00","2017","02","27","04:00","0.5","","-4.5","","69","","21","","27","","24.1","","100.08","","","","","","Cloudy"
"2017-02-27 05:00","2017","02","27","05:00","0.0","","-4.5","","72","","21","","21","","24.1","","100.14","","","","-5","","NA"
"2017-02-27 06:00","2017","02","27","06:00","0.3","","-4.4","","71","","21","","29","","24.1","","100.20","","","","","","NA"
"2017-02-27 07:00","2017","02","27","07:00","1.0","","-4.1","","69","","22","","24","","24.1","","100.25","","","","","","Mostly Cloudy"
"2017-02-27 08:00","2017","02","27","08:00","1.0","","-3.9","","70","","23","","20","","24.1","","100.42","","","","","","NA"
"2017-02-27 09:00","2017","02","27","09:00","2.1","","-3.6","","66","","23","","23","","24.1","","100.52","","","","","","NA"
"2017-02-27 10:00","2017","02","27","10:00","2.9","","-3.5","","63","","24","","20","","24.1","","100.59","","","","","","Mostly Cloudy"
"2017-02-27 11:00","2017","02","27","11:00","3.0","","-3.8","","61","","25","","24","","24.1","","100.68","","","","","","NA"
"2017-02-27 12:00","2017","02","27","12:00","3.6","","-4.4","","56","","26","","24","","24.1","","100.72","","","","","","NA"
"2017-02-27 13:00","2017","02","27","13:00","3.1","","-5.1","","55","","31","","19","","24.1","","100.74","","","","","","Mostly Cloudy"
"2017-02-27 14:00","2017","02","27","14:00","3.0","","-5.9","","52","","31","","15","","24.1","","100.74","","","","","","NA"
"2017-02-27 15:00","2017","02","27","15:00","3.5","","-6.5","","48","","30","","11","","24.1","","100.79","","","","","","NA"
"2017-02-27 16:00","2017","02","27","16:00","3.1","","-6.3","","50","","30","","12","","24.1","","100.80","","","","","","Mainly Clear"
"2017-02-27 17:00","2017","02","27","17:00","2.8","","-6.1","","52","","30","","11","","24.1","","100.87","","","","","","NA"
"2017-02-27 18:00","2017","02","27","18:00","2.0","","-7.1","","51","","29","","9","","24.1","","100.94","","","","","","NA"
"2017-02-27 19:00","2017","02","27","19:00","1.9","","-8.5","","46","","24","","6","","24.1","","101.03","","","","","","Clear"
"2017-02-27 20:00","2017","02","27","20:00","0.2","","-7.8","","55","","28","","7","","24.1","","101.07","","","","","","NA"
"2017-02-27 21:00","2017","02","27","21:00","-0.4","","-8.1","","56","","25","","7","","24.1","","101.13","","","","-3","","NA"
"2017-02-27 22:00","2017","02","27","22:00","-1.4","","-8.0","","61","","23","","7","","24.1","","101.18","","","","-4","","Clear"
"2017-02-27 23:00","2017","02","27","23:00","-1.3","","-8.1","","60","","25","","9","","24.1","","101.20","","","","-5","","NA"
"2017-02-28 00:00","2017","02","28","00:00","-1.8","","-9.2","","57","","31","","8","","24.1","","101.22","","","","-5","","NA"
"2017-02-28 01:00","2017","02","28","01:00","-3.3","","-9.2","","64","","5","","4","","24.1","","101.26","","","","-5","","Clear"
"2017-02-28 02:00","2017","02","28","02:00","-3.6","","-7.1","","77","","36","","2","","24.1","","101.29","","","","-4","","NA"
"2017-02-28 03:00","2017","02","28","03:00","-5.2","","-9.7","","71","","16","","11","","24.1","","101.32","","","","-10","","NA"
"2017-02-28 04:00","2017","02","28","04:00","-3.9","","-8.8","","69","","15","","7","","24.1","","101.28","","","","-7","","Mostly Cloudy"
"2017-02-28 05:00","2017","02","28","05:00","-3.4","","-8.7","","67","","15","","9","","24.1","","101.31","","","","-7","","NA"
"2017-02-28 06:00","2017","02","28","06:00","-3.2","","-8.7","","66","","15","","10","","24.1","","101.32","","","","-7","","NA"
"2017-02-28 07:00","2017","02","28","07:00","-4.1","","-8.3","","73","","5","","9","","24.1","","101.29","","","","-8","","Mostly Cloudy"
"2017-02-28 08:00","2017","02","28","08:00","-3.7","","-7.7","","74","","4","","14","","24.1","","101.29","","","","-9","","NA"
"2017-02-28 09:00","2017","02","28","09:00","-0.7","","-7.5","","60","","7","","11","","24.1","","101.26","","","","-4","","NA"
"2017-02-28 10:00","2017","02","28","10:00","1.4","","-6.9","","54","","10","","20","","24.1","","101.12","","","","","","Mainly Clear"
"2017-02-28 11:00","2017","02","28","11:00","2.8","","-4.7","","58","","10","","16","","24.1","","101.08","","","","","","NA"
"2017-02-28 12:00","2017","02","28","12:00","3.4","","-4.1","","58","","7","","11","","24.1","","100.99","","","","","","NA"
"2017-02-28 13:00","2017","02","28","13:00","3.4","","-3.6","","60","","7","","17","","24.1","","100.84","","","","","","Cloudy"
"2017-02-28 14:00","2017","02","28","14:00","4.3","","-3.2","","58","","8","","16","","24.1","","100.72","","","","","","NA"
"2017-02-28 15:00","2017","02","28","15:00","4.1","","-3.2","","59","","7","","17","","24.1","","100.57","","","","","","NA"
"2017-02-28 16:00","2017","02","28","16:00","3.3","","-3.3","","62","","7","","16","","24.1","","100.46","","","","","","Cloudy"
"2017-02-28 17:00","2017","02","28","17:00","2.8","","-2.5","","68","","7","","15","","24.1","","100.37","","","","","","Rain"
"2017-02-28 18:00","2017","02","28","18:00","2.2","","-2.0","","74","","6","","20","","24.1","","100.20","","","","","","Rain"
"2017-02-28 19:00","2017","02","28","19:00","2.1","","-1.7","","76","","8","","20","","24.1","","100.06","","","","","","Cloudy"
"2017-02-28 20:00","2017","02","28","20:00","2.4","","-1.2","","77","","9","","22","","24.1","","99.92","","","","","","NA"
"2017-02-28 21:00","2017","02","28","21:00","2.2","","-0.9","","80","","9","","18","","24.1","","99.80","","","","","","NA"
"2017-02-28 22:00","2017","02","28","22:00","2.4","","-0.9","","79","","7","","14","","24.1","","99.64","","","","","","Cloudy"
"2017-02-28 23:00","2017","02","28","23:00","2.2","","-0.7","","81","","6","","16","","24.1","","99.51","","","","","","NA"
