"Station Name","OTTAWA MACDONALD-CARTIER INT'L A"
"Province","ONTARIO"
"Latitude","45.32"
"Longitude","-75.67"
"Elevation","114.00"
"Climate Identifier","6106000"
"WMO Identifier","71628"
"TC Identifier","YOW"
"All times are specified in Local Standard Time (LST). Add 1 hour to adjust for Daylight Saving Time where and when it is observed."

"Legend"
"E","Estimated"
"M","Missing"
"NA","Not Available"

"Date/Time","Year","Month","Day","Time","Temp (°C)","Temp Flag","Dew Point Temp (°C)","Dew Point Temp Flag","Rel Hum (%)","Rel Hum Flag","Wind Dir (10s deg)","Wind Dir Flag","Wind Spd (km/h)","Wind Spd Flag","Visibility (km)","Visibility Flag","Stn Press (kPa)","Stn Press Flag","Hmdx","Hmdx Flag","Wind Chill","Wind Chill Flag","Weather"
"2010-03-01 00:00","2010","03","01","00:00","1.4","","0.2","","92","","32","","13","","24.1","","99.46","","","","","","Mostly Cloudy"
"2010-03-01 01:00","2010","03","01","01:00","1.3","","-0.1","","90","","33","","15","","24.1","","99.48","","","","","","Mostly Cloudy"
"2010-03-01 02:00","2010","03","01","02:00","1.3","","-0.7","","87","","35","","15","","24.1","","99.51","","","","","","Mostly Cloudy"
"2010-03-01 03:00","2010","03","01","03:00","0.9","","-0.8","","88","","33","","17","","24.1","","99.53","","","","","","Mostly Cloudy"
"2010-03-01 04:00","2010","03","01","04:00","0.1","","-1.6","","88","","32","","17","","24.1","","99.53","","","","","","Mainly Clear"
"2010-03-01 05:00","2010","03","01","05:00","0.6","","-1.1","","88","","32","","19","","24.1","","99.55","","","","","","Mostly Cloudy"
"2010-03-01 06:00","2010","03","01","06:00","1.3","","-0.5","","88","","32","","19","","24.1","","99.58","","","","","","Mostly Cloudy"
"2010-03-01 07:00","2010","03","01","07:00","1.1","","-0.8","","87","","32","","20","","24.1","","99.65","","","","","","Cloudy"
"2010-03-01 08:00","2010","03","01","08:00","1.2","","-1.0","","85","","32","","20","","24.1","","99.71","","","","","","Cloudy"
"2010-03-01 09:00","2010","03","01","09:00","1.3","","-1.2","","83","","33","","17","","24.1","","99.74","","","","","","Cloudy"
"2010-03-01 10:00","2010","03","01","10:00","1.6","","-1.5","","80","","32","","20","","24.1","","99.77","","","","","","Cloudy"
"2010-03-01 11:00","2010","03","01","11:00","1.9","","-1.6","","78","","32","","22","","24.1","","99.80","","","","","","Cloudy"
"2010-03-01 12:00","2010","03","01","12:00","2.3","","-1.8","","74","","31","","20","","24.1","","99.82","","","","","","Mostly Cloudy"
"2010-03-01 13:00","2010","03","01","13:00","2.6","","-1.6","","74","","32","","26","","24.1","","99.81","","","","","","Mostly Cloudy"
"2010-03-01 14:00","2010","03","01","14:00","2.8","","-2.1","","70","","31","","20","","24.1","","99.81","","","","","","Mostly Cloudy"
"2010-03-01 15:00","2010","03","01","15:00","3.3","","-1.9","","69","","31","","22","","24.1","","99.83","","","","","","Cloudy"
"2010-03-01 16:00","2010","03","01","16:00","3.4","","-2.0","","68","","31","","20","","24.1","","99.84","","","","","","Cloudy"
"2010-03-01 17:00","2010","03","01","17:00","3.1","","-2.6","","66","","28","","19","","24.1","","99.91","","","","","","Mostly Cloudy"
"2010-03-01 18:00","2010","03","01","18:00","1.6","","-3.0","","71","","28","","13","","24.1","","100.01","","","","","","Mostly Cloudy"
"2010-03-01 19:00","2010","03","01","19:00","1.4","","-2.8","","74","","29","","15","","24.1","","100.06","","","","","","Mostly Cloudy"
"2010-03-01 20:00","2010","03","01","20:00","1.0","","-2.8","","76","","32","","13","","24.1","","100.08","","","","","","Mostly Cloudy"
"2010-03-01 21:00","2010","03","01","21:00","1.0","","-2.7","","76","","33","","13","","24.1","","100.09","","","","","","Mostly Cloudy"
"2010-03-01 22:00","2010","03","01","22:00","1.6","","-2.7","","73","","35","","19","","24.1","","100.10","","","","","","Mostly Cloudy"
"2010-03-01 23:00","2010","03","01","23:00","0.7","","-2.9","","77","","34","","19","","24.1","","100.12","","","","","","Mostly Cloudy"
"2010-03-02 00:00","2010","03","02","00:00","-0.1","","-3.7","","77","","34","","19","","24.1","","100.12","","","","-5","","Mostly Cloudy"
"2010-03-02 01:00","2010","03","02","01:00","-0.7","","-3.9","","79","","33","","17","","24.1","","100.12","","","","-6","","Mostly Cloudy"
"2010-03-02 02:00","2010","03","02","02:00","-0.8","","-4.7","","75","","33","","17","","24.1","","100.11","","","","-6","","Mostly Cloudy"
"2010-03-02 03:00","2010","03","02","03:00","-1.5","","-5.1","","76","","33","","19","","24.1","","100.10","","","","-7","","Mostly Cloudy"
"2010-03-02 04:00","2010","03","02","04:00","-2.3","","-5.3","","80","","32","","15","","24.1","","100.12","","","","-7","","Mostly Cloudy"
"2010-03-02 05:00","2010","03","02","05:00","-3.3","","-5.5","","85","","31","","9","","24.1","","100.14","","","","-7","","Mainly Clear"
"2010-03-02 06:00","2010","03","02","06:00","-3.5","","-5.6","","85","","32","","9","","24.1","","100.14","","","","-7","","Mostly Cloudy"
"2010-03-02 07:00","2010","03","02","07:00","-3.6","","-5.8","","85","","31","","15","","24.1","","100.17","","","","-9","","Mostly Cloudy"
"2010-03-02 08:00","2010","03","02","08:00","-3.6","","-5.8","","85","","31","","13","","24.1","","100.21","","","","-8","","Mostly Cloudy"
"2010-03-02 09:00","2010","03","02","09:00","-2.2","","-5.1","","80","","32","","9","","24.1","","100.24","","","","-6","","Mostly Cloudy"
"2010-03-02 10:00","2010","03","02","10:00","-0.6","","-4.5","","75","","29","","7","","24.1","","100.27","","","","-3","","Mostly Cloudy"
"2010-03-02 11:00","2010","03","02","11:00","0.9","","-3.5","","72","","30","","9","","24.1","","100.23","","","","","","Mostly Cloudy"
"2010-03-02 12:00","2010","03","02","12:00","2.0","","-3.6","","66","","30","","7","","24.1","","100.16","","","","","","Mostly Cloudy"
"2010-03-02 13:00","2010","03","02","13:00","2.9","","-4.4","","59","","30","","7","","24.1","","100.07","","","","","","Mostly Cloudy"
"2010-03-02 14:00","2010","03","02","14:00","4.5","","-5.0","","50","","25","","7","","24.1","","100.04","","","","","","Mostly Cloudy"
"2010-03-02 15:00","2010","03","02","15:00","4.9","","-4.0","","52","","23","","6","","24.1","","100.02","","","","","","Mostly Cloudy"
"2010-03-02 16:00","2010","03","02","16:00","5.5","","-4.7","","48","","25","","6","","24.1","","99.98","","","","","","Mostly Cloudy"
"2010-03-02 17:00","2010","03","02","17:00","5.2","","-5.2","","47","","25","","6","","24.1","","99.98","","","","","","Mostly Cloudy"
"2010-03-02 18:00","2010","03","02","18:00","2.8","","-4.6","","58","","22","","9","","24.1","","99.99","","","","","","Mostly Cloudy"
"2010-03-02 19:00","2010","03","02","19:00","1.7","","-5.1","","61","","29","","6","","25.0","","99.99","","","","","","Mainly Clear"
"2010-03-02 20:00","2010","03","02","20:00","-0.3","","-5.2","","69","","32","","13","","25.0","","99.96","","","","-4","","Mainly Clear"
"2010-03-02 21:00","2010","03","02","21:00","-0.6","","-6.6","","64","","35","","11","","25.0","","99.95","","","","-4","","Mainly Clear"
"2010-03-02 22:00","2010","03","02","22:00","0.1","","-7.2","","58","","36","","11","","25.0","","99.90","","","","","","Mainly Clear"
"2010-03-02 23:00","2010","03","02","23:00","-0.7","","-7.6","","60","","8","","11","","25.0","","99.83","","","","-4","","Mainly Clear"
"2010-03-03 00:00","2010","03","03","00:00","-1.2","","-8.4","","58","","3","","15","","25.0","","99.81","","","","-6","","Mainly Clear"
"2010-03-03 01:00","2010","03","03","01:00","-1.4","","-8.1","","60","","3","","13","","25.0","","99.84","","","","-6","","Mainly Clear"
"2010-03-03 02:00","2010","03","03","02:00","-2.2","","-9.1","","59","","2","","13","","25.0","","99.85","","","","-7","","Mainly Clear"
"2010-03-03 03:00","2010","03","03","03:00","-3.1","","-9.2","","63","","1","","13","","25.0","","99.83","","","","-8","","Mainly Clear"
"2010-03-03 04:00","2010","03","03","04:00","-3.1","","-9.7","","60","","2","","13","","25.0","","99.81","","","","-8","","Mostly Cloudy"
"2010-03-03 05:00","2010","03","03","05:00","-3.3","","-9.7","","61","","2","","11","","25.0","","99.82","","","","-8","","Cloudy"
"2010-03-03 06:00","2010","03","03","06:00","-3.7","","-9.8","","63","","1","","11","","25.0","","99.81","","","","-8","","Mostly Cloudy"
"2010-03-03 07:00","2010","03","03","07:00","-3.8","","-10.0","","62","","1","","15","","24.1","","99.84","","","","-9","","Mostly Cloudy"
"2010-03-03 08:00","2010","03","03","08:00","-3.3","","-9.7","","61","","2","","15","","24.1","","99.85","","","","-8","","Mostly Cloudy"
"2010-03-03 09:00","2010","03","03","09:00","-2.7","","-9.6","","59","","1","","15","","24.1","","99.80","","","","-8","","Mostly Cloudy"
"2010-03-03 10:00","2010","03","03","10:00","-1.5","","-8.8","","57","","2","","17","","24.1","","99.77","","","","-7","","Mostly Cloudy"
"2010-03-03 11:00","2010","03","03","11:00","-0.4","","-8.8","","53","","2","","15","","24.1","","99.75","","","","-5","","Mostly Cloudy"
"2010-03-03 12:00","2010","03","03","12:00","0.6","","-8.1","","52","","1","","17","","24.1","","99.69","","","","","","Mostly Cloudy"
"2010-03-03 13:00","2010","03","03","13:00","1.5","","-8.5","","47","","1","","20","","24.1","","99.60","","","","","","Mostly Cloudy"
"2010-03-03 14:00","2010","03","03","14:00","2.0","","-8.3","","46","","3","","17","","24.1","","99.59","","","","","","Mostly Cloudy"
"2010-03-03 15:00","2010","03","03","15:00","2.3","","-7.9","","47","","35","","13","","24.1","","99.59","","","","","","Mostly Cloudy"
"2010-03-03 16:00","2010","03","03","16:00","2.5","","-8.2","","45","","2","","13","","24.1","","99.59","","","","","","Mostly Cloudy"
"2010-03-03 17:00","2010","03","03","17:00","2.9","","-9.0","","41","","3","","20","","24.1","","99.59","","","","","","Mostly Cloudy"
"2010-03-03 18:00","2010","03","03","18:00","1.9","","-8.8","","45","","35","","11","","24.1","","99.60","","","","","","Mostly Cloudy"
"2010-03-03 19:00","2010","03","03","19:00","0.9","","-8.5","","49","","35","","11","","25.0","","99.62","","","","","","Mostly Cloudy"
"2010-03-03 20:00","2010","03","03","20:00","0.8","","-9.3","","47","","36","","13","","25.0","","99.61","","","","","","Mainly Clear"
"2010-03-03 21:00","2010","03","03","21:00","0.6","","-10.1","","45","","2","","15","","25.0","","99.63","","","","","","Mainly Clear"
"2010-03-03 22:00","2010","03","03","22:00","-0.7","","-10.3","","48","","36","","11","","25.0","","99.62","","","","-4","","Mainly Clear"
"2010-03-03 23:00","2010","03","03","23:00","-1.6","","-10.1","","52","","35","","13","","25.0","","99.61","","","","-6","","Mainly Clear"
"2010-03-04 00:00","2010","03","04","00:00","-1.8","","-10.1","","53","","36","","15","","25.0","","99.62","","","","-7","","Mainly Clear"
"2010-03-04 01:00","2010","03","04","01:00","-2.1","","-9.7","","56","","36","","15","","25.0","","99.65","","","","-7","","Mostly Cloudy"
"2010-03-04 02:00","2010","03","04","02:00","-2.4","","-10.0","","56","","36","","13","","25.0","","99.65","","","","-7","","Mostly Cloudy"
"2010-03-04 03:00","2010","03","04","03:00","-3.7","","-9.7","","63","","34","","13","","25.0","","99.65","","","","-9","","Cloudy"
"2010-03-04 04:00","2010","03","04","04:00","-3.6","","-9.9","","62","","35","","13","","25.0","","99.66","","","","-8","","Cloudy"
"2010-03-04 05:00","2010","03","04","05:00","-2.7","","-10.5","","55","","36","","15","","25.0","","99.71","","","","-8","","Mainly Clear"
"2010-03-04 06:00","2010","03","04","06:00","-3.3","","-10.6","","57","","36","","17","","25.0","","99.77","","","","-9","","Mostly Cloudy"
"2010-03-04 07:00","2010","03","04","07:00","-3.1","","-10.8","","55","","36","","19","","24.1","","99.84","","","","-9","","Mostly Cloudy"
"2010-03-04 08:00","2010","03","04","08:00","-2.6","","-10.4","","55","","36","","20","","24.1","","99.89","","","","-9","","Mostly Cloudy"
"2010-03-04 09:00","2010","03","04","09:00","-1.3","","-10.1","","51","","36","","20","","22.5","","99.94","","","","-7","","Mostly Cloudy"
"2010-03-04 10:00","2010","03","04","10:00","-0.2","","-9.5","","49","","36","","17","","24.1","","99.98","","","","-5","","Mostly Cloudy"
"2010-03-04 11:00","2010","03","04","11:00","0.8","","-8.2","","51","","36","","17","","24.1","","99.99","","","","","","Mostly Cloudy"
"2010-03-04 12:00","2010","03","04","12:00","1.5","","-8.1","","49","","34","","19","","24.1","","99.98","","","","","","Mostly Cloudy"
"2010-03-04 13:00","2010","03","04","13:00","2.3","","-8.2","","46","","35","","20","","24.1","","99.95","","","","","","Mostly Cloudy"
"2010-03-04 14:00","2010","03","04","14:00","2.8","","-7.6","","46","","34","","22","","24.1","","99.93","","","","","","Mostly Cloudy"
"2010-03-04 15:00","2010","03","04","15:00","3.6","","-7.6","","44","","35","","17","","24.1","","99.94","","","","","","Mostly Cloudy"
"2010-03-04 16:00","2010","03","04","16:00","3.9","","-8.3","","41","","36","","26","","24.1","","99.98","","","","","","Mostly Cloudy"
"2010-03-04 17:00","2010","03","04","17:00","3.7","","-7.8","","43","","36","","24","","24.1","","100.05","","","","","","Mostly Cloudy"
"2010-03-04 18:00","2010","03","04","18:00","3.3","","-7.8","","44","","35","","19","","24.1","","100.12","","","","","","Mostly Cloudy"
"2010-03-04 19:00","2010","03","04","19:00","1.1","","-7.1","","54","","34","","11","","25.0","","100.18","","","","","","Mainly Clear"
"2010-03-04 20:00","2010","03","04","20:00","2.3","","-8.4","","45","","36","","17","","25.0","","100.23","","","","","","Mainly Clear"
"2010-03-04 21:00","2010","03","04","21:00","1.5","","-9.0","","46","","35","","17","","25.0","","100.30","","","","","","Clear"
"2010-03-04 22:00","2010","03","04","22:00","0.3","","-9.2","","49","","36","","15","","25.0","","100.34","","","","","","Clear"
"2010-03-04 23:00","2010","03","04","23:00","-0.1","","-9.2","","50","","36","","17","","25.0","","100.38","","","","-5","","Clear"
"2010-03-05 00:00","2010","03","05","00:00","-0.8","","-8.9","","54","","1","","19","","25.0","","100.41","","","","-6","","Mainly Clear"
"2010-03-05 01:00","2010","03","05","01:00","-1.7","","-9.1","","57","","36","","17","","25.0","","100.48","","","","-7","","Mainly Clear"
"2010-03-05 02:00","2010","03","05","02:00","-2.5","","-9.4","","59","","36","","9","","25.0","","100.51","","","","-6","","Mainly Clear"
"2010-03-05 03:00","2010","03","05","03:00","-2.7","","-9.5","","59","","35","","11","","25.0","","100.53","","","","-7","","Clear"
"2010-03-05 04:00","2010","03","05","04:00","-3.3","","-10.0","","60","","35","","13","","25.0","","100.56","","","","-8","","Clear"
"2010-03-05 05:00","2010","03","05","05:00","-3.8","","-10.2","","61","","35","","15","","25.0","","100.62","","","","-9","","Clear"
"2010-03-05 06:00","2010","03","05","06:00","-4.4","","-10.4","","63","","36","","15","","24.1","","100.70","","","","-10","","Mainly Clear"
"2010-03-05 07:00","2010","03","05","07:00","-5.0","","-10.7","","64","","35","","13","","32.2","","100.78","","","","-10","","Mainly Clear"
"2010-03-05 08:00","2010","03","05","08:00","-4.0","","-11.0","","58","","36","","15","","32.2","","100.83","","","","-9","","Mainly Clear"
"2010-03-05 09:00","2010","03","05","09:00","-3.0","","-11.3","","53","","1","","17","","32.2","","100.89","","","","-9","","Mainly Clear"
"2010-03-05 10:00","2010","03","05","10:00","-2.0","","-12.3","","45","","1","","11","","32.2","","100.94","","","","-6","","Mainly Clear"
"2010-03-05 11:00","2010","03","05","11:00","-0.7","","-10.8","","46","","36","","9","","32.2","","100.96","","","","-4","","Mainly Clear"
"2010-03-05 12:00","2010","03","05","12:00","0.0","","-10.6","","45","","31","","7","","32.2","","100.94","","","","-2","","Mainly Clear"
"2010-03-05 13:00","2010","03","05","13:00","1.0","","-10.0","","44","","30","","7","","32.2","","100.90","","","","","","Mainly Clear"
"2010-03-05 14:00","2010","03","05","14:00","2.2","","-11.3","","36","","31","","4","","32.2","","100.87","","","","","","Mostly Cloudy"
"2010-03-05 15:00","2010","03","05","15:00","2.6","","-7.9","","46","","28","","7","","32.2","","100.87","","","","","","Mainly Clear"
"2010-03-05 16:00","2010","03","05","16:00","2.8","","-8.0","","45","","31","","11","","32.2","","100.86","","","","","","Mainly Clear"
"2010-03-05 17:00","2010","03","05","17:00","2.2","","-8.9","","44","","32","","11","","32.2","","100.90","","","","","","Mainly Clear"
"2010-03-05 18:00","2010","03","05","18:00","0.2","","-9.7","","47","","31","","11","","25.0","","100.93","","","","","","Mainly Clear"
"2010-03-05 19:00","2010","03","05","19:00","0.1","","-11.5","","41","","30","","11","","25.0","","100.95","","","","","","Clear"
"2010-03-05 20:00","2010","03","05","20:00","-0.7","","-11.6","","43","","30","","11","","25.0","","100.94","","","","-4","","Clear"
"2010-03-05 21:00","2010","03","05","21:00","0.1","","-12.9","","37","","29","","9","","25.0","","100.95","","","","","","Clear"
"2010-03-05 22:00","2010","03","05","22:00","-1.0","","-13.3","","39","","30","","11","","25.0","","100.95","","","","-5","","Clear"
"2010-03-05 23:00","2010","03","05","23:00","-1.5","","-14.0","","38","","30","","11","","25.0","","100.97","","","","-5","","Clear"
"2010-03-06 00:00","2010","03","06","00:00","-2.9","","-13.3","","45","","31","","11","","25.0","","100.96","","","","-7","","Clear"
"2010-03-06 01:00","2010","03","06","01:00","-3.0","","-13.3","","45","","31","","11","","25.0","","100.96","","","","-7","","Clear"
"2010-03-06 02:00","2010","03","06","02:00","-5.1","","-13.2","","53","","30","","11","","25.0","","100.95","","","","-10","","Mainly Clear"
"2010-03-06 03:00","2010","03","06","03:00","-5.5","","-13.2","","55","","31","","13","","25.0","","100.91","","","","-11","","Clear"
"2010-03-06 04:00","2010","03","06","04:00","-5.2","","-13.1","","54","","31","","15","","25.0","","100.92","","","","-11","","Clear"
"2010-03-06 05:00","2010","03","06","05:00","-5.1","","-13.0","","54","","29","","11","","25.0","","100.91","","","","-10","","Clear"
"2010-03-06 06:00","2010","03","06","06:00","-5.6","","-13.4","","54","","29","","11","","25.0","","100.93","","","","-10","","Clear"
"2010-03-06 07:00","2010","03","06","07:00","-6.0","","-13.0","","58","","30","","15","","24.1","","100.96","","","","-12","","Mainly Clear"
"2010-03-06 08:00","2010","03","06","08:00","-3.8","","-12.1","","52","","31","","13","","24.1","","100.97","","","","-9","","Mainly Clear"
"2010-03-06 09:00","2010","03","06","09:00","-2.1","","-10.7","","52","","30","","11","","24.1","","100.97","","","","-6","","Mainly Clear"
"2010-03-06 10:00","2010","03","06","10:00","0.1","","-10.5","","45","","30","","15","","24.1","","100.95","","","","","","Mainly Clear"
"2010-03-06 11:00","2010","03","06","11:00","2.4","","-9.8","","40","","26","","11","","24.1","","100.89","","","","","","Mainly Clear"
"2010-03-06 12:00","2010","03","06","12:00","3.8","","-8.8","","39","","27","","17","","24.1","","100.80","","","","","","Mainly Clear"
"2010-03-06 13:00","2010","03","06","13:00","4.7","","-9.8","","34","","26","","17","","24.1","","100.70","","","","","","Mainly Clear"
"2010-03-06 14:00","2010","03","06","14:00","5.8","","-9.5","","32","","25","","20","","24.1","","100.63","","","","","","Mainly Clear"
"2010-03-06 15:00","2010","03","06","15:00","7.2","","-9.2","","30","","25","","17","","24.1","","100.53","","","","","","Mainly Clear"
"2010-03-06 16:00","2010","03","06","16:00","7.5","","-9.5","","29","","26","","13","","24.1","","100.49","","","","","","Mainly Clear"
"2010-03-06 17:00","2010","03","06","17:00","8.0","","-10.3","","26","","27","","11","","24.1","","100.45","","","","","","Mainly Clear"
"2010-03-06 18:00","2010","03","06","18:00","7.1","","-11.3","","26","","25","","6","","24.1","","100.41","","","","","","Mainly Clear"
"2010-03-06 19:00","2010","03","06","19:00","5.9","","-10.5","","30","","20","","7","","25.0","","100.40","","","","","","Mainly Clear"
"2010-03-06 20:00","2010","03","06","20:00","3.7","","-8.0","","42","","19","","13","","25.0","","100.37","","","","","","Mainly Clear"
"2010-03-06 21:00","2010","03","06","21:00","3.1","","-8.0","","44","","22","","13","","25.0","","100.35","","","","","","Mainly Clear"
"2010-03-06 22:00","2010","03","06","22:00","2.1","","-7.8","","48","","29","","13","","25.0","","100.31","","","","","","Mainly Clear"
"2010-03-06 23:00","2010","03","06","23:00","3.0","","-7.1","","47","","25","","7","","25.0","","100.30","","","","","","Mainly Clear"
"2010-03-07 00:00","2010","03","07","00:00","2.3","","-7.1","","50","","23","","11","","25.0","","100.28","","","","","","Mainly Clear"
"2010-03-07 01:00","2010","03","07","01:00","0.7","","-6.8","","57","","25","","13","","25.0","","100.26","","","","","","Mainly Clear"
"2010-03-07 02:00","2010","03","07","02:00","1.2","","-6.5","","56","","25","","9","","25.0","","100.25","","","","","","Mainly Clear"
"2010-03-07 03:00","2010","03","07","03:00","0.2","","-5.9","","64","","23","","9","","25.0","","100.19","","","","","","Mainly Clear"
"2010-03-07 04:00","2010","03","07","04:00","-0.7","","-5.6","","69","","23","","7","","25.0","","100.18","","","","-3","","Mainly Clear"
"2010-03-07 05:00","2010","03","07","05:00","-1.7","","-5.9","","73","","24","","13","","25.0","","100.18","","","","-6","","Mainly Clear"
"2010-03-07 06:00","2010","03","07","06:00","-2.1","","-6.5","","72","","23","","7","","25.0","","100.17","","","","-5","","Mainly Clear"
"2010-03-07 07:00","2010","03","07","07:00","-2.2","","-5.7","","77","","23","","7","","24.1","","100.20","","","","-5","","Clear"
"2010-03-07 08:00","2010","03","07","08:00","-1.1","","-4.7","","76","","23","","13","","24.1","","100.18","","","","-5","","Clear"
"2010-03-07 09:00","2010","03","07","09:00","0.4","","-3.7","","74","","25","","15","","24.1","","100.13","","","","","","Clear"
"2010-03-07 10:00","2010","03","07","10:00","2.6","","-2.2","","71","","26","","13","","24.1","","100.07","","","","","","Clear"
"2010-03-07 11:00","2010","03","07","11:00","4.5","","-1.5","","65","","24","","17","","24.1","","100.00","","","","","","Clear"
"2010-03-07 12:00","2010","03","07","12:00","6.1","","-1.5","","58","","22","","13","","24.1","","99.90","","","","","","Clear"
"2010-03-07 13:00","2010","03","07","13:00","7.7","","-1.2","","53","","21","","17","","24.1","","99.80","","","","","","Clear"
"2010-03-07 14:00","2010","03","07","14:00","8.3","","-1.4","","50","","22","","22","","24.1","","99.73","","","","","","Clear"
"2010-03-07 15:00","2010","03","07","15:00","9.2","","-1.7","","46","","22","","13","","24.1","","99.68","","","","","","Clear"
"2010-03-07 16:00","2010","03","07","16:00","9.6","","-1.6","","45","","27","","20","","24.1","","99.64","","","","","","Mainly Clear"
"2010-03-07 17:00","2010","03","07","17:00","8.5","","-1.4","","50","","29","","13","","24.1","","99.65","","","","","","Mainly Clear"
"2010-03-07 18:00","2010","03","07","18:00","8.5","","-1.4","","50","","29","","13","","24.1","","99.64","","","","","","Mainly Clear"
"2010-03-07 19:00","2010","03","07","19:00","5.8","","-0.4","","64","","19","","9","","25.0","","99.66","","","","","","Mainly Clear"
"2010-03-07 20:00","2010","03","07","20:00","4.5","","-0.4","","70","","19","","9","","25.0","","99.64","","","","","","Clear"
"2010-03-07 21:00","2010","03","07","21:00","2.8","","-1.2","","75","","20","","9","","25.0","","99.64","","","","","","Clear"
"2010-03-07 22:00","2010","03","07","22:00","5.4","","-3.6","","52","","25","","11","","25.0","","99.65","","","","","","Clear"
"2010-03-07 23:00","2010","03","07","23:00","4.0","","-3.7","","57","","26","","13","","25.0","","99.67","","","","","","Clear"
"2010-03-08 00:00","2010","03","08","00:00","2.8","","-4.4","","59","","25","","13","","25.0","","99.67","","","","","","Clear"
"2010-03-08 01:00","2010","03","08","01:00","2.0","","-4.6","","62","","24","","13","","25.0","","99.67","","","","","","Mainly Clear"
"2010-03-08 02:00","2010","03","08","02:00","2.3","","-3.3","","66","","26","","11","","25.0","","99.65","","","","","","Mainly Clear"
"2010-03-08 03:00","2010","03","08","03:00","2.8","","-2.9","","66","","27","","15","","25.0","","99.64","","","","","","Mostly Cloudy"
"2010-03-08 04:00","2010","03","08","04:00","2.5","","-2.4","","70","","27","","13","","25.0","","99.64","","","","","","Mostly Cloudy"
"2010-03-08 05:00","2010","03","08","05:00","2.3","","-2.7","","69","","27","","15","","25.0","","99.65","","","","","","Mainly Clear"
"2010-03-08 06:00","2010","03","08","06:00","1.9","","-2.7","","72","","25","","13","","25.0","","99.68","","","","","","Mostly Cloudy"
"2010-03-08 07:00","2010","03","08","07:00","1.2","","-2.7","","75","","27","","15","","24.1","","99.74","","","","","","Mainly Clear"
"2010-03-08 08:00","2010","03","08","08:00","2.1","","-2.3","","73","","27","","17","","24.1","","99.77","","","","","","Mainly Clear"
"2010-03-08 09:00","2010","03","08","09:00","3.4","","-1.6","","70","","27","","15","","24.1","","99.76","","","","","","Mainly Clear"
"2010-03-08 10:00","2010","03","08","10:00","4.5","","-1.8","","64","","24","","17","","24.1","","99.71","","","","","","Mainly Clear"
"2010-03-08 11:00","2010","03","08","11:00","4.9","","-0.9","","66","","27","","13","","24.1","","99.67","","","","","","Mostly Cloudy"
"2010-03-08 12:00","2010","03","08","12:00","6.2","","-1.7","","57","","28","","20","","24.1","","99.64","","","","","","Mostly Cloudy"
"2010-03-08 13:00","2010","03","08","13:00","6.9","","-1.8","","54","","28","","26","","24.1","","99.55","","","","","","Mainly Clear"
"2010-03-08 14:00","2010","03","08","14:00","7.5","","-1.4","","53","","28","","30","","24.1","","99.51","","","","","","Mainly Clear"
"2010-03-08 15:00","2010","03","08","15:00","8.2","","-1.4","","51","","28","","24","","24.1","","99.47","","","","","","Mainly Clear"
"2010-03-08 16:00","2010","03","08","16:00","8.4","","-1.4","","50","","29","","26","","24.1","","99.45","","","","","","Mainly Clear"
"2010-03-08 17:00","2010","03","08","17:00","8.2","","-1.3","","51","","29","","19","","24.1","","99.47","","","","","","Mainly Clear"
"2010-03-08 18:00","2010","03","08","18:00","7.2","","-1.6","","54","","29","","17","","24.1","","99.53","","","","","","Mainly Clear"
"2010-03-08 19:00","2010","03","08","19:00","5.6","","-1.7","","59","","29","","11","","25.0","","99.59","","","","","","Clear"
"2010-03-08 20:00","2010","03","08","20:00","4.5","","-4.7","","51","","31","","15","","25.0","","99.65","","","","","","Clear"
"2010-03-08 21:00","2010","03","08","21:00","3.4","","-7.0","","46","","32","","15","","25.0","","99.75","","","","","","Clear"
"2010-03-08 22:00","2010","03","08","22:00","3.0","","-7.5","","46","","34","","15","","25.0","","99.78","","","","","","Clear"
"2010-03-08 23:00","2010","03","08","23:00","2.5","","-8.6","","44","","35","","9","","25.0","","99.82","","","","","","Clear"
"2010-03-09 00:00","2010","03","09","00:00","2.1","","-9.0","","44","","25","","7","","25.0","","99.84","","","","","","Mainly Clear"
"2010-03-09 01:00","2010","03","09","01:00","-0.1","","-9.0","","51","","32","","15","","25.0","","99.89","","","","-5","","Mainly Clear"
"2010-03-09 02:00","2010","03","09","02:00","-0.7","","-9.2","","53","","32","","13","","25.0","","99.91","","","","-5","","Clear"
"2010-03-09 03:00","2010","03","09","03:00","-0.7","","-10.5","","47","","28","","7","","25.0","","99.93","","","","-3","","Clear"
"2010-03-09 04:00","2010","03","09","04:00","-1.6","","-9.4","","55","","29","","11","","25.0","","99.98","","","","-5","","Clear"
"2010-03-09 05:00","2010","03","09","05:00","-3.0","","-9.5","","61","","30","","9","","25.0","","100.07","","","","-7","","Mainly Clear"
"2010-03-09 06:00","2010","03","09","06:00","-2.7","","-9.6","","59","","35","","13","","25.0","","100.14","","","","-7","","Mainly Clear"
"2010-03-09 07:00","2010","03","09","07:00","-3.1","","-9.7","","60","","29","","9","","24.1","","100.20","","","","-7","","Mostly Cloudy"
"2010-03-09 08:00","2010","03","09","08:00","-0.8","","-8.8","","55","","32","","13","","24.1","","100.26","","","","-5","","Mostly Cloudy"
"2010-03-09 09:00","2010","03","09","09:00","0.0","","-9.6","","48","","33","","11","","24.1","","100.28","","","","-4","","Mostly Cloudy"
"2010-03-09 10:00","2010","03","09","10:00","1.1","","-10.3","","42","","33","","9","","24.1","","100.29","","","","","","Mainly Clear"
"2010-03-09 11:00","2010","03","09","11:00","2.5","","-7.9","","46","","33","","7","","24.1","","100.29","","","","","","Mainly Clear"
"2010-03-09 12:00","2010","03","09","12:00","3.2","","-10.2","","37","","","","0","","24.1","","100.25","","","","","","Mainly Clear"
"2010-03-09 13:00","2010","03","09","13:00","3.9","","-11.5","","31","","27","","9","","24.1","","100.20","","","","","","Mainly Clear"
"2010-03-09 14:00","2010","03","09","14:00","4.4","","-10.1","","34","","29","","9","","24.1","","100.15","","","","","","Clear"
"2010-03-09 15:00","2010","03","09","15:00","4.9","","-9.7","","34","","25","","7","","24.1","","100.16","","","","","","Clear"
"2010-03-09 16:00","2010","03","09","16:00","5.1","","-10.1","","32","","25","","7","","24.1","","100.17","","","","","","Clear"
"2010-03-09 17:00","2010","03","09","17:00","4.7","","-8.7","","37","","25","","11","","24.1","","100.20","","","","","","Clear"
"2010-03-09 18:00","2010","03","09","18:00","3.8","","-9.8","","36","","24","","6","","24.1","","100.22","","","","","","Mainly Clear"
"2010-03-09 19:00","2010","03","09","19:00","3.3","","-10.8","","35","","","","0","","25.0","","100.20","","","","","","Clear"
"2010-03-09 20:00","2010","03","09","20:00","2.0","","-10.4","","39","","10","","4","","25.0","","100.22","","","","","","Clear"
"2010-03-09 21:00","2010","03","09","21:00","0.7","","-10.4","","43","","12","","6","","25.0","","100.24","","","","","","Clear"
"2010-03-09 22:00","2010","03","09","22:00","1.7","","-10.6","","40","","17","","4","","25.0","","100.26","","","","","","Mainly Clear"
"2010-03-09 23:00","2010","03","09","23:00","0.1","","-10.3","","45","","20","","4","","25.0","","100.30","","","","","","Clear"
"2010-03-10 00:00","2010","03","10","00:00","-0.8","","-9.2","","53","","","","0","","25.0","","100.30","","","","","","Clear"
"2010-03-10 01:00","2010","03","10","01:00","-0.3","","-9.8","","49","","3","","6","","25.0","","100.27","","","","-2","","Clear"
"2010-03-10 02:00","2010","03","10","02:00","-2.0","","-9.0","","59","","3","","6","","25.0","","100.28","","","","-4","","Clear"
"2010-03-10 03:00","2010","03","10","03:00","-2.5","","-9.4","","59","","5","","6","","25.0","","100.26","","","","-5","","Clear"
"2010-03-10 04:00","2010","03","10","04:00","-3.0","","-9.3","","62","","4","","11","","25.0","","100.28","","","","-7","","Clear"
"2010-03-10 05:00","2010","03","10","05:00","-3.3","","-9.2","","64","","5","","9","","25.0","","100.31","","","","-7","","Clear"
"2010-03-10 06:00","2010","03","10","06:00","-3.9","","-8.7","","69","","5","","11","","25.0","","100.35","","","","-8","","Clear"
"2010-03-10 07:00","2010","03","10","07:00","-3.5","","-9.0","","66","","6","","13","","24.1","","100.38","","","","-8","","Mainly Clear"
"2010-03-10 08:00","2010","03","10","08:00","-2.0","","-8.6","","61","","6","","13","","24.1","","100.42","","","","-6","","Clear"
"2010-03-10 09:00","2010","03","10","09:00","-0.3","","-7.3","","59","","8","","9","","24.1","","100.43","","","","-3","","Mainly Clear"
"2010-03-10 10:00","2010","03","10","10:00","1.8","","-6.7","","53","","7","","9","","24.1","","100.46","","","","","","Mainly Clear"
"2010-03-10 11:00","2010","03","10","11:00","2.8","","-7.0","","48","","7","","11","","24.1","","100.45","","","","","","Mainly Clear"
"2010-03-10 12:00","2010","03","10","12:00","5.0","","-6.8","","42","","12","","6","","24.1","","100.44","","","","","","Mainly Clear"
"2010-03-10 13:00","2010","03","10","13:00","5.8","","-7.4","","38","","12","","6","","24.1","","100.39","","","","","","Mainly Clear"
"2010-03-10 14:00","2010","03","10","14:00","6.4","","-6.5","","39","","","","0","","24.1","","100.35","","","","","","Mainly Clear"
"2010-03-10 15:00","2010","03","10","15:00","6.7","","-7.5","","35","","4","","6","","24.1","","100.31","","","","","","Mainly Clear"
"2010-03-10 16:00","2010","03","10","16:00","6.8","","-7.3","","36","","11","","6","","24.1","","100.29","","","","","","Mainly Clear"
"2010-03-10 17:00","2010","03","10","17:00","6.0","","-7.3","","38","","13","","7","","24.1","","100.31","","","","","","Mostly Cloudy"
"2010-03-10 18:00","2010","03","10","18:00","3.9","","-7.9","","42","","9","","6","","24.1","","100.33","","","","","","Mostly Cloudy"
"2010-03-10 19:00","2010","03","10","19:00","3.4","","-7.9","","43","","11","","7","","25.0","","100.38","","","","","","Mainly Clear"
"2010-03-10 20:00","2010","03","10","20:00","3.4","","-8.0","","43","","8","","11","","25.0","","100.38","","","","","","Mainly Clear"
"2010-03-10 21:00","2010","03","10","21:00","1.3","","-7.2","","53","","9","","11","","25.0","","100.41","","","","","","Clear"
"2010-03-10 22:00","2010","03","10","22:00","1.4","","-7.1","","53","","9","","9","","25.0","","100.40","","","","","","Mainly Clear"
"2010-03-10 23:00","2010","03","10","23:00","-0.5","","-7.0","","61","","10","","9","","25.0","","100.40","","","","-4","","Mainly Clear"
"2010-03-11 00:00","2010","03","11","00:00","0.6","","-7.5","","55","","7","","9","","25.0","","100.43","","","","","","Mostly Cloudy"
"2010-03-11 01:00","2010","03","11","01:00","0.5","","-7.2","","56","","5","","11","","25.0","","100.43","","","","","","Cloudy"
"2010-03-11 02:00","2010","03","11","02:00","-0.1","","-7.4","","58","","4","","11","","25.0","","100.44","","","","-4","","Mainly Clear"
"2010-03-11 03:00","2010","03","11","03:00","-0.2","","-7.2","","59","","4","","17","","25.0","","100.41","","","","-5","","Mainly Clear"
"2010-03-11 04:00","2010","03","11","04:00","-0.2","","-7.3","","59","","5","","17","","25.0","","100.43","","","","-5","","Mainly Clear"
"2010-03-11 05:00","2010","03","11","05:00","-0.5","","-7.3","","60","","5","","17","","25.0","","100.44","","","","-5","","Mainly Clear"
"2010-03-11 06:00","2010","03","11","06:00","-0.5","","-7.4","","60","","6","","17","","24.1","","100.46","","","","-5","","Mostly Cloudy"
"2010-03-11 07:00","2010","03","11","07:00","-0.1","","-7.6","","57","","6","","13","","24.1","","100.49","","","","-4","","Mostly Cloudy"
"2010-03-11 08:00","2010","03","11","08:00","1.6","","-7.7","","50","","6","","22","","24.1","","100.47","","","","","","Mostly Cloudy"
"2010-03-11 09:00","2010","03","11","09:00","3.9","","-7.5","","43","","7","","19","","24.1","","100.53","","","","","","Mainly Clear"
"2010-03-11 10:00","2010","03","11","10:00","5.7","","-7.0","","40","","7","","19","","24.1","","100.58","","","","","","Mainly Clear"
"2010-03-11 11:00","2010","03","11","11:00","6.6","","-7.1","","37","","8","","19","","24.1","","100.54","","","","","","Mainly Clear"
"2010-03-11 12:00","2010","03","11","12:00","7.6","","-6.8","","35","","8","","13","","24.1","","100.58","","","","","","Mainly Clear"
"2010-03-11 13:00","2010","03","11","13:00","7.5","","-6.6","","36","","6","","15","","24.1","","100.53","","","","","","Mostly Cloudy"
"2010-03-11 14:00","2010","03","11","14:00","8.7","","-6.4","","34","","7","","20","","24.1","","100.49","","","","","","Mostly Cloudy"
"2010-03-11 15:00","2010","03","11","15:00","9.5","","-6.5","","32","","7","","17","","24.1","","100.45","","","","","","Mostly Cloudy"
"2010-03-11 16:00","2010","03","11","16:00","8.4","","-8.0","","30","","7","","17","","24.1","","100.45","","","","","","Mostly Cloudy"
"2010-03-11 17:00","2010","03","11","17:00","6.9","","-6.3","","38","","7","","17","","24.1","","100.44","","","","","","Mostly Cloudy"
"2010-03-11 18:00","2010","03","11","18:00","5.5","","-5.3","","46","","8","","13","","24.1","","100.48","","","","","","Mostly Cloudy"
"2010-03-11 19:00","2010","03","11","19:00","6.1","","-9.8","","31","","7","","22","","25.0","","100.52","","","","","","Mostly Cloudy"
"2010-03-11 20:00","2010","03","11","20:00","4.8","","-9.4","","35","","7","","20","","25.0","","100.55","","","","","","Mainly Clear"
"2010-03-11 21:00","2010","03","11","21:00","3.6","","-8.6","","40","","7","","22","","25.0","","100.55","","","","","","Mainly Clear"
"2010-03-11 22:00","2010","03","11","22:00","2.7","","-8.2","","44","","7","","19","","25.0","","100.56","","","","","","Mainly Clear"
"2010-03-11 23:00","2010","03","11","23:00","2.6","","-8.3","","44","","6","","20","","25.0","","100.55","","","","","","Clear"
"2010-03-12 00:00","2010","03","12","00:00","2.4","","-8.2","","45","","7","","22","","25.0","","100.57","","","","","","Clear"
"2010-03-12 01:00","2010","03","12","01:00","2.4","","-8.0","","46","","7","","24","","25.0","","100.62","","","","","","Mainly Clear"
"2010-03-12 02:00","2010","03","12","02:00","1.7","","-7.7","","50","","7","","13","","25.0","","100.66","","","","","","Mostly Cloudy"
"2010-03-12 03:00","2010","03","12","03:00","2.3","","-8.4","","45","","6","","24","","25.0","","100.59","","","","","","Mainly Clear"
"2010-03-12 04:00","2010","03","12","04:00","1.5","","-8.6","","47","","8","","22","","25.0","","100.60","","","","","","Mainly Clear"
"2010-03-12 05:00","2010","03","12","05:00","0.6","","-8.0","","52","","7","","19","","25.0","","100.63","","","","","","Mostly Cloudy"
"2010-03-12 06:00","2010","03","12","06:00","0.3","","-8.0","","54","","7","","19","","24.1","","100.62","","","","","","Mainly Clear"
"2010-03-12 07:00","2010","03","12","07:00","0.4","","-7.7","","55","","8","","17","","24.1","","100.68","","","","","","Mainly Clear"
"2010-03-12 08:00","2010","03","12","08:00","1.7","","-7.4","","51","","8","","19","","24.1","","100.71","","","","","","Mostly Cloudy"
"2010-03-12 09:00","2010","03","12","09:00","2.7","","-6.2","","52","","9","","19","","24.1","","100.73","","","","","","Cloudy"
"2010-03-12 10:00","2010","03","12","10:00","3.8","","-4.4","","55","","9","","17","","24.1","","100.76","","","","","","Cloudy"
"2010-03-12 11:00","2010","03","12","11:00","5.2","","-4.0","","51","","8","","19","","24.1","","100.72","","","","","","Cloudy"
"2010-03-12 12:00","2010","03","12","12:00","6.4","","-2.2","","54","","9","","28","","24.1","","100.70","","","","","","Cloudy"
"2010-03-12 13:00","2010","03","12","13:00","6.3","","-2.1","","55","","8","","20","","24.1","","100.69","","","","","","Cloudy"
"2010-03-12 14:00","2010","03","12","14:00","6.1","","-1.7","","57","","8","","22","","24.1","","100.69","","","","","","Cloudy"
"2010-03-12 15:00","2010","03","12","15:00","6.5","","-1.4","","57","","8","","20","","24.1","","100.70","","","","","","Cloudy"
"2010-03-12 16:00","2010","03","12","16:00","6.2","","-1.3","","59","","7","","17","","24.1","","100.71","","","","","","Cloudy"
"2010-03-12 17:00","2010","03","12","17:00","5.9","","-1.6","","59","","6","","22","","24.1","","100.69","","","","","","Cloudy"
"2010-03-12 18:00","2010","03","12","18:00","5.5","","-1.7","","60","","7","","20","","24.1","","100.68","","","","","","Cloudy"
"2010-03-12 19:00","2010","03","12","19:00","5.1","","-2.6","","57","","7","","24","","24.1","","100.68","","","","","","Mostly Cloudy"
"2010-03-12 20:00","2010","03","12","20:00","4.8","","-2.4","","60","","7","","22","","24.1","","100.69","","","","","","Mostly Cloudy"
"2010-03-12 21:00","2010","03","12","21:00","4.8","","-2.1","","61","","7","","22","","24.1","","100.69","","","","","","Cloudy"
"2010-03-12 22:00","2010","03","12","22:00","4.1","","-2.1","","64","","7","","22","","24.1","","100.66","","","","","","Mainly Clear"
"2010-03-12 23:00","2010","03","12","23:00","3.9","","-1.7","","67","","7","","24","","24.1","","100.63","","","","","","Mostly Cloudy"
"2010-03-13 00:00","2010","03","13","00:00","4.0","","-1.4","","68","","7","","22","","24.1","","100.61","","","","","","Mostly Cloudy"
"2010-03-13 01:00","2010","03","13","01:00","3.7","","-1.4","","69","","7","","26","","24.1","","100.60","","","","","","Mostly Cloudy"
"2010-03-13 02:00","2010","03","13","02:00","3.3","","-1.6","","70","","7","","22","","24.1","","100.61","","","","","","Mostly Cloudy"
"2010-03-13 03:00","2010","03","13","03:00","3.2","","-1.8","","70","","7","","24","","24.1","","100.56","","","","","","Mostly Cloudy"
"2010-03-13 04:00","2010","03","13","04:00","3.1","","-2.1","","69","","6","","22","","24.1","","100.54","","","","","","Mostly Cloudy"
"2010-03-13 05:00","2010","03","13","05:00","2.9","","-2.7","","67","","7","","26","","24.1","","100.53","","","","","","Mostly Cloudy"
"2010-03-13 06:00","2010","03","13","06:00","2.6","","-3.5","","64","","6","","24","","24.1","","100.53","","","","","","Mostly Cloudy"
"2010-03-13 07:00","2010","03","13","07:00","2.5","","-4.0","","62","","7","","19","","24.1","","100.55","","","","","","Mostly Cloudy"
"2010-03-13 08:00","2010","03","13","08:00","3.8","","-4.2","","56","","7","","20","","24.1","","100.57","","","","","","Cloudy"
"2010-03-13 09:00","2010","03","13","09:00","5.6","","-5.3","","45","","8","","30","","24.1","","100.57","","","","","","Mostly Cloudy"
"2010-03-13 10:00","2010","03","13","10:00","7.4","","-4.3","","43","","7","","32","","24.1","","100.55","","","","","","Mostly Cloudy"
"2010-03-13 11:00","2010","03","13","11:00","7.6","","-5.6","","39","","8","","28","","24.1","","100.50","","","","","","Mostly Cloudy"
"2010-03-13 12:00","2010","03","13","12:00","9.1","","-5.3","","36","","8","","33","","24.1","","100.47","","","","","","Mostly Cloudy"
"2010-03-13 13:00","2010","03","13","13:00","8.2","","-5.5","","37","","9","","30","","24.1","","100.44","","","","","","Cloudy"
"2010-03-13 14:00","2010","03","13","14:00","6.4","","-2.4","","53","","8","","30","","24.1","","100.45","","","","","","Rain Showers"
"2010-03-13 15:00","2010","03","13","15:00","5.9","","-1.8","","58","","6","","24","","19.3","","100.44","","","","","","Rain"
"2010-03-13 16:00","2010","03","13","16:00","6.2","","-1.7","","57","","7","","28","","24.1","","100.40","","","","","","Rain"
"2010-03-13 17:00","2010","03","13","17:00","6.7","","-3.0","","50","","7","","28","","24.1","","100.38","","","","","","Rain"
"2010-03-13 18:00","2010","03","13","18:00","6.8","","-4.2","","45","","6","","20","","24.1","","100.33","","","","","","Rain"
"2010-03-13 19:00","2010","03","13","19:00","7.1","","-5.3","","41","","6","","24","","25.0","","100.29","","","","","","Mostly Cloudy"
"2010-03-13 20:00","2010","03","13","20:00","7.0","","-5.9","","39","","7","","28","","25.0","","100.26","","","","","","Cloudy"
"2010-03-13 21:00","2010","03","13","21:00","6.4","","-5.6","","42","","7","","30","","25.0","","100.26","","","","","","Cloudy"
"2010-03-13 22:00","2010","03","13","22:00","6.0","","-5.6","","43","","7","","32","","25.0","","100.23","","","","","","Cloudy"
"2010-03-13 23:00","2010","03","13","23:00","5.5","","-5.8","","44","","7","","35","","25.0","","100.20","","","","","","Cloudy"
"2010-03-14 00:00","2010","03","14","00:00","5.1","","-5.7","","46","","7","","32","","25.0","","100.15","","","","","","Cloudy"
"2010-03-14 01:00","2010","03","14","01:00","4.7","","-5.3","","48","","7","","32","","24.1","","100.17","","","","","","Rain"
"2010-03-14 02:00","2010","03","14","02:00","3.9","","-4.5","","54","","7","","35","","24.1","","100.10","","","","","","Rain"
"2010-03-14 03:00","2010","03","14","03:00","3.6","","-4.6","","55","","6","","28","","24.1","","100.05","","","","","","Rain"
"2010-03-14 04:00","2010","03","14","04:00","3.5","","-5.0","","54","","6","","26","","24.1","","100.00","","","","","","Rain"
"2010-03-14 05:00","2010","03","14","05:00","3.6","","-5.3","","52","","6","","32","","24.1","","99.94","","","","","","Rain"
"2010-03-14 06:00","2010","03","14","06:00","3.1","","-4.6","","57","","6","","32","","19.3","","99.94","","","","","","Rain"
"2010-03-14 07:00","2010","03","14","07:00","2.7","","-4.1","","61","","6","","32","","16.1","","99.96","","","","","","Moderate Rain"
"2010-03-14 08:00","2010","03","14","08:00","1.0","","-2.4","","78","","6","","37","","9.7","","99.93","","","","","","Moderate Rain,Fog"
"2010-03-14 09:00","2010","03","14","09:00","1.3","","-1.3","","83","","6","","32","","16.1","","99.96","","","","","","Rain"
"2010-03-14 10:00","2010","03","14","10:00","3.0","","-0.4","","78","","7","","30","","19.3","","99.98","","","","","","Rain"
"2010-03-14 11:00","2010","03","14","11:00","4.1","","0.5","","77","","6","","35","","24.1","","100.00","","","","","","Rain"
"2010-03-14 12:00","2010","03","14","12:00","4.3","","1.7","","83","","7","","35","","16.1","","100.00","","","","","","Rain"
"2010-03-14 13:00","2010","03","14","13:00","4.0","","2.8","","92","","7","","30","","24.1","","100.00","","","","","","Rain"
"2010-03-14 14:00","2010","03","14","14:00","4.1","","3.4","","95","","7","","32","","9.7","","100.00","","","","","","Rain,Fog"
"2010-03-14 15:00","2010","03","14","15:00","3.8","","3.4","","97","","8","","35","","8.0","","100.02","","","","","","Rain,Fog"
"2010-03-14 16:00","2010","03","14","16:00","4.0","","3.6","","97","","7","","28","","8.0","","100.02","","","","","","Rain,Fog"
"2010-03-14 17:00","2010","03","14","17:00","4.2","","3.4","","95","","6","","24","","9.7","","100.03","","","","","","Rain,Fog"
"2010-03-14 18:00","2010","03","14","18:00","4.4","","3.2","","92","","7","","22","","16.1","","100.10","","","","","","Rain"
"2010-03-14 19:00","2010","03","14","19:00","4.5","","2.4","","86","","6","","22","","16.1","","100.13","","","","","","Rain"
"2010-03-14 20:00","2010","03","14","20:00","4.5","","2.3","","86","","6","","17","","24.1","","100.13","","","","","","Rain"
"2010-03-14 21:00","2010","03","14","21:00","4.8","","2.2","","83","","5","","22","","24.1","","100.11","","","","","","Rain"
"2010-03-14 22:00","2010","03","14","22:00","4.3","","1.5","","82","","5","","19","","24.1","","100.09","","","","","","Rain"
"2010-03-14 23:00","2010","03","14","23:00","3.9","","0.5","","78","","5","","17","","24.1","","100.09","","","","","","Rain"
"2010-03-15 00:00","2010","03","15","00:00","3.8","","-0.9","","71","","5","","11","","24.1","","100.08","","","","","","Rain"
"2010-03-15 01:00","2010","03","15","01:00","3.9","","-3.1","","60","","3","","13","","25.0","","100.07","","","","","","Cloudy"
"2010-03-15 02:00","2010","03","15","02:00","4.4","","-5.2","","50","","4","","19","","25.0","","100.05","","","","","","Mostly Cloudy"
"2010-03-15 03:00","2010","03","15","03:00","3.8","","-5.3","","51","","3","","17","","25.0","","100.03","","","","","","Mostly Cloudy"
"2010-03-15 04:00","2010","03","15","04:00","4.0","","-6.0","","48","","3","","17","","25.0","","100.03","","","","","","Mostly Cloudy"
"2010-03-15 05:00","2010","03","15","05:00","3.7","","-6.6","","47","","3","","19","","25.0","","100.05","","","","","","Mostly Cloudy"
"2010-03-15 06:00","2010","03","15","06:00","3.9","","-8.4","","40","","4","","20","","24.1","","100.07","","","","","","Mostly Cloudy"
"2010-03-15 07:00","2010","03","15","07:00","4.2","","-8.9","","38","","4","","20","","24.1","","100.10","","","","","","Cloudy"
"2010-03-15 08:00","2010","03","15","08:00","5.7","","-9.4","","33","","4","","24","","24.1","","100.13","","","","","","Cloudy"
"2010-03-15 09:00","2010","03","15","09:00","7.0","","-9.3","","30","","6","","22","","24.1","","100.17","","","","","","Mostly Cloudy"
"2010-03-15 10:00","2010","03","15","10:00","9.0","","-9.3","","26","","6","","24","","24.1","","100.18","","","","","","Mostly Cloudy"
"2010-03-15 11:00","2010","03","15","11:00","10.6","","-10.2","","22","","6","","22","","24.1","","100.20","","","","","","Mostly Cloudy"
"2010-03-15 12:00","2010","03","15","12:00","11.2","","-9.6","","22","","5","","33","","24.1","","100.20","","","","","","Mostly Cloudy"
"2010-03-15 13:00","2010","03","15","13:00","12.4","","-9.6","","21","","6","","20","","24.1","","100.19","","","","","","Mostly Cloudy"
"2010-03-15 14:00","2010","03","15","14:00","13.0","","-10.6","","18","","7","","33","","24.1","","100.18","","","","","","Mostly Cloudy"
"2010-03-15 15:00","2010","03","15","15:00","13.2","","-11.7","","16","","7","","26","","24.1","","100.21","","","","","","Mostly Cloudy"
"2010-03-15 16:00","2010","03","15","16:00","12.7","","-13.0","","15","","6","","26","","24.1","","100.22","","","","","","Mostly Cloudy"
"2010-03-15 17:00","2010","03","15","17:00","12.1","","-10.2","","20","","8","","17","","24.1","","100.27","","","","","","Mostly Cloudy"
"2010-03-15 18:00","2010","03","15","18:00","7.4","","-6.9","","35","","11","","11","","24.1","","100.35","","","","","","Mostly Cloudy"
"2010-03-15 19:00","2010","03","15","19:00","6.9","","-8.1","","33","","10","","7","","25.0","","100.40","","","","","","Mostly Cloudy"
"2010-03-15 20:00","2010","03","15","20:00","6.9","","-9.1","","31","","8","","9","","25.0","","100.44","","","","","","Mainly Clear"
"2010-03-15 21:00","2010","03","15","21:00","6.2","","-10.0","","30","","2","","7","","25.0","","100.47","","","","","","Mainly Clear"
"2010-03-15 22:00","2010","03","15","22:00","6.3","","-9.7","","31","","4","","11","","25.0","","100.46","","","","","","Mainly Clear"
"2010-03-15 23:00","2010","03","15","23:00","5.2","","-9.6","","33","","1","","11","","25.0","","100.45","","","","","","Clear"
"2010-03-16 00:00","2010","03","16","00:00","4.4","","-8.8","","38","","36","","7","","25.0","","100.48","","","","","","Mainly Clear"
"2010-03-16 01:00","2010","03","16","01:00","3.4","","-8.6","","41","","36","","15","","25.0","","100.50","","","","","","Clear"
"2010-03-16 02:00","2010","03","16","02:00","3.0","","-8.5","","43","","1","","13","","25.0","","100.48","","","","","","Clear"
"2010-03-16 03:00","2010","03","16","03:00","-0.6","","-6.6","","64","","32","","11","","25.0","","100.48","","","","-4","","Clear"
"2010-03-16 04:00","2010","03","16","04:00","-1.3","","-5.7","","72","","33","","11","","25.0","","100.50","","","","-5","","Clear"
"2010-03-16 05:00","2010","03","16","05:00","-0.3","","-6.5","","63","","28","","6","","25.0","","100.53","","","","-2","","Mainly Clear"
"2010-03-16 06:00","2010","03","16","06:00","-0.1","","-7.5","","57","","31","","6","","25.0","","100.53","","","","-2","","Clear"
"2010-03-16 07:00","2010","03","16","07:00","-0.7","","-6.8","","63","","32","","9","","24.1","","100.57","","","","-4","","Mainly Clear"
"2010-03-16 08:00","2010","03","16","08:00","2.0","","-5.6","","57","","29","","4","","24.1","","100.60","","","","","","Mainly Clear"
"2010-03-16 09:00","2010","03","16","09:00","5.7","","-4.9","","46","","","","0","","24.1","","100.60","","","","","","Mainly Clear"
"2010-03-16 10:00","2010","03","16","10:00","8.4","","-6.3","","35","","34","","6","","24.1","","100.59","","","","","","Mainly Clear"
"2010-03-16 11:00","2010","03","16","11:00","10.4","","-4.9","","34","","27","","9","","24.1","","100.55","","","","","","Mainly Clear"
"2010-03-16 12:00","2010","03","16","12:00","12.2","","-6.6","","26","","24","","11","","24.1","","100.50","","","","","","Mainly Clear"
"2010-03-16 13:00","2010","03","16","13:00","12.5","","-6.8","","25","","27","","7","","24.1","","100.44","","","","","","Mainly Clear"
"2010-03-16 14:00","2010","03","16","14:00","14.4","","-5.5","","25","","28","","11","","24.1","","100.39","","","","","","Mainly Clear"
"2010-03-16 15:00","2010","03","16","15:00","15.0","","-7.2","","21","","33","","17","","24.1","","100.35","","","","","","Mainly Clear"
"2010-03-16 16:00","2010","03","16","16:00","14.9","","-8.1","","20","","31","","17","","24.1","","100.33","","","","","","Mainly Clear"
"2010-03-16 17:00","2010","03","16","17:00","13.8","","-8.8","","20","","32","","17","","24.1","","100.34","","","","","","Mainly Clear"
"2010-03-16 18:00","2010","03","16","18:00","10.0","","-10.2","","23","","31","","13","","24.1","","100.36","","","","","","Mainly Clear"
"2010-03-16 19:00","2010","03","16","19:00","11.1","","-10.0","","22","","31","","6","","24.1","","100.36","","","","","","Mainly Clear"
"2010-03-16 20:00","2010","03","16","20:00","9.8","","-9.7","","24","","29","","7","","25.0","","100.36","","","","","","Clear"
"2010-03-16 21:00","2010","03","16","21:00","8.1","","-8.2","","31","","27","","6","","25.0","","100.37","","","","","","Clear"
"2010-03-16 22:00","2010","03","16","22:00","7.0","","-6.3","","38","","31","","11","","25.0","","100.35","","","","","","Clear"
"2010-03-16 23:00","2010","03","16","23:00","4.4","","-6.7","","44","","31","","9","","25.0","","100.37","","","","","","Clear"
"2010-03-17 00:00","2010","03","17","00:00","5.5","","-6.8","","41","","31","","9","","25.0","","100.36","","","","","","Clear"
"2010-03-17 01:00","2010","03","17","01:00","4.5","","-6.1","","46","","31","","7","","25.0","","100.35","","","","","","Clear"
"2010-03-17 02:00","2010","03","17","02:00","2.8","","-4.8","","57","","30","","11","","25.0","","100.34","","","","","","Clear"
"2010-03-17 03:00","2010","03","17","03:00","1.2","","-4.3","","67","","30","","11","","25.0","","100.30","","","","","","Clear"
"2010-03-17 04:00","2010","03","17","04:00","0.6","","-3.7","","73","","27","","6","","25.0","","100.28","","","","","","Clear"
"2010-03-17 05:00","2010","03","17","05:00","0.9","","-3.7","","71","","29","","11","","25.0","","100.26","","","","","","Clear"
"2010-03-17 06:00","2010","03","17","06:00","0.3","","-4.0","","73","","30","","13","","24.1","","100.27","","","","","","Clear"
"2010-03-17 07:00","2010","03","17","07:00","1.3","","-3.9","","68","","28","","9","","24.1","","100.29","","","","","","Mainly Clear"
"2010-03-17 08:00","2010","03","17","08:00","3.5","","-3.9","","58","","28","","13","","24.1","","100.32","","","","","","Mainly Clear"
"2010-03-17 09:00","2010","03","17","09:00","5.4","","-4.8","","48","","29","","19","","24.1","","100.33","","","","","","Mainly Clear"
"2010-03-17 10:00","2010","03","17","10:00","8.6","","-5.7","","36","","28","","15","","24.1","","100.27","","","","","","Clear"
"2010-03-17 11:00","2010","03","17","11:00","10.6","","-6.5","","29","","28","","20","","24.1","","100.18","","","","","","Clear"
"2010-03-17 12:00","2010","03","17","12:00","12.6","","-2.3","","35","","26","","15","","24.1","","100.08","","","","","","Clear"
"2010-03-17 13:00","2010","03","17","13:00","14.0","","1.0","","41","","28","","22","","24.1","","99.96","","","","","","Mainly Clear"
"2010-03-17 14:00","2010","03","17","14:00","15.0","","1.2","","39","","26","","22","","24.1","","99.86","","","","","","Mostly Cloudy"
"2010-03-17 15:00","2010","03","17","15:00","15.5","","1.3","","38","","26","","24","","24.1","","99.74","","","","","","Mostly Cloudy"
"2010-03-17 16:00","2010","03","17","16:00","15.7","","-0.3","","34","","28","","26","","24.1","","99.66","","","","","","Mostly Cloudy"
"2010-03-17 17:00","2010","03","17","17:00","15.6","","-0.5","","33","","26","","13","","24.1","","99.57","","","","","","Clear"
"2010-03-17 18:00","2010","03","17","18:00","14.0","","-1.4","","35","","27","","15","","24.1","","99.54","","","","","","Mainly Clear"
"2010-03-17 19:00","2010","03","17","19:00","10.9","","0.1","","47","","20","","7","","25.0","","99.51","","","","","","Mainly Clear"
"2010-03-17 20:00","2010","03","17","20:00","8.8","","0.8","","57","","20","","7","","25.0","","99.49","","","","","","Clear"
"2010-03-17 21:00","2010","03","17","21:00","9.3","","-3.1","","42","","26","","13","","25.0","","99.51","","","","","","Clear"
"2010-03-17 22:00","2010","03","17","22:00","7.8","","-4.8","","40","","24","","9","","25.0","","99.48","","","","","","Clear"
"2010-03-17 23:00","2010","03","17","23:00","7.1","","-5.4","","41","","23","","11","","25.0","","99.44","","","","","","Mainly Clear"
"2010-03-18 00:00","2010","03","18","00:00","6.6","","-6.0","","40","","22","","13","","25.0","","99.38","","","","","","Mainly Clear"
"2010-03-18 01:00","2010","03","18","01:00","5.7","","-5.5","","44","","23","","13","","25.0","","99.33","","","","","","Mainly Clear"
"2010-03-18 02:00","2010","03","18","02:00","5.4","","-4.4","","49","","23","","15","","25.0","","99.29","","","","","","Cloudy"
"2010-03-18 03:00","2010","03","18","03:00","4.8","","-3.3","","56","","24","","11","","25.0","","99.25","","","","","","Mostly Cloudy"
"2010-03-18 04:00","2010","03","18","04:00","4.3","","-2.5","","61","","25","","11","","25.0","","99.23","","","","","","Mainly Clear"
"2010-03-18 05:00","2010","03","18","05:00","4.6","","-1.4","","65","","26","","7","","25.0","","99.25","","","","","","Mostly Cloudy"
"2010-03-18 06:00","2010","03","18","06:00","4.4","","-0.9","","68","","26","","6","","24.1","","99.29","","","","","","Mostly Cloudy"
"2010-03-18 07:00","2010","03","18","07:00","4.8","","-0.2","","70","","25","","9","","24.1","","99.32","","","","","","Mostly Cloudy"
"2010-03-18 08:00","2010","03","18","08:00","5.8","","0.5","","69","","27","","9","","24.1","","99.32","","","","","","Mostly Cloudy"
"2010-03-18 09:00","2010","03","18","09:00","7.0","","1.2","","67","","27","","17","","24.1","","99.33","","","","","","Mostly Cloudy"
"2010-03-18 10:00","2010","03","18","10:00","8.2","","1.9","","64","","27","","19","","24.1","","99.32","","","","","","Cloudy"
"2010-03-18 11:00","2010","03","18","11:00","9.3","","2.3","","62","","25","","13","","24.1","","99.33","","","","","","Mostly Cloudy"
"2010-03-18 12:00","2010","03","18","12:00","10.8","","3.0","","59","","27","","15","","24.1","","99.30","","","","","","Mostly Cloudy"
"2010-03-18 13:00","2010","03","18","13:00","12.3","","3.3","","54","","27","","17","","24.1","","99.23","","","","","","Mostly Cloudy"
"2010-03-18 14:00","2010","03","18","14:00","14.2","","3.8","","50","","24","","13","","24.1","","99.18","","","","","","Mostly Cloudy"
"2010-03-18 15:00","2010","03","18","15:00","13.9","","2.8","","47","","25","","9","","24.1","","99.17","","","","","","Mostly Cloudy"
"2010-03-18 16:00","2010","03","18","16:00","13.7","","2.7","","47","","23","","11","","24.1","","99.15","","","","","","Mostly Cloudy"
"2010-03-18 17:00","2010","03","18","17:00","13.6","","2.6","","47","","22","","6","","24.1","","99.14","","","","","","Cloudy"
"2010-03-18 18:00","2010","03","18","18:00","13.0","","2.2","","48","","","","0","","24.1","","99.16","","","","","","Mostly Cloudy"
"2010-03-18 19:00","2010","03","18","19:00","10.3","","1.8","","56","","13","","6","","25.0","","99.16","","","","","","Mostly Cloudy"
"2010-03-18 20:00","2010","03","18","20:00","9.5","","1.6","","58","","16","","7","","25.0","","99.18","","","","","","Mostly Cloudy"
"2010-03-18 21:00","2010","03","18","21:00","10.1","","1.7","","56","","18","","6","","25.0","","99.21","","","","","","Cloudy"
"2010-03-18 22:00","2010","03","18","22:00","8.6","","1.5","","61","","18","","6","","25.0","","99.19","","","","","","Cloudy"
"2010-03-18 23:00","2010","03","18","23:00","7.5","","1.2","","64","","6","","9","","25.0","","99.21","","","","","","Mainly Clear"
"2010-03-19 00:00","2010","03","19","00:00","6.2","","1.3","","71","","6","","4","","25.0","","99.20","","","","","","Mainly Clear"
"2010-03-19 01:00","2010","03","19","01:00","5.9","","1.5","","73","","4","","6","","25.0","","99.21","","","","","","Mostly Cloudy"
"2010-03-19 02:00","2010","03","19","02:00","4.7","","0.7","","75","","5","","7","","25.0","","99.22","","","","","","Mainly Clear"
"2010-03-19 03:00","2010","03","19","03:00","3.1","","0.7","","84","","","","0","","25.0","","99.23","","","","","","Clear"
"2010-03-19 04:00","2010","03","19","04:00","0.8","","-0.5","","91","","14","","7","","25.0","","99.22","","","","","","Clear"
"2010-03-19 05:00","2010","03","19","05:00","2.2","","-0.4","","83","","","","0","","25.0","","99.24","","","","","","Clear"
"2010-03-19 06:00","2010","03","19","06:00","1.6","","-0.8","","84","","","","0","","24.1","","99.25","","","","","","Mainly Clear"
"2010-03-19 07:00","2010","03","19","07:00","1.2","","-1.0","","85","","18","","9","","19.3","","99.29","","","","","","Mainly Clear"
"2010-03-19 08:00","2010","03","19","08:00","4.2","","1.0","","80","","16","","4","","19.3","","99.26","","","","","","Mainly Clear"
"2010-03-19 09:00","2010","03","19","09:00","5.8","","1.4","","73","","24","","6","","19.3","","99.32","","","","","","Mostly Cloudy"
"2010-03-19 10:00","2010","03","19","10:00","9.0","","2.2","","62","","25","","13","","19.3","","99.34","","","","","","Mostly Cloudy"
"2010-03-19 11:00","2010","03","19","11:00","11.0","","1.2","","51","","27","","22","","24.1","","99.37","","","","","","Mostly Cloudy"
"2010-03-19 12:00","2010","03","19","12:00","12.8","","1.4","","46","","27","","20","","24.1","","99.39","","","","","","Cloudy"
"2010-03-19 13:00","2010","03","19","13:00","14.0","","0.4","","39","","27","","20","","24.1","","99.37","","","","","","Mostly Cloudy"
"2010-03-19 14:00","2010","03","19","14:00","14.8","","0.5","","38","","21","","4","","24.1","","99.29","","","","","","Cloudy"
"2010-03-19 15:00","2010","03","19","15:00","15.5","","0.8","","37","","23","","20","","24.1","","99.29","","","","","","Mostly Cloudy"
"2010-03-19 16:00","2010","03","19","16:00","15.1","","1.3","","39","","22","","19","","24.1","","99.31","","","","","","Mostly Cloudy"
"2010-03-19 17:00","2010","03","19","17:00","13.9","","4.1","","52","","19","","13","","24.1","","99.29","","","","","","Mostly Cloudy"
"2010-03-19 18:00","2010","03","19","18:00","12.8","","3.3","","52","","20","","22","","24.1","","99.30","","","","","","Mainly Clear"
"2010-03-19 19:00","2010","03","19","19:00","11.1","","3.4","","59","","19","","13","","24.1","","99.34","","","","","","Mainly Clear"
"2010-03-19 20:00","2010","03","19","20:00","9.7","","3.4","","65","","20","","13","","24.1","","99.38","","","","","","Mainly Clear"
"2010-03-19 21:00","2010","03","19","21:00","10.0","","3.9","","66","","22","","11","","24.1","","99.45","","","","","","Mostly Cloudy"
"2010-03-19 22:00","2010","03","19","22:00","10.0","","4.3","","68","","24","","13","","24.1","","99.46","","","","","","Mostly Cloudy"
"2010-03-19 23:00","2010","03","19","23:00","7.8","","3.3","","73","","34","","17","","24.1","","99.52","","","","","","Mainly Clear"
"2010-03-20 00:00","2010","03","20","00:00","6.1","","1.7","","73","","34","","4","","24.1","","99.55","","","","","","Mainly Clear"
"2010-03-20 01:00","2010","03","20","01:00","6.8","","2.5","","74","","29","","6","","24.1","","99.60","","","","","","Mostly Cloudy"
"2010-03-20 02:00","2010","03","20","02:00","6.7","","2.3","","73","","26","","7","","24.1","","99.68","","","","","","Cloudy"
"2010-03-20 03:00","2010","03","20","03:00","7.1","","2.6","","73","","27","","7","","24.1","","99.67","","","","","","Cloudy"
"2010-03-20 04:00","2010","03","20","04:00","6.4","","2.6","","77","","28","","9","","24.1","","99.70","","","","","","Cloudy"
"2010-03-20 05:00","2010","03","20","05:00","6.3","","2.7","","78","","25","","9","","24.1","","99.79","","","","","","Cloudy"
"2010-03-20 06:00","2010","03","20","06:00","6.2","","3.0","","80","","28","","15","","24.1","","99.85","","","","","","Cloudy"
"2010-03-20 07:00","2010","03","20","07:00","3.3","","0.2","","80","","33","","22","","24.1","","100.00","","","","","","Rain"
"2010-03-20 08:00","2010","03","20","08:00","2.3","","-1.1","","78","","34","","24","","24.1","","100.11","","","","","","Rain"
"2010-03-20 09:00","2010","03","20","09:00","2.1","","-3.5","","66","","33","","26","","24.1","","100.23","","","","","","Cloudy"
"2010-03-20 10:00","2010","03","20","10:00","2.7","","-4.1","","61","","31","","20","","24.1","","100.29","","","","","","Mostly Cloudy"
"2010-03-20 11:00","2010","03","20","11:00","3.9","","-4.2","","55","","34","","17","","24.1","","100.34","","","","","","Mostly Cloudy"
"2010-03-20 12:00","2010","03","20","12:00","4.9","","-3.8","","53","","31","","17","","24.1","","100.35","","","","","","Mostly Cloudy"
"2010-03-20 13:00","2010","03","20","13:00","6.0","","-4.5","","47","","30","","20","","24.1","","100.36","","","","","","Mostly Cloudy"
"2010-03-20 14:00","2010","03","20","14:00","5.5","","-5.7","","44","","27","","22","","24.1","","100.42","","","","","","Cloudy"
"2010-03-20 15:00","2010","03","20","15:00","5.3","","-5.8","","45","","29","","17","","24.1","","100.49","","","","","","Mostly Cloudy"
"2010-03-20 16:00","2010","03","20","16:00","4.4","","-6.6","","45","","29","","17","","24.1","","100.57","","","","","","Cloudy"
"2010-03-20 17:00","2010","03","20","17:00","3.9","","-6.4","","47","","28","","20","","24.1","","100.63","","","","","","Mostly Cloudy"
"2010-03-20 18:00","2010","03","20","18:00","3.3","","-7.0","","47","","27","","15","","24.1","","100.68","","","","","","Mostly Cloudy"
"2010-03-20 19:00","2010","03","20","19:00","2.2","","-7.9","","47","","31","","15","","24.1","","100.71","","","","","","Mostly Cloudy"
"2010-03-20 20:00","2010","03","20","20:00","1.8","","-8.0","","48","","34","","15","","24.1","","100.78","","","","","","Mostly Cloudy"
"2010-03-20 21:00","2010","03","20","21:00","1.7","","-8.9","","45","","2","","11","","24.1","","100.81","","","","","","Mostly Cloudy"
"2010-03-20 22:00","2010","03","20","22:00","1.4","","-8.7","","47","","2","","6","","24.1","","100.85","","","","","","Mostly Cloudy"
"2010-03-20 23:00","2010","03","20","23:00","1.0","","-9.1","","47","","4","","6","","24.1","","100.88","","","","","","Mostly Cloudy"
"2010-03-21 00:00","2010","03","21","00:00","0.7","","-9.2","","47","","2","","7","","24.1","","100.88","","","","","","Mostly Cloudy"
"2010-03-21 01:00","2010","03","21","01:00","0.6","","-9.1","","48","","6","","7","","24.1","","100.89","","","","","","Cloudy"
"2010-03-21 02:00","2010","03","21","02:00","0.5","","-9.2","","48","","5","","7","","24.1","","100.90","","","","","","Cloudy"
"2010-03-21 03:00","2010","03","21","03:00","0.2","","-9.1","","50","","6","","6","","24.1","","100.92","","","","","","Cloudy"
"2010-03-21 04:00","2010","03","21","04:00","-0.7","","-8.0","","58","","11","","7","","24.1","","100.89","","","","-3","","Cloudy"
"2010-03-21 05:00","2010","03","21","05:00","-0.5","","-8.5","","55","","6","","7","","24.1","","100.90","","","","-3","","Cloudy"
"2010-03-21 06:00","2010","03","21","06:00","-0.8","","-8.8","","55","","7","","9","","24.1","","100.93","","","","-4","","Mostly Cloudy"
"2010-03-21 07:00","2010","03","21","07:00","-0.7","","-9.7","","51","","4","","9","","24.1","","100.98","","","","-4","","Mostly Cloudy"
"2010-03-21 08:00","2010","03","21","08:00","0.0","","-9.7","","48","","4","","11","","24.1","","100.97","","","","-4","","Mostly Cloudy"
"2010-03-21 09:00","2010","03","21","09:00","1.0","","-9.6","","45","","6","","9","","24.1","","100.97","","","","","","Mostly Cloudy"
"2010-03-21 10:00","2010","03","21","10:00","1.7","","-8.7","","46","","5","","11","","24.1","","100.97","","","","","","Mostly Cloudy"
"2010-03-21 11:00","2010","03","21","11:00","2.6","","-8.2","","45","","9","","7","","24.1","","100.94","","","","","","Mostly Cloudy"
"2010-03-21 12:00","2010","03","21","12:00","3.1","","-6.8","","48","","9","","7","","24.1","","100.85","","","","","","Mostly Cloudy"
"2010-03-21 13:00","2010","03","21","13:00","3.7","","-4.6","","55","","8","","13","","24.1","","100.74","","","","","","Mostly Cloudy"
"2010-03-21 14:00","2010","03","21","14:00","3.2","","-3.4","","62","","12","","9","","24.1","","100.68","","","","","","Cloudy"
"2010-03-21 15:00","2010","03","21","15:00","3.7","","-2.3","","65","","14","","15","","24.1","","100.62","","","","","","Cloudy"
"2010-03-21 16:00","2010","03","21","16:00","3.1","","-0.9","","75","","15","","9","","24.1","","100.60","","","","","","Cloudy"
"2010-03-21 17:00","2010","03","21","17:00","2.7","","-0.4","","80","","16","","7","","24.1","","100.57","","","","","","Cloudy"
"2010-03-21 18:00","2010","03","21","18:00","2.0","","-0.3","","85","","14","","7","","24.1","","100.56","","","","","","Mostly Cloudy"
"2010-03-21 19:00","2010","03","21","19:00","0.9","","-0.3","","92","","13","","9","","24.1","","100.55","","","","","","Mostly Cloudy"
"2010-03-21 20:00","2010","03","21","20:00","-1.7","","-2.4","","95","","12","","7","","16.1","","100.60","","","","-4","","Mostly Cloudy"
"2010-03-21 21:00","2010","03","21","21:00","-0.6","","-0.9","","98","","10","","4","","0.8","","100.61","","","","-2","","Freezing Fog"
"2010-03-21 22:00","2010","03","21","22:00","-0.8","","-0.9","","99","","7","","4","","0.2","","100.54","","","","-2","","Freezing Fog"
"2010-03-21 23:00","2010","03","21","23:00","-0.9","","-1.1","","99","","10","","4","","0.2","","100.56","","","","-2","","Freezing Fog"
"2010-03-22 00:00","2010","03","22","00:00","-1.6","","-1.6","","100","","10","","6","","0.4","","100.57","","","","-4","","Freezing Fog"
"2010-03-22 01:00","2010","03","22","01:00","-1.5","","-1.6","","99","","13","","6","","0.4","","100.53","","","","-4","","Freezing Fog"
"2010-03-22 02:00","2010","03","22","02:00","-1.7","","-1.9","","99","","10","","6","","0.6","","100.54","","","","-4","","Freezing Fog"
"2010-03-22 03:00","2010","03","22","03:00","-1.5","","-1.5","","100","","6","","7","","0.6","","100.51","","","","-4","","Freezing Fog"
"2010-03-22 04:00","2010","03","22","04:00","-1.2","","-1.4","","99","","4","","6","","0.6","","100.53","","","","-3","","Freezing Drizzle,Freezing Fog"
"2010-03-22 05:00","2010","03","22","05:00","-1.3","","-1.3","","100","","6","","6","","0.6","","100.57","","","","-4","","Freezing Drizzle,Freezing Fog"
"2010-03-22 06:00","2010","03","22","06:00","-0.7","","-0.8","","99","","7","","7","","0.2","","100.60","","","","-3","","Freezing Drizzle,Freezing Fog"
"2010-03-22 07:00","2010","03","22","07:00","-0.5","","-0.5","","100","","3","","9","","1.6","","100.60","","","","-4","","Fog"
"2010-03-22 08:00","2010","03","22","08:00","-0.1","","-0.1","","100","","4","","9","","4.8","","100.67","","","","-3","","Fog"
"2010-03-22 09:00","2010","03","22","09:00","0.1","","0.0","","99","","3","","7","","16.1","","100.68","","","","","","Mostly Cloudy"
"2010-03-22 10:00","2010","03","22","10:00","2.1","","1.0","","92","","7","","9","","24.1","","100.64","","","","","","Mostly Cloudy"
"2010-03-22 11:00","2010","03","22","11:00","4.8","","-0.7","","68","","4","","19","","24.1","","100.64","","","","","","Mostly Cloudy"
"2010-03-22 12:00","2010","03","22","12:00","5.7","","-1.4","","60","","8","","17","","24.1","","100.58","","","","","","Mostly Cloudy"
"2010-03-22 13:00","2010","03","22","13:00","7.0","","0.0","","61","","6","","19","","24.1","","100.52","","","","","","Mostly Cloudy"
"2010-03-22 14:00","2010","03","22","14:00","7.6","","-0.7","","56","","7","","17","","24.1","","100.44","","","","","","Mostly Cloudy"
"2010-03-22 15:00","2010","03","22","15:00","7.9","","-1.2","","53","","11","","20","","24.1","","100.39","","","","","","Mostly Cloudy"
"2010-03-22 16:00","2010","03","22","16:00","6.8","","-1.8","","54","","9","","19","","24.1","","100.37","","","","","","Mostly Cloudy"
"2010-03-22 17:00","2010","03","22","17:00","6.5","","-2.7","","52","","8","","19","","24.1","","100.36","","","","","","Mostly Cloudy"
"2010-03-22 18:00","2010","03","22","18:00","6.1","","-3.9","","49","","8","","20","","24.1","","100.34","","","","","","Mostly Cloudy"
"2010-03-22 19:00","2010","03","22","19:00","5.8","","-4.5","","47","","6","","15","","24.1","","100.33","","","","","","Mostly Cloudy"
"2010-03-22 20:00","2010","03","22","20:00","5.4","","-4.2","","50","","7","","20","","24.1","","100.32","","","","","","Mostly Cloudy"
"2010-03-22 21:00","2010","03","22","21:00","5.2","","-3.7","","53","","7","","24","","24.1","","100.28","","","","","","Mostly Cloudy"
"2010-03-22 22:00","2010","03","22","22:00","5.0","","-3.5","","54","","6","","22","","24.1","","100.19","","","","","","Rain"
"2010-03-22 23:00","2010","03","22","23:00","4.6","","-1.7","","64","","6","","24","","24.1","","100.16","","","","","","Rain"
"2010-03-23 00:00","2010","03","23","00:00","4.4","","-2.2","","62","","6","","22","","24.1","","100.08","","","","","","Rain"
"2010-03-23 01:00","2010","03","23","01:00","4.1","","-2.5","","62","","6","","24","","24.1","","99.95","","","","","","Rain"
"2010-03-23 02:00","2010","03","23","02:00","4.8","","-4.5","","51","","7","","30","","24.1","","99.88","","","","","","Cloudy"
"2010-03-23 03:00","2010","03","23","03:00","3.8","","-3.8","","58","","7","","33","","19.3","","99.78","","","","","","Rain"
"2010-03-23 04:00","2010","03","23","04:00","3.1","","-2.4","","67","","6","","37","","19.3","","99.69","","","","","","Rain"
"2010-03-23 05:00","2010","03","23","05:00","2.5","","-1.7","","74","","6","","32","","19.3","","99.59","","","","","","Rain"
"2010-03-23 06:00","2010","03","23","06:00","2.3","","-0.3","","83","","6","","39","","24.1","","99.50","","","","","","Rain"
"2010-03-23 07:00","2010","03","23","07:00","2.0","","0.9","","92","","6","","33","","8.0","","99.46","","","","","","Rain,Fog"
"2010-03-23 08:00","2010","03","23","08:00","2.3","","1.3","","93","","7","","28","","24.1","","99.48","","","","","","Rain"
"2010-03-23 09:00","2010","03","23","09:00","2.0","","1.5","","96","","5","","15","","8.0","","99.49","","","","","","Rain,Fog"
"2010-03-23 10:00","2010","03","23","10:00","2.2","","1.6","","96","","5","","35","","8.0","","99.44","","","","","","Rain,Fog"
"2010-03-23 11:00","2010","03","23","11:00","1.9","","1.3","","96","","4","","20","","6.4","","99.41","","","","","","Rain,Fog"
"2010-03-23 12:00","2010","03","23","12:00","1.9","","1.3","","96","","5","","28","","4.0","","99.32","","","","","","Rain,Fog"
"2010-03-23 13:00","2010","03","23","13:00","2.0","","1.3","","95","","5","","22","","4.0","","99.25","","","","","","Rain,Fog"
"2010-03-23 14:00","2010","03","23","14:00","2.0","","1.2","","94","","4","","20","","6.4","","99.21","","","","","","Rain,Fog"
"2010-03-23 15:00","2010","03","23","15:00","1.8","","1.4","","97","","4","","17","","3.2","","99.23","","","","","","Rain,Fog"
"2010-03-23 16:00","2010","03","23","16:00","2.0","","1.1","","94","","4","","22","","8.0","","99.21","","","","","","Rain,Fog"
"2010-03-23 17:00","2010","03","23","17:00","2.1","","0.9","","92","","2","","20","","9.7","","99.21","","","","","","Rain,Fog"
"2010-03-23 18:00","2010","03","23","18:00","1.8","","1.0","","94","","2","","17","","9.7","","99.27","","","","","","Rain,Fog"
"2010-03-23 19:00","2010","03","23","19:00","1.5","","0.9","","96","","36","","11","","9.7","","99.28","","","","","","Rain,Fog"
"2010-03-23 20:00","2010","03","23","20:00","1.5","","0.2","","91","","36","","17","","9.7","","99.27","","","","","","Rain,Fog"
"2010-03-23 21:00","2010","03","23","21:00","1.0","","-1.4","","84","","36","","19","","16.1","","99.30","","","","","","Cloudy"
"2010-03-23 22:00","2010","03","23","22:00","0.9","","-1.6","","83","","36","","20","","16.1","","99.30","","","","","","Cloudy"
"2010-03-23 23:00","2010","03","23","23:00","0.5","","-1.8","","85","","35","","17","","19.3","","99.31","","","","","","Cloudy"
"2010-03-24 00:00","2010","03","24","00:00","0.2","","-2.8","","80","","33","","19","","19.3","","99.31","","","","","","Cloudy"
"2010-03-24 01:00","2010","03","24","01:00","-0.6","","-3.4","","81","","33","","15","","19.3","","99.31","","","","-5","","Cloudy"
"2010-03-24 02:00","2010","03","24","02:00","-1.3","","-3.5","","85","","32","","13","","19.3","","99.32","","","","-6","","Cloudy"
"2010-03-24 03:00","2010","03","24","03:00","-0.7","","-3.5","","81","","33","","19","","19.3","","99.34","","","","-6","","Cloudy"
"2010-03-24 04:00","2010","03","24","04:00","-0.8","","-3.8","","80","","31","","24","","19.3","","99.38","","","","-7","","Cloudy"
"2010-03-24 05:00","2010","03","24","05:00","-1.2","","-4.5","","78","","32","","22","","24.1","","99.43","","","","-7","","Mainly Clear"
"2010-03-24 06:00","2010","03","24","06:00","-1.9","","-4.9","","80","","31","","15","","24.1","","99.52","","","","-7","","Mainly Clear"
"2010-03-24 07:00","2010","03","24","07:00","-1.0","","-4.4","","78","","31","","22","","24.1","","99.62","","","","-7","","Mainly Clear"
"2010-03-24 08:00","2010","03","24","08:00","0.0","","-3.4","","78","","31","","22","","24.1","","99.65","","","","-6","","Mainly Clear"
"2010-03-24 09:00","2010","03","24","09:00","1.7","","-2.7","","73","","31","","22","","24.1","","99.71","","","","","","Mainly Clear"
"2010-03-24 10:00","2010","03","24","10:00","3.0","","-2.6","","67","","30","","20","","24.1","","99.71","","","","","","Clear"
"2010-03-24 11:00","2010","03","24","11:00","5.0","","-2.6","","58","","28","","26","","24.1","","99.72","","","","","","Clear"
"2010-03-24 12:00","2010","03","24","12:00","7.2","","-3.5","","46","","29","","22","","24.1","","99.74","","","","","","Clear"
"2010-03-24 13:00","2010","03","24","13:00","7.8","","-4.5","","41","","30","","26","","24.1","","99.75","","","","","","Clear"
"2010-03-24 14:00","2010","03","24","14:00","9.2","","-5.9","","34","","27","","19","","24.1","","99.75","","","","","","Clear"
"2010-03-24 15:00","2010","03","24","15:00","10.1","","-6.6","","30","","26","","22","","24.1","","99.74","","","","","","Clear"
"2010-03-24 16:00","2010","03","24","16:00","10.8","","-7.9","","26","","29","","17","","24.1","","99.73","","","","","","Clear"
"2010-03-24 17:00","2010","03","24","17:00","11.0","","-8.9","","24","","29","","19","","24.1","","99.74","","","","","","Clear"
"2010-03-24 18:00","2010","03","24","18:00","9.8","","-9.8","","24","","28","","13","","24.1","","99.75","","","","","","Clear"
"2010-03-24 19:00","2010","03","24","19:00","8.1","","-9.3","","28","","26","","9","","24.1","","99.79","","","","","","Clear"
"2010-03-24 20:00","2010","03","24","20:00","7.2","","-8.5","","32","","26","","11","","24.1","","99.83","","","","","","Clear"
"2010-03-24 21:00","2010","03","24","21:00","6.2","","-8.5","","34","","23","","6","","24.1","","99.85","","","","","","Clear"
"2010-03-24 22:00","2010","03","24","22:00","4.5","","-8.3","","39","","29","","6","","24.1","","99.86","","","","","","Clear"
"2010-03-24 23:00","2010","03","24","23:00","3.7","","-7.1","","45","","22","","7","","24.1","","99.87","","","","","","Clear"
"2010-03-25 00:00","2010","03","25","00:00","2.7","","-6.8","","50","","22","","7","","24.1","","99.91","","","","","","Clear"
"2010-03-25 01:00","2010","03","25","01:00","1.8","","-7.0","","52","","","","0","","24.1","","99.86","","","","","","Clear"
"2010-03-25 02:00","2010","03","25","02:00","1.3","","-6.4","","56","","22","","6","","24.1","","99.82","","","","","","Clear"
"2010-03-25 03:00","2010","03","25","03:00","-0.1","","-5.9","","65","","21","","9","","24.1","","99.76","","","","-3","","Clear"
"2010-03-25 04:00","2010","03","25","04:00","-0.6","","-6.3","","65","","21","","11","","24.1","","99.76","","","","-4","","Clear"
"2010-03-25 05:00","2010","03","25","05:00","-0.3","","-6.2","","64","","21","","9","","24.1","","99.72","","","","-3","","Clear"
"2010-03-25 06:00","2010","03","25","06:00","-0.3","","-5.3","","69","","21","","9","","24.1","","99.71","","","","-3","","Mostly Cloudy"
"2010-03-25 07:00","2010","03","25","07:00","1.1","","-4.1","","68","","18","","7","","24.1","","99.68","","","","","","Mostly Cloudy"
"2010-03-25 08:00","2010","03","25","08:00","2.6","","-3.1","","66","","19","","15","","24.1","","99.58","","","","","","Cloudy"
"2010-03-25 09:00","2010","03","25","09:00","6.3","","-2.2","","54","","20","","15","","24.1","","99.54","","","","","","Mostly Cloudy"
"2010-03-25 10:00","2010","03","25","10:00","9.2","","-1.4","","47","","22","","32","","24.1","","99.49","","","","","","Cloudy"
"2010-03-25 11:00","2010","03","25","11:00","10.8","","-1.1","","44","","22","","28","","24.1","","99.38","","","","","","Cloudy"
"2010-03-25 12:00","2010","03","25","12:00","12.1","","-0.7","","41","","22","","24","","24.1","","99.27","","","","","","Cloudy"
"2010-03-25 13:00","2010","03","25","13:00","12.5","","-1.7","","37","","23","","32","","24.1","","99.20","","","","","","Cloudy"
"2010-03-25 14:00","2010","03","25","14:00","13.5","","-1.5","","35","","23","","35","","24.1","","99.15","","","","","","Cloudy"
"2010-03-25 15:00","2010","03","25","15:00","11.5","","-2.7","","37","","30","","22","","24.1","","99.13","","","","","","Cloudy"
"2010-03-25 16:00","2010","03","25","16:00","10.0","","-3.6","","38","","30","","28","","24.1","","99.21","","","","","","Cloudy"
"2010-03-25 17:00","2010","03","25","17:00","8.4","","-5.3","","37","","29","","26","","24.1","","99.25","","","","","","Mostly Cloudy"
"2010-03-25 18:00","2010","03","25","18:00","4.7","","-9.0","","36","","34","","28","","24.1","","99.38","","","","","","Mostly Cloudy"
"2010-03-25 19:00","2010","03","25","19:00","1.5","","-15.1","","28","","34","","41","","24.1","","99.56","","","","","","Mostly Cloudy"
"2010-03-25 20:00","2010","03","25","20:00","-0.9","","-16.4","","30","","36","","26","","24.1","","99.72","","","","-7","","Mostly Cloudy"
"2010-03-25 21:00","2010","03","25","21:00","-3.0","","-17.8","","31","","34","","28","","24.1","","99.85","","","","-10","","Mainly Clear"
"2010-03-25 22:00","2010","03","25","22:00","-4.6","","-18.1","","34","","36","","24","","24.1","","99.98","","","","-12","","Mostly Cloudy"
"2010-03-25 23:00","2010","03","25","23:00","-5.8","","-18.1","","37","","34","","30","","24.1","","100.06","","","","-14","","Mostly Cloudy"
"2010-03-26 00:00","2010","03","26","00:00","-6.6","","-17.6","","41","","35","","22","","24.1","","100.12","","","","-14","","Mostly Cloudy"
"2010-03-26 01:00","2010","03","26","01:00","-7.4","","-17.7","","44","","1","","26","","24.1","","100.19","","","","-16","","Mainly Clear"
"2010-03-26 02:00","2010","03","26","02:00","-8.2","","-18.1","","45","","36","","26","","24.1","","100.24","","","","-17","","Clear"
"2010-03-26 03:00","2010","03","26","03:00","-9.2","","-18.2","","48","","36","","15","","24.1","","100.31","","","","-16","","Clear"
"2010-03-26 04:00","2010","03","26","04:00","-10.3","","-18.8","","50","","35","","22","","24.1","","100.41","","","","-19","","Clear"
"2010-03-26 05:00","2010","03","26","05:00","-10.9","","-19.1","","51","","36","","19","","24.1","","100.48","","","","-19","","Clear"
"2010-03-26 06:00","2010","03","26","06:00","-11.5","","-19.8","","50","","36","","20","","24.1","","100.56","","","","-20","","Mainly Clear"
"2010-03-26 07:00","2010","03","26","07:00","-11.1","","-20.7","","45","","36","","26","","24.1","","100.66","","","","-20","","Mainly Clear"
"2010-03-26 08:00","2010","03","26","08:00","-10.2","","-21.8","","38","","36","","22","","32.2","","100.79","","","","-18","","Mainly Clear"
"2010-03-26 09:00","2010","03","26","09:00","-9.4","","-21.9","","35","","36","","22","","24.1","","100.82","","","","-17","","Mainly Clear"
"2010-03-26 10:00","2010","03","26","10:00","-7.7","","-22.6","","29","","36","","13","","32.2","","100.83","","","","-13","","Clear"
"2010-03-26 11:00","2010","03","26","11:00","-6.0","","-25.3","","20","","36","","19","","32.2","","100.81","","","","-13","","Clear"
"2010-03-26 12:00","2010","03","26","12:00","-5.8","","-25.6","","19","","34","","22","","32.2","","100.78","","","","-13","","Clear"
"2010-03-26 13:00","2010","03","26","13:00","-4.3","","-24.3","","19","","34","","13","","32.2","","100.74","","","","-9","","Clear"
"2010-03-26 14:00","2010","03","26","14:00","-4.3","","-23.9","","20","","30","","9","","32.2","","100.73","","","","-8","","Mainly Clear"
"2010-03-26 15:00","2010","03","26","15:00","-3.8","","-23.1","","21","","36","","17","","32.2","","100.71","","","","-10","","Mainly Clear"
"2010-03-26 16:00","2010","03","26","16:00","-3.4","","-22.9","","20","","31","","15","","32.2","","100.74","","","","-9","","Clear"
"2010-03-26 17:00","2010","03","26","17:00","-3.2","","-22.7","","21","","33","","7","","32.2","","100.78","","","","-6","","Clear"
"2010-03-26 18:00","2010","03","26","18:00","-4.3","","-22.6","","22","","34","","11","","25.0","","100.85","","","","-9","","Clear"
"2010-03-26 19:00","2010","03","26","19:00","-4.9","","-21.7","","25","","27","","7","","25.0","","100.93","","","","-8","","Clear"
"2010-03-26 20:00","2010","03","26","20:00","-5.9","","-19.4","","34","","28","","11","","25.0","","100.99","","","","-11","","Clear"
"2010-03-26 21:00","2010","03","26","21:00","-5.6","","-20.3","","30","","4","","4","","25.0","","101.05","","","","-7","","Clear"
"2010-03-26 22:00","2010","03","26","22:00","-7.0","","-20.0","","35","","9","","7","","25.0","","101.06","","","","-11","","Clear"
"2010-03-26 23:00","2010","03","26","23:00","-6.6","","-19.8","","34","","7","","7","","25.0","","101.09","","","","-10","","Clear"
"2010-03-27 00:00","2010","03","27","00:00","-6.8","","-19.3","","36","","5","","9","","25.0","","101.14","","","","-11","","Clear"
"2010-03-27 01:00","2010","03","27","01:00","-8.0","","-18.6","","42","","6","","9","","25.0","","101.24","","","","-13","","Clear"
"2010-03-27 02:00","2010","03","27","02:00","-8.8","","-17.1","","51","","7","","9","","25.0","","101.25","","","","-13","","Clear"
"2010-03-27 03:00","2010","03","27","03:00","-9.3","","-16.3","","57","","8","","6","","25.0","","101.32","","","","-13","","Clear"
"2010-03-27 04:00","2010","03","27","04:00","-9.7","","-16.7","","57","","9","","7","","25.0","","101.35","","","","-14","","Mainly Clear"
"2010-03-27 05:00","2010","03","27","05:00","-9.5","","-16.5","","57","","9","","6","","25.0","","101.44","","","","-13","","Clear"
"2010-03-27 06:00","2010","03","27","06:00","-8.6","","-14.6","","62","","9","","4","","24.1","","101.49","","","","-11","","Mostly Cloudy"
"2010-03-27 07:00","2010","03","27","07:00","-7.3","","-17.1","","45","","9","","11","","19.3","","101.58","","","","-12","","Mainly Clear"
"2010-03-27 08:00","2010","03","27","08:00","-5.5","","-15.6","","45","","11","","13","","24.1","","101.62","","","","-11","","Mostly Cloudy"
"2010-03-27 09:00","2010","03","27","09:00","-4.5","","-15.7","","41","","14","","17","","24.1","","101.61","","","","-10","","Mostly Cloudy"
"2010-03-27 10:00","2010","03","27","10:00","-3.1","","-15.4","","38","","16","","15","","24.1","","101.54","","","","-8","","Mostly Cloudy"
"2010-03-27 11:00","2010","03","27","11:00","-0.7","","-14.7","","34","","15","","15","","24.1","","101.50","","","","-5","","Mostly Cloudy"
"2010-03-27 12:00","2010","03","27","12:00","0.0","","-14.3","","33","","15","","9","","24.1","","101.43","","","","-3","","Cloudy"
"2010-03-27 13:00","2010","03","27","13:00","1.0","","-13.8","","32","","18","","11","","24.1","","101.36","","","","","","Cloudy"
"2010-03-27 14:00","2010","03","27","14:00","2.5","","-12.7","","32","","21","","17","","24.1","","101.31","","","","","","Cloudy"
"2010-03-27 15:00","2010","03","27","15:00","2.6","","-12.3","","32","","22","","9","","24.1","","101.23","","","","","","Cloudy"
"2010-03-27 16:00","2010","03","27","16:00","3.7","","-12.5","","29","","19","","9","","24.1","","101.20","","","","","","Cloudy"
"2010-03-27 17:00","2010","03","27","17:00","2.9","","-12.5","","31","","18","","13","","24.1","","101.14","","","","","","Mostly Cloudy"
"2010-03-27 18:00","2010","03","27","18:00","2.2","","-12.3","","33","","19","","9","","24.1","","101.13","","","","","","Mainly Clear"
"2010-03-27 19:00","2010","03","27","19:00","0.3","","-11.8","","40","","16","","6","","24.1","","101.09","","","","","","Mostly Cloudy"
"2010-03-27 20:00","2010","03","27","20:00","-1.9","","-11.5","","48","","12","","6","","24.1","","101.08","","","","-4","","Mainly Clear"
"2010-03-27 21:00","2010","03","27","21:00","-2.6","","-11.4","","51","","11","","11","","24.1","","101.06","","","","-7","","Clear"
"2010-03-27 22:00","2010","03","27","22:00","-3.7","","-10.6","","59","","10","","11","","24.1","","101.02","","","","-8","","Clear"
"2010-03-27 23:00","2010","03","27","23:00","-3.4","","-10.0","","60","","8","","9","","24.1","","101.00","","","","-7","","Clear"
"2010-03-28 00:00","2010","03","28","00:00","-3.4","","-9.9","","61","","8","","13","","24.1","","100.99","","","","-8","","Mainly Clear"
"2010-03-28 01:00","2010","03","28","01:00","-4.0","","-10.2","","62","","8","","13","","24.1","","100.84","","","","-9","","Mainly Clear"
"2010-03-28 02:00","2010","03","28","02:00","-3.6","","-10.2","","60","","8","","9","","24.1","","100.80","","","","-7","","Mostly Cloudy"
"2010-03-28 03:00","2010","03","28","03:00","-3.8","","-9.7","","64","","7","","11","","24.1","","100.72","","","","-8","","Mostly Cloudy"
"2010-03-28 04:00","2010","03","28","04:00","-3.7","","-9.1","","66","","7","","11","","24.1","","100.64","","","","-8","","Mostly Cloudy"
"2010-03-28 05:00","2010","03","28","05:00","-3.0","","-7.9","","69","","9","","9","","24.1","","100.59","","","","-7","","Mostly Cloudy"
"2010-03-28 06:00","2010","03","28","06:00","-2.1","","-7.6","","66","","10","","15","","24.1","","100.49","","","","-7","","Cloudy"
"2010-03-28 07:00","2010","03","28","07:00","-1.7","","-6.8","","68","","11","","6","","24.1","","100.51","","","","-4","","Cloudy"
"2010-03-28 08:00","2010","03","28","08:00","0.4","","-6.7","","59","","11","","11","","24.1","","100.45","","","","","","Cloudy"
"2010-03-28 09:00","2010","03","28","09:00","2.5","","-6.5","","51","","15","","13","","24.1","","100.44","","","","","","Cloudy"
"2010-03-28 10:00","2010","03","28","10:00","4.3","","-4.7","","52","","18","","19","","24.1","","100.44","","","","","","Cloudy"
"2010-03-28 11:00","2010","03","28","11:00","7.0","","-3.1","","49","","19","","19","","24.1","","100.37","","","","","","Cloudy"
"2010-03-28 12:00","2010","03","28","12:00","7.0","","-3.5","","47","","18","","19","","24.1","","100.32","","","","","","Cloudy"
"2010-03-28 13:00","2010","03","28","13:00","6.6","","-3.3","","49","","20","","24","","24.1","","100.30","","","","","","Cloudy"
"2010-03-28 14:00","2010","03","28","14:00","6.8","","-2.3","","52","","16","","22","","24.1","","100.19","","","","","","Cloudy"
"2010-03-28 15:00","2010","03","28","15:00","6.8","","-2.1","","53","","15","","20","","24.1","","100.11","","","","","","Cloudy"
"2010-03-28 16:00","2010","03","28","16:00","6.7","","-1.8","","55","","18","","15","","24.1","","100.13","","","","","","Cloudy"
"2010-03-28 17:00","2010","03","28","17:00","6.7","","-1.7","","55","","16","","13","","24.1","","100.10","","","","","","Cloudy"
"2010-03-28 18:00","2010","03","28","18:00","6.1","","-1.7","","57","","16","","7","","24.1","","100.06","","","","","","Cloudy"
"2010-03-28 19:00","2010","03","28","19:00","5.8","","-0.2","","65","","18","","15","","19.3","","100.08","","","","","","Cloudy"
"2010-03-28 20:00","2010","03","28","20:00","4.3","","2.2","","86","","","","0","","16.1","","100.11","","","","","","Rain"
"2010-03-28 21:00","2010","03","28","21:00","3.9","","2.9","","93","","7","","6","","12.9","","100.07","","","","","","Rain"
"2010-03-28 22:00","2010","03","28","22:00","3.8","","3.6","","99","","10","","11","","12.9","","100.02","","","","","","Rain"
"2010-03-28 23:00","2010","03","28","23:00","3.6","","3.6","","100","","9","","11","","12.9","","99.91","","","","","","Rain"
"2010-03-29 00:00","2010","03","29","00:00","3.8","","3.7","","99","","8","","19","","9.7","","99.81","","","","","","Rain,Fog"
"2010-03-29 01:00","2010","03","29","01:00","3.3","","3.2","","99","","8","","15","","9.7","","99.72","","","","","","Rain,Fog"
"2010-03-29 02:00","2010","03","29","02:00","3.1","","3.1","","100","","6","","13","","9.7","","99.61","","","","","","Rain,Fog"
"2010-03-29 03:00","2010","03","29","03:00","2.3","","2.3","","100","","5","","13","","4.8","","99.55","","","","","","Rain,Fog"
"2010-03-29 04:00","2010","03","29","04:00","2.0","","1.9","","99","","4","","17","","9.7","","99.50","","","","","","Rain,Fog"
"2010-03-29 05:00","2010","03","29","05:00","2.1","","2.0","","99","","4","","13","","9.7","","99.45","","","","","","Rain,Fog"
"2010-03-29 06:00","2010","03","29","06:00","2.2","","2.1","","99","","3","","13","","8.0","","99.46","","","","","","Rain,Fog"
"2010-03-29 07:00","2010","03","29","07:00","2.5","","2.4","","99","","1","","15","","4.8","","99.47","","","","","","Rain,Fog"
"2010-03-29 08:00","2010","03","29","08:00","2.7","","2.5","","99","","35","","15","","8.0","","99.54","","","","","","Rain,Fog"
"2010-03-29 09:00","2010","03","29","09:00","3.1","","2.7","","97","","34","","13","","24.1","","99.58","","","","","","Rain"
"2010-03-29 10:00","2010","03","29","10:00","3.0","","2.7","","98","","32","","11","","24.1","","99.64","","","","","","Rain"
"2010-03-29 11:00","2010","03","29","11:00","2.7","","2.3","","97","","32","","17","","24.1","","99.66","","","","","","Rain"
"2010-03-29 12:00","2010","03","29","12:00","4.2","","3.3","","94","","35","","15","","24.1","","99.67","","","","","","Rain"
"2010-03-29 13:00","2010","03","29","13:00","5.7","","4.2","","90","","31","","15","","24.1","","99.71","","","","","","Mostly Cloudy"
"2010-03-29 14:00","2010","03","29","14:00","5.2","","2.9","","85","","32","","19","","24.1","","99.76","","","","","","Cloudy"
"2010-03-29 15:00","2010","03","29","15:00","5.5","","2.1","","79","","33","","20","","24.1","","99.79","","","","","","Cloudy"
"2010-03-29 16:00","2010","03","29","16:00","5.3","","1.4","","76","","34","","22","","24.1","","99.88","","","","","","Cloudy"
"2010-03-29 17:00","2010","03","29","17:00","5.1","","1.4","","77","","32","","15","","24.1","","99.95","","","","","","Cloudy"
"2010-03-29 18:00","2010","03","29","18:00","4.7","","1.2","","78","","32","","22","","24.1","","100.05","","","","","","Cloudy"
"2010-03-29 19:00","2010","03","29","19:00","3.5","","-0.4","","76","","35","","15","","24.1","","100.08","","","","","","Mainly Clear"
"2010-03-29 20:00","2010","03","29","20:00","2.7","","-0.9","","77","","35","","15","","25.0","","100.16","","","","","","Mainly Clear"
"2010-03-29 21:00","2010","03","29","21:00","2.5","","-0.9","","78","","","","0","","25.0","","100.22","","","","","","Clear"
"2010-03-29 22:00","2010","03","29","22:00","0.3","","-1.9","","85","","33","","7","","25.0","","100.25","","","","","","Clear"
"2010-03-29 23:00","2010","03","29","23:00","-1.2","","-2.5","","91","","33","","11","","25.0","","100.30","","","","-5","","Clear"
"2010-03-30 00:00","2010","03","30","00:00","-1.0","","-2.2","","92","","34","","13","","25.0","","100.30","","","","-5","","Clear"
"2010-03-30 01:00","2010","03","30","01:00","-1.5","","-2.2","","95","","34","","9","","25.0","","100.30","","","","-5","","Clear"
"2010-03-30 02:00","2010","03","30","02:00","-0.5","","-2.0","","90","","1","","11","","25.0","","100.26","","","","-4","","Clear"
"2010-03-30 03:00","2010","03","30","03:00","-0.6","","-2.1","","90","","1","","9","","25.0","","100.30","","","","-4","","Clear"
"2010-03-30 04:00","2010","03","30","04:00","-0.9","","-2.7","","88","","36","","13","","25.0","","100.32","","","","-5","","Clear"
"2010-03-30 05:00","2010","03","30","05:00","-1.3","","-2.9","","89","","1","","9","","25.0","","100.36","","","","-5","","Mainly Clear"
"2010-03-30 06:00","2010","03","30","06:00","-1.3","","-3.0","","88","","36","","13","","24.1","","100.37","","","","-6","","Mainly Clear"
"2010-03-30 07:00","2010","03","30","07:00","-0.6","","-2.5","","87","","36","","11","","24.1","","100.41","","","","-4","","Mainly Clear"
"2010-03-30 08:00","2010","03","30","08:00","0.3","","-2.2","","83","","1","","15","","24.1","","100.41","","","","","","Mostly Cloudy"
"2010-03-30 09:00","2010","03","30","09:00","2.0","","-2.1","","74","","2","","17","","24.1","","100.38","","","","","","Mostly Cloudy"
"2010-03-30 10:00","2010","03","30","10:00","4.3","","-1.6","","65","","3","","19","","24.1","","100.38","","","","","","Cloudy"
"2010-03-30 11:00","2010","03","30","11:00","5.5","","-0.9","","63","","5","","20","","24.1","","100.37","","","","","","Mostly Cloudy"
"2010-03-30 12:00","2010","03","30","12:00","6.5","","-0.2","","62","","2","","20","","24.1","","100.22","","","","","","Mostly Cloudy"
"2010-03-30 13:00","2010","03","30","13:00","8.2","","-0.6","","54","","4","","17","","24.1","","100.14","","","","","","Cloudy"
"2010-03-30 14:00","2010","03","30","14:00","9.2","","-1.2","","48","","2","","22","","24.1","","100.04","","","","","","Cloudy"
"2010-03-30 15:00","2010","03","30","15:00","10.0","","-1.4","","45","","3","","26","","24.1","","99.97","","","","","","Cloudy"
"2010-03-30 16:00","2010","03","30","16:00","10.6","","-1.8","","42","","3","","22","","24.1","","99.87","","","","","","Cloudy"
"2010-03-30 17:00","2010","03","30","17:00","10.6","","-2.3","","40","","5","","20","","24.1","","99.86","","","","","","Cloudy"
"2010-03-30 18:00","2010","03","30","18:00","8.7","","-0.9","","51","","7","","13","","24.1","","99.86","","","","","","Mostly Cloudy"
"2010-03-30 19:00","2010","03","30","19:00","8.3","","-0.8","","53","","5","","9","","24.1","","99.87","","","","","","Mostly Cloudy"
"2010-03-30 20:00","2010","03","30","20:00","8.1","","-1.2","","52","","5","","11","","24.1","","99.91","","","","","","Cloudy"
"2010-03-30 21:00","2010","03","30","21:00","8.2","","-1.7","","50","","4","","17","","24.1","","99.88","","","","","","Mostly Cloudy"
"2010-03-30 22:00","2010","03","30","22:00","8.0","","-1.2","","52","","4","","22","","24.1","","99.87","","","","","","Cloudy"
"2010-03-30 23:00","2010","03","30","23:00","7.5","","-0.7","","56","","5","","17","","24.1","","99.85","","","","","","Cloudy"
"2010-03-31 00:00","2010","03","31","00:00","6.8","","0.3","","63","","5","","13","","24.1","","99.82","","","","","","Cloudy"
"2010-03-31 01:00","2010","03","31","01:00","6.2","","1.3","","71","","5","","11","","24.1","","99.80","","","","","","Cloudy"
"2010-03-31 02:00","2010","03","31","02:00","5.2","","1.0","","74","","2","","7","","24.1","","99.80","","","","","","Cloudy"
"2010-03-31 03:00","2010","03","31","03:00","5.3","","1.3","","75","","35","","7","","24.1","","99.81","","","","","","Cloudy"
"2010-03-31 04:00","2010","03","31","04:00","5.2","","-0.1","","69","","36","","9","","24.1","","99.85","","","","","","Cloudy"
"2010-03-31 05:00","2010","03","31","05:00","5.0","","-0.3","","69","","35","","15","","24.1","","99.89","","","","","","Cloudy"
"2010-03-31 06:00","2010","03","31","06:00","4.8","","-0.5","","68","","35","","15","","24.1","","99.95","","","","","","Mostly Cloudy"
"2010-03-31 07:00","2010","03","31","07:00","5.0","","-0.4","","68","","34","","13","","24.1","","100.01","","","","","","Mostly Cloudy"
"2010-03-31 08:00","2010","03","31","08:00","5.4","","-0.1","","68","","34","","9","","24.1","","100.04","","","","","","Mostly Cloudy"
"2010-03-31 09:00","2010","03","31","09:00","7.0","","0.8","","65","","35","","7","","24.1","","100.07","","","","","","Mostly Cloudy"
"2010-03-31 10:00","2010","03","31","10:00","9.0","","2.8","","65","","1","","7","","24.1","","100.16","","","","","","Mostly Cloudy"
"2010-03-31 11:00","2010","03","31","11:00","10.6","","3.7","","62","","33","","7","","24.1","","100.13","","","","","","Mostly Cloudy"
"2010-03-31 12:00","2010","03","31","12:00","12.9","","5.0","","59","","4","","4","","24.1","","100.07","","","","","","Mostly Cloudy"
"2010-03-31 13:00","2010","03","31","13:00","14.4","","5.8","","56","","3","","7","","24.1","","100.03","","","","","","Mainly Clear"
"2010-03-31 14:00","2010","03","31","14:00","15.3","","6.4","","55","","","","0","","24.1","","100.00","","","","","","Mostly Cloudy"
"2010-03-31 15:00","2010","03","31","15:00","16.4","","7.1","","54","","21","","6","","24.1","","100.02","","","","","","Mostly Cloudy"
"2010-03-31 16:00","2010","03","31","16:00","16.1","","6.8","","54","","7","","4","","24.1","","100.01","","","","","","Mostly Cloudy"
"2010-03-31 17:00","2010","03","31","17:00","15.9","","6.9","","55","","21","","6","","24.1","","100.08","","","","","","Mostly Cloudy"
"2010-03-31 18:00","2010","03","31","18:00","13.7","","7.6","","67","","16","","9","","24.1","","100.09","","","","","","Mostly Cloudy"
"2010-03-31 19:00","2010","03","31","19:00","12.9","","7.1","","68","","14","","9","","24.1","","100.10","","","","","","Mostly Cloudy"
"2010-03-31 20:00","2010","03","31","20:00","10.8","","6.8","","76","","14","","13","","25.0","","100.24","","","","","","Mainly Clear"
"2010-03-31 21:00","2010","03","31","21:00","9.0","","5.8","","80","","14","","17","","25.0","","100.26","","","","","","Mainly Clear"
"2010-03-31 22:00","2010","03","31","22:00","8.1","","5.4","","83","","16","","11","","25.0","","100.32","","","","","","Mainly Clear"
"2010-03-31 23:00","2010","03","31","23:00","7.8","","5.4","","85","","16","","9","","25.0","","100.33","","","","","","Mainly Clear"
