"Station Name","OTTAWA MACDONALD-CARTIER INT'L A"
"Province","ONTARIO"
"Latitude","45.32"
"Longitude","-75.67"
"Elevation","114.00"
"Climate Identifier","6106000"
"WMO Identifier","71628"
"TC Identifier","YOW"
"All times are specified in Local Standard Time (LST). Add 1 hour to adjust for Daylight Saving Time where and when it is observed."

"Legend"
"E","Estimated"
"M","Missing"
"NA","Not Available"

"Date/Time","Year","Month","Day","Time","Temp (°C)","Temp Flag","Dew Point Temp (°C)","Dew Point Temp Flag","Rel Hum (%)","Rel Hum Flag","Wind Dir (10s deg)","Wind Dir Flag","Wind Spd (km/h)","Wind Spd Flag","Visibility (km)","Visibility Flag","Stn Press (kPa)","Stn Press Flag","Hmdx","Hmdx Flag","Wind Chill","Wind Chill Flag","Weather"
"2008-08-01 00:00","2008","08","01","00:00","18.4","","16.5","","89","","29","","7","","25.0","","98.95","","","","","","Clear"
"2008-08-01 01:00","2008","08","01","01:00","18.4","","16.8","","90","","23","","7","","25.0","","98.96","","","","","","Clear"
"2008-08-01 02:00","2008","08","01","02:00","18.1","","16.7","","92","","23","","7","","25.0","","99.01","","","","","","Mostly Cloudy"
"2008-08-01 03:00","2008","08","01","03:00","17.9","","16.5","","92","","27","","7","","25.0","","99.00","","","","","","Mostly Cloudy"
"2008-08-01 04:00","2008","08","01","04:00","17.9","","16.6","","92","","27","","9","","25.0","","99.03","","","","","","Mostly Cloudy"
"2008-08-01 05:00","2008","08","01","05:00","17.8","","16.8","","94","","28","","13","","24.1","","99.07","","","","","","Mainly Clear"
"2008-08-01 06:00","2008","08","01","06:00","18.1","","17.1","","94","","29","","11","","19.3","","99.10","","","","","","Mostly Cloudy"
"2008-08-01 07:00","2008","08","01","07:00","18.4","","17.3","","93","","30","","9","","16.1","","99.14","","","","","","Mostly Cloudy"
"2008-08-01 08:00","2008","08","01","08:00","18.4","","17.3","","93","","30","","15","","16.1","","99.15","","","","","","Mostly Cloudy"
"2008-08-01 09:00","2008","08","01","09:00","19.3","","17.2","","88","","31","","15","","24.1","","99.17","","","","","","Mostly Cloudy"
"2008-08-01 10:00","2008","08","01","10:00","19.8","","17.2","","85","","26","","17","","24.1","","99.23","","","","","","Mostly Cloudy"
"2008-08-01 11:00","2008","08","01","11:00","21.1","","17.7","","81","","25","","15","","24.1","","99.24","","27","","","","Mostly Cloudy"
"2008-08-01 12:00","2008","08","01","12:00","22.0","","17.0","","73","","28","","13","","24.1","","99.25","","27","","","","Mostly Cloudy"
"2008-08-01 13:00","2008","08","01","13:00","23.3","","16.8","","67","","27","","13","","24.1","","99.23","","28","","","","Mostly Cloudy"
"2008-08-01 14:00","2008","08","01","14:00","24.7","","16.3","","60","","28","","17","","24.1","","99.20","","30","","","","Mainly Clear"
"2008-08-01 15:00","2008","08","01","15:00","24.9","","16.5","","60","","32","","19","","24.1","","99.17","","30","","","","Mainly Clear"
"2008-08-01 16:00","2008","08","01","16:00","25.3","","16.7","","59","","25","","11","","24.1","","99.12","","30","","","","Mainly Clear"
"2008-08-01 17:00","2008","08","01","17:00","25.7","","16.3","","56","","23","","11","","24.1","","99.11","","31","","","","Mainly Clear"
"2008-08-01 18:00","2008","08","01","18:00","24.6","","16.1","","59","","25","","4","","24.1","","99.08","","29","","","","Mostly Cloudy"
"2008-08-01 19:00","2008","08","01","19:00","23.3","","15.8","","63","","26","","6","","24.1","","99.14","","28","","","","Mostly Cloudy"
"2008-08-01 20:00","2008","08","01","20:00","22.8","","15.9","","65","","18","","6","","24.1","","99.20","","27","","","","Mostly Cloudy"
"2008-08-01 21:00","2008","08","01","21:00","21.2","","18.0","","82","","19","","9","","25.0","","99.21","","27","","","","Mostly Cloudy"
"2008-08-01 22:00","2008","08","01","22:00","20.5","","18.5","","88","","25","","9","","25.0","","99.24","","27","","","","Cloudy"
"2008-08-01 23:00","2008","08","01","23:00","20.2","","17.4","","84","","25","","7","","25.0","","99.25","","26","","","","Mostly Cloudy"
"2008-08-02 00:00","2008","08","02","00:00","18.6","","16.5","","88","","27","","11","","25.0","","99.18","","","","","","Mostly Cloudy"
"2008-08-02 01:00","2008","08","02","01:00","18.0","","16.4","","90","","30","","7","","25.0","","99.16","","","","","","Mainly Clear"
"2008-08-02 02:00","2008","08","02","02:00","17.6","","16.5","","93","","22","","9","","25.0","","99.18","","","","","","Mainly Clear"
"2008-08-02 03:00","2008","08","02","03:00","16.8","","16.3","","97","","23","","7","","25.0","","99.18","","","","","","Mainly Clear"
"2008-08-02 04:00","2008","08","02","04:00","16.4","","15.8","","96","","24","","7","","25.0","","99.19","","","","","","Mainly Clear"
"2008-08-02 05:00","2008","08","02","05:00","16.0","","15.6","","97","","21","","4","","24.1","","99.19","","","","","","Mostly Cloudy"
"2008-08-02 06:00","2008","08","02","06:00","16.7","","16.2","","97","","27","","4","","24.1","","99.23","","","","","","Mostly Cloudy"
"2008-08-02 07:00","2008","08","02","07:00","18.5","","17.2","","92","","3","","4","","24.1","","99.26","","","","","","Mostly Cloudy"
"2008-08-02 08:00","2008","08","02","08:00","20.2","","18.2","","88","","","","0","","24.1","","99.23","","26","","","","Mainly Clear"
"2008-08-02 09:00","2008","08","02","09:00","21.5","","18.2","","81","","","","0","","24.1","","99.28","","28","","","","Mostly Cloudy"
"2008-08-02 10:00","2008","08","02","10:00","23.0","","18.1","","74","","17","","9","","24.1","","99.26","","29","","","","Mostly Cloudy"
"2008-08-02 11:00","2008","08","02","11:00","24.1","","18.2","","70","","18","","4","","24.1","","99.24","","30","","","","Mostly Cloudy"
"2008-08-02 12:00","2008","08","02","12:00","23.8","","17.3","","67","","23","","7","","24.1","","99.22","","29","","","","Mostly Cloudy"
"2008-08-02 13:00","2008","08","02","13:00","22.2","","16.2","","69","","33","","20","","24.1","","99.22","","27","","","","Mostly Cloudy"
"2008-08-02 14:00","2008","08","02","14:00","22.4","","15.6","","65","","36","","20","","24.1","","99.26","","27","","","","Mostly Cloudy"
"2008-08-02 15:00","2008","08","02","15:00","24.3","","16.0","","60","","36","","22","","24.1","","99.24","","29","","","","Mostly Cloudy"
"2008-08-02 16:00","2008","08","02","16:00","20.9","","16.7","","77","","9","","11","","24.1","","99.38","","26","","","","Mostly Cloudy"
"2008-08-02 17:00","2008","08","02","17:00","19.3","","17.1","","87","","9","","11","","24.1","","99.41","","","","","","Cloudy"
"2008-08-02 18:00","2008","08","02","18:00","18.3","","16.7","","90","","5","","6","","19.3","","99.42","","","","","","Rain Showers"
"2008-08-02 19:00","2008","08","02","19:00","18.1","","16.9","","93","","28","","4","","24.1","","99.43","","","","","","Rain Showers"
"2008-08-02 20:00","2008","08","02","20:00","18.1","","17.3","","95","","","","0","","24.1","","99.49","","","","","","Rain Showers"
"2008-08-02 21:00","2008","08","02","21:00","18.0","","17.2","","95","","22","","4","","24.1","","99.51","","","","","","Cloudy"
"2008-08-02 22:00","2008","08","02","22:00","18.3","","17.6","","96","","24","","4","","24.1","","99.52","","","","","","Rain Showers"
"2008-08-02 23:00","2008","08","02","23:00","17.4","","17.1","","98","","23","","6","","25.0","","99.52","","","","","","Mostly Cloudy"
"2008-08-03 00:00","2008","08","03","00:00","17.3","","17.0","","98","","26","","7","","25.0","","99.55","","","","","","Mostly Cloudy"
"2008-08-03 01:00","2008","08","03","01:00","17.3","","16.7","","96","","32","","9","","25.0","","99.55","","","","","","Mostly Cloudy"
"2008-08-03 02:00","2008","08","03","02:00","16.3","","15.7","","96","","31","","11","","25.0","","99.55","","","","","","Mainly Clear"
"2008-08-03 03:00","2008","08","03","03:00","16.1","","15.5","","96","","31","","13","","25.0","","99.54","","","","","","Clear"
"2008-08-03 04:00","2008","08","03","04:00","16.2","","15.4","","95","","31","","9","","24.1","","99.57","","","","","","Mostly Cloudy"
"2008-08-03 05:00","2008","08","03","05:00","16.2","","15.3","","94","","33","","13","","24.1","","99.61","","","","","","Mainly Clear"
"2008-08-03 06:00","2008","08","03","06:00","16.4","","15.8","","96","","30","","11","","24.1","","99.67","","","","","","Mostly Cloudy"
"2008-08-03 07:00","2008","08","03","07:00","17.5","","15.8","","90","","32","","19","","24.1","","99.70","","","","","","Cloudy"
"2008-08-03 08:00","2008","08","03","08:00","18.6","","16.4","","87","","33","","20","","24.1","","99.75","","","","","","Cloudy"
"2008-08-03 09:00","2008","08","03","09:00","18.8","","16.2","","85","","35","","11","","24.1","","99.78","","","","","","Cloudy"
"2008-08-03 10:00","2008","08","03","10:00","19.8","","16.4","","81","","33","","17","","24.1","","99.80","","","","","","Cloudy"
"2008-08-03 11:00","2008","08","03","11:00","20.4","","16.3","","77","","35","","13","","24.1","","99.80","","25","","","","Cloudy"
"2008-08-03 12:00","2008","08","03","12:00","21.6","","17.2","","76","","35","","11","","24.1","","99.78","","27","","","","Mostly Cloudy"
"2008-08-03 13:00","2008","08","03","13:00","23.0","","16.4","","66","","34","","7","","24.1","","99.75","","28","","","","Mostly Cloudy"
"2008-08-03 14:00","2008","08","03","14:00","24.8","","16.8","","61","","35","","7","","24.1","","99.70","","30","","","","Mostly Cloudy"
"2008-08-03 15:00","2008","08","03","15:00","24.3","","15.5","","58","","29","","19","","24.1","","99.71","","29","","","","Mostly Cloudy"
"2008-08-03 16:00","2008","08","03","16:00","21.2","","17.9","","81","","30","","15","","24.1","","99.75","","27","","","","Mostly Cloudy"
"2008-08-03 17:00","2008","08","03","17:00","22.2","","18.0","","77","","30","","20","","24.1","","99.74","","28","","","","Mainly Clear"
"2008-08-03 18:00","2008","08","03","18:00","21.5","","17.7","","79","","30","","7","","24.1","","99.73","","27","","","","Mostly Cloudy"
"2008-08-03 19:00","2008","08","03","19:00","20.9","","16.8","","77","","31","","15","","24.1","","99.78","","26","","","","Mainly Clear"
"2008-08-03 20:00","2008","08","03","20:00","20.2","","17.3","","83","","29","","11","","24.1","","99.81","","26","","","","Mainly Clear"
"2008-08-03 21:00","2008","08","03","21:00","19.8","","17.6","","87","","28","","13","","25.0","","99.87","","","","","","Mostly Cloudy"
"2008-08-03 22:00","2008","08","03","22:00","19.0","","17.3","","90","","29","","13","","25.0","","99.85","","","","","","Mainly Clear"
"2008-08-03 23:00","2008","08","03","23:00","18.3","","17.3","","94","","29","","9","","25.0","","99.88","","","","","","Mainly Clear"
"2008-08-04 00:00","2008","08","04","00:00","18.2","","17.2","","94","","30","","7","","25.0","","99.87","","","","","","Mainly Clear"
"2008-08-04 01:00","2008","08","04","01:00","17.9","","16.2","","90","","33","","11","","25.0","","99.86","","","","","","Clear"
"2008-08-04 02:00","2008","08","04","02:00","17.3","","15.9","","91","","34","","11","","25.0","","99.81","","","","","","Clear"
"2008-08-04 03:00","2008","08","04","03:00","16.9","","15.8","","93","","32","","11","","25.0","","99.86","","","","","","Clear"
"2008-08-04 04:00","2008","08","04","04:00","16.3","","15.7","","96","","31","","7","","25.0","","99.89","","","","","","Mostly Cloudy"
"2008-08-04 05:00","2008","08","04","05:00","16.7","","16.2","","97","","29","","7","","24.1","","99.92","","","","","","Mostly Cloudy"
"2008-08-04 06:00","2008","08","04","06:00","17.6","","16.7","","94","","30","","9","","24.1","","100.00","","","","","","Mostly Cloudy"
"2008-08-04 07:00","2008","08","04","07:00","18.3","","17.0","","92","","30","","7","","24.1","","100.02","","","","","","Mostly Cloudy"
"2008-08-04 08:00","2008","08","04","08:00","19.8","","17.4","","86","","35","","6","","24.1","","100.05","","","","","","Mainly Clear"
"2008-08-04 09:00","2008","08","04","09:00","21.6","","17.4","","77","","34","","4","","24.1","","100.08","","27","","","","Mainly Clear"
"2008-08-04 10:00","2008","08","04","10:00","22.7","","16.6","","68","","29","","13","","24.1","","100.08","","28","","","","Mostly Cloudy"
"2008-08-04 11:00","2008","08","04","11:00","24.1","","17.4","","66","","31","","7","","24.1","","100.07","","30","","","","Mostly Cloudy"
"2008-08-04 12:00","2008","08","04","12:00","24.2","","17.3","","65","","2","","7","","24.1","","100.06","","30","","","","Mostly Cloudy"
"2008-08-04 13:00","2008","08","04","13:00","24.3","","16.4","","61","","","","0","","24.1","","100.02","","29","","","","Mostly Cloudy"
"2008-08-04 14:00","2008","08","04","14:00","23.2","","16.3","","65","","27","","11","","24.1","","100.05","","28","","","","Mostly Cloudy"
"2008-08-04 15:00","2008","08","04","15:00","25.6","","16.5","","57","","36","","6","","24.1","","99.98","","31","","","","Mainly Clear"
"2008-08-04 16:00","2008","08","04","16:00","25.5","","15.8","","55","","32","","6","","24.1","","99.98","","30","","","","Mostly Cloudy"
"2008-08-04 17:00","2008","08","04","17:00","24.9","","16.2","","58","","29","","6","","24.1","","99.99","","30","","","","Mostly Cloudy"
"2008-08-04 18:00","2008","08","04","18:00","24.2","","17.1","","65","","31","","7","","24.1","","100.00","","30","","","","Mostly Cloudy"
"2008-08-04 19:00","2008","08","04","19:00","22.9","","17.5","","72","","15","","6","","24.1","","100.04","","29","","","","Mostly Cloudy"
"2008-08-04 20:00","2008","08","04","20:00","21.3","","17.5","","79","","12","","4","","24.1","","100.05","","27","","","","Mostly Cloudy"
"2008-08-04 21:00","2008","08","04","21:00","19.9","","16.9","","83","","12","","6","","25.0","","100.07","","","","","","Mainly Clear"
"2008-08-04 22:00","2008","08","04","22:00","19.8","","16.9","","83","","9","","4","","25.0","","100.11","","","","","","Mostly Cloudy"
"2008-08-04 23:00","2008","08","04","23:00","19.1","","16.5","","85","","9","","6","","25.0","","100.09","","","","","","Mostly Cloudy"
"2008-08-05 00:00","2008","08","05","00:00","18.8","","16.7","","88","","7","","6","","25.0","","100.11","","","","","","Mainly Clear"
"2008-08-05 01:00","2008","08","05","01:00","17.6","","16.5","","93","","7","","7","","25.0","","100.12","","","","","","Clear"
"2008-08-05 02:00","2008","08","05","02:00","17.6","","16.8","","95","","6","","9","","25.0","","100.13","","","","","","Mainly Clear"
"2008-08-05 03:00","2008","08","05","03:00","17.3","","16.7","","96","","6","","9","","25.0","","100.14","","","","","","Mainly Clear"
"2008-08-05 04:00","2008","08","05","04:00","17.0","","16.6","","97","","7","","9","","19.3","","100.14","","","","","","Mostly Cloudy"
"2008-08-05 05:00","2008","08","05","05:00","17.2","","16.9","","98","","9","","17","","0.8","","100.16","","","","","","Fog"
"2008-08-05 06:00","2008","08","05","06:00","17.9","","17.2","","96","","9","","11","","6.4","","100.20","","","","","","Fog"
"2008-08-05 07:00","2008","08","05","07:00","17.9","","17.2","","96","","10","","7","","4.8","","100.24","","","","","","Fog"
"2008-08-05 08:00","2008","08","05","08:00","17.6","","17.1","","97","","9","","11","","3.2","","100.19","","","","","","Fog"
"2008-08-05 09:00","2008","08","05","09:00","17.9","","17.0","","94","","9","","11","","4.8","","100.20","","","","","","Fog"
"2008-08-05 10:00","2008","08","05","10:00","18.6","","17.1","","91","","10","","7","","11.3","","100.24","","","","","","Cloudy"
"2008-08-05 11:00","2008","08","05","11:00","19.5","","17.2","","87","","9","","17","","16.1","","100.17","","","","","","Cloudy"
"2008-08-05 12:00","2008","08","05","12:00","22.0","","17.9","","78","","6","","19","","16.1","","100.11","","28","","","","Mostly Cloudy"
"2008-08-05 13:00","2008","08","05","13:00","22.3","","18.0","","77","","7","","11","","16.1","","100.11","","28","","","","Mostly Cloudy"
"2008-08-05 14:00","2008","08","05","14:00","23.3","","18.2","","73","","8","","13","","19.3","","100.06","","29","","","","Mostly Cloudy"
"2008-08-05 15:00","2008","08","05","15:00","24.2","","17.9","","68","","7","","13","","24.1","","99.99","","30","","","","Mainly Clear"
"2008-08-05 16:00","2008","08","05","16:00","24.9","","17.3","","63","","11","","17","","24.1","","99.89","","30","","","","Mainly Clear"
"2008-08-05 17:00","2008","08","05","17:00","24.9","","17.9","","65","","10","","11","","24.1","","99.88","","31","","","","Mostly Cloudy"
"2008-08-05 18:00","2008","08","05","18:00","23.2","","17.9","","72","","10","","15","","24.1","","99.84","","29","","","","Mostly Cloudy"
"2008-08-05 19:00","2008","08","05","19:00","21.8","","17.7","","78","","9","","13","","24.1","","99.82","","28","","","","Mostly Cloudy"
"2008-08-05 20:00","2008","08","05","20:00","20.5","","17.6","","83","","9","","13","","25.0","","99.83","","26","","","","Cloudy"
"2008-08-05 21:00","2008","08","05","21:00","19.8","","17.2","","85","","8","","19","","25.0","","99.77","","","","","","Cloudy"
"2008-08-05 22:00","2008","08","05","22:00","19.5","","16.6","","83","","8","","19","","25.0","","99.74","","","","","","Cloudy"
"2008-08-05 23:00","2008","08","05","23:00","19.1","","16.5","","85","","9","","15","","25.0","","99.67","","","","","","Rain"
"2008-08-06 00:00","2008","08","06","00:00","18.2","","16.9","","92","","7","","15","","19.3","","99.54","","","","","","Rain"
"2008-08-06 01:00","2008","08","06","01:00","17.7","","17.0","","96","","14","","4","","8.0","","99.55","","","","","","Thunderstorms,Rain,Fog"
"2008-08-06 02:00","2008","08","06","02:00","17.3","","16.8","","97","","2","","15","","8.0","","99.48","","","","","","Rain,Fog"
"2008-08-06 03:00","2008","08","06","03:00","17.0","","16.5","","97","","6","","9","","16.1","","99.44","","","","","","Mostly Cloudy"
"2008-08-06 04:00","2008","08","06","04:00","16.7","","16.2","","97","","5","","6","","16.1","","99.41","","","","","","Mainly Clear"
"2008-08-06 05:00","2008","08","06","05:00","16.8","","16.1","","96","","4","","6","","24.1","","99.42","","","","","","Cloudy"
"2008-08-06 06:00","2008","08","06","06:00","17.4","","16.6","","95","","4","","4","","19.3","","99.44","","","","","","Cloudy"
"2008-08-06 07:00","2008","08","06","07:00","17.7","","17.0","","96","","33","","6","","19.3","","99.45","","","","","","Cloudy"
"2008-08-06 08:00","2008","08","06","08:00","18.2","","17.4","","95","","29","","7","","16.1","","99.45","","","","","","Cloudy"
"2008-08-06 09:00","2008","08","06","09:00","19.3","","17.7","","90","","29","","11","","19.3","","99.45","","","","","","Mostly Cloudy"
"2008-08-06 10:00","2008","08","06","10:00","21.4","","17.3","","77","","30","","19","","24.1","","99.48","","27","","","","Mostly Cloudy"
"2008-08-06 11:00","2008","08","06","11:00","23.2","","17.6","","71","","29","","20","","24.1","","99.44","","29","","","","Mostly Cloudy"
"2008-08-06 12:00","2008","08","06","12:00","23.7","","15.7","","61","","34","","22","","24.1","","99.45","","28","","","","Mostly Cloudy"
"2008-08-06 13:00","2008","08","06","13:00","24.0","","16.3","","62","","28","","22","","24.1","","99.43","","29","","","","Mostly Cloudy"
"2008-08-06 14:00","2008","08","06","14:00","24.7","","16.1","","59","","28","","15","","24.1","","99.42","","29","","","","Mostly Cloudy"
"2008-08-06 15:00","2008","08","06","15:00","19.6","","17.6","","88","","34","","6","","24.1","","99.43","","","","","","Rain Showers"
"2008-08-06 16:00","2008","08","06","16:00","22.2","","18.0","","77","","2","","9","","24.1","","99.43","","28","","","","Mostly Cloudy"
"2008-08-06 17:00","2008","08","06","17:00","22.5","","17.9","","75","","1","","7","","24.1","","99.42","","28","","","","Mostly Cloudy"
"2008-08-06 18:00","2008","08","06","18:00","21.5","","19.2","","87","","34","","4","","24.1","","99.43","","28","","","","Mostly Cloudy"
"2008-08-06 19:00","2008","08","06","19:00","20.9","","17.7","","82","","35","","7","","24.1","","99.49","","27","","","","Mainly Clear"
"2008-08-06 20:00","2008","08","06","20:00","19.8","","16.7","","82","","2","","7","","25.0","","99.48","","","","","","Mainly Clear"
"2008-08-06 21:00","2008","08","06","21:00","18.1","","16.8","","92","","25","","7","","25.0","","99.50","","","","","","Mainly Clear"
"2008-08-06 22:00","2008","08","06","22:00","18.0","","16.8","","93","","31","","6","","25.0","","99.51","","","","","","Mainly Clear"
"2008-08-06 23:00","2008","08","06","23:00","18.0","","16.8","","93","","26","","7","","25.0","","99.46","","","","","","Mostly Cloudy"
"2008-08-07 00:00","2008","08","07","00:00","18.1","","16.6","","91","","29","","4","","25.0","","99.47","","","","","","Mostly Cloudy"
"2008-08-07 01:00","2008","08","07","01:00","17.3","","16.5","","95","","24","","4","","25.0","","99.47","","","","","","Mainly Clear"
"2008-08-07 02:00","2008","08","07","02:00","16.7","","16.4","","98","","","","0","","25.0","","99.41","","","","","","Clear"
"2008-08-07 03:00","2008","08","07","03:00","16.3","","16.0","","98","","","","0","","6.4","","99.38","","","","","","Fog"
"2008-08-07 04:00","2008","08","07","04:00","15.6","","15.4","","99","","24","","4","","0.8","","99.37","","","","","","Fog"
"2008-08-07 05:00","2008","08","07","05:00","15.9","","15.8","","99","","23","","6","","0.2","","99.38","","","","","","Fog"
"2008-08-07 06:00","2008","08","07","06:00","16.3","","16.2","","99","","30","","7","","0.2","","99.41","","","","","","Fog"
"2008-08-07 07:00","2008","08","07","07:00","16.7","","16.6","","99","","32","","9","","6.4","","99.43","","","","","","Fog"
"2008-08-07 08:00","2008","08","07","08:00","17.9","","17.1","","95","","35","","4","","19.3","","99.43","","","","","","Mostly Cloudy"
"2008-08-07 09:00","2008","08","07","09:00","19.2","","15.6","","80","","34","","9","","24.1","","99.45","","","","","","Mostly Cloudy"
"2008-08-07 10:00","2008","08","07","10:00","20.3","","15.8","","75","","31","","7","","24.1","","99.42","","25","","","","Mostly Cloudy"
"2008-08-07 11:00","2008","08","07","11:00","21.2","","15.8","","71","","33","","15","","24.1","","99.40","","26","","","","Mostly Cloudy"
"2008-08-07 12:00","2008","08","07","12:00","22.8","","15.9","","65","","34","","6","","24.1","","99.29","","27","","","","Mostly Cloudy"
"2008-08-07 13:00","2008","08","07","13:00","23.8","","16.2","","62","","35","","17","","24.1","","99.23","","29","","","","Mostly Cloudy"
"2008-08-07 14:00","2008","08","07","14:00","24.5","","15.1","","56","","32","","6","","24.1","","99.22","","29","","","","Mostly Cloudy"
"2008-08-07 15:00","2008","08","07","15:00","24.1","","14.4","","55","","35","","9","","24.1","","99.21","","28","","","","Mostly Cloudy"
"2008-08-07 16:00","2008","08","07","16:00","24.1","","14.2","","54","","26","","13","","24.1","","99.20","","28","","","","Mostly Cloudy"
"2008-08-07 17:00","2008","08","07","17:00","17.0","","14.7","","86","","28","","4","","19.3","","99.32","","","","","","Thunderstorms,Rain Showers"
"2008-08-07 18:00","2008","08","07","18:00","16.3","","15.1","","93","","29","","7","","24.1","","99.26","","","","","","Rain Showers"
"2008-08-07 19:00","2008","08","07","19:00","16.8","","15.3","","91","","28","","4","","24.1","","99.26","","","","","","Mostly Cloudy"
"2008-08-07 20:00","2008","08","07","20:00","16.6","","15.6","","94","","27","","7","","24.1","","99.28","","","","","","Mostly Cloudy"
"2008-08-07 21:00","2008","08","07","21:00","16.1","","15.6","","97","","25","","6","","25.0","","99.29","","","","","","Mainly Clear"
"2008-08-07 22:00","2008","08","07","22:00","15.7","","15.3","","97","","30","","7","","25.0","","99.23","","","","","","Mainly Clear"
"2008-08-07 23:00","2008","08","07","23:00","16.3","","16.0","","98","","30","","6","","25.0","","99.25","","","","","","Mostly Cloudy"
"2008-08-08 00:00","2008","08","08","00:00","16.4","","16.0","","97","","30","","9","","25.0","","99.20","","","","","","Cloudy"
"2008-08-08 01:00","2008","08","08","01:00","16.4","","15.8","","96","","32","","9","","25.0","","99.16","","","","","","Mostly Cloudy"
"2008-08-08 02:00","2008","08","08","02:00","16.2","","15.5","","96","","33","","7","","25.0","","99.16","","","","","","Mostly Cloudy"
"2008-08-08 03:00","2008","08","08","03:00","15.8","","15.2","","96","","32","","11","","25.0","","99.16","","","","","","Cloudy"
"2008-08-08 04:00","2008","08","08","04:00","15.8","","14.8","","94","","33","","11","","25.0","","99.16","","","","","","Mostly Cloudy"
"2008-08-08 05:00","2008","08","08","05:00","15.5","","14.6","","94","","32","","9","","24.1","","99.20","","","","","","Mostly Cloudy"
"2008-08-08 06:00","2008","08","08","06:00","15.6","","14.8","","95","","31","","9","","24.1","","99.21","","","","","","Mostly Cloudy"
"2008-08-08 07:00","2008","08","08","07:00","15.9","","14.7","","93","","32","","11","","24.1","","99.23","","","","","","Rain Showers"
"2008-08-08 08:00","2008","08","08","08:00","16.8","","14.8","","88","","34","","11","","24.1","","99.24","","","","","","Mostly Cloudy"
"2008-08-08 09:00","2008","08","08","09:00","17.5","","14.2","","81","","34","","13","","24.1","","99.22","","","","","","Mostly Cloudy"
"2008-08-08 10:00","2008","08","08","10:00","17.5","","14.4","","82","","29","","11","","24.1","","99.22","","","","","","Rain Showers"
"2008-08-08 11:00","2008","08","08","11:00","18.7","","14.4","","76","","31","","11","","24.1","","99.22","","","","","","Mostly Cloudy"
"2008-08-08 12:00","2008","08","08","12:00","19.5","","14.6","","73","","32","","17","","24.1","","99.18","","","","","","Mostly Cloudy"
"2008-08-08 13:00","2008","08","08","13:00","19.3","","16.1","","82","","34","","15","","24.1","","99.14","","","","","","Mostly Cloudy"
"2008-08-08 14:00","2008","08","08","14:00","21.6","","14.8","","65","","1","","11","","24.1","","99.12","","25","","","","Mostly Cloudy"
"2008-08-08 15:00","2008","08","08","15:00","21.5","","14.5","","64","","32","","6","","24.1","","99.10","","25","","","","Mostly Cloudy"
"2008-08-08 16:00","2008","08","08","16:00","17.7","","13.8","","78","","31","","26","","24.1","","99.13","","","","","","Rain Showers"
"2008-08-08 17:00","2008","08","08","17:00","17.8","","15.6","","87","","33","","11","","24.1","","99.18","","","","","","Rain Showers"
"2008-08-08 18:00","2008","08","08","18:00","18.1","","14.7","","81","","31","","13","","24.1","","99.22","","","","","","Mostly Cloudy"
"2008-08-08 19:00","2008","08","08","19:00","18.8","","15.3","","80","","32","","17","","24.1","","99.25","","","","","","Mostly Cloudy"
"2008-08-08 20:00","2008","08","08","20:00","17.3","","15.4","","89","","30","","11","","24.1","","99.31","","","","","","Mostly Cloudy"
"2008-08-08 21:00","2008","08","08","21:00","17.1","","15.2","","89","","29","","9","","24.1","","99.33","","","","","","Mostly Cloudy"
"2008-08-08 22:00","2008","08","08","22:00","16.6","","14.8","","89","","30","","13","","24.1","","99.35","","","","","","Mainly Clear"
"2008-08-08 23:00","2008","08","08","23:00","16.0","","14.5","","91","","29","","11","","25.0","","99.37","","","","","","Mainly Clear"
"2008-08-09 00:00","2008","08","09","00:00","15.3","","13.9","","91","","29","","11","","25.0","","99.40","","","","","","Mainly Clear"
"2008-08-09 01:00","2008","08","09","01:00","14.4","","13.6","","95","","27","","7","","25.0","","99.40","","","","","","Mainly Clear"
"2008-08-09 02:00","2008","08","09","02:00","14.1","","13.5","","96","","29","","9","","25.0","","99.44","","","","","","Clear"
"2008-08-09 03:00","2008","08","09","03:00","13.9","","13.4","","97","","27","","7","","25.0","","99.46","","","","","","Clear"
"2008-08-09 04:00","2008","08","09","04:00","13.2","","13.0","","99","","27","","9","","24.1","","99.51","","","","","","Mainly Clear"
"2008-08-09 05:00","2008","08","09","05:00","13.0","","12.8","","99","","27","","9","","24.1","","99.52","","","","","","Mainly Clear"
"2008-08-09 06:00","2008","08","09","06:00","13.8","","13.0","","95","","27","","13","","19.3","","99.59","","","","","","Mainly Clear"
"2008-08-09 07:00","2008","08","09","07:00","15.2","","13.5","","90","","27","","11","","19.3","","99.63","","","","","","Mainly Clear"
"2008-08-09 08:00","2008","08","09","08:00","17.1","","13.8","","81","","28","","9","","24.1","","99.65","","","","","","Mostly Cloudy"
"2008-08-09 09:00","2008","08","09","09:00","18.5","","13.1","","71","","24","","6","","24.1","","99.66","","","","","","Mostly Cloudy"
"2008-08-09 10:00","2008","08","09","10:00","20.7","","12.6","","60","","27","","9","","24.1","","99.66","","","","","","Mostly Cloudy"
"2008-08-09 11:00","2008","08","09","11:00","21.6","","12.4","","56","","28","","11","","24.1","","99.66","","","","","","Mostly Cloudy"
"2008-08-09 12:00","2008","08","09","12:00","22.0","","11.8","","52","","23","","9","","24.1","","99.64","","","","","","Mostly Cloudy"
"2008-08-09 13:00","2008","08","09","13:00","22.8","","13.5","","56","","23","","11","","24.1","","99.62","","26","","","","Mostly Cloudy"
"2008-08-09 14:00","2008","08","09","14:00","23.7","","11.6","","47","","20","","11","","24.1","","99.59","","26","","","","Mostly Cloudy"
"2008-08-09 15:00","2008","08","09","15:00","23.8","","12.1","","48","","20","","13","","24.1","","99.57","","26","","","","Mostly Cloudy"
"2008-08-09 16:00","2008","08","09","16:00","18.8","","13.8","","73","","31","","22","","19.3","","99.59","","","","","","Rain Showers"
"2008-08-09 17:00","2008","08","09","17:00","17.6","","15.7","","89","","30","","9","","24.1","","99.69","","","","","","Rain Showers"
"2008-08-09 18:00","2008","08","09","18:00","18.5","","15.9","","85","","","","0","","24.1","","99.67","","","","","","Mostly Cloudy"
"2008-08-09 19:00","2008","08","09","19:00","17.8","","16.0","","89","","14","","6","","24.1","","99.66","","","","","","Mostly Cloudy"
"2008-08-09 20:00","2008","08","09","20:00","17.4","","15.0","","86","","11","","6","","24.1","","99.72","","","","","","Mostly Cloudy"
"2008-08-09 21:00","2008","08","09","21:00","17.1","","14.7","","86","","10","","6","","25.0","","99.72","","","","","","Mostly Cloudy"
"2008-08-09 22:00","2008","08","09","22:00","16.7","","14.6","","87","","9","","7","","25.0","","99.67","","","","","","Mostly Cloudy"
"2008-08-09 23:00","2008","08","09","23:00","15.9","","14.3","","90","","8","","7","","25.0","","99.63","","","","","","Mainly Clear"
"2008-08-10 00:00","2008","08","10","00:00","15.5","","14.6","","94","","10","","9","","25.0","","99.63","","","","","","Mainly Clear"
"2008-08-10 01:00","2008","08","10","01:00","14.7","","13.7","","94","","11","","6","","25.0","","99.64","","","","","","Mainly Clear"
"2008-08-10 02:00","2008","08","10","02:00","14.9","","13.9","","94","","10","","7","","25.0","","99.65","","","","","","Mostly Cloudy"
"2008-08-10 03:00","2008","08","10","03:00","14.5","","13.6","","94","","23","","6","","25.0","","99.63","","","","","","Mainly Clear"
"2008-08-10 04:00","2008","08","10","04:00","14.7","","13.4","","92","","8","","4","","25.0","","99.65","","","","","","Mostly Cloudy"
"2008-08-10 05:00","2008","08","10","05:00","14.9","","13.7","","93","","6","","6","","24.1","","99.70","","","","","","Mostly Cloudy"
"2008-08-10 06:00","2008","08","10","06:00","14.4","","13.6","","95","","8","","6","","19.3","","99.72","","","","","","Mostly Cloudy"
"2008-08-10 07:00","2008","08","10","07:00","15.0","","14.0","","94","","7","","17","","24.1","","99.73","","","","","","Mostly Cloudy"
"2008-08-10 08:00","2008","08","10","08:00","15.3","","14.1","","93","","7","","13","","24.1","","99.75","","","","","","Mostly Cloudy"
"2008-08-10 09:00","2008","08","10","09:00","17.1","","14.6","","85","","9","","6","","24.1","","99.81","","","","","","Mostly Cloudy"
"2008-08-10 10:00","2008","08","10","10:00","18.7","","14.3","","76","","12","","6","","24.1","","99.87","","","","","","Mostly Cloudy"
"2008-08-10 11:00","2008","08","10","11:00","19.2","","14.1","","72","","9","","7","","24.1","","99.86","","","","","","Cloudy"
"2008-08-10 12:00","2008","08","10","12:00","20.2","","15.3","","73","","10","","7","","24.1","","99.85","","","","","","Mostly Cloudy"
"2008-08-10 13:00","2008","08","10","13:00","21.1","","15.2","","69","","12","","11","","24.1","","99.81","","25","","","","Mostly Cloudy"
"2008-08-10 14:00","2008","08","10","14:00","21.5","","14.6","","65","","9","","11","","24.1","","99.80","","25","","","","Cloudy"
"2008-08-10 15:00","2008","08","10","15:00","21.2","","14.9","","67","","14","","9","","24.1","","99.79","","25","","","","Mostly Cloudy"
"2008-08-10 16:00","2008","08","10","16:00","21.3","","14.7","","66","","11","","11","","24.1","","99.79","","25","","","","Cloudy"
"2008-08-10 17:00","2008","08","10","17:00","21.1","","15.2","","69","","9","","11","","24.1","","99.80","","25","","","","Mostly Cloudy"
"2008-08-10 18:00","2008","08","10","18:00","19.5","","14.9","","75","","6","","9","","24.1","","99.82","","","","","","Mostly Cloudy"
"2008-08-10 19:00","2008","08","10","19:00","18.4","","14.8","","80","","5","","7","","24.1","","99.79","","","","","","Mostly Cloudy"
"2008-08-10 20:00","2008","08","10","20:00","17.7","","15.2","","85","","5","","11","","24.1","","99.85","","","","","","Mostly Cloudy"
"2008-08-10 21:00","2008","08","10","21:00","17.3","","15.4","","89","","4","","9","","25.0","","99.84","","","","","","Mostly Cloudy"
"2008-08-10 22:00","2008","08","10","22:00","16.9","","15.3","","90","","3","","9","","25.0","","99.86","","","","","","Mainly Clear"
"2008-08-10 23:00","2008","08","10","23:00","17.0","","15.3","","90","","2","","7","","25.0","","99.86","","","","","","Cloudy"
"2008-08-11 00:00","2008","08","11","00:00","16.8","","15.1","","90","","2","","6","","25.0","","99.83","","","","","","Cloudy"
"2008-08-11 01:00","2008","08","11","01:00","16.7","","15.0","","90","","3","","7","","25.0","","99.81","","","","","","Cloudy"
"2008-08-11 02:00","2008","08","11","02:00","16.2","","14.9","","92","","1","","6","","25.0","","99.79","","","","","","Mainly Clear"
"2008-08-11 03:00","2008","08","11","03:00","16.2","","14.8","","91","","3","","6","","25.0","","99.77","","","","","","Mostly Cloudy"
"2008-08-11 04:00","2008","08","11","04:00","15.8","","14.9","","94","","4","","6","","24.1","","99.77","","","","","","Cloudy"
"2008-08-11 05:00","2008","08","11","05:00","15.8","","15.0","","95","","5","","7","","24.1","","99.79","","","","","","Cloudy"
"2008-08-11 06:00","2008","08","11","06:00","15.9","","15.1","","95","","5","","4","","24.1","","99.83","","","","","","Rain"
"2008-08-11 07:00","2008","08","11","07:00","16.4","","15.2","","93","","6","","9","","24.1","","99.86","","","","","","Cloudy"
"2008-08-11 08:00","2008","08","11","08:00","17.2","","15.6","","90","","6","","9","","24.1","","99.85","","","","","","Cloudy"
"2008-08-11 09:00","2008","08","11","09:00","18.4","","16.1","","86","","8","","11","","19.3","","99.88","","","","","","Cloudy"
"2008-08-11 10:00","2008","08","11","10:00","18.5","","15.5","","83","","7","","9","","19.3","","99.91","","","","","","Cloudy"
"2008-08-11 11:00","2008","08","11","11:00","19.2","","15.7","","80","","5","","11","","19.3","","99.87","","","","","","Cloudy"
"2008-08-11 12:00","2008","08","11","12:00","21.3","","16.0","","72","","5","","11","","24.1","","99.80","","26","","","","Mostly Cloudy"
"2008-08-11 13:00","2008","08","11","13:00","21.5","","16.5","","73","","1","","7","","24.1","","99.75","","26","","","","Mostly Cloudy"
"2008-08-11 14:00","2008","08","11","14:00","22.6","","14.9","","62","","","","0","","24.1","","99.70","","27","","","","Mostly Cloudy"
"2008-08-11 15:00","2008","08","11","15:00","22.4","","14.8","","62","","8","","6","","24.1","","99.67","","26","","","","Mostly Cloudy"
"2008-08-11 16:00","2008","08","11","16:00","22.2","","14.5","","62","","1","","4","","24.1","","99.64","","26","","","","Mostly Cloudy"
"2008-08-11 17:00","2008","08","11","17:00","20.4","","15.3","","73","","30","","15","","24.1","","99.64","","25","","","","Mostly Cloudy"
"2008-08-11 18:00","2008","08","11","18:00","18.8","","17.1","","90","","29","","7","","24.1","","99.67","","","","","","Mostly Cloudy"
"2008-08-11 19:00","2008","08","11","19:00","18.9","","17.4","","91","","31","","7","","24.1","","99.66","","","","","","Thunderstorms"
"2008-08-11 20:00","2008","08","11","20:00","17.9","","16.8","","93","","35","","6","","24.1","","99.65","","","","","","Mostly Cloudy"
"2008-08-11 21:00","2008","08","11","21:00","17.4","","16.5","","94","","32","","7","","24.1","","99.66","","","","","","Mostly Cloudy"
"2008-08-11 22:00","2008","08","11","22:00","16.7","","15.8","","94","","32","","7","","24.1","","99.63","","","","","","Mostly Cloudy"
"2008-08-11 23:00","2008","08","11","23:00","16.6","","15.8","","95","","30","","7","","24.1","","99.63","","","","","","Mostly Cloudy"
"2008-08-12 00:00","2008","08","12","00:00","15.8","","14.4","","91","","31","","11","","24.1","","99.61","","","","","","Mostly Cloudy"
"2008-08-12 01:00","2008","08","12","01:00","15.5","","14.2","","92","","34","","9","","25.0","","99.57","","","","","","Clear"
"2008-08-12 02:00","2008","08","12","02:00","14.4","","14.4","","100","","29","","9","","24.1","","99.53","","","","","","Clear"
"2008-08-12 03:00","2008","08","12","03:00","14.1","","14.1","","100","","31","","9","","25.0","","99.51","","","","","","Clear"
"2008-08-12 04:00","2008","08","12","04:00","14.2","","14.1","","99","","29","","7","","24.1","","99.52","","","","","","Mainly Clear"
"2008-08-12 05:00","2008","08","12","05:00","13.1","","13.0","","99","","32","","7","","24.1","","99.53","","","","","","Mainly Clear"
"2008-08-12 06:00","2008","08","12","06:00","14.8","","13.7","","93","","29","","6","","24.1","","99.56","","","","","","Mainly Clear"
"2008-08-12 07:00","2008","08","12","07:00","16.4","","14.6","","89","","31","","11","","24.1","","99.58","","","","","","Mainly Clear"
"2008-08-12 08:00","2008","08","12","08:00","17.9","","14.6","","81","","30","","15","","24.1","","99.58","","","","","","Mainly Clear"
"2008-08-12 09:00","2008","08","12","09:00","19.1","","14.9","","77","","29","","19","","24.1","","99.59","","","","","","Mainly Clear"
"2008-08-12 10:00","2008","08","12","10:00","20.5","","14.7","","69","","29","","19","","24.1","","99.60","","","","","","Mainly Clear"
"2008-08-12 11:00","2008","08","12","11:00","21.1","","13.3","","61","","28","","19","","24.1","","99.60","","","","","","Mainly Clear"
"2008-08-12 12:00","2008","08","12","12:00","21.2","","11.6","","54","","28","","19","","24.1","","99.54","","","","","","Mainly Clear"
"2008-08-12 13:00","2008","08","12","13:00","22.0","","11.8","","52","","29","","20","","24.1","","99.52","","","","","","Mainly Clear"
"2008-08-12 14:00","2008","08","12","14:00","22.3","","12.1","","52","","30","","24","","24.1","","99.49","","25","","","","Mainly Clear"
"2008-08-12 15:00","2008","08","12","15:00","22.5","","11.7","","50","","28","","17","","24.1","","99.45","","25","","","","Mainly Clear"
"2008-08-12 16:00","2008","08","12","16:00","22.1","","10.8","","49","","28","","20","","24.1","","99.43","","","","","","Mainly Clear"
"2008-08-12 17:00","2008","08","12","17:00","21.6","","10.1","","48","","29","","20","","24.1","","99.44","","","","","","Mainly Clear"
"2008-08-12 18:00","2008","08","12","18:00","20.9","","10.2","","50","","27","","17","","24.1","","99.45","","","","","","Mainly Clear"
"2008-08-12 19:00","2008","08","12","19:00","18.7","","10.6","","59","","27","","11","","24.1","","99.48","","","","","","Mainly Clear"
"2008-08-12 20:00","2008","08","12","20:00","17.4","","10.7","","65","","28","","6","","25.0","","99.52","","","","","","Mainly Clear"
"2008-08-12 21:00","2008","08","12","21:00","16.4","","11.5","","73","","26","","6","","25.0","","99.54","","","","","","Clear"
"2008-08-12 22:00","2008","08","12","22:00","15.8","","11.4","","75","","24","","4","","25.0","","99.52","","","","","","Clear"
"2008-08-12 23:00","2008","08","12","23:00","14.5","","11.0","","79","","26","","9","","25.0","","99.53","","","","","","Clear"
"2008-08-13 00:00","2008","08","13","00:00","13.9","","11.1","","83","","25","","6","","25.0","","99.51","","","","","","Mostly Cloudy"
"2008-08-13 01:00","2008","08","13","01:00","13.7","","11.0","","84","","25","","9","","25.0","","99.50","","","","","","Mainly Clear"
"2008-08-13 02:00","2008","08","13","02:00","13.2","","10.9","","86","","25","","9","","25.0","","99.49","","","","","","Mainly Clear"
"2008-08-13 03:00","2008","08","13","03:00","12.5","","10.9","","90","","25","","6","","25.0","","99.47","","","","","","Mainly Clear"
"2008-08-13 04:00","2008","08","13","04:00","12.1","","10.8","","92","","24","","6","","25.0","","99.48","","","","","","Mainly Clear"
"2008-08-13 05:00","2008","08","13","05:00","11.9","","10.9","","94","","","","0","","24.1","","99.50","","","","","","Mostly Cloudy"
"2008-08-13 06:00","2008","08","13","06:00","13.3","","11.7","","90","","24","","4","","24.1","","99.52","","","","","","Cloudy"
"2008-08-13 07:00","2008","08","13","07:00","14.5","","13.0","","91","","24","","7","","24.1","","99.54","","","","","","Mostly Cloudy"
"2008-08-13 08:00","2008","08","13","08:00","15.4","","13.7","","90","","27","","7","","24.1","","99.58","","","","","","Mostly Cloudy"
"2008-08-13 09:00","2008","08","13","09:00","15.6","","12.8","","83","","27","","13","","24.1","","99.58","","","","","","Mostly Cloudy"
"2008-08-13 10:00","2008","08","13","10:00","15.5","","13.5","","88","","25","","9","","24.1","","99.61","","","","","","Rain"
"2008-08-13 11:00","2008","08","13","11:00","15.9","","14.3","","90","","24","","4","","24.1","","99.64","","","","","","Rain"
"2008-08-13 12:00","2008","08","13","12:00","16.4","","14.4","","88","","28","","6","","24.1","","99.64","","","","","","Mostly Cloudy"
"2008-08-13 13:00","2008","08","13","13:00","17.4","","14.1","","81","","","","0","","24.1","","99.61","","","","","","Mostly Cloudy"
"2008-08-13 14:00","2008","08","13","14:00","19.2","","12.4","","65","","26","","6","","24.1","","99.57","","","","","","Mostly Cloudy"
"2008-08-13 15:00","2008","08","13","15:00","20.4","","11.6","","57","","25","","7","","24.1","","99.50","","","","","","Mostly Cloudy"
"2008-08-13 16:00","2008","08","13","16:00","20.8","","10.8","","53","","25","","6","","24.1","","99.50","","","","","","Mainly Clear"
"2008-08-13 17:00","2008","08","13","17:00","21.1","","10.6","","51","","23","","4","","24.1","","99.50","","","","","","Mainly Clear"
"2008-08-13 18:00","2008","08","13","18:00","20.8","","11.3","","55","","20","","6","","24.1","","99.53","","","","","","Mainly Clear"
"2008-08-13 19:00","2008","08","13","19:00","18.8","","11.8","","64","","18","","6","","24.1","","99.56","","","","","","Mainly Clear"
"2008-08-13 20:00","2008","08","13","20:00","17.8","","12.8","","73","","21","","6","","25.0","","99.61","","","","","","Mainly Clear"
"2008-08-13 21:00","2008","08","13","21:00","16.7","","13.0","","79","","18","","7","","25.0","","99.63","","","","","","Clear"
"2008-08-13 22:00","2008","08","13","22:00","15.4","","13.0","","86","","20","","6","","25.0","","99.63","","","","","","Clear"
"2008-08-13 23:00","2008","08","13","23:00","12.9","","11.9","","94","","18","","6","","25.0","","99.64","","","","","","Clear"
"2008-08-14 00:00","2008","08","14","00:00","14.2","","12.9","","92","","19","","4","","25.0","","99.65","","","","","","Clear"
"2008-08-14 01:00","2008","08","14","01:00","14.1","","12.8","","92","","24","","7","","25.0","","99.64","","","","","","Clear"
"2008-08-14 02:00","2008","08","14","02:00","12.5","","12.0","","97","","26","","4","","25.0","","99.62","","","","","","Clear"
"2008-08-14 03:00","2008","08","14","03:00","13.0","","12.3","","96","","34","","4","","25.0","","99.62","","","","","","Clear"
"2008-08-14 04:00","2008","08","14","04:00","12.1","","11.7","","97","","15","","6","","25.0","","99.62","","","","","","Clear"
"2008-08-14 05:00","2008","08","14","05:00","12.2","","12.2","","100","","","","0","","24.1","","99.64","","","","","","Mainly Clear"
"2008-08-14 06:00","2008","08","14","06:00","12.0","","11.6","","97","","31","","7","","12.9","","99.68","","","","","","Mainly Clear"
"2008-08-14 07:00","2008","08","14","07:00","15.0","","13.7","","92","","35","","4","","12.9","","99.71","","","","","","Clear"
"2008-08-14 08:00","2008","08","14","08:00","16.9","","14.0","","83","","","","0","","24.1","","99.74","","","","","","Clear"
"2008-08-14 09:00","2008","08","14","09:00","18.4","","13.6","","74","","32","","6","","24.1","","99.77","","","","","","Clear"
"2008-08-14 10:00","2008","08","14","10:00","20.5","","13.6","","65","","","","0","","24.1","","99.78","","","","","","Mainly Clear"
"2008-08-14 11:00","2008","08","14","11:00","21.6","","13.6","","60","","25","","6","","24.1","","99.77","","25","","","","Mainly Clear"
"2008-08-14 12:00","2008","08","14","12:00","22.5","","13.8","","58","","25","","9","","24.1","","99.76","","26","","","","Mainly Clear"
"2008-08-14 13:00","2008","08","14","13:00","23.4","","10.7","","45","","23","","13","","24.1","","99.73","","25","","","","Mainly Clear"
"2008-08-14 14:00","2008","08","14","14:00","24.5","","10.1","","40","","29","","11","","24.1","","99.73","","26","","","","Mainly Clear"
"2008-08-14 15:00","2008","08","14","15:00","24.7","","11.5","","44","","29","","11","","24.1","","99.72","","27","","","","Mainly Clear"
"2008-08-14 16:00","2008","08","14","16:00","23.8","","12.5","","49","","28","","15","","24.1","","99.76","","26","","","","Mainly Clear"
"2008-08-14 17:00","2008","08","14","17:00","23.6","","11.9","","48","","32","","15","","24.1","","99.78","","26","","","","Mainly Clear"
"2008-08-14 18:00","2008","08","14","18:00","23.0","","10.8","","46","","31","","9","","24.1","","99.78","","25","","","","Mainly Clear"
"2008-08-14 19:00","2008","08","14","19:00","20.5","","12.1","","59","","35","","9","","24.1","","99.81","","","","","","Mostly Cloudy"
"2008-08-14 20:00","2008","08","14","20:00","20.1","","11.7","","58","","31","","6","","25.0","","99.85","","","","","","Mostly Cloudy"
"2008-08-14 21:00","2008","08","14","21:00","18.3","","12.2","","68","","28","","6","","25.0","","99.92","","","","","","Mostly Cloudy"
"2008-08-14 22:00","2008","08","14","22:00","18.4","","12.8","","70","","","","0","","25.0","","99.94","","","","","","Mainly Clear"
"2008-08-14 23:00","2008","08","14","23:00","17.5","","13.1","","75","","30","","4","","25.0","","99.98","","","","","","Mostly Cloudy"
"2008-08-15 00:00","2008","08","15","00:00","16.9","","13.3","","79","","","","0","","25.0","","99.99","","","","","","Mainly Clear"
"2008-08-15 01:00","2008","08","15","01:00","15.0","","13.1","","88","","29","","6","","25.0","","100.02","","","","","","Cloudy"
"2008-08-15 02:00","2008","08","15","02:00","15.0","","13.2","","89","","","","0","","25.0","","100.02","","","","","","Cloudy"
"2008-08-15 03:00","2008","08","15","03:00","15.1","","13.4","","90","","26","","4","","25.0","","100.02","","","","","","Mostly Cloudy"
"2008-08-15 04:00","2008","08","15","04:00","14.1","","13.3","","95","","31","","6","","25.0","","100.03","","","","","","Mostly Cloudy"
"2008-08-15 05:00","2008","08","15","05:00","13.9","","13.6","","98","","31","","6","","24.1","","100.07","","","","","","Mostly Cloudy"
"2008-08-15 06:00","2008","08","15","06:00","14.2","","13.6","","96","","28","","4","","24.1","","100.12","","","","","","Mostly Cloudy"
"2008-08-15 07:00","2008","08","15","07:00","16.4","","14.7","","90","","29","","6","","24.1","","100.21","","","","","","Mostly Cloudy"
"2008-08-15 08:00","2008","08","15","08:00","18.7","","14.8","","78","","1","","6","","24.1","","100.22","","","","","","Mostly Cloudy"
"2008-08-15 09:00","2008","08","15","09:00","20.5","","14.6","","69","","32","","6","","24.1","","100.23","","","","","","Mostly Cloudy"
"2008-08-15 10:00","2008","08","15","10:00","21.9","","14.3","","62","","35","","4","","24.1","","100.25","","25","","","","Mostly Cloudy"
"2008-08-15 11:00","2008","08","15","11:00","22.5","","13.6","","57","","32","","6","","24.1","","100.23","","26","","","","Mainly Clear"
"2008-08-15 12:00","2008","08","15","12:00","23.1","","13.5","","55","","34","","11","","24.1","","100.18","","26","","","","Mainly Clear"
"2008-08-15 13:00","2008","08","15","13:00","23.5","","12.9","","51","","31","","9","","24.1","","100.16","","26","","","","Mostly Cloudy"
"2008-08-15 14:00","2008","08","15","14:00","23.1","","12.6","","52","","31","","7","","24.1","","100.14","","26","","","","Mostly Cloudy"
"2008-08-15 15:00","2008","08","15","15:00","23.2","","13.1","","53","","","","0","","24.1","","100.15","","26","","","","Rain Showers"
"2008-08-15 16:00","2008","08","15","16:00","16.8","","14.6","","87","","18","","11","","24.1","","100.19","","","","","","Thunderstorms,Rain Showers"
"2008-08-15 17:00","2008","08","15","17:00","16.7","","15.0","","90","","14","","4","","24.1","","100.25","","","","","","Rain Showers"
"2008-08-15 18:00","2008","08","15","18:00","16.7","","15.5","","93","","20","","7","","24.1","","100.19","","","","","","Rain Showers"
"2008-08-15 19:00","2008","08","15","19:00","16.6","","15.3","","92","","20","","6","","24.1","","100.25","","","","","","Mostly Cloudy"
"2008-08-15 20:00","2008","08","15","20:00","16.5","","14.9","","90","","20","","6","","25.0","","100.28","","","","","","Mainly Clear"
"2008-08-15 21:00","2008","08","15","21:00","16.1","","15.1","","94","","24","","4","","25.0","","100.29","","","","","","Mainly Clear"
"2008-08-15 22:00","2008","08","15","22:00","15.0","","14.4","","96","","17","","6","","25.0","","100.25","","","","","","Mainly Clear"
"2008-08-15 23:00","2008","08","15","23:00","15.3","","14.5","","95","","20","","4","","25.0","","100.25","","","","","","Mainly Clear"
"2008-08-16 00:00","2008","08","16","00:00","14.2","","13.8","","97","","20","","6","","25.0","","100.22","","","","","","Mainly Clear"
"2008-08-16 01:00","2008","08","16","01:00","13.0","","13.0","","100","","","","0","","2.4","","100.21","","","","","","Fog"
"2008-08-16 02:00","2008","08","16","02:00","13.1","","13.1","","100","","26","","6","","25.0","","100.18","","","","","","Mainly Clear"
"2008-08-16 03:00","2008","08","16","03:00","13.1","","12.9","","99","","25","","6","","25.0","","100.14","","","","","","Mainly Clear"
"2008-08-16 04:00","2008","08","16","04:00","13.2","","13.0","","99","","20","","6","","25.0","","100.12","","","","","","Mainly Clear"
"2008-08-16 05:00","2008","08","16","05:00","12.8","","12.6","","99","","20","","6","","19.3","","100.10","","","","","","Mainly Clear"
"2008-08-16 06:00","2008","08","16","06:00","13.4","","13.1","","98","","24","","4","","19.3","","100.12","","","","","","Mainly Clear"
"2008-08-16 07:00","2008","08","16","07:00","14.3","","13.8","","97","","22","","6","","19.3","","100.13","","","","","","Mainly Clear"
"2008-08-16 08:00","2008","08","16","08:00","16.4","","15.1","","92","","25","","4","","19.3","","100.13","","","","","","Mainly Clear"
"2008-08-16 09:00","2008","08","16","09:00","18.1","","15.8","","86","","22","","6","","19.3","","100.09","","","","","","Mainly Clear"
"2008-08-16 10:00","2008","08","16","10:00","20.2","","16.5","","79","","22","","13","","24.1","","100.09","","25","","","","Mainly Clear"
"2008-08-16 11:00","2008","08","16","11:00","21.8","","16.7","","73","","27","","13","","24.1","","100.03","","27","","","","Mainly Clear"
"2008-08-16 12:00","2008","08","16","12:00","22.8","","16.3","","67","","28","","6","","24.1","","99.96","","28","","","","Mainly Clear"
"2008-08-16 13:00","2008","08","16","13:00","24.4","","15.2","","57","","27","","13","","24.1","","99.86","","28","","","","Mainly Clear"
"2008-08-16 14:00","2008","08","16","14:00","24.9","","14.6","","53","","30","","17","","24.1","","99.80","","29","","","","Mainly Clear"
"2008-08-16 15:00","2008","08","16","15:00","25.3","","13.5","","48","","26","","19","","24.1","","99.74","","28","","","","Mainly Clear"
"2008-08-16 16:00","2008","08","16","16:00","24.8","","14.1","","51","","27","","13","","24.1","","99.70","","28","","","","Mainly Clear"
"2008-08-16 17:00","2008","08","16","17:00","24.8","","14.2","","52","","26","","15","","24.1","","99.65","","28","","","","Mainly Clear"
"2008-08-16 18:00","2008","08","16","18:00","24.0","","11.9","","47","","27","","9","","24.1","","99.64","","26","","","","Mainly Clear"
"2008-08-16 19:00","2008","08","16","19:00","22.0","","12.4","","54","","26","","7","","24.1","","99.66","","","","","","Mainly Clear"
"2008-08-16 20:00","2008","08","16","20:00","21.2","","12.5","","58","","22","","7","","24.1","","99.70","","","","","","Mainly Clear"
"2008-08-16 21:00","2008","08","16","21:00","19.4","","12.9","","66","","24","","9","","25.0","","99.70","","","","","","Mainly Clear"
"2008-08-16 22:00","2008","08","16","22:00","18.1","","13.0","","72","","25","","7","","25.0","","99.67","","","","","","Mainly Clear"
"2008-08-16 23:00","2008","08","16","23:00","18.0","","12.9","","72","","25","","13","","25.0","","99.68","","","","","","Mainly Clear"
"2008-08-17 00:00","2008","08","17","00:00","16.8","","12.9","","78","","22","","7","","25.0","","99.68","","","","","","Mainly Clear"
"2008-08-17 01:00","2008","08","17","01:00","16.6","","12.6","","77","","23","","7","","25.0","","99.65","","","","","","Mainly Clear"
"2008-08-17 02:00","2008","08","17","02:00","15.8","","12.7","","82","","23","","11","","25.0","","99.64","","","","","","Mainly Clear"
"2008-08-17 03:00","2008","08","17","03:00","15.9","","13.0","","83","","23","","9","","25.0","","99.66","","","","","","Mainly Clear"
"2008-08-17 04:00","2008","08","17","04:00","15.7","","13.4","","86","","22","","7","","24.1","","99.66","","","","","","Rain Showers"
"2008-08-17 05:00","2008","08","17","05:00","15.6","","13.9","","90","","24","","9","","24.1","","99.69","","","","","","Rain Showers"
"2008-08-17 06:00","2008","08","17","06:00","16.1","","14.3","","89","","26","","7","","24.1","","99.72","","","","","","Mostly Cloudy"
"2008-08-17 07:00","2008","08","17","07:00","17.3","","15.0","","86","","26","","7","","24.1","","99.75","","","","","","Mostly Cloudy"
"2008-08-17 08:00","2008","08","17","08:00","19.5","","15.8","","79","","29","","13","","24.1","","99.79","","","","","","Mainly Clear"
"2008-08-17 09:00","2008","08","17","09:00","20.4","","16.2","","77","","29","","11","","24.1","","99.85","","25","","","","Mainly Clear"
"2008-08-17 10:00","2008","08","17","10:00","21.2","","15.8","","71","","35","","9","","24.1","","99.84","","26","","","","Mostly Cloudy"
"2008-08-17 11:00","2008","08","17","11:00","22.7","","15.5","","64","","31","","11","","24.1","","99.82","","27","","","","Mostly Cloudy"
"2008-08-17 12:00","2008","08","17","12:00","23.3","","14.8","","59","","28","","11","","24.1","","99.80","","27","","","","Mostly Cloudy"
"2008-08-17 13:00","2008","08","17","13:00","24.4","","15.1","","56","","25","","19","","24.1","","99.74","","28","","","","Mainly Clear"
"2008-08-17 14:00","2008","08","17","14:00","25.2","","11.8","","43","","31","","22","","24.1","","99.74","","27","","","","Mainly Clear"
"2008-08-17 15:00","2008","08","17","15:00","24.9","","11.1","","42","","31","","28","","24.1","","99.76","","27","","","","Mainly Clear"
"2008-08-17 16:00","2008","08","17","16:00","24.8","","11.2","","42","","31","","20","","24.1","","99.75","","27","","","","Mainly Clear"
"2008-08-17 17:00","2008","08","17","17:00","23.3","","12.2","","50","","29","","11","","24.1","","99.72","","26","","","","Mostly Cloudy"
"2008-08-17 18:00","2008","08","17","18:00","23.7","","13.1","","51","","31","","9","","24.1","","99.72","","27","","","","Mostly Cloudy"
"2008-08-17 19:00","2008","08","17","19:00","22.8","","12.5","","52","","","","0","","24.1","","99.72","","25","","","","Mostly Cloudy"
"2008-08-17 20:00","2008","08","17","20:00","21.6","","12.8","","57","","17","","4","","25.0","","99.73","","","","","","Mainly Clear"
"2008-08-17 21:00","2008","08","17","21:00","18.4","","14.2","","77","","16","","9","","25.0","","99.71","","","","","","Mainly Clear"
"2008-08-17 22:00","2008","08","17","22:00","18.3","","13.6","","74","","16","","9","","25.0","","99.68","","","","","","Mainly Clear"
"2008-08-17 23:00","2008","08","17","23:00","17.4","","15.3","","87","","18","","6","","25.0","","99.70","","","","","","Clear"
"2008-08-18 00:00","2008","08","18","00:00","17.9","","16.5","","92","","18","","7","","25.0","","99.68","","","","","","Mostly Cloudy"
"2008-08-18 01:00","2008","08","18","01:00","18.1","","16.9","","93","","21","","7","","25.0","","99.68","","","","","","Mostly Cloudy"
"2008-08-18 02:00","2008","08","18","02:00","17.7","","16.7","","94","","23","","6","","25.0","","99.65","","","","","","Clear"
"2008-08-18 03:00","2008","08","18","03:00","17.1","","16.3","","95","","19","","7","","24.1","","99.63","","","","","","Clear"
"2008-08-18 04:00","2008","08","18","04:00","17.4","","16.2","","93","","20","","7","","25.0","","99.58","","","","","","Clear"
"2008-08-18 05:00","2008","08","18","05:00","18.0","","16.6","","92","","20","","6","","24.1","","99.57","","","","","","Mainly Clear"
"2008-08-18 06:00","2008","08","18","06:00","18.0","","16.9","","93","","20","","7","","19.3","","99.60","","","","","","Mainly Clear"
"2008-08-18 07:00","2008","08","18","07:00","18.8","","17.4","","92","","21","","9","","19.3","","99.59","","","","","","Mostly Cloudy"
"2008-08-18 08:00","2008","08","18","08:00","21.1","","18.3","","84","","21","","17","","19.3","","99.64","","27","","","","Mostly Cloudy"
"2008-08-18 09:00","2008","08","18","09:00","22.9","","18.8","","78","","23","","22","","24.1","","99.52","","30","","","","Mostly Cloudy"
"2008-08-18 10:00","2008","08","18","10:00","24.9","","19.5","","72","","21","","19","","24.1","","99.48","","32","","","","Mostly Cloudy"
"2008-08-18 11:00","2008","08","18","11:00","26.3","","19.7","","67","","21","","22","","24.1","","99.43","","34","","","","Mostly Cloudy"
"2008-08-18 12:00","2008","08","18","12:00","27.7","","19.0","","59","","21","","28","","24.1","","99.36","","34","","","","Mainly Clear"
"2008-08-18 13:00","2008","08","18","13:00","28.2","","18.6","","56","","21","","30","","24.1","","99.22","","35","","","","Mostly Cloudy"
"2008-08-18 14:00","2008","08","18","14:00","28.1","","18.7","","57","","23","","33","","24.1","","99.23","","35","","","","Mostly Cloudy"
"2008-08-18 15:00","2008","08","18","15:00","27.2","","19.2","","62","","22","","20","","24.1","","99.19","","34","","","","Mostly Cloudy"
"2008-08-18 16:00","2008","08","18","16:00","17.3","","17.0","","98","","10","","9","","12.9","","99.42","","","","","","Thunderstorms,Rain Showers"
"2008-08-18 17:00","2008","08","18","17:00","17.6","","17.1","","97","","20","","11","","19.3","","99.57","","","","","","Thunderstorms,Rain Showers"
"2008-08-18 18:00","2008","08","18","18:00","17.6","","17.2","","98","","18","","7","","19.3","","99.54","","","","","","Rain Showers"
"2008-08-18 19:00","2008","08","18","19:00","17.9","","17.0","","94","","21","","6","","19.3","","99.59","","","","","","Mostly Cloudy"
"2008-08-18 20:00","2008","08","18","20:00","17.9","","17.3","","96","","25","","7","","19.3","","99.66","","","","","","Cloudy"
"2008-08-18 21:00","2008","08","18","21:00","17.3","","15.3","","88","","35","","11","","19.3","","99.74","","","","","","Rain Showers"
"2008-08-18 22:00","2008","08","18","22:00","16.7","","15.0","","90","","35","","15","","19.3","","99.74","","","","","","Rain Showers"
"2008-08-18 23:00","2008","08","18","23:00","15.1","","12.2","","83","","34","","22","","24.1","","99.84","","","","","","Mostly Cloudy"
"2008-08-19 00:00","2008","08","19","00:00","14.2","","11.0","","81","","35","","20","","24.1","","99.91","","","","","","Mainly Clear"
"2008-08-19 01:00","2008","08","19","01:00","13.0","","10.7","","86","","34","","17","","24.1","","99.98","","","","","","Mainly Clear"
"2008-08-19 02:00","2008","08","19","02:00","12.5","","10.2","","86","","35","","17","","24.1","","100.04","","","","","","Mainly Clear"
"2008-08-19 03:00","2008","08","19","03:00","12.0","","10.0","","88","","33","","22","","24.1","","100.09","","","","","","Mainly Clear"
"2008-08-19 04:00","2008","08","19","04:00","11.4","","9.7","","89","","32","","17","","24.1","","100.14","","","","","","Mostly Cloudy"
"2008-08-19 05:00","2008","08","19","05:00","11.1","","9.0","","87","","33","","13","","24.1","","100.23","","","","","","Mainly Clear"
"2008-08-19 06:00","2008","08","19","06:00","10.9","","8.8","","87","","31","","17","","24.1","","100.33","","","","","","Mainly Clear"
"2008-08-19 07:00","2008","08","19","07:00","12.1","","9.0","","81","","33","","20","","24.1","","100.41","","","","","","Mainly Clear"
"2008-08-19 08:00","2008","08","19","08:00","12.3","","8.2","","76","","31","","20","","24.1","","100.50","","","","","","Mainly Clear"
"2008-08-19 09:00","2008","08","19","09:00","13.1","","8.1","","72","","33","","22","","24.1","","100.53","","","","","","Mostly Cloudy"
"2008-08-19 10:00","2008","08","19","10:00","14.2","","7.8","","65","","35","","19","","24.1","","100.56","","","","","","Mostly Cloudy"
"2008-08-19 11:00","2008","08","19","11:00","14.9","","6.9","","59","","32","","15","","24.1","","100.58","","","","","","Mainly Clear"
"2008-08-19 12:00","2008","08","19","12:00","17.0","","7.8","","55","","35","","17","","24.1","","100.58","","","","","","Mainly Clear"
"2008-08-19 13:00","2008","08","19","13:00","16.7","","7.1","","53","","34","","24","","24.1","","100.61","","","","","","Mainly Clear"
"2008-08-19 14:00","2008","08","19","14:00","17.6","","7.2","","50","","33","","17","","24.1","","100.61","","","","","","Mainly Clear"
"2008-08-19 15:00","2008","08","19","15:00","18.9","","7.8","","48","","35","","19","","24.1","","100.59","","","","","","Mainly Clear"
"2008-08-19 16:00","2008","08","19","16:00","19.2","","7.4","","46","","31","","19","","24.1","","100.60","","","","","","Mainly Clear"
"2008-08-19 17:00","2008","08","19","17:00","18.7","","7.0","","46","","36","","17","","24.1","","100.62","","","","","","Mainly Clear"
"2008-08-19 18:00","2008","08","19","18:00","17.8","","6.5","","47","","34","","19","","24.1","","100.65","","","","","","Mostly Cloudy"
"2008-08-19 19:00","2008","08","19","19:00","16.6","","7.0","","53","","36","","9","","24.1","","100.69","","","","","","Mostly Cloudy"
"2008-08-19 20:00","2008","08","19","20:00","15.7","","6.7","","55","","35","","13","","25.0","","100.78","","","","","","Mainly Clear"
"2008-08-19 21:00","2008","08","19","21:00","15.6","","6.3","","54","","35","","15","","25.0","","100.84","","","","","","Mostly Cloudy"
"2008-08-19 22:00","2008","08","19","22:00","12.0","","7.1","","72","","35","","9","","25.0","","100.86","","","","","","Mainly Clear"
"2008-08-19 23:00","2008","08","19","23:00","12.4","","6.7","","68","","36","","9","","25.0","","100.86","","","","","","Clear"
"2008-08-20 00:00","2008","08","20","00:00","11.5","","8.1","","80","","28","","6","","25.0","","100.88","","","","","","Clear"
"2008-08-20 01:00","2008","08","20","01:00","10.7","","7.0","","78","","32","","9","","25.0","","100.87","","","","","","Clear"
"2008-08-20 02:00","2008","08","20","02:00","9.8","","6.4","","79","","32","","11","","25.0","","100.87","","","","","","Clear"
"2008-08-20 03:00","2008","08","20","03:00","10.4","","8.0","","85","","27","","6","","25.0","","100.89","","","","","","Clear"
"2008-08-20 04:00","2008","08","20","04:00","8.8","","7.8","","93","","29","","4","","25.0","","100.92","","","","","","Clear"
"2008-08-20 05:00","2008","08","20","05:00","8.2","","7.2","","93","","27","","6","","24.1","","100.97","","","","","","Mainly Clear"
"2008-08-20 06:00","2008","08","20","06:00","9.4","","8.1","","92","","27","","6","","24.1","","101.04","","","","","","Mainly Clear"
"2008-08-20 07:00","2008","08","20","07:00","11.7","","9.6","","87","","27","","6","","24.1","","101.11","","","","","","Mainly Clear"
"2008-08-20 08:00","2008","08","20","08:00","14.1","","10.0","","76","","30","","11","","24.1","","101.13","","","","","","Mainly Clear"
"2008-08-20 09:00","2008","08","20","09:00","16.2","","10.4","","68","","28","","9","","24.1","","101.12","","","","","","Mainly Clear"
"2008-08-20 10:00","2008","08","20","10:00","18.1","","10.8","","62","","29","","13","","24.1","","101.15","","","","","","Mostly Cloudy"
"2008-08-20 11:00","2008","08","20","11:00","19.5","","9.9","","54","","29","","7","","24.1","","101.09","","","","","","Mostly Cloudy"
"2008-08-20 12:00","2008","08","20","12:00","20.2","","8.5","","47","","28","","19","","24.1","","101.06","","","","","","Mainly Clear"
"2008-08-20 13:00","2008","08","20","13:00","20.6","","9.2","","48","","29","","15","","24.1","","101.01","","","","","","Mostly Cloudy"
"2008-08-20 14:00","2008","08","20","14:00","20.8","","9.3","","48","","30","","9","","24.1","","100.94","","","","","","Mostly Cloudy"
"2008-08-20 15:00","2008","08","20","15:00","21.7","","9.4","","45","","24","","9","","24.1","","100.91","","","","","","Mostly Cloudy"
"2008-08-20 16:00","2008","08","20","16:00","21.7","","8.5","","43","","28","","13","","24.1","","100.89","","","","","","Mostly Cloudy"
"2008-08-20 17:00","2008","08","20","17:00","21.6","","9.2","","45","","28","","17","","24.1","","100.88","","","","","","Mostly Cloudy"
"2008-08-20 18:00","2008","08","20","18:00","20.5","","9.7","","50","","28","","11","","24.1","","100.86","","","","","","Cloudy"
"2008-08-20 19:00","2008","08","20","19:00","18.9","","9.6","","55","","26","","6","","24.1","","100.84","","","","","","Cloudy"
"2008-08-20 20:00","2008","08","20","20:00","18.0","","10.4","","61","","20","","7","","25.0","","100.84","","","","","","Mostly Cloudy"
"2008-08-20 21:00","2008","08","20","21:00","17.0","","10.9","","67","","19","","6","","25.0","","100.85","","","","","","Mainly Clear"
"2008-08-20 22:00","2008","08","20","22:00","15.3","","11.3","","77","","18","","6","","25.0","","100.89","","","","","","Clear"
"2008-08-20 23:00","2008","08","20","23:00","14.7","","11.3","","80","","20","","7","","25.0","","100.92","","","","","","Clear"
"2008-08-21 00:00","2008","08","21","00:00","14.1","","11.4","","84","","19","","9","","25.0","","100.93","","","","","","Clear"
"2008-08-21 01:00","2008","08","21","01:00","14.0","","11.7","","86","","22","","9","","25.0","","100.93","","","","","","Clear"
"2008-08-21 02:00","2008","08","21","02:00","13.1","","11.6","","91","","22","","6","","25.0","","100.95","","","","","","Clear"
"2008-08-21 03:00","2008","08","21","03:00","12.8","","11.7","","93","","23","","7","","25.0","","101.00","","","","","","Clear"
"2008-08-21 04:00","2008","08","21","04:00","12.3","","11.6","","95","","23","","6","","25.0","","101.03","","","","","","Clear"
"2008-08-21 05:00","2008","08","21","05:00","11.8","","11.3","","97","","24","","6","","24.1","","101.05","","","","","","Mainly Clear"
"2008-08-21 06:00","2008","08","21","06:00","11.9","","11.3","","96","","23","","6","","24.1","","101.05","","","","","","Mainly Clear"
"2008-08-21 07:00","2008","08","21","07:00","13.9","","12.5","","91","","26","","6","","24.1","","101.09","","","","","","Mainly Clear"
"2008-08-21 08:00","2008","08","21","08:00","17.0","","13.9","","82","","24","","4","","24.1","","101.11","","","","","","Mainly Clear"
"2008-08-21 09:00","2008","08","21","09:00","19.4","","14.6","","74","","26","","4","","24.1","","101.10","","","","","","Mainly Clear"
"2008-08-21 10:00","2008","08","21","10:00","20.9","","13.6","","63","","27","","9","","24.1","","101.11","","","","","","Clear"
"2008-08-21 11:00","2008","08","21","11:00","23.0","","13.5","","55","","18","","7","","24.1","","101.09","","26","","","","Clear"
"2008-08-21 12:00","2008","08","21","12:00","23.8","","13.7","","53","","23","","17","","24.1","","101.09","","27","","","","Clear"
"2008-08-21 13:00","2008","08","21","13:00","24.9","","13.3","","48","","24","","15","","24.1","","101.07","","28","","","","Clear"
"2008-08-21 14:00","2008","08","21","14:00","25.5","","12.5","","44","","21","","15","","24.1","","101.03","","28","","","","Clear"
"2008-08-21 15:00","2008","08","21","15:00","25.9","","12.4","","43","","20","","11","","24.1","","101.01","","28","","","","Mainly Clear"
"2008-08-21 16:00","2008","08","21","16:00","26.1","","12.4","","43","","24","","11","","24.1","","100.98","","29","","","","Mainly Clear"
"2008-08-21 17:00","2008","08","21","17:00","25.4","","13.7","","48","","21","","7","","24.1","","100.97","","29","","","","Mainly Clear"
"2008-08-21 18:00","2008","08","21","18:00","24.6","","14.5","","53","","20","","7","","24.1","","100.96","","28","","","","Mostly Cloudy"
"2008-08-21 19:00","2008","08","21","19:00","22.3","","15.0","","63","","19","","7","","24.1","","100.97","","26","","","","Cloudy"
"2008-08-21 20:00","2008","08","21","20:00","20.1","","15.0","","72","","17","","7","","25.0","","101.01","","","","","","Cloudy"
"2008-08-21 21:00","2008","08","21","21:00","19.2","","14.8","","76","","18","","7","","25.0","","101.03","","","","","","Cloudy"
"2008-08-21 22:00","2008","08","21","22:00","18.8","","14.2","","75","","19","","7","","25.0","","101.05","","","","","","Mainly Clear"
"2008-08-21 23:00","2008","08","21","23:00","18.0","","14.0","","77","","20","","7","","25.0","","101.06","","","","","","Mainly Clear"
"2008-08-22 00:00","2008","08","22","00:00","16.9","","13.6","","81","","19","","4","","25.0","","101.07","","","","","","Clear"
"2008-08-22 01:00","2008","08","22","01:00","15.6","","13.2","","86","","","","0","","25.0","","101.07","","","","","","Clear"
"2008-08-22 02:00","2008","08","22","02:00","14.6","","12.8","","89","","17","","6","","25.0","","101.11","","","","","","Clear"
"2008-08-22 03:00","2008","08","22","03:00","14.4","","12.6","","89","","","","0","","25.0","","101.15","","","","","","Clear"
"2008-08-22 04:00","2008","08","22","04:00","14.4","","12.6","","89","","","","0","","25.0","","101.17","","","","","","Clear"
"2008-08-22 05:00","2008","08","22","05:00","13.1","","11.8","","92","","8","","4","","24.1","","101.19","","","","","","Mainly Clear"
"2008-08-22 06:00","2008","08","22","06:00","14.6","","12.7","","88","","7","","4","","24.1","","101.23","","","","","","Mainly Clear"
"2008-08-22 07:00","2008","08","22","07:00","16.3","","14.0","","86","","9","","7","","24.1","","101.28","","","","","","Mainly Clear"
"2008-08-22 08:00","2008","08","22","08:00","18.9","","15.0","","78","","8","","6","","24.1","","101.29","","","","","","Mainly Clear"
"2008-08-22 09:00","2008","08","22","09:00","21.2","","16.1","","73","","13","","9","","24.1","","101.30","","26","","","","Mainly Clear"
"2008-08-22 10:00","2008","08","22","10:00","23.3","","17.2","","69","","14","","7","","24.1","","101.29","","29","","","","Mostly Cloudy"
"2008-08-22 11:00","2008","08","22","11:00","25.3","","16.7","","59","","12","","9","","24.1","","101.27","","30","","","","Mostly Cloudy"
"2008-08-22 12:00","2008","08","22","12:00","26.2","","16.4","","55","","15","","9","","24.1","","101.22","","31","","","","Mostly Cloudy"
"2008-08-22 13:00","2008","08","22","13:00","26.8","","17.7","","57","","17","","9","","24.1","","101.20","","33","","","","Mainly Clear"
"2008-08-22 14:00","2008","08","22","14:00","27.2","","17.5","","55","","14","","11","","24.1","","101.15","","33","","","","Mainly Clear"
"2008-08-22 15:00","2008","08","22","15:00","28.4","","18.1","","54","","14","","9","","24.1","","101.12","","34","","","","Mostly Cloudy"
"2008-08-22 16:00","2008","08","22","16:00","28.6","","18.4","","54","","13","","11","","24.1","","101.10","","35","","","","Mainly Clear"
"2008-08-22 17:00","2008","08","22","17:00","28.2","","17.6","","53","","18","","9","","24.1","","101.09","","34","","","","Mainly Clear"
"2008-08-22 18:00","2008","08","22","18:00","26.5","","17.2","","57","","16","","6","","24.1","","101.08","","32","","","","Mainly Clear"
"2008-08-22 19:00","2008","08","22","19:00","25.0","","17.4","","63","","16","","6","","24.1","","101.07","","31","","","","Mostly Cloudy"
"2008-08-22 20:00","2008","08","22","20:00","23.6","","17.6","","69","","14","","6","","24.1","","101.09","","29","","","","Mainly Clear"
"2008-08-22 21:00","2008","08","22","21:00","22.3","","17.2","","73","","15","","7","","24.1","","101.09","","28","","","","Mostly Cloudy"
"2008-08-22 22:00","2008","08","22","22:00","21.1","","17.2","","78","","15","","9","","25.0","","101.07","","27","","","","Mainly Clear"
"2008-08-22 23:00","2008","08","22","23:00","20.2","","17.3","","83","","14","","9","","25.0","","101.04","","26","","","","Mainly Clear"
"2008-08-23 00:00","2008","08","23","00:00","20.9","","17.7","","82","","14","","9","","25.0","","101.01","","27","","","","Cloudy"
"2008-08-23 01:00","2008","08","23","01:00","20.5","","18.1","","86","","14","","9","","25.0","","100.97","","27","","","","Cloudy"
"2008-08-23 02:00","2008","08","23","02:00","19.8","","17.5","","87","","16","","4","","25.0","","100.98","","","","","","Mostly Cloudy"
"2008-08-23 03:00","2008","08","23","03:00","19.4","","16.6","","84","","18","","6","","25.0","","100.97","","","","","","Mainly Clear"
"2008-08-23 04:00","2008","08","23","04:00","17.6","","15.8","","89","","15","","7","","25.0","","100.98","","","","","","Mostly Cloudy"
"2008-08-23 05:00","2008","08","23","05:00","17.6","","15.9","","90","","14","","6","","24.1","","101.00","","","","","","Cloudy"
"2008-08-23 06:00","2008","08","23","06:00","17.3","","15.8","","91","","12","","6","","19.3","","101.02","","","","","","Mostly Cloudy"
"2008-08-23 07:00","2008","08","23","07:00","19.0","","16.3","","84","","16","","7","","19.3","","101.04","","","","","","Mostly Cloudy"
"2008-08-23 08:00","2008","08","23","08:00","20.6","","16.8","","79","","17","","6","","19.3","","100.98","","26","","","","Mostly Cloudy"
"2008-08-23 09:00","2008","08","23","09:00","22.1","","17.4","","75","","20","","11","","19.3","","100.94","","28","","","","Mostly Cloudy"
"2008-08-23 10:00","2008","08","23","10:00","23.4","","17.8","","71","","19","","11","","19.3","","100.91","","29","","","","Mostly Cloudy"
"2008-08-23 11:00","2008","08","23","11:00","25.2","","18.4","","66","","19","","9","","19.3","","100.88","","32","","","","Mostly Cloudy"
"2008-08-23 12:00","2008","08","23","12:00","26.6","","18.7","","62","","19","","15","","19.3","","100.81","","33","","","","Mostly Cloudy"
"2008-08-23 13:00","2008","08","23","13:00","27.5","","19.1","","60","","18","","13","","19.3","","100.73","","34","","","","Mostly Cloudy"
"2008-08-23 14:00","2008","08","23","14:00","28.3","","17.8","","53","","18","","17","","19.3","","100.70","","34","","","","Mostly Cloudy"
"2008-08-23 15:00","2008","08","23","15:00","27.2","","16.8","","53","","21","","17","","19.3","","100.63","","32","","","","Mostly Cloudy"
"2008-08-23 16:00","2008","08","23","16:00","27.2","","15.6","","49","","20","","19","","24.1","","100.60","","32","","","","Mostly Cloudy"
"2008-08-23 17:00","2008","08","23","17:00","27.1","","16.3","","52","","19","","20","","24.1","","100.56","","32","","","","Mainly Clear"
"2008-08-23 18:00","2008","08","23","18:00","25.7","","15.8","","54","","19","","11","","24.1","","100.48","","30","","","","Mainly Clear"
"2008-08-23 19:00","2008","08","23","19:00","23.7","","16.0","","62","","21","","6","","24.1","","100.50","","28","","","","Mainly Clear"
"2008-08-23 20:00","2008","08","23","20:00","21.9","","16.3","","71","","19","","7","","25.0","","100.50","","27","","","","Mainly Clear"
"2008-08-23 21:00","2008","08","23","21:00","21.6","","16.7","","74","","20","","6","","25.0","","100.46","","27","","","","Clear"
"2008-08-23 22:00","2008","08","23","22:00","20.2","","16.7","","80","","17","","9","","25.0","","100.33","","25","","","","Clear"
"2008-08-23 23:00","2008","08","23","23:00","19.5","","16.9","","85","","16","","11","","25.0","","100.25","","","","","","Clear"
"2008-08-24 00:00","2008","08","24","00:00","19.5","","16.6","","83","","18","","9","","25.0","","100.22","","","","","","Mainly Clear"
"2008-08-24 01:00","2008","08","24","01:00","18.8","","16.3","","85","","18","","7","","25.0","","100.18","","","","","","Mainly Clear"
"2008-08-24 02:00","2008","08","24","02:00","19.4","","16.4","","83","","19","","7","","25.0","","100.21","","","","","","Mostly Cloudy"
"2008-08-24 03:00","2008","08","24","03:00","19.3","","16.5","","84","","18","","7","","24.1","","100.16","","","","","","Mostly Cloudy"
"2008-08-24 04:00","2008","08","24","04:00","19.5","","16.7","","84","","18","","6","","24.1","","100.14","","","","","","Mostly Cloudy"
"2008-08-24 05:00","2008","08","24","05:00","19.3","","16.7","","85","","18","","7","","24.1","","100.13","","","","","","Mostly Cloudy"
"2008-08-24 06:00","2008","08","24","06:00","19.4","","16.8","","85","","18","","7","","9.7","","100.11","","","","","","Haze"
"2008-08-24 07:00","2008","08","24","07:00","20.2","","17.5","","84","","20","","11","","8.0","","100.11","","26","","","","Haze"
"2008-08-24 08:00","2008","08","24","08:00","21.1","","17.8","","81","","21","","11","","8.0","","100.07","","27","","","","Haze"
"2008-08-24 09:00","2008","08","24","09:00","21.2","","17.8","","81","","22","","7","","8.0","","100.03","","27","","","","Haze"
"2008-08-24 10:00","2008","08","24","10:00","22.4","","18.6","","79","","20","","9","","12.9","","100.02","","29","","","","Mainly Clear"
"2008-08-24 11:00","2008","08","24","11:00","25.1","","19.3","","70","","22","","15","","16.1","","99.93","","32","","","","Mainly Clear"
"2008-08-24 12:00","2008","08","24","12:00","25.3","","19.2","","69","","23","","13","","16.1","","99.86","","32","","","","Mostly Cloudy"
"2008-08-24 13:00","2008","08","24","13:00","23.7","","19.4","","77","","20","","15","","19.3","","99.86","","31","","","","Rain Showers"
"2008-08-24 14:00","2008","08","24","14:00","24.6","","20.7","","79","","18","","11","","19.3","","99.79","","33","","","","Mostly Cloudy"
"2008-08-24 15:00","2008","08","24","15:00","24.2","","20.1","","78","","20","","15","","19.3","","99.72","","32","","","","Mostly Cloudy"
"2008-08-24 16:00","2008","08","24","16:00","24.7","","20.6","","78","","23","","9","","19.3","","99.67","","33","","","","Mostly Cloudy"
"2008-08-24 17:00","2008","08","24","17:00","24.8","","19.7","","73","","21","","11","","19.3","","99.63","","32","","","","Mostly Cloudy"
"2008-08-24 18:00","2008","08","24","18:00","24.3","","19.4","","74","","20","","13","","19.3","","99.60","","31","","","","Mostly Cloudy"
"2008-08-24 19:00","2008","08","24","19:00","22.5","","19.1","","81","","21","","7","","16.1","","99.58","","29","","","","Mainly Clear"
"2008-08-24 20:00","2008","08","24","20:00","21.5","","19.2","","87","","21","","7","","19.3","","99.60","","28","","","","Mainly Clear"
"2008-08-24 21:00","2008","08","24","21:00","21.6","","19.6","","88","","22","","9","","19.3","","99.59","","29","","","","Mainly Clear"
"2008-08-24 22:00","2008","08","24","22:00","21.1","","18.6","","86","","27","","15","","19.3","","99.62","","28","","","","Mainly Clear"
"2008-08-24 23:00","2008","08","24","23:00","20.5","","15.7","","74","","29","","17","","19.3","","99.66","","25","","","","Mainly Clear"
"2008-08-25 00:00","2008","08","25","00:00","18.8","","15.3","","80","","30","","15","","19.3","","99.68","","","","","","Mainly Clear"
"2008-08-25 01:00","2008","08","25","01:00","17.4","","13.5","","78","","32","","15","","24.1","","99.73","","","","","","Mainly Clear"
"2008-08-25 02:00","2008","08","25","02:00","16.6","","11.7","","73","","32","","20","","24.1","","99.79","","","","","","Mainly Clear"
"2008-08-25 03:00","2008","08","25","03:00","15.2","","10.5","","74","","32","","19","","24.1","","99.86","","","","","","Mainly Clear"
"2008-08-25 04:00","2008","08","25","04:00","14.0","","9.0","","72","","31","","17","","24.1","","99.89","","","","","","Mainly Clear"
"2008-08-25 05:00","2008","08","25","05:00","12.9","","7.9","","72","","32","","24","","24.1","","99.94","","","","","","Mainly Clear"
"2008-08-25 06:00","2008","08","25","06:00","12.4","","7.8","","73","","33","","22","","24.1","","100.03","","","","","","Mainly Clear"
"2008-08-25 07:00","2008","08","25","07:00","13.3","","7.9","","70","","32","","24","","24.1","","100.11","","","","","","Mainly Clear"
"2008-08-25 08:00","2008","08","25","08:00","14.4","","8.1","","66","","33","","24","","24.1","","100.16","","","","","","Mainly Clear"
"2008-08-25 09:00","2008","08","25","09:00","14.9","","8.1","","64","","33","","22","","24.1","","100.20","","","","","","Mainly Clear"
"2008-08-25 10:00","2008","08","25","10:00","16.4","","7.9","","57","","34","","26","","24.1","","100.23","","","","","","Mostly Cloudy"
"2008-08-25 11:00","2008","08","25","11:00","17.1","","7.9","","55","","32","","20","","24.1","","100.23","","","","","","Mostly Cloudy"
"2008-08-25 12:00","2008","08","25","12:00","17.8","","8.5","","54","","33","","20","","24.1","","100.20","","","","","","Mostly Cloudy"
"2008-08-25 13:00","2008","08","25","13:00","18.3","","8.8","","54","","31","","17","","24.1","","100.19","","","","","","Mostly Cloudy"
"2008-08-25 14:00","2008","08","25","14:00","19.0","","9.6","","54","","32","","17","","24.1","","100.18","","","","","","Mainly Clear"
"2008-08-25 15:00","2008","08","25","15:00","19.6","","9.0","","50","","29","","19","","24.1","","100.16","","","","","","Mainly Clear"
"2008-08-25 16:00","2008","08","25","16:00","19.2","","8.4","","50","","33","","19","","24.1","","100.17","","","","","","Mainly Clear"
"2008-08-25 17:00","2008","08","25","17:00","18.6","","8.6","","52","","31","","19","","24.1","","100.20","","","","","","Mainly Clear"
"2008-08-25 18:00","2008","08","25","18:00","18.8","","8.8","","52","","30","","15","","24.1","","100.20","","","","","","Mainly Clear"
"2008-08-25 19:00","2008","08","25","19:00","16.2","","9.8","","66","","26","","9","","24.1","","100.27","","","","","","Clear"
"2008-08-25 20:00","2008","08","25","20:00","14.9","","9.9","","72","","28","","9","","24.1","","100.30","","","","","","Clear"
"2008-08-25 21:00","2008","08","25","21:00","13.0","","8.5","","74","","31","","13","","25.0","","100.37","","","","","","Clear"
"2008-08-25 22:00","2008","08","25","22:00","13.0","","6.9","","66","","32","","13","","25.0","","100.41","","","","","","Clear"
"2008-08-25 23:00","2008","08","25","23:00","12.0","","5.6","","65","","32","","13","","25.0","","100.45","","","","","","Clear"
"2008-08-26 00:00","2008","08","26","00:00","10.3","","5.4","","72","","32","","11","","25.0","","100.47","","","","","","Clear"
"2008-08-26 01:00","2008","08","26","01:00","10.6","","4.9","","68","","33","","11","","25.0","","100.48","","","","","","Clear"
"2008-08-26 02:00","2008","08","26","02:00","10.3","","7.3","","82","","31","","13","","25.0","","100.49","","","","","","Mainly Clear"
"2008-08-26 03:00","2008","08","26","03:00","9.3","","5.8","","79","","32","","9","","25.0","","100.52","","","","","","Mainly Clear"
"2008-08-26 04:00","2008","08","26","04:00","9.7","","6.0","","78","","32","","7","","25.0","","100.53","","","","","","Mainly Clear"
"2008-08-26 05:00","2008","08","26","05:00","10.0","","6.3","","78","","","","0","","24.1","","100.61","","","","","","Mainly Clear"
"2008-08-26 06:00","2008","08","26","06:00","9.5","","7.0","","84","","32","","9","","24.1","","100.67","","","","","","Mostly Cloudy"
"2008-08-26 07:00","2008","08","26","07:00","11.6","","8.9","","83","","31","","9","","24.1","","100.72","","","","","","Mostly Cloudy"
"2008-08-26 08:00","2008","08","26","08:00","14.1","","7.9","","66","","31","","11","","24.1","","100.79","","","","","","Mostly Cloudy"
"2008-08-26 09:00","2008","08","26","09:00","15.6","","5.3","","50","","1","","7","","24.1","","100.83","","","","","","Mostly Cloudy"
"2008-08-26 10:00","2008","08","26","10:00","16.7","","4.9","","46","","34","","7","","24.1","","100.83","","","","","","Mostly Cloudy"
"2008-08-26 11:00","2008","08","26","11:00","18.1","","5.4","","43","","35","","7","","24.1","","100.80","","","","","","Mostly Cloudy"
"2008-08-26 12:00","2008","08","26","12:00","19.4","","7.2","","45","","30","","7","","24.1","","100.75","","","","","","Mostly Cloudy"
"2008-08-26 13:00","2008","08","26","13:00","20.2","","7.0","","42","","30","","7","","24.1","","100.73","","","","","","Mostly Cloudy"
"2008-08-26 14:00","2008","08","26","14:00","20.8","","5.6","","37","","33","","13","","24.1","","100.66","","","","","","Mostly Cloudy"
"2008-08-26 15:00","2008","08","26","15:00","21.8","","5.5","","35","","35","","11","","24.1","","100.61","","","","","","Mostly Cloudy"
"2008-08-26 16:00","2008","08","26","16:00","21.8","","4.9","","33","","33","","19","","24.1","","100.59","","","","","","Mostly Cloudy"
"2008-08-26 17:00","2008","08","26","17:00","21.4","","4.6","","33","","31","","13","","24.1","","100.57","","","","","","Mostly Cloudy"
"2008-08-26 18:00","2008","08","26","18:00","19.9","","5.9","","40","","32","","13","","24.1","","100.57","","","","","","Cloudy"
"2008-08-26 19:00","2008","08","26","19:00","19.0","","5.1","","40","","36","","6","","24.1","","100.61","","","","","","Cloudy"
"2008-08-26 20:00","2008","08","26","20:00","17.7","","5.5","","45","","","","0","","25.0","","100.66","","","","","","Mostly Cloudy"
"2008-08-26 21:00","2008","08","26","21:00","14.9","","9.7","","71","","22","","6","","25.0","","100.71","","","","","","Mainly Clear"
"2008-08-26 22:00","2008","08","26","22:00","15.9","","7.8","","59","","25","","4","","25.0","","100.72","","","","","","Mainly Clear"
"2008-08-26 23:00","2008","08","26","23:00","14.5","","9.7","","73","","","","0","","25.0","","100.77","","","","","","Mostly Cloudy"
"2008-08-27 00:00","2008","08","27","00:00","13.7","","9.0","","73","","","","0","","25.0","","100.77","","","","","","Mostly Cloudy"
"2008-08-27 01:00","2008","08","27","01:00","13.8","","9.2","","74","","","","0","","25.0","","100.75","","","","","","Mainly Clear"
"2008-08-27 02:00","2008","08","27","02:00","12.5","","9.4","","81","","","","0","","25.0","","100.71","","","","","","Clear"
"2008-08-27 03:00","2008","08","27","03:00","13.3","","8.9","","75","","5","","11","","25.0","","100.69","","","","","","Clear"
"2008-08-27 04:00","2008","08","27","04:00","11.8","","8.9","","82","","6","","9","","25.0","","100.70","","","","","","Clear"
"2008-08-27 05:00","2008","08","27","05:00","10.0","","8.3","","89","","2","","4","","24.1","","100.75","","","","","","Mainly Clear"
"2008-08-27 06:00","2008","08","27","06:00","9.3","","8.9","","97","","26","","7","","24.1","","100.80","","","","","","Mainly Clear"
"2008-08-27 07:00","2008","08","27","07:00","13.0","","11.0","","88","","","","0","","24.1","","100.83","","","","","","Mainly Clear"
"2008-08-27 08:00","2008","08","27","08:00","16.1","","10.0","","67","","","","0","","24.1","","100.79","","","","","","Mainly Clear"
"2008-08-27 09:00","2008","08","27","09:00","19.5","","11.0","","58","","7","","7","","24.1","","100.77","","","","","","Mainly Clear"
"2008-08-27 10:00","2008","08","27","10:00","20.7","","10.1","","51","","8","","11","","24.1","","100.75","","","","","","Mostly Cloudy"
"2008-08-27 11:00","2008","08","27","11:00","22.3","","8.9","","42","","5","","4","","24.1","","100.78","","","","","","Mostly Cloudy"
"2008-08-27 12:00","2008","08","27","12:00","23.0","","10.1","","44","","6","","9","","24.1","","100.74","","","","","","Mostly Cloudy"
"2008-08-27 13:00","2008","08","27","13:00","23.8","","9.3","","40","","5","","6","","24.1","","100.69","","25","","","","Mostly Cloudy"
"2008-08-27 14:00","2008","08","27","14:00","24.0","","8.7","","38","","6","","6","","24.1","","100.64","","25","","","","Mostly Cloudy"
"2008-08-27 15:00","2008","08","27","15:00","24.4","","9.6","","39","","11","","9","","24.1","","100.58","","25","","","","Mostly Cloudy"
"2008-08-27 16:00","2008","08","27","16:00","24.0","","10.2","","42","","13","","9","","24.1","","100.54","","25","","","","Mostly Cloudy"
"2008-08-27 17:00","2008","08","27","17:00","24.0","","11.3","","45","","13","","9","","24.1","","100.50","","26","","","","Mostly Cloudy"
"2008-08-27 18:00","2008","08","27","18:00","21.5","","12.7","","57","","13","","4","","24.1","","100.50","","","","","","Cloudy"
"2008-08-27 19:00","2008","08","27","19:00","21.3","","11.7","","54","","7","","6","","24.1","","100.53","","","","","","Cloudy"
"2008-08-27 20:00","2008","08","27","20:00","20.4","","12.5","","60","","5","","6","","25.0","","100.57","","","","","","Cloudy"
"2008-08-27 21:00","2008","08","27","21:00","19.2","","12.3","","64","","7","","6","","25.0","","100.58","","","","","","Cloudy"
"2008-08-27 22:00","2008","08","27","22:00","17.9","","12.7","","72","","7","","6","","25.0","","100.60","","","","","","Cloudy"
"2008-08-27 23:00","2008","08","27","23:00","17.7","","12.5","","72","","5","","7","","25.0","","100.58","","","","","","Cloudy"
"2008-08-28 00:00","2008","08","28","00:00","16.9","","12.7","","76","","4","","7","","25.0","","100.59","","","","","","Cloudy"
"2008-08-28 01:00","2008","08","28","01:00","16.3","","13.0","","81","","5","","9","","25.0","","100.54","","","","","","Cloudy"
"2008-08-28 02:00","2008","08","28","02:00","16.3","","12.7","","79","","5","","11","","25.0","","100.52","","","","","","Cloudy"
"2008-08-28 03:00","2008","08","28","03:00","15.6","","12.3","","81","","5","","13","","25.0","","100.50","","","","","","Cloudy"
"2008-08-28 04:00","2008","08","28","04:00","14.6","","12.1","","85","","7","","13","","25.0","","100.45","","","","","","Cloudy"
"2008-08-28 05:00","2008","08","28","05:00","13.7","","12.0","","89","","9","","9","","24.1","","100.47","","","","","","Mostly Cloudy"
"2008-08-28 06:00","2008","08","28","06:00","14.0","","12.2","","89","","7","","13","","24.1","","100.50","","","","","","Mostly Cloudy"
"2008-08-28 07:00","2008","08","28","07:00","14.5","","12.5","","88","","9","","6","","24.1","","100.51","","","","","","Mostly Cloudy"
"2008-08-28 08:00","2008","08","28","08:00","16.6","","13.5","","82","","7","","11","","24.1","","100.53","","","","","","Cloudy"
"2008-08-28 09:00","2008","08","28","09:00","18.8","","14.4","","76","","9","","7","","24.1","","100.58","","","","","","Cloudy"
"2008-08-28 10:00","2008","08","28","10:00","20.4","","15.2","","72","","9","","9","","24.1","","100.54","","","","","","Mostly Cloudy"
"2008-08-28 11:00","2008","08","28","11:00","23.0","","15.1","","61","","10","","7","","24.1","","100.44","","27","","","","Mostly Cloudy"
"2008-08-28 12:00","2008","08","28","12:00","24.9","","14.7","","53","","18","","6","","24.1","","100.38","","29","","","","Mostly Cloudy"
"2008-08-28 13:00","2008","08","28","13:00","25.9","","13.8","","47","","15","","9","","24.1","","100.35","","29","","","","Mostly Cloudy"
"2008-08-28 14:00","2008","08","28","14:00","26.8","","14.7","","47","","12","","9","","24.1","","100.32","","31","","","","Mostly Cloudy"
"2008-08-28 15:00","2008","08","28","15:00","25.6","","14.6","","51","","16","","9","","24.1","","100.26","","29","","","","Mostly Cloudy"
"2008-08-28 16:00","2008","08","28","16:00","26.1","","14.8","","50","","14","","6","","24.1","","100.24","","30","","","","Mainly Clear"
"2008-08-28 17:00","2008","08","28","17:00","25.4","","14.8","","52","","11","","7","","24.1","","100.21","","29","","","","Mainly Clear"
"2008-08-28 18:00","2008","08","28","18:00","23.3","","15.6","","62","","10","","6","","24.1","","100.20","","28","","","","Mostly Cloudy"
"2008-08-28 19:00","2008","08","28","19:00","22.1","","15.5","","66","","11","","6","","24.1","","100.21","","26","","","","Mostly Cloudy"
"2008-08-28 20:00","2008","08","28","20:00","21.2","","16.1","","73","","9","","9","","25.0","","100.24","","26","","","","Mostly Cloudy"
"2008-08-28 21:00","2008","08","28","21:00","20.1","","15.7","","76","","15","","6","","25.0","","100.23","","25","","","","Mainly Clear"
"2008-08-28 22:00","2008","08","28","22:00","18.1","","15.4","","84","","13","","6","","25.0","","100.22","","","","","","Mainly Clear"
"2008-08-28 23:00","2008","08","28","23:00","18.6","","14.3","","76","","25","","6","","25.0","","100.20","","","","","","Mostly Cloudy"
"2008-08-29 00:00","2008","08","29","00:00","18.5","","12.8","","69","","27","","6","","25.0","","100.16","","","","","","Mostly Cloudy"
"2008-08-29 01:00","2008","08","29","01:00","17.7","","12.8","","73","","","","0","","25.0","","100.11","","","","","","Mainly Clear"
"2008-08-29 02:00","2008","08","29","02:00","17.0","","13.3","","79","","20","","4","","25.0","","100.10","","","","","","Mostly Cloudy"
"2008-08-29 03:00","2008","08","29","03:00","16.6","","13.6","","82","","18","","4","","25.0","","100.10","","","","","","Cloudy"
"2008-08-29 04:00","2008","08","29","04:00","16.2","","13.6","","85","","21","","4","","25.0","","100.14","","","","","","Cloudy"
"2008-08-29 05:00","2008","08","29","05:00","15.2","","14.0","","93","","14","","4","","24.1","","100.13","","","","","","Mostly Cloudy"
"2008-08-29 06:00","2008","08","29","06:00","15.9","","14.7","","93","","14","","4","","24.1","","100.14","","","","","","Mostly Cloudy"
"2008-08-29 07:00","2008","08","29","07:00","16.7","","15.1","","90","","","","0","","24.1","","100.15","","","","","","Mostly Cloudy"
"2008-08-29 08:00","2008","08","29","08:00","17.4","","15.5","","89","","12","","7","","24.1","","100.16","","","","","","Mostly Cloudy"
"2008-08-29 09:00","2008","08","29","09:00","17.1","","16.3","","95","","16","","7","","6.4","","100.18","","","","","","Moderate Rain,Fog"
"2008-08-29 10:00","2008","08","29","10:00","17.8","","16.9","","94","","14","","11","","9.7","","100.16","","","","","","Rain,Fog"
"2008-08-29 11:00","2008","08","29","11:00","17.5","","16.5","","94","","17","","13","","4.8","","100.15","","","","","","Rain,Fog"
"2008-08-29 12:00","2008","08","29","12:00","17.7","","16.4","","92","","18","","11","","9.7","","100.09","","","","","","Rain,Fog"
"2008-08-29 13:00","2008","08","29","13:00","17.7","","16.3","","92","","18","","13","","12.9","","100.09","","","","","","Rain"
"2008-08-29 14:00","2008","08","29","14:00","18.0","","16.4","","90","","17","","9","","12.9","","100.05","","","","","","Rain"
"2008-08-29 15:00","2008","08","29","15:00","18.2","","16.4","","89","","16","","6","","12.9","","100.00","","","","","","Cloudy"
"2008-08-29 16:00","2008","08","29","16:00","18.3","","16.7","","90","","18","","7","","12.9","","100.00","","","","","","Drizzle"
"2008-08-29 17:00","2008","08","29","17:00","17.6","","16.9","","96","","17","","6","","12.9","","100.00","","","","","","Cloudy"
"2008-08-29 18:00","2008","08","29","18:00","17.7","","17.0","","96","","14","","4","","12.9","","100.01","","","","","","Drizzle"
"2008-08-29 19:00","2008","08","29","19:00","17.8","","17.0","","95","","16","","6","","12.9","","100.01","","","","","","Drizzle"
"2008-08-29 20:00","2008","08","29","20:00","17.4","","17.0","","97","","17","","6","","12.9","","100.05","","","","","","Drizzle"
"2008-08-29 21:00","2008","08","29","21:00","17.4","","17.0","","97","","16","","6","","9.7","","100.04","","","","","","Drizzle,Fog"
"2008-08-29 22:00","2008","08","29","22:00","17.6","","17.1","","97","","20","","4","","8.0","","100.03","","","","","","Fog"
"2008-08-29 23:00","2008","08","29","23:00","17.8","","17.2","","96","","18","","6","","8.0","","100.01","","","","","","Fog"
"2008-08-30 00:00","2008","08","30","00:00","17.7","","17.2","","97","","19","","6","","8.0","","100.00","","","","","","Fog"
"2008-08-30 01:00","2008","08","30","01:00","17.5","","17.0","","97","","19","","6","","6.4","","99.97","","","","","","Fog"
"2008-08-30 02:00","2008","08","30","02:00","17.7","","17.0","","96","","20","","4","","8.0","","99.99","","","","","","Fog"
"2008-08-30 03:00","2008","08","30","03:00","17.8","","17.3","","97","","20","","4","","8.0","","100.00","","","","","","Fog"
"2008-08-30 04:00","2008","08","30","04:00","17.7","","17.3","","98","","22","","6","","6.4","","100.02","","","","","","Fog"
"2008-08-30 05:00","2008","08","30","05:00","17.8","","17.5","","98","","22","","6","","4.8","","100.04","","","","","","Fog"
"2008-08-30 06:00","2008","08","30","06:00","18.0","","17.6","","98","","26","","4","","4.8","","100.12","","","","","","Fog"
"2008-08-30 07:00","2008","08","30","07:00","18.4","","18.0","","98","","26","","6","","6.4","","100.14","","","","","","Fog"
"2008-08-30 08:00","2008","08","30","08:00","20.0","","18.1","","89","","29","","11","","11.3","","100.19","","26","","","","Mostly Cloudy"
"2008-08-30 09:00","2008","08","30","09:00","21.1","","18.2","","84","","29","","9","","16.1","","100.24","","27","","","","Mostly Cloudy"
"2008-08-30 10:00","2008","08","30","10:00","21.7","","17.2","","76","","27","","15","","16.1","","100.27","","27","","","","Mostly Cloudy"
"2008-08-30 11:00","2008","08","30","11:00","22.8","","16.8","","69","","30","","13","","16.1","","100.27","","28","","","","Mostly Cloudy"
"2008-08-30 12:00","2008","08","30","12:00","23.3","","17.4","","69","","26","","13","","19.3","","100.24","","29","","","","Mainly Clear"
"2008-08-30 13:00","2008","08","30","13:00","24.0","","16.6","","63","","26","","11","","19.3","","100.21","","29","","","","Mainly Clear"
"2008-08-30 14:00","2008","08","30","14:00","24.9","","15.2","","55","","27","","17","","19.3","","100.20","","29","","","","Mainly Clear"
"2008-08-30 15:00","2008","08","30","15:00","24.9","","14.9","","54","","27","","17","","24.1","","100.19","","29","","","","Mainly Clear"
"2008-08-30 16:00","2008","08","30","16:00","25.1","","12.4","","45","","28","","20","","24.1","","100.18","","28","","","","Mainly Clear"
"2008-08-30 17:00","2008","08","30","17:00","24.7","","10.6","","41","","30","","26","","24.1","","100.21","","26","","","","Mainly Clear"
"2008-08-30 18:00","2008","08","30","18:00","23.4","","11.5","","47","","29","","11","","24.1","","100.25","","25","","","","Mainly Clear"
"2008-08-30 19:00","2008","08","30","19:00","21.2","","11.8","","55","","29","","13","","24.1","","100.30","","","","","","Mainly Clear"
"2008-08-30 20:00","2008","08","30","20:00","19.6","","12.3","","63","","28","","9","","25.0","","100.36","","","","","","Mainly Clear"
"2008-08-30 21:00","2008","08","30","21:00","18.1","","12.6","","70","","28","","9","","25.0","","100.42","","","","","","Mainly Clear"
"2008-08-30 22:00","2008","08","30","22:00","17.5","","13.0","","75","","27","","9","","25.0","","100.47","","","","","","Mainly Clear"
"2008-08-30 23:00","2008","08","30","23:00","16.0","","12.5","","80","","","","0","","25.0","","100.50","","","","","","Mainly Clear"
"2008-08-31 00:00","2008","08","31","00:00","16.8","","11.4","","70","","34","","9","","25.0","","100.53","","","","","","Mainly Clear"
"2008-08-31 01:00","2008","08","31","01:00","15.8","","12.5","","81","","25","","9","","25.0","","100.57","","","","","","Clear"
"2008-08-31 02:00","2008","08","31","02:00","14.3","","11.9","","85","","27","","13","","25.0","","100.61","","","","","","Clear"
"2008-08-31 03:00","2008","08","31","03:00","13.8","","12.4","","91","","29","","11","","25.0","","100.64","","","","","","Clear"
"2008-08-31 04:00","2008","08","31","04:00","13.5","","12.8","","96","","31","","11","","25.0","","100.70","","","","","","Clear"
"2008-08-31 05:00","2008","08","31","05:00","13.1","","12.6","","97","","30","","9","","24.1","","100.74","","","","","","Clear"
"2008-08-31 06:00","2008","08","31","06:00","12.8","","12.3","","97","","32","","9","","32.2","","100.84","","","","","","Clear"
"2008-08-31 07:00","2008","08","31","07:00","15.6","","14.0","","90","","30","","7","","32.2","","100.91","","","","","","Clear"
"2008-08-31 08:00","2008","08","31","08:00","18.3","","13.6","","74","","32","","9","","32.2","","100.96","","","","","","Clear"
"2008-08-31 09:00","2008","08","31","09:00","19.7","","13.5","","67","","31","","9","","32.2","","100.99","","","","","","Clear"
"2008-08-31 10:00","2008","08","31","10:00","21.8","","13.5","","59","","32","","9","","32.2","","101.02","","25","","","","Clear"
"2008-08-31 11:00","2008","08","31","11:00","23.1","","12.5","","51","","30","","11","","32.2","","100.96","","26","","","","Mainly Clear"
"2008-08-31 12:00","2008","08","31","12:00","24.8","","11.6","","44","","35","","19","","32.2","","100.93","","27","","","","Mainly Clear"
"2008-08-31 13:00","2008","08","31","13:00","24.0","","12.0","","47","","35","","15","","32.2","","100.86","","26","","","","Mainly Clear"
"2008-08-31 14:00","2008","08","31","14:00","24.9","","11.7","","44","","32","","11","","32.2","","100.84","","27","","","","Mainly Clear"
"2008-08-31 15:00","2008","08","31","15:00","25.8","","11.8","","42","","31","","17","","32.2","","100.80","","28","","","","Mainly Clear"
"2008-08-31 16:00","2008","08","31","16:00","25.2","","10.8","","40","","30","","9","","32.2","","100.78","","27","","","","Mainly Clear"
"2008-08-31 17:00","2008","08","31","17:00","24.9","","11.1","","42","","31","","11","","32.2","","100.77","","27","","","","Mainly Clear"
"2008-08-31 18:00","2008","08","31","18:00","22.8","","11.2","","48","","30","","11","","24.1","","100.77","","25","","","","Mainly Clear"
"2008-08-31 19:00","2008","08","31","19:00","21.4","","11.5","","53","","28","","6","","24.1","","100.80","","","","","","Mainly Clear"
"2008-08-31 20:00","2008","08","31","20:00","20.4","","11.9","","58","","27","","6","","25.0","","100.83","","","","","","Mainly Clear"
"2008-08-31 21:00","2008","08","31","21:00","18.8","","12.3","","66","","27","","4","","25.0","","100.89","","","","","","Clear"
"2008-08-31 22:00","2008","08","31","22:00","17.6","","12.6","","72","","1","","4","","25.0","","100.89","","","","","","Clear"
"2008-08-31 23:00","2008","08","31","23:00","18.0","","13.0","","73","","26","","4","","25.0","","100.89","","","","","","Clear"
