"Station Name","OTTAWA MACDONALD-CARTIER INT'L A"
"Province","ONTARIO"
"Latitude","45.32"
"Longitude","-75.67"
"Elevation","114.00"
"Climate Identifier","6106000"
"WMO Identifier","71628"
"TC Identifier","YOW"
"All times are specified in Local Standard Time (LST). Add 1 hour to adjust for Daylight Saving Time where and when it is observed."

"Legend"
"E","Estimated"
"M","Missing"
"NA","Not Available"

"Date/Time","Year","Month","Day","Time","Temp (°C)","Temp Flag","Dew Point Temp (°C)","Dew Point Temp Flag","Rel Hum (%)","Rel Hum Flag","Wind Dir (10s deg)","Wind Dir Flag","Wind Spd (km/h)","Wind Spd Flag","Visibility (km)","Visibility Flag","Stn Press (kPa)","Stn Press Flag","Hmdx","Hmdx Flag","Wind Chill","Wind Chill Flag","Weather"
"2010-04-01 00:00","2010","04","01","00:00","5.5","","4.2","","91","","13","","11","","25.0","","100.35","","","","","","Clear"
"2010-04-01 01:00","2010","04","01","01:00","4.0","","3.0","","93","","11","","9","","25.0","","100.39","","","","","","Mainly Clear"
"2010-04-01 02:00","2010","04","01","02:00","5.0","","4.2","","95","","9","","13","","25.0","","100.41","","","","","","Mainly Clear"
"2010-04-01 03:00","2010","04","01","03:00","4.0","","3.5","","97","","9","","13","","25.0","","100.47","","","","","","Mainly Clear"
"2010-04-01 04:00","2010","04","01","04:00","3.7","","3.2","","97","","9","","11","","25.0","","100.48","","","","","","Clear"
"2010-04-01 05:00","2010","04","01","05:00","3.6","","3.1","","97","","11","","9","","19.3","","100.49","","","","","","Mainly Clear"
"2010-04-01 06:00","2010","04","01","06:00","2.9","","2.6","","98","","11","","13","","12.9","","100.50","","","","","","Mostly Cloudy"
"2010-04-01 07:00","2010","04","01","07:00","3.8","","3.3","","97","","12","","15","","9.7","","100.51","","","","","","Fog"
"2010-04-01 08:00","2010","04","01","08:00","6.2","","4.7","","90","","11","","13","","16.1","","100.49","","","","","","Mostly Cloudy"
"2010-04-01 09:00","2010","04","01","09:00","7.3","","4.6","","83","","8","","9","","19.3","","100.55","","","","","","Mostly Cloudy"
"2010-04-01 10:00","2010","04","01","10:00","9.3","","5.4","","77","","6","","11","","24.1","","100.60","","","","","","Mostly Cloudy"
"2010-04-01 11:00","2010","04","01","11:00","12.0","","6.3","","68","","9","","11","","24.1","","100.53","","","","","","Cloudy"
"2010-04-01 12:00","2010","04","01","12:00","14.7","","7.0","","60","","9","","11","","24.1","","100.47","","","","","","Cloudy"
"2010-04-01 13:00","2010","04","01","13:00","15.7","","7.8","","59","","15","","11","","24.1","","100.40","","","","","","Cloudy"
"2010-04-01 14:00","2010","04","01","14:00","17.3","","7.8","","54","","13","","13","","24.1","","100.31","","","","","","Mostly Cloudy"
"2010-04-01 15:00","2010","04","01","15:00","18.6","","7.8","","49","","10","","11","","24.1","","100.25","","","","","","Mostly Cloudy"
"2010-04-01 16:00","2010","04","01","16:00","18.1","","8.7","","54","","8","","17","","24.1","","100.22","","","","","","Mostly Cloudy"
"2010-04-01 17:00","2010","04","01","17:00","17.5","","8.3","","55","","10","","19","","24.1","","100.17","","","","","","Mostly Cloudy"
"2010-04-01 18:00","2010","04","01","18:00","15.7","","8.0","","60","","9","","19","","24.1","","100.18","","","","","","Clear"
"2010-04-01 19:00","2010","04","01","19:00","12.7","","7.9","","73","","9","","20","","24.1","","100.24","","","","","","Clear"
"2010-04-01 20:00","2010","04","01","20:00","11.3","","7.5","","77","","10","","17","","24.1","","100.25","","","","","","Clear"
"2010-04-01 21:00","2010","04","01","21:00","9.7","","6.8","","82","","10","","13","","24.1","","100.24","","","","","","Clear"
"2010-04-01 22:00","2010","04","01","22:00","8.7","","6.3","","85","","6","","9","","24.1","","100.24","","","","","","Clear"
"2010-04-01 23:00","2010","04","01","23:00","8.2","","6.0","","86","","5","","9","","24.1","","100.21","","","","","","Clear"
"2010-04-02 00:00","2010","04","02","00:00","7.6","","5.4","","86","","4","","11","","24.1","","100.22","","","","","","Clear"
"2010-04-02 01:00","2010","04","02","01:00","7.0","","5.4","","90","","5","","17","","24.1","","100.19","","","","","","Clear"
"2010-04-02 02:00","2010","04","02","02:00","6.6","","5.3","","91","","7","","11","","24.1","","100.19","","","","","","Clear"
"2010-04-02 03:00","2010","04","02","03:00","6.0","","5.1","","94","","7","","13","","19.3","","100.16","","","","","","Clear"
"2010-04-02 04:00","2010","04","02","04:00","5.3","","4.6","","95","","8","","11","","16.1","","100.18","","","","","","Clear"
"2010-04-02 05:00","2010","04","02","05:00","5.6","","4.7","","94","","7","","11","","16.1","","100.20","","","","","","Clear"
"2010-04-02 06:00","2010","04","02","06:00","5.8","","4.7","","93","","7","","11","","19.3","","100.25","","","","","","Mostly Cloudy"
"2010-04-02 07:00","2010","04","02","07:00","6.7","","5.3","","91","","7","","11","","19.3","","100.33","","","","","","Mainly Clear"
"2010-04-02 08:00","2010","04","02","08:00","8.9","","6.2","","83","","8","","9","","19.3","","100.34","","","","","","Mainly Clear"
"2010-04-02 09:00","2010","04","02","09:00","11.7","","7.1","","73","","7","","7","","24.1","","100.34","","","","","","Mainly Clear"
"2010-04-02 10:00","2010","04","02","10:00","16.1","","7.8","","58","","11","","9","","24.1","","100.29","","","","","","Mainly Clear"
"2010-04-02 11:00","2010","04","02","11:00","18.5","","7.8","","50","","16","","11","","24.1","","100.24","","","","","","Mainly Clear"
"2010-04-02 12:00","2010","04","02","12:00","21.3","","9.2","","46","","14","","13","","24.1","","100.20","","","","","","Mainly Clear"
"2010-04-02 13:00","2010","04","02","13:00","24.5","","9.3","","38","","17","","11","","24.1","","100.15","","25","","","","Mainly Clear"
"2010-04-02 14:00","2010","04","02","14:00","26.8","","7.8","","30","","21","","20","","24.1","","100.10","","27","","","","Mostly Cloudy"
"2010-04-02 15:00","2010","04","02","15:00","27.5","","7.7","","29","","22","","17","","24.1","","100.04","","28","","","","Mostly Cloudy"
"2010-04-02 16:00","2010","04","02","16:00","27.3","","7.5","","29","","20","","24","","24.1","","100.02","","28","","","","Mostly Cloudy"
"2010-04-02 17:00","2010","04","02","17:00","26.1","","8.6","","33","","20","","13","","24.1","","100.02","","27","","","","Mostly Cloudy"
"2010-04-02 18:00","2010","04","02","18:00","23.9","","9.2","","39","","19","","15","","24.1","","100.06","","25","","","","Mostly Cloudy"
"2010-04-02 19:00","2010","04","02","19:00","21.7","","9.1","","45","","19","","9","","24.1","","100.08","","","","","","Mostly Cloudy"
"2010-04-02 20:00","2010","04","02","20:00","20.5","","8.7","","47","","20","","13","","24.1","","100.11","","","","","","Mainly Clear"
"2010-04-02 21:00","2010","04","02","21:00","19.1","","8.4","","50","","21","","13","","24.1","","100.11","","","","","","Mostly Cloudy"
"2010-04-02 22:00","2010","04","02","22:00","19.5","","8.2","","48","","24","","9","","24.1","","100.11","","","","","","Mainly Clear"
"2010-04-02 23:00","2010","04","02","23:00","19.1","","8.0","","49","","23","","9","","24.1","","100.08","","","","","","Mostly Cloudy"
"2010-04-03 00:00","2010","04","03","00:00","17.8","","7.8","","52","","18","","7","","24.1","","100.08","","","","","","Mostly Cloudy"
"2010-04-03 01:00","2010","04","03","01:00","17.0","","7.8","","55","","18","","7","","24.1","","100.09","","","","","","Mostly Cloudy"
"2010-04-03 02:00","2010","04","03","02:00","15.9","","7.8","","59","","17","","4","","24.1","","100.07","","","","","","Mainly Clear"
"2010-04-03 03:00","2010","04","03","03:00","14.3","","7.6","","64","","17","","6","","24.1","","100.07","","","","","","Mainly Clear"
"2010-04-03 04:00","2010","04","03","04:00","14.0","","7.7","","66","","16","","6","","24.1","","100.09","","","","","","Clear"
"2010-04-03 05:00","2010","04","03","05:00","12.2","","7.6","","73","","15","","4","","24.1","","100.12","","","","","","Clear"
"2010-04-03 06:00","2010","04","03","06:00","10.8","","7.5","","80","","15","","7","","19.3","","100.14","","","","","","Mainly Clear"
"2010-04-03 07:00","2010","04","03","07:00","13.8","","9.6","","76","","9","","4","","19.3","","100.14","","","","","","Mostly Cloudy"
"2010-04-03 08:00","2010","04","03","08:00","16.3","","9.4","","64","","21","","6","","19.3","","100.13","","","","","","Mainly Clear"
"2010-04-03 09:00","2010","04","03","09:00","18.4","","9.7","","57","","18","","9","","19.3","","100.08","","","","","","Mostly Cloudy"
"2010-04-03 10:00","2010","04","03","10:00","20.3","","10.1","","52","","16","","15","","24.1","","99.98","","","","","","Cloudy"
"2010-04-03 11:00","2010","04","03","11:00","22.5","","10.1","","45","","18","","13","","24.1","","99.90","","","","","","Mostly Cloudy"
"2010-04-03 12:00","2010","04","03","12:00","24.8","","10.7","","41","","18","","9","","24.1","","99.78","","26","","","","Mostly Cloudy"
"2010-04-03 13:00","2010","04","03","13:00","27.0","","10.8","","36","","15","","15","","24.1","","99.74","","29","","","","Cloudy"
"2010-04-03 14:00","2010","04","03","14:00","26.8","","10.1","","35","","14","","13","","24.1","","99.62","","28","","","","Cloudy"
"2010-04-03 15:00","2010","04","03","15:00","28.3","","10.3","","33","","18","","15","","24.1","","99.53","","30","","","","Cloudy"
"2010-04-03 16:00","2010","04","03","16:00","28.5","","10.5","","33","","17","","15","","24.1","","99.50","","30","","","","Cloudy"
"2010-04-03 17:00","2010","04","03","17:00","26.7","","11.1","","38","","16","","15","","24.1","","99.40","","29","","","","Cloudy"
"2010-04-03 18:00","2010","04","03","18:00","24.4","","10.7","","42","","13","","13","","24.1","","99.35","","26","","","","Cloudy"
"2010-04-03 19:00","2010","04","03","19:00","21.2","","10.3","","50","","11","","13","","25.0","","99.27","","","","","","Mostly Cloudy"
"2010-04-03 20:00","2010","04","03","20:00","21.6","","10.5","","49","","15","","13","","25.0","","99.33","","","","","","Mostly Cloudy"
"2010-04-03 21:00","2010","04","03","21:00","20.8","","10.0","","50","","16","","13","","25.0","","99.33","","","","","","Mostly Cloudy"
"2010-04-03 22:00","2010","04","03","22:00","23.2","","9.4","","41","","20","","28","","25.0","","99.34","","","","","","Mostly Cloudy"
"2010-04-03 23:00","2010","04","03","23:00","21.1","","9.0","","46","","24","","30","","25.0","","99.57","","","","","","Cloudy"
"2010-04-04 00:00","2010","04","04","00:00","20.0","","7.4","","44","","24","","32","","25.0","","99.73","","","","","","Cloudy"
"2010-04-04 01:00","2010","04","04","01:00","17.8","","6.1","","46","","25","","30","","25.0","","99.85","","","","","","Mostly Cloudy"
"2010-04-04 02:00","2010","04","04","02:00","14.2","","5.5","","56","","27","","28","","25.0","","100.04","","","","","","Mostly Cloudy"
"2010-04-04 03:00","2010","04","04","03:00","12.8","","5.2","","60","","27","","17","","25.0","","100.22","","","","","","Mostly Cloudy"
"2010-04-04 04:00","2010","04","04","04:00","11.2","","4.1","","62","","28","","13","","25.0","","100.31","","","","","","Mainly Clear"
"2010-04-04 05:00","2010","04","04","05:00","10.8","","4.5","","65","","25","","15","","25.0","","100.38","","","","","","Mostly Cloudy"
"2010-04-04 06:00","2010","04","04","06:00","10.3","","4.5","","67","","21","","7","","24.1","","100.46","","","","","","Mostly Cloudy"
"2010-04-04 07:00","2010","04","04","07:00","11.0","","5.0","","66","","23","","17","","24.1","","100.55","","","","","","Mostly Cloudy"
"2010-04-04 08:00","2010","04","04","08:00","12.1","","5.0","","62","","24","","19","","24.1","","100.60","","","","","","Mainly Clear"
"2010-04-04 09:00","2010","04","04","09:00","12.8","","4.5","","57","","25","","13","","24.1","","100.65","","","","","","Mainly Clear"
"2010-04-04 10:00","2010","04","04","10:00","14.3","","3.6","","49","","27","","17","","24.1","","100.65","","","","","","Mainly Clear"
"2010-04-04 11:00","2010","04","04","11:00","15.0","","0.9","","38","","29","","19","","24.1","","100.66","","","","","","Mainly Clear"
"2010-04-04 12:00","2010","04","04","12:00","16.2","","-0.2","","33","","31","","19","","24.1","","100.64","","","","","","Mainly Clear"
"2010-04-04 13:00","2010","04","04","13:00","17.2","","-0.4","","30","","29","","13","","24.1","","100.60","","","","","","Mainly Clear"
"2010-04-04 14:00","2010","04","04","14:00","17.5","","-2.3","","26","","29","","17","","24.1","","100.55","","","","","","Mainly Clear"
"2010-04-04 15:00","2010","04","04","15:00","18.3","","-1.9","","25","","27","","11","","24.1","","100.50","","","","","","Mainly Clear"
"2010-04-04 16:00","2010","04","04","16:00","18.1","","-1.8","","26","","27","","19","","24.1","","100.45","","","","","","Mainly Clear"
"2010-04-04 17:00","2010","04","04","17:00","18.1","","-2.3","","25","","25","","15","","24.1","","100.45","","","","","","Mainly Clear"
"2010-04-04 18:00","2010","04","04","18:00","16.4","","-1.2","","30","","20","","11","","24.1","","100.48","","","","","","Mainly Clear"
"2010-04-04 19:00","2010","04","04","19:00","14.3","","2.3","","44","","19","","19","","25.0","","100.47","","","","","","Mainly Clear"
"2010-04-04 20:00","2010","04","04","20:00","12.8","","1.0","","44","","19","","17","","25.0","","100.45","","","","","","Mainly Clear"
"2010-04-04 21:00","2010","04","04","21:00","11.3","","0.8","","48","","20","","11","","25.0","","100.47","","","","","","Clear"
"2010-04-04 22:00","2010","04","04","22:00","10.0","","0.8","","53","","19","","11","","25.0","","100.45","","","","","","Clear"
"2010-04-04 23:00","2010","04","04","23:00","8.9","","0.9","","57","","18","","9","","25.0","","100.42","","","","","","Clear"
"2010-04-05 00:00","2010","04","05","00:00","7.1","","0.6","","63","","15","","7","","25.0","","100.38","","","","","","Clear"
"2010-04-05 01:00","2010","04","05","01:00","8.2","","0.7","","59","","18","","7","","25.0","","100.35","","","","","","Mainly Clear"
"2010-04-05 02:00","2010","04","05","02:00","7.5","","0.5","","61","","16","","7","","25.0","","100.35","","","","","","Mainly Clear"
"2010-04-05 03:00","2010","04","05","03:00","8.1","","-0.4","","55","","18","","11","","25.0","","100.27","","","","","","Mostly Cloudy"
"2010-04-05 04:00","2010","04","05","04:00","9.1","","-0.6","","51","","17","","13","","25.0","","100.16","","","","","","Cloudy"
"2010-04-05 05:00","2010","04","05","05:00","9.1","","-0.3","","52","","20","","9","","25.0","","100.17","","","","","","Mostly Cloudy"
"2010-04-05 06:00","2010","04","05","06:00","9.1","","1.5","","59","","19","","7","","24.1","","100.09","","","","","","Rain"
"2010-04-05 07:00","2010","04","05","07:00","9.0","","3.3","","67","","8","","9","","24.1","","100.03","","","","","","Rain"
"2010-04-05 08:00","2010","04","05","08:00","9.9","","2.5","","60","","10","","9","","24.1","","99.92","","","","","","Cloudy"
"2010-04-05 09:00","2010","04","05","09:00","11.7","","3.5","","57","","15","","6","","24.1","","99.89","","","","","","Cloudy"
"2010-04-05 10:00","2010","04","05","10:00","13.4","","3.1","","50","","19","","9","","24.1","","99.78","","","","","","Cloudy"
"2010-04-05 11:00","2010","04","05","11:00","13.9","","2.7","","47","","21","","13","","24.1","","99.67","","","","","","Rain"
"2010-04-05 12:00","2010","04","05","12:00","15.1","","4.2","","48","","20","","15","","24.1","","99.59","","","","","","Cloudy"
"2010-04-05 13:00","2010","04","05","13:00","15.7","","4.4","","47","","22","","22","","24.1","","99.57","","","","","","Mostly Cloudy"
"2010-04-05 14:00","2010","04","05","14:00","18.1","","7.2","","49","","23","","24","","24.1","","99.51","","","","","","Mainly Clear"
"2010-04-05 15:00","2010","04","05","15:00","19.3","","8.4","","49","","22","","20","","24.1","","99.50","","","","","","Mainly Clear"
"2010-04-05 16:00","2010","04","05","16:00","20.2","","8.3","","46","","22","","30","","24.1","","99.44","","","","","","Mainly Clear"
"2010-04-05 17:00","2010","04","05","17:00","20.2","","7.2","","43","","25","","20","","24.1","","99.46","","","","","","Mainly Clear"
"2010-04-05 18:00","2010","04","05","18:00","20.1","","4.0","","35","","27","","33","","24.1","","99.50","","","","","","Mainly Clear"
"2010-04-05 19:00","2010","04","05","19:00","17.8","","2.6","","36","","27","","20","","24.1","","99.61","","","","","","Mainly Clear"
"2010-04-05 20:00","2010","04","05","20:00","17.1","","1.5","","35","","27","","33","","24.1","","99.74","","","","","","Mainly Clear"
"2010-04-05 21:00","2010","04","05","21:00","15.8","","1.8","","39","","27","","17","","24.1","","99.83","","","","","","Clear"
"2010-04-05 22:00","2010","04","05","22:00","12.8","","4.1","","55","","28","","13","","24.1","","99.93","","","","","","Clear"
"2010-04-05 23:00","2010","04","05","23:00","12.1","","4.3","","59","","19","","4","","24.1","","99.92","","","","","","Mainly Clear"
"2010-04-06 00:00","2010","04","06","00:00","11.4","","4.5","","62","","27","","6","","24.1","","99.96","","","","","","Cloudy"
"2010-04-06 01:00","2010","04","06","01:00","11.5","","4.8","","63","","22","","7","","24.1","","99.99","","","","","","Cloudy"
"2010-04-06 02:00","2010","04","06","02:00","10.4","","4.9","","69","","18","","4","","24.1","","99.94","","","","","","Cloudy"
"2010-04-06 03:00","2010","04","06","03:00","10.3","","4.9","","69","","26","","6","","24.1","","100.00","","","","","","Cloudy"
"2010-04-06 04:00","2010","04","06","04:00","9.2","","5.1","","75","","","","0","","24.1","","99.98","","","","","","Cloudy"
"2010-04-06 05:00","2010","04","06","05:00","9.4","","5.4","","76","","16","","6","","24.1","","99.90","","","","","","Cloudy"
"2010-04-06 06:00","2010","04","06","06:00","10.1","","5.4","","73","","18","","4","","24.1","","99.86","","","","","","Cloudy"
"2010-04-06 07:00","2010","04","06","07:00","10.0","","5.5","","74","","18","","7","","24.1","","99.80","","","","","","Cloudy"
"2010-04-06 08:00","2010","04","06","08:00","10.2","","5.6","","73","","18","","4","","24.1","","99.83","","","","","","Mostly Cloudy"
"2010-04-06 09:00","2010","04","06","09:00","10.4","","6.3","","76","","18","","7","","24.1","","99.76","","","","","","Mostly Cloudy"
"2010-04-06 10:00","2010","04","06","10:00","10.3","","7.2","","81","","20","","9","","24.1","","99.78","","","","","","Cloudy"
"2010-04-06 11:00","2010","04","06","11:00","10.8","","7.8","","82","","22","","7","","24.1","","99.78","","","","","","Cloudy"
"2010-04-06 12:00","2010","04","06","12:00","12.2","","8.4","","78","","22","","7","","24.1","","99.76","","","","","","Cloudy"
"2010-04-06 13:00","2010","04","06","13:00","14.3","","7.8","","65","","18","","7","","24.1","","99.62","","","","","","Mostly Cloudy"
"2010-04-06 14:00","2010","04","06","14:00","14.5","","4.0","","49","","19","","4","","24.1","","99.55","","","","","","Cloudy"
"2010-04-06 15:00","2010","04","06","15:00","14.3","","4.7","","52","","18","","6","","24.1","","99.47","","","","","","Cloudy"
"2010-04-06 16:00","2010","04","06","16:00","14.3","","5.1","","54","","17","","9","","24.1","","99.40","","","","","","Cloudy"
"2010-04-06 17:00","2010","04","06","17:00","14.1","","6.2","","59","","14","","7","","24.1","","99.34","","","","","","Cloudy"
"2010-04-06 18:00","2010","04","06","18:00","13.4","","6.6","","63","","8","","6","","24.1","","99.31","","","","","","Cloudy"
"2010-04-06 19:00","2010","04","06","19:00","13.0","","6.8","","66","","7","","6","","24.1","","99.27","","","","","","Cloudy"
"2010-04-06 20:00","2010","04","06","20:00","12.1","","6.9","","70","","8","","9","","24.1","","99.25","","","","","","Cloudy"
"2010-04-06 21:00","2010","04","06","21:00","11.5","","6.9","","73","","10","","7","","24.1","","99.18","","","","","","Cloudy"
"2010-04-06 22:00","2010","04","06","22:00","11.1","","8.0","","81","","8","","9","","24.1","","99.05","","","","","","Rain"
"2010-04-06 23:00","2010","04","06","23:00","10.0","","9.1","","94","","4","","11","","16.1","","98.95","","","","","","Rain Showers"
"2010-04-07 00:00","2010","04","07","00:00","9.5","","9.4","","99","","6","","9","","16.1","","98.92","","","","","","Rain Showers"
"2010-04-07 01:00","2010","04","07","01:00","9.4","","9.4","","100","","36","","13","","16.1","","98.93","","","","","","Rain Showers"
"2010-04-07 02:00","2010","04","07","02:00","9.6","","9.6","","100","","4","","11","","9.7","","98.84","","","","","","Rain,Fog"
"2010-04-07 03:00","2010","04","07","03:00","9.4","","9.4","","100","","8","","9","","9.7","","98.78","","","","","","Rain,Fog"
"2010-04-07 04:00","2010","04","07","04:00","9.4","","9.4","","100","","13","","7","","4.8","","98.73","","","","","","Fog"
"2010-04-07 05:00","2010","04","07","05:00","9.7","","9.7","","100","","2","","4","","4.8","","98.73","","","","","","Fog"
"2010-04-07 06:00","2010","04","07","06:00","9.5","","9.5","","100","","17","","6","","1.6","","98.66","","","","","","Rain,Fog"
"2010-04-07 07:00","2010","04","07","07:00","9.8","","9.8","","100","","5","","9","","3.2","","98.69","","","","","","Thunderstorms,Rain Showers,Fog"
"2010-04-07 08:00","2010","04","07","08:00","10.8","","10.8","","100","","","","0","","6.4","","98.64","","","","","","Fog"
"2010-04-07 09:00","2010","04","07","09:00","11.3","","11.1","","99","","29","","11","","6.4","","98.76","","","","","","Fog"
"2010-04-07 10:00","2010","04","07","10:00","10.8","","10.8","","100","","29","","19","","8.0","","98.95","","","","","","Fog"
"2010-04-07 11:00","2010","04","07","11:00","10.5","","10.3","","99","","34","","19","","24.1","","99.00","","","","","","Cloudy"
"2010-04-07 12:00","2010","04","07","12:00","12.4","","11.0","","91","","31","","13","","24.1","","99.00","","","","","","Mostly Cloudy"
"2010-04-07 13:00","2010","04","07","13:00","13.0","","10.4","","84","","30","","11","","24.1","","99.10","","","","","","Mostly Cloudy"
"2010-04-07 14:00","2010","04","07","14:00","13.5","","10.1","","80","","30","","9","","24.1","","99.14","","","","","","Mostly Cloudy"
"2010-04-07 15:00","2010","04","07","15:00","13.2","","9.1","","76","","35","","17","","24.1","","99.17","","","","","","Cloudy"
"2010-04-07 16:00","2010","04","07","16:00","13.6","","9.1","","74","","35","","9","","24.1","","99.20","","","","","","Mostly Cloudy"
"2010-04-07 17:00","2010","04","07","17:00","13.2","","9.1","","76","","32","","4","","24.1","","99.26","","","","","","Cloudy"
"2010-04-07 18:00","2010","04","07","18:00","12.8","","9.0","","78","","29","","9","","24.1","","99.37","","","","","","Cloudy"
"2010-04-07 19:00","2010","04","07","19:00","12.1","","8.5","","79","","35","","17","","24.1","","99.43","","","","","","Cloudy"
"2010-04-07 20:00","2010","04","07","20:00","11.1","","7.8","","80","","35","","19","","24.1","","99.51","","","","","","Cloudy"
"2010-04-07 21:00","2010","04","07","21:00","10.4","","7.3","","81","","36","","19","","24.1","","99.53","","","","","","Cloudy"
"2010-04-07 22:00","2010","04","07","22:00","9.9","","7.0","","82","","2","","15","","24.1","","99.51","","","","","","Cloudy"
"2010-04-07 23:00","2010","04","07","23:00","9.8","","6.6","","80","","3","","11","","24.1","","99.55","","","","","","Cloudy"
"2010-04-08 00:00","2010","04","08","00:00","9.9","","4.9","","71","","2","","15","","24.1","","99.58","","","","","","Cloudy"
"2010-04-08 01:00","2010","04","08","01:00","9.4","","3.0","","64","","4","","22","","24.1","","99.49","","","","","","Cloudy"
"2010-04-08 02:00","2010","04","08","02:00","8.7","","3.4","","69","","5","","17","","24.1","","99.54","","","","","","Cloudy"
"2010-04-08 03:00","2010","04","08","03:00","7.6","","4.6","","81","","3","","19","","19.3","","99.55","","","","","","Rain"
"2010-04-08 04:00","2010","04","08","04:00","6.5","","1.2","","69","","4","","19","","24.1","","99.55","","","","","","Cloudy"
"2010-04-08 05:00","2010","04","08","05:00","5.8","","0.0","","66","","4","","17","","24.1","","99.65","","","","","","Cloudy"
"2010-04-08 06:00","2010","04","08","06:00","5.6","","0.5","","70","","6","","19","","24.1","","99.64","","","","","","Cloudy"
"2010-04-08 07:00","2010","04","08","07:00","5.1","","-1.2","","64","","8","","33","","24.1","","99.63","","","","","","Cloudy"
"2010-04-08 08:00","2010","04","08","08:00","4.4","","-1.6","","65","","7","","33","","24.1","","99.49","","","","","","Cloudy"
"2010-04-08 09:00","2010","04","08","09:00","3.3","","-1.2","","72","","8","","30","","19.3","","99.57","","","","","","Rain"
"2010-04-08 10:00","2010","04","08","10:00","2.2","","0.0","","85","","6","","24","","11.3","","99.47","","","","","","Rain"
"2010-04-08 11:00","2010","04","08","11:00","2.7","","1.3","","90","","8","","33","","24.1","","99.28","","","","","","Rain"
"2010-04-08 12:00","2010","04","08","12:00","3.0","","0.9","","86","","8","","33","","24.1","","99.15","","","","","","Cloudy"
"2010-04-08 13:00","2010","04","08","13:00","4.9","","2.0","","81","","9","","30","","24.1","","98.99","","","","","","Cloudy"
"2010-04-08 14:00","2010","04","08","14:00","7.0","","2.6","","74","","8","","26","","24.1","","98.89","","","","","","Cloudy"
"2010-04-08 15:00","2010","04","08","15:00","8.0","","3.5","","73","","7","","26","","24.1","","98.79","","","","","","Cloudy"
"2010-04-08 16:00","2010","04","08","16:00","8.1","","3.9","","75","","8","","24","","24.1","","98.70","","","","","","Cloudy"
"2010-04-08 17:00","2010","04","08","17:00","7.2","","3.9","","80","","31","","22","","19.3","","98.92","","","","","","Thunderstorms,Rain Showers"
"2010-04-08 18:00","2010","04","08","18:00","5.9","","5.3","","96","","9","","15","","9.7","","98.85","","","","","","Thunderstorms,Rain Showers,Fog"
"2010-04-08 19:00","2010","04","08","19:00","6.2","","5.9","","98","","9","","26","","19.3","","98.65","","","","","","Rain Showers"
"2010-04-08 20:00","2010","04","08","20:00","7.3","","6.9","","97","","16","","11","","19.3","","98.77","","","","","","Cloudy"
"2010-04-08 21:00","2010","04","08","21:00","7.4","","7.1","","98","","21","","7","","19.3","","98.85","","","","","","Cloudy"
"2010-04-08 22:00","2010","04","08","22:00","7.0","","6.9","","99","","17","","7","","19.3","","98.81","","","","","","Cloudy"
"2010-04-08 23:00","2010","04","08","23:00","6.9","","6.6","","98","","17","","9","","12.9","","98.85","","","","","","Rain"
"2010-04-09 00:00","2010","04","09","00:00","7.0","","6.9","","99","","17","","13","","12.9","","98.82","","","","","","Rain"
"2010-04-09 01:00","2010","04","09","01:00","8.2","","7.7","","97","","21","","19","","9.7","","98.78","","","","","","Fog"
"2010-04-09 02:00","2010","04","09","02:00","7.2","","6.4","","95","","21","","20","","12.9","","98.80","","","","","","Cloudy"
"2010-04-09 03:00","2010","04","09","03:00","6.6","","5.7","","94","","22","","22","","16.1","","98.89","","","","","","Mostly Cloudy"
"2010-04-09 04:00","2010","04","09","04:00","6.1","","5.1","","93","","21","","15","","19.3","","98.95","","","","","","Cloudy"
"2010-04-09 05:00","2010","04","09","05:00","5.7","","4.1","","89","","22","","20","","24.1","","99.01","","","","","","Mostly Cloudy"
"2010-04-09 06:00","2010","04","09","06:00","4.9","","3.1","","88","","23","","19","","24.1","","99.10","","","","","","Mainly Clear"
"2010-04-09 07:00","2010","04","09","07:00","4.0","","-0.4","","73","","25","","20","","24.1","","99.22","","","","","","Mostly Cloudy"
"2010-04-09 08:00","2010","04","09","08:00","4.1","","-0.3","","73","","24","","15","","24.1","","99.27","","","","","","Cloudy"
"2010-04-09 09:00","2010","04","09","09:00","2.6","","0.7","","87","","24","","19","","24.1","","99.28","","","","","","Mostly Cloudy"
"2010-04-09 10:00","2010","04","09","10:00","5.3","","1.7","","78","","22","","20","","24.1","","99.30","","","","","","Cloudy"
"2010-04-09 11:00","2010","04","09","11:00","5.3","","0.6","","72","","23","","26","","24.1","","99.30","","","","","","Cloudy"
"2010-04-09 12:00","2010","04","09","12:00","5.5","","-1.4","","61","","23","","24","","24.1","","99.29","","","","","","Cloudy"
"2010-04-09 13:00","2010","04","09","13:00","4.7","","-0.7","","68","","25","","22","","24.1","","99.32","","","","","","Cloudy"
"2010-04-09 14:00","2010","04","09","14:00","4.7","","-0.7","","68","","25","","22","","24.1","","99.32","","","","","","Cloudy"
"2010-04-09 15:00","2010","04","09","15:00","3.8","","-0.3","","75","","24","","24","","24.1","","99.36","","","","","","Cloudy"
"2010-04-09 16:00","2010","04","09","16:00","4.2","","-1.4","","67","","27","","20","","24.1","","99.39","","","","","","Cloudy"
"2010-04-09 17:00","2010","04","09","17:00","4.6","","-3.1","","57","","23","","24","","24.1","","99.41","","","","","","Cloudy"
"2010-04-09 18:00","2010","04","09","18:00","4.2","","-2.6","","61","","24","","20","","24.1","","99.46","","","","","","Cloudy"
"2010-04-09 19:00","2010","04","09","19:00","3.1","","-1.2","","73","","26","","13","","16.1","","99.54","","","","","","Rain Showers"
"2010-04-09 20:00","2010","04","09","20:00","2.7","","-1.3","","75","","25","","7","","19.3","","99.55","","","","","","Mostly Cloudy"
"2010-04-09 21:00","2010","04","09","21:00","3.1","","-2.4","","67","","25","","11","","24.1","","99.53","","","","","","Mostly Cloudy"
"2010-04-09 22:00","2010","04","09","22:00","2.6","","-2.7","","68","","26","","15","","24.1","","99.56","","","","","","Mostly Cloudy"
"2010-04-09 23:00","2010","04","09","23:00","2.5","","-2.2","","71","","27","","24","","24.1","","99.59","","","","","","Mostly Cloudy"
"2010-04-10 00:00","2010","04","10","00:00","1.6","","-1.3","","81","","28","","22","","16.1","","99.65","","","","","","Snow"
"2010-04-10 01:00","2010","04","10","01:00","1.1","","-0.5","","89","","27","","17","","16.1","","99.68","","","","","","Snow"
"2010-04-10 02:00","2010","04","10","02:00","1.4","","-0.4","","88","","27","","22","","16.1","","99.74","","","","","","Snow"
"2010-04-10 03:00","2010","04","10","03:00","1.3","","-0.2","","90","","28","","17","","16.1","","99.81","","","","","","Snow"
"2010-04-10 04:00","2010","04","10","04:00","1.4","","-0.2","","89","","29","","22","","16.1","","99.90","","","","","","Snow"
"2010-04-10 05:00","2010","04","10","05:00","1.8","","-1.1","","81","","28","","20","","19.3","","100.01","","","","","","Cloudy"
"2010-04-10 06:00","2010","04","10","06:00","1.7","","-2.9","","71","","30","","30","","24.1","","100.15","","","","","","Mostly Cloudy"
"2010-04-10 07:00","2010","04","10","07:00","2.4","","-2.5","","70","","27","","20","","24.1","","100.28","","","","","","Mostly Cloudy"
"2010-04-10 08:00","2010","04","10","08:00","3.1","","-2.9","","65","","28","","26","","24.1","","100.37","","","","","","Mostly Cloudy"
"2010-04-10 09:00","2010","04","10","09:00","4.0","","-3.0","","60","","28","","28","","24.1","","100.41","","","","","","Mainly Clear"
"2010-04-10 10:00","2010","04","10","10:00","5.3","","-3.8","","52","","29","","33","","24.1","","100.52","","","","","","Mainly Clear"
"2010-04-10 11:00","2010","04","10","11:00","7.3","","-4.5","","43","","28","","30","","24.1","","100.50","","","","","","Mainly Clear"
"2010-04-10 12:00","2010","04","10","12:00","8.6","","-6.2","","34","","31","","35","","24.1","","100.47","","","","","","Clear"
"2010-04-10 13:00","2010","04","10","13:00","10.0","","-4.0","","37","","26","","37","","24.1","","100.46","","","","","","Clear"
"2010-04-10 14:00","2010","04","10","14:00","11.3","","-4.7","","32","","26","","28","","24.1","","100.41","","","","","","Mainly Clear"
"2010-04-10 15:00","2010","04","10","15:00","12.1","","-4.5","","31","","29","","26","","24.1","","100.43","","","","","","Mostly Cloudy"
"2010-04-10 16:00","2010","04","10","16:00","11.2","","-4.4","","33","","29","","17","","24.1","","100.37","","","","","","Mostly Cloudy"
"2010-04-10 17:00","2010","04","10","17:00","11.1","","-3.6","","35","","27","","13","","24.1","","100.34","","","","","","Cloudy"
"2010-04-10 18:00","2010","04","10","18:00","10.3","","-3.8","","37","","26","","17","","24.1","","100.40","","","","","","Cloudy"
"2010-04-10 19:00","2010","04","10","19:00","8.9","","-0.9","","50","","31","","22","","24.1","","100.50","","","","","","Rain"
"2010-04-10 20:00","2010","04","10","20:00","6.1","","2.4","","77","","34","","19","","24.1","","100.59","","","","","","Rain"
"2010-04-10 21:00","2010","04","10","21:00","5.8","","2.3","","78","","32","","7","","24.1","","100.60","","","","","","Rain"
"2010-04-10 22:00","2010","04","10","22:00","5.3","","1.5","","76","","31","","19","","25.0","","100.56","","","","","","Cloudy"
"2010-04-10 23:00","2010","04","10","23:00","4.7","","2.2","","84","","31","","6","","24.1","","100.46","","","","","","Rain"
"2010-04-11 00:00","2010","04","11","00:00","4.9","","1.6","","79","","","","0","","25.0","","100.42","","","","","","Cloudy"
"2010-04-11 01:00","2010","04","11","01:00","4.4","","2.7","","89","","10","","6","","25.0","","100.37","","","","","","Cloudy"
"2010-04-11 02:00","2010","04","11","02:00","4.7","","2.1","","83","","1","","6","","25.0","","100.39","","","","","","Cloudy"
"2010-04-11 03:00","2010","04","11","03:00","4.4","","2.2","","86","","31","","7","","25.0","","100.39","","","","","","Cloudy"
"2010-04-11 04:00","2010","04","11","04:00","4.4","","2.4","","87","","28","","6","","25.0","","100.44","","","","","","Cloudy"
"2010-04-11 05:00","2010","04","11","05:00","4.4","","2.5","","87","","30","","9","","25.0","","100.54","","","","","","Cloudy"
"2010-04-11 06:00","2010","04","11","06:00","4.4","","2.7","","89","","26","","11","","24.1","","100.66","","","","","","Cloudy"
"2010-04-11 07:00","2010","04","11","07:00","4.5","","2.5","","87","","26","","13","","24.1","","100.77","","","","","","Mostly Cloudy"
"2010-04-11 08:00","2010","04","11","08:00","4.8","","2.1","","83","","30","","22","","24.1","","100.82","","","","","","Mostly Cloudy"
"2010-04-11 09:00","2010","04","11","09:00","6.3","","2.2","","75","","29","","20","","24.1","","100.85","","","","","","Mostly Cloudy"
"2010-04-11 10:00","2010","04","11","10:00","6.6","","1.7","","71","","29","","20","","24.1","","100.91","","","","","","Mostly Cloudy"
"2010-04-11 11:00","2010","04","11","11:00","7.2","","1.8","","69","","30","","24","","24.1","","100.91","","","","","","Mostly Cloudy"
"2010-04-11 12:00","2010","04","11","12:00","8.3","","2.3","","66","","31","","24","","24.1","","100.88","","","","","","Mainly Clear"
"2010-04-11 13:00","2010","04","11","13:00","10.2","","2.4","","58","","31","","19","","24.1","","100.85","","","","","","Mostly Cloudy"
"2010-04-11 14:00","2010","04","11","14:00","11.8","","2.1","","51","","28","","22","","24.1","","100.81","","","","","","Mainly Clear"
"2010-04-11 15:00","2010","04","11","15:00","11.4","","0.6","","47","","31","","26","","24.1","","100.76","","","","","","Mainly Clear"
"2010-04-11 16:00","2010","04","11","16:00","8.1","","4.5","","78","","30","","17","","24.1","","100.87","","","","","","Mostly Cloudy"
"2010-04-11 17:00","2010","04","11","17:00","8.4","","2.9","","68","","26","","24","","24.1","","100.85","","","","","","Mostly Cloudy"
"2010-04-11 18:00","2010","04","11","18:00","9.2","","2.5","","63","","27","","20","","24.1","","100.86","","","","","","Mainly Clear"
"2010-04-11 19:00","2010","04","11","19:00","8.3","","1.9","","64","","25","","9","","24.1","","100.89","","","","","","Mainly Clear"
"2010-04-11 20:00","2010","04","11","20:00","6.2","","4.0","","86","","31","","33","","19.3","","101.05","","","","","","Rain Showers"
"2010-04-11 21:00","2010","04","11","21:00","4.5","","3.2","","91","","27","","11","","24.1","","101.05","","","","","","Mainly Clear"
"2010-04-11 22:00","2010","04","11","22:00","3.7","","2.6","","93","","28","","11","","24.1","","101.06","","","","","","Clear"
"2010-04-11 23:00","2010","04","11","23:00","3.4","","2.5","","94","","30","","7","","24.1","","101.07","","","","","","Clear"
"2010-04-12 00:00","2010","04","12","00:00","2.3","","1.4","","94","","31","","15","","24.1","","101.11","","","","","","Mainly Clear"
"2010-04-12 01:00","2010","04","12","01:00","1.4","","0.8","","96","","31","","13","","24.1","","101.12","","","","","","Mainly Clear"
"2010-04-12 02:00","2010","04","12","02:00","1.6","","1.2","","97","","30","","13","","24.1","","101.14","","","","","","Clear"
"2010-04-12 03:00","2010","04","12","03:00","1.1","","0.8","","98","","31","","13","","24.1","","101.21","","","","","","Clear"
"2010-04-12 04:00","2010","04","12","04:00","-0.1","","-0.9","","94","","32","","11","","24.1","","101.29","","","","-4","","Clear"
"2010-04-12 05:00","2010","04","12","05:00","0.2","","-2.4","","83","","33","","15","","24.1","","101.35","","","","","","Clear"
"2010-04-12 06:00","2010","04","12","06:00","1.0","","-2.3","","79","","33","","20","","24.1","","101.46","","","","","","Clear"
"2010-04-12 07:00","2010","04","12","07:00","2.2","","-1.3","","78","","32","","13","","24.1","","101.55","","","","","","Clear"
"2010-04-12 08:00","2010","04","12","08:00","3.5","","-1.4","","70","","33","","19","","24.1","","101.58","","","","","","Clear"
"2010-04-12 09:00","2010","04","12","09:00","4.5","","-1.4","","65","","30","","17","","24.1","","101.63","","","","","","Clear"
"2010-04-12 10:00","2010","04","12","10:00","5.9","","-1.2","","60","","28","","9","","24.1","","101.67","","","","","","Clear"
"2010-04-12 11:00","2010","04","12","11:00","7.3","","-1.8","","52","","28","","13","","24.1","","101.65","","","","","","Mainly Clear"
"2010-04-12 12:00","2010","04","12","12:00","8.2","","-2.7","","46","","31","","17","","24.1","","101.61","","","","","","Mostly Cloudy"
"2010-04-12 13:00","2010","04","12","13:00","9.7","","-3.4","","40","","27","","6","","24.1","","101.58","","","","","","Mostly Cloudy"
"2010-04-12 14:00","2010","04","12","14:00","11.0","","-4.4","","34","","26","","13","","24.1","","101.55","","","","","","Mostly Cloudy"
"2010-04-12 15:00","2010","04","12","15:00","11.8","","-4.8","","31","","27","","15","","24.1","","101.50","","","","","","Mainly Clear"
"2010-04-12 16:00","2010","04","12","16:00","12.1","","-4.6","","31","","28","","9","","24.1","","101.50","","","","","","Mainly Clear"
"2010-04-12 17:00","2010","04","12","17:00","12.1","","-5.0","","30","","30","","15","","24.1","","101.53","","","","","","Mainly Clear"
"2010-04-12 18:00","2010","04","12","18:00","10.8","","-3.3","","37","","28","","13","","24.1","","101.55","","","","","","Mainly Clear"
"2010-04-12 19:00","2010","04","12","19:00","9.4","","-4.2","","38","","27","","9","","25.0","","101.56","","","","","","Mainly Clear"
"2010-04-12 20:00","2010","04","12","20:00","7.9","","-3.8","","43","","26","","11","","25.0","","101.60","","","","","","Clear"
"2010-04-12 21:00","2010","04","12","21:00","7.2","","-3.7","","46","","28","","7","","25.0","","101.60","","","","","","Clear"
"2010-04-12 22:00","2010","04","12","22:00","6.1","","-3.6","","50","","29","","9","","25.0","","101.62","","","","","","Clear"
"2010-04-12 23:00","2010","04","12","23:00","5.0","","-3.2","","55","","31","","7","","25.0","","101.64","","","","","","Clear"
"2010-04-13 00:00","2010","04","13","00:00","4.3","","-3.3","","58","","31","","9","","25.0","","101.67","","","","","","Clear"
"2010-04-13 01:00","2010","04","13","01:00","5.3","","-2.9","","55","","36","","7","","25.0","","101.71","","","","","","Clear"
"2010-04-13 02:00","2010","04","13","02:00","3.9","","-4.3","","55","","1","","9","","25.0","","101.74","","","","","","Clear"
"2010-04-13 03:00","2010","04","13","03:00","3.1","","-4.3","","58","","36","","9","","25.0","","101.78","","","","","","Clear"
"2010-04-13 04:00","2010","04","13","04:00","3.6","","-5.7","","51","","4","","13","","25.0","","101.83","","","","","","Clear"
"2010-04-13 05:00","2010","04","13","05:00","3.0","","-6.0","","52","","4","","11","","24.1","","101.88","","","","","","Mainly Clear"
"2010-04-13 06:00","2010","04","13","06:00","2.8","","-6.2","","52","","4","","15","","24.1","","101.96","","","","","","Clear"
"2010-04-13 07:00","2010","04","13","07:00","4.7","","-5.6","","47","","7","","11","","24.1","","101.97","","","","","","Clear"
"2010-04-13 08:00","2010","04","13","08:00","6.2","","-5.2","","44","","9","","9","","24.1","","102.03","","","","","","Clear"
"2010-04-13 09:00","2010","04","13","09:00","7.9","","-4.6","","41","","8","","7","","24.1","","102.08","","","","","","Clear"
"2010-04-13 10:00","2010","04","13","10:00","9.0","","-5.3","","36","","25","","4","","24.1","","102.10","","","","","","Clear"
"2010-04-13 11:00","2010","04","13","11:00","10.1","","-5.6","","33","","31","","7","","24.1","","102.07","","","","","","Clear"
"2010-04-13 12:00","2010","04","13","12:00","11.1","","-5.7","","30","","30","","6","","24.1","","102.00","","","","","","Clear"
"2010-04-13 13:00","2010","04","13","13:00","11.7","","-5.7","","29","","34","","13","","24.1","","101.96","","","","","","Clear"
"2010-04-13 14:00","2010","04","13","14:00","13.0","","-6.8","","25","","36","","15","","24.1","","101.91","","","","","","Clear"
"2010-04-13 15:00","2010","04","13","15:00","13.2","","-5.5","","27","","31","","11","","24.1","","101.87","","","","","","Clear"
"2010-04-13 16:00","2010","04","13","16:00","13.7","","-6.8","","23","","31","","9","","24.1","","101.85","","","","","","Clear"
"2010-04-13 17:00","2010","04","13","17:00","13.7","","-6.9","","23","","24","","11","","24.1","","101.84","","","","","","Clear"
"2010-04-13 18:00","2010","04","13","18:00","13.3","","-7.3","","23","","30","","6","","24.1","","101.85","","","","","","Clear"
"2010-04-13 19:00","2010","04","13","19:00","11.5","","-6.2","","28","","27","","4","","24.1","","101.86","","","","","","Clear"
"2010-04-13 20:00","2010","04","13","20:00","9.0","","-7.5","","30","","11","","6","","25.0","","101.91","","","","","","Clear"
"2010-04-13 21:00","2010","04","13","21:00","10.0","","-7.8","","28","","17","","6","","25.0","","101.93","","","","","","Clear"
"2010-04-13 22:00","2010","04","13","22:00","9.0","","-7.0","","32","","","","0","","25.0","","101.94","","","","","","Clear"
"2010-04-13 23:00","2010","04","13","23:00","8.0","","-6.7","","35","","21","","6","","25.0","","101.92","","","","","","Clear"
"2010-04-14 00:00","2010","04","14","00:00","7.2","","-4.5","","43","","22","","4","","25.0","","101.91","","","","","","Clear"
"2010-04-14 01:00","2010","04","14","01:00","5.8","","-3.6","","51","","23","","6","","25.0","","101.89","","","","","","Clear"
"2010-04-14 02:00","2010","04","14","02:00","3.7","","-2.3","","65","","22","","7","","25.0","","101.90","","","","","","Clear"
"2010-04-14 03:00","2010","04","14","03:00","3.3","","-4.5","","57","","28","","6","","25.0","","101.92","","","","","","Clear"
"2010-04-14 04:00","2010","04","14","04:00","2.4","","-2.0","","73","","29","","11","","25.0","","101.95","","","","","","Clear"
"2010-04-14 05:00","2010","04","14","05:00","1.8","","-3.9","","66","","29","","9","","24.1","","102.00","","","","","","Mainly Clear"
"2010-04-14 06:00","2010","04","14","06:00","1.4","","-3.2","","71","","31","","13","","24.1","","102.05","","","","","","Clear"
"2010-04-14 07:00","2010","04","14","07:00","4.8","","-0.9","","67","","30","","7","","24.1","","102.08","","","","","","Clear"
"2010-04-14 08:00","2010","04","14","08:00","8.8","","0.0","","54","","29","","7","","24.1","","102.08","","","","","","Clear"
"2010-04-14 09:00","2010","04","14","09:00","11.0","","-3.3","","37","","30","","6","","24.1","","102.08","","","","","","Clear"
"2010-04-14 10:00","2010","04","14","10:00","13.7","","-2.1","","33","","26","","11","","24.1","","102.04","","","","","","Clear"
"2010-04-14 11:00","2010","04","14","11:00","14.6","","-3.8","","28","","33","","15","","24.1","","101.94","","","","","","Clear"
"2010-04-14 12:00","2010","04","14","12:00","15.3","","-5.3","","24","","31","","13","","24.1","","101.84","","","","","","Mainly Clear"
"2010-04-14 13:00","2010","04","14","13:00","16.3","","-4.2","","24","","28","","15","","24.1","","101.74","","","","","","Mainly Clear"
"2010-04-14 14:00","2010","04","14","14:00","16.7","","-5.7","","21","","30","","26","","24.1","","101.62","","","","","","Mainly Clear"
"2010-04-14 15:00","2010","04","14","15:00","17.4","","-6.6","","19","","27","","28","","24.1","","101.54","","","","","","Mainly Clear"
"2010-04-14 16:00","2010","04","14","16:00","17.4","","-5.7","","20","","28","","26","","24.1","","101.44","","","","","","Mainly Clear"
"2010-04-14 17:00","2010","04","14","17:00","17.1","","-5.9","","20","","27","","24","","24.1","","101.35","","","","","","Mainly Clear"
"2010-04-14 18:00","2010","04","14","18:00","16.0","","-5.3","","23","","29","","20","","25.0","","101.27","","","","","","Clear"
"2010-04-14 19:00","2010","04","14","19:00","14.9","","-5.9","","23","","26","","11","","24.1","","101.23","","","","","","Mainly Clear"
"2010-04-14 20:00","2010","04","14","20:00","13.0","","-5.8","","26","","26","","11","","25.0","","101.24","","","","","","Mainly Clear"
"2010-04-14 21:00","2010","04","14","21:00","12.2","","-6.1","","27","","29","","11","","25.0","","101.23","","","","","","Clear"
"2010-04-14 22:00","2010","04","14","22:00","11.5","","-5.4","","30","","27","","4","","25.0","","101.22","","","","","","Clear"
"2010-04-14 23:00","2010","04","14","23:00","9.7","","-4.4","","37","","25","","6","","25.0","","101.19","","","","","","Mainly Clear"
"2010-04-15 00:00","2010","04","15","00:00","7.5","","-2.6","","49","","24","","11","","25.0","","101.20","","","","","","Mainly Clear"
"2010-04-15 01:00","2010","04","15","01:00","8.2","","-4.3","","41","","26","","9","","25.0","","101.17","","","","","","Clear"
"2010-04-15 02:00","2010","04","15","02:00","5.2","","-3.6","","53","","36","","11","","25.0","","101.19","","","","","","Clear"
"2010-04-15 03:00","2010","04","15","03:00","5.9","","-3.6","","50","","30","","13","","25.0","","101.19","","","","","","Clear"
"2010-04-15 04:00","2010","04","15","04:00","6.6","","-3.9","","47","","36","","6","","25.0","","101.22","","","","","","Clear"
"2010-04-15 05:00","2010","04","15","05:00","5.9","","-5.3","","44","","6","","15","","24.1","","101.27","","","","","","Mostly Cloudy"
"2010-04-15 06:00","2010","04","15","06:00","4.7","","-4.2","","52","","6","","9","","24.1","","101.28","","","","","","Mostly Cloudy"
"2010-04-15 07:00","2010","04","15","07:00","5.8","","-3.9","","50","","7","","9","","24.1","","101.35","","","","","","Mostly Cloudy"
"2010-04-15 08:00","2010","04","15","08:00","7.4","","-5.2","","40","","9","","13","","24.1","","101.33","","","","","","Mostly Cloudy"
"2010-04-15 09:00","2010","04","15","09:00","8.9","","-5.0","","37","","10","","15","","24.1","","101.31","","","","","","Mostly Cloudy"
"2010-04-15 10:00","2010","04","15","10:00","10.3","","-2.8","","40","","8","","15","","24.1","","101.29","","","","","","Mostly Cloudy"
"2010-04-15 11:00","2010","04","15","11:00","11.2","","-3.0","","37","","6","","9","","24.1","","101.25","","","","","","Mostly Cloudy"
"2010-04-15 12:00","2010","04","15","12:00","12.4","","-2.4","","36","","13","","7","","24.1","","101.17","","","","","","Mostly Cloudy"
"2010-04-15 13:00","2010","04","15","13:00","13.5","","-2.3","","33","","14","","4","","24.1","","101.11","","","","","","Mostly Cloudy"
"2010-04-15 14:00","2010","04","15","14:00","14.2","","-1.1","","35","","11","","13","","24.1","","101.01","","","","","","Mostly Cloudy"
"2010-04-15 15:00","2010","04","15","15:00","13.9","","-2.1","","33","","11","","17","","24.1","","100.92","","","","","","Cloudy"
"2010-04-15 16:00","2010","04","15","16:00","13.3","","-0.6","","38","","12","","7","","24.1","","100.88","","","","","","Cloudy"
"2010-04-15 17:00","2010","04","15","17:00","10.8","","4.1","","63","","12","","7","","24.1","","100.88","","","","","","Rain"
"2010-04-15 18:00","2010","04","15","18:00","9.3","","4.6","","72","","10","","13","","24.1","","100.81","","","","","","Rain"
"2010-04-15 19:00","2010","04","15","19:00","7.1","","3.2","","76","","11","","19","","19.3","","100.75","","","","","","Rain"
"2010-04-15 20:00","2010","04","15","20:00","6.0","","2.7","","79","","9","","17","","25.0","","100.80","","","","","","Rain"
"2010-04-15 21:00","2010","04","15","21:00","6.1","","2.0","","75","","10","","19","","25.0","","100.73","","","","","","Cloudy"
"2010-04-15 22:00","2010","04","15","22:00","6.1","","1.4","","72","","10","","24","","25.0","","100.63","","","","","","Cloudy"
"2010-04-15 23:00","2010","04","15","23:00","5.8","","0.5","","69","","9","","19","","25.0","","100.53","","","","","","Mostly Cloudy"
"2010-04-16 00:00","2010","04","16","00:00","5.7","","1.0","","72","","10","","24","","25.0","","100.41","","","","","","Mostly Cloudy"
"2010-04-16 01:00","2010","04","16","01:00","5.2","","1.4","","76","","9","","26","","25.0","","100.32","","","","","","Cloudy"
"2010-04-16 02:00","2010","04","16","02:00","4.8","","1.4","","79","","8","","26","","25.0","","100.14","","","","","","Cloudy"
"2010-04-16 03:00","2010","04","16","03:00","4.8","","2.2","","83","","8","","28","","25.0","","100.08","","","","","","Cloudy"
"2010-04-16 04:00","2010","04","16","04:00","4.3","","2.5","","88","","9","","26","","25.0","","99.97","","","","","","Cloudy"
"2010-04-16 05:00","2010","04","16","05:00","3.9","","3.3","","96","","8","","19","","19.3","","99.85","","","","","","Rain"
"2010-04-16 06:00","2010","04","16","06:00","4.5","","4.0","","97","","9","","19","","16.1","","99.78","","","","","","Cloudy"
"2010-04-16 07:00","2010","04","16","07:00","5.0","","4.8","","99","","8","","17","","9.7","","99.71","","","","","","Fog"
"2010-04-16 08:00","2010","04","16","08:00","5.9","","5.2","","95","","8","","17","","9.7","","99.63","","","","","","Fog"
"2010-04-16 09:00","2010","04","16","09:00","7.6","","6.1","","90","","9","","19","","12.9","","99.55","","","","","","Cloudy"
"2010-04-16 10:00","2010","04","16","10:00","8.0","","6.4","","90","","9","","17","","9.7","","99.51","","","","","","Rain,Fog"
"2010-04-16 11:00","2010","04","16","11:00","7.8","","7.6","","99","","9","","13","","4.8","","99.40","","","","","","Rain,Fog"
"2010-04-16 12:00","2010","04","16","12:00","7.1","","7.0","","99","","6","","19","","6.4","","99.30","","","","","","Rain,Fog"
"2010-04-16 13:00","2010","04","16","13:00","7.0","","7.0","","100","","9","","17","","8.0","","99.24","","","","","","Fog"
"2010-04-16 14:00","2010","04","16","14:00","7.1","","7.1","","100","","8","","17","","8.0","","99.16","","","","","","Fog"
"2010-04-16 15:00","2010","04","16","15:00","7.2","","7.2","","100","","6","","13","","6.4","","99.08","","","","","","Fog"
"2010-04-16 16:00","2010","04","16","16:00","6.7","","6.7","","100","","5","","19","","3.2","","99.01","","","","","","Fog"
"2010-04-16 17:00","2010","04","16","17:00","6.3","","6.3","","100","","6","","24","","3.2","","98.94","","","","","","Fog"
"2010-04-16 18:00","2010","04","16","18:00","5.8","","5.8","","100","","7","","22","","3.2","","98.88","","","","","","Fog"
"2010-04-16 19:00","2010","04","16","19:00","5.5","","5.5","","100","","8","","22","","6.4","","98.81","","","","","","Rain,Fog"
"2010-04-16 20:00","2010","04","16","20:00","5.5","","5.4","","99","","6","","15","","19.3","","98.91","","","","","","Cloudy"
"2010-04-16 21:00","2010","04","16","21:00","5.3","","5.2","","99","","4","","7","","19.3","","98.91","","","","","","Cloudy"
"2010-04-16 22:00","2010","04","16","22:00","5.1","","5.1","","100","","4","","15","","19.3","","98.90","","","","","","Cloudy"
"2010-04-16 23:00","2010","04","16","23:00","4.9","","4.9","","100","","5","","7","","9.7","","98.88","","","","","","Fog"
"2010-04-17 00:00","2010","04","17","00:00","4.7","","4.7","","100","","10","","6","","8.0","","98.90","","","","","","Fog"
"2010-04-17 01:00","2010","04","17","01:00","4.5","","4.5","","100","","","","0","","1.2","","98.84","","","","","","Fog"
"2010-04-17 02:00","2010","04","17","02:00","4.4","","4.4","","100","","10","","4","","0.8","","98.79","","","","","","Fog"
"2010-04-17 03:00","2010","04","17","03:00","4.4","","4.4","","100","","11","","4","","0.6","","98.78","","","","","","Rain,Fog"
"2010-04-17 04:00","2010","04","17","04:00","4.8","","4.8","","100","","","","0","","1.6","","98.75","","","","","","Rain,Fog"
"2010-04-17 05:00","2010","04","17","05:00","3.9","","3.2","","95","","26","","15","","16.1","","98.82","","","","","","Rain"
"2010-04-17 06:00","2010","04","17","06:00","3.8","","3.1","","95","","24","","7","","19.3","","98.89","","","","","","Rain"
"2010-04-17 07:00","2010","04","17","07:00","3.9","","2.9","","93","","23","","13","","19.3","","98.94","","","","","","Rain"
"2010-04-17 08:00","2010","04","17","08:00","4.3","","2.8","","90","","21","","17","","19.3","","98.98","","","","","","Rain"
"2010-04-17 09:00","2010","04","17","09:00","4.5","","3.2","","91","","23","","11","","24.1","","99.01","","","","","","Rain"
"2010-04-17 10:00","2010","04","17","10:00","5.1","","3.3","","88","","23","","9","","24.1","","99.03","","","","","","Rain"
"2010-04-17 11:00","2010","04","17","11:00","5.6","","3.4","","86","","","","0","","24.1","","99.07","","","","","","Rain"
"2010-04-17 12:00","2010","04","17","12:00","6.2","","4.4","","88","","18","","4","","19.3","","99.11","","","","","","Rain"
"2010-04-17 13:00","2010","04","17","13:00","5.8","","5.0","","95","","23","","9","","8.0","","99.17","","","","","","Rain,Fog"
"2010-04-17 14:00","2010","04","17","14:00","6.0","","5.4","","96","","26","","7","","8.0","","99.24","","","","","","Rain,Fog"
"2010-04-17 15:00","2010","04","17","15:00","6.0","","5.3","","95","","30","","9","","6.4","","99.28","","","","","","Rain,Fog"
"2010-04-17 16:00","2010","04","17","16:00","6.1","","5.2","","94","","28","","13","","16.1","","99.33","","","","","","Rain"
"2010-04-17 17:00","2010","04","17","17:00","6.2","","4.8","","91","","28","","11","","16.1","","99.41","","","","","","Rain"
"2010-04-17 18:00","2010","04","17","18:00","6.1","","4.7","","91","","27","","7","","24.1","","99.45","","","","","","Rain"
"2010-04-17 19:00","2010","04","17","19:00","5.8","","4.9","","94","","27","","9","","19.3","","99.50","","","","","","Rain"
"2010-04-17 20:00","2010","04","17","20:00","5.4","","5.0","","97","","30","","9","","24.1","","99.57","","","","","","Rain"
"2010-04-17 21:00","2010","04","17","21:00","5.3","","5.0","","98","","5","","9","","12.9","","99.62","","","","","","Rain"
"2010-04-17 22:00","2010","04","17","22:00","4.4","","4.1","","98","","8","","20","","12.9","","99.66","","","","","","Rain"
"2010-04-17 23:00","2010","04","17","23:00","3.1","","2.3","","94","","7","","26","","16.1","","99.71","","","","","","Rain"
"2010-04-18 00:00","2010","04","18","00:00","2.5","","1.8","","95","","6","","17","","16.1","","99.75","","","","","","Rain"
"2010-04-18 01:00","2010","04","18","01:00","2.1","","1.6","","96","","4","","17","","19.3","","99.77","","","","","","Rain"
"2010-04-18 02:00","2010","04","18","02:00","2.4","","1.6","","94","","2","","15","","24.1","","99.74","","","","","","Cloudy"
"2010-04-18 03:00","2010","04","18","03:00","2.5","","1.3","","92","","36","","17","","25.0","","99.77","","","","","","Cloudy"
"2010-04-18 04:00","2010","04","18","04:00","1.7","","0.2","","90","","35","","17","","25.0","","99.82","","","","","","Mostly Cloudy"
"2010-04-18 05:00","2010","04","18","05:00","0.6","","-0.3","","94","","32","","11","","25.0","","99.81","","","","","","Mainly Clear"
"2010-04-18 06:00","2010","04","18","06:00","0.3","","-0.2","","96","","31","","11","","24.1","","99.83","","","","","","Mainly Clear"
"2010-04-18 07:00","2010","04","18","07:00","2.4","","1.3","","92","","31","","15","","24.1","","99.90","","","","","","Mainly Clear"
"2010-04-18 08:00","2010","04","18","08:00","4.0","","1.8","","86","","29","","11","","24.1","","99.88","","","","","","Mainly Clear"
"2010-04-18 09:00","2010","04","18","09:00","5.4","","2.9","","84","","31","","15","","24.1","","99.92","","","","","","Mostly Cloudy"
"2010-04-18 10:00","2010","04","18","10:00","7.2","","3.4","","77","","31","","17","","24.1","","99.92","","","","","","Mostly Cloudy"
"2010-04-18 11:00","2010","04","18","11:00","10.0","","3.1","","62","","31","","15","","24.1","","99.85","","","","","","Mostly Cloudy"
"2010-04-18 12:00","2010","04","18","12:00","10.8","","1.9","","54","","33","","13","","24.1","","99.82","","","","","","Mostly Cloudy"
"2010-04-18 13:00","2010","04","18","13:00","12.3","","1.5","","48","","33","","24","","24.1","","99.81","","","","","","Mostly Cloudy"
"2010-04-18 14:00","2010","04","18","14:00","13.2","","1.7","","46","","33","","19","","24.1","","99.79","","","","","","Mostly Cloudy"
"2010-04-18 15:00","2010","04","18","15:00","14.0","","0.6","","40","","32","","28","","24.1","","99.76","","","","","","Mostly Cloudy"
"2010-04-18 16:00","2010","04","18","16:00","13.2","","0.4","","41","","2","","15","","24.1","","99.76","","","","","","Mostly Cloudy"
"2010-04-18 17:00","2010","04","18","17:00","12.6","","0.0","","42","","2","","20","","24.1","","99.82","","","","","","Mostly Cloudy"
"2010-04-18 18:00","2010","04","18","18:00","11.8","","0.1","","44","","1","","20","","24.1","","99.89","","","","","","Mostly Cloudy"
"2010-04-18 19:00","2010","04","18","19:00","10.9","","0.4","","48","","2","","17","","24.1","","99.96","","","","","","Mostly Cloudy"
"2010-04-18 20:00","2010","04","18","20:00","10.2","","0.4","","51","","2","","15","","25.0","","100.03","","","","","","Mostly Cloudy"
"2010-04-18 21:00","2010","04","18","21:00","9.6","","0.8","","54","","36","","11","","25.0","","100.04","","","","","","Mostly Cloudy"
"2010-04-18 22:00","2010","04","18","22:00","8.5","","1.1","","60","","36","","9","","25.0","","100.05","","","","","","Mostly Cloudy"
"2010-04-18 23:00","2010","04","18","23:00","8.0","","1.0","","61","","32","","11","","25.0","","100.05","","","","","","Mostly Cloudy"
"2010-04-19 00:00","2010","04","19","00:00","7.3","","3.1","","75","","8","","13","","25.0","","100.09","","","","","","Mostly Cloudy"
"2010-04-19 01:00","2010","04","19","01:00","7.0","","3.7","","79","","5","","6","","25.0","","100.08","","","","","","Mostly Cloudy"
"2010-04-19 02:00","2010","04","19","02:00","6.0","","3.2","","82","","36","","6","","25.0","","100.12","","","","","","Mostly Cloudy"
"2010-04-19 03:00","2010","04","19","03:00","5.1","","3.1","","87","","30","","7","","25.0","","100.14","","","","","","Mostly Cloudy"
"2010-04-19 04:00","2010","04","19","04:00","4.8","","2.9","","87","","31","","9","","25.0","","100.16","","","","","","Mostly Cloudy"
"2010-04-19 05:00","2010","04","19","05:00","3.1","","1.0","","86","","31","","13","","25.0","","100.19","","","","","","Mostly Cloudy"
"2010-04-19 06:00","2010","04","19","06:00","5.8","","1.8","","75","","35","","11","","24.1","","100.28","","","","","","Mostly Cloudy"
"2010-04-19 07:00","2010","04","19","07:00","8.0","","2.2","","67","","1","","17","","24.1","","100.34","","","","","","Mainly Clear"
"2010-04-19 08:00","2010","04","19","08:00","9.3","","1.3","","57","","35","","17","","24.1","","100.36","","","","","","Mainly Clear"
"2010-04-19 09:00","2010","04","19","09:00","10.4","","1.8","","55","","35","","15","","32.2","","100.36","","","","","","Mainly Clear"
"2010-04-19 10:00","2010","04","19","10:00","11.1","","1.7","","52","","32","","11","","32.2","","100.36","","","","","","Mainly Clear"
"2010-04-19 11:00","2010","04","19","11:00","12.8","","2.0","","48","","34","","19","","32.2","","100.32","","","","","","Mainly Clear"
"2010-04-19 12:00","2010","04","19","12:00","14.0","","3.3","","48","","1","","6","","32.2","","100.29","","","","","","Mainly Clear"
"2010-04-19 13:00","2010","04","19","13:00","15.4","","2.8","","43","","32","","17","","32.2","","100.29","","","","","","Mainly Clear"
"2010-04-19 14:00","2010","04","19","14:00","15.7","","4.2","","46","","34","","11","","32.2","","100.26","","","","","","Mainly Clear"
"2010-04-19 15:00","2010","04","19","15:00","16.4","","3.8","","43","","33","","7","","32.2","","100.22","","","","","","Mostly Cloudy"
"2010-04-19 16:00","2010","04","19","16:00","16.3","","3.3","","42","","31","","17","","32.2","","100.21","","","","","","Mostly Cloudy"
"2010-04-19 17:00","2010","04","19","17:00","16.1","","2.9","","41","","33","","15","","32.2","","100.20","","","","","","Mostly Cloudy"
"2010-04-19 18:00","2010","04","19","18:00","15.8","","2.2","","40","","36","","11","","32.2","","100.18","","","","","","Mostly Cloudy"
"2010-04-19 19:00","2010","04","19","19:00","13.7","","2.3","","46","","32","","11","","25.0","","100.19","","","","","","Mostly Cloudy"
"2010-04-19 20:00","2010","04","19","20:00","13.6","","2.7","","48","","32","","9","","25.0","","100.25","","","","","","Mostly Cloudy"
"2010-04-19 21:00","2010","04","19","21:00","13.5","","2.9","","49","","30","","6","","25.0","","100.25","","","","","","Mostly Cloudy"
"2010-04-19 22:00","2010","04","19","22:00","12.3","","3.2","","54","","30","","9","","25.0","","100.23","","","","","","Mostly Cloudy"
"2010-04-19 23:00","2010","04","19","23:00","10.5","","2.0","","56","","32","","9","","25.0","","100.22","","","","","","Mainly Clear"
"2010-04-20 00:00","2010","04","20","00:00","9.6","","1.0","","55","","34","","13","","25.0","","100.21","","","","","","Clear"
"2010-04-20 01:00","2010","04","20","01:00","9.3","","1.9","","60","","33","","13","","25.0","","100.19","","","","","","Clear"
"2010-04-20 02:00","2010","04","20","02:00","8.3","","-0.4","","54","","32","","9","","25.0","","100.16","","","","","","Clear"
"2010-04-20 03:00","2010","04","20","03:00","6.2","","0.8","","68","","31","","11","","25.0","","100.17","","","","","","Clear"
"2010-04-20 04:00","2010","04","20","04:00","6.2","","0.6","","67","","28","","4","","25.0","","100.17","","","","","","Clear"
"2010-04-20 05:00","2010","04","20","05:00","5.2","","0.8","","73","","29","","11","","25.0","","100.18","","","","","","Clear"
"2010-04-20 06:00","2010","04","20","06:00","5.3","","1.0","","74","","27","","7","","24.1","","100.20","","","","","","Mainly Clear"
"2010-04-20 07:00","2010","04","20","07:00","7.7","","2.3","","69","","29","","7","","24.1","","100.22","","","","","","Mainly Clear"
"2010-04-20 08:00","2010","04","20","08:00","10.1","","1.6","","55","","28","","11","","24.1","","100.22","","","","","","Mainly Clear"
"2010-04-20 09:00","2010","04","20","09:00","13.4","","3.4","","51","","27","","9","","24.1","","100.20","","","","","","Mainly Clear"
"2010-04-20 10:00","2010","04","20","10:00","15.4","","3.1","","44","","28","","13","","24.1","","100.17","","","","","","Clear"
"2010-04-20 11:00","2010","04","20","11:00","17.3","","2.3","","37","","30","","20","","24.1","","100.09","","","","","","Mainly Clear"
"2010-04-20 12:00","2010","04","20","12:00","18.4","","2.9","","36","","27","","19","","24.1","","100.01","","","","","","Mainly Clear"
"2010-04-20 13:00","2010","04","20","13:00","19.2","","2.9","","34","","31","","15","","24.1","","99.93","","","","","","Mainly Clear"
"2010-04-20 14:00","2010","04","20","14:00","19.1","","3.5","","36","","26","","13","","24.1","","99.85","","","","","","Mainly Clear"
"2010-04-20 15:00","2010","04","20","15:00","19.1","","2.2","","32","","29","","19","","24.1","","99.79","","","","","","Mainly Clear"
"2010-04-20 16:00","2010","04","20","16:00","19.1","","0.6","","29","","28","","15","","24.1","","99.75","","","","","","Mainly Clear"
"2010-04-20 17:00","2010","04","20","17:00","18.1","","0.2","","30","","27","","11","","24.1","","99.73","","","","","","Mainly Clear"
"2010-04-20 18:00","2010","04","20","18:00","17.8","","0.8","","32","","27","","9","","24.1","","99.71","","","","","","Mainly Clear"
"2010-04-20 19:00","2010","04","20","19:00","16.6","","-0.2","","32","","26","","7","","24.1","","99.70","","","","","","Mainly Clear"
"2010-04-20 20:00","2010","04","20","20:00","14.7","","1.2","","40","","21","","7","","25.0","","99.72","","","","","","Mainly Clear"
"2010-04-20 21:00","2010","04","20","21:00","13.8","","1.5","","43","","22","","15","","25.0","","99.70","","","","","","Mainly Clear"
"2010-04-20 22:00","2010","04","20","22:00","12.1","","1.1","","47","","24","","6","","25.0","","99.67","","","","","","Mostly Cloudy"
"2010-04-20 23:00","2010","04","20","23:00","12.2","","0.0","","43","","22","","7","","25.0","","99.63","","","","","","Mostly Cloudy"
"2010-04-21 00:00","2010","04","21","00:00","11.7","","-0.4","","43","","23","","7","","25.0","","99.59","","","","","","Mostly Cloudy"
"2010-04-21 01:00","2010","04","21","01:00","10.2","","-0.4","","48","","21","","9","","25.0","","99.54","","","","","","Mainly Clear"
"2010-04-21 02:00","2010","04","21","02:00","9.6","","-0.3","","50","","21","","7","","25.0","","99.49","","","","","","Mainly Clear"
"2010-04-21 03:00","2010","04","21","03:00","8.6","","0.2","","55","","20","","9","","25.0","","99.49","","","","","","Mainly Clear"
"2010-04-21 04:00","2010","04","21","04:00","8.4","","0.3","","57","","20","","9","","25.0","","99.48","","","","","","Mainly Clear"
"2010-04-21 05:00","2010","04","21","05:00","7.1","","0.2","","61","","21","","6","","24.1","","99.46","","","","","","Mainly Clear"
"2010-04-21 06:00","2010","04","21","06:00","6.5","","0.5","","65","","19","","6","","24.1","","99.49","","","","","","Mainly Clear"
"2010-04-21 07:00","2010","04","21","07:00","7.7","","2.1","","68","","20","","9","","24.1","","99.51","","","","","","Mainly Clear"
"2010-04-21 08:00","2010","04","21","08:00","10.4","","1.4","","54","","26","","13","","24.1","","99.49","","","","","","Mostly Cloudy"
"2010-04-21 09:00","2010","04","21","09:00","11.7","","2.7","","54","","25","","11","","24.1","","99.46","","","","","","Mostly Cloudy"
"2010-04-21 10:00","2010","04","21","10:00","14.1","","3.7","","49","","27","","13","","24.1","","99.44","","","","","","Mostly Cloudy"
"2010-04-21 11:00","2010","04","21","11:00","15.3","","5.1","","51","","27","","9","","24.1","","99.39","","","","","","Cloudy"
"2010-04-21 12:00","2010","04","21","12:00","15.4","","2.7","","42","","29","","19","","24.1","","99.36","","","","","","Cloudy"
"2010-04-21 13:00","2010","04","21","13:00","16.7","","2.8","","39","","32","","13","","24.1","","99.31","","","","","","Mostly Cloudy"
"2010-04-21 14:00","2010","04","21","14:00","16.6","","2.8","","40","","30","","15","","24.1","","99.24","","","","","","Mostly Cloudy"
"2010-04-21 15:00","2010","04","21","15:00","17.0","","2.1","","37","","32","","11","","24.1","","99.19","","","","","","Cloudy"
"2010-04-21 16:00","2010","04","21","16:00","17.2","","1.5","","35","","33","","11","","24.1","","99.14","","","","","","Mostly Cloudy"
"2010-04-21 17:00","2010","04","21","17:00","17.3","","1.0","","33","","33","","4","","24.1","","99.10","","","","","","Mostly Cloudy"
"2010-04-21 18:00","2010","04","21","18:00","16.3","","1.5","","37","","29","","4","","24.1","","99.09","","","","","","Mostly Cloudy"
"2010-04-21 19:00","2010","04","21","19:00","13.4","","3.2","","50","","34","","28","","24.1","","99.13","","","","","","Mainly Clear"
"2010-04-21 20:00","2010","04","21","20:00","11.4","","2.3","","54","","1","","20","","25.0","","99.23","","","","","","Mostly Cloudy"
"2010-04-21 21:00","2010","04","21","21:00","10.0","","2.3","","59","","36","","15","","25.0","","99.25","","","","","","Mainly Clear"
"2010-04-21 22:00","2010","04","21","22:00","8.2","","2.4","","67","","33","","19","","25.0","","99.25","","","","","","Mainly Clear"
"2010-04-21 23:00","2010","04","21","23:00","5.7","","2.2","","78","","33","","17","","25.0","","99.29","","","","","","Mainly Clear"
"2010-04-22 00:00","2010","04","22","00:00","4.8","","2.2","","83","","32","","19","","25.0","","99.29","","","","","","Mainly Clear"
"2010-04-22 01:00","2010","04","22","01:00","4.4","","2.2","","86","","34","","19","","25.0","","99.26","","","","","","Mostly Cloudy"
"2010-04-22 02:00","2010","04","22","02:00","4.0","","2.2","","88","","33","","15","","25.0","","99.24","","","","","","Rain"
"2010-04-22 03:00","2010","04","22","03:00","3.9","","2.0","","87","","33","","19","","25.0","","99.25","","","","","","Mostly Cloudy"
"2010-04-22 04:00","2010","04","22","04:00","3.3","","1.6","","89","","33","","15","","25.0","","99.25","","","","","","Mainly Clear"
"2010-04-22 05:00","2010","04","22","05:00","3.6","","1.5","","86","","34","","11","","24.1","","99.28","","","","","","Mostly Cloudy"
"2010-04-22 06:00","2010","04","22","06:00","3.6","","1.2","","84","","34","","13","","24.1","","99.36","","","","","","Mostly Cloudy"
"2010-04-22 07:00","2010","04","22","07:00","4.8","","1.6","","80","","36","","17","","24.1","","99.40","","","","","","Mostly Cloudy"
"2010-04-22 08:00","2010","04","22","08:00","4.9","","1.0","","76","","35","","13","","24.1","","99.41","","","","","","Mostly Cloudy"
"2010-04-22 09:00","2010","04","22","09:00","4.6","","0.7","","76","","31","","17","","24.1","","99.46","","","","","","Mostly Cloudy"
"2010-04-22 10:00","2010","04","22","10:00","4.7","","0.7","","75","","35","","17","","24.1","","99.50","","","","","","Cloudy"
"2010-04-22 11:00","2010","04","22","11:00","4.2","","0.3","","76","","31","","19","","24.1","","99.54","","","","","","Mostly Cloudy"
"2010-04-22 12:00","2010","04","22","12:00","4.4","","0.8","","77","","32","","17","","24.1","","99.55","","","","","","Mostly Cloudy"
"2010-04-22 13:00","2010","04","22","13:00","5.7","","0.8","","71","","35","","13","","24.1","","99.57","","","","","","Cloudy"
"2010-04-22 14:00","2010","04","22","14:00","5.5","","0.6","","71","","33","","20","","24.1","","99.59","","","","","","Mostly Cloudy"
"2010-04-22 15:00","2010","04","22","15:00","7.3","","2.0","","69","","2","","9","","24.1","","99.53","","","","","","Mostly Cloudy"
"2010-04-22 16:00","2010","04","22","16:00","7.9","","0.9","","61","","2","","9","","24.1","","99.55","","","","","","Mostly Cloudy"
"2010-04-22 17:00","2010","04","22","17:00","9.1","","1.2","","58","","3","","4","","24.1","","99.56","","","","","","Mostly Cloudy"
"2010-04-22 18:00","2010","04","22","18:00","8.6","","0.9","","58","","24","","4","","24.1","","99.59","","","","","","Mostly Cloudy"
"2010-04-22 19:00","2010","04","22","19:00","7.7","","1.4","","64","","17","","6","","24.1","","99.63","","","","","","Mostly Cloudy"
"2010-04-22 20:00","2010","04","22","20:00","7.4","","1.2","","65","","21","","6","","25.0","","99.70","","","","","","Mostly Cloudy"
"2010-04-22 21:00","2010","04","22","21:00","6.7","","1.5","","69","","22","","9","","25.0","","99.72","","","","","","Mostly Cloudy"
"2010-04-22 22:00","2010","04","22","22:00","5.7","","-0.5","","64","","","","0","","25.0","","99.75","","","","","","Clear"
"2010-04-22 23:00","2010","04","22","23:00","4.8","","-3.9","","53","","36","","9","","25.0","","99.76","","","","","","Clear"
"2010-04-23 00:00","2010","04","23","00:00","2.7","","-4.1","","61","","32","","9","","25.0","","99.78","","","","","","Clear"
"2010-04-23 01:00","2010","04","23","01:00","1.9","","-4.4","","63","","32","","13","","25.0","","99.77","","","","","","Mainly Clear"
"2010-04-23 02:00","2010","04","23","02:00","0.7","","-4.4","","69","","32","","11","","25.0","","99.76","","","","","","Mainly Clear"
"2010-04-23 03:00","2010","04","23","03:00","0.3","","-3.9","","73","","27","","7","","25.0","","99.80","","","","","","Clear"
"2010-04-23 04:00","2010","04","23","04:00","-0.7","","-4.2","","77","","30","","11","","25.0","","99.84","","","","-4","","Clear"
"2010-04-23 05:00","2010","04","23","05:00","-0.6","","-3.6","","80","","30","","11","","24.1","","99.89","","","","-4","","Mainly Clear"
"2010-04-23 06:00","2010","04","23","06:00","0.3","","-1.9","","85","","31","","11","","24.1","","99.96","","","","","","Clear"
"2010-04-23 07:00","2010","04","23","07:00","3.6","","-1.6","","69","","32","","15","","24.1","","100.04","","","","","","Clear"
"2010-04-23 08:00","2010","04","23","08:00","6.5","","-4.2","","46","","32","","17","","24.1","","100.06","","","","","","Clear"
"2010-04-23 09:00","2010","04","23","09:00","8.2","","-4.3","","41","","34","","22","","24.1","","100.06","","","","","","Clear"
"2010-04-23 10:00","2010","04","23","10:00","8.2","","-4.4","","41","","33","","20","","24.1","","100.08","","","","","","Clear"
"2010-04-23 11:00","2010","04","23","11:00","9.1","","-4.4","","38","","31","","17","","24.1","","100.04","","","","","","Clear"
"2010-04-23 12:00","2010","04","23","12:00","10.6","","-4.4","","35","","34","","17","","24.1","","100.04","","","","","","Clear"
"2010-04-23 13:00","2010","04","23","13:00","11.7","","-5.5","","30","","35","","15","","24.1","","100.02","","","","","","Clear"
"2010-04-23 14:00","2010","04","23","14:00","12.6","","-6.5","","26","","36","","15","","24.1","","100.04","","","","","","Clear"
"2010-04-23 15:00","2010","04","23","15:00","13.3","","-5.8","","26","","34","","15","","24.1","","100.04","","","","","","Clear"
"2010-04-23 16:00","2010","04","23","16:00","13.9","","-5.3","","26","","28","","19","","24.1","","100.05","","","","","","Clear"
"2010-04-23 17:00","2010","04","23","17:00","13.8","","-6.6","","24","","34","","7","","24.1","","100.10","","","","","","Clear"
"2010-04-23 18:00","2010","04","23","18:00","13.5","","-6.1","","25","","32","","13","","25.0","","100.13","","","","","","Clear"
"2010-04-23 19:00","2010","04","23","19:00","11.7","","-5.0","","31","","27","","11","","25.0","","100.18","","","","","","Clear"
"2010-04-23 20:00","2010","04","23","20:00","10.8","","-5.1","","32","","27","","6","","25.0","","100.24","","","","","","Clear"
"2010-04-23 21:00","2010","04","23","21:00","9.8","","-4.6","","36","","","","0","","25.0","","100.31","","","","","","Clear"
"2010-04-23 22:00","2010","04","23","22:00","8.8","","-4.6","","38","","22","","4","","25.0","","100.32","","","","","","Clear"
"2010-04-23 23:00","2010","04","23","23:00","7.7","","-4.3","","42","","","","0","","25.0","","100.33","","","","","","Clear"
"2010-04-24 00:00","2010","04","24","00:00","7.2","","-4.1","","44","","","","0","","25.0","","100.36","","","","","","Clear"
"2010-04-24 01:00","2010","04","24","01:00","5.1","","-2.7","","57","","20","","6","","25.0","","100.37","","","","","","Clear"
"2010-04-24 02:00","2010","04","24","02:00","5.5","","-2.1","","58","","23","","7","","25.0","","100.42","","","","","","Clear"
"2010-04-24 03:00","2010","04","24","03:00","3.9","","-1.8","","66","","22","","6","","25.0","","100.46","","","","","","Clear"
"2010-04-24 04:00","2010","04","24","04:00","3.9","","-1.6","","67","","","","0","","25.0","","100.45","","","","","","Clear"
"2010-04-24 05:00","2010","04","24","05:00","3.6","","-0.9","","72","","18","","4","","25.0","","100.48","","","","","","Clear"
"2010-04-24 06:00","2010","04","24","06:00","2.7","","-0.2","","81","","18","","6","","24.1","","100.56","","","","","","Clear"
"2010-04-24 07:00","2010","04","24","07:00","4.4","","1.2","","80","","20","","11","","24.1","","100.51","","","","","","Clear"
"2010-04-24 08:00","2010","04","24","08:00","9.0","","1.3","","58","","19","","7","","24.1","","100.50","","","","","","Mainly Clear"
"2010-04-24 09:00","2010","04","24","09:00","12.3","","0.7","","45","","22","","7","","24.1","","100.43","","","","","","Mainly Clear"
"2010-04-24 10:00","2010","04","24","10:00","14.5","","0.8","","39","","20","","11","","24.1","","100.40","","","","","","Mainly Clear"
"2010-04-24 11:00","2010","04","24","11:00","16.6","","0.7","","34","","21","","19","","24.1","","100.32","","","","","","Mainly Clear"
"2010-04-24 12:00","2010","04","24","12:00","18.1","","1.1","","32","","21","","6","","24.1","","100.21","","","","","","Mostly Cloudy"
"2010-04-24 13:00","2010","04","24","13:00","18.2","","0.7","","31","","23","","20","","24.1","","100.09","","","","","","Mostly Cloudy"
"2010-04-24 14:00","2010","04","24","14:00","18.8","","1.5","","31","","24","","20","","24.1","","99.99","","","","","","Mostly Cloudy"
"2010-04-24 15:00","2010","04","24","15:00","20.2","","1.8","","29","","22","","20","","24.1","","99.85","","","","","","Cloudy"
"2010-04-24 16:00","2010","04","24","16:00","19.7","","1.2","","29","","21","","20","","24.1","","99.80","","","","","","Mostly Cloudy"
"2010-04-24 17:00","2010","04","24","17:00","18.7","","1.4","","31","","21","","17","","24.1","","99.77","","","","","","Mostly Cloudy"
"2010-04-24 18:00","2010","04","24","18:00","17.4","","1.4","","34","","21","","19","","24.1","","99.74","","","","","","Mostly Cloudy"
"2010-04-24 19:00","2010","04","24","19:00","15.8","","0.9","","36","","21","","13","","24.1","","99.73","","","","","","Mostly Cloudy"
"2010-04-24 20:00","2010","04","24","20:00","14.7","","0.8","","39","","22","","15","","24.1","","99.74","","","","","","Mostly Cloudy"
"2010-04-24 21:00","2010","04","24","21:00","13.2","","1.1","","44","","23","","11","","25.0","","99.66","","","","","","Mostly Cloudy"
"2010-04-24 22:00","2010","04","24","22:00","14.1","","2.2","","45","","35","","20","","25.0","","99.73","","","","","","Mostly Cloudy"
"2010-04-24 23:00","2010","04","24","23:00","12.5","","2.8","","52","","4","","11","","25.0","","99.67","","","","","","Mostly Cloudy"
"2010-04-25 00:00","2010","04","25","00:00","11.1","","2.6","","56","","4","","13","","25.0","","99.63","","","","","","Mostly Cloudy"
"2010-04-25 01:00","2010","04","25","01:00","10.1","","2.0","","57","","3","","15","","25.0","","99.60","","","","","","Mostly Cloudy"
"2010-04-25 02:00","2010","04","25","02:00","9.0","","1.2","","58","","4","","11","","25.0","","99.59","","","","","","Mostly Cloudy"
"2010-04-25 03:00","2010","04","25","03:00","7.5","","1.4","","65","","5","","9","","25.0","","99.58","","","","","","Mainly Clear"
"2010-04-25 04:00","2010","04","25","04:00","6.8","","1.8","","70","","3","","9","","25.0","","99.54","","","","","","Mainly Clear"
"2010-04-25 05:00","2010","04","25","05:00","5.8","","1.8","","75","","4","","15","","24.1","","99.51","","","","","","Mainly Clear"
"2010-04-25 06:00","2010","04","25","06:00","6.2","","2.1","","75","","5","","17","","24.1","","99.51","","","","","","Mainly Clear"
"2010-04-25 07:00","2010","04","25","07:00","6.6","","2.1","","73","","6","","20","","24.1","","99.52","","","","","","Mainly Clear"
"2010-04-25 08:00","2010","04","25","08:00","8.6","","2.3","","65","","6","","22","","24.1","","99.49","","","","","","Mainly Clear"
"2010-04-25 09:00","2010","04","25","09:00","9.8","","2.5","","60","","8","","17","","24.1","","99.43","","","","","","Mostly Cloudy"
"2010-04-25 10:00","2010","04","25","10:00","11.5","","3.2","","57","","8","","19","","24.1","","99.36","","","","","","Mostly Cloudy"
"2010-04-25 11:00","2010","04","25","11:00","13.4","","3.5","","51","","8","","28","","24.1","","99.28","","","","","","Mostly Cloudy"
"2010-04-25 12:00","2010","04","25","12:00","14.8","","2.5","","43","","8","","28","","24.1","","99.19","","","","","","Mostly Cloudy"
"2010-04-25 13:00","2010","04","25","13:00","15.3","","2.3","","41","","6","","26","","24.1","","99.10","","","","","","Mainly Clear"
"2010-04-25 14:00","2010","04","25","14:00","16.0","","1.8","","38","","9","","19","","24.1","","99.02","","","","","","Mostly Cloudy"
"2010-04-25 15:00","2010","04","25","15:00","16.8","","1.0","","34","","9","","19","","24.1","","98.93","","","","","","Mostly Cloudy"
"2010-04-25 16:00","2010","04","25","16:00","15.8","","1.4","","38","","9","","19","","24.1","","98.83","","","","","","Mostly Cloudy"
"2010-04-25 17:00","2010","04","25","17:00","15.6","","2.0","","40","","6","","13","","24.1","","98.77","","","","","","Mostly Cloudy"
"2010-04-25 18:00","2010","04","25","18:00","14.0","","3.4","","49","","12","","7","","24.1","","98.76","","","","","","Mostly Cloudy"
"2010-04-25 19:00","2010","04","25","19:00","13.2","","1.8","","46","","8","","6","","24.1","","98.76","","","","","","Mostly Cloudy"
"2010-04-25 20:00","2010","04","25","20:00","11.6","","2.0","","52","","10","","7","","25.0","","98.77","","","","","","Mostly Cloudy"
"2010-04-25 21:00","2010","04","25","21:00","11.7","","1.5","","50","","11","","6","","25.0","","98.76","","","","","","Mostly Cloudy"
"2010-04-25 22:00","2010","04","25","22:00","12.1","","1.0","","47","","4","","6","","25.0","","98.70","","","","","","Mostly Cloudy"
"2010-04-25 23:00","2010","04","25","23:00","10.7","","0.9","","51","","5","","7","","25.0","","98.64","","","","","","Mostly Cloudy"
"2010-04-26 00:00","2010","04","26","00:00","7.1","","0.8","","64","","1","","9","","25.0","","98.61","","","","","","Mostly Cloudy"
"2010-04-26 01:00","2010","04","26","01:00","7.5","","2.8","","72","","1","","9","","25.0","","98.56","","","","","","Mainly Clear"
"2010-04-26 02:00","2010","04","26","02:00","7.0","","2.3","","72","","1","","7","","25.0","","98.52","","","","","","Mainly Clear"
"2010-04-26 03:00","2010","04","26","03:00","6.4","","2.1","","74","","36","","13","","25.0","","98.47","","","","","","Mainly Clear"
"2010-04-26 04:00","2010","04","26","04:00","6.0","","2.0","","75","","36","","11","","25.0","","98.45","","","","","","Mainly Clear"
"2010-04-26 05:00","2010","04","26","05:00","5.7","","1.7","","75","","36","","15","","24.1","","98.42","","","","","","Mainly Clear"
"2010-04-26 06:00","2010","04","26","06:00","7.1","","1.8","","69","","36","","15","","24.1","","98.39","","","","","","Mainly Clear"
"2010-04-26 07:00","2010","04","26","07:00","9.5","","1.6","","58","","36","","15","","24.1","","98.38","","","","","","Mainly Clear"
"2010-04-26 08:00","2010","04","26","08:00","11.8","","2.1","","51","","2","","17","","24.1","","98.34","","","","","","Mainly Clear"
"2010-04-26 09:00","2010","04","26","09:00","14.0","","3.2","","48","","1","","11","","24.1","","98.30","","","","","","Mainly Clear"
"2010-04-26 10:00","2010","04","26","10:00","15.9","","2.5","","40","","1","","17","","24.1","","98.25","","","","","","Mainly Clear"
"2010-04-26 11:00","2010","04","26","11:00","16.3","","0.6","","34","","34","","24","","24.1","","98.19","","","","","","Mainly Clear"
"2010-04-26 12:00","2010","04","26","12:00","17.0","","1.1","","34","","36","","19","","24.1","","98.13","","","","","","Mainly Clear"
"2010-04-26 13:00","2010","04","26","13:00","16.7","","0.2","","33","","34","","17","","24.1","","98.07","","","","","","Mainly Clear"
"2010-04-26 14:00","2010","04","26","14:00","17.7","","0.4","","31","","32","","15","","24.1","","98.01","","","","","","Mainly Clear"
"2010-04-26 15:00","2010","04","26","15:00","17.4","","-1.5","","28","","33","","19","","24.1","","97.96","","","","","","Mainly Clear"
"2010-04-26 16:00","2010","04","26","16:00","17.4","","-2.7","","25","","36","","15","","24.1","","97.93","","","","","","Mainly Clear"
"2010-04-26 17:00","2010","04","26","17:00","16.8","","-4.2","","23","","35","","20","","24.1","","97.96","","","","","","Mainly Clear"
"2010-04-26 18:00","2010","04","26","18:00","15.7","","-4.5","","25","","35","","19","","24.1","","97.97","","","","","","Mainly Clear"
"2010-04-26 19:00","2010","04","26","19:00","14.2","","-4.4","","27","","36","","26","","24.1","","98.04","","","","","","Mostly Cloudy"
"2010-04-26 20:00","2010","04","26","20:00","12.2","","-3.8","","32","","36","","26","","25.0","","98.17","","","","","","Mostly Cloudy"
"2010-04-26 21:00","2010","04","26","21:00","11.2","","-5.1","","31","","36","","28","","25.0","","98.25","","","","","","Mostly Cloudy"
"2010-04-26 22:00","2010","04","26","22:00","10.0","","-0.4","","48","","4","","17","","25.0","","98.30","","","","","","Mostly Cloudy"
"2010-04-26 23:00","2010","04","26","23:00","8.7","","0.9","","58","","6","","24","","25.0","","98.34","","","","","","Cloudy"
"2010-04-27 00:00","2010","04","27","00:00","6.5","","1.1","","68","","9","","30","","25.0","","98.34","","","","","","Cloudy"
"2010-04-27 01:00","2010","04","27","01:00","6.1","","-0.8","","61","","6","","20","","25.0","","98.38","","","","","","Cloudy"
"2010-04-27 02:00","2010","04","27","02:00","5.8","","-2.3","","56","","4","","26","","24.1","","98.34","","","","","","Cloudy"
"2010-04-27 03:00","2010","04","27","03:00","3.0","","-1.4","","73","","2","","33","","24.1","","98.40","","","","","","Cloudy"
"2010-04-27 04:00","2010","04","27","04:00","0.5","","0.0","","96","","36","","22","","2.4","","98.40","","","","","","Snow"
"2010-04-27 05:00","2010","04","27","05:00","0.3","","0.2","","99","","1","","19","","2.8","","98.42","","","","","","Snow"
"2010-04-27 06:00","2010","04","27","06:00","0.4","","0.0","","97","","36","","20","","1.6","","98.48","","","","","","Snow,Fog"
"2010-04-27 07:00","2010","04","27","07:00","0.7","","-0.3","","93","","35","","19","","2.8","","98.53","","","","","","Snow,Fog"
"2010-04-27 08:00","2010","04","27","08:00","1.3","","-1.0","","85","","1","","30","","16.1","","98.53","","","","","","Snow"
"2010-04-27 09:00","2010","04","27","09:00","2.4","","-2.8","","68","","36","","22","","24.1","","98.57","","","","","","Snow"
"2010-04-27 10:00","2010","04","27","10:00","3.1","","-4.2","","59","","36","","22","","24.1","","98.56","","","","","","Mostly Cloudy"
"2010-04-27 11:00","2010","04","27","11:00","3.9","","-4.5","","54","","35","","24","","24.1","","98.56","","","","","","Mostly Cloudy"
"2010-04-27 12:00","2010","04","27","12:00","2.8","","-2.9","","66","","1","","30","","16.1","","98.63","","","","","","Snow Showers"
"2010-04-27 13:00","2010","04","27","13:00","2.8","","-2.7","","67","","33","","26","","24.1","","98.68","","","","","","Snow"
"2010-04-27 14:00","2010","04","27","14:00","2.7","","-2.6","","68","","34","","30","","16.1","","98.71","","","","","","Snow"
"2010-04-27 15:00","2010","04","27","15:00","0.9","","0.2","","95","","33","","15","","4.8","","98.71","","","","","","Snow,Fog"
"2010-04-27 16:00","2010","04","27","16:00","1.7","","1.2","","96","","31","","9","","6.4","","98.69","","","","","","Snow,Fog"
"2010-04-27 17:00","2010","04","27","17:00","1.8","","1.4","","97","","29","","6","","9.7","","98.69","","","","","","Rain,Snow,Fog"
"2010-04-27 18:00","2010","04","27","18:00","2.4","","1.5","","94","","33","","4","","16.1","","98.71","","","","","","Rain"
"2010-04-27 19:00","2010","04","27","19:00","0.7","","0.5","","99","","","","0","","6.4","","98.76","","","","","","Snow,Fog"
"2010-04-27 20:00","2010","04","27","20:00","0.9","","0.8","","99","","22","","4","","6.4","","98.76","","","","","","Snow,Fog"
"2010-04-27 21:00","2010","04","27","21:00","1.3","","1.3","","100","","","","0","","6.4","","98.75","","","","","","Rain,Fog"
"2010-04-27 22:00","2010","04","27","22:00","2.3","","2.1","","99","","29","","13","","25.0","","98.67","","","","","","Cloudy"
"2010-04-27 23:00","2010","04","27","23:00","3.6","","1.5","","86","","32","","22","","25.0","","98.65","","","","","","Cloudy"
"2010-04-28 00:00","2010","04","28","00:00","4.2","","0.6","","77","","33","","24","","25.0","","98.62","","","","","","Cloudy"
"2010-04-28 01:00","2010","04","28","01:00","4.9","","-0.3","","69","","36","","22","","25.0","","98.60","","","","","","Cloudy"
"2010-04-28 02:00","2010","04","28","02:00","4.9","","-0.5","","68","","1","","22","","25.0","","98.59","","","","","","Cloudy"
"2010-04-28 03:00","2010","04","28","03:00","3.9","","0.7","","80","","31","","9","","25.0","","98.61","","","","","","Cloudy"
"2010-04-28 04:00","2010","04","28","04:00","4.4","","-0.7","","69","","32","","17","","25.0","","98.63","","","","","","Cloudy"
"2010-04-28 05:00","2010","04","28","05:00","4.5","","-1.6","","65","","33","","20","","24.1","","98.67","","","","","","Cloudy"
"2010-04-28 06:00","2010","04","28","06:00","5.0","","-1.4","","63","","33","","22","","24.1","","98.73","","","","","","Mostly Cloudy"
"2010-04-28 07:00","2010","04","28","07:00","5.8","","-1.2","","61","","33","","30","","24.1","","98.79","","","","","","Mostly Cloudy"
"2010-04-28 08:00","2010","04","28","08:00","7.5","","-1.3","","54","","32","","28","","24.1","","98.83","","","","","","Mostly Cloudy"
"2010-04-28 09:00","2010","04","28","09:00","8.4","","-1.6","","49","","33","","26","","24.1","","98.87","","","","","","Mostly Cloudy"
"2010-04-28 10:00","2010","04","28","10:00","9.3","","-1.4","","47","","33","","26","","24.1","","98.88","","","","","","Mostly Cloudy"
"2010-04-28 11:00","2010","04","28","11:00","10.4","","-1.1","","45","","35","","30","","24.1","","98.88","","","","","","Mainly Clear"
"2010-04-28 12:00","2010","04","28","12:00","11.6","","-1.7","","40","","33","","32","","24.1","","98.83","","","","","","Mainly Clear"
"2010-04-28 13:00","2010","04","28","13:00","13.0","","-1.7","","36","","31","","28","","24.1","","98.80","","","","","","Mainly Clear"
"2010-04-28 14:00","2010","04","28","14:00","12.9","","-4.7","","29","","33","","24","","24.1","","98.78","","","","","","Mainly Clear"
"2010-04-28 15:00","2010","04","28","15:00","14.2","","-4.5","","27","","31","","26","","24.1","","98.77","","","","","","Mainly Clear"
"2010-04-28 16:00","2010","04","28","16:00","13.8","","-6.2","","24","","32","","28","","24.1","","98.78","","","","","","Mainly Clear"
"2010-04-28 17:00","2010","04","28","17:00","13.4","","-7.3","","23","","31","","28","","24.1","","98.83","","","","","","Mainly Clear"
"2010-04-28 18:00","2010","04","28","18:00","12.1","","-7.4","","25","","33","","20","","24.1","","98.89","","","","","","Mostly Cloudy"
"2010-04-28 19:00","2010","04","28","19:00","10.3","","-8.2","","26","","34","","20","","24.1","","98.99","","","","","","Clear"
"2010-04-28 20:00","2010","04","28","20:00","9.1","","-7.9","","29","","34","","17","","24.1","","99.07","","","","","","Mainly Clear"
"2010-04-28 21:00","2010","04","28","21:00","6.6","","-7.4","","36","","32","","11","","25.0","","99.13","","","","","","Clear"
"2010-04-28 22:00","2010","04","28","22:00","6.3","","-7.0","","38","","29","","11","","25.0","","99.17","","","","","","Mainly Clear"
"2010-04-28 23:00","2010","04","28","23:00","6.3","","-5.1","","44","","27","","13","","25.0","","99.19","","","","","","Mostly Cloudy"
"2010-04-29 00:00","2010","04","29","00:00","5.9","","-6.8","","40","","26","","13","","25.0","","99.20","","","","","","Mainly Clear"
"2010-04-29 01:00","2010","04","29","01:00","4.9","","-7.8","","39","","27","","13","","25.0","","99.16","","","","","","Clear"
"2010-04-29 02:00","2010","04","29","02:00","4.7","","-7.0","","42","","25","","9","","25.0","","99.15","","","","","","Mainly Clear"
"2010-04-29 03:00","2010","04","29","03:00","3.6","","-5.7","","51","","23","","7","","25.0","","99.18","","","","","","Clear"
"2010-04-29 04:00","2010","04","29","04:00","3.3","","-6.8","","47","","28","","19","","25.0","","99.17","","","","","","Mainly Clear"
"2010-04-29 05:00","2010","04","29","05:00","2.4","","-5.6","","55","","29","","13","","24.1","","99.23","","","","","","Mainly Clear"
"2010-04-29 06:00","2010","04","29","06:00","3.7","","-5.3","","52","","30","","13","","24.1","","99.31","","","","","","Mostly Cloudy"
"2010-04-29 07:00","2010","04","29","07:00","5.0","","-6.8","","42","","31","","30","","24.1","","99.41","","","","","","Mostly Cloudy"
"2010-04-29 08:00","2010","04","29","08:00","6.1","","-5.9","","42","","32","","24","","24.1","","99.48","","","","","","Mainly Clear"
"2010-04-29 09:00","2010","04","29","09:00","7.4","","-6.0","","38","","33","","26","","24.1","","99.50","","","","","","Mainly Clear"
"2010-04-29 10:00","2010","04","29","10:00","9.0","","-6.5","","33","","34","","24","","24.1","","99.50","","","","","","Clear"
"2010-04-29 11:00","2010","04","29","11:00","10.1","","-6.3","","31","","32","","24","","24.1","","99.50","","","","","","Clear"
"2010-04-29 12:00","2010","04","29","12:00","12.3","","-5.4","","29","","30","","24","","24.1","","99.49","","","","","","Clear"
"2010-04-29 13:00","2010","04","29","13:00","12.1","","-6.3","","27","","31","","20","","24.1","","99.46","","","","","","Clear"
"2010-04-29 14:00","2010","04","29","14:00","13.3","","-5.6","","26","","28","","26","","24.1","","99.46","","","","","","Clear"
"2010-04-29 15:00","2010","04","29","15:00","14.4","","-5.8","","24","","29","","30","","24.1","","99.45","","","","","","Clear"
"2010-04-29 16:00","2010","04","29","16:00","14.6","","-6.0","","24","","29","","28","","24.1","","99.41","","","","","","Clear"
"2010-04-29 17:00","2010","04","29","17:00","14.6","","-5.7","","24","","27","","26","","24.1","","99.40","","","","","","Clear"
"2010-04-29 18:00","2010","04","29","18:00","14.2","","-6.5","","23","","28","","22","","24.1","","99.38","","","","","","Clear"
"2010-04-29 19:00","2010","04","29","19:00","13.0","","-6.7","","25","","27","","15","","24.1","","99.39","","","","","","Mainly Clear"
"2010-04-29 20:00","2010","04","29","20:00","11.0","","-6.6","","28","","28","","13","","25.0","","99.46","","","","","","Mainly Clear"
"2010-04-29 21:00","2010","04","29","21:00","10.6","","-5.3","","32","","24","","7","","25.0","","99.49","","","","","","Clear"
"2010-04-29 22:00","2010","04","29","22:00","10.0","","-6.3","","31","","28","","7","","25.0","","99.50","","","","","","Clear"
"2010-04-29 23:00","2010","04","29","23:00","8.3","","-5.7","","37","","26","","7","","25.0","","99.52","","","","","","Mainly Clear"
"2010-04-30 00:00","2010","04","30","00:00","7.5","","-5.5","","39","","31","","7","","25.0","","99.53","","","","","","Mostly Cloudy"
"2010-04-30 01:00","2010","04","30","01:00","7.6","","-5.8","","38","","27","","7","","25.0","","99.55","","","","","","Cloudy"
"2010-04-30 02:00","2010","04","30","02:00","6.5","","-5.1","","43","","26","","13","","25.0","","99.57","","","","","","Mostly Cloudy"
"2010-04-30 03:00","2010","04","30","03:00","4.8","","-4.7","","50","","29","","9","","25.0","","99.60","","","","","","Mainly Clear"
"2010-04-30 04:00","2010","04","30","04:00","3.9","","-3.1","","60","","31","","11","","25.0","","99.61","","","","","","Mostly Cloudy"
"2010-04-30 05:00","2010","04","30","05:00","4.4","","-2.5","","61","","27","","7","","24.1","","99.64","","","","","","Mostly Cloudy"
"2010-04-30 06:00","2010","04","30","06:00","5.6","","-0.1","","67","","27","","4","","24.1","","99.69","","","","","","Mostly Cloudy"
"2010-04-30 07:00","2010","04","30","07:00","8.5","","-0.6","","53","","27","","4","","24.1","","99.70","","","","","","Mostly Cloudy"
"2010-04-30 08:00","2010","04","30","08:00","11.0","","-1.0","","43","","28","","6","","24.1","","99.70","","","","","","Mostly Cloudy"
"2010-04-30 09:00","2010","04","30","09:00","12.8","","-1.0","","38","","31","","4","","24.1","","99.68","","","","","","Mostly Cloudy"
"2010-04-30 10:00","2010","04","30","10:00","14.9","","-0.9","","34","","26","","9","","24.1","","99.69","","","","","","Mostly Cloudy"
"2010-04-30 11:00","2010","04","30","11:00","14.9","","-2.5","","30","","28","","9","","24.1","","99.65","","","","","","Mostly Cloudy"
"2010-04-30 12:00","2010","04","30","12:00","15.3","","-2.8","","29","","27","","15","","24.1","","99.66","","","","","","Mostly Cloudy"
"2010-04-30 13:00","2010","04","30","13:00","15.6","","-1.7","","30","","29","","7","","24.1","","99.60","","","","","","Cloudy"
"2010-04-30 14:00","2010","04","30","14:00","15.3","","1.0","","38","","27","","11","","24.1","","99.59","","","","","","Rain Showers"
"2010-04-30 15:00","2010","04","30","15:00","16.1","","-0.5","","32","","29","","11","","24.1","","99.57","","","","","","Mostly Cloudy"
"2010-04-30 16:00","2010","04","30","16:00","16.6","","0.1","","33","","34","","9","","24.1","","99.53","","","","","","Mostly Cloudy"
"2010-04-30 17:00","2010","04","30","17:00","16.3","","-0.2","","32","","31","","9","","24.1","","99.51","","","","","","Mostly Cloudy"
"2010-04-30 18:00","2010","04","30","18:00","16.0","","1.8","","38","","31","","7","","24.1","","99.48","","","","","","Mostly Cloudy"
"2010-04-30 19:00","2010","04","30","19:00","15.8","","-0.5","","33","","26","","4","","24.1","","99.50","","","","","","Mostly Cloudy"
"2010-04-30 20:00","2010","04","30","20:00","14.8","","0.5","","38","","27","","4","","24.1","","99.55","","","","","","Cloudy"
"2010-04-30 21:00","2010","04","30","21:00","14.9","","1.1","","39","","4","","4","","19.3","","99.58","","","","","","Rain"
"2010-04-30 22:00","2010","04","30","22:00","14.0","","3.3","","48","","3","","6","","25.0","","99.56","","","","","","Mainly Clear"
"2010-04-30 23:00","2010","04","30","23:00","12.9","","1.2","","45","","6","","4","","25.0","","99.55","","","","","","Mainly Clear"
