"Station Name","OTTAWA MACDONALD-CARTIER INT'L A"
"Province","ONTARIO"
"Latitude","45.32"
"Longitude","-75.67"
"Elevation","114.00"
"Climate Identifier","6106000"
"WMO Identifier","71628"
"TC Identifier","YOW"
"All times are specified in Local Standard Time (LST). Add 1 hour to adjust for Daylight Saving Time where and when it is observed."

"Legend"
"E","Estimated"
"M","Missing"
"NA","Not Available"

"Date/Time","Year","Month","Day","Time","Temp (°C)","Temp Flag","Dew Point Temp (°C)","Dew Point Temp Flag","Rel Hum (%)","Rel Hum Flag","Wind Dir (10s deg)","Wind Dir Flag","Wind Spd (km/h)","Wind Spd Flag","Visibility (km)","Visibility Flag","Stn Press (kPa)","Stn Press Flag","Hmdx","Hmdx Flag","Wind Chill","Wind Chill Flag","Weather"
"1998-12-01 00:00","1998","12","01","00:00","13.7","","9.9","","78","","21","","30","","24.1","","98.35","","","","","","Cloudy"
"1998-12-01 01:00","1998","12","01","01:00","13.7","","11.0","","84","","22","","22","","24.1","","98.25","","","","","","Rain Showers"
"1998-12-01 02:00","1998","12","01","02:00","11.4","","8.9","","85","","27","","37","","25.0","","98.49","","","","","","Rain Showers"
"1998-12-01 03:00","1998","12","01","03:00","9.4","","7.0","","85","","27","","28","","25.0","","98.65","","","","","","Cloudy"
"1998-12-01 04:00","1998","12","01","04:00","8.8","","6.4","","85","","27","","22","","12.9","","98.79","","","","","","Rain Showers"
"1998-12-01 05:00","1998","12","01","05:00","7.3","","5.5","","88","","28","","20","","9.7","","98.95","","","","","","Rain Showers,Fog"
"1998-12-01 06:00","1998","12","01","06:00","6.4","","4.5","","88","","29","","22","","24.1","","99.09","","","","","","Drizzle"
"1998-12-01 07:00","1998","12","01","07:00","5.4","","3.0","","84","","28","","22","","32.2","","99.36","","","","","","Cloudy"
"1998-12-01 08:00","1998","12","01","08:00","4.7","","1.3","","79","","27","","20","","40.2","","99.56","","","","","","Mostly Cloudy"
"1998-12-01 09:00","1998","12","01","09:00","4.6","","0.9","","77","","27","","26","","40.2","","99.69","","","","","","Mainly Clear"
"1998-12-01 10:00","1998","12","01","10:00","4.4","","1.2","","80","","27","","20","","40.2","","99.79","","","","","","Rain"
"1998-12-01 11:00","1998","12","01","11:00","4.9","","1.8","","80","","27","","28","","40.2","","99.93","","","","","","Mainly Clear"
"1998-12-01 12:00","1998","12","01","12:00","4.8","","-1.0","","66","","28","","32","","40.2","","99.99","","","","","","Mainly Clear"
"1998-12-01 13:00","1998","12","01","13:00","5.4","","-1.6","","61","","28","","24","","40.2","","100.06","","","","","","Clear"
"1998-12-01 14:00","1998","12","01","14:00","5.9","","-2.7","","54","","26","","20","","40.2","","100.16","","","","","","Clear"
"1998-12-01 15:00","1998","12","01","15:00","6.1","","-2.5","","54","","25","","17","","40.2","","100.23","","","","","","Mainly Clear"
"1998-12-01 16:00","1998","12","01","16:00","6.0","","-3.3","","51","","26","","9","","40.2","","100.29","","","","","","Mainly Clear"
"1998-12-01 17:00","1998","12","01","17:00","3.8","","-4.5","","55","","24","","6","","25.0","","100.29","","","","","","Mainly Clear"
"1998-12-01 18:00","1998","12","01","18:00","3.1","","-4.1","","59","","22","","7","","25.0","","100.29","","","","","","Mainly Clear"
"1998-12-01 19:00","1998","12","01","19:00","3.6","","-4.2","","57","","23","","15","","25.0","","100.33","","","","","","Clear"
"1998-12-01 20:00","1998","12","01","20:00","4.3","","-2.3","","62","","23","","11","","25.0","","100.36","","","","","","Mostly Cloudy"
"1998-12-01 21:00","1998","12","01","21:00","3.9","","-2.0","","65","","22","","13","","25.0","","100.39","","","","","","Cloudy"
"1998-12-01 22:00","1998","12","01","22:00","4.0","","-1.4","","68","","22","","11","","25.0","","100.36","","","","","","Cloudy"
"1998-12-01 23:00","1998","12","01","23:00","2.6","","-1.8","","73","","22","","9","","25.0","","100.36","","","","","","Mainly Clear"
"1998-12-02 00:00","1998","12","02","00:00","3.1","","-0.7","","76","","19","","9","","25.0","","100.29","","","","","","Cloudy"
"1998-12-02 01:00","1998","12","02","01:00","3.4","","-0.2","","77","","20","","6","","25.0","","100.19","","","","","","Mostly Cloudy"
"1998-12-02 02:00","1998","12","02","02:00","3.6","","0.8","","82","","19","","6","","25.0","","100.13","","","","","","Cloudy"
"1998-12-02 03:00","1998","12","02","03:00","4.0","","1.8","","86","","17","","7","","19.3","","99.99","","","","","","Cloudy"
"1998-12-02 04:00","1998","12","02","04:00","5.4","","3.2","","86","","19","","9","","19.3","","99.76","","","","","","Cloudy"
"1998-12-02 05:00","1998","12","02","05:00","5.9","","3.8","","86","","22","","11","","19.3","","99.72","","","","","","Cloudy"
"1998-12-02 06:00","1998","12","02","06:00","5.9","","3.6","","85","","23","","9","","25.0","","99.62","","","","","","Mainly Clear"
"1998-12-02 07:00","1998","12","02","07:00","7.2","","3.6","","78","","24","","17","","24.1","","99.62","","","","","","Mainly Clear"
"1998-12-02 08:00","1998","12","02","08:00","7.3","","2.9","","74","","23","","19","","24.1","","99.56","","","","","","Mostly Cloudy"
"1998-12-02 09:00","1998","12","02","09:00","8.1","","2.9","","70","","23","","20","","24.1","","99.56","","","","","","Mostly Cloudy"
"1998-12-02 10:00","1998","12","02","10:00","8.7","","3.0","","67","","23","","19","","24.1","","99.56","","","","","","Cloudy"
"1998-12-02 11:00","1998","12","02","11:00","9.2","","3.1","","66","","23","","17","","24.1","","99.52","","","","","","Cloudy"
"1998-12-02 12:00","1998","12","02","12:00","9.9","","3.4","","64","","23","","15","","32.2","","99.49","","","","","","Cloudy"
"1998-12-02 13:00","1998","12","02","13:00","11.0","","4.1","","62","","21","","17","","32.2","","99.42","","","","","","Cloudy"
"1998-12-02 14:00","1998","12","02","14:00","10.9","","3.8","","62","","22","","13","","32.2","","99.42","","","","","","Mostly Cloudy"
"1998-12-02 15:00","1998","12","02","15:00","10.8","","4.1","","63","","23","","7","","32.2","","99.46","","","","","","Cloudy"
"1998-12-02 16:00","1998","12","02","16:00","10.4","","4.5","","67","","25","","4","","32.2","","99.49","","","","","","Cloudy"
"1998-12-02 17:00","1998","12","02","17:00","9.9","","4.7","","70","","24","","9","","24.1","","99.56","","","","","","Cloudy"
"1998-12-02 18:00","1998","12","02","18:00","9.9","","4.8","","71","","25","","6","","24.1","","99.62","","","","","","Cloudy"
"1998-12-02 19:00","1998","12","02","19:00","10.3","","5.1","","70","","29","","6","","24.1","","99.69","","","","","","Cloudy"
"1998-12-02 20:00","1998","12","02","20:00","7.3","","3.9","","79","","2","","13","","24.1","","99.76","","","","","","Cloudy"
"1998-12-02 21:00","1998","12","02","21:00","6.8","","4.8","","87","","36","","6","","24.1","","99.79","","","","","","Cloudy"
"1998-12-02 22:00","1998","12","02","22:00","6.7","","4.4","","85","","36","","11","","24.1","","99.82","","","","","","Mostly Cloudy"
"1998-12-02 23:00","1998","12","02","23:00","6.2","","3.9","","85","","2","","6","","24.1","","99.86","","","","","","Cloudy"
"1998-12-03 00:00","1998","12","03","00:00","5.9","","2.7","","80","","3","","4","","19.3","","99.86","","","","","","Rain"
"1998-12-03 01:00","1998","12","03","01:00","5.5","","2.3","","80","","3","","6","","25.0","","99.82","","","","","","Cloudy"
"1998-12-03 02:00","1998","12","03","02:00","5.4","","1.8","","78","","2","","6","","25.0","","99.86","","","","","","Cloudy"
"1998-12-03 03:00","1998","12","03","03:00","4.8","","0.7","","75","","3","","9","","25.0","","99.89","","","","","","Cloudy"
"1998-12-03 04:00","1998","12","03","04:00","4.4","","0.5","","76","","4","","9","","25.0","","99.89","","","","","","Cloudy"
"1998-12-03 05:00","1998","12","03","05:00","3.8","","-0.4","","74","","7","","7","","25.0","","99.86","","","","","","Cloudy"
"1998-12-03 06:00","1998","12","03","06:00","3.6","","-0.7","","73","","8","","11","","25.0","","99.82","","","","","","Cloudy"
"1998-12-03 07:00","1998","12","03","07:00","3.3","","-0.9","","74","","9","","7","","24.1","","99.82","","","","","","Cloudy"
"1998-12-03 08:00","1998","12","03","08:00","3.4","","-0.5","","76","","6","","9","","32.2","","99.79","","","","","","Cloudy"
"1998-12-03 09:00","1998","12","03","09:00","3.3","","-0.5","","76","","7","","9","","32.2","","99.76","","","","","","Cloudy"
"1998-12-03 10:00","1998","12","03","10:00","3.7","","0.0","","77","","6","","11","","32.2","","99.66","","","","","","Cloudy"
"1998-12-03 11:00","1998","12","03","11:00","3.9","","0.5","","78","","7","","11","","19.3","","99.59","","","","","","Cloudy"
"1998-12-03 12:00","1998","12","03","12:00","4.0","","1.2","","82","","8","","9","","12.9","","99.56","","","","","","Rain,Drizzle"
"1998-12-03 13:00","1998","12","03","13:00","3.0","","1.0","","87","","8","","11","","3.6","","99.42","","","","","","Rain,Drizzle,Fog"
"1998-12-03 14:00","1998","12","03","14:00","2.5","","0.9","","89","","7","","9","","3.6","","99.42","","","","","","Drizzle,Fog"
"1998-12-03 15:00","1998","12","03","15:00","2.2","","1.0","","92","","8","","15","","3.2","","99.32","","","","","","Drizzle,Fog"
"1998-12-03 16:00","1998","12","03","16:00","1.9","","0.9","","93","","6","","11","","3.2","","99.39","","","","","","Drizzle,Fog"
"1998-12-03 17:00","1998","12","03","17:00","0.8","","0.0","","94","","5","","9","","9.7","","99.39","","","","","","Fog"
"1998-12-03 18:00","1998","12","03","18:00","0.5","","-0.3","","94","","5","","9","","8.0","","99.42","","","","","","Fog"
"1998-12-03 19:00","1998","12","03","19:00","0.3","","-0.4","","95","","6","","9","","1.6","","99.46","","","","","","Drizzle,Fog"
"1998-12-03 20:00","1998","12","03","20:00","0.4","","-0.1","","96","","4","","6","","0.6","","99.46","","","","","","Rain,Fog"
"1998-12-03 21:00","1998","12","03","21:00","0.4","","0.2","","99","","6","","6","","0.4","","99.49","","","","","","Rain,Fog"
"1998-12-03 22:00","1998","12","03","22:00","0.5","","0.3","","99","","5","","4","","0.2","","99.46","","","","","","Drizzle,Fog"
"1998-12-03 23:00","1998","12","03","23:00","0.6","","0.2","","97","","8","","6","","0.2","","99.39","","","","","","Fog"
"1998-12-04 00:00","1998","12","04","00:00","0.8","","0.5","","98","","","","0","","0.2","","99.39","","","","","","Fog"
"1998-12-04 01:00","1998","12","04","01:00","1.1","","1.1","","100","","5","","2","","0.2","","99.32","","","","","","Fog"
"1998-12-04 02:00","1998","12","04","02:00","2.1","","2.1","","100","","","","0","","0.0","","99.29","","","","","","Fog"
"1998-12-04 03:00","1998","12","04","03:00","1.5","","1.3","","99","","6","","2","","0.0","","99.32","","","","","","Fog"
"1998-12-04 04:00","1998","12","04","04:00","2.6","","2.6","","100","","20","","4","","0.0","","99.29","","","","","","Fog"
"1998-12-04 05:00","1998","12","04","05:00","2.8","","2.8","","100","","","","0","","0.0","","99.39","","","","","","Fog"
"1998-12-04 06:00","1998","12","04","06:00","3.1","","3.1","","100","","26","","2","","0.0","","99.46","","","","","","Fog"
"1998-12-04 07:00","1998","12","04","07:00","3.0","","3.0","","100","","30","","4","","0.2","","99.52","","","","","","Fog"
"1998-12-04 08:00","1998","12","04","08:00","3.2","","3.2","","100","","27","","6","","0.2","","99.59","","","","","","Fog"
"1998-12-04 09:00","1998","12","04","09:00","3.3","","3.3","","100","","28","","7","","0.2","","99.62","","","","","","Fog"
"1998-12-04 10:00","1998","12","04","10:00","5.4","","5.4","","100","","25","","6","","9.7","","99.69","","","","","","Fog"
"1998-12-04 11:00","1998","12","04","11:00","7.4","","6.9","","97","","29","","15","","12.9","","99.76","","","","","","Mainly Clear"
"1998-12-04 12:00","1998","12","04","12:00","8.5","","7.6","","94","","28","","20","","19.3","","99.82","","","","","","Mainly Clear"
"1998-12-04 13:00","1998","12","04","13:00","9.6","","4.6","","71","","28","","20","","32.2","","99.89","","","","","","Mainly Clear"
"1998-12-04 14:00","1998","12","04","14:00","8.9","","2.7","","65","","33","","20","","32.2","","99.96","","","","","","Mainly Clear"
"1998-12-04 15:00","1998","12","04","15:00","8.1","","0.9","","60","","31","","19","","32.2","","100.09","","","","","","Clear"
"1998-12-04 16:00","1998","12","04","16:00","7.0","","-0.4","","59","","33","","13","","32.2","","100.16","","","","","","Clear"
"1998-12-04 17:00","1998","12","04","17:00","5.8","","-1.2","","61","","34","","6","","32.2","","100.26","","","","","","Clear"
"1998-12-04 18:00","1998","12","04","18:00","4.8","","-2.1","","61","","35","","9","","24.1","","100.39","","","","","","Clear"
"1998-12-04 19:00","1998","12","04","19:00","3.4","","-2.5","","65","","36","","9","","25.0","","100.46","","","","","","Clear"
"1998-12-04 20:00","1998","12","04","20:00","2.6","","-2.6","","69","","35","","11","","25.0","","100.49","","","","","","Clear"
"1998-12-04 21:00","1998","12","04","21:00","1.7","","-3.6","","68","","36","","11","","25.0","","100.53","","","","","","Clear"
"1998-12-04 22:00","1998","12","04","22:00","1.2","","-3.9","","69","","35","","6","","25.0","","100.60","","","","","","Clear"
"1998-12-04 23:00","1998","12","04","23:00","0.7","","-4.1","","70","","34","","6","","25.0","","100.63","","","","","","Clear"
"1998-12-05 00:00","1998","12","05","00:00","-0.3","","-4.7","","72","","1","","4","","25.0","","100.70","","","","-2","","Clear"
"1998-12-05 01:00","1998","12","05","01:00","-0.6","","-5.4","","70","","36","","6","","25.0","","100.70","","","","-3","","Clear"
"1998-12-05 02:00","1998","12","05","02:00","-0.4","","-4.8","","72","","34","","7","","25.0","","100.73","","","","-3","","Mainly Clear"
"1998-12-05 03:00","1998","12","05","03:00","-1.3","","-5.5","","73","","35","","6","","25.0","","100.76","","","","-4","","Mostly Cloudy"
"1998-12-05 04:00","1998","12","05","04:00","-1.2","","-5.2","","74","","36","","7","","25.0","","100.80","","","","-4","","Mostly Cloudy"
"1998-12-05 05:00","1998","12","05","05:00","-2.8","","-6.0","","79","","3","","7","","25.0","","100.80","","","","-6","","Mainly Clear"
"1998-12-05 06:00","1998","12","05","06:00","-2.7","","-5.8","","79","","3","","6","","25.0","","100.80","","","","-5","","Mainly Clear"
"1998-12-05 07:00","1998","12","05","07:00","-2.8","","-5.8","","80","","5","","4","","32.2","","100.83","","","","-4","","Mainly Clear"
"1998-12-05 08:00","1998","12","05","08:00","-2.6","","-5.1","","83","","5","","7","","40.2","","100.86","","","","-5","","Mainly Clear"
"1998-12-05 09:00","1998","12","05","09:00","-1.4","","-4.0","","82","","5","","9","","40.2","","100.90","","","","-5","","Mainly Clear"
"1998-12-05 10:00","1998","12","05","10:00","-0.6","","-4.2","","77","","6","","7","","40.2","","100.90","","","","-3","","Mainly Clear"
"1998-12-05 11:00","1998","12","05","11:00","-0.1","","-4.6","","72","","8","","13","","40.2","","100.80","","","","-4","","Mostly Cloudy"
"1998-12-05 12:00","1998","12","05","12:00","0.0","","-4.8","","70","","9","","13","","40.2","","100.73","","","","-4","","Cloudy"
"1998-12-05 13:00","1998","12","05","13:00","0.1","","-4.8","","70","","8","","11","","40.2","","100.63","","","","","","Cloudy"
"1998-12-05 14:00","1998","12","05","14:00","0.3","","-4.5","","70","","7","","11","","40.2","","100.53","","","","","","Cloudy"
"1998-12-05 15:00","1998","12","05","15:00","0.2","","-4.4","","71","","5","","13","","40.2","","100.53","","","","","","Cloudy"
"1998-12-05 16:00","1998","12","05","16:00","0.3","","-3.9","","73","","8","","11","","40.2","","100.49","","","","","","Cloudy"
"1998-12-05 17:00","1998","12","05","17:00","0.0","","-4.2","","73","","7","","9","","24.1","","100.46","","","","-3","","Rain"
"1998-12-05 18:00","1998","12","05","18:00","-0.6","","-4.0","","78","","7","","15","","16.1","","100.36","","","","-5","","Freezing Rain"
"1998-12-05 19:00","1998","12","05","19:00","-0.6","","-3.3","","82","","5","","11","","24.1","","100.33","","","","-4","","Cloudy"
"1998-12-05 20:00","1998","12","05","20:00","-0.6","","-3.3","","82","","7","","17","","19.3","","100.19","","","","-6","","Cloudy"
"1998-12-05 21:00","1998","12","05","21:00","-0.5","","-3.2","","82","","7","","17","","19.3","","100.06","","","","-5","","Freezing Rain"
"1998-12-05 22:00","1998","12","05","22:00","-0.6","","-3.2","","83","","8","","15","","19.3","","99.96","","","","-5","","Freezing Rain"
"1998-12-05 23:00","1998","12","05","23:00","-0.6","","-2.8","","85","","8","","13","","12.9","","99.89","","","","-5","","Freezing Rain"
"1998-12-06 00:00","1998","12","06","00:00","-0.8","","-2.5","","88","","10","","13","","6.4","","99.76","","","","-5","","Moderate Freezing Rain"
"1998-12-06 01:00","1998","12","06","01:00","-0.6","","-2.0","","90","","7","","7","","6.4","","99.76","","","","-3","","Freezing Rain,Fog"
"1998-12-06 02:00","1998","12","06","02:00","-0.6","","-1.4","","94","","7","","6","","12.9","","99.72","","","","-3","","Freezing Drizzle"
"1998-12-06 03:00","1998","12","06","03:00","-0.4","","-1.2","","94","","7","","4","","12.9","","99.72","","","","-2","","Cloudy"
"1998-12-06 04:00","1998","12","06","04:00","-0.4","","-1.2","","94","","5","","4","","4.8","","99.72","","","","-2","","Fog"
"1998-12-06 05:00","1998","12","06","05:00","-0.5","","-1.2","","95","","6","","4","","2.4","","99.66","","","","-2","","Fog"
"1998-12-06 06:00","1998","12","06","06:00","-0.2","","-1.0","","94","","5","","4","","0.6","","99.69","","","","-1","","Fog"
"1998-12-06 07:00","1998","12","06","07:00","-0.3","","-0.8","","96","","8","","4","","0.2","","99.69","","","","-2","","Freezing Drizzle,Fog"
"1998-12-06 08:00","1998","12","06","08:00","-0.1","","-0.5","","97","","9","","4","","0.2","","99.66","","","","-1","","Fog"
"1998-12-06 09:00","1998","12","06","09:00","-0.1","","-0.2","","99","","7","","4","","0.2","","99.66","","","","-1","","Fog"
"1998-12-06 10:00","1998","12","06","10:00","0.1","","0.1","","100","","","","0","","0.2","","99.69","","","","","","Fog"
"1998-12-06 11:00","1998","12","06","11:00","0.3","","0.1","","99","","7","","4","","0.2","","99.56","","","","","","Fog"
"1998-12-06 12:00","1998","12","06","12:00","0.7","","0.6","","99","","7","","6","","0.0","","99.46","","","","","","Rain,Fog"
"1998-12-06 13:00","1998","12","06","13:00","0.9","","0.7","","99","","4","","2","","0.0","","99.49","","","","","","Fog"
"1998-12-06 14:00","1998","12","06","14:00","1.2","","0.9","","98","","6","","7","","0.0","","99.39","","","","","","Drizzle,Fog"
"1998-12-06 15:00","1998","12","06","15:00","1.4","","1.0","","97","","6","","7","","0.0","","99.36","","","","","","Fog"
"1998-12-06 16:00","1998","12","06","16:00","1.8","","1.8","","100","","5","","4","","0.4","","99.32","","","","","","Drizzle,Fog"
"1998-12-06 17:00","1998","12","06","17:00","1.6","","1.2","","97","","3","","9","","0.8","","99.29","","","","","","Fog"
"1998-12-06 18:00","1998","12","06","18:00","1.4","","1.3","","99","","4","","6","","1.2","","99.26","","","","","","Fog"
"1998-12-06 19:00","1998","12","06","19:00","1.6","","1.5","","99","","4","","9","","1.6","","99.19","","","","","","Fog"
"1998-12-06 20:00","1998","12","06","20:00","1.6","","1.6","","100","","7","","7","","1.0","","99.09","","","","","","Fog"
"1998-12-06 21:00","1998","12","06","21:00","1.6","","1.6","","100","","5","","9","","0.8","","98.95","","","","","","Fog"
"1998-12-06 22:00","1998","12","06","22:00","2.1","","1.9","","99","","4","","7","","2.4","","98.92","","","","","","Thunderstorms,Moderate Rain Showers,Fog"
"1998-12-06 23:00","1998","12","06","23:00","3.0","","3.0","","100","","6","","7","","3.2","","98.72","","","","","","Rain Showers,Fog"
"1998-12-07 00:00","1998","12","07","00:00","3.3","","3.3","","100","","7","","6","","3.2","","98.59","","","","","","Rain Showers,Fog"
"1998-12-07 01:00","1998","12","07","01:00","3.4","","3.4","","100","","3","","4","","1.6","","98.49","","","","","","Rain,Fog"
"1998-12-07 02:00","1998","12","07","02:00","4.2","","4.2","","100","","11","","4","","0.6","","98.35","","","","","","Fog"
"1998-12-07 03:00","1998","12","07","03:00","12.6","","12.2","","97","","19","","13","","8.0","","98.18","","","","","","Fog"
"1998-12-07 04:00","1998","12","07","04:00","13.9","","13.9","","100","","21","","22","","4.0","","98.08","","","","","","Moderate Rain Showers,Fog"
"1998-12-07 05:00","1998","12","07","05:00","8.9","","8.9","","100","","33","","22","","24.1","","98.25","","","","","","Drizzle"
"1998-12-07 06:00","1998","12","07","06:00","6.6","","6.3","","98","","32","","24","","8.0","","98.65","","","","","","Rain Showers,Fog"
"1998-12-07 07:00","1998","12","07","07:00","5.2","","4.5","","95","","31","","26","","25.0","","99.02","","","","","","Cloudy"
"1998-12-07 08:00","1998","12","07","08:00","4.1","","2.3","","88","","30","","20","","40.2","","99.26","","","","","","Mostly Cloudy"
"1998-12-07 09:00","1998","12","07","09:00","3.8","","1.2","","83","","29","","19","","40.2","","99.49","","","","","","Mainly Clear"
"1998-12-07 10:00","1998","12","07","10:00","4.3","","1.8","","84","","28","","24","","40.2","","99.76","","","","","","Mainly Clear"
"1998-12-07 11:00","1998","12","07","11:00","3.7","","0.4","","79","","29","","22","","40.2","","99.93","","","","","","Mostly Cloudy"
"1998-12-07 12:00","1998","12","07","12:00","3.7","","-0.9","","72","","29","","24","","40.2","","100.06","","","","","","Mostly Cloudy"
"1998-12-07 13:00","1998","12","07","13:00","4.1","","-2.3","","63","","29","","24","","40.2","","100.16","","","","","","Mainly Clear"
"1998-12-07 14:00","1998","12","07","14:00","3.5","","-2.7","","64","","28","","20","","40.2","","100.26","","","","","","Mostly Cloudy"
"1998-12-07 15:00","1998","12","07","15:00","2.2","","-4.6","","61","","29","","20","","40.2","","100.39","","","","","","Mainly Clear"
"1998-12-07 16:00","1998","12","07","16:00","0.9","","-5.3","","63","","28","","17","","40.2","","100.53","","","","","","Mainly Clear"
"1998-12-07 17:00","1998","12","07","17:00","-0.2","","-6.3","","63","","29","","13","","32.2","","100.63","","","","-4","","Mainly Clear"
"1998-12-07 18:00","1998","12","07","18:00","-1.1","","-6.2","","68","","31","","6","","25.0","","100.73","","","","-3","","Mainly Clear"
"1998-12-07 19:00","1998","12","07","19:00","-1.6","","-6.6","","69","","34","","7","","25.0","","100.86","","","","-4","","Mainly Clear"
"1998-12-07 20:00","1998","12","07","20:00","-2.2","","-7.3","","68","","35","","9","","25.0","","101.00","","","","-6","","Clear"
"1998-12-07 21:00","1998","12","07","21:00","-2.7","","-7.9","","67","","34","","9","","25.0","","101.03","","","","-6","","Clear"
"1998-12-07 22:00","1998","12","07","22:00","-3.1","","-7.7","","70","","35","","7","","25.0","","101.06","","","","-6","","Mainly Clear"
"1998-12-07 23:00","1998","12","07","23:00","-3.6","","-8.0","","71","","35","","9","","25.0","","101.06","","","","-7","","Clear"
"1998-12-08 00:00","1998","12","08","00:00","-4.4","","-8.6","","72","","2","","6","","25.0","","101.03","","","","-7","","Clear"
"1998-12-08 01:00","1998","12","08","01:00","-5.1","","-8.5","","77","","2","","6","","25.0","","101.03","","","","-8","","Clear"
"1998-12-08 02:00","1998","12","08","02:00","-5.8","","-8.9","","79","","2","","7","","25.0","","101.06","","","","-9","","Mainly Clear"
"1998-12-08 03:00","1998","12","08","03:00","-5.7","","-8.5","","81","","4","","7","","25.0","","101.00","","","","-9","","Mostly Cloudy"
"1998-12-08 04:00","1998","12","08","04:00","-5.5","","-8.0","","83","","7","","4","","25.0","","101.03","","","","-7","","Cloudy"
"1998-12-08 05:00","1998","12","08","05:00","-5.4","","-7.7","","84","","7","","4","","25.0","","101.00","","","","-7","","Cloudy"
"1998-12-08 06:00","1998","12","08","06:00","-5.2","","-7.8","","82","","7","","9","","25.0","","100.96","","","","-9","","Cloudy"
"1998-12-08 07:00","1998","12","08","07:00","-5.1","","-7.7","","82","","6","","9","","32.2","","100.93","","","","-9","","Cloudy"
"1998-12-08 08:00","1998","12","08","08:00","-5.0","","-7.6","","82","","6","","11","","40.2","","100.83","","","","-10","","Cloudy"
"1998-12-08 09:00","1998","12","08","09:00","-4.4","","-7.1","","81","","6","","9","","40.2","","100.83","","","","-8","","Cloudy"
"1998-12-08 10:00","1998","12","08","10:00","-4.0","","-6.9","","80","","6","","11","","40.2","","100.83","","","","-8","","Cloudy"
"1998-12-08 11:00","1998","12","08","11:00","-3.5","","-6.2","","82","","5","","11","","40.2","","100.70","","","","-8","","Cloudy"
"1998-12-08 12:00","1998","12","08","12:00","-3.2","","-6.0","","81","","5","","9","","40.2","","100.60","","","","-7","","Mostly Cloudy"
"1998-12-08 13:00","1998","12","08","13:00","-2.3","","-5.4","","79","","6","","9","","40.2","","100.49","","","","-6","","Cloudy"
"1998-12-08 14:00","1998","12","08","14:00","-2.3","","-5.8","","77","","4","","7","","40.2","","100.46","","","","-5","","Cloudy"
"1998-12-08 15:00","1998","12","08","15:00","-2.2","","-5.6","","77","","8","","7","","40.2","","100.43","","","","-5","","Mainly Clear"
"1998-12-08 16:00","1998","12","08","16:00","-2.7","","-6.2","","77","","6","","4","","32.2","","100.43","","","","-4","","Mainly Clear"
"1998-12-08 17:00","1998","12","08","17:00","-2.9","","-6.3","","77","","3","","4","","24.1","","100.43","","","","-4","","Mostly Cloudy"
"1998-12-08 18:00","1998","12","08","18:00","-3.0","","-6.0","","80","","5","","6","","24.1","","100.43","","","","-5","","Mostly Cloudy"
"1998-12-08 19:00","1998","12","08","19:00","-2.9","","-5.8","","80","","","","0","","24.1","","100.43","","","","","","Cloudy"
"1998-12-08 20:00","1998","12","08","20:00","-2.6","","-5.5","","80","","","","0","","24.1","","100.46","","","","","","Cloudy"
"1998-12-08 21:00","1998","12","08","21:00","-2.4","","-5.5","","79","","","","0","","24.1","","100.49","","","","","","Snow"
"1998-12-08 22:00","1998","12","08","22:00","-2.6","","-5.5","","80","","19","","4","","24.1","","100.46","","","","-4","","Mostly Cloudy"
"1998-12-08 23:00","1998","12","08","23:00","-3.3","","-5.8","","83","","18","","7","","24.1","","100.43","","","","-6","","Mainly Clear"
"1998-12-09 00:00","1998","12","09","00:00","-3.4","","-5.1","","88","","17","","4","","24.1","","100.43","","","","-5","","Mainly Clear"
"1998-12-09 01:00","1998","12","09","01:00","-3.7","","-5.2","","89","","20","","6","","24.1","","100.43","","","","-6","","Clear"
"1998-12-09 02:00","1998","12","09","02:00","-4.4","","-5.5","","92","","21","","7","","24.1","","100.46","","","","-8","","Clear"
"1998-12-09 03:00","1998","12","09","03:00","-3.8","","-5.4","","89","","22","","11","","24.1","","100.49","","","","-8","","Mainly Clear"
"1998-12-09 04:00","1998","12","09","04:00","-3.2","","-4.4","","91","","21","","7","","24.1","","100.49","","","","-6","","Mostly Cloudy"
"1998-12-09 05:00","1998","12","09","05:00","-3.2","","-4.3","","92","","22","","6","","24.1","","100.49","","","","-6","","Mainly Clear"
"1998-12-09 06:00","1998","12","09","06:00","-2.7","","-3.8","","92","","24","","7","","24.1","","100.53","","","","-6","","Clear"
"1998-12-09 07:00","1998","12","09","07:00","-2.8","","-3.8","","93","","22","","6","","25.0","","100.63","","","","-5","","Mainly Clear"
"1998-12-09 08:00","1998","12","09","08:00","-2.8","","-3.9","","92","","25","","6","","32.2","","100.70","","","","-5","","Mainly Clear"
"1998-12-09 09:00","1998","12","09","09:00","-1.3","","-2.4","","92","","25","","6","","32.2","","100.80","","","","-4","","Mainly Clear"
"1998-12-09 10:00","1998","12","09","10:00","0.5","","-1.0","","90","","27","","11","","32.2","","100.86","","","","","","Mainly Clear"
"1998-12-09 11:00","1998","12","09","11:00","1.6","","-1.0","","83","","29","","19","","32.2","","100.90","","","","","","Mainly Clear"
"1998-12-09 12:00","1998","12","09","12:00","2.7","","-1.4","","74","","30","","17","","40.2","","100.90","","","","","","Mainly Clear"
"1998-12-09 13:00","1998","12","09","13:00","2.7","","-2.6","","68","","29","","19","","40.2","","100.90","","","","","","Mainly Clear"
"1998-12-09 14:00","1998","12","09","14:00","2.1","","-3.8","","65","","29","","15","","40.2","","100.96","","","","","","Mainly Clear"
"1998-12-09 15:00","1998","12","09","15:00","2.3","","-4.5","","61","","28","","15","","40.2","","100.96","","","","","","Mainly Clear"
"1998-12-09 16:00","1998","12","09","16:00","1.7","","-4.8","","62","","29","","11","","40.2","","101.03","","","","","","Clear"
"1998-12-09 17:00","1998","12","09","17:00","0.1","","-5.6","","65","","30","","6","","32.2","","101.13","","","","","","Mainly Clear"
"1998-12-09 18:00","1998","12","09","18:00","-0.5","","-5.6","","68","","","","0","","25.0","","101.10","","","","","","Mainly Clear"
"1998-12-09 19:00","1998","12","09","19:00","-1.4","","-5.5","","74","","","","0","","25.0","","101.13","","","","","","Clear"
"1998-12-09 20:00","1998","12","09","20:00","-1.3","","-5.6","","73","","","","0","","25.0","","101.20","","","","","","Clear"
"1998-12-09 21:00","1998","12","09","21:00","-1.9","","-5.4","","77","","","","0","","25.0","","101.20","","","","","","Mainly Clear"
"1998-12-09 22:00","1998","12","09","22:00","-2.1","","-5.5","","77","","19","","4","","25.0","","101.20","","","","-4","","Mainly Clear"
"1998-12-09 23:00","1998","12","09","23:00","-2.7","","-5.2","","83","","","","0","","25.0","","101.20","","","","","","Mainly Clear"
"1998-12-10 00:00","1998","12","10","00:00","-3.1","","-5.7","","82","","22","","4","","25.0","","101.20","","","","-5","","Mainly Clear"
"1998-12-10 01:00","1998","12","10","01:00","-2.3","","-4.3","","86","","20","","6","","25.0","","101.16","","","","-5","","Mainly Clear"
"1998-12-10 02:00","1998","12","10","02:00","-3.6","","-5.6","","86","","21","","4","","25.0","","101.13","","","","-5","","Mainly Clear"
"1998-12-10 03:00","1998","12","10","03:00","-3.5","","-5.6","","85","","21","","6","","25.0","","101.13","","","","-6","","Mostly Cloudy"
"1998-12-10 04:00","1998","12","10","04:00","-2.9","","-4.7","","87","","20","","4","","25.0","","101.10","","","","-4","","Mostly Cloudy"
"1998-12-10 05:00","1998","12","10","05:00","-2.4","","-4.3","","87","","20","","6","","25.0","","101.06","","","","-5","","Mostly Cloudy"
"1998-12-10 06:00","1998","12","10","06:00","-2.5","","-4.0","","89","","20","","6","","25.0","","101.00","","","","-5","","Mainly Clear"
"1998-12-10 07:00","1998","12","10","07:00","-2.1","","-3.8","","88","","18","","6","","25.0","","100.93","","","","-4","","Cloudy"
"1998-12-10 08:00","1998","12","10","08:00","-1.9","","-2.9","","93","","17","","6","","24.1","","100.93","","","","-4","","Mostly Cloudy"
"1998-12-10 09:00","1998","12","10","09:00","-0.7","","-2.2","","90","","16","","9","","24.1","","100.80","","","","-4","","Cloudy"
"1998-12-10 10:00","1998","12","10","10:00","0.8","","-0.7","","90","","19","","9","","19.3","","100.73","","","","","","Cloudy"
"1998-12-10 11:00","1998","12","10","11:00","2.3","","0.6","","89","","23","","9","","19.3","","100.66","","","","","","Mostly Cloudy"
"1998-12-10 12:00","1998","12","10","12:00","3.2","","0.4","","82","","22","","13","","16.1","","100.56","","","","","","Cloudy"
"1998-12-10 13:00","1998","12","10","13:00","4.2","","0.8","","79","","23","","11","","16.1","","100.46","","","","","","Mostly Cloudy"
"1998-12-10 14:00","1998","12","10","14:00","5.3","","1.0","","74","","23","","13","","19.3","","100.39","","","","","","Mainly Clear"
"1998-12-10 15:00","1998","12","10","15:00","5.0","","0.1","","71","","22","","13","","19.3","","100.36","","","","","","Mostly Cloudy"
"1998-12-10 16:00","1998","12","10","16:00","4.3","","-0.5","","71","","21","","11","","16.1","","100.33","","","","","","Mostly Cloudy"
"1998-12-10 17:00","1998","12","10","17:00","4.2","","-0.2","","73","","22","","9","","19.3","","100.39","","","","","","Mostly Cloudy"
"1998-12-10 18:00","1998","12","10","18:00","2.7","","-1.1","","76","","30","","11","","24.1","","100.43","","","","","","Cloudy"
"1998-12-10 19:00","1998","12","10","19:00","2.0","","0.0","","87","","","","0","","24.1","","100.46","","","","","","Snow Showers"
"1998-12-10 20:00","1998","12","10","20:00","2.1","","-0.2","","85","","25","","7","","24.1","","100.43","","","","","","Cloudy"
"1998-12-10 21:00","1998","12","10","21:00","1.6","","-0.3","","87","","25","","6","","24.1","","100.43","","","","","","Cloudy"
"1998-12-10 22:00","1998","12","10","22:00","0.8","","-0.9","","88","","25","","6","","24.1","","100.43","","","","","","Mostly Cloudy"
"1998-12-10 23:00","1998","12","10","23:00"
"1998-12-11 00:00","1998","12","11","00:00","1.2","","-1.2","","84","","29","","9","","24.1","","100.46","","","","","","Mostly Cloudy"
"1998-12-11 01:00","1998","12","11","01:00","1.1","","-1.5","","83","","28","","13","","24.1","","100.46","","","","","","Mostly Cloudy"
"1998-12-11 02:00","1998","12","11","02:00","0.7","","-2.0","","82","","29","","13","","24.1","","100.53","","","","","","Cloudy"
"1998-12-11 03:00","1998","12","11","03:00","0.3","","-2.1","","84","","29","","11","","24.1","","100.53","","","","","","Mostly Cloudy"
"1998-12-11 04:00","1998","12","11","04:00","0.1","","-2.1","","85","","29","","13","","24.1","","100.56","","","","","","Mostly Cloudy"
"1998-12-11 05:00","1998","12","11","05:00","-0.2","","-2.3","","86","","30","","17","","12.9","","100.60","","","","-5","","Snow Showers"
"1998-12-11 06:00","1998","12","11","06:00","-0.7","","-2.4","","88","","29","","13","","12.9","","100.66","","","","-5","","Snow Showers"
"1998-12-11 07:00","1998","12","11","07:00","-0.4","","-2.1","","88","","30","","17","","25.0","","100.73","","","","-5","","Mostly Cloudy"
"1998-12-11 08:00","1998","12","11","08:00","-0.9","","-3.5","","82","","30","","19","","40.2","","100.83","","","","-6","","Mostly Cloudy"
"1998-12-11 09:00","1998","12","11","09:00","-1.3","","-4.8","","77","","30","","20","","40.2","","100.93","","","","-7","","Mostly Cloudy"
"1998-12-11 10:00","1998","12","11","10:00","-1.8","","-6.1","","72","","30","","20","","40.2","","101.03","","","","-8","","Mostly Cloudy"
"1998-12-11 11:00","1998","12","11","11:00","-1.2","","-6.1","","69","","30","","22","","40.2","","101.06","","","","-7","","Mainly Clear"
"1998-12-11 12:00","1998","12","11","12:00","-0.6","","-6.4","","65","","28","","15","","40.2","","101.06","","","","-5","","Mainly Clear"
"1998-12-11 13:00","1998","12","11","13:00","-0.2","","-7.2","","59","","27","","22","","40.2","","101.06","","","","-6","","Mainly Clear"
"1998-12-11 14:00","1998","12","11","14:00","0.4","","-9.0","","49","","27","","15","","40.2","","101.06","","","","","","Mainly Clear"
"1998-12-11 15:00","1998","12","11","15:00","0.5","","-11.4","","40","","27","","15","","40.2","","101.13","","","","","","Mainly Clear"
"1998-12-11 16:00","1998","12","11","16:00","0.2","","-10.6","","44","","26","","13","","40.2","","101.20","","","","","","Clear"
"1998-12-11 17:00","1998","12","11","17:00","-1.4","","-10.0","","52","","24","","9","","32.2","","101.23","","","","-5","","Mainly Clear"
"1998-12-11 18:00","1998","12","11","18:00","-2.1","","-8.8","","60","","24","","7","","25.0","","101.27","","","","-5","","Clear"
"1998-12-11 19:00","1998","12","11","19:00","-2.1","","-8.9","","60","","19","","7","","25.0","","101.27","","","","-5","","Clear"
"1998-12-11 20:00","1998","12","11","20:00","-1.7","","-8.6","","59","","18","","4","","25.0","","101.30","","","","-3","","Mainly Clear"
"1998-12-11 21:00","1998","12","11","21:00","-2.1","","-8.9","","60","","18","","4","","25.0","","101.30","","","","-4","","Mostly Cloudy"
"1998-12-11 22:00","1998","12","11","22:00","-2.1","","-8.3","","62","","15","","6","","25.0","","101.23","","","","-4","","Mostly Cloudy"
"1998-12-11 23:00","1998","12","11","23:00","-1.5","","-7.4","","64","","18","","4","","25.0","","101.23","","","","-3","","Mostly Cloudy"
"1998-12-12 00:00","1998","12","12","00:00","-1.6","","-6.6","","69","","19","","4","","25.0","","101.20","","","","-3","","Mostly Cloudy"
"1998-12-12 01:00","1998","12","12","01:00","-2.0","","-6.2","","73","","19","","4","","25.0","","101.13","","","","-3","","Clear"
"1998-12-12 02:00","1998","12","12","02:00","-1.6","","-5.0","","78","","18","","4","","25.0","","101.06","","","","-3","","Clear"
"1998-12-12 03:00","1998","12","12","03:00","-2.8","","-5.3","","83","","16","","6","","19.3","","100.96","","","","-5","","Clear"
"1998-12-12 04:00","1998","12","12","04:00","-1.6","","-4.0","","84","","17","","7","","16.1","","100.83","","","","-4","","Mostly Cloudy"
"1998-12-12 05:00","1998","12","12","05:00","-0.7","","-2.7","","86","","20","","9","","12.9","","100.80","","","","-4","","Mostly Cloudy"
"1998-12-12 06:00","1998","12","12","06:00","-0.6","","-2.0","","90","","21","","6","","12.9","","100.76","","","","-3","","Mostly Cloudy"
"1998-12-12 07:00","1998","12","12","07:00","-0.2","","-1.6","","90","","20","","9","","16.1","","100.66","","","","-3","","Mostly Cloudy"
"1998-12-12 08:00","1998","12","12","08:00","0.6","","-0.3","","94","","22","","9","","12.9","","100.63","","","","","","Mostly Cloudy"
"1998-12-12 09:00","1998","12","12","09:00","2.8","","1.5","","91","","24","","9","","32.2","","100.63","","","","","","Cloudy"
"1998-12-12 10:00","1998","12","12","10:00","3.6","","1.6","","87","","24","","19","","40.2","","100.63","","","","","","Cloudy"
"1998-12-12 11:00","1998","12","12","11:00","4.0","","-0.1","","75","","24","","20","","40.2","","100.53","","","","","","Cloudy"
"1998-12-12 12:00","1998","12","12","12:00","5.3","","0.3","","70","","25","","15","","40.2","","100.49","","","","","","Mostly Cloudy"
"1998-12-12 13:00","1998","12","12","13:00","6.0","","0.1","","66","","26","","19","","40.2","","100.49","","","","","","Mostly Cloudy"
"1998-12-12 14:00","1998","12","12","14:00","6.5","","-0.2","","62","","26","","17","","40.2","","100.43","","","","","","Mainly Clear"
"1998-12-12 15:00","1998","12","12","15:00","6.4","","-0.5","","61","","26","","13","","40.2","","100.43","","","","","","Clear"
"1998-12-12 16:00","1998","12","12","16:00","5.4","","-0.9","","64","","26","","9","","40.2","","100.43","","","","","","Clear"
"1998-12-12 17:00","1998","12","12","17:00","3.1","","-1.4","","72","","27","","9","","32.2","","100.49","","","","","","Clear"
"1998-12-12 18:00","1998","12","12","18:00","2.6","","-1.5","","74","","24","","6","","25.0","","100.46","","","","","","Clear"
"1998-12-12 19:00","1998","12","12","19:00","2.1","","-1.7","","76","","22","","9","","25.0","","100.43","","","","","","Mainly Clear"
"1998-12-12 20:00","1998","12","12","20:00","1.7","","-1.8","","78","","22","","7","","25.0","","100.43","","","","","","Clear"
"1998-12-12 21:00","1998","12","12","21:00","1.8","","-1.8","","77","","22","","11","","25.0","","100.39","","","","","","Mainly Clear"
"1998-12-12 22:00","1998","12","12","22:00","1.2","","-1.8","","80","","23","","9","","25.0","","100.36","","","","","","Mostly Cloudy"
"1998-12-12 23:00","1998","12","12","23:00","1.3","","-1.5","","82","","23","","9","","25.0","","100.36","","","","","","Mostly Cloudy"
"1998-12-13 00:00","1998","12","13","00:00","0.9","","-1.7","","83","","22","","7","","25.0","","100.26","","","","","","Mostly Cloudy"
"1998-12-13 01:00","1998","12","13","01:00","0.1","","-2.2","","84","","22","","7","","25.0","","100.26","","","","","","Mainly Clear"
"1998-12-13 02:00","1998","12","13","02:00","-0.4","","-2.4","","86","","23","","9","","25.0","","100.26","","","","-4","","Clear"
"1998-12-13 03:00","1998","12","13","03:00","-0.6","","-2.2","","89","","23","","9","","25.0","","100.26","","","","-4","","Clear"
"1998-12-13 04:00","1998","12","13","04:00","-1.0","","-2.5","","90","","24","","9","","25.0","","100.19","","","","-4","","Clear"
"1998-12-13 05:00","1998","12","13","05:00","-0.9","","-2.2","","91","","23","","9","","19.3","","100.19","","","","-4","","Clear"
"1998-12-13 06:00","1998","12","13","06:00","-1.2","","-2.4","","92","","23","","9","","16.1","","100.19","","","","-4","","Clear"
"1998-12-13 07:00","1998","12","13","07:00","-1.9","","-2.7","","94","","23","","7","","19.3","","100.26","","","","-5","","Clear"
"1998-12-13 08:00","1998","12","13","08:00","-1.7","","-2.3","","96","","24","","7","","12.9","","100.23","","","","-4","","Clear"
"1998-12-13 09:00","1998","12","13","09:00","-0.7","","-1.5","","94","","24","","9","","19.3","","100.26","","","","-4","","Clear"
"1998-12-13 10:00","1998","12","13","10:00","1.2","","0.6","","96","","25","","9","","24.1","","100.33","","","","","","Clear"
"1998-12-13 11:00","1998","12","13","11:00","2.6","","1.9","","95","","31","","15","","40.2","","100.29","","","","","","Mostly Cloudy"
"1998-12-13 12:00","1998","12","13","12:00","3.0","","1.0","","87","","32","","19","","40.2","","100.26","","","","","","Mostly Cloudy"
"1998-12-13 13:00","1998","12","13","13:00","3.7","","0.4","","79","","31","","20","","40.2","","100.26","","","","","","Mainly Clear"
"1998-12-13 14:00","1998","12","13","14:00","3.3","","-1.8","","69","","30","","20","","40.2","","100.26","","","","","","Mostly Cloudy"
"1998-12-13 15:00","1998","12","13","15:00","3.0","","-3.7","","61","","36","","17","","40.2","","100.29","","","","","","Mainly Clear"
"1998-12-13 16:00","1998","12","13","16:00","1.8","","-6.3","","55","","35","","20","","40.2","","100.39","","","","","","Mainly Clear"
"1998-12-13 17:00","1998","12","13","17:00","0.8","","-7.0","","56","","34","","11","","40.2","","100.46","","","","","","Clear"
"1998-12-13 18:00","1998","12","13","18:00","-0.2","","-7.3","","59","","35","","7","","25.0","","100.56","","","","-3","","Clear"
"1998-12-13 19:00","1998","12","13","19:00","-1.0","","-7.6","","61","","33","","11","","25.0","","100.63","","","","-5","","Clear"
"1998-12-13 20:00","1998","12","13","20:00","-1.0","","-7.7","","60","","24","","11","","25.0","","100.66","","","","-5","","Clear"
"1998-12-13 21:00","1998","12","13","21:00","-0.6","","-7.5","","60","","36","","15","","25.0","","100.70","","","","-5","","Clear"
"1998-12-13 22:00","1998","12","13","22:00","-1.4","","-7.8","","62","","35","","11","","25.0","","100.73","","","","-5","","Clear"
"1998-12-13 23:00","1998","12","13","23:00","-2.1","","-7.9","","64","","1","","7","","25.0","","100.76","","","","-5","","Clear"
"1998-12-14 00:00","1998","12","14","00:00","-2.3","","-7.8","","66","","","","0","","25.0","","100.80","","","","","","Clear"
"1998-12-14 01:00","1998","12","14","01:00","-2.5","","-7.7","","67","","35","","7","","25.0","","100.80","","","","-5","","Clear"
"1998-12-14 02:00","1998","12","14","02:00","-3.9","","-8.9","","68","","31","","7","","25.0","","100.86","","","","-7","","Clear"
"1998-12-14 03:00","1998","12","14","03:00","-3.6","","-8.1","","71","","34","","9","","25.0","","100.93","","","","-7","","Clear"
"1998-12-14 04:00","1998","12","14","04:00","-4.2","","-8.3","","73","","33","","6","","25.0","","100.93","","","","-7","","Clear"
"1998-12-14 05:00","1998","12","14","05:00","-4.6","","-8.1","","76","","36","","4","","25.0","","100.93","","","","-6","","Mainly Clear"
"1998-12-14 06:00","1998","12","14","06:00","-4.1","","-8.0","","74","","33","","4","","25.0","","101.03","","","","-6","","Mostly Cloudy"
"1998-12-14 07:00","1998","12","14","07:00","-3.7","","-7.6","","74","","32","","4","","32.2","","101.10","","","","-5","","Mainly Clear"
"1998-12-14 08:00","1998","12","14","08:00","-4.2","","-8.1","","74","","32","","4","","40.2","","101.13","","","","-6","","Mainly Clear"
"1998-12-14 09:00","1998","12","14","09:00","-3.9","","-7.9","","74","","32","","6","","40.2","","101.16","","","","-7","","Mainly Clear"
"1998-12-14 10:00","1998","12","14","10:00","-2.8","","-7.1","","72","","","","0","","40.2","","101.23","","","","","","Clear"
"1998-12-14 11:00","1998","12","14","11:00","-2.2","","-7.3","","68","","","","0","","40.2","","101.20","","","","","","Mainly Clear"
"1998-12-14 12:00","1998","12","14","12:00","-1.0","","-7.1","","63","","25","","7","","40.2","","101.10","","","","-4","","Clear"
"1998-12-14 13:00","1998","12","14","13:00","-0.6","","-7.5","","60","","27","","6","","40.2","","101.03","","","","-3","","Clear"
"1998-12-14 14:00","1998","12","14","14:00","-0.6","","-7.9","","58","","26","","7","","40.2","","101.03","","","","-3","","Mainly Clear"
"1998-12-14 15:00","1998","12","14","15:00","0.0","","-7.4","","57","","22","","7","","32.2","","101.03","","","","-2","","Mostly Cloudy"
"1998-12-14 16:00","1998","12","14","16:00","-0.8","","-8.0","","58","","23","","7","","32.2","","100.96","","","","-3","","Mostly Cloudy"
"1998-12-14 17:00","1998","12","14","17:00","-1.1","","-7.6","","61","","21","","6","","25.0","","100.96","","","","-3","","Mostly Cloudy"
"1998-12-14 18:00","1998","12","14","18:00","-1.2","","-7.1","","64","","20","","7","","25.0","","100.90","","","","-4","","Cloudy"
"1998-12-14 19:00","1998","12","14","19:00","-1.0","","-6.7","","65","","23","","7","","25.0","","100.90","","","","-4","","Mostly Cloudy"
"1998-12-14 20:00","1998","12","14","20:00","-1.0","","-6.3","","67","","21","","9","","25.0","","100.80","","","","-4","","Mostly Cloudy"
"1998-12-14 21:00","1998","12","14","21:00","-0.4","","-5.4","","69","","23","","13","","25.0","","100.73","","","","-5","","Cloudy"
"1998-12-14 22:00","1998","12","14","22:00","-0.7","","-5.4","","70","","21","","7","","25.0","","100.70","","","","-3","","Mainly Clear"
"1998-12-14 23:00","1998","12","14","23:00","-1.3","","-5.4","","74","","22","","9","","25.0","","100.63","","","","-5","","Mainly Clear"
"1998-12-15 00:00","1998","12","15","00:00","-0.9","","-4.6","","76","","20","","11","","25.0","","100.49","","","","-5","","Clear"
"1998-12-15 01:00","1998","12","15","01:00","0.1","","-3.1","","79","","22","","17","","25.0","","100.43","","","","","","Mainly Clear"
"1998-12-15 02:00","1998","12","15","02:00","0.8","","-2.2","","80","","22","","22","","24.1","","100.36","","","","","","Clear"
"1998-12-15 03:00","1998","12","15","03:00","0.8","","-1.8","","83","","23","","17","","24.1","","100.36","","","","","","Clear"
"1998-12-15 04:00","1998","12","15","04:00","0.7","","-1.7","","84","","22","","15","","24.1","","100.29","","","","","","Clear"
"1998-12-15 05:00","1998","12","15","05:00","0.9","","-1.4","","85","","22","","17","","24.1","","100.23","","","","","","Clear"
"1998-12-15 06:00","1998","12","15","06:00","1.2","","-0.9","","86","","22","","19","","24.1","","100.16","","","","","","Clear"
"1998-12-15 07:00","1998","12","15","07:00","1.2","","-0.9","","86","","21","","17","","32.2","","100.13","","","","","","Clear"
"1998-12-15 08:00","1998","12","15","08:00","1.6","","-0.8","","84","","23","","17","","40.2","","100.09","","","","","","Clear"
"1998-12-15 09:00","1998","12","15","09:00","2.5","","-0.5","","81","","22","","15","","40.2","","100.09","","","","","","Clear"
"1998-12-15 10:00","1998","12","15","10:00","4.5","","0.3","","74","","23","","19","","40.2","","100.06","","","","","","Clear"
"1998-12-15 11:00","1998","12","15","11:00","6.0","","0.2","","66","","23","","20","","40.2","","99.96","","","","","","Clear"
"1998-12-15 12:00","1998","12","15","12:00","7.5","","0.9","","63","","24","","22","","40.2","","99.86","","","","","","Clear"
"1998-12-15 13:00","1998","12","15","13:00","8.3","","0.7","","59","","24","","22","","40.2","","99.79","","","","","","Clear"
"1998-12-15 14:00","1998","12","15","14:00","8.5","","0.4","","57","","24","","20","","40.2","","99.76","","","","","","Clear"
"1998-12-15 15:00","1998","12","15","15:00","8.8","","0.4","","56","","24","","17","","32.2","","99.79","","","","","","Mainly Clear"
"1998-12-15 16:00","1998","12","15","16:00","7.7","","0.0","","58","","24","","13","","32.2","","99.79","","","","","","Mainly Clear"
"1998-12-15 17:00","1998","12","15","17:00","6.1","","-0.7","","62","","23","","13","","24.1","","99.86","","","","","","Mainly Clear"
"1998-12-15 18:00","1998","12","15","18:00","4.3","","-1.0","","68","","23","","7","","24.1","","99.86","","","","","","Clear"
"1998-12-15 19:00","1998","12","15","19:00","4.8","","0.0","","71","","22","","7","","19.3","","99.89","","","","","","Mostly Cloudy"
"1998-12-15 20:00","1998","12","15","20:00","4.8","","0.0","","71","","25","","9","","19.3","","99.93","","","","","","Mostly Cloudy"
"1998-12-15 21:00","1998","12","15","21:00","4.3","","-0.4","","71","","23","","9","","19.3","","99.93","","","","","","Clear"
"1998-12-15 22:00","1998","12","15","22:00","3.7","","-0.3","","75","","23","","9","","19.3","","99.89","","","","","","Clear"
"1998-12-15 23:00","1998","12","15","23:00","2.7","","-0.8","","78","","24","","7","","19.3","","99.93","","","","","","Mainly Clear"
"1998-12-16 00:00","1998","12","16","00:00","2.0","","-1.2","","79","","26","","4","","24.1","","99.93","","","","","","Mainly Clear"
"1998-12-16 01:00","1998","12","16","01:00","1.4","","-0.8","","85","","24","","6","","24.1","","99.93","","","","","","Mainly Clear"
"1998-12-16 02:00","1998","12","16","02:00","1.6","","-0.3","","87","","25","","7","","24.1","","99.99","","","","","","Mostly Cloudy"
"1998-12-16 03:00","1998","12","16","03:00","1.9","","0.1","","88","","26","","6","","24.1","","100.06","","","","","","Mostly Cloudy"
"1998-12-16 04:00","1998","12","16","04:00","2.4","","0.3","","86","","31","","7","","24.1","","100.03","","","","","","Cloudy"
"1998-12-16 05:00","1998","12","16","05:00","2.2","","0.1","","86","","32","","4","","24.1","","100.06","","","","","","Cloudy"
"1998-12-16 06:00","1998","12","16","06:00","2.8","","0.7","","86","","35","","7","","25.0","","100.06","","","","","","Cloudy"
"1998-12-16 07:00","1998","12","16","07:00","2.4","","-2.2","","72","","36","","11","","32.2","","100.09","","","","","","Mostly Cloudy"
"1998-12-16 08:00","1998","12","16","08:00","1.5","","-3.3","","70","","1","","9","","40.2","","100.16","","","","","","Mostly Cloudy"
"1998-12-16 09:00","1998","12","16","09:00","1.1","","-4.4","","67","","1","","7","","40.2","","100.19","","","","","","Mostly Cloudy"
"1998-12-16 10:00","1998","12","16","10:00","0.9","","-4.5","","67","","2","","7","","40.2","","100.16","","","","","","Mostly Cloudy"
"1998-12-16 11:00","1998","12","16","11:00","1.9","","-4.1","","64","","4","","6","","40.2","","100.09","","","","","","Mainly Clear"
"1998-12-16 12:00","1998","12","16","12:00","2.6","","-3.9","","62","","","","0","","40.2","","100.06","","","","","","Mostly Cloudy"
"1998-12-16 13:00","1998","12","16","13:00","3.3","","-4.1","","58","","","","0","","40.2","","99.99","","","","","","Mostly Cloudy"
"1998-12-16 14:00","1998","12","16","14:00","3.1","","-4.8","","56","","","","0","","40.2","","99.93","","","","","","Mostly Cloudy"
"1998-12-16 15:00","1998","12","16","15:00","2.8","","-5.3","","55","","31","","7","","40.2","","99.89","","","","","","Mainly Clear"
"1998-12-16 16:00","1998","12","16","16:00","1.9","","-5.9","","56","","29","","6","","40.2","","99.86","","","","","","Mainly Clear"
"1998-12-16 17:00","1998","12","16","17:00","0.7","","-6.5","","59","","34","","7","","32.2","","99.82","","","","","","Mostly Cloudy"
"1998-12-16 18:00","1998","12","16","18:00","0.4","","-6.1","","62","","1","","6","","25.0","","99.82","","","","","","Cloudy"
"1998-12-16 19:00","1998","12","16","19:00","0.0","","-6.7","","61","","2","","6","","25.0","","99.79","","","","-2","","Cloudy"
"1998-12-16 20:00","1998","12","16","20:00","-0.4","","-6.5","","63","","2","","7","","25.0","","99.76","","","","-3","","Cloudy"
"1998-12-16 21:00","1998","12","16","21:00","-0.4","","-6.8","","62","","36","","7","","25.0","","99.69","","","","-3","","Cloudy"
"1998-12-16 22:00","1998","12","16","22:00","-0.6","","-6.8","","63","","34","","4","","25.0","","99.66","","","","-2","","Cloudy"
"1998-12-16 23:00","1998","12","16","23:00","-0.8","","-6.8","","64","","36","","6","","25.0","","99.59","","","","-3","","Cloudy"
"1998-12-17 00:00","1998","12","17","00:00","-1.0","","-6.9","","64","","2","","7","","25.0","","99.49","","","","-4","","Cloudy"
"1998-12-17 01:00","1998","12","17","01:00","-1.4","","-7.1","","65","","2","","6","","25.0","","99.49","","","","-4","","Cloudy"
"1998-12-17 02:00","1998","12","17","02:00","-2.1","","-7.0","","69","","3","","6","","25.0","","99.42","","","","-4","","Mostly Cloudy"
"1998-12-17 03:00","1998","12","17","03:00","-3.1","","-7.1","","74","","4","","4","","25.0","","99.42","","","","-5","","Mainly Clear"
"1998-12-17 04:00","1998","12","17","04:00","-2.2","","-5.9","","76","","5","","6","","24.1","","99.39","","","","-5","","Cloudy"
"1998-12-17 05:00","1998","12","17","05:00","-2.7","","-5.8","","79","","5","","7","","19.3","","99.39","","","","-6","","Snow"
"1998-12-17 06:00","1998","12","17","06:00","-2.8","","-5.4","","82","","3","","9","","24.1","","99.42","","","","-6","","Snow"
"1998-12-17 07:00","1998","12","17","07:00","-2.7","","-4.8","","85","","2","","6","","24.1","","99.42","","","","-5","","Cloudy"
"1998-12-17 08:00","1998","12","17","08:00","-2.5","","-4.5","","86","","1","","7","","16.1","","99.46","","","","-5","","Cloudy"
"1998-12-17 09:00","1998","12","17","09:00","-2.5","","-4.2","","88","","34","","4","","19.3","","99.46","","","","-4","","Mostly Cloudy"
"1998-12-17 10:00","1998","12","17","10:00","-2.1","","-4.3","","85","","34","","6","","24.1","","99.42","","","","-4","","Mostly Cloudy"
"1998-12-17 11:00","1998","12","17","11:00","-1.9","","-4.8","","81","","35","","7","","24.1","","99.39","","","","-5","","Mainly Clear"
"1998-12-17 12:00","1998","12","17","12:00","-1.5","","-5.0","","77","","35","","6","","32.2","","99.36","","","","-4","","Mostly Cloudy"
"1998-12-17 13:00","1998","12","17","13:00","-1.3","","-5.1","","75","","32","","4","","24.1","","99.32","","","","-3","","Cloudy"
"1998-12-17 14:00","1998","12","17","14:00","-1.2","","-5.5","","73","","32","","7","","16.1","","99.36","","","","-4","","Snow Showers"
"1998-12-17 15:00","1998","12","17","15:00","-1.7","","-5.2","","77","","32","","7","","32.2","","99.42","","","","-4","","Mostly Cloudy"
"1998-12-17 16:00","1998","12","17","16:00","-1.5","","-5.8","","72","","33","","15","","32.2","","99.49","","","","-6","","Mostly Cloudy"
"1998-12-17 17:00","1998","12","17","17:00","-1.8","","-6.4","","71","","34","","11","","32.2","","99.56","","","","-6","","Mostly Cloudy"
"1998-12-17 18:00","1998","12","17","18:00","-2.0","","-7.0","","69","","35","","7","","24.1","","99.59","","","","-5","","Mostly Cloudy"
"1998-12-17 19:00","1998","12","17","19:00","-2.4","","-8.1","","65","","33","","7","","25.0","","99.66","","","","-5","","Mostly Cloudy"
"1998-12-17 20:00","1998","12","17","20:00","-3.2","","-9.5","","62","","34","","6","","25.0","","99.69","","","","-6","","Mainly Clear"
"1998-12-17 21:00","1998","12","17","21:00","-4.0","","-10.3","","62","","33","","7","","25.0","","99.72","","","","-7","","Mainly Clear"
"1998-12-17 22:00","1998","12","17","22:00","-4.1","","-9.5","","66","","34","","13","","25.0","","99.76","","","","-9","","Mostly Cloudy"
"1998-12-17 23:00","1998","12","17","23:00","-4.8","","-9.3","","71","","33","","13","","25.0","","99.82","","","","-10","","Mostly Cloudy"
"1998-12-18 00:00","1998","12","18","00:00","-5.7","","-9.9","","72","","32","","13","","25.0","","99.93","","","","-11","","Mostly Cloudy"
"1998-12-18 01:00","1998","12","18","01:00","-6.5","","-10.4","","74","","32","","15","","25.0","","99.96","","","","-12","","Mostly Cloudy"
"1998-12-18 02:00","1998","12","18","02:00","-7.4","","-11.1","","75","","32","","13","","25.0","","100.06","","","","-13","","Mainly Clear"
"1998-12-18 03:00","1998","12","18","03:00","-7.7","","-11.7","","73","","32","","13","","25.0","","100.16","","","","-13","","Mainly Clear"
"1998-12-18 04:00","1998","12","18","04:00","-8.4","","-12.5","","72","","32","","11","","25.0","","100.23","","","","-14","","Mainly Clear"
"1998-12-18 05:00","1998","12","18","05:00","-9.1","","-13.0","","73","","32","","13","","25.0","","100.29","","","","-15","","Clear"
"1998-12-18 06:00","1998","12","18","06:00","-9.7","","-13.5","","74","","32","","15","","25.0","","100.39","","","","-16","","Clear"
"1998-12-18 07:00","1998","12","18","07:00","-10.3","","-13.9","","75","","33","","15","","32.2","","100.53","","","","-17","","Clear"
"1998-12-18 08:00","1998","12","18","08:00","-10.7","","-14.6","","73","","32","","13","","40.2","","100.63","","","","-17","","Clear"
"1998-12-18 09:00","1998","12","18","09:00","-10.0","","-14.2","","71","","31","","9","","40.2","","100.70","","","","-15","","Clear"
"1998-12-18 10:00","1998","12","18","10:00","-9.3","","-13.7","","70","","28","","13","","40.2","","100.83","","","","-15","","Clear"
"1998-12-18 11:00","1998","12","18","11:00","-8.4","","-13.7","","66","","30","","15","","40.2","","100.90","","","","-15","","Clear"
"1998-12-18 12:00","1998","12","18","12:00","-7.6","","-14.2","","59","","30","","11","","40.2","","100.83","","","","-13","","Clear"
"1998-12-18 13:00","1998","12","18","13:00","-6.8","","-14.3","","55","","30","","7","","40.2","","100.86","","","","-10","","Mainly Clear"
"1998-12-18 14:00","1998","12","18","14:00","-6.0","","-14.8","","50","","29","","6","","40.2","","100.90","","","","-9","","Mainly Clear"
"1998-12-18 15:00","1998","12","18","15:00","-5.9","","-15.7","","46","","28","","4","","40.2","","100.90","","","","-8","","Mainly Clear"
"1998-12-18 16:00","1998","12","18","16:00","-6.8","","-16.2","","47","","28","","6","","40.2","","101.00","","","","-10","","Mostly Cloudy"
"1998-12-18 17:00","1998","12","18","17:00","-7.2","","-15.3","","52","","27","","4","","32.2","","101.03","","","","-9","","Mostly Cloudy"
"1998-12-18 18:00","1998","12","18","18:00","-7.2","","-15.2","","53","","","","0","","25.0","","101.03","","","","","","Mostly Cloudy"
"1998-12-18 19:00","1998","12","18","19:00","-7.2","","-14.9","","54","","14","","2","","25.0","","100.96","","","","-8","","Cloudy"
"1998-12-18 20:00","1998","12","18","20:00","-7.2","","-14.4","","56","","11","","2","","25.0","","100.96","","","","-8","","Cloudy"
"1998-12-18 21:00","1998","12","18","21:00","-7.0","","-14.4","","56","","10","","6","","25.0","","100.93","","","","-10","","Cloudy"
"1998-12-18 22:00","1998","12","18","22:00","-6.9","","-13.5","","59","","8","","6","","25.0","","100.93","","","","-10","","Cloudy"
"1998-12-18 23:00","1998","12","18","23:00","-6.6","","-12.9","","61","","10","","6","","25.0","","100.96","","","","-10","","Cloudy"
"1998-12-19 00:00","1998","12","19","00:00","-6.5","","-13.3","","58","","9","","13","","25.0","","100.90","","","","-12","","Cloudy"
"1998-12-19 01:00","1998","12","19","01:00","-6.3","","-12.8","","60","","10","","13","","24.1","","100.83","","","","-12","","Snow"
"1998-12-19 02:00","1998","12","19","02:00","-6.9","","-12.3","","65","","9","","20","","4.0","","100.70","","","","-14","","Snow"
"1998-12-19 03:00","1998","12","19","03:00","-6.9","","-11.2","","71","","9","","22","","19.3","","100.63","","","","-14","","Snow"
"1998-12-19 04:00","1998","12","19","04:00","-6.4","","-10.6","","72","","9","","20","","16.1","","100.53","","","","-13","","Snow"
"1998-12-19 05:00","1998","12","19","05:00","-6.4","","-10.5","","73","","9","","19","","19.3","","100.46","","","","-13","","Freezing Rain,Snow"
"1998-12-19 06:00","1998","12","19","06:00","-6.0","","-9.6","","76","","8","","20","","24.1","","100.43","","","","-13","","Snow"
"1998-12-19 07:00","1998","12","19","07:00","-5.7","","-9.4","","75","","8","","20","","25.0","","100.43","","","","-12","","Cloudy"
"1998-12-19 08:00","1998","12","19","08:00","-5.6","","-9.1","","76","","8","","17","","9.7","","100.46","","","","-12","","Snow"
"1998-12-19 09:00","1998","12","19","09:00","-6.6","","-9.8","","78","","8","","15","","2.4","","100.43","","","","-13","","Snow"
"1998-12-19 10:00","1998","12","19","10:00","-5.9","","-8.5","","82","","9","","13","","1.6","","100.39","","","","-11","","Snow"
"1998-12-19 11:00","1998","12","19","11:00","-5.6","","-7.5","","86","","9","","11","","2.4","","100.33","","","","-10","","Snow"
"1998-12-19 12:00","1998","12","19","12:00","-5.3","","-7.0","","88","","8","","11","","2.4","","100.26","","","","-10","","Snow"
"1998-12-19 13:00","1998","12","19","13:00","-4.6","","-6.0","","90","","8","","9","","2.4","","100.19","","","","-8","","Snow"
"1998-12-19 14:00","1998","12","19","14:00","-4.1","","-5.3","","91","","7","","6","","8.0","","100.16","","","","-7","","Snow"
"1998-12-19 15:00","1998","12","19","15:00","-3.6","","-4.6","","93","","6","","4","","9.7","","100.23","","","","-5","","Freezing Rain,Snow,Ice Pellets"
"1998-12-19 16:00","1998","12","19","16:00","0.9","","-0.4","","91","","20","","6","","16.1","","100.23","","","","","","Snow"
"1998-12-19 17:00","1998","12","19","17:00","1.8","","1.4","","97","","20","","6","","16.1","","100.26","","","","","","Rain"
"1998-12-19 18:00","1998","12","19","18:00","1.6","","1.6","","100","","21","","6","","16.1","","100.29","","","","","","Cloudy"
"1998-12-19 19:00","1998","12","19","19:00","2.0","","1.8","","99","","20","","9","","16.1","","100.33","","","","","","Cloudy"
"1998-12-19 20:00","1998","12","19","20:00","2.6","","2.0","","96","","21","","9","","16.1","","100.36","","","","","","Cloudy"
"1998-12-19 21:00","1998","12","19","21:00","2.9","","2.7","","99","","23","","13","","16.1","","100.39","","","","","","Cloudy"
"1998-12-19 22:00","1998","12","19","22:00","2.9","","2.5","","97","","25","","13","","19.3","","100.46","","","","","","Drizzle"
"1998-12-19 23:00","1998","12","19","23:00","2.5","","1.8","","95","","25","","13","","19.3","","100.60","","","","","","Cloudy"
"1998-12-20 00:00","1998","12","20","00:00","1.5","","0.4","","92","","30","","19","","24.1","","100.76","","","","","","Mostly Cloudy"
"1998-12-20 01:00","1998","12","20","01:00","0.5","","-1.0","","90","","30","","17","","24.1","","100.90","","","","","","Mainly Clear"
"1998-12-20 02:00","1998","12","20","02:00","-2.0","","-4.4","","84","","30","","19","","24.1","","101.13","","","","-8","","Mainly Clear"
"1998-12-20 03:00","1998","12","20","03:00","-4.2","","-7.4","","78","","31","","20","","25.0","","101.33","","","","-11","","Mainly Clear"
"1998-12-20 04:00","1998","12","20","04:00","-6.3","","-10.0","","75","","34","","26","","25.0","","101.50","","","","-14","","Mostly Cloudy"
"1998-12-20 05:00","1998","12","20","05:00","-8.3","","-12.9","","69","","33","","19","","25.0","","101.63","","","","-16","","Clear"
"1998-12-20 06:00","1998","12","20","06:00","-9.1","","-13.4","","71","","33","","17","","25.0","","101.77","","","","-16","","Mainly Clear"
"1998-12-20 07:00","1998","12","20","07:00","-10.0","","-13.7","","74","","33","","11","","25.0","","101.94","","","","-16","","Mainly Clear"
"1998-12-20 08:00","1998","12","20","08:00","-10.5","","-13.6","","78","","33","","4","","40.2","","102.00","","","","-13","","Mainly Clear"
"1998-12-20 09:00","1998","12","20","09:00","-9.6","","-12.0","","83","","32","","4","","40.2","","102.14","","","","-12","","Mainly Clear"
"1998-12-20 10:00","1998","12","20","10:00","-9.0","","-12.3","","77","","3","","9","","40.2","","102.17","","","","-14","","Mainly Clear"
"1998-12-20 11:00","1998","12","20","11:00","-8.6","","-12.6","","73","","3","","11","","40.2","","102.17","","","","-14","","Mainly Clear"
"1998-12-20 12:00","1998","12","20","12:00","-7.8","","-11.9","","72","","2","","9","","40.2","","102.14","","","","-12","","Mainly Clear"
"1998-12-20 13:00","1998","12","20","13:00","-7.1","","-11.5","","71","","4","","7","","40.2","","102.10","","","","-11","","Mainly Clear"
"1998-12-20 14:00","1998","12","20","14:00","-6.6","","-11.5","","68","","4","","7","","40.2","","102.10","","","","-10","","Mostly Cloudy"
"1998-12-20 15:00","1998","12","20","15:00","-6.5","","-11.6","","67","","6","","13","","40.2","","102.04","","","","-12","","Cloudy"
"1998-12-20 16:00","1998","12","20","16:00","-6.4","","-11.9","","65","","7","","11","","40.2","","102.07","","","","-11","","Cloudy"
"1998-12-20 17:00","1998","12","20","17:00","-6.5","","-11.8","","66","","6","","9","","25.0","","102.04","","","","-11","","Cloudy"
"1998-12-20 18:00","1998","12","20","18:00","-6.6","","-11.8","","66","","7","","11","","25.0","","101.97","","","","-12","","Cloudy"
"1998-12-20 19:00","1998","12","20","19:00","-6.9","","-11.5","","70","","6","","9","","25.0","","101.97","","","","-11","","Cloudy"
"1998-12-20 20:00","1998","12","20","20:00","-6.9","","-11.4","","70","","8","","13","","25.0","","101.90","","","","-12","","Cloudy"
"1998-12-20 21:00","1998","12","20","21:00","-7.0","","-11.7","","69","","7","","15","","25.0","","101.83","","","","-13","","Cloudy"
"1998-12-20 22:00","1998","12","20","22:00","-7.1","","-11.9","","69","","8","","15","","25.0","","101.73","","","","-13","","Cloudy"
"1998-12-20 23:00","1998","12","20","23:00","-6.9","","-11.9","","67","","9","","22","","25.0","","101.57","","","","-14","","Cloudy"
"1998-12-21 00:00","1998","12","21","00:00","-6.9","","-11.7","","69","","9","","19","","25.0","","101.50","","","","-14","","Cloudy"
"1998-12-21 01:00","1998","12","21","01:00","-6.9","","-11.4","","70","","9","","15","","25.0","","101.43","","","","-13","","Cloudy"
"1998-12-21 02:00","1998","12","21","02:00","-6.7","","-10.9","","72","","9","","19","","12.9","","101.37","","","","-14","","Snow"
"1998-12-21 03:00","1998","12","21","03:00","-6.8","","-10.7","","74","","8","","13","","12.9","","101.30","","","","-12","","Snow"
"1998-12-21 04:00","1998","12","21","04:00","-7.3","","-10.7","","77","","5","","11","","4.0","","101.13","","","","-12","","Snow"
"1998-12-21 05:00","1998","12","21","05:00","-7.8","","-10.7","","80","","7","","11","","12.9","","101.03","","","","-13","","Snow"
"1998-12-21 06:00","1998","12","21","06:00","-7.9","","-10.4","","82","","6","","13","","2.0","","100.96","","","","-14","","Snow,Ice Pellets"
"1998-12-21 07:00","1998","12","21","07:00","-7.8","","-9.7","","86","","6","","11","","2.4","","100.96","","","","-13","","Snow"
"1998-12-21 08:00","1998","12","21","08:00","-7.6","","-9.1","","89","","7","","9","","24.1","","100.93","","","","-12","","Snow"
"1998-12-21 09:00","1998","12","21","09:00","-7.2","","-8.5","","90","","8","","9","","24.1","","100.86","","","","-12","","Cloudy"
"1998-12-21 10:00","1998","12","21","10:00","-6.5","","-7.7","","91","","10","","7","","32.2","","100.80","","","","-10","","Cloudy"
"1998-12-21 11:00","1998","12","21","11:00","-5.8","","-6.9","","92","","10","","9","","24.1","","100.60","","","","-10","","Freezing Rain,Snow Grains"
"1998-12-21 12:00","1998","12","21","12:00","-5.2","","-6.3","","92","","8","","7","","16.1","","100.39","","","","-8","","Freezing Rain"
"1998-12-21 13:00","1998","12","21","13:00","-4.7","","-5.7","","93","","11","","7","","1.2","","100.26","","","","-8","","Freezing Rain,Fog"
"1998-12-21 14:00","1998","12","21","14:00","-3.7","","-4.5","","94","","10","","6","","6.4","","100.09","","","","-6","","Freezing Rain,Fog"
"1998-12-21 15:00","1998","12","21","15:00","-2.6","","-3.3","","95","","9","","7","","4.0","","99.93","","","","-5","","Freezing Rain,Fog"
"1998-12-21 16:00","1998","12","21","16:00","-2.0","","-2.4","","97","","8","","4","","4.8","","99.89","","","","-3","","Freezing Rain,Fog"
"1998-12-21 17:00","1998","12","21","17:00","-2.2","","-2.7","","96","","7","","7","","4.0","","99.76","","","","-5","","Freezing Drizzle,Fog"
"1998-12-21 18:00","1998","12","21","18:00","-1.8","","-2.2","","97","","7","","7","","4.0","","99.59","","","","-4","","Freezing Drizzle,Fog"
"1998-12-21 19:00","1998","12","21","19:00","-1.4","","-1.9","","96","","4","","6","","1.6","","99.49","","","","-4","","Freezing Drizzle,Fog"
"1998-12-21 20:00","1998","12","21","20:00","-1.1","","-1.5","","97","","7","","9","","0.8","","99.29","","","","-4","","Freezing Rain,Fog"
"1998-12-21 21:00","1998","12","21","21:00","-0.8","","-1.2","","97","","4","","6","","2.0","","99.05","","","","-3","","Freezing Rain,Fog"
"1998-12-21 22:00","1998","12","21","22:00","-0.4","","-0.6","","99","","36","","7","","3.2","","98.99","","","","-3","","Freezing Rain,Fog"
"1998-12-21 23:00","1998","12","21","23:00","0.0","","-0.2","","99","","34","","9","","4.0","","98.92","","","","-3","","Rain,Fog"
"1998-12-22 00:00","1998","12","22","00:00","0.5","","0.5","","100","","30","","6","","6.4","","98.72","","","","","","Rain,Ice Pellets,Fog"
"1998-12-22 01:00","1998","12","22","01:00","0.2","","0.2","","100","","31","","6","","2.0","","98.59","","","","","","Snow"
"1998-12-22 02:00","1998","12","22","02:00","0.1","","0.1","","100","","27","","9","","1.0","","98.75","","","","","","Snow"
"1998-12-22 03:00","1998","12","22","03:00","0.0","","-0.2","","99","","29","","17","","1.0","","98.72","","","","-5","","Snow"
"1998-12-22 04:00","1998","12","22","04:00","-0.8","","-1.1","","98","","29","","15","","11.3","","98.79","","","","-5","","Snow"
"1998-12-22 05:00","1998","12","22","05:00","-2.0","","-2.3","","98","","29","","22","","19.3","","98.85","","","","-8","","Snow"
"1998-12-22 06:00","1998","12","22","06:00","-2.9","","-3.5","","96","","30","","20","","25.0","","98.99","","","","-9","","Cloudy"
"1998-12-22 07:00","1998","12","22","07:00","-4.0","","-5.1","","92","","29","","20","","24.1","","99.12","","","","-10","","Mostly Cloudy"
"1998-12-22 08:00","1998","12","22","08:00","-5.7","","-7.4","","88","","30","","28","","16.1","","99.36","","","","-14","","Mainly Clear"
"1998-12-22 09:00","1998","12","22","09:00","-7.5","","-9.0","","89","","30","","33","","24.1","","99.52","","","","-17","","Mostly Cloudy"
"1998-12-22 10:00","1998","12","22","10:00","-10.5","","-12.8","","83","","31","","26","","24.1","","99.72","","","","-20","","Mainly Clear"
"1998-12-22 11:00","1998","12","22","11:00","-11.4","","-14.3","","79","","29","","30","","24.1","","99.82","","","","-21","","Mainly Clear"
"1998-12-22 12:00","1998","12","22","12:00","-11.6","","-14.5","","79","","30","","22","","32.2","","99.89","","","","-20","","Mainly Clear"
"1998-12-22 13:00","1998","12","22","13:00","-11.5","","-14.5","","78","","30","","24","","32.2","","99.99","","","","-21","","Mainly Clear"
"1998-12-22 14:00","1998","12","22","14:00","-11.6","","-14.8","","77","","30","","20","","32.2","","100.16","","","","-20","","Mainly Clear"
"1998-12-22 15:00","1998","12","22","15:00","-11.5","","-15.2","","74","","30","","28","","32.2","","100.36","","","","-21","","Mainly Clear"
"1998-12-22 16:00","1998","12","22","16:00","-11.7","","-15.2","","75","","29","","13","","40.2","","100.56","","","","-18","","Mostly Cloudy"
"1998-12-22 17:00","1998","12","22","17:00","-12.0","","-15.4","","76","","29","","17","","40.2","","100.76","","","","-20","","Mainly Clear"
"1998-12-22 18:00","1998","12","22","18:00","-12.3","","-15.8","","75","","28","","17","","25.0","","100.96","","","","-20","","Mainly Clear"
"1998-12-22 19:00","1998","12","22","19:00","-13.3","","-17.2","","72","","29","","17","","25.0","","101.13","","","","-21","","Mainly Clear"
"1998-12-22 20:00","1998","12","22","20:00","-14.1","","-18.1","","72","","28","","20","","25.0","","101.33","","","","-23","","Mainly Clear"
"1998-12-22 21:00","1998","12","22","21:00","-14.9","","-18.6","","73","","28","","15","","25.0","","101.47","","","","-23","","Mainly Clear"
"1998-12-22 22:00","1998","12","22","22:00","-15.5","","-19.1","","74","","28","","13","","25.0","","101.57","","","","-23","","Clear"
"1998-12-22 23:00","1998","12","22","23:00","-16.7","","-20.1","","75","","26","","7","","25.0","","101.60","","","","-22","","Clear"
"1998-12-23 00:00","1998","12","23","00:00","-17.0","","-20.2","","76","","26","","7","","25.0","","101.67","","","","-22","","Clear"
"1998-12-23 01:00","1998","12","23","01:00","-17.1","","-19.9","","79","","25","","6","","25.0","","101.67","","","","-22","","Clear"
"1998-12-23 02:00","1998","12","23","02:00","-17.4","","-20.4","","77","","24","","4","","25.0","","101.77","","","","-21","","Clear"
"1998-12-23 03:00","1998","12","23","03:00","-16.8","","-19.7","","78","","23","","4","","25.0","","101.80","","","","-20","","Mainly Clear"
"1998-12-23 04:00","1998","12","23","04:00","-16.9","","-19.5","","80","","20","","4","","25.0","","101.73","","","","-20","","Mostly Cloudy"
"1998-12-23 05:00","1998","12","23","05:00","-16.2","","-19.0","","79","","","","0","","25.0","","101.70","","","","","","Mostly Cloudy"
"1998-12-23 06:00","1998","12","23","06:00","-15.7","","-18.5","","79","","20","","6","","25.0","","101.70","","","","-20","","Mostly Cloudy"
"1998-12-23 07:00","1998","12","23","07:00","-15.1","","-17.9","","79","","19","","4","","24.1","","101.73","","","","-18","","Mainly Clear"
"1998-12-23 08:00","1998","12","23","08:00","-15.5","","-18.2","","80","","15","","6","","24.1","","101.77","","","","-20","","Mostly Cloudy"
"1998-12-23 09:00","1998","12","23","09:00","-14.4","","-17.2","","79","","15","","7","","32.2","","101.77","","","","-19","","Mainly Clear"
"1998-12-23 10:00","1998","12","23","10:00","-12.2","","-15.2","","78","","18","","6","","32.2","","101.77","","","","-16","","Mostly Cloudy"
"1998-12-23 11:00","1998","12","23","11:00","-9.9","","-13.6","","74","","20","","9","","32.2","","101.70","","","","-15","","Mainly Clear"
"1998-12-23 12:00","1998","12","23","12:00","-9.2","","-12.9","","74","","22","","7","","32.2","","101.63","","","","-13","","Mainly Clear"
"1998-12-23 13:00","1998","12","23","13:00","-8.6","","-11.7","","78","","20","","4","","32.2","","101.53","","","","-11","","Mainly Clear"
"1998-12-23 14:00","1998","12","23","14:00","-8.0","","-11.9","","73","","21","","9","","32.2","","101.43","","","","-13","","Mostly Cloudy"
"1998-12-23 15:00","1998","12","23","15:00","-7.8","","-11.9","","72","","19","","6","","32.2","","101.43","","","","-11","","Mostly Cloudy"
"1998-12-23 16:00","1998","12","23","16:00","-7.8","","-11.6","","74","","20","","6","","32.2","","101.43","","","","-11","","Mostly Cloudy"
"1998-12-23 17:00","1998","12","23","17:00","-7.8","","-11.7","","74","","19","","7","","24.1","","101.40","","","","-11","","Mostly Cloudy"
"1998-12-23 18:00","1998","12","23","18:00","-8.0","","-11.4","","76","","20","","7","","24.1","","101.33","","","","-12","","Mostly Cloudy"
"1998-12-23 19:00","1998","12","23","19:00","-8.2","","-12.1","","73","","21","","9","","25.0","","101.30","","","","-13","","Mostly Cloudy"
"1998-12-23 20:00","1998","12","23","20:00","-8.4","","-12.5","","72","","21","","11","","25.0","","101.30","","","","-14","","Cloudy"
"1998-12-23 21:00","1998","12","23","21:00","-8.7","","-12.6","","73","","20","","6","","25.0","","101.30","","","","-12","","Mostly Cloudy"
"1998-12-23 22:00","1998","12","23","22:00","-9.2","","-12.9","","74","","18","","4","","25.0","","101.30","","","","-11","","Mainly Clear"
"1998-12-23 23:00","1998","12","23","23:00","-9.3","","-12.5","","78","","19","","9","","25.0","","101.23","","","","-14","","Mainly Clear"
"1998-12-24 00:00","1998","12","24","00:00","-9.3","","-12.2","","79","","18","","6","","25.0","","101.13","","","","-13","","Mainly Clear"
"1998-12-24 01:00","1998","12","24","01:00","-9.6","","-12.2","","81","","20","","6","","25.0","","101.10","","","","-13","","Mainly Clear"
"1998-12-24 02:00","1998","12","24","02:00","-9.2","","-11.7","","82","","19","","9","","25.0","","101.06","","","","-14","","Clear"
"1998-12-24 03:00","1998","12","24","03:00","-9.5","","-12.3","","80","","20","","6","","25.0","","101.03","","","","-13","","Clear"
"1998-12-24 04:00","1998","12","24","04:00","-10.0","","-13.0","","79","","21","","4","","24.1","","100.96","","","","-12","","Clear"
"1998-12-24 05:00","1998","12","24","05:00","-10.3","","-13.5","","77","","20","","4","","24.1","","100.93","","","","-13","","Mostly Cloudy"
"1998-12-24 06:00","1998","12","24","06:00","-10.8","","-14.6","","74","","","","0","","25.0","","100.93","","","","","","Mainly Clear"
"1998-12-24 07:00","1998","12","24","07:00","-9.5","","-12.7","","77","","23","","6","","24.1","","100.90","","","","-13","","Mainly Clear"
"1998-12-24 08:00","1998","12","24","08:00","-10.0","","-12.6","","81","","24","","9","","32.2","","100.86","","","","-15","","Mainly Clear"
"1998-12-24 09:00","1998","12","24","09:00","-9.2","","-12.2","","79","","24","","9","","24.1","","100.86","","","","-14","","Clear"
"1998-12-24 10:00","1998","12","24","10:00","-7.7","","-10.7","","79","","24","","11","","24.1","","100.83","","","","-13","","Clear"
"1998-12-24 11:00","1998","12","24","11:00","-6.6","","-9.7","","79","","24","","7","","24.1","","100.73","","","","-10","","Clear"
"1998-12-24 12:00","1998","12","24","12:00","-5.7","","-9.2","","76","","23","","15","","24.1","","100.63","","","","-11","","Clear"
"1998-12-24 13:00","1998","12","24","13:00","-4.8","","-8.7","","74","","23","","17","","32.2","","100.56","","","","-11","","Mainly Clear"
"1998-12-24 14:00","1998","12","24","14:00","-4.6","","-8.9","","72","","25","","19","","32.2","","100.53","","","","-11","","Mostly Cloudy"
"1998-12-24 15:00","1998","12","24","15:00","-5.1","","-10.3","","67","","23","","22","","32.2","","100.53","","","","-12","","Mainly Clear"
"1998-12-24 16:00","1998","12","24","16:00","-5.6","","-10.7","","67","","23","","20","","32.2","","100.56","","","","-12","","Mainly Clear"
"1998-12-24 17:00","1998","12","24","17:00","-6.2","","-10.9","","69","","23","","17","","24.1","","100.60","","","","-12","","Mainly Clear"
"1998-12-24 18:00","1998","12","24","18:00","-6.8","","-10.9","","73","","23","","15","","24.1","","100.63","","","","-13","","Clear"
"1998-12-24 19:00","1998","12","24","19:00","-7.0","","-10.8","","74","","22","","19","","24.1","","100.63","","","","-14","","Clear"
"1998-12-24 20:00","1998","12","24","20:00","-7.4","","-11.2","","74","","23","","15","","25.0","","100.70","","","","-14","","Mainly Clear"
"1998-12-24 21:00","1998","12","24","21:00","-7.1","","-10.7","","75","","23","","17","","25.0","","100.80","","","","-14","","Snow Showers"
"1998-12-24 22:00","1998","12","24","22:00","-7.6","","-10.5","","80","","27","","15","","0.8","","100.86","","","","-14","","Moderate Snow Showers"
"1998-12-24 23:00","1998","12","24","23:00","-7.4","","-9.3","","86","","23","","15","","11.3","","100.90","","","","-14","","Snow Showers"
"1998-12-25 00:00","1998","12","25","00:00","-7.8","","-9.4","","88","","22","","11","","6.4","","100.90","","","","-13","","Snow Showers"
"1998-12-25 01:00","1998","12","25","01:00","-7.6","","-8.9","","90","","22","","9","","4.8","","100.93","","","","-12","","Snow"
"1998-12-25 02:00","1998","12","25","02:00","-8.7","","-9.1","","97","","21","","6","","6.4","","100.96","","","","-12","","Snow"
"1998-12-25 03:00","1998","12","25","03:00","-9.3","","-10.5","","91","","23","","7","","19.3","","101.00","","","","-13","","Snow"
"1998-12-25 04:00","1998","12","25","04:00","-9.5","","-10.8","","90","","23","","9","","24.1","","101.00","","","","-14","","Snow"
"1998-12-25 05:00","1998","12","25","05:00","-10.4","","-11.9","","89","","24","","7","","24.1","","101.03","","","","-14","","Mainly Clear"
"1998-12-25 06:00","1998","12","25","06:00","-11.2","","-12.3","","92","","22","","4","","24.1","","101.06","","","","-14","","Mainly Clear"
"1998-12-25 07:00","1998","12","25","07:00","-11.2","","-12.3","","92","","18","","4","","24.1","","101.10","","","","-14","","Mainly Clear"
"1998-12-25 08:00","1998","12","25","08:00","-11.0","","-12.2","","91","","18","","4","","32.2","","101.10","","","","-13","","Mainly Clear"
"1998-12-25 09:00","1998","12","25","09:00","-10.3","","-11.5","","91","","","","0","","40.2","","101.16","","","","","","Mostly Cloudy"
"1998-12-25 10:00","1998","12","25","10:00","-9.5","","-11.0","","89","","23","","6","","40.2","","101.16","","","","-13","","Cloudy"
"1998-12-25 11:00","1998","12","25","11:00","-8.5","","-9.2","","95","","23","","4","","40.2","","101.16","","","","-11","","Mainly Clear"
"1998-12-25 12:00","1998","12","25","12:00","-8.4","","-10.2","","87","","24","","6","","40.2","","101.06","","","","-12","","Mainly Clear"
"1998-12-25 13:00","1998","12","25","13:00","-5.0","","-7.4","","83","","24","","6","","32.2","","101.03","","","","-8","","Mostly Cloudy"
"1998-12-25 14:00","1998","12","25","14:00","-3.8","","-7.1","","78","","23","","7","","32.2","","100.93","","","","-7","","Mostly Cloudy"
"1998-12-25 15:00","1998","12","25","15:00","-3.7","","-8.3","","70","","23","","13","","32.2","","100.93","","","","-9","","Mainly Clear"
"1998-12-25 16:00","1998","12","25","16:00","-4.5","","-9.6","","67","","22","","7","","32.2","","100.93","","","","-8","","Mainly Clear"
"1998-12-25 17:00","1998","12","25","17:00","-6.2","","-10.9","","69","","21","","11","","32.2","","100.96","","","","-11","","Mainly Clear"
"1998-12-25 18:00","1998","12","25","18:00","-7.0","","-11.4","","71","","20","","9","","24.1","","100.96","","","","-11","","Mainly Clear"
"1998-12-25 19:00","1998","12","25","19:00","-7.3","","-11.3","","73","","20","","6","","24.1","","100.96","","","","-10","","Mostly Cloudy"
"1998-12-25 20:00","1998","12","25","20:00","-7.8","","-11.9","","72","","21","","6","","24.1","","100.96","","","","-11","","Mostly Cloudy"
"1998-12-25 21:00","1998","12","25","21:00","-7.6","","-11.2","","75","","20","","6","","24.1","","100.93","","","","-11","","Cloudy"
"1998-12-25 22:00","1998","12","25","22:00","-6.9","","-11.0","","73","","20","","7","","24.1","","100.86","","","","-10","","Cloudy"
"1998-12-25 23:00","1998","12","25","23:00","-6.4","","-10.6","","72","","19","","9","","24.1","","100.80","","","","-11","","Cloudy"
"1998-12-26 00:00","1998","12","26","00:00","-5.1","","-8.5","","77","","19","","11","","24.1","","100.73","","","","-10","","Cloudy"
"1998-12-26 01:00","1998","12","26","01:00","-4.4","","-7.9","","77","","19","","11","","24.1","","100.66","","","","-9","","Cloudy"
"1998-12-26 02:00","1998","12","26","02:00","-3.2","","-7.3","","73","","20","","13","","24.1","","100.60","","","","-8","","Cloudy"
"1998-12-26 03:00","1998","12","26","03:00","-3.8","","-8.3","","71","","19","","11","","24.1","","100.56","","","","-8","","Cloudy"
"1998-12-26 04:00","1998","12","26","04:00","-4.1","","-7.9","","75","","17","","13","","24.1","","100.46","","","","-9","","Cloudy"
"1998-12-26 05:00","1998","12","26","05:00","-4.7","","-8.5","","75","","16","","9","","24.1","","100.39","","","","-9","","Cloudy"
"1998-12-26 06:00","1998","12","26","06:00","-4.8","","-8.6","","75","","17","","9","","24.1","","100.36","","","","-9","","Cloudy"
"1998-12-26 07:00","1998","12","26","07:00","-4.6","","-8.6","","74","","16","","9","","24.1","","100.33","","","","-8","","Cloudy"
"1998-12-26 08:00","1998","12","26","08:00","-4.9","","-9.0","","73","","16","","9","","40.2","","100.26","","","","-9","","Cloudy"
"1998-12-26 09:00","1998","12","26","09:00","-4.9","","-9.7","","69","","16","","15","","40.2","","100.19","","","","-10","","Mostly Cloudy"
"1998-12-26 10:00","1998","12","26","10:00","-4.2","","-9.6","","66","","17","","17","","40.2","","100.16","","","","-10","","Mostly Cloudy"
"1998-12-26 11:00","1998","12","26","11:00","-3.0","","-8.6","","65","","17","","11","","40.2","","100.03","","","","-7","","Mostly Cloudy"
"1998-12-26 12:00","1998","12","26","12:00","-3.0","","-9.4","","61","","16","","15","","40.2","","99.89","","","","-8","","Mostly Cloudy"
"1998-12-26 13:00","1998","12","26","13:00","-1.8","","-8.1","","62","","17","","13","","40.2","","99.76","","","","-6","","Mostly Cloudy"
"1998-12-26 14:00","1998","12","26","14:00","-1.1","","-6.9","","65","","18","","15","","40.2","","99.72","","","","-6","","Cloudy"
"1998-12-26 15:00","1998","12","26","15:00","-1.0","","-6.2","","68","","21","","19","","40.2","","99.72","","","","-6","","Mainly Clear"
"1998-12-26 16:00","1998","12","26","16:00","-1.5","","-5.6","","74","","20","","15","","40.2","","99.76","","","","-6","","Cloudy"
"1998-12-26 17:00","1998","12","26","17:00","-1.7","","-5.0","","78","","22","","11","","16.1","","99.89","","","","-6","","Snow"
"1998-12-26 18:00","1998","12","26","18:00","-2.1","","-3.8","","88","","","","0","","24.1","","100.03","","","","","","Snow"
"1998-12-26 19:00","1998","12","26","19:00","-2.4","","-4.4","","86","","26","","13","","19.3","","100.09","","","","-7","","Mainly Clear"
"1998-12-26 20:00","1998","12","26","20:00","-3.4","","-6.3","","80","","30","","22","","24.1","","100.26","","","","-10","","Snow"
"1998-12-26 21:00","1998","12","26","21:00","-4.8","","-8.5","","75","","29","","20","","25.0","","100.39","","","","-11","","Clear"
"1998-12-26 22:00","1998","12","26","22:00","-6.6","","-11.5","","68","","31","","11","","25.0","","100.49","","","","-12","","Clear"
"1998-12-26 23:00","1998","12","26","23:00","-7.7","","-12.4","","69","","30","","13","","25.0","","100.56","","","","-13","","Clear"
"1998-12-27 00:00","1998","12","27","00:00","-8.7","","-12.6","","73","","","","0","","25.0","","100.63","","","","","","Clear"
"1998-12-27 01:00","1998","12","27","01:00","-9.7","","-13.5","","74","","19","","4","","25.0","","100.66","","","","-12","","Clear"
"1998-12-27 02:00","1998","12","27","02:00","-11.1","","-14.0","","79","","22","","6","","25.0","","100.73","","","","-15","","Clear"
"1998-12-27 03:00","1998","12","27","03:00","-10.0","","-13.1","","78","","18","","6","","25.0","","100.83","","","","-14","","Mostly Cloudy"
"1998-12-27 04:00","1998","12","27","04:00","-8.4","","-10.8","","83","","17","","6","","25.0","","100.83","","","","-12","","Cloudy"
"1998-12-27 05:00","1998","12","27","05:00","-8.4","","-10.8","","83","","17","","9","","25.0","","100.80","","","","-13","","Cloudy"
"1998-12-27 06:00","1998","12","27","06:00","-8.0","","-10.3","","83","","16","","7","","25.0","","100.80","","","","-12","","Cloudy"
"1998-12-27 07:00","1998","12","27","07:00","-7.7","","-9.6","","86","","16","","4","","25.0","","100.93","","","","-10","","Mostly Cloudy"
"1998-12-27 08:00","1998","12","27","08:00","-8.0","","-10.1","","85","","16","","7","","40.2","","100.90","","","","-12","","Mainly Clear"
"1998-12-27 09:00","1998","12","27","09:00","-7.9","","-9.5","","88","","16","","4","","40.2","","100.93","","","","-10","","Clear"
"1998-12-27 10:00","1998","12","27","10:00","-6.5","","-8.3","","87","","17","","4","","40.2","","101.00","","","","-8","","Mainly Clear"
"1998-12-27 11:00","1998","12","27","11:00","-4.7","","-7.3","","82","","17","","13","","40.2","","100.93","","","","-10","","Mostly Cloudy"
"1998-12-27 12:00","1998","12","27","12:00","-3.0","","-6.9","","74","","16","","11","","40.2","","100.76","","","","-7","","Mainly Clear"
"1998-12-27 13:00","1998","12","27","13:00","-2.0","","-6.3","","72","","15","","15","","40.2","","100.56","","","","-7","","Mostly Cloudy"
"1998-12-27 14:00","1998","12","27","14:00","-1.5","","-5.7","","73","","16","","13","","40.2","","100.53","","","","-6","","Cloudy"
"1998-12-27 15:00","1998","12","27","15:00","-0.9","","-6.2","","67","","17","","15","","40.2","","100.46","","","","-6","","Cloudy"
"1998-12-27 16:00","1998","12","27","16:00","-1.2","","-6.7","","66","","15","","15","","40.2","","100.29","","","","-6","","Cloudy"
"1998-12-27 17:00","1998","12","27","17:00","-1.3","","-6.4","","68","","15","","15","","32.2","","100.19","","","","-6","","Cloudy"
"1998-12-27 18:00","1998","12","27","18:00","-1.1","","-6.2","","68","","14","","15","","25.0","","100.09","","","","-6","","Cloudy"
"1998-12-27 19:00","1998","12","27","19:00","-0.9","","-6.0","","68","","16","","11","","25.0","","100.03","","","","-5","","Cloudy"
"1998-12-27 20:00","1998","12","27","20:00","-0.6","","-4.1","","77","","16","","11","","25.0","","99.89","","","","-4","","Mostly Cloudy"
"1998-12-27 21:00","1998","12","27","21:00","-0.8","","-5.3","","72","","18","","9","","25.0","","99.86","","","","-4","","Mainly Clear"
"1998-12-27 22:00","1998","12","27","22:00","-0.8","","-5.2","","72","","18","","7","","25.0","","99.82","","","","-3","","Mainly Clear"
"1998-12-27 23:00","1998","12","27","23:00","0.5","","-4.3","","70","","21","","13","","25.0","","99.89","","","","","","Cloudy"
"1998-12-28 00:00","1998","12","28","00:00","1.1","","-3.3","","72","","21","","15","","25.0","","99.86","","","","","","Cloudy"
"1998-12-28 01:00","1998","12","28","01:00","2.4","","-2.1","","72","","19","","15","","25.0","","99.86","","","","","","Cloudy"
"1998-12-28 02:00","1998","12","28","02:00","2.4","","-1.8","","74","","22","","19","","25.0","","99.89","","","","","","Cloudy"
"1998-12-28 03:00","1998","12","28","03:00","2.6","","-1.7","","73","","22","","13","","25.0","","99.96","","","","","","Cloudy"
"1998-12-28 04:00","1998","12","28","04:00","2.4","","-1.8","","74","","22","","15","","24.1","","99.99","","","","","","Cloudy"
"1998-12-28 05:00","1998","12","28","05:00","2.5","","-1.6","","74","","22","","17","","19.3","","100.03","","","","","","Cloudy"
"1998-12-28 06:00","1998","12","28","06:00","2.1","","-1.7","","76","","24","","13","","19.3","","100.13","","","","","","Cloudy"
"1998-12-28 07:00","1998","12","28","07:00","1.4","","-1.8","","79","","27","","11","","19.3","","100.23","","","","","","Snow"
"1998-12-28 08:00","1998","12","28","08:00","0.6","","-2.0","","83","","26","","7","","32.2","","100.29","","","","","","Cloudy"
"1998-12-28 09:00","1998","12","28","09:00","1.0","","-2.2","","79","","23","","6","","40.2","","100.36","","","","","","Cloudy"
"1998-12-28 10:00","1998","12","28","10:00","1.6","","-2.3","","75","","27","","9","","40.2","","100.49","","","","","","Mostly Cloudy"
"1998-12-28 11:00","1998","12","28","11:00","1.1","","-2.6","","76","","29","","13","","40.2","","100.53","","","","","","Mostly Cloudy"
"1998-12-28 12:00","1998","12","28","12:00","1.4","","-2.3","","76","","29","","17","","40.2","","100.53","","","","","","Mostly Cloudy"
"1998-12-28 13:00","1998","12","28","13:00","0.8","","-4.9","","66","","28","","17","","40.2","","100.53","","","","","","Mostly Cloudy"
"1998-12-28 14:00","1998","12","28","14:00","0.5","","-5.8","","63","","28","","11","","40.2","","100.53","","","","","","Mainly Clear"
"1998-12-28 15:00","1998","12","28","15:00","0.6","","-6.1","","61","","30","","11","","40.2","","100.53","","","","","","Clear"
"1998-12-28 16:00","1998","12","28","16:00","-0.4","","-7.1","","61","","30","","7","","40.2","","100.53","","","","-3","","Clear"
"1998-12-28 17:00","1998","12","28","17:00","-1.4","","-7.4","","64","","36","","4","","40.2","","100.53","","","","-3","","Clear"
"1998-12-28 18:00","1998","12","28","18:00","-2.0","","-7.7","","65","","","","0","","25.0","","100.53","","","","","","Clear"
"1998-12-28 19:00","1998","12","28","19:00","-3.0","","-8.0","","68","","","","0","","25.0","","100.49","","","","","","Clear"
"1998-12-28 20:00","1998","12","28","20:00","-3.0","","-8.1","","68","","11","","4","","25.0","","100.49","","","","-5","","Clear"
"1998-12-28 21:00","1998","12","28","21:00","-4.0","","-8.6","","70","","12","","9","","25.0","","100.46","","","","-8","","Clear"
"1998-12-28 22:00","1998","12","28","22:00","-4.3","","-8.4","","73","","11","","4","","25.0","","100.53","","","","-6","","Clear"
"1998-12-28 23:00","1998","12","28","23:00","-4.6","","-8.1","","76","","9","","4","","25.0","","100.56","","","","-6","","Clear"
"1998-12-29 00:00","1998","12","29","00:00","-7.8","","-10.6","","80","","6","","7","","25.0","","100.49","","","","-11","","Clear"
"1998-12-29 01:00","1998","12","29","01:00","-7.0","","-9.6","","82","","7","","6","","25.0","","100.39","","","","-10","","Clear"
"1998-12-29 02:00","1998","12","29","02:00","-7.7","","-10.0","","84","","8","","13","","25.0","","100.26","","","","-13","","Clear"
"1998-12-29 03:00","1998","12","29","03:00","-7.9","","-9.6","","88","","8","","9","","25.0","","100.16","","","","-12","","Clear"
"1998-12-29 04:00","1998","12","29","04:00","-9.0","","-10.5","","89","","5","","9","","19.3","","100.06","","","","-14","","Mainly Clear"
"1998-12-29 05:00","1998","12","29","05:00","-9.9","","-11.1","","91","","3","","7","","16.1","","100.06","","","","-14","","Mainly Clear"
"1998-12-29 06:00","1998","12","29","06:00","-10.0","","-11.3","","90","","4","","9","","16.1","","100.03","","","","-15","","Mainly Clear"
"1998-12-29 07:00","1998","12","29","07:00","-9.0","","-10.3","","90","","6","","11","","16.1","","99.96","","","","-14","","Mostly Cloudy"
"1998-12-29 08:00","1998","12","29","08:00","-9.1","","-10.2","","92","","7","","13","","12.9","","99.93","","","","-15","","Mostly Cloudy"
"1998-12-29 09:00","1998","12","29","09:00","-8.6","","-9.8","","91","","7","","7","","9.7","","99.82","","","","-12","","Fog"
"1998-12-29 10:00","1998","12","29","10:00","-7.3","","-8.3","","93","","9","","9","","8.0","","99.79","","","","-12","","Fog"
"1998-12-29 11:00","1998","12","29","11:00","-5.4","","-6.6","","91","","10","","13","","8.0","","99.62","","","","-11","","Fog"
"1998-12-29 12:00","1998","12","29","12:00","-3.6","","-5.3","","88","","10","","15","","8.0","","99.42","","","","-9","","Fog"
"1998-12-29 13:00","1998","12","29","13:00","-3.6","","-5.0","","90","","9","","13","","9.7","","99.22","","","","-8","","Fog"
"1998-12-29 14:00","1998","12","29","14:00","-3.5","","-5.4","","87","","8","","15","","8.0","","99.02","","","","-9","","Fog"
"1998-12-29 15:00","1998","12","29","15:00","-3.4","","-5.2","","87","","8","","11","","8.0","","98.92","","","","-8","","Fog"
"1998-12-29 16:00","1998","12","29","16:00","-3.2","","-5.0","","87","","8","","13","","6.4","","98.82","","","","-8","","Fog"
"1998-12-29 17:00","1998","12","29","17:00","-3.3","","-4.9","","89","","8","","13","","3.2","","98.72","","","","-8","","Snow"
"1998-12-29 18:00","1998","12","29","18:00","-3.1","","-4.4","","91","","8","","9","","4.8","","98.65","","","","-7","","Snow"
"1998-12-29 19:00","1998","12","29","19:00","-2.8","","-3.4","","96","","8","","7","","3.2","","98.52","","","","-6","","Snow"
"1998-12-29 20:00","1998","12","29","20:00","-1.7","","-2.5","","94","","11","","7","","3.2","","98.42","","","","-4","","Snow"
"1998-12-29 21:00","1998","12","29","21:00","-0.8","","-1.3","","96","","14","","7","","1.6","","98.32","","","","-3","","Snow"
"1998-12-29 22:00","1998","12","29","22:00","0.0","","-0.5","","96","","15","","7","","1.6","","98.18","","","","-2","","Snow"
"1998-12-29 23:00","1998","12","29","23:00","0.3","","-0.2","","96","","15","","9","","1.6","","98.08","","","","","","Snow"
"1998-12-30 00:00","1998","12","30","00:00","0.4","","-0.1","","96","","15","","9","","1.6","","97.98","","","","","","Snow"
"1998-12-30 01:00","1998","12","30","01:00","-9.9","","-10.4","","96","","27","","33","","1.6","","98.12","","","","-20","","Snow"
"1998-12-30 02:00","1998","12","30","02:00","-11.7","","-12.1","","97","","29","","32","","1.6","","98.25","","","","-22","","Snow"
"1998-12-30 03:00","1998","12","30","03:00","-13.3","","-13.9","","95","","29","","26","","1.6","","98.38","","","","-23","","Snow"
"1998-12-30 04:00","1998","12","30","04:00","-15.0","","-15.5","","96","","30","","26","","2.4","","98.49","","","","-25","","Snow"
"1998-12-30 05:00","1998","12","30","05:00","-15.8","","-17.0","","90","","31","","26","","11.3","","98.59","","","","-26","","Snow"
"1998-12-30 06:00","1998","12","30","06:00","-16.7","","-18.0","","90","","30","","26","","25.0","","98.79","","","","-28","","Snow"
"1998-12-30 07:00","1998","12","30","07:00","-18.0","","-19.7","","86","","29","","22","","24.1","","98.99","","","","-28","","Mostly Cloudy"
"1998-12-30 08:00","1998","12","30","08:00","-19.2","","-21.4","","83","","30","","20","","32.2","","99.09","","","","-29","","Mainly Clear"
"1998-12-30 09:00","1998","12","30","09:00","-20.0","","-22.2","","83","","28","","20","","32.2","","99.19","","","","-30","","Mainly Clear"
"1998-12-30 10:00","1998","12","30","10:00","-20.2","","-27.3","","53","","29","","20","","32.2","","99.36","","","","-31","","Clear"
"1998-12-30 11:00","1998","12","30","11:00","-20.1","","-28.9","","45","","30","","24","","32.2","","99.46","","","","-32","","Clear"
"1998-12-30 12:00","1998","12","30","12:00","-19.5","","-26.8","","52","","29","","20","","40.2","","99.52","","","","-30","","Clear"
"1998-12-30 13:00","1998","12","30","13:00","-19.7","","-26.5","","55","","29","","19","","40.2","","99.56","","","","-30","","Clear"
"1998-12-30 14:00","1998","12","30","14:00","-19.5","","-26.1","","56","","28","","19","","40.2","","99.59","","","","-30","","Clear"
"1998-12-30 15:00","1998","12","30","15:00","-19.5","","-26.3","","55","","27","","19","","40.2","","99.76","","","","-30","","Clear"
"1998-12-30 16:00","1998","12","30","16:00","-20.2","","-26.6","","57","","28","","20","","40.2","","99.86","","","","-31","","Clear"
"1998-12-30 17:00","1998","12","30","17:00","-20.6","","-27.1","","56","","28","","22","","32.2","","99.96","","","","-32","","Clear"
"1998-12-30 18:00","1998","12","30","18:00","-20.9","","-27.3","","56","","29","","19","","24.1","","99.99","","","","-31","","Clear"
"1998-12-30 19:00","1998","12","30","19:00","-21.2","","-27.5","","57","","30","","19","","25.0","","100.09","","","","-32","","Clear"
"1998-12-30 20:00","1998","12","30","20:00","-21.8","","-27.9","","58","","29","","22","","25.0","","100.16","","","","-33","","Clear"
"1998-12-30 21:00","1998","12","30","21:00","-22.6","","-29.1","","55","","31","","20","","25.0","","100.23","","","","-34","","Clear"
"1998-12-30 22:00","1998","12","30","22:00","-23.5","","-30.1","","55","","30","","20","","25.0","","100.33","","","","-35","","Clear"
"1998-12-30 23:00","1998","12","30","23:00","-24.2","","-30.9","","54","","31","","19","","25.0","","100.39","","","","-36","","Clear"
"1998-12-31 00:00","1998","12","31","00:00","-24.7","","-31.5","","53","","34","","15","","25.0","","100.43","","","","-35","","Clear"
"1998-12-31 01:00","1998","12","31","01:00","-25.1","","-31.9","","53","","29","","9","","25.0","","100.49","","","","-33","","Mainly Clear"
"1998-12-31 02:00","1998","12","31","02:00","-25.2","","-31.7","","55","","33","","7","","25.0","","100.49","","","","-32","","Mainly Clear"
"1998-12-31 03:00","1998","12","31","03:00","-25.4","","-31.7","","56","","29","","6","","25.0","","100.49","","","","-31","","Mostly Cloudy"
"1998-12-31 04:00","1998","12","31","04:00","-25.2","","-31.5","","56","","","","0","","25.0","","100.46","","","","","","Mostly Cloudy"
"1998-12-31 05:00","1998","12","31","05:00","-25.6","","-32.1","","54","","23","","4","","25.0","","100.46","","","","-30","","Mostly Cloudy"
"1998-12-31 06:00","1998","12","31","06:00","-25.5","","-31.5","","57","","","","0","","25.0","","100.49","","","","","","Mostly Cloudy"
"1998-12-31 07:00","1998","12","31","07:00","-25.3","","-30.9","","59","","","","0","","24.1","","100.49","","","","","","Mostly Cloudy"
"1998-12-31 08:00","1998","12","31","08:00","-24.7","","-30.3","","60","","","","0","","32.2","","100.53","","","","","","Cloudy"
"1998-12-31 09:00","1998","12","31","09:00","-24.6","","-30.4","","59","","","","0","","32.2","","100.53","","","","","","Cloudy"
"1998-12-31 10:00","1998","12","31","10:00","-23.6","","-29.8","","57","","15","","4","","32.2","","100.53","","","","-27","","Mostly Cloudy"
"1998-12-31 11:00","1998","12","31","11:00","-22.6","","-28.7","","58","","15","","4","","32.2","","100.46","","","","-26","","Mostly Cloudy"
"1998-12-31 12:00","1998","12","31","12:00","-21.5","","-27.9","","56","","15","","4","","32.2","","100.36","","","","-25","","Cloudy"
"1998-12-31 13:00","1998","12","31","13:00","-20.4","","-27.1","","55","","","","0","","24.1","","100.26","","","","","","Cloudy"
"1998-12-31 14:00","1998","12","31","14:00","-20.3","","-26.6","","57","","8","","7","","4.8","","100.16","","","","-26","","Snow"
"1998-12-31 15:00","1998","12","31","15:00","-20.9","","-26.5","","61","","8","","9","","6.4","","100.13","","","","-28","","Snow"
"1998-12-31 16:00","1998","12","31","16:00","-20.3","","-25.8","","61","","8","","7","","4.0","","100.09","","","","-26","","Snow"
"1998-12-31 17:00","1998","12","31","17:00","-20.8","","-25.9","","64","","7","","9","","4.8","","100.06","","","","-28","","Snow"
"1998-12-31 18:00","1998","12","31","18:00","-21.1","","-26.0","","65","","7","","11","","6.4","","100.03","","","","-29","","Snow"
"1998-12-31 19:00","1998","12","31","19:00","-21.3","","-26.0","","66","","8","","7","","6.4","","99.96","","","","-27","","Snow"
"1998-12-31 20:00","1998","12","31","20:00","-21.0","","-25.6","","66","","7","","7","","8.0","","99.93","","","","-27","","Snow"
"1998-12-31 21:00","1998","12","31","21:00","-20.9","","-25.4","","67","","6","","6","","8.0","","99.86","","","","-26","","Snow"
"1998-12-31 22:00","1998","12","31","22:00","-20.9","","-25.3","","68","","4","","9","","6.4","","99.86","","","","-28","","Snow"
"1998-12-31 23:00","1998","12","31","23:00","-20.8","","-25.0","","69","","6","","7","","19.3","","99.82","","","","-27","","Snow"
