"Station Name","OTTAWA MACDONALD-CARTIER INT'L A"
"Province","ONTARIO"
"Latitude","45.32"
"Longitude","-75.67"
"Elevation","114.00"
"Climate Identifier","6106000"
"WMO Identifier","71628"
"TC Identifier","YOW"
"All times are specified in Local Standard Time (LST). Add 1 hour to adjust for Daylight Saving Time where and when it is observed."

"Legend"
"E","Estimated"
"M","Missing"
"NA","Not Available"

"Date/Time","Year","Month","Day","Time","Temp (°C)","Temp Flag","Dew Point Temp (°C)","Dew Point Temp Flag","Rel Hum (%)","Rel Hum Flag","Wind Dir (10s deg)","Wind Dir Flag","Wind Spd (km/h)","Wind Spd Flag","Visibility (km)","Visibility Flag","Stn Press (kPa)","Stn Press Flag","Hmdx","Hmdx Flag","Wind Chill","Wind Chill Flag","Weather"
"2009-05-01 00:00","2009","05","01","00:00","10.0","","8.9","","93","","17","","17","","6.4","","99.23","","","","","","Rain,Fog"
"2009-05-01 01:00","2009","05","01","01:00","10.8","","9.8","","94","","18","","20","","6.4","","99.01","","","","","","Rain,Fog"
"2009-05-01 02:00","2009","05","01","02:00","12.3","","11.0","","92","","20","","26","","11.3","","98.82","","","","","","Rain"
"2009-05-01 03:00","2009","05","01","03:00","13.5","","11.7","","89","","21","","30","","12.9","","98.71","","","","","","Rain"
"2009-05-01 04:00","2009","05","01","04:00","13.5","","11.8","","89","","22","","37","","16.1","","98.70","","","","","","Rain"
"2009-05-01 05:00","2009","05","01","05:00","13.8","","12.0","","89","","22","","30","","16.1","","98.74","","","","","","Cloudy"
"2009-05-01 06:00","2009","05","01","06:00","13.7","","12.3","","91","","22","","22","","12.9","","98.84","","","","","","Cloudy"
"2009-05-01 07:00","2009","05","01","07:00","14.8","","13.2","","90","","23","","19","","24.1","","98.92","","","","","","Mostly Cloudy"
"2009-05-01 08:00","2009","05","01","08:00","17.3","","14.1","","81","","23","","20","","24.1","","98.92","","","","","","Mostly Cloudy"
"2009-05-01 09:00","2009","05","01","09:00","18.1","","14.1","","77","","24","","28","","24.1","","98.94","","","","","","Mostly Cloudy"
"2009-05-01 10:00","2009","05","01","10:00","18.1","","13.0","","72","","24","","32","","24.1","","99.00","","","","","","Mostly Cloudy"
"2009-05-01 11:00","2009","05","01","11:00","18.3","","12.4","","68","","23","","30","","24.1","","99.01","","","","","","Mostly Cloudy"
"2009-05-01 12:00","2009","05","01","12:00","18.7","","11.9","","65","","23","","28","","24.1","","98.95","","","","","","Mostly Cloudy"
"2009-05-01 13:00","2009","05","01","13:00","20.6","","12.2","","59","","23","","30","","24.1","","98.87","","","","","","Mainly Clear"
"2009-05-01 14:00","2009","05","01","14:00","21.8","","8.8","","43","","25","","39","","24.1","","98.88","","","","","","Mainly Clear"
"2009-05-01 15:00","2009","05","01","15:00","20.2","","7.0","","42","","25","","32","","24.1","","98.95","","","","","","Mainly Clear"
"2009-05-01 16:00","2009","05","01","16:00","18.8","","5.0","","40","","26","","37","","24.1","","99.02","","","","","","Mainly Clear"
"2009-05-01 17:00","2009","05","01","17:00","17.2","","3.9","","41","","27","","35","","24.1","","99.09","","","","","","Mostly Cloudy"
"2009-05-01 18:00","2009","05","01","18:00","16.0","","3.1","","42","","28","","28","","24.1","","99.15","","","","","","Mostly Cloudy"
"2009-05-01 19:00","2009","05","01","19:00","14.8","","2.5","","43","","27","","20","","24.1","","99.22","","","","","","Cloudy"
"2009-05-01 20:00","2009","05","01","20:00","13.9","","3.2","","48","","26","","13","","25.0","","99.20","","","","","","Cloudy"
"2009-05-01 21:00","2009","05","01","21:00","13.1","","2.4","","48","","28","","20","","25.0","","99.25","","","","","","Cloudy"
"2009-05-01 22:00","2009","05","01","22:00","12.4","","1.4","","47","","27","","28","","25.0","","99.29","","","","","","Cloudy"
"2009-05-01 23:00","2009","05","01","23:00","9.5","","4.0","","69","","31","","37","","25.0","","99.38","","","","","","Cloudy"
"2009-05-02 00:00","2009","05","02","00:00","7.5","","3.8","","77","","30","","28","","24.1","","99.54","","","","","","Rain Showers"
"2009-05-02 01:00","2009","05","02","01:00","5.8","","0.4","","68","","32","","20","","25.0","","99.66","","","","","","Mostly Cloudy"
"2009-05-02 02:00","2009","05","02","02:00","4.3","","-0.9","","69","","31","","20","","25.0","","99.70","","","","","","Clear"
"2009-05-02 03:00","2009","05","02","03:00","3.1","","-1.3","","73","","30","","15","","25.0","","99.76","","","","","","Clear"
"2009-05-02 04:00","2009","05","02","04:00","2.5","","-0.9","","78","","27","","9","","25.0","","99.81","","","","","","Clear"
"2009-05-02 05:00","2009","05","02","05:00","1.8","","-0.9","","82","","27","","11","","24.1","","99.84","","","","","","Clear"
"2009-05-02 06:00","2009","05","02","06:00","3.1","","0.1","","81","","24","","7","","24.1","","99.84","","","","","","Mainly Clear"
"2009-05-02 07:00","2009","05","02","07:00","5.0","","0.5","","73","","24","","11","","24.1","","99.87","","","","","","Mainly Clear"
"2009-05-02 08:00","2009","05","02","08:00","6.8","","1.1","","67","","21","","15","","24.1","","99.84","","","","","","Mainly Clear"
"2009-05-02 09:00","2009","05","02","09:00","8.8","","-0.7","","51","","26","","30","","24.1","","99.83","","","","","","Mainly Clear"
"2009-05-02 10:00","2009","05","02","10:00","10.7","","-1.8","","42","","27","","26","","24.1","","99.82","","","","","","Mainly Clear"
"2009-05-02 11:00","2009","05","02","11:00","11.5","","-2.4","","38","","30","","33","","24.1","","99.78","","","","","","Mainly Clear"
"2009-05-02 12:00","2009","05","02","12:00","12.1","","-2.3","","37","","31","","22","","24.1","","99.74","","","","","","Mainly Clear"
"2009-05-02 13:00","2009","05","02","13:00","13.3","","-2.0","","35","","28","","13","","24.1","","99.64","","","","","","Mainly Clear"
"2009-05-02 14:00","2009","05","02","14:00","13.4","","-1.6","","35","","23","","20","","24.1","","99.60","","","","","","Mostly Cloudy"
"2009-05-02 15:00","2009","05","02","15:00","14.4","","-0.5","","36","","19","","24","","24.1","","99.54","","","","","","Mostly Cloudy"
"2009-05-02 16:00","2009","05","02","16:00","12.5","","2.1","","49","","23","","22","","24.1","","99.55","","","","","","Mostly Cloudy"
"2009-05-02 17:00","2009","05","02","17:00","12.2","","1.7","","49","","24","","24","","24.1","","99.59","","","","","","Mostly Cloudy"
"2009-05-02 18:00","2009","05","02","18:00","10.6","","3.3","","61","","25","","39","","24.1","","99.68","","","","","","Rain Showers"
"2009-05-02 19:00","2009","05","02","19:00","9.0","","4.6","","74","","21","","15","","24.1","","99.60","","","","","","Mostly Cloudy"
"2009-05-02 20:00","2009","05","02","20:00","9.3","","3.9","","69","","22","","17","","24.1","","99.64","","","","","","Mostly Cloudy"
"2009-05-02 21:00","2009","05","02","21:00","8.7","","3.6","","70","","21","","13","","25.0","","99.66","","","","","","Mainly Clear"
"2009-05-02 22:00","2009","05","02","22:00","8.8","","2.5","","65","","22","","17","","25.0","","99.67","","","","","","Mainly Clear"
"2009-05-02 23:00","2009","05","02","23:00","9.0","","2.6","","64","","23","","17","","25.0","","99.71","","","","","","Mainly Clear"
"2009-05-03 00:00","2009","05","03","00:00","8.6","","2.6","","66","","23","","13","","25.0","","99.76","","","","","","Mostly Cloudy"
"2009-05-03 01:00","2009","05","03","01:00","8.5","","2.7","","67","","23","","13","","25.0","","99.77","","","","","","Mostly Cloudy"
"2009-05-03 02:00","2009","05","03","02:00","7.2","","2.7","","73","","23","","9","","25.0","","99.82","","","","","","Mostly Cloudy"
"2009-05-03 03:00","2009","05","03","03:00","6.6","","2.3","","74","","27","","7","","25.0","","99.85","","","","","","Mainly Clear"
"2009-05-03 04:00","2009","05","03","04:00","5.9","","2.2","","77","","20","","6","","25.0","","99.90","","","","","","Mainly Clear"
"2009-05-03 05:00","2009","05","03","05:00","5.8","","2.2","","78","","18","","4","","24.1","","99.92","","","","","","Mainly Clear"
"2009-05-03 06:00","2009","05","03","06:00","6.4","","2.4","","76","","27","","7","","24.1","","100.00","","","","","","Mainly Clear"
"2009-05-03 07:00","2009","05","03","07:00","8.9","","1.5","","60","","28","","17","","24.1","","100.03","","","","","","Mainly Clear"
"2009-05-03 08:00","2009","05","03","08:00","10.1","","1.4","","55","","28","","11","","24.1","","100.06","","","","","","Mainly Clear"
"2009-05-03 09:00","2009","05","03","09:00","11.8","","0.8","","47","","29","","19","","24.1","","100.06","","","","","","Mainly Clear"
"2009-05-03 10:00","2009","05","03","10:00","12.9","","-0.6","","39","","26","","19","","24.1","","100.07","","","","","","Mostly Cloudy"
"2009-05-03 11:00","2009","05","03","11:00","14.8","","-0.4","","35","","26","","15","","24.1","","100.01","","","","","","Mainly Clear"
"2009-05-03 12:00","2009","05","03","12:00","16.3","","-0.4","","32","","23","","24","","24.1","","99.88","","","","","","Mostly Cloudy"
"2009-05-03 13:00","2009","05","03","13:00","17.1","","-0.4","","30","","22","","22","","24.1","","99.78","","","","","","Mostly Cloudy"
"2009-05-03 14:00","2009","05","03","14:00","16.6","","-1.0","","30","","22","","19","","24.1","","99.72","","","","","","Mostly Cloudy"
"2009-05-03 15:00","2009","05","03","15:00","17.6","","-0.3","","30","","21","","28","","24.1","","99.65","","","","","","Mostly Cloudy"
"2009-05-03 16:00","2009","05","03","16:00","17.5","","-0.4","","30","","22","","30","","24.1","","99.62","","","","","","Mostly Cloudy"
"2009-05-03 17:00","2009","05","03","17:00","17.4","","0.0","","31","","22","","22","","24.1","","99.61","","","","","","Mostly Cloudy"
"2009-05-03 18:00","2009","05","03","18:00","17.1","","0.9","","33","","22","","20","","24.1","","99.62","","","","","","Mostly Cloudy"
"2009-05-03 19:00","2009","05","03","19:00","16.3","","0.7","","35","","21","","15","","24.1","","99.69","","","","","","Mostly Cloudy"
"2009-05-03 20:00","2009","05","03","20:00","13.8","","1.8","","44","","21","","11","","25.0","","99.76","","","","","","Mostly Cloudy"
"2009-05-03 21:00","2009","05","03","21:00","13.1","","1.8","","46","","20","","15","","25.0","","99.82","","","","","","Mostly Cloudy"
"2009-05-03 22:00","2009","05","03","22:00","12.6","","2.2","","49","","20","","13","","25.0","","99.83","","","","","","Mostly Cloudy"
"2009-05-03 23:00","2009","05","03","23:00","12.9","","2.2","","48","","23","","15","","25.0","","99.86","","","","","","Mostly Cloudy"
"2009-05-04 00:00","2009","05","04","00:00","11.8","","2.4","","52","","24","","15","","25.0","","99.90","","","","","","Mostly Cloudy"
"2009-05-04 01:00","2009","05","04","01:00","10.4","","1.8","","55","","26","","13","","25.0","","99.95","","","","","","Mostly Cloudy"
"2009-05-04 02:00","2009","05","04","02:00","9.1","","1.4","","59","","25","","7","","25.0","","99.99","","","","","","Mainly Clear"
"2009-05-04 03:00","2009","05","04","03:00","8.3","","0.9","","60","","25","","9","","25.0","","100.06","","","","","","Clear"
"2009-05-04 04:00","2009","05","04","04:00","7.5","","-0.9","","55","","25","","11","","25.0","","100.11","","","","","","Mainly Clear"
"2009-05-04 05:00","2009","05","04","05:00","6.2","","-1.5","","58","","28","","11","","24.1","","100.20","","","","","","Mainly Clear"
"2009-05-04 06:00","2009","05","04","06:00","8.2","","-0.9","","53","","29","","15","","24.1","","100.30","","","","","","Mainly Clear"
"2009-05-04 07:00","2009","05","04","07:00","10.0","","0.0","","50","","31","","13","","24.1","","100.42","","","","","","Mainly Clear"
"2009-05-04 08:00","2009","05","04","08:00","11.8","","0.9","","47","","32","","11","","24.1","","100.52","","","","","","Clear"
"2009-05-04 09:00","2009","05","04","09:00","13.2","","1.4","","45","","36","","11","","24.1","","100.54","","","","","","Clear"
"2009-05-04 10:00","2009","05","04","10:00","14.2","","-0.8","","36","","31","","6","","24.1","","100.58","","","","","","Mostly Cloudy"
"2009-05-04 11:00","2009","05","04","11:00","15.1","","-0.2","","35","","","","0","","24.1","","100.62","","","","","","Mostly Cloudy"
"2009-05-04 12:00","2009","05","04","12:00","16.0","","-1.5","","30","","33","","6","","24.1","","100.61","","","","","","Mostly Cloudy"
"2009-05-04 13:00","2009","05","04","13:00","16.3","","-3.4","","26","","30","","4","","24.1","","100.59","","","","","","Mostly Cloudy"
"2009-05-04 14:00","2009","05","04","14:00","16.8","","-2.4","","27","","30","","13","","24.1","","100.60","","","","","","Mostly Cloudy"
"2009-05-04 15:00","2009","05","04","15:00","17.3","","-2.3","","26","","1","","7","","24.1","","100.57","","","","","","Mostly Cloudy"
"2009-05-04 16:00","2009","05","04","16:00","17.3","","-4.1","","23","","30","","7","","24.1","","100.55","","","","","","Mainly Clear"
"2009-05-04 17:00","2009","05","04","17:00","17.9","","-2.1","","26","","35","","6","","24.1","","100.59","","","","","","Mostly Cloudy"
"2009-05-04 18:00","2009","05","04","18:00","16.6","","-2.5","","27","","3","","11","","24.1","","100.64","","","","","","Mostly Cloudy"
"2009-05-04 19:00","2009","05","04","19:00","15.8","","-3.5","","26","","4","","11","","24.1","","100.69","","","","","","Mostly Cloudy"
"2009-05-04 20:00","2009","05","04","20:00","14.2","","-3.8","","29","","2","","7","","25.0","","100.76","","","","","","Mostly Cloudy"
"2009-05-04 21:00","2009","05","04","21:00","13.2","","-3.5","","31","","4","","9","","25.0","","100.80","","","","","","Mainly Clear"
"2009-05-04 22:00","2009","05","04","22:00","12.1","","-3.2","","34","","6","","11","","25.0","","100.82","","","","","","Mainly Clear"
"2009-05-04 23:00","2009","05","04","23:00","11.1","","-3.3","","36","","6","","11","","25.0","","100.84","","","","","","Clear"
"2009-05-05 00:00","2009","05","05","00:00","10.5","","-3.7","","37","","4","","9","","25.0","","100.88","","","","","","Clear"
"2009-05-05 01:00","2009","05","05","01:00","9.5","","-3.8","","39","","5","","11","","25.0","","100.87","","","","","","Clear"
"2009-05-05 02:00","2009","05","05","02:00","9.4","","-4.2","","38","","6","","17","","25.0","","100.90","","","","","","Clear"
"2009-05-05 03:00","2009","05","05","03:00","7.6","","-4.2","","43","","6","","13","","25.0","","100.99","","","","","","Clear"
"2009-05-05 04:00","2009","05","05","04:00","8.2","","-4.5","","40","","6","","20","","25.0","","101.00","","","","","","Clear"
"2009-05-05 05:00","2009","05","05","05:00","7.1","","-4.5","","43","","7","","20","","25.0","","101.01","","","","","","Clear"
"2009-05-05 06:00","2009","05","05","06:00","8.9","","-4.7","","38","","6","","20","","24.1","","101.01","","","","","","Mainly Clear"
"2009-05-05 07:00","2009","05","05","07:00","11.0","","-3.2","","37","","7","","22","","24.1","","101.02","","","","","","Mainly Clear"
"2009-05-05 08:00","2009","05","05","08:00","12.4","","-3.0","","34","","7","","22","","24.1","","101.02","","","","","","Mostly Cloudy"
"2009-05-05 09:00","2009","05","05","09:00","15.1","","-1.3","","32","","7","","19","","24.1","","101.01","","","","","","Mostly Cloudy"
"2009-05-05 10:00","2009","05","05","10:00","16.8","","-0.8","","30","","8","","22","","24.1","","101.01","","","","","","Mostly Cloudy"
"2009-05-05 11:00","2009","05","05","11:00","18.1","","0.1","","30","","9","","24","","24.1","","100.97","","","","","","Mostly Cloudy"
"2009-05-05 12:00","2009","05","05","12:00","18.1","","0.4","","30","","10","","22","","24.1","","100.88","","","","","","Mostly Cloudy"
"2009-05-05 13:00","2009","05","05","13:00","18.2","","0.0","","29","","5","","20","","24.1","","100.77","","","","","","Mostly Cloudy"
"2009-05-05 14:00","2009","05","05","14:00","19.2","","2.7","","33","","5","","17","","24.1","","100.70","","","","","","Mostly Cloudy"
"2009-05-05 15:00","2009","05","05","15:00","19.2","","2.2","","32","","8","","22","","24.1","","100.60","","","","","","Mostly Cloudy"
"2009-05-05 16:00","2009","05","05","16:00","19.0","","2.5","","33","","7","","17","","24.1","","100.58","","","","","","Mostly Cloudy"
"2009-05-05 17:00","2009","05","05","17:00","18.8","","2.8","","34","","8","","22","","24.1","","100.49","","","","","","Mostly Cloudy"
"2009-05-05 18:00","2009","05","05","18:00","17.9","","3.1","","37","","7","","15","","24.1","","100.48","","","","","","Cloudy"
"2009-05-05 19:00","2009","05","05","19:00","17.5","","5.0","","44","","12","","20","","24.1","","100.46","","","","","","Cloudy"
"2009-05-05 20:00","2009","05","05","20:00","15.8","","4.8","","48","","14","","13","","25.0","","100.49","","","","","","Cloudy"
"2009-05-05 21:00","2009","05","05","21:00","14.3","","5.5","","55","","14","","7","","25.0","","100.49","","","","","","Cloudy"
"2009-05-05 22:00","2009","05","05","22:00","14.4","","5.4","","55","","14","","11","","25.0","","100.47","","","","","","Cloudy"
"2009-05-05 23:00","2009","05","05","23:00","13.5","","5.8","","60","","13","","7","","25.0","","100.47","","","","","","Cloudy"
"2009-05-06 00:00","2009","05","06","00:00","13.0","","5.6","","61","","14","","7","","25.0","","100.46","","","","","","Cloudy"
"2009-05-06 01:00","2009","05","06","01:00","12.2","","5.9","","65","","13","","6","","25.0","","100.41","","","","","","Cloudy"
"2009-05-06 02:00","2009","05","06","02:00","11.6","","6.1","","69","","13","","7","","25.0","","100.38","","","","","","Cloudy"
"2009-05-06 03:00","2009","05","06","03:00","11.6","","6.2","","69","","14","","7","","25.0","","100.34","","","","","","Cloudy"
"2009-05-06 04:00","2009","05","06","04:00","11.1","","6.7","","74","","16","","9","","24.1","","100.37","","","","","","Rain"
"2009-05-06 05:00","2009","05","06","05:00","10.4","","7.8","","84","","9","","4","","24.1","","100.36","","","","","","Cloudy"
"2009-05-06 06:00","2009","05","06","06:00","10.8","","7.5","","80","","7","","7","","24.1","","100.39","","","","","","Cloudy"
"2009-05-06 07:00","2009","05","06","07:00","11.4","","7.4","","76","","9","","9","","24.1","","100.40","","","","","","Cloudy"
"2009-05-06 08:00","2009","05","06","08:00","11.7","","7.8","","77","","11","","6","","24.1","","100.42","","","","","","Cloudy"
"2009-05-06 09:00","2009","05","06","09:00","12.2","","7.8","","74","","14","","7","","24.1","","100.40","","","","","","Cloudy"
"2009-05-06 10:00","2009","05","06","10:00","13.0","","7.8","","71","","15","","4","","24.1","","100.38","","","","","","Cloudy"
"2009-05-06 11:00","2009","05","06","11:00","13.8","","8.6","","71","","13","","6","","24.1","","100.35","","","","","","Cloudy"
"2009-05-06 12:00","2009","05","06","12:00","14.8","","8.8","","67","","3","","6","","24.1","","100.30","","","","","","Mostly Cloudy"
"2009-05-06 13:00","2009","05","06","13:00","15.1","","8.5","","65","","11","","7","","24.1","","100.25","","","","","","Mostly Cloudy"
"2009-05-06 14:00","2009","05","06","14:00","15.8","","8.9","","64","","11","","7","","24.1","","100.22","","","","","","Mostly Cloudy"
"2009-05-06 15:00","2009","05","06","15:00","16.5","","9.0","","61","","10","","6","","24.1","","100.13","","","","","","Mostly Cloudy"
"2009-05-06 16:00","2009","05","06","16:00","16.3","","8.8","","61","","8","","11","","24.1","","100.11","","","","","","Mostly Cloudy"
"2009-05-06 17:00","2009","05","06","17:00","16.3","","8.9","","62","","12","","11","","24.1","","100.11","","","","","","Cloudy"
"2009-05-06 18:00","2009","05","06","18:00","15.6","","8.7","","63","","12","","13","","24.1","","100.09","","","","","","Cloudy"
"2009-05-06 19:00","2009","05","06","19:00","15.0","","8.8","","66","","9","","11","","24.1","","100.07","","","","","","Cloudy"
"2009-05-06 20:00","2009","05","06","20:00","14.1","","8.9","","71","","9","","13","","24.1","","100.07","","","","","","Cloudy"
"2009-05-06 21:00","2009","05","06","21:00","13.3","","8.7","","74","","9","","13","","24.1","","100.04","","","","","","Cloudy"
"2009-05-06 22:00","2009","05","06","22:00","12.4","","8.8","","79","","9","","15","","24.1","","99.98","","","","","","Cloudy"
"2009-05-06 23:00","2009","05","06","23:00","12.2","","8.5","","78","","9","","17","","24.1","","99.91","","","","","","Cloudy"
"2009-05-07 00:00","2009","05","07","00:00","11.9","","8.4","","79","","7","","15","","16.1","","99.85","","","","","","Cloudy"
"2009-05-07 01:00","2009","05","07","01:00","11.6","","8.3","","80","","6","","15","","16.1","","99.70","","","","","","Cloudy"
"2009-05-07 02:00","2009","05","07","02:00","11.3","","8.4","","82","","7","","15","","16.1","","99.62","","","","","","Cloudy"
"2009-05-07 03:00","2009","05","07","03:00","11.1","","8.4","","83","","7","","17","","16.1","","99.57","","","","","","Cloudy"
"2009-05-07 04:00","2009","05","07","04:00","10.7","","8.8","","88","","5","","13","","9.7","","99.54","","","","","","Rain,Fog"
"2009-05-07 05:00","2009","05","07","05:00","10.4","","9.1","","92","","7","","15","","4.8","","99.47","","","","","","Rain,Fog"
"2009-05-07 06:00","2009","05","07","06:00","10.4","","9.3","","93","","6","","15","","4.8","","99.43","","","","","","Rain,Fog"
"2009-05-07 07:00","2009","05","07","07:00","10.5","","9.4","","93","","5","","15","","4.8","","99.40","","","","","","Rain,Fog"
"2009-05-07 08:00","2009","05","07","08:00","10.7","","9.9","","95","","5","","17","","4.8","","99.38","","","","","","Rain,Fog"
"2009-05-07 09:00","2009","05","07","09:00","11.1","","10.2","","94","","6","","17","","6.4","","99.35","","","","","","Rain,Fog"
"2009-05-07 10:00","2009","05","07","10:00","11.6","","10.2","","91","","5","","13","","12.9","","99.35","","","","","","Rain"
"2009-05-07 11:00","2009","05","07","11:00","12.5","","11.3","","92","","4","","11","","9.7","","99.34","","","","","","Rain,Fog"
"2009-05-07 12:00","2009","05","07","12:00","12.6","","11.2","","91","","36","","7","","11.3","","99.34","","","","","","Rain"
"2009-05-07 13:00","2009","05","07","13:00","13.3","","11.4","","88","","33","","13","","24.1","","99.30","","","","","","Rain Showers"
"2009-05-07 14:00","2009","05","07","14:00","14.6","","11.5","","82","","32","","11","","24.1","","99.30","","","","","","Mostly Cloudy"
"2009-05-07 15:00","2009","05","07","15:00","15.9","","11.4","","75","","25","","6","","24.1","","99.29","","","","","","Mostly Cloudy"
"2009-05-07 16:00","2009","05","07","16:00","16.3","","11.0","","71","","27","","6","","24.1","","99.33","","","","","","Mostly Cloudy"
"2009-05-07 17:00","2009","05","07","17:00","17.1","","11.1","","68","","23","","7","","24.1","","99.32","","","","","","Mostly Cloudy"
"2009-05-07 18:00","2009","05","07","18:00","16.7","","10.8","","68","","20","","7","","24.1","","99.31","","","","","","Mainly Clear"
"2009-05-07 19:00","2009","05","07","19:00","14.4","","11.4","","82","","16","","7","","24.1","","99.34","","","","","","Mainly Clear"
"2009-05-07 20:00","2009","05","07","20:00","13.1","","11.0","","87","","15","","9","","25.0","","99.37","","","","","","Mainly Clear"
"2009-05-07 21:00","2009","05","07","21:00","11.6","","10.4","","92","","14","","7","","25.0","","99.40","","","","","","Clear"
"2009-05-07 22:00","2009","05","07","22:00","12.0","","10.6","","91","","16","","9","","25.0","","99.36","","","","","","Mainly Clear"
"2009-05-07 23:00","2009","05","07","23:00","12.2","","10.7","","91","","18","","9","","25.0","","99.33","","","","","","Mostly Cloudy"
"2009-05-08 00:00","2009","05","08","00:00","12.2","","10.6","","90","","18","","9","","25.0","","99.32","","","","","","Cloudy"
"2009-05-08 01:00","2009","05","08","01:00","11.9","","10.3","","90","","18","","7","","19.3","","99.31","","","","","","Cloudy"
"2009-05-08 02:00","2009","05","08","02:00","11.5","","10.3","","92","","19","","7","","19.3","","99.27","","","","","","Rain"
"2009-05-08 03:00","2009","05","08","03:00","11.9","","10.6","","92","","19","","9","","12.9","","99.29","","","","","","Cloudy"
"2009-05-08 04:00","2009","05","08","04:00","11.9","","10.2","","89","","20","","9","","19.3","","99.24","","","","","","Mostly Cloudy"
"2009-05-08 05:00","2009","05","08","05:00","11.9","","9.8","","87","","20","","4","","16.1","","99.22","","","","","","Cloudy"
"2009-05-08 06:00","2009","05","08","06:00","11.8","","9.9","","88","","21","","11","","24.1","","99.23","","","","","","Mainly Clear"
"2009-05-08 07:00","2009","05","08","07:00","13.0","","10.3","","84","","22","","15","","24.1","","99.25","","","","","","Mainly Clear"
"2009-05-08 08:00","2009","05","08","08:00","14.6","","11.1","","80","","21","","13","","24.1","","99.26","","","","","","Mostly Cloudy"
"2009-05-08 09:00","2009","05","08","09:00","16.1","","11.1","","72","","27","","11","","24.1","","99.27","","","","","","Mostly Cloudy"
"2009-05-08 10:00","2009","05","08","10:00","17.5","","12.0","","70","","21","","11","","24.1","","99.28","","","","","","Mostly Cloudy"
"2009-05-08 11:00","2009","05","08","11:00","19.1","","12.1","","64","","20","","15","","24.1","","99.27","","","","","","Mostly Cloudy"
"2009-05-08 12:00","2009","05","08","12:00","16.8","","13.0","","78","","24","","4","","19.3","","99.24","","","","","","Rain"
"2009-05-08 13:00","2009","05","08","13:00","17.4","","12.9","","75","","2","","9","","24.1","","99.24","","","","","","Rain"
"2009-05-08 14:00","2009","05","08","14:00","17.1","","11.0","","67","","6","","6","","24.1","","99.23","","","","","","Thunderstorms,Rain"
"2009-05-08 15:00","2009","05","08","15:00","15.3","","13.2","","87","","13","","6","","24.1","","99.19","","","","","","Rain"
"2009-05-08 16:00","2009","05","08","16:00","18.5","","13.0","","70","","12","","9","","24.1","","99.14","","","","","","Mainly Clear"
"2009-05-08 17:00","2009","05","08","17:00","18.8","","12.6","","67","","14","","13","","24.1","","99.16","","","","","","Clear"
"2009-05-08 18:00","2009","05","08","18:00","16.9","","12.7","","76","","18","","9","","24.1","","99.13","","","","","","Mostly Cloudy"
"2009-05-08 19:00","2009","05","08","19:00","14.9","","11.2","","79","","17","","9","","24.1","","99.12","","","","","","Mainly Clear"
"2009-05-08 20:00","2009","05","08","20:00","14.5","","11.1","","80","","16","","9","","24.1","","99.18","","","","","","Mostly Cloudy"
"2009-05-08 21:00","2009","05","08","21:00","15.2","","8.8","","66","","16","","9","","24.1","","99.22","","","","","","Mostly Cloudy"
"2009-05-08 22:00","2009","05","08","22:00","14.5","","9.2","","70","","20","","7","","25.0","","99.19","","","","","","Mainly Clear"
"2009-05-08 23:00","2009","05","08","23:00","13.3","","9.8","","79","","18","","9","","25.0","","99.18","","","","","","Mainly Clear"
"2009-05-09 00:00","2009","05","09","00:00","12.9","","9.9","","82","","20","","9","","25.0","","99.17","","","","","","Mainly Clear"
"2009-05-09 01:00","2009","05","09","01:00","12.9","","9.3","","79","","22","","11","","25.0","","99.17","","","","","","Mainly Clear"
"2009-05-09 02:00","2009","05","09","02:00","12.1","","9.9","","86","","20","","6","","25.0","","99.04","","","","","","Mostly Cloudy"
"2009-05-09 03:00","2009","05","09","03:00","11.6","","10.0","","90","","20","","4","","24.1","","99.07","","","","","","Mostly Cloudy"
"2009-05-09 04:00","2009","05","09","04:00","9.7","","8.5","","92","","17","","4","","24.1","","99.01","","","","","","Clear"
"2009-05-09 05:00","2009","05","09","05:00","10.5","","9.2","","92","","16","","6","","24.1","","99.01","","","","","","Clear"
"2009-05-09 06:00","2009","05","09","06:00","11.1","","9.6","","90","","19","","11","","24.1","","99.00","","","","","","Cloudy"
"2009-05-09 07:00","2009","05","09","07:00","13.3","","10.6","","84","","","","0","","24.1","","98.95","","","","","","Cloudy"
"2009-05-09 08:00","2009","05","09","08:00","14.6","","11.3","","81","","","","0","","24.1","","98.94","","","","","","Cloudy"
"2009-05-09 09:00","2009","05","09","09:00","16.1","","11.7","","75","","","","0","","24.1","","98.88","","","","","","Cloudy"
"2009-05-09 10:00","2009","05","09","10:00","16.0","","12.0","","77","","21","","7","","24.1","","98.86","","","","","","Rain Showers"
"2009-05-09 11:00","2009","05","09","11:00","14.1","","12.8","","92","","9","","4","","8.0","","98.80","","","","","","Moderate Rain,Fog"
"2009-05-09 12:00","2009","05","09","12:00","14.6","","13.1","","91","","9","","15","","16.1","","98.66","","","","","","Cloudy"
"2009-05-09 13:00","2009","05","09","13:00","14.2","","11.3","","83","","9","","11","","16.1","","98.58","","","","","","Rain"
"2009-05-09 14:00","2009","05","09","14:00","13.0","","11.4","","90","","9","","20","","8.0","","98.50","","","","","","Moderate Rain,Fog"
"2009-05-09 15:00","2009","05","09","15:00","14.5","","12.7","","89","","3","","13","","16.1","","98.33","","","","","","Mostly Cloudy"
"2009-05-09 16:00","2009","05","09","16:00","13.7","","12.6","","93","","6","","6","","4.8","","98.35","","","","","","Moderate Rain,Fog"
"2009-05-09 17:00","2009","05","09","17:00","13.7","","12.4","","92","","31","","22","","6.4","","98.33","","","","","","Rain,Fog"
"2009-05-09 18:00","2009","05","09","18:00","13.1","","12.1","","94","","31","","24","","9.7","","98.34","","","","","","Rain,Fog"
"2009-05-09 19:00","2009","05","09","19:00","12.7","","11.5","","92","","32","","19","","9.7","","98.38","","","","","","Rain,Fog"
"2009-05-09 20:00","2009","05","09","20:00","11.8","","9.8","","88","","35","","22","","16.1","","98.51","","","","","","Rain"
"2009-05-09 21:00","2009","05","09","21:00","10.6","","8.5","","87","","32","","28","","16.1","","98.65","","","","","","Rain"
"2009-05-09 22:00","2009","05","09","22:00","9.3","","7.5","","89","","32","","32","","16.1","","98.81","","","","","","Rain"
"2009-05-09 23:00","2009","05","09","23:00","8.4","","6.3","","87","","31","","22","","16.1","","98.94","","","","","","Rain"
"2009-05-10 00:00","2009","05","10","00:00","7.6","","3.7","","76","","31","","26","","19.3","","99.06","","","","","","Cloudy"
"2009-05-10 01:00","2009","05","10","01:00","6.8","","2.3","","73","","31","","24","","19.3","","99.17","","","","","","Cloudy"
"2009-05-10 02:00","2009","05","10","02:00","6.1","","1.2","","71","","31","","22","","19.3","","99.23","","","","","","Cloudy"
"2009-05-10 03:00","2009","05","10","03:00","5.1","","0.0","","70","","30","","24","","24.1","","99.31","","","","","","Mainly Clear"
"2009-05-10 04:00","2009","05","10","04:00","4.4","","0.1","","74","","28","","24","","24.1","","99.38","","","","","","Mostly Cloudy"
"2009-05-10 05:00","2009","05","10","05:00","3.6","","-0.5","","75","","28","","24","","24.1","","99.47","","","","","","Mostly Cloudy"
"2009-05-10 06:00","2009","05","10","06:00","3.8","","-0.4","","74","","29","","20","","24.1","","99.53","","","","","","Cloudy"
"2009-05-10 07:00","2009","05","10","07:00","3.3","","-1.3","","72","","31","","30","","24.1","","99.58","","","","","","Cloudy"
"2009-05-10 08:00","2009","05","10","08:00","3.8","","-1.6","","68","","31","","28","","24.1","","99.64","","","","","","Cloudy"
"2009-05-10 09:00","2009","05","10","09:00","4.7","","-0.3","","70","","32","","20","","24.1","","99.70","","","","","","Cloudy"
"2009-05-10 10:00","2009","05","10","10:00","4.5","","-0.5","","70","","30","","28","","24.1","","99.76","","","","","","Cloudy"
"2009-05-10 11:00","2009","05","10","11:00","4.7","","-0.6","","68","","29","","26","","24.1","","99.79","","","","","","Cloudy"
"2009-05-10 12:00","2009","05","10","12:00","5.1","","-0.4","","68","","30","","28","","24.1","","99.83","","","","","","Cloudy"
"2009-05-10 13:00","2009","05","10","13:00","5.6","","-0.4","","65","","27","","22","","24.1","","99.88","","","","","","Cloudy"
"2009-05-10 14:00","2009","05","10","14:00","6.8","","-0.2","","61","","28","","24","","24.1","","99.91","","","","","","Cloudy"
"2009-05-10 15:00","2009","05","10","15:00","7.8","","-0.2","","57","","28","","22","","24.1","","99.94","","","","","","Cloudy"
"2009-05-10 16:00","2009","05","10","16:00","8.2","","0.4","","58","","27","","13","","24.1","","99.97","","","","","","Cloudy"
"2009-05-10 17:00","2009","05","10","17:00","8.8","","0.9","","58","","29","","19","","24.1","","99.99","","","","","","Mostly Cloudy"
"2009-05-10 18:00","2009","05","10","18:00","9.0","","0.2","","54","","27","","9","","24.1","","100.06","","","","","","Mostly Cloudy"
"2009-05-10 19:00","2009","05","10","19:00","8.5","","0.4","","57","","30","","13","","24.1","","100.11","","","","","","Mostly Cloudy"
"2009-05-10 20:00","2009","05","10","20:00","7.6","","-0.1","","58","","34","","9","","24.1","","100.22","","","","","","Mostly Cloudy"
"2009-05-10 21:00","2009","05","10","21:00","5.8","","-2.0","","57","","31","","4","","25.0","","100.28","","","","","","Mostly Cloudy"
"2009-05-10 22:00","2009","05","10","22:00","5.8","","-1.7","","59","","26","","7","","25.0","","100.29","","","","","","Mainly Clear"
"2009-05-10 23:00","2009","05","10","23:00","5.3","","-1.2","","63","","23","","7","","25.0","","100.30","","","","","","Mainly Clear"
"2009-05-11 00:00","2009","05","11","00:00","3.8","","-1.1","","70","","27","","7","","25.0","","100.33","","","","","","Mainly Clear"
"2009-05-11 01:00","2009","05","11","01:00","3.2","","-1.4","","72","","27","","6","","25.0","","100.32","","","","","","Mainly Clear"
"2009-05-11 02:00","2009","05","11","02:00","1.5","","-1.9","","78","","30","","7","","25.0","","100.33","","","","","","Mainly Clear"
"2009-05-11 03:00","2009","05","11","03:00","2.5","","-1.0","","78","","29","","9","","25.0","","100.36","","","","","","Mainly Clear"
"2009-05-11 04:00","2009","05","11","04:00","1.0","","-2.6","","77","","28","","6","","25.0","","100.40","","","","","","Mainly Clear"
"2009-05-11 05:00","2009","05","11","05:00","0.8","","-3.0","","76","","31","","11","","24.1","","100.42","","","","","","Mainly Clear"
"2009-05-11 06:00","2009","05","11","06:00","3.4","","0.2","","80","","29","","7","","24.1","","100.46","","","","","","Mainly Clear"
"2009-05-11 07:00","2009","05","11","07:00","5.5","","0.3","","69","","28","","7","","24.1","","100.53","","","","","","Mainly Clear"
"2009-05-11 08:00","2009","05","11","08:00","7.1","","-0.5","","58","","28","","11","","24.1","","100.56","","","","","","Mainly Clear"
"2009-05-11 09:00","2009","05","11","09:00","8.7","","-1.4","","49","","29","","9","","24.1","","100.56","","","","","","Mainly Clear"
"2009-05-11 10:00","2009","05","11","10:00","10.5","","-2.6","","40","","30","","19","","24.1","","100.55","","","","","","Mainly Clear"
"2009-05-11 11:00","2009","05","11","11:00","12.0","","-2.3","","37","","31","","13","","24.1","","100.52","","","","","","Mainly Clear"
"2009-05-11 12:00","2009","05","11","12:00","13.3","","0.3","","41","","27","","17","","24.1","","100.49","","","","","","Mainly Clear"
"2009-05-11 13:00","2009","05","11","13:00","12.4","","-3.7","","32","","27","","19","","24.1","","100.45","","","","","","Mainly Clear"
"2009-05-11 14:00","2009","05","11","14:00","13.2","","-3.0","","32","","30","","15","","24.1","","100.42","","","","","","Mainly Clear"
"2009-05-11 15:00","2009","05","11","15:00","14.4","","-2.0","","32","","28","","15","","24.1","","100.37","","","","","","Mainly Clear"
"2009-05-11 16:00","2009","05","11","16:00","14.6","","-3.4","","29","","26","","9","","24.1","","100.34","","","","","","Mainly Clear"
"2009-05-11 17:00","2009","05","11","17:00","14.6","","-4.2","","27","","27","","17","","24.1","","100.32","","","","","","Mainly Clear"
"2009-05-11 18:00","2009","05","11","18:00","13.9","","-3.4","","30","","27","","15","","24.1","","100.34","","","","","","Mainly Clear"
"2009-05-11 19:00","2009","05","11","19:00","12.0","","-4.2","","32","","27","","13","","24.1","","100.37","","","","","","Mainly Clear"
"2009-05-11 20:00","2009","05","11","20:00","10.2","","-5.2","","33","","27","","9","","25.0","","100.41","","","","","","Mainly Clear"
"2009-05-11 21:00","2009","05","11","21:00","9.9","","-5.0","","35","","27","","7","","25.0","","100.44","","","","","","Mainly Clear"
"2009-05-11 22:00","2009","05","11","22:00","8.3","","-3.7","","42","","31","","11","","25.0","","100.46","","","","","","Mainly Clear"
"2009-05-11 23:00","2009","05","11","23:00","8.1","","-3.3","","44","","36","","15","","25.0","","100.50","","","","","","Mainly Clear"
"2009-05-12 00:00","2009","05","12","00:00","7.7","","-3.8","","44","","1","","11","","25.0","","100.53","","","","","","Mainly Clear"
"2009-05-12 01:00","2009","05","12","01:00","7.7","","-4.4","","42","","2","","9","","25.0","","100.52","","","","","","Clear"
"2009-05-12 02:00","2009","05","12","02:00","5.3","","-3.9","","51","","1","","7","","25.0","","100.55","","","","","","Clear"
"2009-05-12 03:00","2009","05","12","03:00","4.4","","-2.7","","60","","35","","9","","25.0","","100.59","","","","","","Clear"
"2009-05-12 04:00","2009","05","12","04:00","3.7","","-3.2","","61","","34","","4","","25.0","","100.65","","","","","","Clear"
"2009-05-12 05:00","2009","05","12","05:00","2.5","","-2.7","","69","","32","","9","","24.1","","100.73","","","","","","Clear"
"2009-05-12 06:00","2009","05","12","06:00","5.6","","-0.2","","66","","33","","13","","24.1","","100.81","","","","","","Clear"
"2009-05-12 07:00","2009","05","12","07:00","9.1","","-1.5","","47","","35","","7","","24.1","","100.87","","","","","","Clear"
"2009-05-12 08:00","2009","05","12","08:00","11.2","","-1.8","","40","","35","","7","","24.1","","100.91","","","","","","Clear"
"2009-05-12 09:00","2009","05","12","09:00","12.6","","-1.4","","38","","7","","6","","24.1","","100.94","","","","","","Clear"
"2009-05-12 10:00","2009","05","12","10:00","13.2","","-2.4","","34","","30","","4","","24.1","","100.97","","","","","","Clear"
"2009-05-12 11:00","2009","05","12","11:00","13.8","","-2.7","","32","","33","","7","","24.1","","100.95","","","","","","Clear"
"2009-05-12 12:00","2009","05","12","12:00","15.0","","-2.8","","29","","5","","7","","24.1","","100.94","","","","","","Clear"
"2009-05-12 13:00","2009","05","12","13:00","15.9","","-3.7","","26","","6","","9","","24.1","","100.92","","","","","","Clear"
"2009-05-12 14:00","2009","05","12","14:00","16.1","","-4.8","","23","","26","","6","","24.1","","100.90","","","","","","Mainly Clear"
"2009-05-12 15:00","2009","05","12","15:00","16.7","","-2.8","","26","","7","","9","","24.1","","100.88","","","","","","Mainly Clear"
"2009-05-12 16:00","2009","05","12","16:00","17.3","","-2.8","","25","","8","","7","","24.1","","100.85","","","","","","Mainly Clear"
"2009-05-12 17:00","2009","05","12","17:00","17.0","","-3.6","","24","","23","","9","","24.1","","100.84","","","","","","Clear"
"2009-05-12 18:00","2009","05","12","18:00","16.7","","-2.8","","26","","28","","9","","24.1","","100.86","","","","","","Mainly Clear"
"2009-05-12 19:00","2009","05","12","19:00","15.7","","-3.6","","26","","24","","4","","24.1","","100.88","","","","","","Clear"
"2009-05-12 20:00","2009","05","12","20:00","13.7","","-2.8","","32","","16","","6","","24.1","","100.91","","","","","","Clear"
"2009-05-12 21:00","2009","05","12","21:00","12.1","","-2.1","","37","","18","","9","","25.0","","100.98","","","","","","Clear"
"2009-05-12 22:00","2009","05","12","22:00","10.6","","0.5","","50","","20","","7","","25.0","","101.01","","","","","","Clear"
"2009-05-12 23:00","2009","05","12","23:00","9.9","","0.5","","52","","20","","7","","25.0","","101.07","","","","","","Clear"
"2009-05-13 00:00","2009","05","13","00:00","9.0","","0.5","","55","","21","","7","","25.0","","101.09","","","","","","Clear"
"2009-05-13 01:00","2009","05","13","01:00","9.0","","0.1","","54","","22","","9","","25.0","","101.15","","","","","","Clear"
"2009-05-13 02:00","2009","05","13","02:00","7.3","","0.1","","60","","26","","6","","25.0","","101.21","","","","","","Clear"
"2009-05-13 03:00","2009","05","13","03:00","7.7","","0.0","","58","","23","","7","","25.0","","101.23","","","","","","Clear"
"2009-05-13 04:00","2009","05","13","04:00","6.0","","0.4","","67","","19","","6","","24.1","","101.22","","","","","","Clear"
"2009-05-13 05:00","2009","05","13","05:00","4.7","","-0.2","","71","","18","","6","","24.1","","101.26","","","","","","Clear"
"2009-05-13 06:00","2009","05","13","06:00","6.6","","1.4","","69","","","","0","","24.1","","101.32","","","","","","Clear"
"2009-05-13 07:00","2009","05","13","07:00","9.6","","2.1","","59","","","","0","","24.1","","101.33","","","","","","Clear"
"2009-05-13 08:00","2009","05","13","08:00","12.4","","2.7","","52","","","","0","","24.1","","101.36","","","","","","Clear"
"2009-05-13 09:00","2009","05","13","09:00","15.4","","2.8","","43","","18","","7","","24.1","","101.37","","","","","","Clear"
"2009-05-13 10:00","2009","05","13","10:00","16.7","","0.7","","34","","20","","6","","24.1","","101.30","","","","","","Mainly Clear"
"2009-05-13 11:00","2009","05","13","11:00","18.8","","3.0","","35","","22","","13","","24.1","","101.28","","","","","","Clear"
"2009-05-13 12:00","2009","05","13","12:00","19.0","","-0.5","","27","","20","","17","","24.1","","101.21","","","","","","Clear"
"2009-05-13 13:00","2009","05","13","13:00","19.3","","-1.1","","25","","22","","20","","24.1","","101.13","","","","","","Clear"
"2009-05-13 14:00","2009","05","13","14:00","20.0","","0.0","","26","","20","","22","","24.1","","101.02","","","","","","Clear"
"2009-05-13 15:00","2009","05","13","15:00","20.5","","-0.3","","25","","18","","26","","24.1","","100.92","","","","","","Mainly Clear"
"2009-05-13 16:00","2009","05","13","16:00","20.4","","0.7","","27","","18","","17","","24.1","","100.85","","","","","","Mostly Cloudy"
"2009-05-13 17:00","2009","05","13","17:00","20.8","","0.2","","25","","18","","15","","24.1","","100.80","","","","","","Mostly Cloudy"
"2009-05-13 18:00","2009","05","13","18:00","19.9","","0.4","","27","","18","","13","","24.1","","100.80","","","","","","Mainly Clear"
"2009-05-13 19:00","2009","05","13","19:00","18.5","","1.8","","33","","18","","6","","24.1","","100.75","","","","","","Mainly Clear"
"2009-05-13 20:00","2009","05","13","20:00","12.6","","2.7","","51","","13","","7","","25.0","","100.66","","","","","","Mainly Clear"
"2009-05-13 21:00","2009","05","13","21:00","13.0","","2.7","","50","","14","","11","","25.0","","100.62","","","","","","Clear"
"2009-05-13 22:00","2009","05","13","22:00","14.8","","2.4","","43","","15","","15","","25.0","","100.55","","","","","","Clear"
"2009-05-13 23:00","2009","05","13","23:00","14.2","","2.2","","44","","16","","15","","25.0","","100.46","","","","","","Clear"
"2009-05-14 00:00","2009","05","14","00:00","15.3","","2.6","","42","","17","","17","","25.0","","100.42","","","","","","Clear"
"2009-05-14 01:00","2009","05","14","01:00","16.3","","2.7","","40","","17","","19","","25.0","","100.39","","","","","","Cloudy"
"2009-05-14 02:00","2009","05","14","02:00","16.2","","3.7","","43","","18","","24","","25.0","","100.32","","","","","","Cloudy"
"2009-05-14 03:00","2009","05","14","03:00","16.0","","4.7","","47","","18","","19","","25.0","","100.36","","","","","","Cloudy"
"2009-05-14 04:00","2009","05","14","04:00","15.4","","5.0","","50","","16","","20","","25.0","","100.23","","","","","","Cloudy"
"2009-05-14 05:00","2009","05","14","05:00","14.6","","5.1","","53","","17","","20","","24.1","","100.13","","","","","","Mostly Cloudy"
"2009-05-14 06:00","2009","05","14","06:00","14.6","","5.4","","54","","18","","24","","24.1","","100.06","","","","","","Mostly Cloudy"
"2009-05-14 07:00","2009","05","14","07:00","14.9","","6.4","","57","","17","","22","","24.1","","99.91","","","","","","Mostly Cloudy"
"2009-05-14 08:00","2009","05","14","08:00","14.6","","7.4","","62","","17","","26","","24.1","","99.82","","","","","","Cloudy"
"2009-05-14 09:00","2009","05","14","09:00","15.0","","8.3","","64","","17","","32","","24.1","","99.62","","","","","","Cloudy"
"2009-05-14 10:00","2009","05","14","10:00","13.5","","10.0","","79","","18","","39","","19.3","","99.57","","","","","","Rain"
"2009-05-14 11:00","2009","05","14","11:00","12.9","","11.0","","88","","17","","30","","24.1","","99.43","","","","","","Rain"
"2009-05-14 12:00","2009","05","14","12:00","13.6","","11.7","","88","","18","","33","","12.9","","99.37","","","","","","Rain"
"2009-05-14 13:00","2009","05","14","13:00","13.9","","12.6","","92","","19","","30","","12.9","","99.34","","","","","","Rain"
"2009-05-14 14:00","2009","05","14","14:00","16.7","","14.1","","85","","21","","33","","24.1","","99.39","","","","","","Mostly Cloudy"
"2009-05-14 15:00","2009","05","14","15:00","18.9","","13.9","","73","","23","","33","","24.1","","99.45","","","","","","Mainly Clear"
"2009-05-14 16:00","2009","05","14","16:00","20.2","","11.3","","57","","25","","22","","24.1","","99.55","","","","","","Mostly Cloudy"
"2009-05-14 17:00","2009","05","14","17:00","19.9","","4.4","","36","","26","","39","","24.1","","99.67","","","","","","Mostly Cloudy"
"2009-05-14 18:00","2009","05","14","18:00","19.5","","5.3","","39","","25","","30","","24.1","","99.78","","","","","","Mainly Clear"
"2009-05-14 19:00","2009","05","14","19:00","18.1","","5.2","","43","","26","","22","","24.1","","99.94","","","","","","Mainly Clear"
"2009-05-14 20:00","2009","05","14","20:00","16.9","","4.8","","45","","26","","28","","24.1","","100.09","","","","","","Clear"
"2009-05-14 21:00","2009","05","14","21:00","15.7","","5.1","","49","","25","","26","","25.0","","100.22","","","","","","Clear"
"2009-05-14 22:00","2009","05","14","22:00","14.6","","5.3","","54","","25","","22","","25.0","","100.32","","","","","","Clear"
"2009-05-14 23:00","2009","05","14","23:00","13.2","","5.0","","57","","25","","22","","25.0","","100.42","","","","","","Clear"
"2009-05-15 00:00","2009","05","15","00:00","11.3","","4.9","","65","","26","","15","","25.0","","100.54","","","","","","Clear"
"2009-05-15 01:00","2009","05","15","01:00","11.0","","4.2","","63","","27","","20","","25.0","","100.61","","","","","","Clear"
"2009-05-15 02:00","2009","05","15","02:00","9.7","","3.6","","66","","26","","13","","25.0","","100.74","","","","","","Clear"
"2009-05-15 03:00","2009","05","15","03:00","8.5","","2.8","","67","","27","","13","","25.0","","100.84","","","","","","Clear"
"2009-05-15 04:00","2009","05","15","04:00","7.9","","2.8","","70","","28","","13","","24.1","","100.92","","","","","","Clear"
"2009-05-15 05:00","2009","05","15","05:00","7.2","","2.9","","74","","30","","15","","24.1","","101.00","","","","","","Mainly Clear"
"2009-05-15 06:00","2009","05","15","06:00","8.4","","3.2","","70","","28","","19","","24.1","","101.12","","","","","","Clear"
"2009-05-15 07:00","2009","05","15","07:00","10.0","","3.3","","63","","29","","13","","24.1","","101.18","","","","","","Mainly Clear"
"2009-05-15 08:00","2009","05","15","08:00","10.7","","2.9","","58","","28","","11","","24.1","","101.22","","","","","","Mainly Clear"
"2009-05-15 09:00","2009","05","15","09:00","12.1","","3.1","","54","","28","","13","","24.1","","101.22","","","","","","Mainly Clear"
"2009-05-15 10:00","2009","05","15","10:00","13.3","","3.8","","53","","31","","13","","24.1","","101.26","","","","","","Mainly Clear"
"2009-05-15 11:00","2009","05","15","11:00","15.6","","3.7","","45","","28","","26","","24.1","","101.25","","","","","","Mostly Cloudy"
"2009-05-15 12:00","2009","05","15","12:00","16.3","","4.4","","45","","29","","13","","24.1","","101.20","","","","","","Mostly Cloudy"
"2009-05-15 13:00","2009","05","15","13:00","16.6","","3.8","","42","","27","","22","","24.1","","101.20","","","","","","Mostly Cloudy"
"2009-05-15 14:00","2009","05","15","14:00","16.8","","3.9","","42","","28","","20","","24.1","","101.19","","","","","","Mostly Cloudy"
"2009-05-15 15:00","2009","05","15","15:00","17.5","","3.6","","40","","29","","22","","24.1","","101.12","","","","","","Mostly Cloudy"
"2009-05-15 16:00","2009","05","15","16:00","17.6","","3.3","","38","","31","","11","","24.1","","101.09","","","","","","Mostly Cloudy"
"2009-05-15 17:00","2009","05","15","17:00","17.6","","3.1","","38","","34","","9","","24.1","","101.05","","","","","","Mostly Cloudy"
"2009-05-15 18:00","2009","05","15","18:00","17.3","","4.1","","41","","34","","4","","24.1","","101.02","","","","","","Mostly Cloudy"
"2009-05-15 19:00","2009","05","15","19:00","15.9","","3.8","","44","","16","","6","","24.1","","100.98","","","","","","Cloudy"
"2009-05-15 20:00","2009","05","15","20:00","14.2","","3.9","","50","","14","","11","","25.0","","100.90","","","","","","Cloudy"
"2009-05-15 21:00","2009","05","15","21:00","12.4","","3.5","","55","","15","","9","","25.0","","100.95","","","","","","Mostly Cloudy"
"2009-05-15 22:00","2009","05","15","22:00","13.3","","3.4","","51","","18","","6","","25.0","","100.96","","","","","","Mainly Clear"
"2009-05-15 23:00","2009","05","15","23:00","11.1","","3.5","","59","","15","","6","","25.0","","100.93","","","","","","Mainly Clear"
"2009-05-16 00:00","2009","05","16","00:00","11.6","","3.5","","57","","","","0","","25.0","","100.85","","","","","","Mostly Cloudy"
"2009-05-16 01:00","2009","05","16","01:00","10.6","","4.5","","66","","9","","13","","25.0","","100.70","","","","","","Mostly Cloudy"
"2009-05-16 02:00","2009","05","16","02:00","10.2","","4.7","","69","","7","","13","","25.0","","100.63","","","","","","Cloudy"
"2009-05-16 03:00","2009","05","16","03:00","10.0","","4.9","","71","","6","","9","","25.0","","100.61","","","","","","Cloudy"
"2009-05-16 04:00","2009","05","16","04:00","10.1","","4.4","","68","","8","","15","","24.1","","100.54","","","","","","Cloudy"
"2009-05-16 05:00","2009","05","16","05:00","10.3","","4.5","","67","","9","","19","","24.1","","100.46","","","","","","Cloudy"
"2009-05-16 06:00","2009","05","16","06:00","10.6","","4.8","","67","","9","","22","","24.1","","100.34","","","","","","Cloudy"
"2009-05-16 07:00","2009","05","16","07:00","11.4","","5.2","","66","","9","","22","","24.1","","100.22","","","","","","Cloudy"
"2009-05-16 08:00","2009","05","16","08:00","12.6","","6.1","","65","","8","","22","","24.1","","100.01","","","","","","Cloudy"
"2009-05-16 09:00","2009","05","16","09:00","13.6","","7.2","","65","","8","","22","","24.1","","99.90","","","","","","Rain Showers"
"2009-05-16 10:00","2009","05","16","10:00","11.8","","9.1","","84","","10","","24","","8.0","","99.70","","","","","","Rain Showers,Fog"
"2009-05-16 11:00","2009","05","16","11:00","11.7","","10.4","","92","","11","","19","","6.4","","99.62","","","","","","Thunderstorms,Rain Showers,Fog"
"2009-05-16 12:00","2009","05","16","12:00","12.9","","11.9","","94","","11","","11","","12.9","","99.52","","","","","","Cloudy"
"2009-05-16 13:00","2009","05","16","13:00","14.0","","13.0","","94","","14","","11","","6.4","","99.44","","","","","","Rain,Fog"
"2009-05-16 14:00","2009","05","16","14:00","16.5","","15.6","","94","","16","","11","","4.8","","99.33","","","","","","Rain,Fog"
"2009-05-16 15:00","2009","05","16","15:00","19.6","","18.8","","95","","20","","19","","6.4","","99.27","","","","","","Fog"
"2009-05-16 16:00","2009","05","16","16:00","19.7","","16.8","","83","","20","","11","","8.0","","99.22","","","","","","Rain,Fog"
"2009-05-16 17:00","2009","05","16","17:00","19.5","","17.1","","86","","19","","11","","9.7","","99.19","","","","","","Rain,Fog"
"2009-05-16 18:00","2009","05","16","18:00","18.6","","16.5","","88","","20","","11","","16.1","","99.21","","","","","","Mostly Cloudy"
"2009-05-16 19:00","2009","05","16","19:00","18.3","","16.2","","88","","21","","11","","16.1","","99.22","","","","","","Mostly Cloudy"
"2009-05-16 20:00","2009","05","16","20:00","18.1","","14.8","","81","","23","","13","","25.0","","99.27","","","","","","Mostly Cloudy"
"2009-05-16 21:00","2009","05","16","21:00","16.2","","11.6","","74","","27","","22","","25.0","","99.36","","","","","","Mostly Cloudy"
"2009-05-16 22:00","2009","05","16","22:00","12.7","","5.8","","63","","27","","32","","25.0","","99.48","","","","","","Mostly Cloudy"
"2009-05-16 23:00","2009","05","16","23:00","9.1","","0.4","","54","","27","","26","","25.0","","99.61","","","","","","Mainly Clear"
"2009-05-17 00:00","2009","05","17","00:00","7.9","","-0.4","","56","","27","","24","","25.0","","99.70","","","","","","Mainly Clear"
"2009-05-17 01:00","2009","05","17","01:00","6.8","","-1.1","","57","","27","","32","","25.0","","99.78","","","","","","Mainly Clear"
"2009-05-17 02:00","2009","05","17","02:00","5.5","","-3.7","","51","","27","","26","","25.0","","99.91","","","","","","Mainly Clear"
"2009-05-17 03:00","2009","05","17","03:00","4.6","","-3.9","","54","","27","","30","","25.0","","99.99","","","","","","Mainly Clear"
"2009-05-17 04:00","2009","05","17","04:00","3.8","","-3.5","","59","","25","","13","","25.0","","100.07","","","","","","Mainly Clear"
"2009-05-17 05:00","2009","05","17","05:00","3.4","","-3.7","","60","","24","","15","","24.1","","100.14","","","","","","Mainly Clear"
"2009-05-17 06:00","2009","05","17","06:00","3.9","","-3.7","","58","","25","","19","","24.1","","100.23","","","","","","Mainly Clear"
"2009-05-17 07:00","2009","05","17","07:00","4.8","","-4.0","","53","","26","","33","","24.1","","100.28","","","","","","Mostly Cloudy"
"2009-05-17 08:00","2009","05","17","08:00","5.7","","-3.8","","50","","28","","32","","24.1","","100.34","","","","","","Mostly Cloudy"
"2009-05-17 09:00","2009","05","17","09:00","5.9","","-4.2","","48","","28","","32","","24.1","","100.37","","","","","","Mostly Cloudy"
"2009-05-17 10:00","2009","05","17","10:00","6.8","","-2.8","","50","","26","","30","","24.1","","100.38","","","","","","Mostly Cloudy"
"2009-05-17 11:00","2009","05","17","11:00","9.2","","-1.6","","47","","27","","26","","24.1","","100.38","","","","","","Mostly Cloudy"
"2009-05-17 12:00","2009","05","17","12:00","8.7","","-3.0","","44","","27","","26","","24.1","","100.39","","","","","","Mostly Cloudy"
"2009-05-17 13:00","2009","05","17","13:00","9.0","","-3.3","","42","","27","","30","","24.1","","100.41","","","","","","Mostly Cloudy"
"2009-05-17 14:00","2009","05","17","14:00","9.0","","-2.9","","43","","26","","26","","24.1","","100.41","","","","","","Cloudy"
"2009-05-17 15:00","2009","05","17","15:00","9.4","","-2.2","","44","","27","","24","","24.1","","100.42","","","","","","Mostly Cloudy"
"2009-05-17 16:00","2009","05","17","16:00","10.5","","-1.6","","43","","31","","30","","24.1","","100.47","","","","","","Mostly Cloudy"
"2009-05-17 17:00","2009","05","17","17:00","9.2","","-2.7","","43","","29","","24","","24.1","","100.52","","","","","","Mostly Cloudy"
"2009-05-17 18:00","2009","05","17","18:00","8.4","","-2.2","","47","","28","","20","","24.1","","100.58","","","","","","Mostly Cloudy"
"2009-05-17 19:00","2009","05","17","19:00","7.9","","-2.5","","48","","29","","19","","24.1","","100.65","","","","","","Mostly Cloudy"
"2009-05-17 20:00","2009","05","17","20:00","6.6","","-2.2","","53","","27","","7","","25.0","","100.70","","","","","","Mostly Cloudy"
"2009-05-17 21:00","2009","05","17","21:00","6.4","","-1.2","","58","","25","","7","","25.0","","100.76","","","","","","Mostly Cloudy"
"2009-05-17 22:00","2009","05","17","22:00","6.2","","-1.3","","59","","26","","7","","25.0","","100.79","","","","","","Cloudy"
"2009-05-17 23:00","2009","05","17","23:00","6.0","","-1.1","","60","","26","","9","","25.0","","100.82","","","","","","Cloudy"
"2009-05-18 00:00","2009","05","18","00:00","5.8","","-0.9","","62","","27","","9","","25.0","","100.87","","","","","","Cloudy"
"2009-05-18 01:00","2009","05","18","01:00","6.1","","-3.1","","52","","33","","22","","25.0","","100.91","","","","","","Cloudy"
"2009-05-18 02:00","2009","05","18","02:00","5.3","","-3.0","","55","","33","","17","","25.0","","100.96","","","","","","Cloudy"
"2009-05-18 03:00","2009","05","18","03:00","3.6","","-4.2","","57","","33","","13","","25.0","","101.02","","","","","","Mostly Cloudy"
"2009-05-18 04:00","2009","05","18","04:00","0.9","","-4.7","","66","","31","","13","","25.0","","101.07","","","","","","Mainly Clear"
"2009-05-18 05:00","2009","05","18","05:00","1.1","","-4.4","","67","","31","","11","","24.1","","101.15","","","","","","Mainly Clear"
"2009-05-18 06:00","2009","05","18","06:00","3.8","","-3.8","","58","","33","","17","","24.1","","101.24","","","","","","Mainly Clear"
"2009-05-18 07:00","2009","05","18","07:00","5.0","","-4.2","","51","","34","","15","","24.1","","101.32","","","","","","Mainly Clear"
"2009-05-18 08:00","2009","05","18","08:00","6.4","","-3.7","","48","","33","","15","","24.1","","101.33","","","","","","Mainly Clear"
"2009-05-18 09:00","2009","05","18","09:00","7.5","","-4.3","","43","","29","","13","","24.1","","101.34","","","","","","Mainly Clear"
"2009-05-18 10:00","2009","05","18","10:00","9.3","","-4.6","","37","","36","","15","","24.1","","101.32","","","","","","Mainly Clear"
"2009-05-18 11:00","2009","05","18","11:00","9.4","","-2.7","","42","","29","","11","","24.1","","101.30","","","","","","Mainly Clear"
"2009-05-18 12:00","2009","05","18","12:00","10.3","","-3.1","","39","","26","","11","","24.1","","101.25","","","","","","Mainly Clear"
"2009-05-18 13:00","2009","05","18","13:00","11.7","","-2.7","","36","","30","","7","","24.1","","101.19","","","","","","Clear"
"2009-05-18 14:00","2009","05","18","14:00","12.1","","-3.0","","35","","30","","17","","24.1","","101.18","","","","","","Clear"
"2009-05-18 15:00","2009","05","18","15:00","13.1","","-2.4","","34","","28","","15","","24.1","","101.11","","","","","","Clear"
"2009-05-18 16:00","2009","05","18","16:00","13.7","","-3.4","","30","","20","","7","","24.1","","101.08","","","","","","Clear"
"2009-05-18 17:00","2009","05","18","17:00","14.0","","-4.0","","28","","22","","4","","24.1","","101.08","","","","","","Clear"
"2009-05-18 18:00","2009","05","18","18:00","13.6","","-9.3","","19","","27","","13","","24.1","","101.12","","","","","","Clear"
"2009-05-18 19:00","2009","05","18","19:00","12.9","","-7.4","","24","","24","","6","","24.1","","101.12","","","","","","Mainly Clear"
"2009-05-18 20:00","2009","05","18","20:00","11.1","","-6.6","","28","","18","","6","","24.1","","101.13","","","","","","Clear"
"2009-05-18 21:00","2009","05","18","21:00","8.7","","0.2","","55","","19","","9","","25.0","","101.19","","","","","","Clear"
"2009-05-18 22:00","2009","05","18","22:00","7.6","","0.3","","60","","19","","9","","25.0","","101.20","","","","","","Clear"
"2009-05-18 23:00","2009","05","18","23:00","6.3","","-0.5","","62","","18","","9","","25.0","","101.20","","","","","","Clear"
"2009-05-19 00:00","2009","05","19","00:00","5.9","","-0.9","","62","","21","","9","","25.0","","101.19","","","","","","Clear"
"2009-05-19 01:00","2009","05","19","01:00","5.2","","-0.6","","66","","21","","9","","25.0","","101.17","","","","","","Clear"
"2009-05-19 02:00","2009","05","19","02:00","4.5","","-0.7","","69","","20","","7","","25.0","","101.18","","","","","","Clear"
"2009-05-19 03:00","2009","05","19","03:00","4.0","","-0.9","","70","","20","","9","","25.0","","101.15","","","","","","Clear"
"2009-05-19 04:00","2009","05","19","04:00","4.2","","-0.9","","69","","19","","6","","24.1","","101.17","","","","","","Clear"
"2009-05-19 05:00","2009","05","19","05:00","4.4","","-0.9","","68","","20","","9","","24.1","","101.22","","","","","","Mainly Clear"
"2009-05-19 06:00","2009","05","19","06:00","7.0","","0.0","","61","","20","","15","","24.1","","101.21","","","","","","Mostly Cloudy"
"2009-05-19 07:00","2009","05","19","07:00","9.8","","0.5","","52","","20","","20","","24.1","","101.18","","","","","","Mostly Cloudy"
"2009-05-19 08:00","2009","05","19","08:00","11.7","","0.1","","45","","21","","20","","24.1","","101.21","","","","","","Mostly Cloudy"
"2009-05-19 09:00","2009","05","19","09:00","12.3","","0.6","","45","","20","","20","","24.1","","101.12","","","","","","Mostly Cloudy"
"2009-05-19 10:00","2009","05","19","10:00","15.4","","0.2","","35","","21","","26","","24.1","","101.06","","","","","","Mostly Cloudy"
"2009-05-19 11:00","2009","05","19","11:00","16.2","","-0.7","","32","","20","","33","","24.1","","101.02","","","","","","Cloudy"
"2009-05-19 12:00","2009","05","19","12:00","16.3","","-0.5","","32","","20","","30","","24.1","","100.98","","","","","","Cloudy"
"2009-05-19 13:00","2009","05","19","13:00","17.1","","0.8","","33","","21","","28","","24.1","","100.96","","","","","","Cloudy"
"2009-05-19 14:00","2009","05","19","14:00","15.9","","6.0","","52","","20","","20","","24.1","","100.92","","","","","","Cloudy"
"2009-05-19 15:00","2009","05","19","15:00","17.7","","4.0","","40","","22","","26","","24.1","","100.87","","","","","","Mostly Cloudy"
"2009-05-19 16:00","2009","05","19","16:00","17.8","","3.3","","38","","20","","17","","24.1","","100.84","","","","","","Mostly Cloudy"
"2009-05-19 17:00","2009","05","19","17:00","17.8","","3.4","","38","","22","","17","","24.1","","100.85","","","","","","Mostly Cloudy"
"2009-05-19 18:00","2009","05","19","18:00","14.1","","7.6","","65","","31","","19","","24.1","","101.00","","","","","","Rain"
"2009-05-19 19:00","2009","05","19","19:00","13.0","","7.8","","71","","30","","20","","24.1","","101.05","","","","","","Cloudy"
"2009-05-19 20:00","2009","05","19","20:00","12.0","","7.8","","75","","28","","11","","24.1","","101.10","","","","","","Cloudy"
"2009-05-19 21:00","2009","05","19","21:00","11.6","","8.0","","79","","28","","15","","25.0","","101.16","","","","","","Cloudy"
"2009-05-19 22:00","2009","05","19","22:00","11.2","","8.2","","82","","31","","13","","25.0","","101.20","","","","","","Cloudy"
"2009-05-19 23:00","2009","05","19","23:00","11.0","","8.0","","82","","32","","13","","25.0","","101.26","","","","","","Cloudy"
"2009-05-20 00:00","2009","05","20","00:00","10.7","","7.6","","81","","36","","11","","25.0","","101.23","","","","","","Cloudy"
"2009-05-20 01:00","2009","05","20","01:00","9.9","","6.5","","79","","1","","15","","25.0","","101.25","","","","","","Cloudy"
"2009-05-20 02:00","2009","05","20","02:00","8.8","","5.0","","77","","1","","9","","25.0","","101.30","","","","","","Cloudy"
"2009-05-20 03:00","2009","05","20","03:00","8.4","","4.7","","78","","2","","11","","25.0","","101.33","","","","","","Cloudy"
"2009-05-20 04:00","2009","05","20","04:00","8.3","","4.9","","79","","2","","9","","24.1","","101.33","","","","","","Cloudy"
"2009-05-20 05:00","2009","05","20","05:00","8.2","","4.9","","80","","4","","7","","24.1","","101.36","","","","","","Cloudy"
"2009-05-20 06:00","2009","05","20","06:00","8.3","","4.8","","79","","4","","9","","24.1","","101.43","","","","","","Mostly Cloudy"
"2009-05-20 07:00","2009","05","20","07:00","8.0","","5.7","","85","","7","","11","","19.3","","101.45","","","","","","Rain"
"2009-05-20 08:00","2009","05","20","08:00","7.5","","4.8","","83","","5","","11","","24.1","","101.50","","","","","","Cloudy"
"2009-05-20 09:00","2009","05","20","09:00","7.3","","5.5","","88","","8","","13","","19.3","","101.39","","","","","","Rain"
"2009-05-20 10:00","2009","05","20","10:00","7.8","","6.3","","90","","9","","11","","24.1","","101.40","","","","","","Rain"
"2009-05-20 11:00","2009","05","20","11:00","9.3","","7.8","","90","","9","","11","","24.1","","101.35","","","","","","Cloudy"
"2009-05-20 12:00","2009","05","20","12:00","10.6","","8.5","","87","","14","","11","","24.1","","101.18","","","","","","Cloudy"
"2009-05-20 13:00","2009","05","20","13:00","13.2","","9.9","","80","","11","","11","","24.1","","101.03","","","","","","Mostly Cloudy"
"2009-05-20 14:00","2009","05","20","14:00","17.7","","11.7","","68","","14","","9","","24.1","","100.86","","","","","","Mostly Cloudy"
"2009-05-20 15:00","2009","05","20","15:00","20.5","","12.0","","58","","16","","9","","24.1","","100.73","","","","","","Mainly Clear"
"2009-05-20 16:00","2009","05","20","16:00","23.7","","10.0","","42","","20","","24","","24.1","","100.60","","25","","","","Clear"
"2009-05-20 17:00","2009","05","20","17:00","24.0","","8.9","","38","","21","","22","","24.1","","100.55","","25","","","","Clear"
"2009-05-20 18:00","2009","05","20","18:00","24.3","","6.1","","31","","23","","22","","24.1","","100.53","","","","","","Mainly Clear"
"2009-05-20 19:00","2009","05","20","19:00","22.9","","5.2","","32","","21","","19","","24.1","","100.50","","","","","","Mainly Clear"
"2009-05-20 20:00","2009","05","20","20:00","20.3","","5.0","","37","","21","","11","","24.1","","100.51","","","","","","Mainly Clear"
"2009-05-20 21:00","2009","05","20","21:00","18.9","","3.9","","37","","20","","9","","25.0","","100.52","","","","","","Mainly Clear"
"2009-05-20 22:00","2009","05","20","22:00","17.5","","3.9","","40","","17","","7","","25.0","","100.51","","","","","","Clear"
"2009-05-20 23:00","2009","05","20","23:00","15.9","","4.7","","47","","20","","13","","25.0","","100.50","","","","","","Clear"
"2009-05-21 00:00","2009","05","21","00:00","15.8","","5.0","","49","","20","","11","","25.0","","100.47","","","","","","Clear"
"2009-05-21 01:00","2009","05","21","01:00","15.3","","5.0","","50","","19","","13","","25.0","","100.48","","","","","","Clear"
"2009-05-21 02:00","2009","05","21","02:00","14.4","","5.5","","55","","19","","11","","25.0","","100.48","","","","","","Clear"
"2009-05-21 03:00","2009","05","21","03:00","13.7","","5.6","","58","","21","","11","","25.0","","100.48","","","","","","Clear"
"2009-05-21 04:00","2009","05","21","04:00","13.4","","5.3","","58","","21","","15","","24.1","","100.51","","","","","","Mainly Clear"
"2009-05-21 05:00","2009","05","21","05:00","13.7","","5.2","","56","","22","","13","","24.1","","100.57","","","","","","Cloudy"
"2009-05-21 06:00","2009","05","21","06:00","15.8","","5.5","","50","","21","","17","","24.1","","100.57","","","","","","Mostly Cloudy"
"2009-05-21 07:00","2009","05","21","07:00","18.1","","6.8","","48","","22","","19","","24.1","","100.57","","","","","","Mainly Clear"
"2009-05-21 08:00","2009","05","21","08:00","21.6","","8.3","","42","","23","","20","","24.1","","100.52","","","","","","Mainly Clear"
"2009-05-21 09:00","2009","05","21","09:00","24.2","","7.9","","35","","21","","17","","24.1","","100.47","","25","","","","Mainly Clear"
"2009-05-21 10:00","2009","05","21","10:00","26.0","","7.7","","31","","23","","24","","24.1","","100.39","","26","","","","Mainly Clear"
"2009-05-21 11:00","2009","05","21","11:00","26.9","","8.3","","31","","22","","26","","24.1","","100.31","","27","","","","Mainly Clear"
"2009-05-21 12:00","2009","05","21","12:00","27.7","","9.4","","32","","23","","32","","24.1","","100.24","","29","","","","Mainly Clear"
"2009-05-21 13:00","2009","05","21","13:00","27.3","","10.8","","36","","20","","26","","24.1","","100.18","","29","","","","Mainly Clear"
"2009-05-21 14:00","2009","05","21","14:00","28.1","","9.7","","32","","21","","33","","24.1","","100.12","","29","","","","Mainly Clear"
"2009-05-21 15:00","2009","05","21","15:00","28.7","","8.7","","29","","20","","33","","24.1","","100.06","","29","","","","Mainly Clear"
"2009-05-21 16:00","2009","05","21","16:00","28.2","","8.9","","30","","21","","35","","24.1","","100.02","","29","","","","Mainly Clear"
"2009-05-21 17:00","2009","05","21","17:00","27.2","","8.9","","32","","22","","30","","24.1","","99.99","","28","","","","Mainly Clear"
"2009-05-21 18:00","2009","05","21","18:00","26.1","","8.9","","34","","21","","30","","24.1","","99.99","","27","","","","Mainly Clear"
"2009-05-21 19:00","2009","05","21","19:00","24.5","","9.3","","38","","22","","24","","24.1","","100.01","","25","","","","Mainly Clear"
"2009-05-21 20:00","2009","05","21","20:00","23.3","","9.4","","41","","21","","20","","24.1","","100.03","","","","","","Mainly Clear"
"2009-05-21 21:00","2009","05","21","21:00","22.4","","8.8","","42","","22","","20","","25.0","","100.08","","","","","","Mainly Clear"
"2009-05-21 22:00","2009","05","21","22:00","21.2","","8.4","","44","","23","","15","","25.0","","100.11","","","","","","Clear"
"2009-05-21 23:00","2009","05","21","23:00","20.1","","8.3","","47","","22","","17","","25.0","","100.10","","","","","","Clear"
"2009-05-22 00:00","2009","05","22","00:00","19.6","","8.1","","47","","22","","15","","25.0","","100.10","","","","","","Clear"
"2009-05-22 01:00","2009","05","22","01:00","18.8","","8.5","","51","","23","","11","","25.0","","100.09","","","","","","Clear"
"2009-05-22 02:00","2009","05","22","02:00","16.3","","8.8","","61","","30","","11","","25.0","","100.20","","","","","","Mainly Clear"
"2009-05-22 03:00","2009","05","22","03:00","17.1","","11.5","","70","","33","","17","","25.0","","100.27","","","","","","Mainly Clear"
"2009-05-22 04:00","2009","05","22","04:00","16.0","","10.8","","71","","35","","19","","24.1","","100.37","","","","","","Mostly Cloudy"
"2009-05-22 05:00","2009","05","22","05:00","15.0","","10.0","","72","","34","","15","","24.1","","100.49","","","","","","Mostly Cloudy"
"2009-05-22 06:00","2009","05","22","06:00","15.1","","9.0","","67","","33","","15","","24.1","","100.58","","","","","","Mostly Cloudy"
"2009-05-22 07:00","2009","05","22","07:00","14.7","","7.2","","61","","36","","13","","24.1","","100.65","","","","","","Mostly Cloudy"
"2009-05-22 08:00","2009","05","22","08:00","14.9","","6.6","","58","","36","","17","","24.1","","100.75","","","","","","Mostly Cloudy"
"2009-05-22 09:00","2009","05","22","09:00","13.9","","8.8","","71","","33","","19","","24.1","","100.84","","","","","","Rain"
"2009-05-22 10:00","2009","05","22","10:00","12.8","","7.5","","70","","34","","9","","24.1","","100.86","","","","","","Rain"
"2009-05-22 11:00","2009","05","22","11:00","14.4","","7.8","","65","","30","","15","","24.1","","100.86","","","","","","Cloudy"
"2009-05-22 12:00","2009","05","22","12:00","15.5","","6.2","","54","","32","","17","","24.1","","100.87","","","","","","Mostly Cloudy"
"2009-05-22 13:00","2009","05","22","13:00","16.7","","7.8","","56","","28","","11","","24.1","","100.86","","","","","","Mostly Cloudy"
"2009-05-22 14:00","2009","05","22","14:00","16.8","","7.2","","53","","31","","19","","24.1","","100.86","","","","","","Mainly Clear"
"2009-05-22 15:00","2009","05","22","15:00","17.7","","6.5","","48","","31","","7","","24.1","","100.84","","","","","","Clear"
"2009-05-22 16:00","2009","05","22","16:00","18.5","","7.3","","48","","28","","7","","24.1","","100.82","","","","","","Clear"
"2009-05-22 17:00","2009","05","22","17:00","19.0","","7.2","","46","","27","","19","","24.1","","100.82","","","","","","Clear"
"2009-05-22 18:00","2009","05","22","18:00","18.7","","5.6","","42","","28","","15","","24.1","","100.82","","","","","","Clear"
"2009-05-22 19:00","2009","05","22","19:00","16.8","","5.1","","46","","29","","7","","24.1","","100.85","","","","","","Clear"
"2009-05-22 20:00","2009","05","22","20:00","15.4","","4.7","","49","","30","","7","","24.1","","100.91","","","","","","Clear"
"2009-05-22 21:00","2009","05","22","21:00","14.8","","2.1","","42","","36","","7","","24.1","","100.94","","","","","","Clear"
"2009-05-22 22:00","2009","05","22","22:00","13.2","","2.0","","47","","1","","13","","25.0","","100.92","","","","","","Clear"
"2009-05-22 23:00","2009","05","22","23:00","12.7","","2.2","","49","","7","","11","","25.0","","100.97","","","","","","Clear"
"2009-05-23 00:00","2009","05","23","00:00","9.8","","2.5","","60","","7","","9","","25.0","","100.99","","","","","","Clear"
"2009-05-23 01:00","2009","05","23","01:00","10.6","","1.8","","54","","6","","9","","25.0","","100.99","","","","","","Clear"
"2009-05-23 02:00","2009","05","23","02:00","9.2","","2.0","","61","","6","","7","","25.0","","100.98","","","","","","Clear"
"2009-05-23 03:00","2009","05","23","03:00","8.8","","1.8","","61","","5","","9","","25.0","","100.99","","","","","","Mainly Clear"
"2009-05-23 04:00","2009","05","23","04:00","8.6","","1.5","","61","","5","","11","","24.1","","101.00","","","","","","Mainly Clear"
"2009-05-23 05:00","2009","05","23","05:00","8.3","","1.2","","61","","7","","19","","24.1","","101.03","","","","","","Mostly Cloudy"
"2009-05-23 06:00","2009","05","23","06:00","8.4","","2.1","","64","","7","","19","","24.1","","101.06","","","","","","Mostly Cloudy"
"2009-05-23 07:00","2009","05","23","07:00","8.8","","2.7","","66","","8","","17","","24.1","","101.06","","","","","","Mostly Cloudy"
"2009-05-23 08:00","2009","05","23","08:00","10.9","","2.6","","57","","9","","19","","24.1","","101.03","","","","","","Mostly Cloudy"
"2009-05-23 09:00","2009","05","23","09:00","13.1","","3.9","","54","","9","","19","","24.1","","100.95","","","","","","Mostly Cloudy"
"2009-05-23 10:00","2009","05","23","10:00","14.3","","4.8","","53","","10","","9","","24.1","","100.86","","","","","","Mostly Cloudy"
"2009-05-23 11:00","2009","05","23","11:00","15.2","","5.3","","52","","10","","7","","24.1","","100.79","","","","","","Mostly Cloudy"
"2009-05-23 12:00","2009","05","23","12:00","16.7","","5.2","","47","","9","","9","","24.1","","100.72","","","","","","Mostly Cloudy"
"2009-05-23 13:00","2009","05","23","13:00","18.0","","5.0","","42","","17","","9","","24.1","","100.62","","","","","","Mostly Cloudy"
"2009-05-23 14:00","2009","05","23","14:00","19.6","","4.8","","38","","18","","11","","24.1","","100.50","","","","","","Mainly Clear"
"2009-05-23 15:00","2009","05","23","15:00","20.5","","5.1","","36","","18","","13","","24.1","","100.41","","","","","","Mainly Clear"
"2009-05-23 16:00","2009","05","23","16:00","21.5","","5.8","","36","","19","","7","","24.1","","100.33","","","","","","Mainly Clear"
"2009-05-23 17:00","2009","05","23","17:00","21.6","","4.9","","34","","19","","11","","24.1","","100.25","","","","","","Mainly Clear"
"2009-05-23 18:00","2009","05","23","18:00","20.5","","7.0","","42","","18","","11","","24.1","","100.22","","","","","","Mainly Clear"
"2009-05-23 19:00","2009","05","23","19:00","19.6","","7.6","","46","","19","","9","","24.1","","100.22","","","","","","Mainly Clear"
"2009-05-23 20:00","2009","05","23","20:00","17.0","","7.8","","55","","17","","7","","25.0","","100.18","","","","","","Mostly Cloudy"
"2009-05-23 21:00","2009","05","23","21:00","15.9","","8.4","","61","","17","","7","","25.0","","100.19","","","","","","Mostly Cloudy"
"2009-05-23 22:00","2009","05","23","22:00","15.8","","9.3","","65","","19","","7","","25.0","","100.18","","","","","","Mostly Cloudy"
"2009-05-23 23:00","2009","05","23","23:00","15.1","","9.9","","71","","21","","9","","25.0","","100.15","","","","","","Mostly Cloudy"
"2009-05-24 00:00","2009","05","24","00:00","15.2","","10.0","","71","","23","","13","","25.0","","100.11","","","","","","Mostly Cloudy"
"2009-05-24 01:00","2009","05","24","01:00","15.3","","9.4","","68","","23","","11","","25.0","","100.09","","","","","","Mostly Cloudy"
"2009-05-24 02:00","2009","05","24","02:00","14.9","","9.7","","71","","23","","6","","25.0","","100.05","","","","","","Cloudy"
"2009-05-24 03:00","2009","05","24","03:00","14.2","","9.8","","75","","23","","7","","25.0","","100.04","","","","","","Mostly Cloudy"
"2009-05-24 04:00","2009","05","24","04:00","14.3","","10.1","","76","","23","","7","","25.0","","100.07","","","","","","Mostly Cloudy"
"2009-05-24 05:00","2009","05","24","05:00","13.9","","10.5","","80","","22","","7","","24.1","","100.07","","","","","","Mostly Cloudy"
"2009-05-24 06:00","2009","05","24","06:00","14.4","","11.1","","81","","23","","9","","24.1","","100.09","","","","","","Mostly Cloudy"
"2009-05-24 07:00","2009","05","24","07:00","16.2","","11.3","","73","","23","","9","","24.1","","100.09","","","","","","Mainly Clear"
"2009-05-24 08:00","2009","05","24","08:00","17.1","","8.2","","56","","28","","19","","24.1","","100.12","","","","","","Mainly Clear"
"2009-05-24 09:00","2009","05","24","09:00","17.8","","7.4","","51","","27","","15","","24.1","","100.11","","","","","","Mainly Clear"
"2009-05-24 10:00","2009","05","24","10:00","18.1","","8.5","","53","","30","","24","","24.1","","100.14","","","","","","Mainly Clear"
"2009-05-24 11:00","2009","05","24","11:00","18.8","","8.3","","50","","28","","28","","24.1","","100.14","","","","","","Mainly Clear"
"2009-05-24 12:00","2009","05","24","12:00","20.1","","9.3","","50","","29","","22","","24.1","","100.15","","","","","","Mostly Cloudy"
"2009-05-24 13:00","2009","05","24","13:00","20.8","","7.4","","42","","28","","28","","24.1","","100.13","","","","","","Mostly Cloudy"
"2009-05-24 14:00","2009","05","24","14:00","20.9","","6.5","","39","","26","","15","","24.1","","100.13","","","","","","Mainly Clear"
"2009-05-24 15:00","2009","05","24","15:00","20.5","","5.8","","38","","29","","22","","24.1","","100.14","","","","","","Mainly Clear"
"2009-05-24 16:00","2009","05","24","16:00","20.4","","4.4","","35","","29","","26","","24.1","","100.15","","","","","","Mainly Clear"
"2009-05-24 17:00","2009","05","24","17:00","19.9","","3.1","","33","","30","","26","","24.1","","100.14","","","","","","Clear"
"2009-05-24 18:00","2009","05","24","18:00","19.3","","2.1","","32","","30","","22","","24.1","","100.14","","","","","","Clear"
"2009-05-24 19:00","2009","05","24","19:00","18.0","","1.6","","33","","30","","17","","24.1","","100.18","","","","","","Clear"
"2009-05-24 20:00","2009","05","24","20:00","14.0","","1.6","","43","","33","","11","","25.0","","100.20","","","","","","Clear"
"2009-05-24 21:00","2009","05","24","21:00","14.5","","0.0","","37","","36","","7","","25.0","","100.27","","","","","","Clear"
"2009-05-24 22:00","2009","05","24","22:00","14.3","","0.0","","37","","2","","6","","25.0","","100.29","","","","","","Clear"
"2009-05-24 23:00","2009","05","24","23:00","13.9","","-0.2","","38","","","","0","","25.0","","100.34","","","","","","Mainly Clear"
"2009-05-25 00:00","2009","05","25","00:00","12.5","","0.9","","45","","24","","4","","25.0","","100.35","","","","","","Mainly Clear"
"2009-05-25 01:00","2009","05","25","01:00","11.6","","2.2","","52","","22","","6","","25.0","","100.34","","","","","","Mainly Clear"
"2009-05-25 02:00","2009","05","25","02:00","10.0","","4.0","","66","","21","","7","","25.0","","100.31","","","","","","Mainly Clear"
"2009-05-25 03:00","2009","05","25","03:00","7.0","","3.9","","81","","32","","11","","25.0","","100.34","","","","","","Clear"
"2009-05-25 04:00","2009","05","25","04:00","9.6","","1.4","","57","","34","","20","","25.0","","100.46","","","","","","Clear"
"2009-05-25 05:00","2009","05","25","05:00","8.9","","2.7","","65","","35","","20","","24.1","","100.55","","","","","","Mainly Clear"
"2009-05-25 06:00","2009","05","25","06:00","9.1","","2.7","","64","","34","","28","","24.1","","100.68","","","","","","Mainly Clear"
"2009-05-25 07:00","2009","05","25","07:00","8.4","","-0.4","","54","","35","","32","","24.1","","100.79","","","","","","Mainly Clear"
"2009-05-25 08:00","2009","05","25","08:00","9.3","","-3.1","","42","","32","","17","","24.1","","100.87","","","","","","Mostly Cloudy"
"2009-05-25 09:00","2009","05","25","09:00","9.7","","-3.7","","39","","34","","22","","24.1","","100.87","","","","","","Mostly Cloudy"
"2009-05-25 10:00","2009","05","25","10:00","10.6","","-4.5","","34","","35","","26","","24.1","","100.93","","","","","","Mostly Cloudy"
"2009-05-25 11:00","2009","05","25","11:00","11.3","","-3.8","","34","","35","","28","","24.1","","100.93","","","","","","Mostly Cloudy"
"2009-05-25 12:00","2009","05","25","12:00","11.8","","-2.9","","36","","34","","19","","24.1","","100.92","","","","","","Mostly Cloudy"
"2009-05-25 13:00","2009","05","25","13:00","13.2","","-3.6","","31","","35","","15","","24.1","","100.90","","","","","","Mostly Cloudy"
"2009-05-25 14:00","2009","05","25","14:00","14.0","","-3.3","","30","","34","","24","","24.1","","100.89","","","","","","Mostly Cloudy"
"2009-05-25 15:00","2009","05","25","15:00","14.0","","-4.1","","28","","34","","22","","24.1","","100.87","","","","","","Mostly Cloudy"
"2009-05-25 16:00","2009","05","25","16:00","14.1","","-3.2","","30","","32","","22","","24.1","","100.87","","","","","","Mainly Clear"
"2009-05-25 17:00","2009","05","25","17:00","14.2","","-2.7","","31","","36","","17","","24.1","","100.89","","","","","","Mainly Clear"
"2009-05-25 18:00","2009","05","25","18:00","13.5","","-3.3","","31","","36","","19","","24.1","","100.92","","","","","","Mostly Cloudy"
"2009-05-25 19:00","2009","05","25","19:00","12.2","","-4.2","","32","","2","","15","","24.1","","100.96","","","","","","Mainly Clear"
"2009-05-25 20:00","2009","05","25","20:00","10.4","","-4.4","","35","","2","","13","","24.1","","101.02","","","","","","Clear"
"2009-05-25 21:00","2009","05","25","21:00","9.5","","-4.4","","37","","3","","13","","25.0","","101.12","","","","","","Clear"
"2009-05-25 22:00","2009","05","25","22:00","8.5","","-4.1","","41","","2","","11","","25.0","","101.16","","","","","","Clear"
"2009-05-25 23:00","2009","05","25","23:00","8.3","","-4.1","","41","","3","","11","","25.0","","101.19","","","","","","Clear"
"2009-05-26 00:00","2009","05","26","00:00","6.5","","-3.5","","49","","3","","9","","25.0","","101.21","","","","","","Clear"
"2009-05-26 01:00","2009","05","26","01:00","5.9","","-3.6","","50","","3","","11","","25.0","","101.24","","","","","","Clear"
"2009-05-26 02:00","2009","05","26","02:00","5.5","","-3.1","","54","","4","","11","","25.0","","101.29","","","","","","Clear"
"2009-05-26 03:00","2009","05","26","03:00","4.4","","-3.4","","57","","5","","17","","25.0","","101.29","","","","","","Clear"
"2009-05-26 04:00","2009","05","26","04:00","3.5","","-3.5","","60","","7","","13","","25.0","","101.35","","","","","","Mainly Clear"
"2009-05-26 05:00","2009","05","26","05:00","3.2","","-3.4","","62","","6","","11","","24.1","","101.40","","","","","","Mainly Clear"
"2009-05-26 06:00","2009","05","26","06:00","3.7","","-2.8","","62","","8","","13","","24.1","","101.39","","","","","","Mostly Cloudy"
"2009-05-26 07:00","2009","05","26","07:00","5.2","","-2.9","","56","","9","","11","","24.1","","101.44","","","","","","Mostly Cloudy"
"2009-05-26 08:00","2009","05","26","08:00","6.6","","-3.0","","50","","11","","15","","24.1","","101.42","","","","","","Mostly Cloudy"
"2009-05-26 09:00","2009","05","26","09:00","8.4","","-1.5","","50","","10","","15","","24.1","","101.35","","","","","","Mostly Cloudy"
"2009-05-26 10:00","2009","05","26","10:00","9.4","","-1.5","","46","","7","","17","","24.1","","101.31","","","","","","Mainly Clear"
"2009-05-26 11:00","2009","05","26","11:00","11.1","","-1.5","","41","","9","","9","","24.1","","101.27","","","","","","Mainly Clear"
"2009-05-26 12:00","2009","05","26","12:00","13.1","","-1.2","","37","","10","","7","","24.1","","101.15","","","","","","Mainly Clear"
"2009-05-26 13:00","2009","05","26","13:00","14.7","","-1.4","","33","","8","","17","","24.1","","101.06","","","","","","Mainly Clear"
"2009-05-26 14:00","2009","05","26","14:00","16.3","","-2.0","","28","","9","","17","","24.1","","100.95","","","","","","Mainly Clear"
"2009-05-26 15:00","2009","05","26","15:00","16.5","","-1.7","","29","","9","","17","","24.1","","100.85","","","","","","Mostly Cloudy"
"2009-05-26 16:00","2009","05","26","16:00","17.2","","0.0","","31","","9","","11","","24.1","","100.78","","","","","","Mostly Cloudy"
"2009-05-26 17:00","2009","05","26","17:00","17.0","","-0.2","","31","","11","","11","","24.1","","100.72","","","","","","Mainly Clear"
"2009-05-26 18:00","2009","05","26","18:00","16.4","","0.0","","33","","9","","17","","24.1","","100.68","","","","","","Cloudy"
"2009-05-26 19:00","2009","05","26","19:00","14.2","","-0.1","","37","","8","","13","","24.1","","100.67","","","","","","Cloudy"
"2009-05-26 20:00","2009","05","26","20:00","12.4","","-0.6","","41","","7","","11","","24.1","","100.65","","","","","","Cloudy"
"2009-05-26 21:00","2009","05","26","21:00","11.9","","-0.5","","42","","7","","15","","25.0","","100.63","","","","","","Mostly Cloudy"
"2009-05-26 22:00","2009","05","26","22:00","11.3","","-1.0","","42","","8","","13","","25.0","","100.59","","","","","","Mostly Cloudy"
"2009-05-26 23:00","2009","05","26","23:00","10.9","","-0.1","","47","","8","","15","","25.0","","100.53","","","","","","Mostly Cloudy"
"2009-05-27 00:00","2009","05","27","00:00","10.6","","0.5","","50","","8","","15","","25.0","","100.48","","","","","","Cloudy"
"2009-05-27 01:00","2009","05","27","01:00","10.2","","1.0","","53","","8","","15","","25.0","","100.43","","","","","","Cloudy"
"2009-05-27 02:00","2009","05","27","02:00","10.4","","1.4","","54","","9","","15","","25.0","","100.33","","","","","","Cloudy"
"2009-05-27 03:00","2009","05","27","03:00","10.5","","1.9","","55","","9","","11","","25.0","","100.27","","","","","","Cloudy"
"2009-05-27 04:00","2009","05","27","04:00","10.7","","2.4","","56","","9","","11","","24.1","","100.18","","","","","","Cloudy"
"2009-05-27 05:00","2009","05","27","05:00","10.6","","4.2","","65","","9","","11","","24.1","","100.15","","","","","","Cloudy"
"2009-05-27 06:00","2009","05","27","06:00","10.7","","7.3","","79","","11","","9","","24.1","","100.13","","","","","","Cloudy"
"2009-05-27 07:00","2009","05","27","07:00","10.5","","9.5","","94","","11","","15","","9.7","","100.07","","","","","","Rain,Fog"
"2009-05-27 08:00","2009","05","27","08:00","10.4","","9.2","","92","","9","","11","","8.0","","100.03","","","","","","Rain,Fog"
"2009-05-27 09:00","2009","05","27","09:00","10.7","","9.8","","94","","9","","9","","9.7","","99.99","","","","","","Rain,Fog"
"2009-05-27 10:00","2009","05","27","10:00","11.4","","10.5","","94","","8","","7","","4.8","","99.98","","","","","","Rain,Fog"
"2009-05-27 11:00","2009","05","27","11:00","11.1","","10.6","","97","","8","","13","","9.7","","99.95","","","","","","Rain,Fog"
"2009-05-27 12:00","2009","05","27","12:00","11.2","","10.4","","95","","7","","11","","8.0","","99.90","","","","","","Rain,Fog"
"2009-05-27 13:00","2009","05","27","13:00","11.5","","10.8","","95","","7","","13","","4.8","","99.87","","","","","","Rain,Drizzle,Fog"
"2009-05-27 14:00","2009","05","27","14:00","11.9","","11.0","","94","","5","","11","","4.8","","99.87","","","","","","Rain,Drizzle,Fog"
"2009-05-27 15:00","2009","05","27","15:00","12.3","","11.2","","93","","5","","11","","9.7","","99.86","","","","","","Rain,Fog"
"2009-05-27 16:00","2009","05","27","16:00","12.5","","11.5","","94","","7","","13","","9.7","","99.84","","","","","","Rain,Fog"
"2009-05-27 17:00","2009","05","27","17:00","11.6","","10.6","","94","","8","","17","","9.7","","99.87","","","","","","Rain,Fog"
"2009-05-27 18:00","2009","05","27","18:00","11.0","","10.0","","94","","6","","15","","9.7","","99.87","","","","","","Rain,Fog"
"2009-05-27 19:00","2009","05","27","19:00","10.8","","10.0","","95","","7","","13","","9.7","","99.89","","","","","","Rain,Fog"
"2009-05-27 20:00","2009","05","27","20:00","10.8","","9.9","","94","","5","","15","","9.7","","99.92","","","","","","Rain,Fog"
"2009-05-27 21:00","2009","05","27","21:00","10.9","","10.1","","95","","7","","13","","9.7","","99.94","","","","","","Rain,Fog"
"2009-05-27 22:00","2009","05","27","22:00","10.9","","10.1","","95","","7","","17","","9.7","","99.92","","","","","","Rain,Fog"
"2009-05-27 23:00","2009","05","27","23:00","10.8","","10.0","","95","","6","","15","","9.7","","99.92","","","","","","Rain,Fog"
"2009-05-28 00:00","2009","05","28","00:00","10.7","","10.1","","96","","6","","15","","4.8","","99.88","","","","","","Rain,Fog"
"2009-05-28 01:00","2009","05","28","01:00","10.7","","10.0","","95","","7","","22","","4.8","","99.89","","","","","","Fog"
"2009-05-28 02:00","2009","05","28","02:00","10.6","","9.9","","95","","6","","20","","4.8","","99.87","","","","","","Fog"
"2009-05-28 03:00","2009","05","28","03:00","10.4","","9.7","","95","","7","","26","","4.8","","99.84","","","","","","Rain,Fog"
"2009-05-28 04:00","2009","05","28","04:00","10.3","","9.2","","93","","8","","17","","11.3","","99.84","","","","","","Cloudy"
"2009-05-28 05:00","2009","05","28","05:00","10.2","","8.9","","92","","8","","19","","16.1","","99.85","","","","","","Cloudy"
"2009-05-28 06:00","2009","05","28","06:00","10.3","","8.6","","89","","8","","26","","16.1","","99.84","","","","","","Cloudy"
"2009-05-28 07:00","2009","05","28","07:00","10.4","","8.7","","89","","9","","22","","19.3","","99.85","","","","","","Cloudy"
"2009-05-28 08:00","2009","05","28","08:00","10.7","","8.6","","87","","9","","24","","24.1","","99.82","","","","","","Cloudy"
"2009-05-28 09:00","2009","05","28","09:00","11.1","","8.6","","85","","8","","26","","24.1","","99.78","","","","","","Cloudy"
"2009-05-28 10:00","2009","05","28","10:00","12.1","","9.3","","83","","8","","22","","24.1","","99.69","","","","","","Cloudy"
"2009-05-28 11:00","2009","05","28","11:00","12.7","","9.6","","81","","9","","24","","24.1","","99.65","","","","","","Cloudy"
"2009-05-28 12:00","2009","05","28","12:00","13.1","","10.6","","85","","9","","17","","19.3","","99.59","","","","","","Rain"
"2009-05-28 13:00","2009","05","28","13:00","13.2","","11.5","","89","","9","","19","","24.1","","99.53","","","","","","Rain"
"2009-05-28 14:00","2009","05","28","14:00","13.0","","11.6","","91","","9","","22","","24.1","","99.46","","","","","","Rain"
"2009-05-28 15:00","2009","05","28","15:00","13.3","","11.9","","91","","9","","19","","24.1","","99.38","","","","","","Rain"
"2009-05-28 16:00","2009","05","28","16:00","13.4","","12.1","","92","","9","","17","","24.1","","99.33","","","","","","Rain"
"2009-05-28 17:00","2009","05","28","17:00","13.4","","12.2","","92","","9","","19","","24.1","","99.25","","","","","","Rain"
"2009-05-28 18:00","2009","05","28","18:00","13.4","","12.2","","92","","7","","13","","16.1","","99.22","","","","","","Rain"
"2009-05-28 19:00","2009","05","28","19:00","13.1","","12.1","","94","","8","","13","","16.1","","99.18","","","","","","Cloudy"
"2009-05-28 20:00","2009","05","28","20:00","13.0","","12.1","","94","","6","","13","","16.1","","99.14","","","","","","Cloudy"
"2009-05-28 21:00","2009","05","28","21:00","12.8","","12.0","","95","","6","","13","","19.3","","99.10","","","","","","Cloudy"
"2009-05-28 22:00","2009","05","28","22:00","12.6","","12.0","","96","","7","","11","","8.0","","99.01","","","","","","Rain,Fog"
"2009-05-28 23:00","2009","05","28","23:00","13.0","","12.4","","96","","7","","13","","8.0","","98.94","","","","","","Rain,Fog"
"2009-05-29 00:00","2009","05","29","00:00","13.5","","13.0","","97","","8","","9","","6.4","","98.88","","","","","","Rain,Fog"
"2009-05-29 01:00","2009","05","29","01:00","13.7","","13.3","","97","","8","","7","","4.0","","98.82","","","","","","Rain,Fog"
"2009-05-29 02:00","2009","05","29","02:00","13.8","","13.3","","97","","7","","9","","2.4","","98.75","","","","","","Rain,Fog"
"2009-05-29 03:00","2009","05","29","03:00","15.0","","14.1","","94","","14","","9","","6.4","","98.68","","","","","","Rain,Fog"
"2009-05-29 04:00","2009","05","29","04:00","16.9","","16.1","","95","","18","","15","","8.0","","98.64","","","","","","Rain,Fog"
"2009-05-29 05:00","2009","05","29","05:00","17.2","","16.4","","95","","22","","15","","6.4","","98.64","","","","","","Rain,Fog"
"2009-05-29 06:00","2009","05","29","06:00","17.1","","16.2","","94","","22","","13","","16.1","","98.71","","","","","","Cloudy"
"2009-05-29 07:00","2009","05","29","07:00","17.0","","16.2","","95","","23","","9","","16.1","","98.73","","","","","","Cloudy"
"2009-05-29 08:00","2009","05","29","08:00","17.6","","16.4","","93","","25","","11","","24.1","","98.75","","","","","","Cloudy"
"2009-05-29 09:00","2009","05","29","09:00","17.1","","15.6","","91","","27","","7","","24.1","","98.76","","","","","","Cloudy"
"2009-05-29 10:00","2009","05","29","10:00","16.1","","15.3","","95","","30","","9","","9.7","","98.76","","","","","","Rain,Fog"
"2009-05-29 11:00","2009","05","29","11:00","15.3","","14.4","","94","","29","","13","","4.8","","98.79","","","","","","Rain,Fog"
"2009-05-29 12:00","2009","05","29","12:00","15.4","","14.8","","96","","27","","11","","4.8","","98.84","","","","","","Rain,Drizzle,Fog"
"2009-05-29 13:00","2009","05","29","13:00","15.1","","13.9","","93","","26","","15","","19.3","","98.88","","","","","","Rain"
"2009-05-29 14:00","2009","05","29","14:00","16.0","","14.1","","88","","27","","19","","24.1","","98.92","","","","","","Cloudy"
"2009-05-29 15:00","2009","05","29","15:00","16.2","","13.4","","83","","29","","26","","24.1","","98.94","","","","","","Cloudy"
"2009-05-29 16:00","2009","05","29","16:00","16.8","","13.1","","79","","29","","20","","24.1","","98.98","","","","","","Mostly Cloudy"
"2009-05-29 17:00","2009","05","29","17:00","16.2","","12.4","","78","","29","","24","","24.1","","99.04","","","","","","Mostly Cloudy"
"2009-05-29 18:00","2009","05","29","18:00","15.3","","11.7","","79","","29","","19","","24.1","","99.14","","","","","","Cloudy"
"2009-05-29 19:00","2009","05","29","19:00","14.9","","11.6","","81","","30","","11","","24.1","","99.17","","","","","","Mostly Cloudy"
"2009-05-29 20:00","2009","05","29","20:00","13.1","","10.6","","85","","27","","9","","24.1","","99.22","","","","","","Mainly Clear"
"2009-05-29 21:00","2009","05","29","21:00","12.5","","10.4","","87","","26","","9","","25.0","","99.25","","","","","","Mainly Clear"
"2009-05-29 22:00","2009","05","29","22:00","11.5","","10.1","","91","","28","","7","","25.0","","99.24","","","","","","Clear"
"2009-05-29 23:00","2009","05","29","23:00","10.9","","9.8","","93","","29","","6","","25.0","","99.24","","","","","","Mainly Clear"
"2009-05-30 00:00","2009","05","30","00:00","11.4","","10.3","","93","","29","","6","","25.0","","99.21","","","","","","Cloudy"
"2009-05-30 01:00","2009","05","30","01:00","10.5","","9.8","","95","","21","","6","","19.3","","99.17","","","","","","Rain"
"2009-05-30 02:00","2009","05","30","02:00","11.0","","10.4","","96","","24","","4","","24.1","","99.11","","","","","","Cloudy"
"2009-05-30 03:00","2009","05","30","03:00","11.0","","10.4","","96","","29","","7","","16.1","","99.09","","","","","","Rain"
"2009-05-30 04:00","2009","05","30","04:00","11.2","","10.7","","97","","30","","7","","16.1","","99.07","","","","","","Rain"
"2009-05-30 05:00","2009","05","30","05:00","11.4","","10.6","","95","","32","","11","","19.3","","99.11","","","","","","Cloudy"
"2009-05-30 06:00","2009","05","30","06:00","10.6","","9.5","","93","","36","","11","","6.4","","99.14","","","","","","Rain,Fog"
"2009-05-30 07:00","2009","05","30","07:00","10.4","","9.0","","91","","32","","22","","24.1","","99.16","","","","","","Mostly Cloudy"
"2009-05-30 08:00","2009","05","30","08:00","10.1","","8.2","","88","","33","","22","","24.1","","99.21","","","","","","Cloudy"
"2009-05-30 09:00","2009","05","30","09:00","11.2","","8.3","","82","","30","","24","","24.1","","99.26","","","","","","Mostly Cloudy"
"2009-05-30 10:00","2009","05","30","10:00","12.6","","8.1","","74","","26","","22","","24.1","","99.27","","","","","","Mostly Cloudy"
"2009-05-30 11:00","2009","05","30","11:00","10.9","","6.8","","76","","27","","24","","24.1","","99.32","","","","","","Mostly Cloudy"
"2009-05-30 12:00","2009","05","30","12:00","11.6","","6.5","","71","","30","","20","","24.1","","99.32","","","","","","Mostly Cloudy"
"2009-05-30 13:00","2009","05","30","13:00","12.6","","7.1","","69","","25","","20","","24.1","","99.30","","","","","","Mostly Cloudy"
"2009-05-30 14:00","2009","05","30","14:00","14.2","","6.7","","61","","27","","19","","24.1","","99.25","","","","","","Mostly Cloudy"
"2009-05-30 15:00","2009","05","30","15:00","15.6","","7.2","","57","","27","","19","","24.1","","99.20","","","","","","Mainly Clear"
"2009-05-30 16:00","2009","05","30","16:00","16.7","","6.8","","52","","25","","9","","24.1","","99.15","","","","","","Mainly Clear"
"2009-05-30 17:00","2009","05","30","17:00","17.9","","6.8","","48","","20","","11","","24.1","","99.07","","","","","","Mainly Clear"
"2009-05-30 18:00","2009","05","30","18:00","17.5","","9.9","","61","","20","","20","","24.1","","99.04","","","","","","Mainly Clear"
"2009-05-30 19:00","2009","05","30","19:00","15.8","","9.0","","64","","19","","19","","25.0","","99.02","","","","","","Mainly Clear"
"2009-05-30 20:00","2009","05","30","20:00","14.4","","8.4","","67","","19","","19","","24.1","","99.04","","","","","","Mainly Clear"
"2009-05-30 21:00","2009","05","30","21:00","13.5","","7.8","","68","","19","","15","","25.0","","99.04","","","","","","Mostly Cloudy"
"2009-05-30 22:00","2009","05","30","22:00","12.7","","7.4","","70","","18","","9","","25.0","","98.97","","","","","","Mostly Cloudy"
"2009-05-30 23:00","2009","05","30","23:00","12.3","","7.1","","71","","18","","15","","25.0","","98.93","","","","","","Cloudy"
"2009-05-31 00:00","2009","05","31","00:00","12.0","","7.4","","73","","19","","11","","25.0","","98.87","","","","","","Mostly Cloudy"
"2009-05-31 01:00","2009","05","31","01:00","10.9","","7.8","","81","","20","","9","","25.0","","98.87","","","","","","Mostly Cloudy"
"2009-05-31 02:00","2009","05","31","02:00","10.5","","8.2","","86","","23","","15","","25.0","","98.88","","","","","","Mostly Cloudy"
"2009-05-31 03:00","2009","05","31","03:00","10.2","","8.1","","87","","23","","17","","25.0","","98.90","","","","","","Mainly Clear"
"2009-05-31 04:00","2009","05","31","04:00","9.4","","7.6","","89","","24","","13","","25.0","","98.91","","","","","","Mainly Clear"
"2009-05-31 05:00","2009","05","31","05:00","8.7","","6.1","","84","","25","","17","","24.1","","98.94","","","","","","Mainly Clear"
"2009-05-31 06:00","2009","05","31","06:00","9.1","","5.2","","77","","26","","24","","24.1","","98.99","","","","","","Mainly Clear"
"2009-05-31 07:00","2009","05","31","07:00","8.6","","2.7","","66","","29","","28","","24.1","","99.09","","","","","","Mainly Clear"
"2009-05-31 08:00","2009","05","31","08:00","8.8","","2.2","","63","","30","","20","","24.1","","99.14","","","","","","Mainly Clear"
"2009-05-31 09:00","2009","05","31","09:00","9.7","","1.5","","57","","28","","19","","24.1","","99.16","","","","","","Mainly Clear"
"2009-05-31 10:00","2009","05","31","10:00","9.2","","-0.3","","51","","29","","17","","24.1","","99.19","","","","","","Mostly Cloudy"
"2009-05-31 11:00","2009","05","31","11:00","10.7","","0.0","","47","","26","","19","","24.1","","99.18","","","","","","Mostly Cloudy"
"2009-05-31 12:00","2009","05","31","12:00","10.7","","0.0","","47","","26","","19","","24.1","","99.20","","","","","","Mostly Cloudy"
"2009-05-31 13:00","2009","05","31","13:00","4.6","","2.3","","85","","30","","26","","24.1","","99.40","","","","","","Mostly Cloudy"
"2009-05-31 14:00","2009","05","31","14:00","6.8","","3.4","","79","","27","","24","","24.1","","99.45","","","","","","Mostly Cloudy"
"2009-05-31 15:00","2009","05","31","15:00","8.5","","-0.8","","52","","29","","30","","24.1","","99.50","","","","","","Mostly Cloudy"
"2009-05-31 16:00","2009","05","31","16:00","10.0","","-0.5","","48","","29","","32","","24.1","","99.60","","","","","","Mostly Cloudy"
"2009-05-31 17:00","2009","05","31","17:00","9.4","","-1.1","","48","","30","","30","","24.1","","99.69","","","","","","Mainly Clear"
"2009-05-31 18:00","2009","05","31","18:00","8.8","","-0.8","","51","","30","","28","","24.1","","99.79","","","","","","Mainly Clear"
"2009-05-31 19:00","2009","05","31","19:00","8.6","","-0.9","","51","","29","","22","","24.1","","99.87","","","","","","Mainly Clear"
"2009-05-31 20:00","2009","05","31","20:00","7.8","","-0.6","","55","","28","","19","","24.1","","99.93","","","","","","Mainly Clear"
"2009-05-31 21:00","2009","05","31","21:00","6.5","","-0.1","","63","","26","","13","","25.0","","100.01","","","","","","Mainly Clear"
"2009-05-31 22:00","2009","05","31","22:00","6.2","","0.5","","67","","23","","6","","25.0","","100.03","","","","","","Mainly Clear"
"2009-05-31 23:00","2009","05","31","23:00","5.8","","1.3","","73","","28","","9","","25.0","","100.12","","","","","","Mostly Cloudy"
