"Station Name","OTTAWA MACDONALD-CARTIER INT'L A"
"Province","ONTARIO"
"Latitude","45.32"
"Longitude","-75.67"
"Elevation","114.00"
"Climate Identifier","6106000"
"WMO Identifier","71628"
"TC Identifier","YOW"
"All times are specified in Local Standard Time (LST). Add 1 hour to adjust for Daylight Saving Time where and when it is observed."

"Legend"
"E","Estimated"
"M","Missing"
"NA","Not Available"

"Date/Time","Year","Month","Day","Time","Temp (°C)","Temp Flag","Dew Point Temp (°C)","Dew Point Temp Flag","Rel Hum (%)","Rel Hum Flag","Wind Dir (10s deg)","Wind Dir Flag","Wind Spd (km/h)","Wind Spd Flag","Visibility (km)","Visibility Flag","Stn Press (kPa)","Stn Press Flag","Hmdx","Hmdx Flag","Wind Chill","Wind Chill Flag","Weather"
"1995-06-01 00:00","1995","06","01","00:00","18.9","","12.7","","67","","24","","13","","24.1","","100.06","","","","","","Mainly Clear"
"1995-06-01 01:00","1995","06","01","01:00","17.8","","12.6","","72","","23","","11","","24.1","","100.09","","","","","","Mainly Clear"
"1995-06-01 02:00","1995","06","01","02:00","16.8","","11.8","","72","","22","","9","","24.1","","100.13","","","","","","Mostly Cloudy"
"1995-06-01 03:00","1995","06","01","03:00","16.1","","11.5","","74","","21","","7","","24.1","","100.16","","","","","","Mostly Cloudy"
"1995-06-01 04:00","1995","06","01","04:00","15.7","","11.6","","77","","21","","9","","32.2","","100.19","","","","","","Mostly Cloudy"
"1995-06-01 05:00","1995","06","01","05:00","15.4","","11.3","","77","","20","","7","","32.2","","100.23","","","","","","Cloudy"
"1995-06-01 06:00","1995","06","01","06:00","15.7","","11.9","","78","","20","","13","","24.1","","100.26","","","","","","Cloudy"
"1995-06-01 07:00","1995","06","01","07:00","16.7","","12.6","","77","","20","","13","","32.2","","100.26","","","","","","Mostly Cloudy"
"1995-06-01 08:00","1995","06","01","08:00","19.9","","13.0","","64","","21","","15","","32.2","","100.26","","","","","","Mainly Clear"
"1995-06-01 09:00","1995","06","01","09:00","22.2","","13.5","","58","","23","","19","","32.2","","100.29","","25","","","","Mostly Cloudy"
"1995-06-01 10:00","1995","06","01","10:00","24.9","","13.6","","49","","22","","20","","32.2","","100.23","","28","","","","Mostly Cloudy"
"1995-06-01 11:00","1995","06","01","11:00","26.1","","14.4","","48","","22","","24","","32.2","","100.23","","30","","","","Mostly Cloudy"
"1995-06-01 12:00","1995","06","01","12:00","27.1","","13.2","","42","","21","","26","","32.2","","100.19","","30","","","","Mostly Cloudy"
"1995-06-01 13:00","1995","06","01","13:00","27.1","","13.2","","42","","21","","22","","32.2","","100.16","","30","","","","Mostly Cloudy"
"1995-06-01 14:00","1995","06","01","14:00","26.4","","14.1","","47","","21","","26","","24.1","","100.16","","30","","","","Cloudy"
"1995-06-01 15:00","1995","06","01","15:00","26.6","","12.8","","42","","21","","26","","24.1","","100.13","","29","","","","Cloudy"
"1995-06-01 16:00","1995","06","01","16:00","26.5","","13.6","","45","","20","","26","","32.2","","100.13","","30","","","","Cloudy"
"1995-06-01 17:00","1995","06","01","17:00","25.6","","13.2","","46","","21","","26","","32.2","","100.13","","29","","","","Cloudy"
"1995-06-01 18:00","1995","06","01","18:00","25.6","","13.4","","47","","21","","19","","24.1","","100.13","","29","","","","Mostly Cloudy"
"1995-06-01 19:00","1995","06","01","19:00","24.0","","12.9","","50","","21","","11","","32.2","","100.16","","27","","","","Mostly Cloudy"
"1995-06-01 20:00","1995","06","01","20:00","22.4","","12.7","","54","","17","","6","","32.2","","100.16","","25","","","","Mostly Cloudy"
"1995-06-01 21:00","1995","06","01","21:00","20.7","","12.6","","60","","19","","9","","24.1","","100.19","","","","","","Mostly Cloudy"
"1995-06-01 22:00","1995","06","01","22:00","19.8","","12.1","","61","","20","","6","","24.1","","100.16","","","","","","Mainly Clear"
"1995-06-01 23:00","1995","06","01","23:00","19.0","","12.0","","64","","20","","6","","24.1","","100.19","","","","","","Mostly Cloudy"
"1995-06-02 00:00","1995","06","02","00:00","18.6","","12.3","","67","","22","","6","","24.1","","100.23","","","","","","Mostly Cloudy"
"1995-06-02 01:00","1995","06","02","01:00","17.9","","12.4","","70","","19","","7","","24.1","","100.23","","","","","","Mainly Clear"
"1995-06-02 02:00","1995","06","02","02:00","17.2","","12.4","","73","","22","","7","","24.1","","100.23","","","","","","Mainly Clear"
"1995-06-02 03:00","1995","06","02","03:00","16.4","","12.4","","77","","21","","9","","24.1","","100.23","","","","","","Mostly Cloudy"
"1995-06-02 04:00","1995","06","02","04:00","16.5","","12.2","","76","","20","","7","","19.3","","100.19","","","","","","Mostly Cloudy"
"1995-06-02 05:00","1995","06","02","05:00","16.0","","11.9","","77","","23","","9","","19.3","","100.23","","","","","","Cloudy"
"1995-06-02 06:00","1995","06","02","06:00","16.5","","12.3","","76","","21","","7","","16.1","","100.23","","","","","","Cloudy"
"1995-06-02 07:00","1995","06","02","07:00","17.6","","12.8","","73","","22","","9","","12.9","","100.29","","","","","","Cloudy"
"1995-06-02 08:00","1995","06","02","08:00","19.7","","13.6","","68","","22","","11","","9.7","","100.29","","","","","","Haze"
"1995-06-02 09:00","1995","06","02","09:00","21.7","","14.6","","64","","24","","6","","9.7","","100.23","","25","","","","Haze"
"1995-06-02 10:00","1995","06","02","10:00","23.2","","14.1","","57","","23","","7","","9.7","","100.23","","27","","","","Haze"
"1995-06-02 11:00","1995","06","02","11:00","23.7","","14.1","","55","","22","","7","","9.7","","100.23","","27","","","","Haze"
"1995-06-02 12:00","1995","06","02","12:00","23.0","","13.8","","56","","21","","15","","9.7","","100.23","","26","","","","Haze"
"1995-06-02 13:00","1995","06","02","13:00","20.7","","14.4","","67","","20","","7","","9.7","","100.29","","","","","","Rain Showers,Haze"
"1995-06-02 14:00","1995","06","02","14:00","19.6","","14.3","","71","","20","","6","","9.7","","100.29","","","","","","Rain Showers,Haze"
"1995-06-02 15:00","1995","06","02","15:00","19.4","","14.4","","73","","19","","6","","12.9","","100.23","","","","","","Rain"
"1995-06-02 16:00","1995","06","02","16:00","19.3","","14.8","","75","","17","","4","","16.1","","100.19","","","","","","Cloudy"
"1995-06-02 17:00","1995","06","02","17:00","19.4","","15.2","","77","","17","","6","","12.9","","100.13","","","","","","Cloudy"
"1995-06-02 18:00","1995","06","02","18:00","19.6","","16.0","","80","","14","","6","","12.9","","100.13","","","","","","Cloudy"
"1995-06-02 19:00","1995","06","02","19:00","19.4","","16.4","","83","","","","0","","12.9","","100.13","","","","","","Cloudy"
"1995-06-02 20:00","1995","06","02","20:00","18.9","","16.2","","84","","","","0","","9.7","","100.09","","","","","","Rain Showers,Haze"
"1995-06-02 21:00","1995","06","02","21:00","18.4","","16.3","","88","","8","","4","","9.7","","100.03","","","","","","Rain,Haze"
"1995-06-02 22:00","1995","06","02","22:00","17.7","","16.2","","91","","6","","6","","9.7","","100.03","","","","","","Fog"
"1995-06-02 23:00","1995","06","02","23:00","17.4","","16.0","","91","","6","","11","","6.4","","99.96","","","","","","Rain,Fog"
"1995-06-03 00:00","1995","06","03","00:00","17.2","","15.9","","92","","8","","4","","3.2","","99.93","","","","","","Heavy Rain Showers,Fog"
"1995-06-03 01:00","1995","06","03","01:00","16.4","","15.5","","94","","3","","19","","3.2","","99.82","","","","","","Heavy Rain Showers,Fog"
"1995-06-03 02:00","1995","06","03","02:00","16.2","","15.5","","96","","5","","13","","4.0","","99.89","","","","","","Moderate Rain Showers,Fog"
"1995-06-03 03:00","1995","06","03","03:00","16.0","","15.1","","94","","4","","13","","4.8","","99.89","","","","","","Rain Showers,Fog"
"1995-06-03 04:00","1995","06","03","04:00","15.2","","14.1","","93","","5","","22","","4.8","","99.82","","","","","","Heavy Rain Showers,Fog"
"1995-06-03 05:00","1995","06","03","05:00","15.4","","14.2","","93","","5","","20","","6.4","","99.82","","","","","","Rain Showers,Fog"
"1995-06-03 06:00","1995","06","03","06:00","15.6","","14.4","","93","","5","","19","","11.3","","99.86","","","","","","Rain Showers"
"1995-06-03 07:00","1995","06","03","07:00","15.6","","14.4","","93","","6","","19","","8.0","","99.86","","","","","","Rain Showers,Fog"
"1995-06-03 08:00","1995","06","03","08:00","15.2","","14.2","","94","","5","","20","","8.0","","99.89","","","","","","Rain Showers,Fog"
"1995-06-03 09:00","1995","06","03","09:00","15.1","","14.2","","94","","4","","17","","4.8","","99.93","","","","","","Rain Showers,Fog"
"1995-06-03 10:00","1995","06","03","10:00","15.8","","14.8","","94","","8","","7","","16.1","","99.93","","","","","","Rain Showers"
"1995-06-03 11:00","1995","06","03","11:00","16.5","","15.4","","93","","5","","15","","19.3","","99.93","","","","","","Cloudy"
"1995-06-03 12:00","1995","06","03","12:00","17.2","","15.8","","91","","1","","19","","19.3","","99.86","","","","","","Cloudy"
"1995-06-03 13:00","1995","06","03","13:00","17.9","","15.7","","87","","1","","17","","19.3","","99.93","","","","","","Rain Showers"
"1995-06-03 14:00","1995","06","03","14:00","17.5","","15.7","","89","","1","","17","","24.1","","99.96","","","","","","Rain Showers"
"1995-06-03 15:00","1995","06","03","15:00","17.0","","15.6","","91","","36","","19","","19.3","","99.96","","","","","","Rain Showers"
"1995-06-03 16:00","1995","06","03","16:00","17.4","","16.1","","92","","36","","15","","19.3","","99.99","","","","","","Rain Showers"
"1995-06-03 17:00","1995","06","03","17:00","18.1","","16.6","","91","","35","","15","","19.3","","99.99","","","","","","Rain Showers"
"1995-06-03 18:00","1995","06","03","18:00","17.9","","15.7","","87","","36","","17","","24.1","","99.99","","","","","","Cloudy"
"1995-06-03 19:00","1995","06","03","19:00","17.1","","14.2","","83","","1","","17","","32.2","","100.06","","","","","","Mostly Cloudy"
"1995-06-03 20:00","1995","06","03","20:00","16.2","","13.6","","85","","34","","11","","24.1","","100.09","","","","","","Mostly Cloudy"
"1995-06-03 21:00","1995","06","03","21:00","15.4","","13.6","","89","","32","","9","","24.1","","100.13","","","","","","Mainly Clear"
"1995-06-03 22:00","1995","06","03","22:00","14.9","","13.4","","91","","33","","11","","24.1","","100.16","","","","","","Mainly Clear"
"1995-06-03 23:00","1995","06","03","23:00","14.3","","12.9","","91","","32","","13","","24.1","","100.19","","","","","","Clear"
"1995-06-04 00:00","1995","06","04","00:00","13.8","","12.6","","92","","31","","13","","24.1","","100.23","","","","","","Mainly Clear"
"1995-06-04 01:00","1995","06","04","01:00","13.5","","12.3","","92","","31","","9","","24.1","","100.19","","","","","","Mainly Clear"
"1995-06-04 02:00","1995","06","04","02:00","12.8","","11.8","","94","","32","","6","","24.1","","100.23","","","","","","Clear"
"1995-06-04 03:00","1995","06","04","03:00","12.2","","10.5","","89","","34","","11","","24.1","","100.29","","","","","","Mainly Clear"
"1995-06-04 04:00","1995","06","04","04:00","12.1","","9.0","","81","","35","","19","","40.2","","100.29","","","","","","Mainly Clear"
"1995-06-04 05:00","1995","06","04","05:00","11.5","","8.5","","82","","32","","13","","40.2","","100.39","","","","","","Mainly Clear"
"1995-06-04 06:00","1995","06","04","06:00","12.3","","8.2","","76","","35","","22","","40.2","","100.46","","","","","","Mainly Clear"
"1995-06-04 07:00","1995","06","04","07:00","13.4","","8.0","","70","","32","","17","","40.2","","100.53","","","","","","Mainly Clear"
"1995-06-04 08:00","1995","06","04","08:00","15.0","","7.6","","61","","34","","19","","40.2","","100.60","","","","","","Mainly Clear"
"1995-06-04 09:00","1995","06","04","09:00","16.8","","7.9","","56","","35","","20","","40.2","","100.63","","","","","","Mainly Clear"
"1995-06-04 10:00","1995","06","04","10:00","18.7","","5.9","","43","","36","","13","","40.2","","100.63","","","","","","Mainly Clear"
"1995-06-04 11:00","1995","06","04","11:00","19.9","","5.5","","39","","35","","11","","40.2","","100.63","","","","","","Mostly Cloudy"
"1995-06-04 12:00","1995","06","04","12:00","19.8","","5.6","","39","","32","","13","","40.2","","100.63","","","","","","Mostly Cloudy"
"1995-06-04 13:00","1995","06","04","13:00","20.9","","6.8","","40","","27","","15","","40.2","","100.60","","","","","","Mainly Clear"
"1995-06-04 14:00","1995","06","04","14:00","21.4","","7.9","","42","","29","","13","","40.2","","100.60","","","","","","Mainly Clear"
"1995-06-04 15:00","1995","06","04","15:00","21.7","","8.4","","42","","27","","19","","40.2","","100.53","","","","","","Clear"
"1995-06-04 16:00","1995","06","04","16:00","21.5","","8.8","","44","","26","","19","","40.2","","100.53","","","","","","Clear"
"1995-06-04 17:00","1995","06","04","17:00","21.1","","9.2","","46","","26","","17","","40.2","","100.49","","","","","","Clear"
"1995-06-04 18:00","1995","06","04","18:00","20.8","","9.8","","49","","25","","11","","32.2","","100.46","","","","","","Mainly Clear"
"1995-06-04 19:00","1995","06","04","19:00","19.8","","10.6","","55","","25","","11","","24.1","","100.43","","","","","","Mainly Clear"
"1995-06-04 20:00","1995","06","04","20:00","18.6","","10.4","","59","","20","","6","","24.1","","100.43","","","","","","Clear"
"1995-06-04 21:00","1995","06","04","21:00","17.2","","10.2","","63","","18","","9","","19.3","","100.39","","","","","","Clear"
"1995-06-04 22:00","1995","06","04","22:00","16.3","","10.1","","67","","18","","7","","19.3","","100.36","","","","","","Clear"
"1995-06-04 23:00","1995","06","04","23:00","15.4","","9.7","","69","","19","","15","","19.3","","100.29","","","","","","Clear"
"1995-06-05 00:00","1995","06","05","00:00","15.3","","9.6","","69","","20","","13","","19.3","","100.29","","","","","","Clear"
"1995-06-05 01:00","1995","06","05","01:00","14.3","","9.5","","73","","20","","11","","19.3","","100.23","","","","","","Clear"
"1995-06-05 02:00","1995","06","05","02:00","13.9","","9.9","","77","","21","","13","","19.3","","100.19","","","","","","Clear"
"1995-06-05 03:00","1995","06","05","03:00","13.2","","9.3","","77","","22","","6","","19.3","","100.13","","","","","","Clear"
"1995-06-05 04:00","1995","06","05","04:00","11.9","","8.9","","82","","22","","7","","24.1","","100.13","","","","","","Clear"
"1995-06-05 05:00","1995","06","05","05:00","11.4","","8.8","","84","","23","","13","","24.1","","100.13","","","","","","Clear"
"1995-06-05 06:00","1995","06","05","06:00","12.3","","8.4","","77","","24","","7","","40.2","","100.19","","","","","","Clear"
"1995-06-05 07:00","1995","06","05","07:00","14.0","","8.9","","71","","21","","13","","40.2","","100.13","","","","","","Clear"
"1995-06-05 08:00","1995","06","05","08:00","16.2","","7.5","","56","","22","","17","","40.2","","100.09","","","","","","Clear"
"1995-06-05 09:00","1995","06","05","09:00","18.3","","8.3","","52","","21","","17","","40.2","","100.03","","","","","","Clear"
"1995-06-05 10:00","1995","06","05","10:00","20.8","","10.1","","50","","23","","17","","40.2","","99.96","","","","","","Clear"
"1995-06-05 11:00","1995","06","05","11:00","23.1","","10.3","","44","","23","","24","","40.2","","99.82","","25","","","","Mainly Clear"
"1995-06-05 12:00","1995","06","05","12:00","24.7","","11.6","","44","","22","","22","","40.2","","99.82","","27","","","","Mainly Clear"
"1995-06-05 13:00","1995","06","05","13:00","25.7","","11.7","","42","","26","","22","","32.2","","99.72","","28","","","","Mainly Clear"
"1995-06-05 14:00","1995","06","05","14:00","26.2","","11.3","","39","","27","","26","","32.2","","99.69","","28","","","","Mainly Clear"
"1995-06-05 15:00","1995","06","05","15:00","26.1","","11.5","","40","","26","","20","","32.2","","99.62","","28","","","","Mainly Clear"
"1995-06-05 16:00","1995","06","05","16:00","27.1","","13.0","","42","","26","","17","","32.2","","99.59","","30","","","","Mainly Clear"
"1995-06-05 17:00","1995","06","05","17:00","26.0","","12.8","","44","","26","","9","","32.2","","99.56","","29","","","","Mostly Cloudy"
"1995-06-05 18:00","1995","06","05","18:00","24.4","","14.9","","55","","16","","15","","32.2","","99.56","","28","","","","Mostly Cloudy"
"1995-06-05 19:00","1995","06","05","19:00","23.0","","14.7","","60","","17","","9","","32.2","","99.59","","27","","","","Mostly Cloudy"
"1995-06-05 20:00","1995","06","05","20:00","21.8","","13.9","","61","","16","","4","","32.2","","99.62","","25","","","","Mostly Cloudy"
"1995-06-05 21:00","1995","06","05","21:00","20.7","","13.9","","65","","17","","7","","24.1","","99.62","","","","","","Mainly Clear"
"1995-06-05 22:00","1995","06","05","22:00","18.1","","13.1","","73","","2","","7","","24.1","","99.62","","","","","","Clear"
"1995-06-05 23:00","1995","06","05","23:00","17.2","","12.9","","76","","5","","13","","24.1","","99.62","","","","","","Clear"
"1995-06-06 00:00","1995","06","06","00:00","15.8","","12.9","","83","","4","","13","","24.1","","99.62","","","","","","Clear"
"1995-06-06 01:00","1995","06","06","01:00","15.0","","12.8","","87","","5","","13","","24.1","","99.59","","","","","","Clear"
"1995-06-06 02:00","1995","06","06","02:00","14.5","","12.3","","87","","6","","13","","24.1","","99.59","","","","","","Clear"
"1995-06-06 03:00","1995","06","06","03:00","13.8","","12.0","","89","","5","","13","","24.1","","99.56","","","","","","Clear"
"1995-06-06 04:00","1995","06","06","04:00","13.3","","11.9","","91","","6","","13","","4.8","","99.56","","","","","","Fog"
"1995-06-06 05:00","1995","06","06","05:00","13.0","","11.7","","92","","6","","11","","6.4","","99.56","","","","","","Fog"
"1995-06-06 06:00","1995","06","06","06:00","13.1","","11.9","","92","","6","","11","","3.2","","99.59","","","","","","Fog"
"1995-06-06 07:00","1995","06","06","07:00","14.2","","12.6","","90","","","","0","","6.4","","99.59","","","","","","Fog"
"1995-06-06 08:00","1995","06","06","08:00","16.8","","13.3","","80","","33","","4","","8.0","","99.59","","","","","","Haze"
"1995-06-06 09:00","1995","06","06","09:00","19.0","","14.1","","73","","27","","4","","9.7","","99.59","","","","","","Haze"
"1995-06-06 10:00","1995","06","06","10:00","22.0","","15.3","","66","","20","","7","","9.7","","99.49","","26","","","","Haze"
"1995-06-06 11:00","1995","06","06","11:00","23.6","","15.8","","62","","21","","6","","9.7","","99.46","","28","","","","Haze"
"1995-06-06 12:00","1995","06","06","12:00","24.9","","16.7","","60","","20","","13","","12.9","","99.39","","30","","","","Mainly Clear"
"1995-06-06 13:00","1995","06","06","13:00","27.0","","14.9","","48","","19","","19","","16.1","","99.29","","31","","","","Mainly Clear"
"1995-06-06 14:00","1995","06","06","14:00","27.7","","14.5","","44","","19","","20","","19.3","","99.26","","31","","","","Mostly Cloudy"
"1995-06-06 15:00","1995","06","06","15:00","27.7","","14.2","","44","","20","","19","","24.1","","99.15","","31","","","","Mostly Cloudy"
"1995-06-06 16:00","1995","06","06","16:00","27.3","","14.4","","45","","20","","20","","24.1","","99.12","","31","","","","Mostly Cloudy"
"1995-06-06 17:00","1995","06","06","17:00","27.0","","13.6","","44","","22","","20","","24.1","","99.05","","30","","","","Mostly Cloudy"
"1995-06-06 18:00","1995","06","06","18:00","26.0","","14.2","","48","","20","","15","","24.1","","99.05","","29","","","","Mainly Clear"
"1995-06-06 19:00","1995","06","06","19:00","24.6","","13.3","","49","","27","","15","","19.3","","99.05","","28","","","","Mainly Clear"
"1995-06-06 20:00","1995","06","06","20:00","22.7","","14.0","","58","","20","","7","","16.1","","99.02","","26","","","","Mainly Clear"
"1995-06-06 21:00","1995","06","06","21:00","21.8","","13.7","","60","","22","","9","","16.1","","99.05","","25","","","","Clear"
"1995-06-06 22:00","1995","06","06","22:00","20.4","","13.1","","63","","16","","11","","16.1","","98.99","","","","","","Clear"
"1995-06-06 23:00","1995","06","06","23:00","19.8","","13.0","","65","","16","","6","","16.1","","98.99","","","","","","Clear"
"1995-06-07 00:00","1995","06","07","00:00","19.4","","13.1","","67","","18","","9","","16.1","","98.95","","","","","","Clear"
"1995-06-07 01:00","1995","06","07","01:00","18.6","","13.2","","71","","17","","6","","16.1","","98.89","","","","","","Clear"
"1995-06-07 02:00","1995","06","07","02:00","17.3","","13.3","","77","","15","","4","","16.1","","98.89","","","","","","Clear"
"1995-06-07 03:00","1995","06","07","03:00","17.1","","13.4","","79","","15","","6","","16.1","","98.85","","","","","","Clear"
"1995-06-07 04:00","1995","06","07","04:00","16.5","","13.8","","84","","14","","6","","12.9","","98.85","","","","","","Clear"
"1995-06-07 05:00","1995","06","07","05:00","16.3","","13.6","","84","","14","","4","","6.4","","98.85","","","","","","Fog"
"1995-06-07 06:00","1995","06","07","06:00","17.2","","14.0","","81","","16","","6","","6.4","","98.82","","","","","","Haze"
"1995-06-07 07:00","1995","06","07","07:00","18.6","","14.8","","79","","19","","9","","6.4","","98.79","","","","","","Haze"
"1995-06-07 08:00","1995","06","07","08:00","20.8","","15.6","","72","","19","","9","","6.4","","98.75","","25","","","","Haze"
"1995-06-07 09:00","1995","06","07","09:00","22.4","","16.6","","70","","24","","9","","6.4","","98.75","","27","","","","Haze"
"1995-06-07 10:00","1995","06","07","10:00","24.2","","16.6","","63","","24","","6","","6.4","","98.75","","29","","","","Haze"
"1995-06-07 11:00","1995","06","07","11:00","25.9","","17.7","","61","","21","","6","","8.0","","98.69","","32","","","","Haze"
"1995-06-07 12:00","1995","06","07","12:00","27.1","","17.1","","54","","20","","6","","8.0","","98.65","","32","","","","Haze"
"1995-06-07 13:00","1995","06","07","13:00","27.6","","15.7","","48","","26","","17","","8.0","","98.59","","32","","","","Haze"
"1995-06-07 14:00","1995","06","07","14:00","27.7","","16.1","","49","","23","","4","","9.7","","98.55","","32","","","","Haze"
"1995-06-07 15:00","1995","06","07","15:00","28.2","","16.7","","50","","24","","6","","9.7","","98.49","","33","","","","Haze"
"1995-06-07 16:00","1995","06","07","16:00","27.7","","17.0","","52","","22","","6","","11.3","","98.45","","33","","","","Cloudy"
"1995-06-07 17:00","1995","06","07","17:00","20.9","","19.0","","89","","","","0","","3.2","","98.59","","28","","","","Thunderstorms,Rain Showers,Fog"
"1995-06-07 18:00","1995","06","07","18:00","21.2","","18.8","","86","","","","0","","6.4","","98.59","","28","","","","Haze"
"1995-06-07 19:00","1995","06","07","19:00","21.6","","18.9","","85","","29","","19","","8.0","","98.69","","28","","","","Haze"
"1995-06-07 20:00","1995","06","07","20:00","14.9","","11.0","","77","","34","","30","","12.9","","98.82","","","","","","Mostly Cloudy"
"1995-06-07 21:00","1995","06","07","21:00","13.5","","9.2","","75","","34","","33","","12.9","","99.05","","","","","","Cloudy"
"1995-06-07 22:00","1995","06","07","22:00","11.1","","8.3","","83","","34","","33","","9.7","","99.05","","","","","","Rain Showers"
"1995-06-07 23:00","1995","06","07","23:00","10.5","","7.5","","82","","35","","28","","16.1","","99.05","","","","","","Cloudy"
"1995-06-08 00:00","1995","06","08","00:00","10.1","","6.8","","80","","35","","26","","16.1","","99.22","","","","","","Cloudy"
"1995-06-08 01:00","1995","06","08","01:00","9.4","","5.9","","79","","34","","26","","19.3","","99.36","","","","","","Cloudy"
"1995-06-08 02:00","1995","06","08","02:00","7.9","","6.1","","88","","34","","24","","11.3","","99.39","","","","","","Rain,Drizzle"
"1995-06-08 03:00","1995","06","08","03:00","7.2","","5.1","","86","","36","","24","","11.3","","99.49","","","","","","Rain"
"1995-06-08 04:00","1995","06","08","04:00","7.1","","5.3","","88","","36","","17","","12.9","","99.59","","","","","","Drizzle"
"1995-06-08 05:00","1995","06","08","05:00","7.6","","4.8","","82","","35","","19","","24.1","","99.72","","","","","","Drizzle"
"1995-06-08 06:00","1995","06","08","06:00","7.8","","4.3","","78","","36","","19","","40.2","","99.82","","","","","","Cloudy"
"1995-06-08 07:00","1995","06","08","07:00","7.9","","3.3","","73","","36","","26","","40.2","","99.89","","","","","","Mostly Cloudy"
"1995-06-08 08:00","1995","06","08","08:00","8.8","","3.1","","67","","1","","17","","40.2","","99.96","","","","","","Mostly Cloudy"
"1995-06-08 09:00","1995","06","08","09:00","10.1","","4.0","","66","","36","","19","","40.2","","100.03","","","","","","Mainly Clear"
"1995-06-08 10:00","1995","06","08","10:00","12.6","","3.2","","53","","34","","19","","40.2","","100.03","","","","","","Mainly Clear"
"1995-06-08 11:00","1995","06","08","11:00","13.4","","3.6","","51","","34","","15","","40.2","","100.13","","","","","","Mainly Clear"
"1995-06-08 12:00","1995","06","08","12:00","14.7","","3.7","","48","","33","","17","","40.2","","100.09","","","","","","Clear"
"1995-06-08 13:00","1995","06","08","13:00","16.4","","4.2","","44","","35","","20","","40.2","","100.13","","","","","","Clear"
"1995-06-08 14:00","1995","06","08","14:00","17.1","","3.0","","39","","29","","13","","40.2","","100.09","","","","","","Mainly Clear"
"1995-06-08 15:00","1995","06","08","15:00","17.9","","3.5","","38","","31","","15","","40.2","","100.13","","","","","","Clear"
"1995-06-08 16:00","1995","06","08","16:00","18.1","","3.4","","38","","30","","17","","40.2","","100.19","","","","","","Clear"
"1995-06-08 17:00","1995","06","08","17:00","17.9","","1.5","","33","","32","","20","","40.2","","100.26","","","","","","Clear"
"1995-06-08 18:00","1995","06","08","18:00","17.7","","1.4","","33","","30","","24","","40.2","","100.29","","","","","","Clear"
"1995-06-08 19:00","1995","06","08","19:00","17.2","","2.8","","38","","32","","17","","40.2","","100.36","","","","","","Clear"
"1995-06-08 20:00","1995","06","08","20:00","15.4","","3.0","","43","","35","","13","","40.2","","100.39","","","","","","Clear"
"1995-06-08 21:00","1995","06","08","21:00","14.5","","2.0","","43","","35","","15","","24.1","","100.46","","","","","","Clear"
"1995-06-08 22:00","1995","06","08","22:00","13.4","","2.8","","49","","36","","15","","24.1","","100.56","","","","","","Clear"
"1995-06-08 23:00","1995","06","08","23:00","12.2","","3.5","","55","","35","","13","","24.1","","100.60","","","","","","Clear"
"1995-06-09 00:00","1995","06","09","00:00","11.7","","3.7","","58","","34","","13","","24.1","","100.66","","","","","","Clear"
"1995-06-09 01:00","1995","06","09","01:00","10.7","","4.0","","63","","33","","15","","24.1","","100.70","","","","","","Mainly Clear"
"1995-06-09 02:00","1995","06","09","02:00","10.1","","3.9","","65","","35","","15","","24.1","","100.73","","","","","","Mainly Clear"
"1995-06-09 03:00","1995","06","09","03:00","9.3","","4.0","","69","","35","","17","","24.1","","100.76","","","","","","Mainly Clear"
"1995-06-09 04:00","1995","06","09","04:00","9.2","","4.1","","70","","35","","15","","24.1","","100.86","","","","","","Mostly Cloudy"
"1995-06-09 05:00","1995","06","09","05:00","8.9","","3.9","","71","","35","","17","","40.2","","100.90","","","","","","Mostly Cloudy"
"1995-06-09 06:00","1995","06","09","06:00","9.7","","4.2","","69","","1","","15","","40.2","","100.96","","","","","","Mostly Cloudy"
"1995-06-09 07:00","1995","06","09","07:00","11.1","","4.3","","63","","2","","22","","40.2","","101.00","","","","","","Mostly Cloudy"
"1995-06-09 08:00","1995","06","09","08:00","13.2","","5.2","","58","","4","","19","","40.2","","101.03","","","","","","Mostly Cloudy"
"1995-06-09 09:00","1995","06","09","09:00","13.5","","4.5","","54","","5","","19","","40.2","","101.06","","","","","","Mostly Cloudy"
"1995-06-09 10:00","1995","06","09","10:00","14.5","","5.0","","53","","8","","17","","40.2","","101.06","","","","","","Mostly Cloudy"
"1995-06-09 11:00","1995","06","09","11:00","15.9","","5.9","","51","","6","","19","","40.2","","101.06","","","","","","Mostly Cloudy"
"1995-06-09 12:00","1995","06","09","12:00","17.0","","5.2","","46","","4","","13","","40.2","","101.03","","","","","","Mainly Clear"
"1995-06-09 13:00","1995","06","09","13:00","17.3","","5.3","","45","","8","","6","","40.2","","100.96","","","","","","Mainly Clear"
"1995-06-09 14:00","1995","06","09","14:00","18.1","","5.3","","43","","22","","4","","40.2","","100.90","","","","","","Mainly Clear"
"1995-06-09 15:00","1995","06","09","15:00","18.4","","5.9","","44","","36","","11","","40.2","","100.80","","","","","","Mainly Clear"
"1995-06-09 16:00","1995","06","09","16:00","18.3","","4.6","","40","","4","","4","","40.2","","100.80","","","","","","Mostly Cloudy"
"1995-06-09 17:00","1995","06","09","17:00","18.7","","5.8","","43","","8","","11","","40.2","","100.76","","","","","","Mostly Cloudy"
"1995-06-09 18:00","1995","06","09","18:00","18.4","","6.1","","44","","11","","6","","40.2","","100.73","","","","","","Mostly Cloudy"
"1995-06-09 19:00","1995","06","09","19:00","17.9","","6.1","","46","","14","","4","","40.2","","100.73","","","","","","Mostly Cloudy"
"1995-06-09 20:00","1995","06","09","20:00","17.0","","6.3","","49","","","","0","","32.2","","100.76","","","","","","Mainly Clear"
"1995-06-09 21:00","1995","06","09","21:00","15.6","","7.1","","57","","","","0","","24.1","","100.80","","","","","","Mainly Clear"
"1995-06-09 22:00","1995","06","09","22:00","15.6","","6.0","","53","","","","0","","24.1","","100.73","","","","","","Mainly Clear"
"1995-06-09 23:00","1995","06","09","23:00","14.4","","6.8","","60","","","","0","","24.1","","100.66","","","","","","Clear"
"1995-06-10 00:00","1995","06","10","00:00","13.8","","7.1","","64","","","","0","","24.1","","100.63","","","","","","Clear"
"1995-06-10 01:00","1995","06","10","01:00","13.0","","6.1","","63","","","","0","","24.1","","100.63","","","","","","Clear"
"1995-06-10 02:00","1995","06","10","02:00","10.6","","6.1","","74","","8","","6","","24.1","","100.60","","","","","","Clear"
"1995-06-10 03:00","1995","06","10","03:00","10.0","","5.7","","75","","2","","7","","24.1","","100.53","","","","","","Mainly Clear"
"1995-06-10 04:00","1995","06","10","04:00","10.0","","7.5","","84","","3","","6","","32.2","","100.53","","","","","","Mainly Clear"
"1995-06-10 05:00","1995","06","10","05:00","10.1","","7.9","","86","","36","","7","","32.2","","100.56","","","","","","Mainly Clear"
"1995-06-10 06:00","1995","06","10","06:00","11.4","","8.4","","82","","1","","15","","32.2","","100.53","","","","","","Mostly Cloudy"
"1995-06-10 07:00","1995","06","10","07:00","14.2","","8.1","","67","","2","","15","","32.2","","100.53","","","","","","Mostly Cloudy"
"1995-06-10 08:00","1995","06","10","08:00","16.5","","8.2","","58","","3","","13","","32.2","","100.49","","","","","","Cloudy"
"1995-06-10 09:00","1995","06","10","09:00","17.8","","6.7","","48","","6","","19","","32.2","","100.43","","","","","","Cloudy"
"1995-06-10 10:00","1995","06","10","10:00","19.1","","5.9","","42","","7","","17","","32.2","","100.39","","","","","","Mostly Cloudy"
"1995-06-10 11:00","1995","06","10","11:00","20.0","","6.4","","41","","3","","9","","40.2","","100.39","","","","","","Mostly Cloudy"
"1995-06-10 12:00","1995","06","10","12:00","21.1","","7.9","","43","","3","","11","","40.2","","100.29","","","","","","Mostly Cloudy"
"1995-06-10 13:00","1995","06","10","13:00","21.1","","7.9","","43","","11","","7","","40.2","","100.26","","","","","","Mostly Cloudy"
"1995-06-10 14:00","1995","06","10","14:00","21.9","","7.2","","39","","23","","7","","40.2","","100.19","","","","","","Cloudy"
"1995-06-10 15:00","1995","06","10","15:00","22.1","","7.5","","39","","","","0","","40.2","","100.13","","","","","","Mostly Cloudy"
"1995-06-10 16:00","1995","06","10","16:00","21.9","","8.4","","42","","14","","7","","40.2","","100.06","","","","","","Mostly Cloudy"
"1995-06-10 17:00","1995","06","10","17:00","22.4","","9.0","","42","","6","","13","","40.2","","99.99","","","","","","Mostly Cloudy"
"1995-06-10 18:00","1995","06","10","18:00","21.7","","7.9","","41","","7","","11","","40.2","","99.93","","","","","","Mostly Cloudy"
"1995-06-10 19:00","1995","06","10","19:00","21.5","","7.9","","42","","5","","11","","32.2","","99.89","","","","","","Mostly Cloudy"
"1995-06-10 20:00","1995","06","10","20:00","20.3","","8.6","","47","","5","","11","","24.1","","99.86","","","","","","Cloudy"
"1995-06-10 21:00","1995","06","10","21:00","20.4","","8.1","","45","","6","","11","","24.1","","99.82","","","","","","Cloudy"
"1995-06-10 22:00","1995","06","10","22:00","19.8","","9.5","","51","","8","","11","","24.1","","99.79","","","","","","Rain Showers"
"1995-06-10 23:00","1995","06","10","23:00","18.5","","11.2","","62","","4","","11","","24.1","","99.72","","","","","","Cloudy"
"1995-06-11 00:00","1995","06","11","00:00","17.0","","13.6","","80","","12","","15","","16.1","","99.62","","","","","","Rain Showers"
"1995-06-11 01:00","1995","06","11","01:00","17.1","","15.2","","89","","12","","11","","16.1","","99.56","","","","","","Rain Showers"
"1995-06-11 02:00","1995","06","11","02:00","16.8","","15.7","","93","","14","","9","","4.8","","99.49","","","","","","Rain Showers"
"1995-06-11 03:00","1995","06","11","03:00","17.2","","15.7","","91","","13","","9","","12.9","","99.46","","","","","","Rain Showers"
"1995-06-11 04:00","1995","06","11","04:00","17.5","","16.0","","91","","36","","7","","6.4","","99.42","","","","","","Fog"
"1995-06-11 05:00","1995","06","11","05:00","16.7","","15.8","","94","","1","","7","","1.6","","99.39","","","","","","Fog"
"1995-06-11 06:00","1995","06","11","06:00","16.5","","15.7","","95","","3","","7","","1.2","","99.39","","","","","","Fog"
"1995-06-11 07:00","1995","06","11","07:00","16.5","","15.7","","95","","8","","6","","1.2","","99.39","","","","","","Drizzle,Fog"
"1995-06-11 08:00","1995","06","11","08:00","17.1","","16.2","","94","","","","0","","2.0","","99.36","","","","","","Fog"
"1995-06-11 09:00","1995","06","11","09:00","18.1","","16.8","","92","","19","","4","","3.6","","99.32","","","","","","Fog"
"1995-06-11 10:00","1995","06","11","10:00","20.5","","18.0","","86","","20","","20","","4.8","","99.29","","27","","","","Haze"
"1995-06-11 11:00","1995","06","11","11:00","21.6","","18.0","","80","","21","","19","","4.8","","99.29","","28","","","","Haze"
"1995-06-11 12:00","1995","06","11","12:00","22.9","","18.4","","76","","19","","19","","6.4","","99.19","","29","","","","Haze"
"1995-06-11 13:00","1995","06","11","13:00","23.4","","17.6","","70","","22","","20","","8.0","","99.19","","29","","","","Haze"
"1995-06-11 14:00","1995","06","11","14:00","24.4","","16.9","","63","","20","","28","","9.7","","99.09","","30","","","","Haze"
"1995-06-11 15:00","1995","06","11","15:00","24.1","","15.6","","59","","21","","32","","12.9","","99.09","","28","","","","Cloudy"
"1995-06-11 16:00","1995","06","11","16:00","23.7","","15.9","","62","","20","","28","","12.9","","99.09","","28","","","","Cloudy"
"1995-06-11 17:00","1995","06","11","17:00","23.1","","15.0","","60","","26","","22","","19.3","","99.09","","27","","","","Cloudy"
"1995-06-11 18:00","1995","06","11","18:00","22.3","","12.6","","54","","26","","26","","24.1","","99.12","","25","","","","Cloudy"
"1995-06-11 19:00","1995","06","11","19:00","20.0","","11.9","","60","","27","","32","","24.1","","99.19","","","","","","Mostly Cloudy"
"1995-06-11 20:00","1995","06","11","20:00","18.3","","11.8","","66","","27","","33","","24.1","","99.29","","","","","","Mostly Cloudy"
"1995-06-11 21:00","1995","06","11","21:00","16.4","","11.3","","72","","28","","32","","24.1","","99.36","","","","","","Mostly Cloudy"
"1995-06-11 22:00","1995","06","11","22:00","15.9","","11.0","","73","","27","","26","","24.1","","99.36","","","","","","Mostly Cloudy"
"1995-06-11 23:00","1995","06","11","23:00","15.0","","10.9","","76","","26","","24","","24.1","","99.36","","","","","","Mostly Cloudy"
"1995-06-12 00:00","1995","06","12","00:00","14.4","","10.5","","77","","25","","19","","24.1","","99.36","","","","","","Mostly Cloudy"
"1995-06-12 01:00","1995","06","12","01:00","13.7","","10.4","","80","","26","","19","","24.1","","99.49","","","","","","Mostly Cloudy"
"1995-06-12 02:00","1995","06","12","02:00","13.7","","9.8","","77","","26","","20","","24.1","","99.49","","","","","","Mostly Cloudy"
"1995-06-12 03:00","1995","06","12","03:00","13.3","","9.6","","78","","26","","24","","24.1","","99.49","","","","","","Mostly Cloudy"
"1995-06-12 04:00","1995","06","12","04:00","12.6","","9.0","","79","","27","","22","","24.1","","99.39","","","","","","Cloudy"
"1995-06-12 05:00","1995","06","12","05:00","12.7","","9.1","","79","","28","","24","","32.2","","99.39","","","","","","Cloudy"
"1995-06-12 06:00","1995","06","12","06:00","13.1","","7.9","","71","","29","","26","","40.2","","99.42","","","","","","Mainly Clear"
"1995-06-12 07:00","1995","06","12","07:00","13.9","","8.2","","68","","30","","19","","40.2","","99.46","","","","","","Mostly Cloudy"
"1995-06-12 08:00","1995","06","12","08:00","13.6","","7.7","","67","","31","","28","","40.2","","99.46","","","","","","Cloudy"
"1995-06-12 09:00","1995","06","12","09:00","13.6","","7.7","","67","","28","","17","","40.2","","99.46","","","","","","Cloudy"
"1995-06-12 10:00","1995","06","12","10:00","14.8","","7.5","","62","","30","","17","","40.2","","99.49","","","","","","Cloudy"
"1995-06-12 11:00","1995","06","12","11:00","15.9","","7.4","","57","","33","","22","","40.2","","99.49","","","","","","Mostly Cloudy"
"1995-06-12 12:00","1995","06","12","12:00","16.4","","7.9","","57","","30","","20","","40.2","","99.49","","","","","","Mostly Cloudy"
"1995-06-12 13:00","1995","06","12","13:00","17.6","","7.8","","53","","32","","24","","40.2","","99.49","","","","","","Mostly Cloudy"
"1995-06-12 14:00","1995","06","12","14:00","18.2","","6.7","","47","","33","","24","","40.2","","99.46","","","","","","Mostly Cloudy"
"1995-06-12 15:00","1995","06","12","15:00","19.0","","7.2","","46","","31","","24","","40.2","","99.42","","","","","","Mostly Cloudy"
"1995-06-12 16:00","1995","06","12","16:00","19.2","","5.4","","40","","33","","17","","40.2","","99.39","","","","","","Mostly Cloudy"
"1995-06-12 17:00","1995","06","12","17:00","20.3","","6.2","","40","","28","","17","","40.2","","99.42","","","","","","Mostly Cloudy"
"1995-06-12 18:00","1995","06","12","18:00","19.7","","4.9","","38","","25","","13","","40.2","","99.46","","","","","","Mostly Cloudy"
"1995-06-12 19:00","1995","06","12","19:00","18.5","","4.7","","40","","24","","13","","40.2","","99.49","","","","","","Mainly Clear"
"1995-06-12 20:00","1995","06","12","20:00","17.3","","3.8","","41","","21","","9","","40.2","","99.49","","","","","","Mainly Clear"
"1995-06-12 21:00","1995","06","12","21:00","15.9","","3.5","","43","","22","","7","","24.1","","99.52","","","","","","Mainly Clear"
"1995-06-12 22:00","1995","06","12","22:00","14.1","","3.7","","49","","22","","7","","24.1","","99.52","","","","","","Clear"
"1995-06-12 23:00","1995","06","12","23:00","13.6","","4.3","","53","","22","","7","","24.1","","99.52","","","","","","Clear"
"1995-06-13 00:00","1995","06","13","00:00","11.5","","4.2","","61","","23","","9","","24.1","","99.52","","","","","","Clear"
"1995-06-13 01:00","1995","06","13","01:00","11.3","","4.8","","64","","20","","9","","24.1","","99.52","","","","","","Clear"
"1995-06-13 02:00","1995","06","13","02:00","9.5","","4.2","","69","","24","","11","","24.1","","99.49","","","","","","Clear"
"1995-06-13 03:00","1995","06","13","03:00","8.2","","4.3","","76","","24","","9","","24.1","","99.52","","","","","","Clear"
"1995-06-13 04:00","1995","06","13","04:00","8.9","","4.5","","74","","22","","9","","32.2","","99.52","","","","","","Clear"
"1995-06-13 05:00","1995","06","13","05:00","8.7","","4.5","","75","","22","","9","","40.2","","99.56","","","","","","Clear"
"1995-06-13 06:00","1995","06","13","06:00","11.8","","6.7","","71","","26","","7","","40.2","","99.59","","","","","","Clear"
"1995-06-13 07:00","1995","06","13","07:00","14.0","","8.0","","67","","21","","6","","40.2","","99.59","","","","","","Mainly Clear"
"1995-06-13 08:00","1995","06","13","08:00","16.5","","9.7","","64","","20","","9","","40.2","","99.59","","","","","","Clear"
"1995-06-13 09:00","1995","06","13","09:00","19.4","","9.0","","51","","18","","13","","40.2","","99.59","","","","","","Mainly Clear"
"1995-06-13 10:00","1995","06","13","10:00","21.7","","8.2","","42","","20","","20","","40.2","","99.52","","","","","","Mainly Clear"
"1995-06-13 11:00","1995","06","13","11:00","22.7","","8.3","","40","","20","","22","","40.2","","99.52","","","","","","Mainly Clear"
"1995-06-13 12:00","1995","06","13","12:00","23.9","","8.6","","38","","21","","19","","40.2","","99.49","","25","","","","Mainly Clear"
"1995-06-13 13:00","1995","06","13","13:00","23.7","","7.9","","36","","26","","15","","40.2","","99.42","","","","","","Mainly Clear"
"1995-06-13 14:00","1995","06","13","14:00","24.6","","9.3","","38","","29","","17","","32.2","","99.39","","26","","","","Clear"
"1995-06-13 15:00","1995","06","13","15:00","24.8","","8.8","","36","","30","","22","","32.2","","99.39","","26","","","","Mainly Clear"
"1995-06-13 16:00","1995","06","13","16:00","24.4","","9.5","","39","","30","","19","","32.2","","99.36","","25","","","","Mainly Clear"
"1995-06-13 17:00","1995","06","13","17:00","24.1","","9.5","","40","","32","","22","","32.2","","99.36","","25","","","","Mainly Clear"
"1995-06-13 18:00","1995","06","13","18:00","23.5","","9.6","","41","","31","","19","","32.2","","99.36","","25","","","","Mainly Clear"
"1995-06-13 19:00","1995","06","13","19:00","22.4","","10.2","","46","","34","","11","","32.2","","99.39","","","","","","Mostly Cloudy"
"1995-06-13 20:00","1995","06","13","20:00","21.5","","10.7","","50","","1","","7","","32.2","","99.42","","","","","","Mostly Cloudy"
"1995-06-13 21:00","1995","06","13","21:00","20.6","","11.2","","55","","17","","6","","24.1","","99.49","","","","","","Mostly Cloudy"
"1995-06-13 22:00","1995","06","13","22:00","19.4","","11.4","","60","","21","","6","","24.1","","99.49","","","","","","Mostly Cloudy"
"1995-06-13 23:00","1995","06","13","23:00","18.9","","12.0","","64","","24","","6","","24.1","","99.49","","","","","","Mostly Cloudy"
"1995-06-14 00:00","1995","06","14","00:00","19.2","","11.2","","60","","33","","13","","24.1","","99.52","","","","","","Cloudy"
"1995-06-14 01:00","1995","06","14","01:00","18.2","","9.1","","55","","36","","20","","24.1","","99.59","","","","","","Mostly Cloudy"
"1995-06-14 02:00","1995","06","14","02:00","17.3","","6.0","","47","","35","","26","","24.1","","99.62","","","","","","Mostly Cloudy"
"1995-06-14 03:00","1995","06","14","03:00","16.5","","5.3","","47","","3","","22","","24.1","","99.69","","","","","","Mostly Cloudy"
"1995-06-14 04:00","1995","06","14","04:00","15.5","","6.1","","53","","2","","15","","24.1","","99.79","","","","","","Mostly Cloudy"
"1995-06-14 05:00","1995","06","14","05:00","14.8","","6.3","","57","","2","","15","","40.2","","99.86","","","","","","Mostly Cloudy"
"1995-06-14 06:00","1995","06","14","06:00","15.3","","6.4","","55","","2","","13","","40.2","","99.96","","","","","","Mostly Cloudy"
"1995-06-14 07:00","1995","06","14","07:00","16.6","","6.3","","51","","36","","15","","40.2","","100.03","","","","","","Mostly Cloudy"
"1995-06-14 08:00","1995","06","14","08:00","17.7","","7.0","","49","","4","","15","","40.2","","100.09","","","","","","Mainly Clear"
"1995-06-14 09:00","1995","06","14","09:00","17.8","","6.2","","47","","7","","15","","40.2","","100.16","","","","","","Mainly Clear"
"1995-06-14 10:00","1995","06","14","10:00","18.8","","4.3","","38","","36","","19","","40.2","","100.19","","","","","","Mainly Clear"
"1995-06-14 11:00","1995","06","14","11:00","19.5","","5.9","","41","","36","","15","","40.2","","100.19","","","","","","Mostly Cloudy"
"1995-06-14 12:00","1995","06","14","12:00","20.2","","4.3","","35","","35","","17","","40.2","","100.19","","","","","","Mostly Cloudy"
"1995-06-14 13:00","1995","06","14","13:00","21.2","","4.6","","34","","33","","20","","40.2","","100.13","","","","","","Mostly Cloudy"
"1995-06-14 14:00","1995","06","14","14:00","21.3","","4.7","","34","","35","","20","","40.2","","100.16","","","","","","Mostly Cloudy"
"1995-06-14 15:00","1995","06","14","15:00","21.7","","4.1","","32","","36","","19","","40.2","","100.13","","","","","","Mostly Cloudy"
"1995-06-14 16:00","1995","06","14","16:00","22.0","","4.3","","31","","36","","20","","40.2","","100.13","","","","","","Mostly Cloudy"
"1995-06-14 17:00","1995","06","14","17:00","21.8","","3.4","","30","","35","","19","","40.2","","100.16","","","","","","Mostly Cloudy"
"1995-06-14 18:00","1995","06","14","18:00","21.0","","3.3","","31","","34","","17","","40.2","","100.19","","","","","","Mainly Clear"
"1995-06-14 19:00","1995","06","14","19:00","20.4","","3.1","","32","","36","","15","","40.2","","100.23","","","","","","Mainly Clear"
"1995-06-14 20:00","1995","06","14","20:00","18.8","","3.0","","35","","33","","15","","40.2","","100.23","","","","","","Clear"
"1995-06-14 21:00","1995","06","14","21:00","17.5","","3.3","","39","","33","","13","","24.1","","100.29","","","","","","Clear"
"1995-06-14 22:00","1995","06","14","22:00","17.1","","2.4","","37","","33","","11","","24.1","","100.33","","","","","","Clear"
"1995-06-14 23:00","1995","06","14","23:00","16.2","","2.8","","41","","33","","9","","24.1","","100.36","","","","","","Clear"
"1995-06-15 00:00","1995","06","15","00:00","14.9","","3.0","","45","","33","","7","","24.1","","100.39","","","","","","Clear"
"1995-06-15 01:00","1995","06","15","01:00","13.7","","3.5","","50","","33","","9","","24.1","","100.39","","","","","","Clear"
"1995-06-15 02:00","1995","06","15","02:00","13.4","","3.6","","51","","34","","11","","24.1","","100.43","","","","","","Clear"
"1995-06-15 03:00","1995","06","15","03:00","13.2","","3.4","","51","","34","","11","","40.2","","100.46","","","","","","Clear"
"1995-06-15 04:00","1995","06","15","04:00","11.4","","4.0","","60","","33","","11","","40.2","","100.53","","","","","","Clear"
"1995-06-15 05:00","1995","06","15","05:00","11.1","","5.3","","67","","30","","11","","40.2","","100.63","","","","","","Clear"
"1995-06-15 06:00","1995","06","15","06:00","12.6","","6.7","","67","","29","","9","","40.2","","100.70","","","","","","Mainly Clear"
"1995-06-15 07:00","1995","06","15","07:00","14.2","","6.8","","61","","30","","15","","40.2","","100.73","","","","","","Mainly Clear"
"1995-06-15 08:00","1995","06","15","08:00","17.2","","6.7","","50","","29","","11","","40.2","","100.80","","","","","","Mainly Clear"
"1995-06-15 09:00","1995","06","15","09:00","18.8","","7.4","","47","","31","","9","","40.2","","100.80","","","","","","Mainly Clear"
"1995-06-15 10:00","1995","06","15","10:00","21.1","","7.9","","43","","29","","15","","40.2","","100.83","","","","","","Mainly Clear"
"1995-06-15 11:00","1995","06","15","11:00","21.7","","5.1","","34","","27","","17","","40.2","","100.83","","","","","","Mainly Clear"
"1995-06-15 12:00","1995","06","15","12:00","22.2","","4.3","","31","","29","","22","","40.2","","100.83","","","","","","Mainly Clear"
"1995-06-15 13:00","1995","06","15","13:00","22.7","","5.1","","32","","27","","30","","40.2","","100.80","","","","","","Mainly Clear"
"1995-06-15 14:00","1995","06","15","14:00","23.6","","6.1","","32","","28","","26","","40.2","","100.83","","","","","","Mainly Clear"
"1995-06-15 15:00","1995","06","15","15:00","23.7","","4.8","","29","","27","","17","","40.2","","100.83","","","","","","Mainly Clear"
"1995-06-15 16:00","1995","06","15","16:00","23.6","","4.4","","29","","27","","24","","40.2","","100.80","","","","","","Mainly Clear"
"1995-06-15 17:00","1995","06","15","17:00","23.2","","4.2","","29","","27","","20","","40.2","","100.80","","","","","","Mainly Clear"
"1995-06-15 18:00","1995","06","15","18:00","22.4","","3.7","","29","","26","","15","","40.2","","100.83","","","","","","Mainly Clear"
"1995-06-15 19:00","1995","06","15","19:00","20.8","","5.4","","37","","25","","11","","40.2","","100.90","","","","","","Clear"
"1995-06-15 20:00","1995","06","15","20:00","19.8","","4.3","","36","","23","","6","","40.2","","100.90","","","","","","Clear"
"1995-06-15 21:00","1995","06","15","21:00","18.7","","5.2","","41","","23","","4","","24.1","","100.96","","","","","","Clear"
"1995-06-15 22:00","1995","06","15","22:00","17.9","","4.9","","42","","","","0","","24.1","","101.00","","","","","","Clear"
"1995-06-15 23:00","1995","06","15","23:00","17.4","","5.0","","44","","24","","4","","24.1","","101.03","","","","","","Clear"
"1995-06-16 00:00","1995","06","16","00:00","15.4","","6.5","","55","","21","","4","","24.1","","101.03","","","","","","Clear"
"1995-06-16 01:00","1995","06","16","01:00","13.8","","7.0","","63","","21","","6","","24.1","","101.03","","","","","","Clear"
"1995-06-16 02:00","1995","06","16","02:00","13.4","","5.8","","60","","24","","4","","24.1","","101.06","","","","","","Clear"
"1995-06-16 03:00","1995","06","16","03:00","13.3","","5.5","","59","","24","","4","","24.1","","101.13","","","","","","Clear"
"1995-06-16 04:00","1995","06","16","04:00","11.8","","5.6","","66","","26","","9","","40.2","","101.20","","","","","","Clear"
"1995-06-16 05:00","1995","06","16","05:00","11.4","","6.2","","70","","25","","4","","40.2","","101.23","","","","","","Mainly Clear"
"1995-06-16 06:00","1995","06","16","06:00","13.7","","7.1","","64","","25","","6","","40.2","","101.27","","","","","","Clear"
"1995-06-16 07:00","1995","06","16","07:00","15.2","","8.8","","66","","22","","6","","40.2","","101.30","","","","","","Clear"
"1995-06-16 08:00","1995","06","16","08:00","17.7","","8.3","","54","","24","","7","","32.2","","101.33","","","","","","Clear"
"1995-06-16 09:00","1995","06","16","09:00","19.6","","9.7","","53","","20","","7","","32.2","","101.33","","","","","","Clear"
"1995-06-16 10:00","1995","06","16","10:00","21.9","","10.8","","49","","22","","9","","24.1","","101.33","","","","","","Clear"
"1995-06-16 11:00","1995","06","16","11:00","23.4","","9.3","","41","","25","","11","","24.1","","101.33","","","","","","Clear"
"1995-06-16 12:00","1995","06","16","12:00","24.3","","8.4","","36","","23","","17","","24.1","","101.30","","25","","","","Clear"
"1995-06-16 13:00","1995","06","16","13:00","25.6","","7.9","","32","","25","","17","","32.2","","101.23","","26","","","","Clear"
"1995-06-16 14:00","1995","06","16","14:00","25.8","","7.4","","31","","21","","19","","32.2","","101.16","","26","","","","Clear"
"1995-06-16 15:00","1995","06","16","15:00","26.6","","8.3","","31","","21","","13","","32.2","","101.10","","27","","","","Clear"
"1995-06-16 16:00","1995","06","16","16:00","26.4","","8.2","","32","","21","","15","","32.2","","101.03","","27","","","","Cloudy"
"1995-06-16 17:00","1995","06","16","17:00","26.3","","8.1","","32","","20","","20","","24.1","","101.00","","27","","","","Cloudy"
"1995-06-16 18:00","1995","06","16","18:00","25.3","","9.2","","36","","21","","15","","32.2","","100.96","","26","","","","Mostly Cloudy"
"1995-06-16 19:00","1995","06","16","19:00","23.3","","8.7","","39","","21","","15","","32.2","","100.96","","","","","","Mostly Cloudy"
"1995-06-16 20:00","1995","06","16","20:00","21.2","","9.2","","46","","22","","15","","32.2","","100.96","","","","","","Mostly Cloudy"
"1995-06-16 21:00","1995","06","16","21:00","19.4","","8.5","","49","","20","","9","","24.1","","101.03","","","","","","Mostly Cloudy"
"1995-06-16 22:00","1995","06","16","22:00","18.1","","8.6","","54","","20","","11","","24.1","","101.03","","","","","","Mostly Cloudy"
"1995-06-16 23:00","1995","06","16","23:00","17.3","","8.6","","57","","22","","7","","24.1","","101.00","","","","","","Mostly Cloudy"
"1995-06-17 00:00","1995","06","17","00:00","17.5","","8.9","","57","","23","","13","","24.1","","101.00","","","","","","Cloudy"
"1995-06-17 01:00","1995","06","17","01:00","16.9","","8.9","","59","","21","","15","","24.1","","101.00","","","","","","Cloudy"
"1995-06-17 02:00","1995","06","17","02:00","16.5","","9.1","","62","","22","","13","","24.1","","101.00","","","","","","Cloudy"
"1995-06-17 03:00","1995","06","17","03:00","15.9","","9.3","","65","","22","","11","","24.1","","101.00","","","","","","Cloudy"
"1995-06-17 04:00","1995","06","17","04:00","14.8","","9.2","","69","","21","","13","","32.2","","101.00","","","","","","Mostly Cloudy"
"1995-06-17 05:00","1995","06","17","05:00","14.1","","9.0","","71","","22","","11","","32.2","","101.03","","","","","","Cloudy"
"1995-06-17 06:00","1995","06","17","06:00","15.3","","10.0","","71","","21","","17","","32.2","","101.03","","","","","","Cloudy"
"1995-06-17 07:00","1995","06","17","07:00","16.4","","10.5","","68","","22","","17","","40.2","","101.03","","","","","","Cloudy"
"1995-06-17 08:00","1995","06","17","08:00","19.0","","11.5","","62","","22","","17","","40.2","","101.03","","","","","","Cloudy"
"1995-06-17 09:00","1995","06","17","09:00","21.5","","13.0","","58","","22","","17","","40.2","","100.96","","","","","","Cloudy"
"1995-06-17 10:00","1995","06","17","10:00","24.4","","14.2","","53","","22","","15","","24.1","","100.96","","28","","","","Mostly Cloudy"
"1995-06-17 11:00","1995","06","17","11:00","26.2","","15.0","","50","","24","","17","","24.1","","100.90","","30","","","","Mostly Cloudy"
"1995-06-17 12:00","1995","06","17","12:00","27.3","","15.3","","48","","23","","20","","24.1","","100.83","","31","","","","Mostly Cloudy"
"1995-06-17 13:00","1995","06","17","13:00","28.3","","16.4","","48","","21","","24","","24.1","","100.80","","33","","","","Mostly Cloudy"
"1995-06-17 14:00","1995","06","17","14:00","28.6","","16.1","","47","","21","","20","","24.1","","100.73","","33","","","","Mostly Cloudy"
"1995-06-17 15:00","1995","06","17","15:00","28.2","","15.8","","47","","22","","22","","24.1","","100.66","","33","","","","Mostly Cloudy"
"1995-06-17 16:00","1995","06","17","16:00","29.1","","15.7","","44","","22","","20","","24.1","","100.60","","34","","","","Mostly Cloudy"
"1995-06-17 17:00","1995","06","17","17:00","29.1","","15.6","","44","","22","","24","","19.3","","100.56","","33","","","","Mainly Clear"
"1995-06-17 18:00","1995","06","17","18:00","27.1","","16.8","","53","","18","","17","","19.3","","100.56","","32","","","","Mostly Cloudy"
"1995-06-17 19:00","1995","06","17","19:00","25.6","","16.5","","57","","19","","11","","16.1","","100.53","","31","","","","Mostly Cloudy"
"1995-06-17 20:00","1995","06","17","20:00","24.4","","15.9","","59","","18","","9","","12.9","","100.53","","29","","","","Mostly Cloudy"
"1995-06-17 21:00","1995","06","17","21:00","23.1","","15.6","","63","","19","","9","","12.9","","100.53","","27","","","","Mostly Cloudy"
"1995-06-17 22:00","1995","06","17","22:00","21.9","","15.2","","66","","19","","11","","11.3","","100.53","","26","","","","Mostly Cloudy"
"1995-06-17 23:00","1995","06","17","23:00","21.6","","14.8","","65","","20","","11","","9.7","","100.53","","25","","","","Haze"
"1995-06-18 00:00","1995","06","18","00:00","20.8","","14.8","","69","","23","","13","","9.7","","100.60","","25","","","","Haze"
"1995-06-18 01:00","1995","06","18","01:00","20.3","","14.8","","71","","22","","11","","9.7","","100.53","","","","","","Haze"
"1995-06-18 02:00","1995","06","18","02:00","19.9","","14.8","","72","","22","","11","","9.7","","100.53","","","","","","Haze"
"1995-06-18 03:00","1995","06","18","03:00","18.8","","14.4","","76","","20","","4","","8.0","","100.53","","","","","","Haze"
"1995-06-18 04:00","1995","06","18","04:00","18.3","","14.2","","77","","19","","13","","8.0","","100.53","","","","","","Haze"
"1995-06-18 05:00","1995","06","18","05:00","17.9","","14.3","","79","","22","","15","","9.7","","100.60","","","","","","Haze"
"1995-06-18 06:00","1995","06","18","06:00","18.8","","14.8","","78","","21","","13","","9.7","","100.60","","","","","","Haze"
"1995-06-18 07:00","1995","06","18","07:00","21.4","","15.7","","70","","22","","15","","9.7","","100.53","","26","","","","Haze"
"1995-06-18 08:00","1995","06","18","08:00","24.7","","16.3","","60","","25","","24","","12.9","","100.49","","30","","","","Mostly Cloudy"
"1995-06-18 09:00","1995","06","18","09:00","25.9","","16.9","","58","","27","","24","","12.9","","100.49","","31","","","","Mainly Clear"
"1995-06-18 10:00","1995","06","18","10:00","27.1","","16.8","","53","","29","","17","","12.9","","100.49","","32","","","","Mainly Clear"
"1995-06-18 11:00","1995","06","18","11:00","28.7","","17.1","","50","","28","","28","","16.1","","100.39","","34","","","","Mostly Cloudy"
"1995-06-18 12:00","1995","06","18","12:00","30.3","","17.8","","47","","26","","20","","16.1","","100.33","","36","","","","Mostly Cloudy"
"1995-06-18 13:00","1995","06","18","13:00","31.6","","17.3","","42","","24","","30","","16.1","","100.19","","37","","","","Mostly Cloudy"
"1995-06-18 14:00","1995","06","18","14:00","31.9","","17.0","","41","","24","","28","","16.1","","100.13","","37","","","","Mostly Cloudy"
"1995-06-18 15:00","1995","06","18","15:00","31.9","","15.9","","38","","24","","26","","16.1","","100.09","","36","","","","Mostly Cloudy"
"1995-06-18 16:00","1995","06","18","16:00","31.9","","14.5","","35","","24","","20","","16.1","","99.99","","36","","","","Mostly Cloudy"
"1995-06-18 17:00","1995","06","18","17:00","30.9","","13.9","","36","","23","","26","","19.3","","99.89","","34","","","","Mostly Cloudy"
"1995-06-18 18:00","1995","06","18","18:00","29.9","","15.2","","41","","23","","24","","16.1","","99.86","","34","","","","Mostly Cloudy"
"1995-06-18 19:00","1995","06","18","19:00","28.3","","16.1","","48","","22","","22","","12.9","","99.82","","33","","","","Mostly Cloudy"
"1995-06-18 20:00","1995","06","18","20:00","27.3","","17.6","","55","","22","","17","","11.3","","99.82","","33","","","","Mostly Cloudy"
"1995-06-18 21:00","1995","06","18","21:00","27.3","","17.6","","55","","22","","17","","9.7","","99.82","","33","","","","Haze"
"1995-06-18 22:00","1995","06","18","22:00","26.3","","17.6","","59","","22","","15","","8.0","","99.82","","32","","","","Haze"
"1995-06-18 23:00","1995","06","18","23:00","24.7","","18.2","","67","","22","","15","","8.0","","99.82","","31","","","","Haze"
"1995-06-19 00:00","1995","06","19","00:00","24.6","","18.5","","69","","23","","19","","8.0","","99.79","","31","","","","Haze"
"1995-06-19 01:00","1995","06","19","01:00","23.4","","18.5","","74","","20","","11","","8.0","","99.76","","30","","","","Haze"
"1995-06-19 02:00","1995","06","19","02:00","23.1","","18.5","","75","","22","","13","","8.0","","99.69","","29","","","","Haze"
"1995-06-19 03:00","1995","06","19","03:00","23.0","","18.5","","76","","21","","11","","6.4","","99.66","","29","","","","Haze"
"1995-06-19 04:00","1995","06","19","04:00","22.0","","18.4","","80","","22","","13","","6.4","","99.66","","28","","","","Haze"
"1995-06-19 05:00","1995","06","19","05:00","21.8","","18.5","","82","","21","","13","","6.4","","99.69","","28","","","","Haze"
"1995-06-19 06:00","1995","06","19","06:00","22.6","","19.0","","80","","21","","13","","6.4","","99.69","","29","","","","Haze"
"1995-06-19 07:00","1995","06","19","07:00","24.2","","19.6","","76","","22","","11","","6.4","","99.69","","31","","","","Haze"
"1995-06-19 08:00","1995","06","19","08:00","26.2","","20.0","","69","","25","","17","","8.0","","99.69","","34","","","","Haze"
"1995-06-19 09:00","1995","06","19","09:00","27.7","","20.3","","64","","25","","20","","9.7","","99.56","","36","","","","Haze"
"1995-06-19 10:00","1995","06","19","10:00","30.1","","20.8","","58","","23","","20","","9.7","","99.49","","38","","","","Haze"
"1995-06-19 11:00","1995","06","19","11:00","31.6","","21.7","","56","","23","","24","","12.9","","99.46","","41","","","","Clear"
"1995-06-19 12:00","1995","06","19","12:00","33.2","","22.0","","52","","22","","24","","12.9","","99.36","","43","","","","Clear"
"1995-06-19 13:00","1995","06","19","13:00","34.6","","21.6","","47","","21","","20","","16.1","","99.29","","44","","","","Clear"
"1995-06-19 14:00","1995","06","19","14:00","34.4","","22.3","","49","","22","","24","","16.1","","99.26","","44","","","","Mainly Clear"
"1995-06-19 15:00","1995","06","19","15:00","33.9","","22.1","","50","","22","","24","","19.3","","99.22","","43","","","","Cloudy"
"1995-06-19 16:00","1995","06","19","16:00","32.7","","22.1","","54","","29","","22","","19.3","","99.29","","42","","","","Cloudy"
"1995-06-19 17:00","1995","06","19","17:00","31.6","","21.6","","55","","31","","26","","19.3","","99.26","","41","","","","Cloudy"
"1995-06-19 18:00","1995","06","19","18:00","30.7","","21.6","","58","","31","","22","","16.1","","99.29","","40","","","","Cloudy"
"1995-06-19 19:00","1995","06","19","19:00","29.6","","21.3","","61","","30","","13","","16.1","","99.32","","38","","","","Mostly Cloudy"
"1995-06-19 20:00","1995","06","19","20:00","28.5","","21.1","","64","","28","","6","","12.9","","99.36","","37","","","","Mostly Cloudy"
"1995-06-19 21:00","1995","06","19","21:00","27.6","","20.5","","65","","29","","13","","12.9","","99.42","","36","","","","Mostly Cloudy"
"1995-06-19 22:00","1995","06","19","22:00","27.1","","19.5","","63","","29","","15","","12.9","","99.46","","34","","","","Mostly Cloudy"
"1995-06-19 23:00","1995","06","19","23:00","26.5","","19.1","","64","","31","","13","","12.9","","99.49","","33","","","","Mostly Cloudy"
"1995-06-20 00:00","1995","06","20","00:00","25.4","","19.0","","68","","33","","13","","19.3","","99.49","","32","","","","Mostly Cloudy"
"1995-06-20 01:00","1995","06","20","01:00","25.0","","18.0","","65","","34","","13","","19.3","","99.52","","31","","","","Mostly Cloudy"
"1995-06-20 02:00","1995","06","20","02:00","23.7","","17.5","","68","","32","","15","","19.3","","99.52","","29","","","","Mainly Clear"
"1995-06-20 03:00","1995","06","20","03:00","23.5","","17.1","","67","","32","","17","","24.1","","99.62","","29","","","","Mainly Clear"
"1995-06-20 04:00","1995","06","20","04:00","22.8","","15.3","","63","","35","","19","","19.3","","99.69","","27","","","","Mainly Clear"
"1995-06-20 05:00","1995","06","20","05:00","22.0","","12.9","","56","","1","","24","","19.3","","99.79","","25","","","","Mainly Clear"
"1995-06-20 06:00","1995","06","20","06:00","20.9","","7.3","","41","","2","","17","","32.2","","99.79","","","","","","Mainly Clear"
"1995-06-20 07:00","1995","06","20","07:00","21.6","","7.9","","41","","2","","20","","32.2","","99.99","","","","","","Mostly Cloudy"
"1995-06-20 08:00","1995","06","20","08:00","21.9","","5.9","","35","","1","","24","","32.2","","100.09","","","","","","Mainly Clear"
"1995-06-20 09:00","1995","06","20","09:00","22.2","","4.1","","31","","4","","19","","32.2","","100.19","","","","","","Mainly Clear"
"1995-06-20 10:00","1995","06","20","10:00","22.4","","5.0","","32","","4","","19","","32.2","","100.19","","","","","","Mostly Cloudy"
"1995-06-20 11:00","1995","06","20","11:00","22.3","","3.9","","30","","35","","22","","32.2","","100.23","","","","","","Mostly Cloudy"
"1995-06-20 12:00","1995","06","20","12:00","19.7","","6.1","","41","","35","","22","","32.2","","100.26","","","","","","Cloudy"
"1995-06-20 13:00","1995","06","20","13:00","20.9","","4.6","","34","","34","","17","","40.2","","100.23","","","","","","Mainly Clear"
"1995-06-20 14:00","1995","06","20","14:00","22.2","","3.9","","30","","36","","19","","40.2","","100.26","","","","","","Mainly Clear"
"1995-06-20 15:00","1995","06","20","15:00","23.4","","3.6","","27","","36","","17","","40.2","","100.26","","","","","","Clear"
"1995-06-20 16:00","1995","06","20","16:00","23.7","","4.8","","29","","1","","20","","40.2","","100.23","","","","","","Mainly Clear"
"1995-06-20 17:00","1995","06","20","17:00","24.1","","4.4","","28","","35","","19","","40.2","","100.23","","","","","","Mainly Clear"
"1995-06-20 18:00","1995","06","20","18:00","23.6","","5.0","","30","","1","","19","","40.2","","100.26","","","","","","Clear"
"1995-06-20 19:00","1995","06","20","19:00","22.5","","5.4","","33","","36","","15","","40.2","","100.29","","","","","","Clear"
"1995-06-20 20:00","1995","06","20","20:00","20.7","","5.9","","38","","35","","13","","40.2","","100.33","","","","","","Mainly Clear"
"1995-06-20 21:00","1995","06","20","21:00","19.8","","5.9","","40","","34","","11","","40.2","","100.33","","","","","","Clear"
"1995-06-20 22:00","1995","06","20","22:00","18.2","","6.3","","46","","34","","9","","25.0","","100.39","","","","","","Clear"
"1995-06-20 23:00","1995","06","20","23:00","17.2","","6.9","","51","","35","","13","","25.0","","100.46","","","","","","Clear"
"1995-06-21 00:00","1995","06","21","00:00","16.1","","5.8","","50","","2","","17","","25.0","","100.53","","","","","","Clear"
"1995-06-21 01:00","1995","06","21","01:00","14.9","","5.5","","53","","2","","17","","25.0","","100.53","","","","","","Clear"
"1995-06-21 02:00","1995","06","21","02:00","13.9","","5.1","","55","","3","","19","","25.0","","100.60","","","","","","Clear"
"1995-06-21 03:00","1995","06","21","03:00","12.9","","5.5","","61","","4","","22","","25.0","","100.63","","","","","","Mainly Clear"
"1995-06-21 04:00","1995","06","21","04:00","12.7","","5.4","","61","","5","","19","","32.2","","100.63","","","","","","Mainly Clear"
"1995-06-21 05:00","1995","06","21","05:00","11.8","","5.6","","66","","5","","19","","32.2","","100.70","","","","","","Mainly Clear"
"1995-06-21 06:00","1995","06","21","06:00","13.5","","6.0","","60","","6","","19","","32.2","","100.80","","","","","","Clear"
"1995-06-21 07:00","1995","06","21","07:00","15.4","","6.7","","56","","4","","19","","32.2","","100.83","","","","","","Mainly Clear"
"1995-06-21 08:00","1995","06","21","08:00","17.9","","7.1","","49","","7","","15","","32.2","","100.90","","","","","","Clear"
"1995-06-21 09:00","1995","06","21","09:00","20.5","","7.4","","43","","7","","20","","32.2","","100.90","","","","","","Clear"
"1995-06-21 10:00","1995","06","21","10:00","21.3","","7.7","","41","","7","","19","","32.2","","100.90","","","","","","Clear"
"1995-06-21 11:00","1995","06","21","11:00","22.1","","7.2","","38","","4","","13","","32.2","","100.83","","","","","","Clear"
"1995-06-21 12:00","1995","06","21","12:00","23.1","","6.9","","35","","5","","19","","32.2","","100.80","","","","","","Clear"
"1995-06-21 13:00","1995","06","21","13:00","23.3","","6.1","","33","","36","","6","","32.2","","100.76","","","","","","Clear"
"1995-06-21 14:00","1995","06","21","14:00","24.3","","6.9","","33","","6","","13","","32.2","","100.73","","","","","","Clear"
"1995-06-21 15:00","1995","06","21","15:00","24.6","","7.3","","33","","6","","17","","32.2","","100.70","","25","","","","Clear"
"1995-06-21 16:00","1995","06","21","16:00","24.6","","7.2","","33","","5","","15","","32.2","","100.66","","25","","","","Clear"
"1995-06-21 17:00","1995","06","21","17:00","24.4","","7.5","","34","","9","","17","","32.2","","100.60","","25","","","","Clear"
"1995-06-21 18:00","1995","06","21","18:00","23.8","","7.9","","36","","8","","15","","32.2","","100.60","","","","","","Clear"
"1995-06-21 19:00","1995","06","21","19:00","22.8","","8.4","","40","","6","","11","","32.2","","100.60","","","","","","Clear"
"1995-06-21 20:00","1995","06","21","20:00","21.3","","8.9","","45","","7","","9","","32.2","","100.63","","","","","","Clear"
"1995-06-21 21:00","1995","06","21","21:00","20.1","","8.7","","48","","6","","11","","24.1","","100.73","","","","","","Clear"
"1995-06-21 22:00","1995","06","21","22:00","19.1","","8.4","","50","","7","","11","","24.1","","100.73","","","","","","Clear"
"1995-06-21 23:00","1995","06","21","23:00","18.2","","7.7","","50","","8","","11","","24.1","","100.73","","","","","","Clear"
"1995-06-22 00:00","1995","06","22","00:00","14.8","","8.3","","65","","5","","11","","24.1","","100.76","","","","","","Clear"
"1995-06-22 01:00","1995","06","22","01:00","15.2","","8.1","","63","","2","","15","","24.1","","100.73","","","","","","Clear"
"1995-06-22 02:00","1995","06","22","02:00","13.4","","8.9","","74","","2","","15","","24.1","","100.70","","","","","","Clear"
"1995-06-22 03:00","1995","06","22","03:00","13.9","","8.3","","69","","6","","7","","24.1","","100.70","","","","","","Clear"
"1995-06-22 04:00","1995","06","22","04:00","11.6","","7.8","","77","","5","","11","","32.2","","100.70","","","","","","Clear"
"1995-06-22 05:00","1995","06","22","05:00","12.1","","7.9","","75","","2","","17","","32.2","","100.76","","","","","","Mainly Clear"
"1995-06-22 06:00","1995","06","22","06:00","14.7","","8.6","","67","","4","","11","","32.2","","100.83","","","","","","Clear"
"1995-06-22 07:00","1995","06","22","07:00","16.5","","9.3","","62","","6","","15","","32.2","","100.86","","","","","","Clear"
"1995-06-22 08:00","1995","06","22","08:00","19.1","","9.4","","53","","7","","13","","32.2","","100.86","","","","","","Clear"
"1995-06-22 09:00","1995","06","22","09:00","21.2","","10.0","","49","","8","","9","","32.2","","100.83","","","","","","Clear"
"1995-06-22 10:00","1995","06","22","10:00","23.4","","10.7","","45","","7","","11","","32.2","","100.83","","25","","","","Mainly Clear"
"1995-06-22 11:00","1995","06","22","11:00","24.6","","11.4","","44","","7","","7","","32.2","","100.80","","27","","","","Mainly Clear"
"1995-06-22 12:00","1995","06","22","12:00","25.5","","12.0","","43","","9","","13","","32.2","","100.80","","28","","","","Mainly Clear"
"1995-06-22 13:00","1995","06","22","13:00","26.5","","12.8","","43","","4","","6","","32.2","","100.73","","29","","","","Mainly Clear"
"1995-06-22 14:00","1995","06","22","14:00","27.6","","12.9","","40","","10","","13","","32.2","","100.63","","30","","","","Mainly Clear"
"1995-06-22 15:00","1995","06","22","15:00","27.5","","12.9","","41","","10","","11","","32.2","","100.63","","30","","","","Mostly Cloudy"
"1995-06-22 16:00","1995","06","22","16:00","28.0","","13.1","","40","","9","","7","","32.2","","100.60","","31","","","","Mostly Cloudy"
"1995-06-22 17:00","1995","06","22","17:00","27.8","","12.7","","39","","5","","11","","32.2","","100.56","","30","","","","Mainly Clear"
"1995-06-22 18:00","1995","06","22","18:00","27.0","","12.8","","41","","5","","11","","32.2","","100.56","","30","","","","Mainly Clear"
"1995-06-22 19:00","1995","06","22","19:00","26.4","","12.8","","43","","6","","7","","32.2","","100.60","","29","","","","Mainly Clear"
"1995-06-22 20:00","1995","06","22","20:00","24.8","","13.8","","50","","7","","11","","32.2","","100.60","","28","","","","Mainly Clear"
"1995-06-22 21:00","1995","06","22","21:00","23.7","","13.3","","52","","6","","11","","24.1","","100.63","","27","","","","Clear"
"1995-06-22 22:00","1995","06","22","22:00","22.6","","12.8","","54","","8","","7","","24.1","","100.63","","25","","","","Clear"
"1995-06-22 23:00","1995","06","22","23:00","22.5","","11.7","","50","","7","","7","","24.1","","100.63","","25","","","","Clear"
"1995-06-23 00:00","1995","06","23","00:00","19.8","","12.7","","64","","1","","6","","24.1","","100.63","","","","","","Clear"
"1995-06-23 01:00","1995","06","23","01:00","18.1","","13.0","","72","","17","","4","","24.1","","100.63","","","","","","Mainly Clear"
"1995-06-23 02:00","1995","06","23","02:00","18.0","","12.3","","69","","8","","4","","24.1","","100.60","","","","","","Mainly Clear"
"1995-06-23 03:00","1995","06","23","03:00","19.5","","14.4","","72","","19","","4","","19.3","","100.56","","","","","","Mainly Clear"
"1995-06-23 04:00","1995","06","23","04:00","17.9","","14.3","","79","","25","","6","","19.3","","100.60","","","","","","Mainly Clear"
"1995-06-23 05:00","1995","06","23","05:00","18.2","","14.7","","80","","","","0","","16.1","","100.63","","","","","","Mostly Cloudy"
"1995-06-23 06:00","1995","06","23","06:00","19.1","","15.1","","78","","","","0","","8.0","","100.66","","","","","","Haze"
"1995-06-23 07:00","1995","06","23","07:00","19.6","","15.8","","79","","","","0","","8.0","","100.66","","","","","","Haze"
"1995-06-23 08:00","1995","06","23","08:00","21.7","","16.6","","73","","20","","13","","8.0","","100.66","","27","","","","Haze"
"1995-06-23 09:00","1995","06","23","09:00","23.2","","17.4","","70","","22","","13","","8.0","","100.60","","29","","","","Haze"
"1995-06-23 10:00","1995","06","23","10:00","25.6","","18.1","","63","","18","","11","","9.7","","100.60","","32","","","","Haze"
"1995-06-23 11:00","1995","06","23","11:00","26.2","","18.3","","62","","18","","15","","9.7","","100.53","","32","","","","Haze"
"1995-06-23 12:00","1995","06","23","12:00","27.5","","17.6","","55","","23","","11","","12.9","","100.49","","33","","","","Mainly Clear"
"1995-06-23 13:00","1995","06","23","13:00","28.1","","17.0","","51","","21","","13","","12.9","","100.39","","33","","","","Mainly Clear"
"1995-06-23 14:00","1995","06","23","14:00","28.8","","16.2","","46","","20","","17","","16.1","","100.33","","34","","","","Mostly Cloudy"
"1995-06-23 15:00","1995","06","23","15:00","29.3","","16.3","","45","","24","","6","","16.1","","100.29","","34","","","","Mostly Cloudy"
"1995-06-23 16:00","1995","06","23","16:00","29.7","","16.2","","44","","21","","9","","19.3","","100.23","","34","","","","Mainly Clear"
"1995-06-23 17:00","1995","06","23","17:00","28.8","","15.8","","45","","20","","9","","19.3","","100.16","","33","","","","Mainly Clear"
"1995-06-23 18:00","1995","06","23","18:00","28.3","","16.2","","48","","18","","9","","25.0","","100.16","","33","","","","Mainly Clear"
"1995-06-23 19:00","1995","06","23","19:00","27.1","","16.3","","52","","18","","11","","25.0","","100.13","","32","","","","Mainly Clear"
"1995-06-23 20:00","1995","06","23","20:00","25.7","","16.2","","56","","21","","7","","25.0","","100.16","","30","","","","Mainly Clear"
"1995-06-23 21:00","1995","06","23","21:00","24.1","","15.7","","59","","20","","7","","24.1","","100.19","","29","","","","Mainly Clear"
"1995-06-23 22:00","1995","06","23","22:00","23.1","","15.8","","63","","19","","7","","24.1","","100.16","","28","","","","Mainly Clear"
"1995-06-23 23:00","1995","06","23","23:00","22.4","","15.6","","65","","26","","4","","24.1","","100.16","","27","","","","Clear"
"1995-06-24 00:00","1995","06","24","00:00","21.6","","15.4","","68","","","","0","","24.1","","100.13","","26","","","","Clear"
"1995-06-24 01:00","1995","06","24","01:00","20.8","","15.2","","70","","24","","4","","24.1","","100.09","","25","","","","Clear"
"1995-06-24 02:00","1995","06","24","02:00","20.0","","15.1","","73","","26","","6","","24.1","","100.13","","","","","","Clear"
"1995-06-24 03:00","1995","06","24","03:00","20.1","","15.0","","72","","20","","7","","24.1","","100.13","","","","","","Clear"
"1995-06-24 04:00","1995","06","24","04:00","18.5","","14.8","","79","","20","","9","","24.1","","100.09","","","","","","Mainly Clear"
"1995-06-24 05:00","1995","06","24","05:00","18.2","","15.2","","83","","20","","9","","24.1","","100.09","","","","","","Mainly Clear"
"1995-06-24 06:00","1995","06","24","06:00","18.7","","15.5","","82","","22","","9","","19.3","","100.09","","","","","","Mainly Clear"
"1995-06-24 07:00","1995","06","24","07:00","21.1","","16.4","","75","","22","","9","","19.3","","100.09","","26","","","","Mainly Clear"
"1995-06-24 08:00","1995","06","24","08:00","24.1","","17.2","","65","","20","","9","","24.1","","100.09","","30","","","","Mainly Clear"
"1995-06-24 09:00","1995","06","24","09:00","25.9","","16.9","","58","","20","","13","","24.1","","100.06","","31","","","","Mainly Clear"
"1995-06-24 10:00","1995","06","24","10:00","26.7","","15.6","","51","","21","","13","","24.1","","100.03","","31","","","","Mainly Clear"
"1995-06-24 11:00","1995","06","24","11:00","27.7","","15.6","","48","","18","","13","","24.1","","99.99","","32","","","","Mostly Cloudy"
"1995-06-24 12:00","1995","06","24","12:00","27.7","","15.6","","48","","20","","15","","24.1","","99.99","","32","","","","Mostly Cloudy"
"1995-06-24 13:00","1995","06","24","13:00","28.4","","16.4","","48","","21","","13","","24.1","","99.99","","33","","","","Mostly Cloudy"
"1995-06-24 14:00","1995","06","24","14:00","29.6","","16.8","","46","","19","","13","","24.1","","99.93","","35","","","","Mostly Cloudy"
"1995-06-24 15:00","1995","06","24","15:00","29.6","","16.8","","46","","18","","13","","24.1","","99.89","","35","","","","Mostly Cloudy"
"1995-06-24 16:00","1995","06","24","16:00","28.9","","16.5","","47","","18","","9","","24.1","","99.82","","34","","","","Mostly Cloudy"
"1995-06-24 17:00","1995","06","24","17:00","28.9","","16.6","","47","","23","","7","","24.1","","99.82","","34","","","","Mainly Clear"
"1995-06-24 18:00","1995","06","24","18:00","28.6","","17.1","","50","","19","","9","","24.1","","99.76","","34","","","","Mainly Clear"
"1995-06-24 19:00","1995","06","24","19:00","27.8","","17.5","","54","","20","","4","","24.1","","99.72","","33","","","","Mainly Clear"
"1995-06-24 20:00","1995","06","24","20:00","26.7","","17.5","","57","","19","","6","","24.1","","99.79","","32","","","","Mainly Clear"
"1995-06-24 21:00","1995","06","24","21:00","25.8","","17.3","","59","","20","","6","","19.3","","99.79","","31","","","","Mainly Clear"
"1995-06-24 22:00","1995","06","24","22:00","24.4","","17.2","","64","","23","","6","","19.3","","99.82","","30","","","","Mainly Clear"
"1995-06-24 23:00","1995","06","24","23:00","23.9","","17.2","","66","","22","","6","","19.3","","99.82","","29","","","","Mainly Clear"
"1995-06-25 00:00","1995","06","25","00:00","23.1","","17.0","","69","","27","","4","","19.3","","99.86","","28","","","","Mostly Cloudy"
"1995-06-25 01:00","1995","06","25","01:00","23.2","","16.6","","66","","","","0","","19.3","","99.82","","28","","","","Cloudy"
"1995-06-25 02:00","1995","06","25","02:00","22.1","","16.9","","72","","","","0","","16.1","","99.82","","27","","","","Mostly Cloudy"
"1995-06-25 03:00","1995","06","25","03:00","21.8","","17.1","","75","","","","0","","12.9","","99.82","","27","","","","Cloudy"
"1995-06-25 04:00","1995","06","25","04:00","20.2","","17.0","","82","","","","0","","9.7","","99.82","","25","","","","Haze"
"1995-06-25 05:00","1995","06","25","05:00","20.2","","16.7","","80","","20","","7","","12.9","","99.82","","25","","","","Mainly Clear"
"1995-06-25 06:00","1995","06","25","06:00","20.5","","16.8","","79","","24","","4","","16.1","","99.89","","26","","","","Mainly Clear"
"1995-06-25 07:00","1995","06","25","07:00","23.3","","16.6","","66","","23","","6","","19.3","","99.89","","28","","","","Clear"
"1995-06-25 08:00","1995","06","25","08:00","25.7","","17.2","","59","","32","","6","","19.3","","99.89","","31","","","","Clear"
"1995-06-25 09:00","1995","06","25","09:00","28.0","","16.5","","50","","27","","6","","19.3","","99.89","","33","","","","Clear"
"1995-06-25 10:00","1995","06","25","10:00","29.0","","17.0","","48","","22","","11","","24.1","","99.86","","34","","","","Mainly Clear"
"1995-06-25 11:00","1995","06","25","11:00","29.5","","17.1","","47","","20","","11","","24.1","","99.86","","35","","","","Mostly Cloudy"
"1995-06-25 12:00","1995","06","25","12:00","29.6","","15.6","","43","","27","","7","","24.1","","99.86","","34","","","","Mostly Cloudy"
"1995-06-25 13:00","1995","06","25","13:00","31.1","","16.7","","42","","25","","11","","24.1","","99.82","","36","","","","Mostly Cloudy"
"1995-06-25 14:00","1995","06","25","14:00","31.5","","16.1","","40","","24","","7","","24.1","","99.76","","36","","","","Mostly Cloudy"
"1995-06-25 15:00","1995","06","25","15:00","31.9","","16.3","","39","","18","","9","","24.1","","99.69","","37","","","","Mostly Cloudy"
"1995-06-25 16:00","1995","06","25","16:00","31.4","","16.4","","41","","16","","11","","24.1","","99.62","","36","","","","Mainly Clear"
"1995-06-25 17:00","1995","06","25","17:00","31.6","","16.6","","41","","16","","11","","24.1","","99.69","","37","","","","Mainly Clear"
"1995-06-25 18:00","1995","06","25","18:00","30.3","","16.9","","45","","17","","6","","24.1","","99.69","","36","","","","Cloudy"
"1995-06-25 19:00","1995","06","25","19:00","30.0","","16.5","","44","","24","","6","","24.1","","99.79","","35","","","","Mostly Cloudy"
"1995-06-25 20:00","1995","06","25","20:00","27.7","","18.4","","57","","31","","19","","19.3","","99.82","","34","","","","Mostly Cloudy"
"1995-06-25 21:00","1995","06","25","21:00","26.2","","16.4","","55","","1","","24","","19.3","","99.93","","31","","","","Thunderstorms"
"1995-06-25 22:00","1995","06","25","22:00","24.3","","16.9","","63","","3","","20","","19.3","","99.93","","30","","","","Mostly Cloudy"
"1995-06-25 23:00","1995","06","25","23:00","23.6","","16.9","","66","","5","","22","","24.1","","99.96","","29","","","","Mostly Cloudy"
"1995-06-26 00:00","1995","06","26","00:00","22.5","","16.6","","69","","5","","17","","24.1","","100.03","","28","","","","Mostly Cloudy"
"1995-06-26 01:00","1995","06","26","01:00","21.7","","16.4","","72","","6","","17","","24.1","","100.13","","27","","","","Mostly Cloudy"
"1995-06-26 02:00","1995","06","26","02:00","21.0","","16.1","","74","","7","","11","","24.1","","100.13","","26","","","","Mostly Cloudy"
"1995-06-26 03:00","1995","06","26","03:00","19.9","","16.0","","78","","6","","17","","24.1","","100.19","","","","","","Mainly Clear"
"1995-06-26 04:00","1995","06","26","04:00","19.8","","16.0","","79","","6","","17","","19.3","","100.29","","","","","","Mainly Clear"
"1995-06-26 05:00","1995","06","26","05:00","19.6","","16.0","","80","","6","","15","","19.3","","100.33","","","","","","Mainly Clear"
"1995-06-26 06:00","1995","06","26","06:00","20.6","","16.1","","75","","6","","20","","24.1","","100.39","","25","","","","Mainly Clear"
"1995-06-26 07:00","1995","06","26","07:00","22.3","","16.4","","69","","7","","20","","24.1","","100.43","","27","","","","Mainly Clear"
"1995-06-26 08:00","1995","06","26","08:00","23.4","","15.3","","60","","9","","26","","24.1","","100.49","","28","","","","Mainly Clear"
"1995-06-26 09:00","1995","06","26","09:00","24.4","","14.3","","53","","8","","30","","24.1","","100.53","","28","","","","Mainly Clear"
"1995-06-26 10:00","1995","06","26","10:00","24.9","","15.0","","54","","7","","26","","24.1","","100.53","","29","","","","Mainly Clear"
"1995-06-26 11:00","1995","06","26","11:00","27.0","","15.0","","48","","9","","30","","16.1","","100.56","","31","","","","Mainly Clear"
"1995-06-26 12:00","1995","06","26","12:00","27.6","","14.5","","45","","7","","32","","16.1","","100.56","","31","","","","Mainly Clear"
"1995-06-26 13:00","1995","06","26","13:00","28.4","","13.5","","40","","8","","37","","16.1","","100.53","","31","","","","Mainly Clear"
"1995-06-26 14:00","1995","06","26","14:00","28.6","","13.7","","40","","8","","33","","16.1","","100.49","","32","","","","Mainly Clear"
"1995-06-26 15:00","1995","06","26","15:00","29.2","","13.2","","37","","8","","35","","19.3","","100.49","","32","","","","Mainly Clear"
"1995-06-26 16:00","1995","06","26","16:00","28.6","","11.7","","35","","7","","28","","19.3","","100.49","","31","","","","Mainly Clear"
"1995-06-26 17:00","1995","06","26","17:00","27.7","","10.6","","34","","8","","30","","19.3","","100.53","","29","","","","Mainly Clear"
"1995-06-26 18:00","1995","06","26","18:00","26.0","","10.0","","37","","9","","28","","16.1","","100.60","","27","","","","Mostly Cloudy"
"1995-06-26 19:00","1995","06","26","19:00","24.7","","6.8","","32","","8","","26","","19.3","","100.66","","25","","","","Mostly Cloudy"
"1995-06-26 20:00","1995","06","26","20:00","23.5","","5.6","","31","","8","","28","","24.1","","100.70","","","","","","Mostly Cloudy"
"1995-06-26 21:00","1995","06","26","21:00","22.4","","5.3","","33","","8","","20","","24.1","","100.83","","","","","","Mostly Cloudy"
"1995-06-26 22:00","1995","06","26","22:00","21.4","","5.4","","35","","8","","20","","24.1","","100.86","","","","","","Cloudy"
"1995-06-26 23:00","1995","06","26","23:00","20.5","","4.1","","34","","8","","26","","24.1","","100.90","","","","","","Mostly Cloudy"
"1995-06-27 00:00","1995","06","27","00:00","19.5","","5.1","","39","","9","","30","","25.0","","100.90","","","","","","Cloudy"
"1995-06-27 01:00","1995","06","27","01:00","18.7","","5.7","","42","","9","","26","","25.0","","100.90","","","","","","Mostly Cloudy"
"1995-06-27 02:00","1995","06","27","02:00","17.8","","6.1","","46","","9","","24","","25.0","","100.90","","","","","","Mostly Cloudy"
"1995-06-27 03:00","1995","06","27","03:00","16.9","","6.4","","50","","9","","24","","25.0","","100.90","","","","","","Mostly Cloudy"
"1995-06-27 04:00","1995","06","27","04:00","16.4","","6.9","","53","","9","","20","","40.2","","100.93","","","","","","Mostly Cloudy"
"1995-06-27 05:00","1995","06","27","05:00","15.4","","7.2","","58","","8","","24","","40.2","","100.96","","","","","","Cloudy"
"1995-06-27 06:00","1995","06","27","06:00","16.5","","8.3","","58","","8","","20","","40.2","","101.03","","","","","","Mainly Clear"
"1995-06-27 07:00","1995","06","27","07:00","17.8","","9.6","","59","","8","","22","","40.2","","101.06","","","","","","Mainly Clear"
"1995-06-27 08:00","1995","06","27","08:00","19.6","","11.3","","59","","8","","20","","24.1","","101.10","","","","","","Mostly Cloudy"
"1995-06-27 09:00","1995","06","27","09:00","21.2","","12.4","","57","","8","","17","","24.1","","101.06","","","","","","Mostly Cloudy"
"1995-06-27 10:00","1995","06","27","10:00","23.8","","13.2","","51","","9","","17","","19.3","","101.03","","27","","","","Mostly Cloudy"
"1995-06-27 11:00","1995","06","27","11:00","24.8","","14.2","","52","","7","","22","","19.3","","101.00","","28","","","","Mostly Cloudy"
"1995-06-27 12:00","1995","06","27","12:00","26.1","","14.2","","48","","11","","19","","19.3","","100.96","","30","","","","Mostly Cloudy"
"1995-06-27 13:00","1995","06","27","13:00","27.3","","13.5","","43","","11","","19","","19.3","","100.93","","30","","","","Cloudy"
"1995-06-27 14:00","1995","06","27","14:00","27.7","","12.8","","40","","11","","17","","16.1","","100.90","","30","","","","Cloudy"
"1995-06-27 15:00","1995","06","27","15:00","28.9","","12.8","","37","","7","","20","","16.1","","100.90","","32","","","","Cloudy"
"1995-06-27 16:00","1995","06","27","16:00","27.6","","13.0","","41","","9","","19","","19.3","","100.83","","30","","","","Cloudy"
"1995-06-27 17:00","1995","06","27","17:00","27.3","","13.9","","44","","7","","26","","16.1","","100.80","","31","","","","Cloudy"
"1995-06-27 18:00","1995","06","27","18:00","26.3","","13.4","","45","","8","","24","","19.3","","100.80","","29","","","","Mostly Cloudy"
"1995-06-27 19:00","1995","06","27","19:00","24.8","","13.9","","51","","8","","13","","24.1","","100.83","","28","","","","Mostly Cloudy"
"1995-06-27 20:00","1995","06","27","20:00","23.2","","13.2","","53","","7","","15","","24.1","","100.83","","26","","","","Mostly Cloudy"
"1995-06-27 21:00","1995","06","27","21:00","21.8","","13.1","","58","","6","","11","","19.3","","100.83","","25","","","","Mostly Cloudy"
"1995-06-27 22:00","1995","06","27","22:00","20.9","","12.5","","59","","14","","6","","19.3","","100.86","","","","","","Mostly Cloudy"
"1995-06-27 23:00","1995","06","27","23:00","20.5","","12.6","","60","","19","","7","","24.1","","100.90","","","","","","Mostly Cloudy"
"1995-06-28 00:00","1995","06","28","00:00","20.0","","9.6","","51","","21","","9","","24.1","","100.90","","","","","","Mainly Clear"
"1995-06-28 01:00","1995","06","28","01:00","19.6","","8.0","","47","","20","","11","","24.1","","100.90","","","","","","Mostly Cloudy"
"1995-06-28 02:00","1995","06","28","02:00","18.0","","8.1","","52","","18","","9","","25.0","","100.86","","","","","","Mainly Clear"
"1995-06-28 03:00","1995","06","28","03:00","17.6","","8.2","","54","","18","","9","","25.0","","100.83","","","","","","Mostly Cloudy"
"1995-06-28 04:00","1995","06","28","04:00","17.0","","8.1","","56","","10","","6","","32.2","","100.86","","","","","","Mostly Cloudy"
"1995-06-28 05:00","1995","06","28","05:00","16.2","","8.4","","60","","8","","6","","40.2","","100.90","","","","","","Cloudy"
"1995-06-28 06:00","1995","06","28","06:00","16.4","","9.0","","62","","11","","6","","40.2","","100.90","","","","","","Mostly Cloudy"
"1995-06-28 07:00","1995","06","28","07:00","17.8","","9.1","","57","","14","","11","","40.2","","100.93","","","","","","Mostly Cloudy"
"1995-06-28 08:00","1995","06","28","08:00","18.0","","9.5","","58","","16","","11","","40.2","","100.93","","","","","","Mostly Cloudy"
"1995-06-28 09:00","1995","06","28","09:00","19.2","","9.8","","54","","15","","13","","40.2","","100.90","","","","","","Mostly Cloudy"
"1995-06-28 10:00","1995","06","28","10:00","21.5","","10.5","","49","","14","","13","","40.2","","100.90","","","","","","Mostly Cloudy"
"1995-06-28 11:00","1995","06","28","11:00","23.6","","11.4","","46","","15","","13","","40.2","","100.83","","26","","","","Mostly Cloudy"
"1995-06-28 12:00","1995","06","28","12:00","23.6","","12.4","","49","","17","","15","","40.2","","100.86","","26","","","","Mostly Cloudy"
"1995-06-28 13:00","1995","06","28","13:00","25.3","","12.9","","46","","16","","13","","40.2","","100.73","","28","","","","Mainly Clear"
"1995-06-28 14:00","1995","06","28","14:00","27.2","","12.9","","41","","13","","19","","40.2","","100.66","","30","","","","Mostly Cloudy"
"1995-06-28 15:00","1995","06","28","15:00","26.2","","12.9","","44","","18","","19","","40.2","","100.60","","29","","","","Mostly Cloudy"
"1995-06-28 16:00","1995","06","28","16:00","25.5","","13.1","","46","","19","","6","","40.2","","100.53","","28","","","","Mostly Cloudy"
"1995-06-28 17:00","1995","06","28","17:00","25.5","","13.1","","46","","17","","6","","40.2","","100.46","","28","","","","Mostly Cloudy"
"1995-06-28 18:00","1995","06","28","18:00","26.5","","13.8","","46","","13","","11","","40.2","","100.43","","30","","","","Mostly Cloudy"
"1995-06-28 19:00","1995","06","28","19:00","25.5","","14.4","","50","","13","","7","","40.2","","100.43","","29","","","","Mostly Cloudy"
"1995-06-28 20:00","1995","06","28","20:00","24.2","","14.8","","56","","16","","7","","40.2","","100.43","","28","","","","Mostly Cloudy"
"1995-06-28 21:00","1995","06","28","21:00","23.0","","14.6","","59","","13","","11","","24.1","","100.43","","27","","","","Mainly Clear"
"1995-06-28 22:00","1995","06","28","22:00","22.7","","13.7","","57","","15","","7","","24.1","","100.46","","26","","","","Clear"
"1995-06-28 23:00","1995","06","28","23:00","22.0","","13.9","","60","","14","","6","","24.1","","100.46","","25","","","","Clear"
"1995-06-29 00:00","1995","06","29","00:00","21.1","","13.9","","63","","14","","7","","24.1","","100.46","","","","","","Clear"
"1995-06-29 01:00","1995","06","29","01:00","20.5","","13.6","","65","","10","","7","","24.1","","100.46","","","","","","Clear"
"1995-06-29 02:00","1995","06","29","02:00","19.6","","13.8","","69","","11","","9","","24.1","","100.46","","","","","","Mainly Clear"
"1995-06-29 03:00","1995","06","29","03:00","18.6","","13.4","","72","","21","","7","","24.1","","100.46","","","","","","Mainly Clear"
"1995-06-29 04:00","1995","06","29","04:00","18.9","","12.9","","68","","18","","9","","24.1","","100.43","","","","","","Cloudy"
"1995-06-29 05:00","1995","06","29","05:00","19.1","","13.0","","68","","16","","4","","32.2","","100.43","","","","","","Mainly Clear"
"1995-06-29 06:00","1995","06","29","06:00","20.1","","13.0","","64","","16","","11","","32.2","","100.46","","","","","","Mainly Clear"
"1995-06-29 07:00","1995","06","29","07:00","21.4","","13.5","","61","","17","","9","","32.2","","100.46","","","","","","Mainly Clear"
"1995-06-29 08:00","1995","06","29","08:00","22.8","","14.6","","60","","19","","15","","24.1","","100.43","","27","","","","Mainly Clear"
"1995-06-29 09:00","1995","06","29","09:00","23.8","","15.2","","59","","16","","11","","24.1","","100.43","","28","","","","Mainly Clear"
"1995-06-29 10:00","1995","06","29","10:00","24.7","","15.7","","57","","20","","13","","24.1","","100.43","","29","","","","Mainly Clear"
"1995-06-29 11:00","1995","06","29","11:00","26.0","","16.2","","55","","15","","17","","24.1","","100.39","","31","","","","Mainly Clear"
"1995-06-29 12:00","1995","06","29","12:00","28.6","","16.9","","49","","16","","11","","24.1","","100.33","","34","","","","Mainly Clear"
"1995-06-29 13:00","1995","06","29","13:00","28.0","","17.0","","51","","16","","15","","24.1","","100.29","","33","","","","Mostly Cloudy"
"1995-06-29 14:00","1995","06","29","14:00","28.5","","17.2","","50","","15","","15","","24.1","","100.19","","34","","","","Mostly Cloudy"
"1995-06-29 15:00","1995","06","29","15:00","29.2","","17.0","","48","","17","","17","","24.1","","100.16","","34","","","","Mostly Cloudy"
"1995-06-29 16:00","1995","06","29","16:00","30.2","","18.0","","48","","21","","15","","24.1","","100.09","","36","","","","Mainly Clear"
"1995-06-29 17:00","1995","06","29","17:00","29.8","","17.3","","47","","21","","13","","24.1","","100.03","","35","","","","Mainly Clear"
"1995-06-29 18:00","1995","06","29","18:00","29.0","","17.0","","48","","22","","9","","19.3","","100.03","","34","","","","Mainly Clear"
"1995-06-29 19:00","1995","06","29","19:00","27.6","","16.8","","52","","23","","9","","19.3","","100.06","","33","","","","Mostly Cloudy"
"1995-06-29 20:00","1995","06","29","20:00","26.3","","16.7","","56","","23","","6","","24.1","","100.06","","31","","","","Mostly Cloudy"
"1995-06-29 21:00","1995","06","29","21:00","24.8","","16.9","","61","","18","","6","","24.1","","100.09","","30","","","","Mainly Clear"
"1995-06-29 22:00","1995","06","29","22:00","24.3","","17.2","","65","","","","0","","19.3","","100.09","","30","","","","Mainly Clear"
"1995-06-29 23:00","1995","06","29","23:00","23.7","","16.8","","65","","17","","6","","19.3","","100.06","","29","","","","Mainly Clear"
"1995-06-30 00:00","1995","06","30","00:00","22.4","","17.0","","72","","18","","7","","19.3","","100.06","","28","","","","Mainly Clear"
"1995-06-30 01:00","1995","06","30","01:00","22.1","","17.1","","73","","","","0","","19.3","","100.09","","27","","","","Mainly Clear"
"1995-06-30 02:00","1995","06","30","02:00","22.1","","17.1","","73","","","","0","","19.3","","100.06","","27","","","","Mainly Clear"
"1995-06-30 03:00","1995","06","30","03:00","20.1","","16.9","","82","","17","","4","","16.1","","100.03","","25","","","","Mainly Clear"
"1995-06-30 04:00","1995","06","30","04:00","19.7","","16.8","","83","","14","","4","","8.0","","100.03","","","","","","Haze"
"1995-06-30 05:00","1995","06","30","05:00","19.9","","16.9","","83","","17","","6","","6.4","","100.03","","","","","","Haze"
"1995-06-30 06:00","1995","06","30","06:00","20.8","","17.2","","80","","18","","6","","6.4","","100.03","","26","","","","Haze"
"1995-06-30 07:00","1995","06","30","07:00","22.1","","17.7","","76","","19","","9","","8.0","","100.03","","28","","","","Haze"
"1995-06-30 08:00","1995","06","30","08:00","23.4","","17.7","","70","","20","","13","","11.3","","100.03","","29","","","","Mostly Cloudy"
"1995-06-30 09:00","1995","06","30","09:00","24.6","","18.2","","68","","20","","13","","12.9","","99.99","","31","","","","Mostly Cloudy"
"1995-06-30 10:00","1995","06","30","10:00","25.3","","18.5","","66","","20","","15","","12.9","","99.96","","32","","","","Mostly Cloudy"
"1995-06-30 11:00","1995","06","30","11:00","25.9","","17.9","","61","","18","","17","","16.1","","99.96","","32","","","","Mostly Cloudy"
"1995-06-30 12:00","1995","06","30","12:00","25.5","","17.7","","62","","19","","17","","16.1","","99.93","","31","","","","Mostly Cloudy"
"1995-06-30 13:00","1995","06","30","13:00","26.4","","18.3","","61","","21","","15","","16.1","","99.86","","33","","","","Mostly Cloudy"
"1995-06-30 14:00","1995","06","30","14:00","28.2","","18.2","","55","","19","","20","","19.3","","99.76","","34","","","","Mostly Cloudy"
"1995-06-30 15:00","1995","06","30","15:00","28.7","","17.3","","50","","23","","19","","24.1","","99.69","","34","","","","Mostly Cloudy"
"1995-06-30 16:00","1995","06","30","16:00","28.1","","17.8","","54","","23","","19","","24.1","","99.62","","34","","","","Mostly Cloudy"
"1995-06-30 17:00","1995","06","30","17:00","28.0","","17.5","","53","","22","","13","","24.1","","99.56","","34","","","","Mostly Cloudy"
"1995-06-30 18:00","1995","06","30","18:00","28.2","","17.7","","53","","21","","11","","24.1","","99.59","","34","","","","Mostly Cloudy"
"1995-06-30 19:00","1995","06","30","19:00","27.0","","17.7","","57","","21","","7","","24.1","","99.59","","33","","","","Mostly Cloudy"
"1995-06-30 20:00","1995","06","30","20:00","26.0","","17.6","","60","","17","","4","","24.1","","99.59","","32","","","","Mostly Cloudy"
"1995-06-30 21:00","1995","06","30","21:00","25.1","","17.7","","64","","19","","4","","24.1","","99.59","","31","","","","Mainly Clear"
"1995-06-30 22:00","1995","06","30","22:00","24.1","","17.2","","65","","","","0","","24.1","","99.59","","30","","","","Mainly Clear"
"1995-06-30 23:00","1995","06","30","23:00","23.2","","16.8","","67","","18","","4","","19.3","","99.52","","28","","","","Mainly Clear"
