"Station Name","OTTAWA INTL A"
"Province","ONTARIO"
"Latitude","45.32"
"Longitude","-75.67"
"Elevation","114.90"
"Climate Identifier","6106001"
"WMO Identifier","71628"
"TC Identifier","YOW"
"All times are specified in Local Standard Time (LST). Add 1 hour to adjust for Daylight Saving Time where and when it is observed."

"Legend"
"E","Estimated"
"M","Missing"
"NA","Not Available"

"Date/Time","Year","Month","Day","Time","Temp (°C)","Temp Flag","Dew Point Temp (°C)","Dew Point Temp Flag","Rel Hum (%)","Rel Hum Flag","Wind Dir (10s deg)","Wind Dir Flag","Wind Spd (km/h)","Wind Spd Flag","Visibility (km)","Visibility Flag","Stn Press (kPa)","Stn Press Flag","Hmdx","Hmdx Flag","Wind Chill","Wind Chill Flag","Weather"
"2017-03-01 00:00","2017","03","01","00:00","1.5","","-0.1","","89","","4","","13","","24.1","","99.42","","","","","","NA"
"2017-03-01 01:00","2017","03","01","01:00","1.0","","0.1","","94","","4","","19","","24.1","","99.33","","","","","","Rain"
"2017-03-01 02:00","2017","03","01","02:00","1.1","","0.5","","96","","6","","17","","24.1","","99.19","","","","","","NA"
"2017-03-01 03:00","2017","03","01","03:00","1.1","","0.5","","96","","6","","10","","6.4","","99.07","","","","","","Rain,Fog"
"2017-03-01 04:00","2017","03","01","04:00","1.2","","0.9","","98","","2","","8","","4.8","","99.01","","","","","","Fog"
"2017-03-01 05:00","2017","03","01","05:00","1.0","","0.9","","99","","5","","20","","3.2","","98.82","","","","","","Rain,Fog"
"2017-03-01 06:00","2017","03","01","06:00","1.6","","1.5","","99","","6","","15","","2.4","","98.65","","","","","","Rain,Fog"
"2017-03-01 07:00","2017","03","01","07:00","1.6","","1.5","","99","","4","","8","","2.4","","98.49","","","","","","Rain,Fog"
"2017-03-01 08:00","2017","03","01","08:00","1.7","","1.6","","99","","5","","15","","2.4","","98.36","","","","","","Rain,Fog"
"2017-03-01 09:00","2017","03","01","09:00","2.5","","2.4","","99","","8","","14","","2.4","","98.21","","","","","","Rain,Fog"
"2017-03-01 10:00","2017","03","01","10:00","2.6","","2.5","","99","","8","","13","","1.2","","98.03","","","","","","Rain,Fog"
"2017-03-01 11:00","2017","03","01","11:00","2.7","","2.6","","99","","36","","9","","1.2","","97.92","","","","","","Fog"
"2017-03-01 12:00","2017","03","01","12:00","2.7","","2.6","","99","","3","","13","","1.6","","97.80","","","","","","Rain,Fog"
"2017-03-01 13:00","2017","03","01","13:00","3.5","","3.5","","100","","1","","6","","4.8","","97.73","","","","","","Rain,Fog"
"2017-03-01 14:00","2017","03","01","14:00","4.1","","4.1","","100","","36","","1","","1.2","","97.68","","","","","","Fog"
"2017-03-01 15:00","2017","03","01","15:00","4.0","","4.0","","100","","26","","8","","0.8","","97.68","","","","","","Fog"
"2017-03-01 16:00","2017","03","01","16:00","4.0","","4.0","","100","","28","","13","","1.2","","97.65","","","","","","Rain,Fog"
"2017-03-01 17:00","2017","03","01","17:00","3.1","","3.1","","100","","30","","9","","4.8","","97.58","","","","","","Fog"
"2017-03-01 18:00","2017","03","01","18:00","2.6","","2.6","","100","","33","","11","","3.2","","97.64","","","","","","Fog"
"2017-03-01 19:00","2017","03","01","19:00","2.4","","2.3","","99","","32","","10","","8.1","","97.59","","","","","","Rain,Fog"
"2017-03-01 20:00","2017","03","01","20:00","2.1","","2.0","","99","","32","","8","","4.0","","97.46","","","","","","Drizzle,Fog"
"2017-03-01 21:00","2017","03","01","21:00","1.6","","1.5","","99","","35","","16","","8.1","","97.45","","","","","","Rain,Fog"
"2017-03-01 22:00","2017","03","01","22:00","1.0","","0.4","","96","","30","","16","","12.9","","97.49","","","","","","Rain"
"2017-03-01 23:00","2017","03","01","23:00","0.6","","0.2","","97","","28","","17","","24.1","","97.50","","","","","","Snow"
"2017-03-02 00:00","2017","03","02","00:00","-1.1","","-2.7","","89","","28","","23","","24.1","","97.64","","","","-7","","NA"
"2017-03-02 01:00","2017","03","02","01:00","-2.6","","-4.5","","87","","30","","29","","8.1","","97.79","","","","-10","","Snow"
"2017-03-02 02:00","2017","03","02","02:00","-3.6","","-6.4","","81","","29","","30","","24.1","","97.87","","","","-11","","Snow"
"2017-03-02 03:00","2017","03","02","03:00","-4.9","","-7.8","","80","","30","","30","","11.3","","97.99","","","","-13","","Snow"
"2017-03-02 04:00","2017","03","02","04:00","-7.2","","-9.5","","84","","33","","34","","2.0","","98.14","","","","-16","","Snow"
"2017-03-02 05:00","2017","03","02","05:00","-8.4","","-10.5","","85","","29","","33","","3.2","","98.30","","","","-18","","Snow,Blowing Snow"
"2017-03-02 06:00","2017","03","02","06:00","-9.7","","-11.8","","85","","29","","33","","2.0","","98.50","","","","-20","","Snow,Blowing Snow"
"2017-03-02 07:00","2017","03","02","07:00","-11.2","","-13.3","","85","","29","","31","","1.2","","98.73","","","","-21","","Snow,Blowing Snow"
"2017-03-02 08:00","2017","03","02","08:00","-12.1","","-14.9","","80","","30","","42","","1.6","","98.94","","","","-24","","Snow,Blowing Snow"
"2017-03-02 09:00","2017","03","02","09:00","-12.5","","-16.2","","74","","28","","45","","3.2","","99.12","","","","-25","","Snow,Blowing Snow"
"2017-03-02 10:00","2017","03","02","10:00","-12.0","","-16.4","","70","","29","","34","","9.7","","99.32","","","","-23","","Blowing Snow"
"2017-03-02 11:00","2017","03","02","11:00","-11.4","","-17.7","","60","","28","","40","","24.1","","99.50","","","","-23","","Blowing Snow"
"2017-03-02 12:00","2017","03","02","12:00","-11.1","","-17.0","","62","","28","","39","","24.1","","99.64","","","","-22","","Blowing Snow"
"2017-03-02 13:00","2017","03","02","13:00","-10.2","","-16.2","","62","","29","","36","","24.1","","99.70","","","","-21","","Blowing Snow"
"2017-03-02 14:00","2017","03","02","14:00","-10.1","","-16.9","","58","","29","","37","","24.1","","99.81","","","","-21","","NA"
"2017-03-02 15:00","2017","03","02","15:00","-9.2","","-16.0","","58","","27","","35","","24.1","","99.86","","","","-19","","NA"
"2017-03-02 16:00","2017","03","02","16:00","-9.1","","-15.9","","58","","27","","25","","24.1","","99.99","","","","-18","","Mostly Cloudy"
"2017-03-02 17:00","2017","03","02","17:00","-9.2","","-15.6","","60","","27","","21","","24.1","","100.10","","","","-17","","NA"
"2017-03-02 18:00","2017","03","02","18:00","-9.6","","-16.6","","57","","29","","32","","24.1","","100.24","","","","-19","","NA"
"2017-03-02 19:00","2017","03","02","19:00","-9.3","","-15.9","","59","","29","","28","","24.1","","100.35","","","","-18","","Cloudy"
"2017-03-02 20:00","2017","03","02","20:00","-9.3","","-15.7","","60","","29","","25","","24.1","","100.48","","","","-18","","NA"
"2017-03-02 21:00","2017","03","02","21:00","-9.8","","-15.6","","63","","30","","26","","24.1","","100.57","","","","-19","","NA"
"2017-03-02 22:00","2017","03","02","22:00","-10.2","","-15.4","","66","","30","","26","","24.1","","100.66","","","","-19","","Mostly Cloudy"
"2017-03-02 23:00","2017","03","02","23:00","-10.7","","-15.5","","68","","30","","22","","24.1","","100.70","","","","-19","","NA"
"2017-03-03 00:00","2017","03","03","00:00","-11.7","","-16.1","","70","","30","","20","","24.1","","100.74","","","","-20","","NA"
"2017-03-03 01:00","2017","03","03","01:00","-12.2","","-16.8","","69","","32","","20","","24.1","","100.77","","","","-21","","Mainly Clear"
"2017-03-03 02:00","2017","03","03","02:00","-12.9","","-17.5","","69","","30","","14","","24.1","","100.82","","","","-20","","NA"
"2017-03-03 03:00","2017","03","03","03:00","-13.5","","-17.4","","73","","30","","13","","24.1","","100.80","","","","-20","","NA"
"2017-03-03 04:00","2017","03","03","04:00","-13.9","","-17.9","","72","","30","","12","","24.1","","100.83","","","","-21","","Mainly Clear"
"2017-03-03 05:00","2017","03","03","05:00","-13.9","","-19.1","","65","","33","","15","","24.1","","100.85","","","","-22","","NA"
"2017-03-03 06:00","2017","03","03","06:00","-14.2","","-19.3","","66","","33","","12","","24.1","","100.88","","","","-21","","NA"
"2017-03-03 07:00","2017","03","03","07:00","-15.9","","-19.5","","74","","25","","9","","24.1","","100.97","","","","-22","","Mainly Clear"
"2017-03-03 08:00","2017","03","03","08:00","-15.1","","-18.8","","74","","24","","6","","24.1","","101.02","","","","-19","","NA"
"2017-03-03 09:00","2017","03","03","09:00","-13.5","","-19.7","","60","","32","","4","","24.1","","101.05","","","","-16","","NA"
"2017-03-03 10:00","2017","03","03","10:00","-12.4","","-18.9","","59","","29","","10","","24.1","","101.11","","","","-18","","Cloudy"
"2017-03-03 11:00","2017","03","03","11:00","-12.2","","-17.0","","68","","30","","12","","6.4","","101.12","","","","-19","","Snow"
"2017-03-03 12:00","2017","03","03","12:00","-12.3","","-16.2","","73","","30","","16","","2.4","","101.14","","","","-20","","Snow"
"2017-03-03 13:00","2017","03","03","13:00","-11.5","","-14.9","","76","","31","","13","","2.4","","101.11","","","","-18","","Snow"
"2017-03-03 14:00","2017","03","03","14:00","-10.4","","-15.8","","65","","28","","20","","8.1","","101.10","","","","-18","","Snow"
"2017-03-03 15:00","2017","03","03","15:00","-10.4","","-16.4","","62","","29","","26","","16.1","","101.14","","","","-19","","NA"
"2017-03-03 16:00","2017","03","03","16:00","-10.1","","-17.3","","56","","29","","33","","24.1","","101.21","","","","-20","","Blowing Snow"
"2017-03-03 17:00","2017","03","03","17:00","-11.6","","-18.3","","58","","30","","31","","24.1","","101.35","","","","-22","","NA"
"2017-03-03 18:00","2017","03","03","18:00","-12.2","","-20.0","","53","","30","","33","","24.1","","101.48","","","","-23","","NA"
"2017-03-03 19:00","2017","03","03","19:00","-13.2","","-19.8","","58","","30","","28","","24.1","","101.59","","","","-23","","Clear"
"2017-03-03 20:00","2017","03","03","20:00","-13.7","","-19.1","","64","","31","","22","","24.1","","101.65","","","","-23","","NA"
"2017-03-03 21:00","2017","03","03","21:00","-14.0","","-20.0","","61","","29","","13","","24.1","","101.72","","","","-21","","NA"
"2017-03-03 22:00","2017","03","03","22:00","-15.5","","-19.8","","70","","26","","9","","24.1","","101.75","","","","-21","","Clear"
"2017-03-03 23:00","2017","03","03","23:00","-16.3","","-20.4","","71","","25","","10","","24.1","","101.74","","","","-23","","NA"
"2017-03-04 00:00","2017","03","04","00:00","-16.4","","-20.5","","71","","22","","9","","24.1","","101.73","","","","-22","","NA"
"2017-03-04 01:00","2017","03","04","01:00","-16.9","","-20.5","","74","","22","","10","","24.1","","101.73","","","","-24","","Clear"
"2017-03-04 02:00","2017","03","04","02:00","-16.6","","-20.2","","74","","28","","9","","24.1","","101.74","","","","-23","","NA"
"2017-03-04 03:00","2017","03","04","03:00","-16.6","","-20.4","","73","","28","","17","","24.1","","101.75","","","","-25","","NA"
"2017-03-04 04:00","2017","03","04","04:00","-16.6","","-21.0","","69","","32","","26","","24.1","","101.82","","","","-27","","Clear"
"2017-03-04 05:00","2017","03","04","05:00","-17.2","","-22.9","","62","","31","","26","","24.1","","101.89","","","","-28","","NA"
"2017-03-04 06:00","2017","03","04","06:00","-18.4","","-25.4","","55","","33","","32","","24.1","","101.98","","","","-31","","NA"
"2017-03-04 07:00","2017","03","04","07:00","-19.5","","-26.2","","56","","33","","33","","24.1","","102.13","","","","-32","","Clear"
"2017-03-04 08:00","2017","03","04","08:00","-20.0","","-28.0","","50","","34","","35","","24.1","","102.26","","","","-33","","NA"
"2017-03-04 09:00","2017","03","04","09:00","-20.2","","-27.5","","53","","32","","26","","24.1","","102.38","","","","-32","","NA"
"2017-03-04 10:00","2017","03","04","10:00","-19.5","","-27.3","","51","","33","","22","","24.1","","102.47","","","","-30","","Clear"
"2017-03-04 11:00","2017","03","04","11:00","-18.5","","-27.2","","47","","34","","20","","24.1","","102.52","","","","-29","","NA"
"2017-03-04 12:00","2017","03","04","12:00","-17.5","","-26.8","","45","","33","","21","","24.1","","102.53","","","","-28","","NA"
"2017-03-04 13:00","2017","03","04","13:00","-16.2","","-25.6","","45","","32","","19","","24.1","","102.51","","","","-25","","Clear"
"2017-03-04 14:00","2017","03","04","14:00","-15.3","","-25.0","","44","","30","","22","","24.1","","102.47","","","","-25","","NA"
"2017-03-04 15:00","2017","03","04","15:00","-14.6","","-24.4","","44","","29","","25","","24.1","","102.48","","","","-25","","NA"
"2017-03-04 16:00","2017","03","04","16:00","-14.3","","-24.3","","43","","29","","26","","24.1","","102.47","","","","-24","","Clear"
"2017-03-04 17:00","2017","03","04","17:00","-14.5","","-23.5","","47","","27","","25","","24.1","","102.51","","","","-25","","NA"
"2017-03-04 18:00","2017","03","04","18:00","-14.9","","-23.2","","50","","27","","14","","24.1","","102.52","","","","-22","","NA"
"2017-03-04 19:00","2017","03","04","19:00","-15.2","","-23.0","","52","","27","","15","","24.1","","102.54","","","","-23","","Clear"
"2017-03-04 20:00","2017","03","04","20:00","-15.2","","-22.6","","54","","28","","16","","24.1","","102.57","","","","-23","","NA"
"2017-03-04 21:00","2017","03","04","21:00","-15.2","","-21.7","","58","","30","","15","","24.1","","102.62","","","","-23","","NA"
"2017-03-04 22:00","2017","03","04","22:00","-15.2","","-21.7","","58","","32","","19","","24.1","","102.66","","","","-24","","Clear"
"2017-03-04 23:00","2017","03","04","23:00","-15.7","","-22.0","","59","","33","","20","","24.1","","102.64","","","","-25","","NA"
"2017-03-05 00:00","2017","03","05","00:00","-16.3","","-22.2","","61","","33","","16","","24.1","","102.66","","","","-25","","NA"
"2017-03-05 01:00","2017","03","05","01:00","-16.7","","-22.2","","63","","32","","15","","24.1","","102.68","","","","-25","","Clear"
"2017-03-05 02:00","2017","03","05","02:00","-17.5","","-22.3","","67","","31","","14","","24.1","","102.68","","","","-26","","NA"
"2017-03-05 03:00","2017","03","05","03:00","-17.0","","-22.9","","61","","35","","16","","24.1","","102.68","","","","-26","","NA"
"2017-03-05 04:00","2017","03","05","04:00","-17.6","","-22.7","","65","","32","","14","","24.1","","102.73","","","","-26","","Clear"
"2017-03-05 05:00","2017","03","05","05:00","-17.9","","-22.5","","68","","31","","9","","24.1","","102.80","","","","-24","","NA"
"2017-03-05 06:00","2017","03","05","06:00","-20.2","","-23.6","","75","","24","","10","","24.1","","102.78","","","","-27","","NA"
"2017-03-05 07:00","2017","03","05","07:00","-20.3","","-23.4","","77","","27","","8","","24.1","","102.83","","","","-27","","Clear"
"2017-03-05 08:00","2017","03","05","08:00","-18.6","","-22.5","","72","","27","","11","","24.1","","102.88","","","","-26","","NA"
"2017-03-05 09:00","2017","03","05","09:00","-16.4","","-22.5","","60","","29","","10","","24.1","","102.87","","","","-23","","NA"
"2017-03-05 10:00","2017","03","05","10:00","-15.4","","-22.3","","56","","25","","10","","24.1","","102.82","","","","-22","","Clear"
"2017-03-05 11:00","2017","03","05","11:00","-13.7","","-22.3","","49","","26","","12","","24.1","","102.77","","","","-20","","NA"
"2017-03-05 12:00","2017","03","05","12:00","-11.9","","-21.6","","45","","23","","5","","24.1","","102.67","","","","-15","","NA"
"2017-03-05 13:00","2017","03","05","13:00","-10.5","","-21.4","","41","","27","","4","","24.1","","102.56","","","","-13","","Mainly Clear"
"2017-03-05 14:00","2017","03","05","14:00","-9.4","","-22.6","","34","","36","","2","","24.1","","102.42","","","","-11","","NA"
"2017-03-05 15:00","2017","03","05","15:00","-8.6","","-23.3","","30","","22","","7","","24.1","","102.33","","","","-12","","NA"
"2017-03-05 16:00","2017","03","05","16:00","-8.0","","-24.4","","26","","23","","5","","24.1","","102.28","","","","-11","","Mainly Clear"
"2017-03-05 17:00","2017","03","05","17:00","-7.6","","-23.2","","28","","36","","2","","24.1","","102.24","","","","-9","","NA"
"2017-03-05 18:00","2017","03","05","18:00","-8.4","","-19.5","","41","","11","","5","","24.1","","102.21","","","","-11","","NA"
"2017-03-05 19:00","2017","03","05","19:00","-8.8","","-19.6","","42","","11","","4","","24.1","","102.19","","","","-11","","Mainly Clear"
"2017-03-05 20:00","2017","03","05","20:00","-9.4","","-19.6","","44","","11","","4","","24.1","","102.16","","","","-12","","NA"
"2017-03-05 21:00","2017","03","05","21:00","-10.0","","-20.7","","42","","10","","9","","24.1","","102.10","","","","-15","","NA"
"2017-03-05 22:00","2017","03","05","22:00","-10.6","","-19.6","","48","","12","","9","","24.1","","102.07","","","","-16","","Mostly Cloudy"
"2017-03-05 23:00","2017","03","05","23:00","-10.5","","-18.8","","51","","11","","7","","24.1","","102.01","","","","-15","","NA"
"2017-03-06 00:00","2017","03","06","00:00","-10.9","","-17.9","","57","","8","","8","","24.1","","101.97","","","","-16","","NA"
"2017-03-06 01:00","2017","03","06","01:00","-10.9","","-17.9","","57","","9","","11","","24.1","","101.94","","","","-17","","Mostly Cloudy"
"2017-03-06 02:00","2017","03","06","02:00","-10.6","","-17.0","","60","","7","","8","","24.1","","101.95","","","","-15","","NA"
"2017-03-06 03:00","2017","03","06","03:00","-10.8","","-16.9","","61","","8","","8","","24.1","","101.92","","","","-15","","NA"
"2017-03-06 04:00","2017","03","06","04:00","-10.7","","-16.8","","61","","8","","10","","24.1","","101.86","","","","-16","","Mostly Cloudy"
"2017-03-06 05:00","2017","03","06","05:00","-11.5","","-18.0","","59","","6","","10","","24.1","","101.87","","","","-17","","NA"
"2017-03-06 06:00","2017","03","06","06:00","-11.2","","-18.4","","56","","8","","18","","24.1","","101.72","","","","-19","","NA"
"2017-03-06 07:00","2017","03","06","07:00","-10.3","","-17.5","","56","","7","","13","","24.1","","101.77","","","","-17","","Mostly Cloudy"
"2017-03-06 08:00","2017","03","06","08:00","-9.4","","-17.1","","54","","8","","20","","24.1","","101.70","","","","-17","","NA"
"2017-03-06 09:00","2017","03","06","09:00","-7.8","","-16.3","","51","","7","","15","","24.1","","101.72","","","","-14","","NA"
"2017-03-06 10:00","2017","03","06","10:00","-6.5","","-16.6","","45","","8","","24","","24.1","","101.66","","","","-14","","Cloudy"
"2017-03-06 11:00","2017","03","06","11:00","-5.4","","-15.0","","47","","8","","18","","24.1","","101.57","","","","-12","","NA"
"2017-03-06 12:00","2017","03","06","12:00","-4.6","","-13.3","","51","","6","","15","","24.1","","101.50","","","","-10","","NA"
"2017-03-06 13:00","2017","03","06","13:00","-3.2","","-13.3","","46","","8","","26","","24.1","","101.38","","","","-10","","Cloudy"
"2017-03-06 14:00","2017","03","06","14:00","-3.2","","-11.7","","52","","9","","27","","24.1","","101.30","","","","-10","","NA"
"2017-03-06 15:00","2017","03","06","15:00","-2.6","","-10.2","","56","","7","","20","","24.1","","101.24","","","","-9","","Snow"
"2017-03-06 16:00","2017","03","06","16:00","-2.2","","-10.6","","53","","9","","21","","24.1","","101.22","","","","-8","","Snow"
"2017-03-06 17:00","2017","03","06","17:00","-2.5","","-6.9","","72","","7","","23","","9.7","","101.14","","","","-9","","Freezing Rain,Fog"
"2017-03-06 18:00","2017","03","06","18:00","-2.8","","-6.8","","74","","4","","7","","9.7","","101.23","","","","-6","","Fog"
"2017-03-06 19:00","2017","03","06","19:00","-3.3","","-6.4","","79","","6","","22","","16.1","","101.22","","","","-10","","Snow"
"2017-03-06 20:00","2017","03","06","20:00","-3.4","","-5.3","","87","","7","","16","","12.9","","101.16","","","","-9","","Freezing Rain"
"2017-03-06 21:00","2017","03","06","21:00","-3.3","","-5.0","","88","","8","","16","","16.1","","101.13","","","","-9","","Freezing Rain"
"2017-03-06 22:00","2017","03","06","22:00","-2.7","","-3.8","","92","","8","","18","","12.9","","101.04","","","","-8","","Freezing Rain"
"2017-03-06 23:00","2017","03","06","23:00","-2.6","","-3.4","","94","","7","","17","","12.9","","100.97","","","","-8","","Freezing Rain"
"2017-03-07 00:00","2017","03","07","00:00","-2.5","","-3.3","","94","","8","","18","","16.1","","100.87","","","","-8","","NA"
"2017-03-07 01:00","2017","03","07","01:00","-2.5","","-3.2","","95","","8","","16","","11.3","","100.81","","","","-8","","Cloudy"
"2017-03-07 02:00","2017","03","07","02:00","-2.4","","-3.1","","95","","7","","17","","12.9","","100.74","","","","-8","","NA"
"2017-03-07 03:00","2017","03","07","03:00","-2.5","","-3.1","","96","","7","","14","","9.7","","100.66","","","","-7","","Fog"
"2017-03-07 04:00","2017","03","07","04:00","-2.6","","-3.2","","96","","7","","16","","9.7","","100.62","","","","-8","","Fog"
"2017-03-07 05:00","2017","03","07","05:00","-2.0","","-2.6","","96","","8","","15","","8.1","","100.57","","","","-7","","Fog"
"2017-03-07 06:00","2017","03","07","06:00","-1.8","","-2.4","","96","","8","","15","","8.1","","100.47","","","","-7","","Fog"
"2017-03-07 07:00","2017","03","07","07:00","-1.4","","-1.8","","97","","8","","16","","6.4","","100.42","","","","-6","","Fog"
"2017-03-07 08:00","2017","03","07","08:00","-1.0","","-1.4","","97","","8","","16","","4.0","","100.36","","","","-6","","Freezing Rain,Fog"
"2017-03-07 09:00","2017","03","07","09:00","-0.6","","-0.9","","98","","8","","17","","3.2","","100.33","","","","-6","","Freezing Rain,Fog"
"2017-03-07 10:00","2017","03","07","10:00","-0.3","","-0.6","","98","","9","","21","","3.2","","100.23","","","","-6","","Freezing Rain,Fog"
"2017-03-07 11:00","2017","03","07","11:00","0.2","","0.1","","99","","8","","14","","2.4","","100.13","","","","","","Rain,Fog"
"2017-03-07 12:00","2017","03","07","12:00","0.4","","0.3","","99","","9","","16","","2.4","","100.03","","","","","","Rain,Fog"
"2017-03-07 13:00","2017","03","07","13:00","0.9","","0.8","","99","","9","","17","","3.2","","99.89","","","","","","Rain,Fog"
"2017-03-07 14:00","2017","03","07","14:00","1.2","","1.1","","99","","8","","15","","1.6","","99.78","","","","","","Rain,Fog"
"2017-03-07 15:00","2017","03","07","15:00","1.7","","1.6","","99","","8","","12","","1.2","","99.75","","","","","","Rain,Fog"
"2017-03-07 16:00","2017","03","07","16:00","1.9","","1.8","","99","","9","","10","","0.8","","99.68","","","","","","Rain,Fog"
"2017-03-07 17:00","2017","03","07","17:00","2.1","","2.0","","99","","9","","8","","1.6","","99.65","","","","","","Rain,Fog"
"2017-03-07 18:00","2017","03","07","18:00","2.0","","1.9","","99","","9","","6","","1.2","","99.61","","","","","","Rain,Fog"
"2017-03-07 19:00","2017","03","07","19:00","6.4","","6.4","","100","","17","","11","","1.2","","99.58","","","","","","Drizzle,Fog"
"2017-03-07 20:00","2017","03","07","20:00","6.8","","6.8","","100","","18","","16","","4.8","","99.54","","","","","","Drizzle,Fog"
"2017-03-07 21:00","2017","03","07","21:00","7.0","","7.0","","100","","19","","18","","1.2","","99.50","","","","","","Drizzle,Fog"
"2017-03-07 22:00","2017","03","07","22:00","6.4","","6.4","","100","","20","","14","","0.4","","99.49","","","","","","Rain,Fog"
"2017-03-07 23:00","2017","03","07","23:00","6.5","","6.5","","100","","19","","8","","0.8","","99.47","","","","","","Fog"
"2017-03-08 00:00","2017","03","08","00:00","5.3","","4.6","","95","","27","","23","","8.1","","99.58","","","","","","Rain,Fog"
"2017-03-08 01:00","2017","03","08","01:00","4.4","","3.1","","91","","29","","14","","24.1","","99.56","","","","","","Rain"
"2017-03-08 02:00","2017","03","08","02:00","3.8","","1.8","","87","","36","","1","","24.1","","99.67","","","","","","Rain"
"2017-03-08 03:00","2017","03","08","03:00","4.0","","0.5","","78","","30","","18","","24.1","","99.69","","","","","","Rain"
"2017-03-08 04:00","2017","03","08","04:00","2.9","","1.0","","87","","25","","10","","24.1","","99.68","","","","","","Rain"
"2017-03-08 05:00","2017","03","08","05:00","2.2","","1.2","","93","","20","","9","","24.1","","99.73","","","","","","NA"
"2017-03-08 06:00","2017","03","08","06:00","2.1","","1.2","","94","","18","","13","","24.1","","99.73","","","","","","NA"
"2017-03-08 07:00","2017","03","08","07:00","1.9","","1.0","","94","","18","","16","","24.1","","99.69","","","","","","Mainly Clear"
"2017-03-08 08:00","2017","03","08","08:00","2.9","","1.4","","90","","19","","21","","24.1","","99.63","","","","","","NA"
"2017-03-08 09:00","2017","03","08","09:00","3.8","","1.5","","85","","19","","26","","24.1","","99.53","","","","","","NA"
"2017-03-08 10:00","2017","03","08","10:00","5.1","","1.0","","75","","19","","29","","24.1","","99.42","","","","","","Mainly Clear"
"2017-03-08 11:00","2017","03","08","11:00","5.9","","0.7","","69","","19","","20","","24.1","","99.27","","","","","","NA"
"2017-03-08 12:00","2017","03","08","12:00","6.7","","-0.7","","59","","20","","34","","24.1","","99.13","","","","","","NA"
"2017-03-08 13:00","2017","03","08","13:00","6.7","","-1.0","","58","","21","","28","","24.1","","99.03","","","","","","Mostly Cloudy"
"2017-03-08 14:00","2017","03","08","14:00","7.4","","-3.8","","45","","21","","37","","24.1","","98.89","","","","","","NA"
"2017-03-08 15:00","2017","03","08","15:00","7.3","","-5.4","","40","","22","","36","","24.1","","98.86","","","","","","NA"
"2017-03-08 16:00","2017","03","08","16:00","6.3","","-3.6","","49","","24","","24","","24.1","","98.88","","","","","","Mostly Cloudy"
"2017-03-08 17:00","2017","03","08","17:00","4.5","","-1.5","","65","","22","","23","","24.1","","98.90","","","","","","NA"
"2017-03-08 18:00","2017","03","08","18:00","3.6","","-0.8","","73","","23","","30","","24.1","","98.99","","","","","","NA"
"2017-03-08 19:00","2017","03","08","19:00","2.5","","-0.9","","78","","22","","23","","24.1","","99.07","","","","","","Mostly Cloudy"
"2017-03-08 20:00","2017","03","08","20:00","2.2","","-0.7","","81","","23","","18","","24.1","","99.13","","","","","","NA"
"2017-03-08 21:00","2017","03","08","21:00","2.0","","-1.6","","77","","22","","17","","24.1","","99.15","","","","","","NA"
"2017-03-08 22:00","2017","03","08","22:00","1.5","","-1.9","","78","","27","","19","","24.1","","99.17","","","","","","Cloudy"
"2017-03-08 23:00","2017","03","08","23:00","1.9","","-4.8","","61","","25","","35","","12.9","","99.16","","","","","","NA"
"2017-03-09 00:00","2017","03","09","00:00","-0.2","","-3.9","","76","","26","","27","","24.1","","99.24","","","","-6","","NA"
"2017-03-09 01:00","2017","03","09","01:00","-1.4","","-5.1","","76","","28","","40","","24.1","","99.32","","","","-9","","Snow Showers"
"2017-03-09 02:00","2017","03","09","02:00","-1.0","","-8.5","","57","","25","","39","","24.1","","99.35","","","","-9","","NA"
"2017-03-09 03:00","2017","03","09","03:00","-1.7","","-10.8","","50","","25","","31","","24.1","","99.37","","","","-9","","NA"
"2017-03-09 04:00","2017","03","09","04:00","-2.1","","-10.9","","51","","27","","41","","24.1","","99.45","","","","-10","","Cloudy"
"2017-03-09 05:00","2017","03","09","05:00","-3.4","","-8.5","","68","","26","","31","","24.1","","99.56","","","","-11","","NA"
"2017-03-09 06:00","2017","03","09","06:00","-3.9","","-14.5","","44","","27","","46","","24.1","","99.65","","","","-13","","NA"
"2017-03-09 07:00","2017","03","09","07:00","-4.2","","-14.2","","46","","26","","31","","24.1","","99.76","","","","-12","","Mostly Cloudy"
"2017-03-09 08:00","2017","03","09","08:00","-4.4","","-13.6","","49","","27","","35","","24.1","","99.87","","","","-13","","NA"
"2017-03-09 09:00","2017","03","09","09:00","-3.9","","-13.4","","48","","27","","38","","24.1","","99.88","","","","-12","","NA"
"2017-03-09 10:00","2017","03","09","10:00","-3.5","","-13.0","","48","","28","","37","","24.1","","99.93","","","","-12","","Mostly Cloudy"
"2017-03-09 11:00","2017","03","09","11:00","-3.4","","-11.7","","53","","26","","37","","24.1","","99.93","","","","-12","","NA"
"2017-03-09 12:00","2017","03","09","12:00","-3.1","","-11.2","","54","","28","","38","","24.1","","100.00","","","","-11","","NA"
"2017-03-09 13:00","2017","03","09","13:00","-1.9","","-10.3","","53","","27","","26","","24.1","","99.99","","","","-8","","Mainly Clear"
"2017-03-09 14:00","2017","03","09","14:00","-1.4","","-11.3","","47","","29","","33","","24.1","","99.97","","","","-9","","NA"
"2017-03-09 15:00","2017","03","09","15:00","-0.8","","-10.5","","48","","29","","27","","24.1","","99.96","","","","-7","","NA"
"2017-03-09 16:00","2017","03","09","16:00","-0.7","","-11.5","","44","","29","","29","","24.1","","99.98","","","","-7","","Clear"
"2017-03-09 17:00","2017","03","09","17:00","-0.9","","-12.0","","43","","29","","22","","24.1","","100.02","","","","-7","","NA"
"2017-03-09 18:00","2017","03","09","18:00","-1.6","","-12.1","","45","","30","","17","","24.1","","100.06","","","","-7","","NA"
"2017-03-09 19:00","2017","03","09","19:00","-2.2","","-12.3","","46","","28","","14","","24.1","","100.13","","","","-7","","Mainly Clear"
"2017-03-09 20:00","2017","03","09","20:00","-3.0","","-11.8","","51","","29","","10","","24.1","","100.17","","","","-7","","NA"
"2017-03-09 21:00","2017","03","09","21:00","-3.7","","-12.7","","50","","25","","8","","24.1","","100.24","","","","-7","","NA"
"2017-03-09 22:00","2017","03","09","22:00","-4.1","","-12.8","","51","","24","","6","","24.1","","100.25","","","","-7","","Mostly Cloudy"
"2017-03-09 23:00","2017","03","09","23:00","-4.0","","-12.7","","51","","21","","7","","24.1","","100.19","","","","-7","","NA"
"2017-03-10 00:00","2017","03","10","00:00","-4.3","","-12.1","","55","","22","","9","","24.1","","100.12","","","","-8","","NA"
"2017-03-10 01:00","2017","03","10","01:00","-4.2","","-11.1","","59","","23","","14","","24.1","","100.08","","","","-9","","Mostly Cloudy"
"2017-03-10 02:00","2017","03","10","02:00","-4.0","","-10.3","","62","","24","","9","","24.1","","100.03","","","","-8","","NA"
"2017-03-10 03:00","2017","03","10","03:00","-4.7","","-9.9","","67","","26","","10","","24.1","","99.95","","","","-9","","NA"
"2017-03-10 04:00","2017","03","10","04:00","-6.2","","-10.6","","71","","26","","9","","24.1","","99.91","","","","-10","","Clear"
"2017-03-10 05:00","2017","03","10","05:00","-6.2","","-11.0","","69","","28","","10","","24.1","","99.87","","","","-11","","NA"
"2017-03-10 06:00","2017","03","10","06:00","-6.7","","-10.6","","74","","33","","15","","24.1","","99.90","","","","-13","","NA"
"2017-03-10 07:00","2017","03","10","07:00","-8.2","","-12.9","","69","","1","","18","","24.1","","99.96","","","","-15","","Clear"
"2017-03-10 08:00","2017","03","10","08:00","-7.9","","-13.0","","67","","2","","19","","24.1","","100.01","","","","-15","","NA"
"2017-03-10 09:00","2017","03","10","09:00","-7.7","","-11.4","","75","","1","","16","","12.9","","100.04","","","","-14","","Snow"
"2017-03-10 10:00","2017","03","10","10:00","-8.1","","-10.8","","81","","33","","22","","1.6","","100.02","","","","-16","","Snow"
"2017-03-10 11:00","2017","03","10","11:00","-7.9","","-12.3","","71","","36","","17","","4.8","","100.02","","","","-15","","Snow"
"2017-03-10 12:00","2017","03","10","12:00","-7.2","","-12.5","","66","","32","","18","","4.8","","99.99","","","","-14","","Snow"
"2017-03-10 13:00","2017","03","10","13:00","-6.3","","-13.7","","56","","31","","21","","16.1","","99.93","","","","-13","","Snow"
"2017-03-10 14:00","2017","03","10","14:00","-7.6","","-11.8","","72","","33","","23","","9.7","","99.91","","","","-15","","Snow"
"2017-03-10 15:00","2017","03","10","15:00","-7.7","","-12.1","","71","","34","","24","","16.1","","99.92","","","","-16","","Snow"
"2017-03-10 16:00","2017","03","10","16:00","-7.1","","-16.1","","49","","29","","27","","24.1","","99.92","","","","-15","","Mainly Clear"
"2017-03-10 17:00","2017","03","10","17:00","-9.3","","-18.2","","49","","30","","34","","24.1","","100.01","","","","-19","","NA"
"2017-03-10 18:00","2017","03","10","18:00","-11.1","","-21.7","","42","","29","","38","","24.1","","100.11","","","","-22","","NA"
"2017-03-10 19:00","2017","03","10","19:00","-12.7","","-23.1","","42","","31","","43","","24.1","","100.24","","","","-25","","Mainly Clear"
"2017-03-10 20:00","2017","03","10","20:00","-13.8","","-23.6","","44","","31","","37","","24.1","","100.36","","","","-25","","NA"
"2017-03-10 21:00","2017","03","10","21:00","-14.8","","-24.5","","44","","31","","32","","24.1","","100.48","","","","-26","","NA"
"2017-03-10 22:00","2017","03","10","22:00","-16.2","","-26.6","","41","","31","","41","","24.1","","100.57","","","","-29","","Mainly Clear"
"2017-03-10 23:00","2017","03","10","23:00","-17.1","","-25.9","","47","","32","","33","","24.1","","100.65","","","","-29","","NA"
"2017-03-11 00:00","2017","03","11","00:00","-17.9","","-25.8","","51","","34","","24","","24.1","","100.68","","","","-29","","NA"
"2017-03-11 01:00","2017","03","11","01:00","-18.4","","-26.9","","48","","33","","17","","24.1","","100.66","","","","-28","","Clear"
"2017-03-11 02:00","2017","03","11","02:00","-18.8","","-26.8","","50","","33","","12","","24.1","","100.69","","","","-27","","NA"
"2017-03-11 03:00","2017","03","11","03:00","-19.0","","-27.0","","50","","30","","16","","24.1","","100.65","","","","-28","","NA"
"2017-03-11 04:00","2017","03","11","04:00","-19.4","","-26.3","","55","","27","","14","","24.1","","100.67","","","","-28","","Clear"
"2017-03-11 05:00","2017","03","11","05:00","-19.5","","-25.8","","58","","27","","13","","24.1","","100.68","","","","-28","","NA"
"2017-03-11 06:00","2017","03","11","06:00","-19.6","","-25.3","","61","","27","","16","","24.1","","100.72","","","","-29","","NA"
"2017-03-11 07:00","2017","03","11","07:00","-19.1","","-25.6","","57","","27","","17","","24.1","","100.74","","","","-29","","Mainly Clear"
"2017-03-11 08:00","2017","03","11","08:00","-18.7","","-24.9","","59","","31","","35","","24.1","","100.80","","","","-32","","NA"
"2017-03-11 09:00","2017","03","11","09:00","-18.4","","-25.4","","55","","31","","37","","24.1","","100.82","","","","-32","","NA"
"2017-03-11 10:00","2017","03","11","10:00","-18.2","","-26.3","","50","","28","","31","","24.1","","100.82","","","","-30","","Cloudy"
"2017-03-11 11:00","2017","03","11","11:00","-17.7","","-26.3","","48","","30","","32","","24.1","","100.81","","","","-30","","NA"
"2017-03-11 12:00","2017","03","11","12:00","-17.3","","-25.7","","49","","28","","37","","24.1","","100.81","","","","-30","","NA"
"2017-03-11 13:00","2017","03","11","13:00","-16.2","","-24.9","","48","","29","","33","","24.1","","100.80","","","","-28","","Mostly Cloudy"
"2017-03-11 14:00","2017","03","11","14:00","-15.2","","-24.7","","45","","29","","39","","24.1","","100.80","","","","-28","","NA"
"2017-03-11 15:00","2017","03","11","15:00","-14.8","","-24.3","","45","","31","","32","","24.1","","100.82","","","","-26","","NA"
"2017-03-11 16:00","2017","03","11","16:00","-14.8","","-24.8","","43","","29","","33","","24.1","","100.85","","","","-26","","Mainly Clear"
"2017-03-11 17:00","2017","03","11","17:00","-14.8","","-24.8","","43","","29","","28","","24.1","","100.87","","","","-25","","NA"
"2017-03-11 18:00","2017","03","11","18:00","-15.2","","-24.9","","44","","29","","35","","24.1","","100.93","","","","-27","","NA"
"2017-03-11 19:00","2017","03","11","19:00","-15.3","","-24.5","","46","","28","","22","","24.1","","100.98","","","","-25","","Clear"
"2017-03-11 20:00","2017","03","11","20:00","-15.2","","-24.2","","47","","29","","24","","24.1","","101.05","","","","-25","","NA"
"2017-03-11 21:00","2017","03","11","21:00","-15.4","","-24.4","","47","","30","","28","","24.1","","101.11","","","","-26","","NA"
"2017-03-11 22:00","2017","03","11","22:00","-15.8","","-24.2","","49","","31","","20","","24.1","","101.17","","","","-25","","Clear"
"2017-03-11 23:00","2017","03","11","23:00","-16.0","","-24.0","","51","","31","","18","","24.1","","101.20","","","","-25","","NA"
"2017-03-12 00:00","2017","03","12","00:00","-16.2","","-24.6","","49","","30","","18","","24.1","","101.21","","","","-25","","NA"
"2017-03-12 01:00","2017","03","12","01:00","-16.6","","-24.5","","51","","29","","16","","24.1","","101.19","","","","-25","","Clear"
"2017-03-12 02:00","2017","03","12","02:00","-16.8","","-24.3","","53","","29","","17","","24.1","","101.19","","","","-26","","NA"
"2017-03-12 03:00","2017","03","12","03:00","-17.1","","-24.1","","55","","29","","18","","24.1","","101.18","","","","-26","","NA"
"2017-03-12 04:00","2017","03","12","04:00","-17.4","","-24.2","","56","","30","","21","","24.1","","101.19","","","","-27","","Clear"
"2017-03-12 05:00","2017","03","12","05:00","-17.8","","-24.4","","57","","30","","21","","24.1","","101.22","","","","-28","","NA"
"2017-03-12 06:00","2017","03","12","06:00","-18.0","","-24.2","","59","","29","","20","","24.1","","101.26","","","","-28","","NA"
"2017-03-12 07:00","2017","03","12","07:00","-18.1","","-24.1","","60","","28","","18","","24.1","","101.31","","","","-28","","Mainly Clear"
"2017-03-12 08:00","2017","03","12","08:00","-17.4","","-24.0","","57","","30","","22","","24.1","","101.35","","","","-28","","NA"
"2017-03-12 09:00","2017","03","12","09:00","-16.8","","-23.7","","56","","27","","27","","24.1","","101.36","","","","-28","","NA"
"2017-03-12 10:00","2017","03","12","10:00","-15.9","","-23.4","","53","","28","","22","","24.1","","101.38","","","","-26","","Mainly Clear"
"2017-03-12 11:00","2017","03","12","11:00","-15.0","","-23.7","","48","","27","","19","","24.1","","101.36","","","","-24","","NA"
"2017-03-12 12:00","2017","03","12","12:00","-14.0","","-22.3","","50","","28","","16","","24.1","","101.35","","","","-22","","NA"
"2017-03-12 13:00","2017","03","12","13:00","-13.1","","-21.7","","49","","27","","16","","24.1","","101.33","","","","-21","","Mainly Clear"
"2017-03-12 14:00","2017","03","12","14:00","-12.2","","-20.4","","51","","26","","22","","24.1","","101.32","","","","-21","","NA"
"2017-03-12 15:00","2017","03","12","15:00","-11.1","","-19.9","","49","","29","","21","","24.1","","101.32","","","","-19","","NA"
"2017-03-12 16:00","2017","03","12","16:00","-11.5","","-21.0","","46","","30","","26","","24.1","","101.36","","","","-21","","Mostly Cloudy"
"2017-03-12 17:00","2017","03","12","17:00","-11.6","","-20.8","","47","","30","","28","","24.1","","101.40","","","","-21","","NA"
"2017-03-12 18:00","2017","03","12","18:00","-11.6","","-20.3","","49","","30","","28","","24.1","","101.46","","","","-21","","NA"
"2017-03-12 19:00","2017","03","12","19:00","-11.9","","-20.8","","48","","29","","21","","24.1","","101.51","","","","-20","","Mainly Clear"
"2017-03-12 20:00","2017","03","12","20:00","-12.6","","-19.9","","55","","31","","13","","24.1","","101.56","","","","-19","","NA"
"2017-03-12 21:00","2017","03","12","21:00","-12.4","","-20.6","","51","","29","","13","","24.1","","101.60","","","","-19","","NA"
"2017-03-12 22:00","2017","03","12","22:00","-12.9","","-20.4","","54","","29","","13","","24.1","","101.67","","","","-20","","Clear"
"2017-03-12 23:00","2017","03","12","23:00","-13.4","","-20.4","","56","","32","","15","","24.1","","101.71","","","","-21","","NA"
"2017-03-13 00:00","2017","03","13","00:00","-13.5","","-21.9","","50","","33","","16","","24.1","","101.73","","","","-21","","NA"
"2017-03-13 01:00","2017","03","13","01:00","-14.0","","-22.6","","49","","33","","14","","24.1","","101.75","","","","-21","","Clear"
"2017-03-13 02:00","2017","03","13","02:00","-14.5","","-22.3","","52","","32","","12","","24.1","","101.81","","","","-21","","NA"
"2017-03-13 03:00","2017","03","13","03:00","-15.1","","-22.3","","55","","33","","10","","24.1","","101.78","","","","-21","","NA"
"2017-03-13 04:00","2017","03","13","04:00","-16.2","","-21.9","","62","","28","","8","","24.1","","101.83","","","","-22","","Clear"
"2017-03-13 05:00","2017","03","13","05:00","-16.0","","-21.3","","64","","29","","10","","24.1","","101.90","","","","-22","","NA"
"2017-03-13 06:00","2017","03","13","06:00","-16.9","","-21.2","","70","","30","","10","","24.1","","101.90","","","","-24","","NA"
"2017-03-13 07:00","2017","03","13","07:00","-15.9","","-21.8","","61","","31","","8","","24.1","","101.96","","","","-21","","Clear"
"2017-03-13 08:00","2017","03","13","08:00","-14.9","","-22.3","","54","","31","","8","","24.1","","102.03","","","","-20","","NA"
"2017-03-13 09:00","2017","03","13","09:00","-14.0","","-23.0","","47","","31","","8","","24.1","","102.06","","","","-19","","NA"
"2017-03-13 10:00","2017","03","13","10:00","-13.0","","-22.6","","45","","34","","5","","24.1","","102.03","","","","-16","","Mostly Cloudy"
"2017-03-13 11:00","2017","03","13","11:00","-12.3","","-22.5","","43","","24","","9","","24.1","","101.96","","","","-18","","NA"
"2017-03-13 12:00","2017","03","13","12:00","-11.6","","-22.7","","40","","29","","5","","24.1","","101.90","","","","-15","","NA"
"2017-03-13 13:00","2017","03","13","13:00","-11.1","","-22.5","","39","","26","","9","","24.1","","101.84","","","","-16","","Mostly Cloudy"
"2017-03-13 14:00","2017","03","13","14:00","-10.7","","-22.8","","37","","27","","6","","24.1","","101.78","","","","-14","","NA"
"2017-03-13 15:00","2017","03","13","15:00","-10.2","","-22.3","","37","","23","","10","","24.1","","101.72","","","","-15","","NA"
"2017-03-13 16:00","2017","03","13","16:00","-10.2","","-22.3","","37","","19","","4","","24.1","","101.68","","","","-13","","Cloudy"
"2017-03-13 17:00","2017","03","13","17:00","-9.9","","-22.4","","36","","29","","5","","24.1","","101.62","","","","-13","","NA"
"2017-03-13 18:00","2017","03","13","18:00","-9.9","","-20.6","","42","","25","","6","","24.1","","101.64","","","","-13","","NA"
"2017-03-13 19:00","2017","03","13","19:00","-10.1","","-19.4","","47","","25","","8","","24.1","","101.63","","","","-15","","Cloudy"
"2017-03-13 20:00","2017","03","13","20:00","-10.2","","-19.5","","47","","25","","7","","24.1","","101.62","","","","-14","","NA"
"2017-03-13 21:00","2017","03","13","21:00","-10.1","","-19.7","","46","","29","","6","","24.1","","101.60","","","","-14","","NA"
"2017-03-13 22:00","2017","03","13","22:00","-10.2","","-18.3","","52","","36","","12","","24.1","","101.53","","","","-16","","Mostly Cloudy"
"2017-03-13 23:00","2017","03","13","23:00","-10.4","","-17.8","","55","","1","","13","","24.1","","101.44","","","","-17","","NA"
"2017-03-14 00:00","2017","03","14","00:00","-10.7","","-17.0","","60","","2","","17","","24.1","","101.39","","","","-18","","NA"
"2017-03-14 01:00","2017","03","14","01:00","-10.6","","-17.4","","58","","5","","13","","24.1","","101.37","","","","-17","","Cloudy"
"2017-03-14 02:00","2017","03","14","02:00","-10.7","","-17.9","","56","","6","","13","","24.1","","101.36","","","","-17","","Snow"
"2017-03-14 03:00","2017","03","14","03:00","-10.9","","-16.5","","64","","3","","15","","24.1","","101.29","","","","-18","","Snow"
"2017-03-14 04:00","2017","03","14","04:00","-10.8","","-16.4","","64","","3","","19","","16.1","","101.16","","","","-19","","Snow"
"2017-03-14 05:00","2017","03","14","05:00","-10.9","","-15.4","","70","","4","","16","","16.1","","101.10","","","","-18","","Snow"
"2017-03-14 06:00","2017","03","14","06:00","-11.1","","-15.2","","72","","4","","23","","16.1","","101.11","","","","-20","","Snow"
"2017-03-14 07:00","2017","03","14","07:00","-11.3","","-13.9","","81","","4","","21","","4.8","","101.02","","","","-20","","Snow"
"2017-03-14 08:00","2017","03","14","08:00","-10.9","","-13.6","","81","","4","","24","","4.8","","100.93","","","","-20","","Snow"
"2017-03-14 09:00","2017","03","14","09:00","-10.6","","-13.1","","82","","4","","25","","4.8","","100.88","","","","-20","","Snow"
"2017-03-14 10:00","2017","03","14","10:00","-10.4","","-13.1","","81","","4","","27","","3.2","","100.78","","","","-20","","Snow"
"2017-03-14 11:00","2017","03","14","11:00","-10.1","","-12.6","","82","","2","","32","","2.4","","100.60","","","","-20","","Snow,Blowing Snow"
"2017-03-14 12:00","2017","03","14","12:00","-9.4","","-11.9","","82","","2","","27","","2.4","","100.44","","","","-18","","Snow,Blowing Snow"
"2017-03-14 13:00","2017","03","14","13:00","-9.1","","-11.5","","83","","2","","32","","2.4","","100.26","","","","-19","","Snow,Blowing Snow"
"2017-03-14 14:00","2017","03","14","14:00","-8.8","","-11.0","","84","","1","","27","","2.0","","100.09","","","","-18","","Snow,Blowing Snow"
"2017-03-14 15:00","2017","03","14","15:00","-8.7","","-10.8","","85","","36","","32","","2.0","","99.98","","","","-18","","Snow,Blowing Snow"
"2017-03-14 16:00","2017","03","14","16:00","-8.8","","-10.7","","86","","36","","29","","2.0","","99.82","","","","-18","","Snow,Blowing Snow"
"2017-03-14 17:00","2017","03","14","17:00","-9.2","","-11.1","","86","","35","","36","","1.6","","99.69","","","","-19","","Snow,Blowing Snow"
"2017-03-14 18:00","2017","03","14","18:00","-9.9","","-12.0","","85","","35","","39","","0.8","","99.54","","","","-21","","Snow,Blowing Snow"
"2017-03-14 19:00","2017","03","14","19:00","-10.2","","-12.3","","85","","35","","32","","1.2","","99.48","","","","-20","","Snow,Blowing Snow"
"2017-03-14 20:00","2017","03","14","20:00","-10.1","","-12.0","","86","","34","","32","","1.2","","99.38","","","","-20","","Snow,Blowing Snow"
"2017-03-14 21:00","2017","03","14","21:00","-10.0","","-11.8","","87","","34","","31","","1.0","","99.29","","","","-20","","Snow,Blowing Snow"
"2017-03-14 22:00","2017","03","14","22:00","-10.3","","-12.2","","86","","33","","36","","1.2","","99.15","","","","-21","","Snow,Blowing Snow"
"2017-03-14 23:00","2017","03","14","23:00","-10.5","","-12.4","","86","","33","","36","","1.2","","99.04","","","","-21","","Snow,Blowing Snow"
"2017-03-15 00:00","2017","03","15","00:00","-10.4","","-12.2","","87","","33","","35","","0.8","","98.91","","","","-21","","Moderate Snow,Blowing Snow"
"2017-03-15 01:00","2017","03","15","01:00","-10.2","","-12.0","","87","","33","","36","","1.2","","98.87","","","","-21","","Snow,Blowing Snow"
"2017-03-15 02:00","2017","03","15","02:00","-10.2","","-12.1","","86","","33","","30","","2.4","","98.75","","","","-20","","Snow,Blowing Snow"
"2017-03-15 03:00","2017","03","15","03:00","-9.9","","-12.1","","84","","33","","31","","3.2","","98.63","","","","-20","","Snow,Blowing Snow"
"2017-03-15 04:00","2017","03","15","04:00","-9.9","","-12.1","","84","","33","","30","","3.2","","98.57","","","","-19","","Snow,Blowing Snow"
"2017-03-15 05:00","2017","03","15","05:00","-10.1","","-12.2","","85","","32","","30","","2.0","","98.53","","","","-20","","Snow,Blowing Snow"
"2017-03-15 06:00","2017","03","15","06:00","-10.4","","-12.3","","86","","32","","33","","2.4","","98.50","","","","-20","","Snow,Blowing Snow"
"2017-03-15 07:00","2017","03","15","07:00","-10.5","","-12.6","","85","","32","","35","","2.4","","98.52","","","","-21","","Snow,Blowing Snow"
"2017-03-15 08:00","2017","03","15","08:00","-10.4","","-12.8","","83","","32","","37","","2.4","","98.54","","","","-21","","Snow,Blowing Snow"
"2017-03-15 09:00","2017","03","15","09:00","-10.0","","-12.4","","83","","32","","30","","3.2","","98.54","","","","-20","","Snow,Blowing Snow"
"2017-03-15 10:00","2017","03","15","10:00","-9.3","","-12.6","","77","","31","","35","","4.0","","98.57","","","","-19","","Snow,Blowing Snow"
"2017-03-15 11:00","2017","03","15","11:00","-8.9","","-12.6","","75","","32","","34","","4.0","","98.60","","","","-19","","Snow,Blowing Snow"
"2017-03-15 12:00","2017","03","15","12:00","-8.6","","-12.3","","75","","32","","37","","3.2","","98.63","","","","-19","","Snow,Blowing Snow"
"2017-03-15 13:00","2017","03","15","13:00","-8.4","","-11.4","","79","","31","","26","","3.2","","98.68","","","","-17","","Snow,Blowing Snow"
"2017-03-15 14:00","2017","03","15","14:00","-7.8","","-10.4","","82","","30","","25","","3.2","","98.71","","","","-16","","Snow,Blowing Snow"
"2017-03-15 15:00","2017","03","15","15:00","-7.3","","-9.4","","85","","29","","32","","2.4","","98.78","","","","-16","","Snow,Blowing Snow"
"2017-03-15 16:00","2017","03","15","16:00","-6.9","","-9.2","","84","","30","","26","","2.4","","98.83","","","","-15","","Snow,Blowing Snow"
"2017-03-15 17:00","2017","03","15","17:00","-6.5","","-9.7","","78","","30","","22","","9.7","","98.92","","","","-14","","Snow,Blowing Snow"
"2017-03-15 18:00","2017","03","15","18:00","-6.6","","-8.3","","88","","29","","20","","3.2","","99.04","","","","-14","","Snow,Blowing Snow"
"2017-03-15 19:00","2017","03","15","19:00","-6.2","","-9.6","","77","","31","","20","","24.1","","99.13","","","","-13","","Snow,Blowing Snow"
"2017-03-15 20:00","2017","03","15","20:00","-6.6","","-11.8","","67","","31","","36","","24.1","","99.23","","","","-16","","Blowing Snow"
"2017-03-15 21:00","2017","03","15","21:00","-7.1","","-12.6","","65","","30","","37","","24.1","","99.31","","","","-17","","Blowing Snow"
"2017-03-15 22:00","2017","03","15","22:00","-7.6","","-13.3","","64","","30","","36","","24.1","","99.37","","","","-17","","Blowing Snow"
"2017-03-15 23:00","2017","03","15","23:00","-8.3","","-14.0","","64","","31","","38","","24.1","","99.41","","","","-18","","Blowing Snow"
"2017-03-16 00:00","2017","03","16","00:00","-8.7","","-14.7","","62","","31","","30","","24.1","","99.43","","","","-18","","Blowing Snow"
"2017-03-16 01:00","2017","03","16","01:00","-8.9","","-15.8","","58","","30","","34","","24.1","","99.49","","","","-19","","Mainly Clear"
"2017-03-16 02:00","2017","03","16","02:00","-9.8","","-16.4","","59","","30","","24","","24.1","","99.51","","","","-18","","NA"
"2017-03-16 03:00","2017","03","16","03:00","-9.9","","-15.9","","62","","30","","35","","24.1","","99.54","","","","-20","","NA"
"2017-03-16 04:00","2017","03","16","04:00","-10.2","","-16.0","","63","","30","","30","","24.1","","99.59","","","","-20","","Cloudy"
"2017-03-16 05:00","2017","03","16","05:00","-10.4","","-16.6","","61","","29","","23","","24.1","","99.61","","","","-19","","NA"
"2017-03-16 06:00","2017","03","16","06:00","-11.3","","-17.4","","61","","29","","34","","24.1","","99.65","","","","-22","","NA"
"2017-03-16 07:00","2017","03","16","07:00","-11.8","","-17.9","","61","","29","","26","","24.1","","99.72","","","","-21","","Mostly Cloudy"
"2017-03-16 08:00","2017","03","16","08:00","-11.1","","-17.2","","61","","29","","30","","24.1","","99.78","","","","-21","","NA"
"2017-03-16 09:00","2017","03","16","09:00","-10.3","","-16.5","","61","","30","","32","","24.1","","99.81","","","","-20","","Blowing Snow"
"2017-03-16 10:00","2017","03","16","10:00","-9.1","","-15.5","","60","","30","","32","","24.1","","99.84","","","","-19","","Blowing Snow"
"2017-03-16 11:00","2017","03","16","11:00","-7.8","","-16.0","","52","","29","","29","","24.1","","99.87","","","","-17","","NA"
"2017-03-16 12:00","2017","03","16","12:00","-6.5","","-15.1","","51","","27","","24","","24.1","","99.89","","","","-14","","NA"
"2017-03-16 13:00","2017","03","16","13:00","-5.4","","-14.8","","48","","28","","25","","24.1","","99.89","","","","-13","","Mainly Clear"
"2017-03-16 14:00","2017","03","16","14:00","-4.4","","-14.1","","47","","29","","27","","24.1","","99.89","","","","-12","","NA"
"2017-03-16 15:00","2017","03","16","15:00","-3.4","","-14.9","","41","","28","","28","","24.1","","99.89","","","","-11","","NA"
"2017-03-16 16:00","2017","03","16","16:00","-2.7","","-15.2","","38","","29","","28","","24.1","","99.90","","","","-10","","Mainly Clear"
"2017-03-16 17:00","2017","03","16","17:00","-2.2","","-15.4","","36","","28","","26","","24.1","","99.95","","","","-9","","NA"
"2017-03-16 18:00","2017","03","16","18:00","-2.8","","-15.3","","38","","29","","18","","24.1","","100.03","","","","-8","","NA"
"2017-03-16 19:00","2017","03","16","19:00","-3.5","","-15.3","","40","","29","","15","","24.1","","100.15","","","","-9","","Mainly Clear"
"2017-03-16 20:00","2017","03","16","20:00","-4.4","","-15.5","","42","","29","","16","","24.1","","100.26","","","","-10","","NA"
"2017-03-16 21:00","2017","03","16","21:00","-5.5","","-16.2","","43","","33","","13","","24.1","","100.33","","","","-11","","NA"
"2017-03-16 22:00","2017","03","16","22:00","-6.9","","-16.4","","47","","32","","14","","24.1","","100.38","","","","-13","","Mainly Clear"
"2017-03-16 23:00","2017","03","16","23:00","-6.4","","-16.8","","44","","32","","16","","24.1","","100.40","","","","-13","","NA"
"2017-03-17 00:00","2017","03","17","00:00","-5.7","","-16.4","","43","","29","","13","","24.1","","100.45","","","","-11","","NA"
"2017-03-17 01:00","2017","03","17","01:00","-5.8","","-16.5","","43","","29","","11","","24.1","","100.49","","","","-11","","Cloudy"
"2017-03-17 02:00","2017","03","17","02:00","-7.4","","-16.6","","48","","32","","19","","24.1","","100.55","","","","-14","","NA"
"2017-03-17 03:00","2017","03","17","03:00","-8.2","","-17.1","","49","","32","","17","","24.1","","100.61","","","","-15","","NA"
"2017-03-17 04:00","2017","03","17","04:00","-10.2","","-18.3","","52","","31","","15","","24.1","","100.69","","","","-17","","Mostly Cloudy"
"2017-03-17 05:00","2017","03","17","05:00","-11.2","","-18.4","","56","","30","","14","","24.1","","100.74","","","","-18","","NA"
"2017-03-17 06:00","2017","03","17","06:00","-11.1","","-18.3","","56","","29","","10","","24.1","","100.81","","","","-17","","NA"
"2017-03-17 07:00","2017","03","17","07:00","-10.9","","-18.5","","54","","29","","14","","24.1","","100.89","","","","-18","","Clear"
"2017-03-17 08:00","2017","03","17","08:00","-10.0","","-17.7","","54","","31","","14","","24.1","","100.95","","","","-16","","NA"
"2017-03-17 09:00","2017","03","17","09:00","-8.4","","-17.1","","50","","29","","10","","24.1","","101.01","","","","-13","","NA"
"2017-03-17 10:00","2017","03","17","10:00","-6.7","","-18.2","","40","","28","","18","","24.1","","101.04","","","","-13","","Clear"
"2017-03-17 11:00","2017","03","17","11:00","-5.5","","-16.2","","43","","30","","17","","24.1","","101.03","","","","-12","","NA"
"2017-03-17 12:00","2017","03","17","12:00","-4.3","","-15.7","","41","","30","","14","","24.1","","100.96","","","","-9","","NA"
"2017-03-17 13:00","2017","03","17","13:00","-3.2","","-16.3","","36","","31","","12","","24.1","","100.91","","","","-8","","Clear"
"2017-03-17 14:00","2017","03","17","14:00","-2.2","","-15.4","","36","","26","","10","","24.1","","100.88","","","","-6","","NA"
"2017-03-17 15:00","2017","03","17","15:00","-1.6","","-17.1","","30","","25","","14","","24.1","","100.85","","","","-6","","NA"
"2017-03-17 16:00","2017","03","17","16:00","-1.1","","-17.5","","28","","25","","12","","24.1","","100.83","","","","-5","","Clear"
"2017-03-17 17:00","2017","03","17","17:00","-1.3","","-17.2","","29","","25","","8","","24.1","","100.81","","","","-4","","NA"
"2017-03-17 18:00","2017","03","17","18:00","-1.8","","-16.5","","32","","32","","8","","24.1","","100.83","","","","-5","","NA"
"2017-03-17 19:00","2017","03","17","19:00","-2.6","","-18.0","","30","","25","","4","","24.1","","100.87","","","","-4","","Clear"
"2017-03-17 20:00","2017","03","17","20:00","-5.2","","-16.2","","42","","9","","8","","24.1","","100.91","","","","-9","","NA"
"2017-03-17 21:00","2017","03","17","21:00","-4.9","","-18.9","","33","","12","","8","","24.1","","100.93","","","","-8","","NA"
"2017-03-17 22:00","2017","03","17","22:00","-6.5","","-18.3","","39","","9","","8","","24.1","","100.93","","","","-10","","Clear"
"2017-03-17 23:00","2017","03","17","23:00","-7.5","","-17.8","","44","","13","","7","","24.1","","100.94","","","","-11","","NA"
"2017-03-18 00:00","2017","03","18","00:00","-6.5","","-18.0","","40","","11","","10","","24.1","","100.94","","","","-11","","NA"
"2017-03-18 01:00","2017","03","18","01:00","-8.4","","-18.1","","46","","7","","7","","24.1","","100.96","","","","-12","","Clear"
"2017-03-18 02:00","2017","03","18","02:00","-12.2","","-19.1","","57","","5","","10","","12.9","","100.94","","","","-18","","NA"
"2017-03-18 03:00","2017","03","18","03:00","-12.5","","-19.0","","59","","19","","5","","24.1","","100.98","","","","-16","","NA"
"2017-03-18 04:00","2017","03","18","04:00","-14.2","","-19.8","","63","","12","","3","","24.1","","100.99","","","","-16","","Clear"
"2017-03-18 05:00","2017","03","18","05:00","-14.1","","-19.9","","62","","6","","12","","24.1","","101.01","","","","-21","","NA"
"2017-03-18 06:00","2017","03","18","06:00","-11.9","","-17.6","","63","","6","","17","","24.1","","101.01","","","","-20","","NA"
"2017-03-18 07:00","2017","03","18","07:00","-11.1","","-16.6","","64","","7","","23","","24.1","","101.03","","","","-20","","Clear"
"2017-03-18 08:00","2017","03","18","08:00","-9.2","","-15.2","","62","","6","","22","","24.1","","101.02","","","","-17","","NA"
"2017-03-18 09:00","2017","03","18","09:00","-6.1","","-14.5","","52","","6","","17","","24.1","","101.04","","","","-12","","NA"
"2017-03-18 10:00","2017","03","18","10:00","-3.0","","-13.4","","45","","7","","10","","24.1","","101.07","","","","-7","","Clear"
"2017-03-18 11:00","2017","03","18","11:00","-1.6","","-12.6","","43","","7","","23","","24.1","","101.03","","","","-8","","NA"
"2017-03-18 12:00","2017","03","18","12:00","-0.7","","-11.8","","43","","6","","27","","24.1","","100.99","","","","-7","","NA"
"2017-03-18 13:00","2017","03","18","13:00","-0.1","","-12.2","","40","","9","","25","","24.1","","100.97","","","","-6","","Clear"
"2017-03-18 14:00","2017","03","18","14:00","0.0","","-11.5","","42","","6","","29","","24.1","","100.91","","","","-6","","NA"
"2017-03-18 15:00","2017","03","18","15:00","-0.1","","-11.0","","44","","5","","25","","24.1","","100.92","","","","-6","","NA"
"2017-03-18 16:00","2017","03","18","16:00","-0.2","","-10.2","","47","","5","","28","","24.1","","100.91","","","","-7","","Clear"
"2017-03-18 17:00","2017","03","18","17:00","-0.9","","-11.1","","46","","6","","26","","24.1","","100.94","","","","-7","","NA"
"2017-03-18 18:00","2017","03","18","18:00","-1.8","","-11.2","","49","","6","","28","","24.1","","100.95","","","","-9","","NA"
"2017-03-18 19:00","2017","03","18","19:00","-2.8","","-11.1","","53","","6","","22","","24.1","","100.99","","","","-9","","Mainly Clear"
"2017-03-18 20:00","2017","03","18","20:00","-3.5","","-11.5","","54","","6","","14","","24.1","","101.06","","","","-9","","NA"
"2017-03-18 21:00","2017","03","18","21:00","-4.0","","-11.3","","57","","6","","16","","24.1","","101.07","","","","-10","","NA"
"2017-03-18 22:00","2017","03","18","22:00","-4.3","","-11.4","","58","","6","","19","","24.1","","101.07","","","","-10","","Clear"
"2017-03-18 23:00","2017","03","18","23:00","-4.7","","-11.3","","60","","5","","21","","24.1","","101.07","","","","-11","","NA"
"2017-03-19 00:00","2017","03","19","00:00","-7.0","","-12.0","","68","","4","","16","","24.1","","101.09","","","","-13","","NA"
"2017-03-19 01:00","2017","03","19","01:00","-6.9","","-11.5","","70","","6","","9","","24.1","","101.12","","","","-11","","Clear"
"2017-03-19 02:00","2017","03","19","02:00","-6.7","","-11.5","","69","","5","","4","","24.1","","101.12","","","","-9","","NA"
"2017-03-19 03:00","2017","03","19","03:00","-9.7","","-13.2","","76","","5","","7","","24.1","","101.10","","","","-14","","NA"
"2017-03-19 04:00","2017","03","19","04:00","-6.0","","-11.0","","68","","35","","12","","24.1","","101.17","","","","-11","","Clear"
"2017-03-19 05:00","2017","03","19","05:00","-8.1","","-12.1","","73","","1","","10","","24.1","","101.20","","","","-13","","NA"
"2017-03-19 06:00","2017","03","19","06:00","-8.0","","-11.4","","77","","1","","10","","24.1","","101.30","","","","-13","","NA"
"2017-03-19 07:00","2017","03","19","07:00","-6.7","","-11.3","","70","","35","","15","","24.1","","101.36","","","","-13","","Clear"
"2017-03-19 08:00","2017","03","19","08:00","-5.6","","-10.8","","67","","6","","3","","24.1","","101.39","","","","-7","","NA"
"2017-03-19 09:00","2017","03","19","09:00","-2.1","","-8.9","","60","","5","","10","","24.1","","101.42","","","","-6","","NA"
"2017-03-19 10:00","2017","03","19","10:00","-0.8","","-9.7","","51","","4","","10","","24.1","","101.41","","","","-4","","Clear"
"2017-03-19 11:00","2017","03","19","11:00","1.0","","-8.8","","48","","36","","10","","24.1","","101.36","","","","","","NA"
"2017-03-19 12:00","2017","03","19","12:00","1.1","","-9.9","","44","","23","","4","","24.1","","101.32","","","","","","NA"
"2017-03-19 13:00","2017","03","19","13:00","2.7","","-8.1","","45","","36","","2","","24.1","","101.26","","","","","","Clear"
"2017-03-19 14:00","2017","03","19","14:00","3.2","","-8.8","","41","","25","","4","","24.1","","101.18","","","","","","NA"
"2017-03-19 15:00","2017","03","19","15:00","3.9","","-9.5","","37","","36","","2","","24.1","","101.13","","","","","","NA"
"2017-03-19 16:00","2017","03","19","16:00","3.6","","-8.8","","40","","25","","8","","24.1","","101.12","","","","","","Clear"
"2017-03-19 17:00","2017","03","19","17:00","4.0","","-10.9","","33","","22","","7","","24.1","","101.09","","","","","","NA"
"2017-03-19 18:00","2017","03","19","18:00","2.8","","-8.9","","42","","20","","8","","24.1","","101.05","","","","","","NA"
"2017-03-19 19:00","2017","03","19","19:00","1.6","","-9.1","","45","","21","","8","","24.1","","101.07","","","","","","Clear"
"2017-03-19 20:00","2017","03","19","20:00","0.8","","-9.3","","47","","19","","8","","24.1","","101.09","","","","","","NA"
"2017-03-19 21:00","2017","03","19","21:00","-0.9","","-9.6","","52","","22","","8","","24.1","","101.10","","","","-4","","NA"
"2017-03-19 22:00","2017","03","19","22:00","-0.5","","-10.2","","48","","19","","10","","24.1","","101.08","","","","-4","","Clear"
"2017-03-19 23:00","2017","03","19","23:00","-1.5","","-10.4","","51","","20","","8","","24.1","","101.04","","","","-5","","NA"
"2017-03-20 00:00","2017","03","20","00:00","-2.5","","-10.8","","53","","19","","8","","24.1","","100.99","","","","-6","","NA"
"2017-03-20 01:00","2017","03","20","01:00","-3.9","","-10.4","","61","","18","","7","","24.1","","100.94","","","","-7","","Clear"
"2017-03-20 02:00","2017","03","20","02:00","-5.2","","-11.6","","61","","19","","5","","24.1","","100.90","","","","-7","","NA"
"2017-03-20 03:00","2017","03","20","03:00","-6.0","","-11.4","","66","","19","","4","","24.1","","100.83","","","","-8","","NA"
"2017-03-20 04:00","2017","03","20","04:00","-6.6","","-11.4","","69","","24","","4","","24.1","","100.86","","","","-9","","Mainly Clear"
"2017-03-20 05:00","2017","03","20","05:00","-7.9","","-11.6","","75","","16","","5","","24.1","","100.83","","","","-11","","NA"
"2017-03-20 06:00","2017","03","20","06:00","-7.1","","-10.8","","75","","17","","8","","24.1","","100.83","","","","-11","","NA"
"2017-03-20 07:00","2017","03","20","07:00","-6.1","","-9.5","","77","","14","","7","","24.1","","100.78","","","","-9","","Cloudy"
"2017-03-20 08:00","2017","03","20","08:00","-4.7","","-6.9","","85","","15","","8","","24.1","","100.74","","","","-8","","NA"
"2017-03-20 09:00","2017","03","20","09:00","-2.0","","-4.7","","82","","15","","5","","16.1","","100.72","","","","-4","","NA"
"2017-03-20 10:00","2017","03","20","10:00","0.3","","-3.4","","76","","18","","13","","12.9","","100.66","","","","","","Cloudy"
"2017-03-20 11:00","2017","03","20","11:00","1.7","","-2.8","","72","","17","","5","","12.9","","100.62","","","","","","NA"
"2017-03-20 12:00","2017","03","20","12:00","2.2","","-3.7","","65","","21","","10","","24.1","","100.62","","","","","","NA"
"2017-03-20 13:00","2017","03","20","13:00","2.6","","-3.5","","64","","20","","6","","24.1","","100.56","","","","","","Cloudy"
"2017-03-20 14:00","2017","03","20","14:00","3.2","","-3.2","","63","","19","","9","","24.1","","100.49","","","","","","NA"
"2017-03-20 15:00","2017","03","20","15:00","4.0","","-3.3","","59","","19","","9","","24.1","","100.35","","","","","","NA"
"2017-03-20 16:00","2017","03","20","16:00","4.3","","-1.7","","65","","17","","17","","24.1","","100.28","","","","","","Mostly Cloudy"
"2017-03-20 17:00","2017","03","20","17:00","4.0","","-1.2","","69","","17","","12","","24.1","","100.23","","","","","","NA"
"2017-03-20 18:00","2017","03","20","18:00","3.2","","-1.6","","71","","17","","10","","16.1","","100.17","","","","","","NA"
"2017-03-20 19:00","2017","03","20","19:00","2.9","","-0.9","","76","","19","","9","","16.1","","100.20","","","","","","Cloudy"
"2017-03-20 20:00","2017","03","20","20:00","2.4","","-0.5","","81","","19","","12","","16.1","","100.17","","","","","","NA"
"2017-03-20 21:00","2017","03","20","21:00","2.0","","-0.4","","84","","20","","13","","16.1","","100.15","","","","","","NA"
"2017-03-20 22:00","2017","03","20","22:00","1.6","","-0.7","","85","","20","","11","","16.1","","100.12","","","","","","Cloudy"
"2017-03-20 23:00","2017","03","20","23:00","1.8","","-0.5","","85","","22","","13","","16.1","","100.09","","","","","","NA"
"2017-03-21 00:00","2017","03","21","00:00","1.5","","0.0","","90","","21","","9","","16.1","","100.05","","","","","","Snow"
"2017-03-21 01:00","2017","03","21","01:00","1.3","","0.1","","92","","22","","8","","16.1","","100.05","","","","","","Cloudy"
"2017-03-21 02:00","2017","03","21","02:00","1.5","","0.2","","91","","21","","9","","16.1","","99.98","","","","","","NA"
"2017-03-21 03:00","2017","03","21","03:00","1.4","","0.1","","91","","22","","11","","16.1","","99.94","","","","","","NA"
"2017-03-21 04:00","2017","03","21","04:00","1.1","","0.1","","93","","30","","9","","16.1","","99.90","","","","","","Snow"
"2017-03-21 05:00","2017","03","21","05:00","0.8","","0.4","","97","","31","","8","","12.9","","99.90","","","","","","Snow"
"2017-03-21 06:00","2017","03","21","06:00","1.0","","0.4","","96","","34","","10","","6.4","","99.92","","","","","","Rain,Snow"
"2017-03-21 07:00","2017","03","21","07:00","0.5","","0.2","","98","","22","","6","","6.4","","99.93","","","","","","Rain,Snow"
"2017-03-21 08:00","2017","03","21","08:00","0.9","","0.8","","99","","18","","4","","6.4","","99.91","","","","","","Rain,Snow,Fog"
"2017-03-21 09:00","2017","03","21","09:00","1.6","","1.2","","97","","35","","3","","6.4","","99.90","","","","","","Rain,Fog"
"2017-03-21 10:00","2017","03","21","10:00","3.0","","0.2","","82","","9","","16","","24.1","","99.86","","","","","","Mostly Cloudy"
"2017-03-21 11:00","2017","03","21","11:00","3.1","","0.0","","80","","9","","15","","16.1","","99.82","","","","","","NA"
"2017-03-21 12:00","2017","03","21","12:00","3.1","","0.2","","81","","11","","8","","24.1","","99.78","","","","","","NA"
"2017-03-21 13:00","2017","03","21","13:00","3.9","","0.2","","77","","20","","7","","24.1","","99.70","","","","","","Mostly Cloudy"
"2017-03-21 14:00","2017","03","21","14:00","4.5","","-0.1","","72","","21","","10","","24.1","","99.61","","","","","","NA"
"2017-03-21 15:00","2017","03","21","15:00","5.5","","-0.3","","66","","15","","4","","24.1","","99.50","","","","","","NA"
"2017-03-21 16:00","2017","03","21","16:00","4.9","","-0.3","","69","","23","","17","","16.1","","99.54","","","","","","Rain"
"2017-03-21 17:00","2017","03","21","17:00","3.5","","0.2","","79","","15","","10","","24.1","","99.45","","","","","","NA"
"2017-03-21 18:00","2017","03","21","18:00","2.8","","0.4","","84","","12","","9","","24.1","","99.40","","","","","","NA"
"2017-03-21 19:00","2017","03","21","19:00","3.5","","0.0","","78","","8","","7","","24.1","","99.41","","","","","","Mostly Cloudy"
"2017-03-21 20:00","2017","03","21","20:00","3.6","","-1.4","","70","","29","","28","","24.1","","99.48","","","","","","NA"
"2017-03-21 21:00","2017","03","21","21:00","0.7","","-1.9","","83","","33","","41","","16.1","","99.62","","","","","","Rain"
"2017-03-21 22:00","2017","03","21","22:00","-1.8","","-7.0","","68","","33","","45","","24.1","","99.75","","","","-10","","Mostly Cloudy"
"2017-03-21 23:00","2017","03","21","23:00","-3.9","","-9.8","","64","","33","","47","","24.1","","99.95","","","","-13","","NA"
"2017-03-22 00:00","2017","03","22","00:00","-7.1","","-13.8","","59","","33","","53","","24.1","","100.13","","","","-18","","NA"
"2017-03-22 01:00","2017","03","22","01:00","-8.0","","-14.3","","61","","32","","39","","24.1","","100.29","","","","-18","","Mostly Cloudy"
"2017-03-22 02:00","2017","03","22","02:00","-9.8","","-19.7","","45","","33","","49","","24.1","","100.44","","","","-21","","NA"
"2017-03-22 03:00","2017","03","22","03:00","-11.4","","-21.1","","45","","33","","46","","24.1","","100.57","","","","-23","","NA"
"2017-03-22 04:00","2017","03","22","04:00","-13.0","","-22.4","","46","","33","","55","","24.1","","100.76","","","","-26","","Clear"
"2017-03-22 05:00","2017","03","22","05:00","-13.6","","-22.2","","49","","33","","31","","24.1","","100.94","","","","-24","","NA"
"2017-03-22 06:00","2017","03","22","06:00","-14.5","","-22.8","","50","","34","","45","","24.1","","101.13","","","","-27","","NA"
"2017-03-22 07:00","2017","03","22","07:00","-14.5","","-22.3","","52","","33","","31","","24.1","","101.28","","","","-26","","Clear"
"2017-03-22 08:00","2017","03","22","08:00","-14.3","","-22.4","","51","","33","","42","","24.1","","101.38","","","","-27","","NA"
"2017-03-22 09:00","2017","03","22","09:00","-13.3","","-21.2","","52","","31","","36","","24.1","","101.48","","","","-25","","NA"
"2017-03-22 10:00","2017","03","22","10:00","-12.6","","-21.3","","49","","32","","31","","24.1","","101.55","","","","-23","","Clear"
"2017-03-22 11:00","2017","03","22","11:00","-11.6","","-20.6","","48","","35","","25","","24.1","","101.56","","","","-21","","NA"
"2017-03-22 12:00","2017","03","22","12:00","-10.6","","-19.9","","47","","31","","26","","24.1","","101.58","","","","-20","","NA"
"2017-03-22 13:00","2017","03","22","13:00","-10.1","","-20.5","","43","","30","","26","","24.1","","101.58","","","","-19","","Clear"
"2017-03-22 14:00","2017","03","22","14:00","-8.8","","-18.7","","45","","29","","32","","24.1","","101.58","","","","-18","","NA"
"2017-03-22 15:00","2017","03","22","15:00","-7.8","","-18.1","","44","","29","","26","","24.1","","101.55","","","","-16","","NA"
"2017-03-22 16:00","2017","03","22","16:00","-7.2","","-18.1","","42","","28","","29","","24.1","","101.55","","","","-16","","Clear"
"2017-03-22 17:00","2017","03","22","17:00","-6.9","","-18.7","","39","","28","","29","","24.1","","101.55","","","","-15","","NA"
"2017-03-22 18:00","2017","03","22","18:00","-6.8","","-17.7","","42","","28","","16","","24.1","","101.59","","","","-13","","NA"
"2017-03-22 19:00","2017","03","22","19:00","-7.1","","-18.6","","40","","28","","18","","24.1","","101.64","","","","-14","","Clear"
"2017-03-22 20:00","2017","03","22","20:00","-7.4","","-18.0","","43","","28","","14","","24.1","","101.67","","","","-13","","NA"
"2017-03-22 21:00","2017","03","22","21:00","-7.8","","-17.5","","46","","29","","11","","24.1","","101.71","","","","-13","","NA"
"2017-03-22 22:00","2017","03","22","22:00","-8.2","","-17.4","","48","","29","","10","","24.1","","101.73","","","","-13","","Clear"
"2017-03-22 23:00","2017","03","22","23:00","-8.2","","-17.9","","46","","32","","17","","24.1","","101.76","","","","-15","","NA"
"2017-03-23 00:00","2017","03","23","00:00","-10.3","","-17.9","","54","","26","","10","","24.1","","101.79","","","","-16","","NA"
"2017-03-23 01:00","2017","03","23","01:00","-11.5","","-18.4","","57","","24","","10","","24.1","","101.80","","","","-17","","Clear"
"2017-03-23 02:00","2017","03","23","02:00","-12.9","","-18.2","","65","","17","","5","","24.1","","101.81","","","","-16","","NA"
"2017-03-23 03:00","2017","03","23","03:00","-12.7","","-18.2","","64","","22","","12","","24.1","","101.83","","","","-19","","NA"
"2017-03-23 04:00","2017","03","23","04:00","-12.1","","-18.2","","61","","24","","14","","24.1","","101.86","","","","-19","","Clear"
"2017-03-23 05:00","2017","03","23","05:00","-12.2","","-18.1","","62","","24","","14","","24.1","","101.92","","","","-19","","NA"
"2017-03-23 06:00","2017","03","23","06:00","-12.9","","-17.6","","68","","25","","13","","24.1","","101.97","","","","-20","","NA"
"2017-03-23 07:00","2017","03","23","07:00","-11.4","","-17.1","","63","","26","","9","","24.1","","102.01","","","","-17","","Clear"
"2017-03-23 08:00","2017","03","23","08:00","-8.1","","-16.6","","51","","29","","11","","24.1","","102.06","","","","-13","","NA"
"2017-03-23 09:00","2017","03","23","09:00","-6.8","","-15.1","","52","","30","","21","","24.1","","102.07","","","","-14","","NA"
"2017-03-23 10:00","2017","03","23","10:00","-4.8","","-14.2","","48","","29","","12","","24.1","","102.07","","","","-10","","Clear"
"2017-03-23 11:00","2017","03","23","11:00","-3.3","","-14.2","","43","","24","","10","","24.1","","102.03","","","","-7","","NA"
"2017-03-23 12:00","2017","03","23","12:00","-1.1","","-13.7","","38","","29","","16","","24.1","","101.99","","","","-6","","NA"
"2017-03-23 13:00","2017","03","23","13:00","-0.7","","-15.1","","33","","28","","26","","24.1","","101.91","","","","-7","","Clear"
"2017-03-23 14:00","2017","03","23","14:00","0.2","","-14.3","","33","","30","","23","","24.1","","101.86","","","","","","NA"
"2017-03-23 15:00","2017","03","23","15:00","0.6","","-15.5","","29","","29","","10","","24.1","","101.78","","","","","","NA"
"2017-03-23 16:00","2017","03","23","16:00","1.1","","-16.9","","25","","36","","2","","24.1","","101.71","","","","","","Mainly Clear"
"2017-03-23 17:00","2017","03","23","17:00","1.5","","-16.1","","26","","36","","3","","24.1","","101.61","","","","","","NA"
"2017-03-23 18:00","2017","03","23","18:00","-0.1","","-12.2","","40","","15","","9","","24.1","","101.69","","","","-3","","NA"
"2017-03-23 19:00","2017","03","23","19:00","0.1","","-8.4","","53","","19","","16","","24.1","","101.70","","","","","","Mostly Cloudy"
"2017-03-23 20:00","2017","03","23","20:00","-1.0","","-8.3","","58","","18","","18","","24.1","","101.70","","","","-6","","NA"
"2017-03-23 21:00","2017","03","23","21:00","-1.4","","-9.3","","55","","19","","19","","24.1","","101.64","","","","-7","","NA"
"2017-03-23 22:00","2017","03","23","22:00","-1.7","","-10.1","","53","","18","","17","","24.1","","101.58","","","","-7","","Cloudy"
"2017-03-23 23:00","2017","03","23","23:00","-1.8","","-11.2","","49","","19","","18","","24.1","","101.45","","","","-7","","NA"
"2017-03-24 00:00","2017","03","24","00:00","-2.0","","-10.4","","53","","18","","13","","24.1","","101.31","","","","-6","","NA"
"2017-03-24 01:00","2017","03","24","01:00","-1.9","","-12.1","","46","","18","","12","","24.1","","101.30","","","","-6","","Cloudy"
"2017-03-24 02:00","2017","03","24","02:00","-2.3","","-11.4","","50","","16","","7","","24.1","","101.31","","","","-5","","NA"
"2017-03-24 03:00","2017","03","24","03:00","-2.5","","-10.4","","55","","14","","9","","24.1","","101.15","","","","-6","","NA"
"2017-03-24 04:00","2017","03","24","04:00","-2.3","","-10.6","","53","","18","","7","","24.1","","101.07","","","","-5","","Cloudy"
"2017-03-24 05:00","2017","03","24","05:00","-3.9","","-5.8","","87","","21","","9","","1.6","","101.08","","","","-8","","Snow"
"2017-03-24 06:00","2017","03","24","06:00","-4.3","","-5.0","","95","","8","","14","","1.2","","100.83","","","","-9","","Snow"
"2017-03-24 07:00","2017","03","24","07:00","-4.0","","-5.0","","93","","8","","8","","12.9","","100.86","","","","-7","","Cloudy"
"2017-03-24 08:00","2017","03","24","08:00","-3.7","","-4.5","","94","","9","","4","","1.2","","100.84","","","","-5","","Snow"
"2017-03-24 09:00","2017","03","24","09:00","-2.8","","-3.8","","93","","12","","12","","4.8","","100.67","","","","-7","","Snow"
"2017-03-24 10:00","2017","03","24","10:00","-1.9","","-2.6","","95","","13","","13","","4.8","","100.56","","","","-6","","Snow"
"2017-03-24 11:00","2017","03","24","11:00","-1.3","","-2.1","","94","","11","","10","","3.2","","100.51","","","","-5","","Snow"
"2017-03-24 12:00","2017","03","24","12:00","-1.0","","-1.6","","96","","8","","8","","1.2","","100.36","","","","-4","","Snow"
"2017-03-24 13:00","2017","03","24","13:00","-0.6","","-1.3","","95","","11","","10","","6.4","","100.22","","","","-4","","Snow"
"2017-03-24 14:00","2017","03","24","14:00","0.1","","-0.8","","94","","10","","13","","16.1","","100.13","","","","","","Rain"
"2017-03-24 15:00","2017","03","24","15:00","0.2","","-0.5","","95","","9","","4","","9.7","","100.15","","","","","","Rain,Fog"
"2017-03-24 16:00","2017","03","24","16:00","0.2","","-0.1","","98","","7","","8","","9.7","","100.13","","","","","","Rain"
"2017-03-24 17:00","2017","03","24","17:00","0.2","","-0.1","","98","","5","","3","","3.2","","100.22","","","","","","Snow,Ice Pellets"
"2017-03-24 18:00","2017","03","24","18:00","0.0","","-0.1","","99","","36","","2","","1.2","","100.30","","","","-1","","Snow"
"2017-03-24 19:00","2017","03","24","19:00","0.0","","-0.1","","99","","30","","4","","1.2","","100.38","","","","-1","","Snow"
"2017-03-24 20:00","2017","03","24","20:00","0.0","","-0.1","","99","","34","","12","","0.6","","100.53","","","","-4","","Snow"
"2017-03-24 21:00","2017","03","24","21:00","-0.1","","-0.2","","99","","31","","8","","2.0","","100.64","","","","-3","","Snow"
"2017-03-24 22:00","2017","03","24","22:00","-0.3","","-0.4","","99","","33","","13","","3.2","","100.63","","","","-4","","Snow,Fog"
"2017-03-24 23:00","2017","03","24","23:00","-0.4","","-0.5","","99","","31","","8","","6.4","","100.68","","","","-3","","Fog"
"2017-03-25 00:00","2017","03","25","00:00","-0.3","","-0.4","","99","","31","","9","","8.1","","100.75","","","","-3","","Fog"
"2017-03-25 01:00","2017","03","25","01:00","-0.8","","-1.1","","98","","29","","7","","24.1","","100.78","","","","-3","","Cloudy"
"2017-03-25 02:00","2017","03","25","02:00","-0.7","","-0.8","","99","","32","","10","","24.1","","100.80","","","","-4","","NA"
"2017-03-25 03:00","2017","03","25","03:00","0.0","","-0.4","","97","","33","","10","","24.1","","100.84","","","","-3","","NA"
"2017-03-25 04:00","2017","03","25","04:00","-1.3","","-1.4","","99","","33","","7","","24.1","","100.85","","","","-4","","Mostly Cloudy"
"2017-03-25 05:00","2017","03","25","05:00","-2.9","","-3.0","","99","","31","","9","","24.1","","100.97","","","","-6","","NA"
"2017-03-25 06:00","2017","03","25","06:00","-3.0","","-3.1","","99","","31","","11","","1.6","","101.08","","","","-7","","Fog"
"2017-03-25 07:00","2017","03","25","07:00","-1.1","","-1.4","","98","","34","","18","","24.1","","101.19","","","","-6","","Mostly Cloudy"
"2017-03-25 08:00","2017","03","25","08:00","-0.4","","-2.2","","88","","35","","16","","24.1","","101.30","","","","-5","","NA"
"2017-03-25 09:00","2017","03","25","09:00","-0.2","","-2.4","","85","","35","","19","","24.1","","101.37","","","","-5","","NA"
"2017-03-25 10:00","2017","03","25","10:00","-0.2","","-3.6","","78","","35","","19","","24.1","","101.42","","","","-5","","Cloudy"
"2017-03-25 11:00","2017","03","25","11:00","0.0","","-4.3","","73","","35","","18","","24.1","","101.45","","","","-5","","NA"
"2017-03-25 12:00","2017","03","25","12:00","0.1","","-4.9","","69","","34","","19","","24.1","","101.53","","","","","","NA"
"2017-03-25 13:00","2017","03","25","13:00","1.2","","-6.0","","59","","35","","19","","24.1","","101.55","","","","","","Mostly Cloudy"
"2017-03-25 14:00","2017","03","25","14:00","1.8","","-6.3","","55","","34","","17","","24.1","","101.53","","","","","","NA"
"2017-03-25 15:00","2017","03","25","15:00","2.3","","-6.3","","53","","34","","10","","24.1","","101.54","","","","","","NA"
"2017-03-25 16:00","2017","03","25","16:00","2.8","","-7.2","","48","","33","","9","","24.1","","101.56","","","","","","Mainly Clear"
"2017-03-25 17:00","2017","03","25","17:00","2.9","","-7.3","","47","","36","","10","","24.1","","101.58","","","","","","NA"
"2017-03-25 18:00","2017","03","25","18:00","1.7","","-7.4","","51","","23","","7","","24.1","","101.64","","","","","","NA"
"2017-03-25 19:00","2017","03","25","19:00","-0.2","","-8.0","","56","","32","","4","","24.1","","101.70","","","","-1","","Clear"
"2017-03-25 20:00","2017","03","25","20:00","-1.7","","-8.3","","61","","36","","2","","24.1","","101.75","","","","-2","","NA"
"2017-03-25 21:00","2017","03","25","21:00","-5.0","","-9.8","","69","","24","","5","","24.1","","101.79","","","","-7","","NA"
"2017-03-25 22:00","2017","03","25","22:00","-2.7","","-8.2","","66","","35","","7","","24.1","","101.77","","","","-6","","Clear"
"2017-03-25 23:00","2017","03","25","23:00","-3.2","","-9.5","","62","","1","","10","","24.1","","101.77","","","","-7","","NA"
"2017-03-26 00:00","2017","03","26","00:00","-4.6","","-11.5","","59","","5","","10","","24.1","","101.76","","","","-9","","NA"
"2017-03-26 01:00","2017","03","26","01:00","-5.9","","-8.8","","80","","5","","14","","24.1","","101.78","","","","-11","","Clear"
"2017-03-26 02:00","2017","03","26","02:00","-5.3","","-5.8","","96","","6","","14","","6.4","","101.78","","","","-11","","Fog"
"2017-03-26 03:00","2017","03","26","03:00","-5.8","","-6.8","","93","","5","","17","","16.1","","101.77","","","","-12","","NA"
"2017-03-26 04:00","2017","03","26","04:00","-6.0","","-9.1","","79","","6","","20","","24.1","","101.77","","","","-13","","Mainly Clear"
"2017-03-26 05:00","2017","03","26","05:00","-6.5","","-11.5","","68","","7","","19","","24.1","","101.81","","","","-13","","NA"
"2017-03-26 06:00","2017","03","26","06:00","-6.7","","-13.7","","58","","6","","16","","24.1","","101.82","","","","-13","","NA"
"2017-03-26 07:00","2017","03","26","07:00","-6.5","","-14.6","","53","","7","","20","","24.1","","101.82","","","","-13","","Mostly Cloudy"
"2017-03-26 08:00","2017","03","26","08:00","-5.0","","-14.4","","48","","6","","27","","24.1","","101.79","","","","-13","","NA"
"2017-03-26 09:00","2017","03","26","09:00","-3.7","","-13.7","","46","","7","","21","","24.1","","101.75","","","","-10","","NA"
"2017-03-26 10:00","2017","03","26","10:00","-2.2","","-13.5","","42","","8","","29","","24.1","","101.68","","","","-9","","Mostly Cloudy"
"2017-03-26 11:00","2017","03","26","11:00","-1.7","","-12.7","","43","","9","","33","","24.1","","101.63","","","","-9","","NA"
"2017-03-26 12:00","2017","03","26","12:00","-1.3","","-11.8","","45","","9","","21","","24.1","","101.53","","","","-7","","NA"
"2017-03-26 13:00","2017","03","26","13:00","-1.2","","-11.7","","45","","9","","26","","24.1","","101.43","","","","-8","","Cloudy"
"2017-03-26 14:00","2017","03","26","14:00","-0.8","","-11.6","","44","","7","","24","","24.1","","101.33","","","","-7","","Freezing Rain"
"2017-03-26 15:00","2017","03","26","15:00","-1.1","","-9.3","","54","","8","","27","","16.1","","101.24","","","","-8","","Freezing Rain"
"2017-03-26 16:00","2017","03","26","16:00","-1.2","","-7.4","","63","","8","","19","","24.1","","101.17","","","","-7","","Cloudy"
"2017-03-26 17:00","2017","03","26","17:00","-1.4","","-6.8","","67","","8","","28","","24.1","","101.02","","","","-8","","NA"
"2017-03-26 18:00","2017","03","26","18:00","-1.2","","-6.6","","67","","8","","27","","24.1","","100.98","","","","-8","","NA"
"2017-03-26 19:00","2017","03","26","19:00","-1.2","","-5.8","","71","","8","","25","","24.1","","100.93","","","","-7","","Freezing Rain"
"2017-03-26 20:00","2017","03","26","20:00","-1.4","","-5.1","","76","","7","","20","","24.1","","100.89","","","","-7","","NA"
"2017-03-26 21:00","2017","03","26","21:00","-1.2","","-4.7","","77","","7","","18","","24.1","","100.83","","","","-6","","NA"
"2017-03-26 22:00","2017","03","26","22:00","-0.9","","-3.9","","80","","8","","17","","24.1","","100.75","","","","-6","","Cloudy"
"2017-03-26 23:00","2017","03","26","23:00","-0.7","","-2.6","","87","","8","","21","","11.3","","100.67","","","","-6","","Freezing Drizzle"
"2017-03-27 00:00","2017","03","27","00:00","-1.0","","-1.7","","95","","9","","16","","4.8","","100.54","","","","-6","","Freezing Drizzle,Fog"
"2017-03-27 01:00","2017","03","27","01:00","-0.8","","-1.1","","98","","8","","17","","2.4","","100.47","","","","-6","","Freezing Drizzle,Fog"
"2017-03-27 02:00","2017","03","27","02:00","-0.6","","-0.9","","98","","7","","15","","4.8","","100.38","","","","-5","","Freezing Rain,Freezing Drizzle,Fog"
"2017-03-27 03:00","2017","03","27","03:00","-0.6","","-0.9","","98","","7","","17","","4.8","","100.30","","","","-6","","Fog"
"2017-03-27 04:00","2017","03","27","04:00","-0.6","","-0.9","","98","","7","","19","","4.8","","100.23","","","","-6","","Freezing Rain,Fog"
"2017-03-27 05:00","2017","03","27","05:00","-0.3","","-0.6","","98","","8","","20","","4.8","","100.19","","","","-6","","Freezing Rain,Fog"
"2017-03-27 06:00","2017","03","27","06:00","-0.1","","-0.4","","98","","8","","18","","4.8","","100.15","","","","-5","","Freezing Drizzle,Fog"
"2017-03-27 07:00","2017","03","27","07:00","0.1","","0.0","","99","","8","","11","","3.2","","100.13","","","","","","Drizzle,Freezing Drizzle,Fog"
"2017-03-27 08:00","2017","03","27","08:00","0.2","","0.1","","99","","8","","15","","3.2","","100.11","","","","","","Drizzle,Fog"
"2017-03-27 09:00","2017","03","27","09:00","0.4","","0.3","","99","","8","","18","","3.2","","100.08","","","","","","Rain,Fog"
"2017-03-27 10:00","2017","03","27","10:00","0.7","","0.6","","99","","9","","15","","4.8","","100.04","","","","","","Drizzle,Fog"
"2017-03-27 11:00","2017","03","27","11:00","1.0","","0.9","","99","","7","","13","","6.4","","100.01","","","","","","Drizzle,Fog"
"2017-03-27 12:00","2017","03","27","12:00","1.4","","1.3","","99","","9","","14","","9.7","","99.96","","","","","","Drizzle,Fog"
"2017-03-27 13:00","2017","03","27","13:00","1.5","","1.4","","99","","7","","9","","3.2","","99.95","","","","","","Rain,Fog"
"2017-03-27 14:00","2017","03","27","14:00","1.9","","1.8","","99","","7","","10","","4.8","","99.92","","","","","","Rain,Fog"
"2017-03-27 15:00","2017","03","27","15:00","2.0","","1.9","","99","","8","","10","","4.8","","99.91","","","","","","Rain,Fog"
"2017-03-27 16:00","2017","03","27","16:00","2.2","","2.1","","99","","7","","9","","4.8","","99.87","","","","","","Rain,Fog"
"2017-03-27 17:00","2017","03","27","17:00","2.1","","2.0","","99","","9","","8","","0.4","","99.89","","","","","","Fog"
"2017-03-27 18:00","2017","03","27","18:00","2.1","","2.0","","99","","7","","8","","0.2","","99.89","","","","","","Fog"
"2017-03-27 19:00","2017","03","27","19:00","1.6","","1.5","","99","","7","","11","","0.2","","99.87","","","","","","Fog"
"2017-03-27 20:00","2017","03","27","20:00","1.2","","1.1","","99","","6","","8","","0.6","","99.92","","","","","","Fog"
"2017-03-27 21:00","2017","03","27","21:00","1.1","","1.0","","99","","5","","9","","0.4","","99.93","","","","","","Fog"
"2017-03-27 22:00","2017","03","27","22:00","1.1","","1.1","","100","","6","","9","","0.4","","99.89","","","","","","Fog"
"2017-03-27 23:00","2017","03","27","23:00","0.9","","0.8","","99","","5","","9","","0.8","","99.87","","","","","","Rain,Fog"
"2017-03-28 00:00","2017","03","28","00:00","1.1","","1.1","","100","","6","","9","","1.2","","99.85","","","","","","Rain,Fog"
"2017-03-28 01:00","2017","03","28","01:00","0.8","","0.7","","99","","5","","9","","1.2","","99.84","","","","","","Rain,Fog"
"2017-03-28 02:00","2017","03","28","02:00","0.9","","0.9","","100","","4","","10","","4.8","","99.81","","","","","","Rain,Fog"
"2017-03-28 03:00","2017","03","28","03:00","0.7","","0.6","","99","","4","","11","","1.2","","99.76","","","","","","Fog"
"2017-03-28 04:00","2017","03","28","04:00","1.1","","1.1","","100","","2","","5","","0.4","","99.80","","","","","","Rain,Fog"
"2017-03-28 05:00","2017","03","28","05:00","1.1","","1.1","","100","","34","","9","","1.2","","99.84","","","","","","Rain,Fog"
"2017-03-28 06:00","2017","03","28","06:00","1.5","","1.5","","100","","34","","5","","1.2","","99.87","","","","","","Rain,Fog"
"2017-03-28 07:00","2017","03","28","07:00","1.3","","1.3","","100","","31","","10","","1.2","","99.93","","","","","","Rain,Fog"
"2017-03-28 08:00","2017","03","28","08:00","1.5","","1.5","","100","","29","","9","","3.2","","100.00","","","","","","Rain,Fog"
"2017-03-28 09:00","2017","03","28","09:00","1.9","","1.9","","100","","30","","12","","4.0","","100.03","","","","","","Drizzle,Fog"
"2017-03-28 10:00","2017","03","28","10:00","2.4","","2.4","","100","","31","","13","","16.1","","100.05","","","","","","Cloudy"
"2017-03-28 11:00","2017","03","28","11:00","2.8","","2.7","","99","","31","","15","","24.1","","100.09","","","","","","NA"
"2017-03-28 12:00","2017","03","28","12:00","4.0","","2.7","","91","","32","","21","","24.1","","100.12","","","","","","NA"
"2017-03-28 13:00","2017","03","28","13:00","4.4","","1.8","","83","","32","","21","","24.1","","100.12","","","","","","Cloudy"
"2017-03-28 14:00","2017","03","28","14:00","5.4","","1.7","","77","","33","","15","","24.1","","100.16","","","","","","NA"
"2017-03-28 15:00","2017","03","28","15:00","5.2","","1.5","","77","","33","","22","","24.1","","100.17","","","","","","NA"
"2017-03-28 16:00","2017","03","28","16:00","4.9","","1.2","","77","","32","","21","","24.1","","100.24","","","","","","Mostly Cloudy"
"2017-03-28 17:00","2017","03","28","17:00","5.4","","0.8","","72","","33","","13","","24.1","","100.29","","","","","","NA"
"2017-03-28 18:00","2017","03","28","18:00","5.1","","0.7","","73","","35","","8","","24.1","","100.38","","","","","","NA"
"2017-03-28 19:00","2017","03","28","19:00","5.1","","0.3","","71","","34","","10","","24.1","","100.45","","","","","","Mostly Cloudy"
"2017-03-28 20:00","2017","03","28","20:00","4.8","","-0.2","","70","","36","","12","","24.1","","100.53","","","","","","NA"
"2017-03-28 21:00","2017","03","28","21:00","4.1","","-0.3","","73","","36","","8","","24.1","","100.57","","","","","","NA"
"2017-03-28 22:00","2017","03","28","22:00","4.0","","-0.6","","72","","35","","16","","24.1","","100.62","","","","","","Mostly Cloudy"
"2017-03-28 23:00","2017","03","28","23:00","3.8","","-1.2","","70","","35","","15","","24.1","","100.63","","","","","","NA"
"2017-03-29 00:00","2017","03","29","00:00","2.8","","-1.4","","74","","34","","12","","24.1","","100.67","","","","","","NA"
"2017-03-29 01:00","2017","03","29","01:00","1.9","","-1.5","","78","","32","","16","","24.1","","100.70","","","","","","Mostly Cloudy"
"2017-03-29 02:00","2017","03","29","02:00","1.9","","-2.8","","71","","34","","12","","24.1","","100.73","","","","","","NA"
"2017-03-29 03:00","2017","03","29","03:00","1.6","","-3.7","","68","","34","","13","","24.1","","100.77","","","","","","NA"
"2017-03-29 04:00","2017","03","29","04:00","0.3","","-3.1","","78","","29","","13","","24.1","","100.80","","","","","","Mostly Cloudy"
"2017-03-29 05:00","2017","03","29","05:00","0.0","","-2.7","","82","","29","","8","","24.1","","100.81","","","","-3","","NA"
"2017-03-29 06:00","2017","03","29","06:00","-0.4","","-2.5","","86","","28","","8","","24.1","","100.81","","","","-3","","NA"
"2017-03-29 07:00","2017","03","29","07:00","0.0","","-2.7","","82","","28","","12","","24.1","","100.91","","","","-4","","Cloudy"
"2017-03-29 08:00","2017","03","29","08:00","0.5","","-2.2","","82","","29","","7","","24.1","","100.94","","","","","","NA"
"2017-03-29 09:00","2017","03","29","09:00","2.8","","-3.1","","65","","34","","24","","24.1","","100.95","","","","","","NA"
"2017-03-29 10:00","2017","03","29","10:00","3.7","","-6.3","","48","","35","","31","","24.1","","100.98","","","","","","Mostly Cloudy"
"2017-03-29 11:00","2017","03","29","11:00","3.8","","-6.8","","46","","32","","25","","24.1","","100.99","","","","","","NA"
"2017-03-29 12:00","2017","03","29","12:00","3.5","","-5.2","","53","","34","","28","","24.1","","101.04","","","","","","NA"
"2017-03-29 13:00","2017","03","29","13:00","4.1","","-5.4","","50","","32","","27","","24.1","","101.04","","","","","","Mainly Clear"
"2017-03-29 14:00","2017","03","29","14:00","4.7","","-5.7","","47","","32","","18","","24.1","","100.99","","","","","","NA"
"2017-03-29 15:00","2017","03","29","15:00","5.1","","-5.9","","45","","33","","25","","24.1","","101.00","","","","","","NA"
"2017-03-29 16:00","2017","03","29","16:00","5.5","","-5.5","","45","","34","","23","","24.1","","101.04","","","","","","Mainly Clear"
"2017-03-29 17:00","2017","03","29","17:00","4.5","","-5.6","","48","","34","","27","","24.1","","101.13","","","","","","NA"
"2017-03-29 18:00","2017","03","29","18:00","3.9","","-6.7","","46","","34","","18","","24.1","","101.20","","","","","","NA"
"2017-03-29 19:00","2017","03","29","19:00","3.2","","-5.7","","52","","33","","12","","24.1","","101.26","","","","","","Mostly Cloudy"
"2017-03-29 20:00","2017","03","29","20:00","3.2","","-5.7","","52","","35","","15","","24.1","","101.32","","","","","","NA"
"2017-03-29 21:00","2017","03","29","21:00","2.4","","-6.2","","53","","35","","9","","24.1","","101.33","","","","","","NA"
"2017-03-29 22:00","2017","03","29","22:00","1.4","","-6.2","","57","","31","","8","","24.1","","101.29","","","","","","Mainly Clear"
"2017-03-29 23:00","2017","03","29","23:00","0.7","","-6.4","","59","","33","","13","","24.1","","101.26","","","","","","NA"
"2017-03-30 00:00","2017","03","30","00:00","-1.2","","-6.6","","67","","31","","8","","24.1","","101.21","","","","-4","","NA"
"2017-03-30 01:00","2017","03","30","01:00","-1.1","","-6.1","","69","","33","","7","","24.1","","101.17","","","","-4","","Clear"
"2017-03-30 02:00","2017","03","30","02:00","-2.1","","-6.1","","74","","33","","8","","24.1","","101.20","","","","-5","","NA"
"2017-03-30 03:00","2017","03","30","03:00","-2.7","","-6.4","","76","","30","","9","","24.1","","101.23","","","","-6","","NA"
"2017-03-30 04:00","2017","03","30","04:00","-3.0","","-5.5","","83","","31","","12","","24.1","","101.25","","","","-7","","Mainly Clear"
"2017-03-30 05:00","2017","03","30","05:00","-2.2","","-6.2","","74","","33","","13","","24.1","","101.29","","","","-7","","NA"
"2017-03-30 06:00","2017","03","30","06:00","-2.3","","-6.3","","74","","34","","11","","24.1","","101.33","","","","-6","","NA"
"2017-03-30 07:00","2017","03","30","07:00","-0.9","","-6.1","","68","","35","","11","","24.1","","101.37","","","","-5","","Clear"
"2017-03-30 08:00","2017","03","30","08:00","0.9","","-6.0","","60","","2","","12","","24.1","","101.34","","","","","","NA"
"2017-03-30 09:00","2017","03","30","09:00","1.7","","-6.9","","53","","5","","16","","24.1","","101.32","","","","","","NA"
"2017-03-30 10:00","2017","03","30","10:00","2.2","","-6.9","","51","","2","","10","","24.1","","101.28","","","","","","Mainly Clear"
"2017-03-30 11:00","2017","03","30","11:00","2.8","","-7.2","","48","","6","","8","","24.1","","101.21","","","","","","NA"
"2017-03-30 12:00","2017","03","30","12:00","3.4","","-6.1","","50","","7","","13","","24.1","","101.12","","","","","","NA"
"2017-03-30 13:00","2017","03","30","13:00","4.3","","-5.5","","49","","6","","14","","24.1","","101.05","","","","","","Mainly Clear"
"2017-03-30 14:00","2017","03","30","14:00","4.3","","-6.3","","46","","11","","10","","24.1","","101.00","","","","","","NA"
"2017-03-30 15:00","2017","03","30","15:00","4.2","","-5.6","","49","","11","","17","","24.1","","100.94","","","","","","NA"
"2017-03-30 16:00","2017","03","30","16:00","4.3","","-6.3","","46","","12","","16","","24.1","","100.83","","","","","","Mostly Cloudy"
"2017-03-30 17:00","2017","03","30","17:00","3.3","","-6.2","","50","","12","","16","","24.1","","100.76","","","","","","NA"
"2017-03-30 18:00","2017","03","30","18:00","2.7","","-6.0","","53","","10","","13","","24.1","","100.76","","","","","","NA"
"2017-03-30 19:00","2017","03","30","19:00","2.5","","-5.9","","54","","9","","13","","24.1","","100.74","","","","","","Cloudy"
"2017-03-30 20:00","2017","03","30","20:00","2.3","","-6.6","","52","","6","","16","","24.1","","100.78","","","","","","NA"
"2017-03-30 21:00","2017","03","30","21:00","1.8","","-6.3","","55","","7","","15","","24.1","","100.81","","","","","","NA"
"2017-03-30 22:00","2017","03","30","22:00","1.4","","-6.0","","58","","7","","13","","24.1","","100.80","","","","","","Cloudy"
"2017-03-30 23:00","2017","03","30","23:00","1.0","","-5.7","","61","","7","","13","","24.1","","100.72","","","","","","NA"
"2017-03-31 00:00","2017","03","31","00:00","1.4","","-6.7","","55","","8","","22","","24.1","","100.52","","","","","","NA"
"2017-03-31 01:00","2017","03","31","01:00","1.4","","-6.5","","56","","7","","18","","24.1","","100.62","","","","","","Cloudy"
"2017-03-31 02:00","2017","03","31","02:00","1.1","","-6.0","","59","","6","","21","","24.1","","100.54","","","","","","NA"
"2017-03-31 03:00","2017","03","31","03:00","0.7","","-5.6","","63","","8","","15","","24.1","","100.54","","","","","","NA"
"2017-03-31 04:00","2017","03","31","04:00","0.9","","-6.0","","60","","7","","27","","24.1","","100.43","","","","","","Cloudy"
"2017-03-31 05:00","2017","03","31","05:00","0.4","","-5.8","","63","","6","","25","","24.1","","100.39","","","","","","NA"
"2017-03-31 06:00","2017","03","31","06:00","0.3","","-5.5","","65","","6","","23","","24.1","","100.36","","","","","","NA"
"2017-03-31 07:00","2017","03","31","07:00","0.5","","-5.5","","64","","8","","25","","24.1","","100.37","","","","","","Cloudy"
"2017-03-31 08:00","2017","03","31","08:00","0.7","","-5.4","","64","","7","","34","","24.1","","100.35","","","","","","NA"
"2017-03-31 09:00","2017","03","31","09:00","1.1","","-6.0","","59","","8","","34","","24.1","","100.31","","","","","","NA"
"2017-03-31 10:00","2017","03","31","10:00","1.6","","-5.6","","59","","8","","26","","24.1","","100.28","","","","","","Cloudy"
"2017-03-31 11:00","2017","03","31","11:00","1.8","","-5.6","","58","","8","","34","","24.1","","100.23","","","","","","NA"
"2017-03-31 12:00","2017","03","31","12:00","1.2","","-2.9","","74","","7","","29","","3.2","","100.18","","","","","","Snow"
"2017-03-31 13:00","2017","03","31","13:00","0.6","","-0.9","","90","","7","","22","","3.2","","100.17","","","","","","Snow"
"2017-03-31 14:00","2017","03","31","14:00","0.4","","-0.2","","96","","6","","25","","2.4","","100.09","","","","","","Snow"
"2017-03-31 15:00","2017","03","31","15:00","0.0","","-0.6","","96","","6","","27","","2.4","","100.04","","","","-6","","Snow"
"2017-03-31 16:00","2017","03","31","16:00","0.0","","-0.6","","96","","6","","29","","2.4","","100.01","","","","-6","","Snow"
"2017-03-31 17:00","2017","03","31","17:00","0.2","","-0.4","","96","","6","","30","","2.4","","99.99","","","","","","Snow"
"2017-03-31 18:00","2017","03","31","18:00","0.0","","-0.6","","96","","6","","25","","1.2","","100.01","","","","-6","","Snow"
"2017-03-31 19:00","2017","03","31","19:00","0.1","","-0.5","","96","","5","","21","","1.6","","99.97","","","","","","Snow"
"2017-03-31 20:00","2017","03","31","20:00","0.1","","-0.3","","97","","6","","23","","1.6","","99.97","","","","","","Snow,Blowing Snow"
"2017-03-31 21:00","2017","03","31","21:00","0.1","","-0.3","","97","","6","","24","","1.6","","99.95","","","","","","Snow,Blowing Snow"
"2017-03-31 22:00","2017","03","31","22:00","0.2","","-0.2","","97","","7","","23","","3.2","","99.91","","","","","","Snow,Blowing Snow"
"2017-03-31 23:00","2017","03","31","23:00","0.2","","-0.2","","97","","6","","22","","6.4","","99.89","","","","","","Snow"
