"Station Name","OTTAWA MACDONALD-CARTIER INT'L A"
"Province","ONTARIO"
"Latitude","45.32"
"Longitude","-75.67"
"Elevation","114.00"
"Climate Identifier","6106000"
"WMO Identifier","71628"
"TC Identifier","YOW"
"All times are specified in Local Standard Time (LST). Add 1 hour to adjust for Daylight Saving Time where and when it is observed."

"Legend"
"E","Estimated"
"M","Missing"
"NA","Not Available"

"Date/Time","Year","Month","Day","Time","Temp (°C)","Temp Flag","Dew Point Temp (°C)","Dew Point Temp Flag","Rel Hum (%)","Rel Hum Flag","Wind Dir (10s deg)","Wind Dir Flag","Wind Spd (km/h)","Wind Spd Flag","Visibility (km)","Visibility Flag","Stn Press (kPa)","Stn Press Flag","Hmdx","Hmdx Flag","Wind Chill","Wind Chill Flag","Weather"
"2002-02-01 00:00","2002","02","01","00:00","-11.4","","-12.6","","91","","7","","26","","4.0","","100.61","","","","-21","","Freezing Drizzle,Snow"
"2002-02-01 01:00","2002","02","01","01:00","-11.2","","-12.4","","91","","6","","24","","2.4","","100.57","","","","-20","","Freezing Drizzle,Snow"
"2002-02-01 02:00","2002","02","01","02:00","-11.3","","-12.4","","92","","7","","26","","2.8","","100.38","","","","-21","","Freezing Drizzle,Snow"
"2002-02-01 03:00","2002","02","01","03:00","-11.2","","-12.3","","92","","7","","26","","2.4","","100.28","","","","-20","","Freezing Drizzle,Snow"
"2002-02-01 04:00","2002","02","01","04:00","-11.0","","-12.1","","92","","7","","24","","2.0","","100.12","","","","-20","","Freezing Drizzle,Snow"
"2002-02-01 05:00","2002","02","01","05:00","-10.7","","-12.0","","90","","7","","20","","3.2","","99.92","","","","-19","","Freezing Drizzle,Snow,Ice Pellets"
"2002-02-01 06:00","2002","02","01","06:00","-10.2","","-11.6","","89","","7","","15","","2.4","","99.74","","","","-17","","Snow,Ice Pellets"
"2002-02-01 07:00","2002","02","01","07:00","-9.7","","-11.0","","90","","8","","19","","2.4","","99.49","","","","-17","","Snow,Ice Pellets"
"2002-02-01 08:00","2002","02","01","08:00","-8.5","","-9.7","","91","","9","","26","","2.8","","99.21","","","","-17","","Snow,Ice Pellets"
"2002-02-01 09:00","2002","02","01","09:00","-7.7","","-8.9","","91","","9","","35","","4.8","","98.71","","","","-17","","Snow"
"2002-02-01 10:00","2002","02","01","10:00","-7.8","","-9.2","","90","","4","","19","","12.9","","98.86","","","","-15","","Cloudy"
"2002-02-01 11:00","2002","02","01","11:00","-7.4","","-8.4","","93","","6","","20","","12.9","","98.44","","","","-15","","Cloudy"
"2002-02-01 12:00","2002","02","01","12:00","-6.5","","-7.4","","93","","7","","24","","9.7","","98.08","","","","-14","","Freezing Rain,Ice Pellets"
"2002-02-01 13:00","2002","02","01","13:00","-4.2","","-4.8","","96","","10","","19","","4.0","","97.98","","","","-10","","Freezing Rain,Ice Pellets"
"2002-02-01 14:00","2002","02","01","14:00","-3.2","","-3.7","","96","","20","","7","","9.7","","97.98","","","","-6","","Fog"
"2002-02-01 15:00","2002","02","01","15:00","-1.9","","-2.6","","95","","22","","15","","9.7","","98.05","","","","-7","","Fog"
"2002-02-01 16:00","2002","02","01","16:00","1.7","","0.2","","90","","23","","20","","12.9","","98.12","","","","","","Cloudy"
"2002-02-01 17:00","2002","02","01","17:00","-0.7","","-1.6","","94","","29","","33","","1.6","","98.30","","","","-8","","Snow Showers,Snow Pellets"
"2002-02-01 18:00","2002","02","01","18:00","-5.6","","-7.4","","87","","29","","44","","1.2","","98.67","","","","-15","","Snow Showers,Blowing Snow"
"2002-02-01 19:00","2002","02","01","19:00","-6.9","","-12.1","","66","","27","","44","","25.0","","99.05","","","","-17","","Cloudy"
"2002-02-01 20:00","2002","02","01","20:00","-9.0","","-15.3","","60","","28","","46","","25.0","","99.40","","","","-20","","Mostly Cloudy"
"2002-02-01 21:00","2002","02","01","21:00","-9.6","","-14.4","","68","","28","","37","","25.0","","99.61","","","","-20","","Mostly Cloudy"
"2002-02-01 22:00","2002","02","01","22:00","-10.1","","-14.4","","71","","29","","30","","25.0","","99.88","","","","-20","","Mainly Clear"
"2002-02-01 23:00","2002","02","01","23:00","-10.6","","-14.5","","73","","29","","35","","25.0","","100.10","","","","-21","","Clear"
"2002-02-02 00:00","2002","02","02","00:00","-10.7","","-15.7","","67","","29","","41","","25.0","","100.27","","","","-22","","Clear"
"2002-02-02 01:00","2002","02","02","01:00","-11.3","","-16.5","","65","","29","","32","","25.0","","100.44","","","","-22","","Clear"
"2002-02-02 02:00","2002","02","02","02:00","-11.7","","-16.5","","68","","28","","41","","25.0","","100.57","","","","-23","","Clear"
"2002-02-02 03:00","2002","02","02","03:00","-12.4","","-16.5","","71","","29","","28","","25.0","","100.71","","","","-22","","Clear"
"2002-02-02 04:00","2002","02","02","04:00","-13.1","","-17.6","","69","","30","","26","","25.0","","100.80","","","","-23","","Clear"
"2002-02-02 05:00","2002","02","02","05:00","-13.8","","-18.0","","71","","29","","24","","25.0","","100.94","","","","-23","","Clear"
"2002-02-02 06:00","2002","02","02","06:00","-14.1","","-18.1","","72","","29","","28","","25.0","","101.02","","","","-25","","Clear"
"2002-02-02 07:00","2002","02","02","07:00","-14.7","","-18.6","","72","","30","","19","","32.2","","101.17","","","","-24","","Clear"
"2002-02-02 08:00","2002","02","02","08:00","-15.4","","-20.4","","65","","30","","30","","40.2","","101.19","","","","-27","","Clear"
"2002-02-02 09:00","2002","02","02","09:00","-15.0","","-20.6","","62","","30","","24","","40.2","","101.30","","","","-25","","Clear"
"2002-02-02 10:00","2002","02","02","10:00","-14.6","","-20.7","","60","","30","","24","","40.2","","101.38","","","","-24","","Mainly Clear"
"2002-02-02 11:00","2002","02","02","11:00","-13.9","","-20.4","","58","","29","","15","","40.2","","101.38","","","","-22","","Mostly Cloudy"
"2002-02-02 12:00","2002","02","02","12:00","-13.2","","-20.5","","54","","31","","22","","40.2","","101.38","","","","-22","","Mostly Cloudy"
"2002-02-02 13:00","2002","02","02","13:00","-12.4","","-20.0","","53","","28","","20","","40.2","","101.35","","","","-21","","Mostly Cloudy"
"2002-02-02 14:00","2002","02","02","14:00","-11.7","","-19.3","","53","","25","","17","","40.2","","101.32","","","","-19","","Mostly Cloudy"
"2002-02-02 15:00","2002","02","02","15:00","-11.3","","-19.7","","50","","26","","19","","40.2","","101.38","","","","-19","","Mainly Clear"
"2002-02-02 16:00","2002","02","02","16:00","-10.9","","-20.2","","46","","26","","15","","40.2","","101.40","","","","-18","","Clear"
"2002-02-02 17:00","2002","02","02","17:00","-11.6","","-21.0","","46","","25","","6","","40.2","","101.39","","","","-15","","Mainly Clear"
"2002-02-02 18:00","2002","02","02","18:00","-12.4","","-21.3","","47","","25","","9","","25.0","","101.42","","","","-18","","Clear"
"2002-02-02 19:00","2002","02","02","19:00","-12.7","","-20.7","","51","","22","","7","","25.0","","101.42","","","","-17","","Clear"
"2002-02-02 20:00","2002","02","02","20:00","-12.5","","-21.6","","47","","","","0","","25.0","","101.36","","","","","","Clear"
"2002-02-02 21:00","2002","02","02","21:00","-13.1","","-21.2","","51","","18","","4","","25.0","","101.32","","","","-16","","Clear"
"2002-02-02 22:00","2002","02","02","22:00","-13.6","","-22.1","","49","","","","0","","25.0","","101.28","","","","","","Clear"
"2002-02-02 23:00","2002","02","02","23:00","-15.2","","-22.2","","55","","16","","6","","25.0","","101.18","","","","-19","","Clear"
"2002-02-03 00:00","2002","02","03","00:00","-15.3","","-22.1","","56","","13","","7","","25.0","","101.11","","","","-20","","Mainly Clear"
"2002-02-03 01:00","2002","02","03","01:00","-16.2","","-22.1","","60","","14","","7","","25.0","","101.05","","","","-21","","Mainly Clear"
"2002-02-03 02:00","2002","02","03","02:00","-15.5","","-21.4","","61","","11","","7","","25.0","","101.01","","","","-20","","Mainly Clear"
"2002-02-03 03:00","2002","02","03","03:00","-15.0","","-20.8","","61","","6","","11","","25.0","","100.92","","","","-22","","Mostly Cloudy"
"2002-02-03 04:00","2002","02","03","04:00","-15.7","","-20.4","","67","","6","","13","","25.0","","100.80","","","","-23","","Cloudy"
"2002-02-03 05:00","2002","02","03","05:00","-15.3","","-19.0","","73","","6","","11","","6.4","","100.72","","","","-22","","Snow"
"2002-02-03 06:00","2002","02","03","06:00","-15.1","","-18.1","","78","","7","","11","","3.2","","100.62","","","","-22","","Snow"
"2002-02-03 07:00","2002","02","03","07:00","-14.5","","-17.1","","81","","8","","11","","1.2","","100.51","","","","-21","","Snow"
"2002-02-03 08:00","2002","02","03","08:00","-13.6","","-16.0","","82","","8","","20","","0.6","","100.38","","","","-22","","Moderate Snow"
"2002-02-03 09:00","2002","02","03","09:00","-12.1","","-14.0","","86","","8","","13","","9.7","","100.26","","","","-19","","Snow"
"2002-02-03 10:00","2002","02","03","10:00","-10.5","","-11.7","","91","","8","","20","","1.2","","100.07","","","","-18","","Snow"
"2002-02-03 11:00","2002","02","03","11:00","-8.8","","-10.2","","90","","9","","15","","1.2","","99.97","","","","-15","","Snow"
"2002-02-03 12:00","2002","02","03","12:00","-7.6","","-9.1","","89","","7","","13","","4.8","","99.76","","","","-13","","Snow"
"2002-02-03 13:00","2002","02","03","13:00","-6.5","","-7.8","","90","","8","","9","","6.4","","99.65","","","","-11","","Snow"
"2002-02-03 14:00","2002","02","03","14:00","-1.8","","-3.4","","89","","20","","13","","8.0","","99.54","","","","-6","","Snow"
"2002-02-03 15:00","2002","02","03","15:00","-1.9","","-4.3","","84","","20","","19","","4.8","","99.49","","","","-7","","Snow"
"2002-02-03 16:00","2002","02","03","16:00","-0.9","","-1.8","","94","","20","","13","","3.2","","99.46","","","","-5","","Snow"
"2002-02-03 17:00","2002","02","03","17:00","-0.6","","-1.4","","94","","20","","20","","4.8","","99.43","","","","-6","","Snow"
"2002-02-03 18:00","2002","02","03","18:00","-0.2","","-1.4","","92","","21","","17","","4.8","","99.43","","","","-5","","Snow"
"2002-02-03 19:00","2002","02","03","19:00","-0.1","","-1.4","","91","","21","","17","","12.9","","99.38","","","","-5","","Snow"
"2002-02-03 20:00","2002","02","03","20:00","0.0","","-2.4","","84","","22","","20","","16.1","","99.37","","","","-5","","Snow"
"2002-02-03 21:00","2002","02","03","21:00","-0.3","","-2.9","","83","","23","","20","","16.1","","99.34","","","","-6","","Snow"
"2002-02-03 22:00","2002","02","03","22:00","-0.7","","-2.8","","86","","23","","19","","11.3","","99.34","","","","-6","","Snow"
"2002-02-03 23:00","2002","02","03","23:00","-1.5","","-2.7","","92","","25","","17","","11.3","","99.34","","","","-7","","Snow"
"2002-02-04 00:00","2002","02","04","00:00","-1.8","","-2.3","","96","","28","","15","","1.6","","99.35","","","","-7","","Ice Pellet Showers,Snow Showers"
"2002-02-04 01:00","2002","02","04","01:00","-1.9","","-2.7","","94","","29","","11","","6.4","","99.34","","","","-6","","Snow Showers,Snow Pellets"
"2002-02-04 02:00","2002","02","04","02:00","-2.6","","-3.3","","95","","30","","9","","16.1","","99.37","","","","-6","","Snow"
"2002-02-04 03:00","2002","02","04","03:00","-3.1","","-5.3","","85","","29","","9","","25.0","","99.39","","","","-7","","Cloudy"
"2002-02-04 04:00","2002","02","04","04:00","-3.7","","-6.6","","80","","29","","17","","19.3","","99.44","","","","-9","","Snow Showers"
"2002-02-04 05:00","2002","02","04","05:00","-5.4","","-7.6","","84","","34","","20","","16.1","","99.46","","","","-12","","Snow"
"2002-02-04 06:00","2002","02","04","06:00","-7.3","","-10.8","","76","","34","","20","","25.0","","99.49","","","","-14","","Snow"
"2002-02-04 07:00","2002","02","04","07:00","-8.7","","-12.2","","76","","35","","22","","25.0","","99.55","","","","-17","","Mainly Clear"
"2002-02-04 08:00","2002","02","04","08:00","-10.1","","-12.6","","82","","33","","22","","24.1","","99.65","","","","-18","","Mainly Clear"
"2002-02-04 09:00","2002","02","04","09:00","-11.0","","-13.9","","79","","32","","22","","24.1","","99.70","","","","-20","","Mainly Clear"
"2002-02-04 10:00","2002","02","04","10:00","-11.3","","-14.5","","77","","33","","20","","24.1","","99.78","","","","-20","","Mainly Clear"
"2002-02-04 11:00","2002","02","04","11:00","-11.3","","-14.9","","75","","32","","22","","24.1","","99.85","","","","-20","","Mainly Clear"
"2002-02-04 12:00","2002","02","04","12:00","-11.0","","-15.1","","72","","31","","24","","24.1","","99.88","","","","-20","","Clear"
"2002-02-04 13:00","2002","02","04","13:00","-10.6","","-14.8","","71","","33","","26","","24.1","","99.90","","","","-20","","Clear"
"2002-02-04 14:00","2002","02","04","14:00","-10.6","","-15.0","","70","","33","","26","","24.1","","99.93","","","","-20","","Clear"
"2002-02-04 15:00","2002","02","04","15:00","-10.8","","-15.3","","69","","32","","24","","24.1","","100.02","","","","-20","","Clear"
"2002-02-04 16:00","2002","02","04","16:00","-11.0","","-15.5","","69","","33","","22","","24.1","","100.13","","","","-20","","Clear"
"2002-02-04 17:00","2002","02","04","17:00","-11.4","","-16.0","","69","","33","","20","","24.1","","100.25","","","","-20","","Clear"
"2002-02-04 18:00","2002","02","04","18:00","-12.5","","-16.9","","70","","32","","20","","24.1","","100.43","","","","-21","","Clear"
"2002-02-04 19:00","2002","02","04","19:00","-12.7","","-17.1","","70","","32","","24","","24.1","","100.54","","","","-22","","Clear"
"2002-02-04 20:00","2002","02","04","20:00","-13.0","","-17.2","","71","","31","","20","","24.1","","100.64","","","","-22","","Mainly Clear"
"2002-02-04 21:00","2002","02","04","21:00","-13.1","","-17.0","","72","","32","","20","","24.1","","100.70","","","","-22","","Mostly Cloudy"
"2002-02-04 22:00","2002","02","04","22:00","-13.6","","-17.4","","73","","31","","28","","24.1","","100.78","","","","-24","","Mostly Cloudy"
"2002-02-04 23:00","2002","02","04","23:00","-14.9","","-18.6","","73","","31","","20","","24.1","","100.85","","","","-24","","Mostly Cloudy"
"2002-02-05 00:00","2002","02","05","00:00","-16.6","","-22.5","","60","","29","","13","","24.1","","100.92","","","","-24","","Clear"
"2002-02-05 01:00","2002","02","05","01:00","-17.3","","-23.2","","60","","29","","17","","24.1","","100.96","","","","-26","","Clear"
"2002-02-05 02:00","2002","02","05","02:00","-18.2","","-23.4","","64","","29","","20","","24.1","","100.98","","","","-28","","Clear"
"2002-02-05 03:00","2002","02","05","03:00","-19.1","","-24.2","","64","","28","","19","","24.1","","100.97","","","","-29","","Clear"
"2002-02-05 04:00","2002","02","05","04:00","-20.1","","-24.8","","66","","28","","19","","24.1","","100.97","","","","-30","","Mainly Clear"
"2002-02-05 05:00","2002","02","05","05:00","-20.7","","-25.1","","68","","27","","11","","24.1","","100.97","","","","-28","","Mainly Clear"
"2002-02-05 06:00","2002","02","05","06:00","-21.6","","-25.8","","69","","26","","11","","24.1","","100.92","","","","-30","","Mainly Clear"
"2002-02-05 07:00","2002","02","05","07:00","-20.6","","-24.8","","69","","27","","7","","25.0","","100.89","","","","-26","","Mostly Cloudy"
"2002-02-05 08:00","2002","02","05","08:00","-20.2","","-24.7","","67","","18","","7","","32.2","","100.80","","","","-26","","Mostly Cloudy"
"2002-02-05 09:00","2002","02","05","09:00","-19.0","","-24.0","","65","","19","","15","","32.2","","100.73","","","","-28","","Cloudy"
"2002-02-05 10:00","2002","02","05","10:00","-17.2","","-23.0","","61","","19","","17","","32.2","","100.57","","","","-26","","Cloudy"
"2002-02-05 11:00","2002","02","05","11:00","-16.0","","-20.2","","70","","19","","13","","2.0","","100.40","","","","-24","","Snow Showers"
"2002-02-05 12:00","2002","02","05","12:00","-14.3","","-17.7","","75","","18","","13","","1.6","","100.15","","","","-21","","Snow Showers"
"2002-02-05 13:00","2002","02","05","13:00","-12.5","","-14.8","","83","","21","","9","","1.2","","100.00","","","","-18","","Snow Showers"
"2002-02-05 14:00","2002","02","05","14:00","-10.4","","-13.2","","80","","23","","15","","12.9","","99.88","","","","-17","","Snow Showers"
"2002-02-05 15:00","2002","02","05","15:00","-8.4","","-11.4","","79","","26","","11","","4.8","","99.92","","","","-14","","Snow Showers"
"2002-02-05 16:00","2002","02","05","16:00","-9.3","","-11.7","","83","","28","","9","","32.2","","100.03","","","","-14","","Mainly Clear"
"2002-02-05 17:00","2002","02","05","17:00","-10.5","","-12.8","","83","","27","","13","","32.2","","100.10","","","","-17","","Mainly Clear"
"2002-02-05 18:00","2002","02","05","18:00","-11.4","","-13.1","","87","","24","","7","","25.0","","100.19","","","","-16","","Mostly Cloudy"
"2002-02-05 19:00","2002","02","05","19:00","-10.6","","-12.7","","85","","25","","7","","25.0","","100.24","","","","-15","","Mostly Cloudy"
"2002-02-05 20:00","2002","02","05","20:00","-9.9","","-12.7","","80","","27","","7","","25.0","","100.31","","","","-14","","Mostly Cloudy"
"2002-02-05 21:00","2002","02","05","21:00","-10.8","","-12.8","","85","","29","","9","","25.0","","100.36","","","","-16","","Mainly Clear"
"2002-02-05 22:00","2002","02","05","22:00","-11.8","","-13.6","","86","","26","","11","","25.0","","100.43","","","","-18","","Mainly Clear"
"2002-02-05 23:00","2002","02","05","23:00","-12.7","","-15.6","","79","","27","","13","","25.0","","100.51","","","","-20","","Mainly Clear"
"2002-02-06 00:00","2002","02","06","00:00","-12.2","","-16.6","","70","","27","","13","","25.0","","100.57","","","","-19","","Clear"
"2002-02-06 01:00","2002","02","06","01:00","-13.2","","-17.3","","71","","27","","11","","25.0","","100.56","","","","-19","","Mainly Clear"
"2002-02-06 02:00","2002","02","06","02:00","-14.0","","-18.4","","69","","29","","9","","25.0","","100.61","","","","-20","","Mainly Clear"
"2002-02-06 03:00","2002","02","06","03:00","-14.6","","-18.4","","73","","29","","9","","25.0","","100.64","","","","-20","","Mostly Cloudy"
"2002-02-06 04:00","2002","02","06","04:00","-14.5","","-18.1","","74","","30","","9","","25.0","","100.67","","","","-20","","Mostly Cloudy"
"2002-02-06 05:00","2002","02","06","05:00","-14.1","","-18.1","","72","","27","","4","","24.1","","100.66","","","","-17","","Mostly Cloudy"
"2002-02-06 06:00","2002","02","06","06:00","-14.9","","-18.1","","77","","19","","4","","24.1","","100.67","","","","-18","","Cloudy"
"2002-02-06 07:00","2002","02","06","07:00","-14.3","","-17.9","","74","","16","","6","","25.0","","100.72","","","","-18","","Cloudy"
"2002-02-06 08:00","2002","02","06","08:00","-13.7","","-18.2","","69","","11","","6","","32.2","","100.75","","","","-18","","Cloudy"
"2002-02-06 09:00","2002","02","06","09:00","-12.9","","-17.9","","66","","11","","7","","32.2","","100.75","","","","-17","","Cloudy"
"2002-02-06 10:00","2002","02","06","10:00","-12.3","","-17.8","","64","","15","","11","","32.2","","100.69","","","","-18","","Cloudy"
"2002-02-06 11:00","2002","02","06","11:00","-11.5","","-18.1","","58","","15","","9","","32.2","","100.66","","","","-17","","Cloudy"
"2002-02-06 12:00","2002","02","06","12:00","-10.4","","-18.1","","53","","18","","11","","32.2","","100.57","","","","-16","","Cloudy"
"2002-02-06 13:00","2002","02","06","13:00","-9.1","","-15.4","","60","","15","","9","","32.2","","100.39","","","","-14","","Cloudy"
"2002-02-06 14:00","2002","02","06","14:00","-7.0","","-12.9","","63","","15","","6","","32.2","","100.31","","","","-10","","Mostly Cloudy"
"2002-02-06 15:00","2002","02","06","15:00","-5.1","","-10.4","","66","","10","","6","","32.2","","100.25","","","","-8","","Mostly Cloudy"
"2002-02-06 16:00","2002","02","06","16:00","-5.6","","-11.2","","65","","6","","9","","32.2","","100.26","","","","-10","","Mostly Cloudy"
"2002-02-06 17:00","2002","02","06","17:00","-6.0","","-11.6","","65","","4","","7","","19.3","","100.27","","","","-9","","Mostly Cloudy"
"2002-02-06 18:00","2002","02","06","18:00","-6.7","","-11.7","","68","","7","","11","","24.1","","100.26","","","","-12","","Mostly Cloudy"
"2002-02-06 19:00","2002","02","06","19:00","-5.0","","-9.1","","73","","13","","4","","25.0","","100.27","","","","-7","","Mostly Cloudy"
"2002-02-06 20:00","2002","02","06","20:00","-4.5","","-7.5","","80","","22","","7","","25.0","","100.26","","","","-8","","Mostly Cloudy"
"2002-02-06 21:00","2002","02","06","21:00","-5.4","","-8.0","","82","","21","","4","","25.0","","100.21","","","","-7","","Cloudy"
"2002-02-06 22:00","2002","02","06","22:00","-7.1","","-10.1","","79","","5","","4","","25.0","","100.18","","","","-9","","Mostly Cloudy"
"2002-02-06 23:00","2002","02","06","23:00","-8.7","","-11.4","","81","","5","","6","","25.0","","100.16","","","","-12","","Mainly Clear"
"2002-02-07 00:00","2002","02","07","00:00","-9.0","","-11.7","","81","","16","","6","","25.0","","100.17","","","","-12","","Mainly Clear"
"2002-02-07 01:00","2002","02","07","01:00","-4.9","","-8.3","","77","","19","","11","","25.0","","100.09","","","","-9","","Mainly Clear"
"2002-02-07 02:00","2002","02","07","02:00","-5.5","","-8.0","","83","","18","","7","","24.1","","100.06","","","","-9","","Mainly Clear"
"2002-02-07 03:00","2002","02","07","03:00","-11.1","","-13.0","","86","","6","","7","","24.1","","99.96","","","","-15","","Mainly Clear"
"2002-02-07 04:00","2002","02","07","04:00","-10.3","","-12.2","","86","","7","","7","","24.1","","99.90","","","","-14","","Mostly Cloudy"
"2002-02-07 05:00","2002","02","07","05:00","-10.8","","-12.4","","88","","6","","13","","24.1","","99.84","","","","-17","","Mostly Cloudy"
"2002-02-07 06:00","2002","02","07","06:00","-8.5","","-10.1","","88","","6","","7","","12.9","","99.76","","","","-12","","Cloudy"
"2002-02-07 07:00","2002","02","07","07:00","-8.1","","-9.8","","88","","5","","11","","9.7","","99.70","","","","-13","","Fog"
"2002-02-07 08:00","2002","02","07","08:00","-8.5","","-9.6","","92","","10","","9","","9.7","","99.60","","","","-13","","Fog"
"2002-02-07 09:00","2002","02","07","09:00","-2.0","","-5.4","","78","","17","","13","","12.9","","99.53","","","","-6","","Mostly Cloudy"
"2002-02-07 10:00","2002","02","07","10:00","-0.2","","-4.4","","73","","19","","11","","14.5","","99.40","","","","-4","","Mostly Cloudy"
"2002-02-07 11:00","2002","02","07","11:00","0.9","","-4.1","","69","","23","","11","","16.1","","99.38","","","","","","Mostly Cloudy"
"2002-02-07 12:00","2002","02","07","12:00","2.7","","-3.7","","63","","21","","15","","16.1","","99.23","","","","","","Mainly Clear"
"2002-02-07 13:00","2002","02","07","13:00","3.8","","-4.4","","55","","24","","22","","16.1","","99.13","","","","","","Mostly Cloudy"
"2002-02-07 14:00","2002","02","07","14:00","-0.6","","-5.3","","70","","36","","9","","14.5","","99.03","","","","-4","","Mostly Cloudy"
"2002-02-07 15:00","2002","02","07","15:00","0.9","","-4.5","","67","","","","0","","14.5","","99.02","","","","","","Cloudy"
"2002-02-07 16:00","2002","02","07","16:00","2.6","","-3.5","","64","","24","","7","","16.1","","99.01","","","","","","Cloudy"
"2002-02-07 17:00","2002","02","07","17:00","2.9","","-2.8","","66","","24","","15","","16.1","","99.03","","","","","","Cloudy"
"2002-02-07 18:00","2002","02","07","18:00","2.5","","-2.9","","67","","23","","19","","16.1","","99.08","","","","","","Mostly Cloudy"
"2002-02-07 19:00","2002","02","07","19:00","2.4","","-2.4","","71","","23","","24","","16.1","","99.14","","","","","","Snow"
"2002-02-07 20:00","2002","02","07","20:00","2.1","","-2.2","","73","","23","","20","","19.3","","99.17","","","","","","Mostly Cloudy"
"2002-02-07 21:00","2002","02","07","21:00","1.5","","-1.1","","83","","26","","24","","19.3","","99.24","","","","","","Snow"
"2002-02-07 22:00","2002","02","07","22:00","1.3","","-3.6","","70","","29","","26","","19.3","","99.30","","","","","","Mainly Clear"
"2002-02-07 23:00","2002","02","07","23:00","0.1","","-6.3","","62","","29","","30","","24.1","","99.41","","","","","","Mainly Clear"
"2002-02-08 00:00","2002","02","08","00:00","-1.4","","-6.9","","66","","29","","22","","24.1","","99.53","","","","-7","","Mainly Clear"
"2002-02-08 01:00","2002","02","08","01:00","-2.9","","-8.5","","65","","30","","19","","24.1","","99.60","","","","-9","","Mainly Clear"
"2002-02-08 02:00","2002","02","08","02:00","-3.6","","-9.6","","63","","30","","22","","24.1","","99.72","","","","-10","","Mainly Clear"
"2002-02-08 03:00","2002","02","08","03:00","-5.2","","-10.8","","65","","30","","22","","24.1","","99.82","","","","-12","","Mainly Clear"
"2002-02-08 04:00","2002","02","08","04:00","-7.0","","-12.4","","65","","30","","22","","24.1","","99.88","","","","-14","","Mainly Clear"
"2002-02-08 05:00","2002","02","08","05:00","-8.2","","-13.4","","66","","29","","28","","24.1","","100.07","","","","-17","","Mostly Cloudy"
"2002-02-08 06:00","2002","02","08","06:00","-9.9","","-14.4","","70","","30","","17","","24.1","","100.06","","","","-17","","Mostly Cloudy"
"2002-02-08 07:00","2002","02","08","07:00","-10.3","","-15.3","","67","","29","","15","","24.1","","100.19","","","","-17","","Mostly Cloudy"
"2002-02-08 08:00","2002","02","08","08:00","-11.0","","-15.7","","68","","30","","15","","32.2","","100.28","","","","-18","","Mainly Clear"
"2002-02-08 09:00","2002","02","08","09:00","-11.2","","-16.4","","65","","29","","19","","32.2","","100.37","","","","-19","","Mostly Cloudy"
"2002-02-08 10:00","2002","02","08","10:00","-11.0","","-16.1","","66","","28","","17","","32.2","","100.40","","","","-18","","Mostly Cloudy"
"2002-02-08 11:00","2002","02","08","11:00","-10.7","","-16.3","","63","","29","","17","","32.2","","100.40","","","","-18","","Mostly Cloudy"
"2002-02-08 12:00","2002","02","08","12:00","-10.1","","-16.0","","62","","28","","15","","32.2","","100.35","","","","-17","","Mostly Cloudy"
"2002-02-08 13:00","2002","02","08","13:00","-9.5","","-15.7","","61","","30","","7","","32.2","","100.27","","","","-13","","Cloudy"
"2002-02-08 14:00","2002","02","08","14:00","-8.7","","-15.4","","58","","","","0","","32.2","","100.24","","","","","","Cloudy"
"2002-02-08 15:00","2002","02","08","15:00","-8.4","","-14.4","","62","","27","","9","","32.2","","100.34","","","","-13","","Cloudy"
"2002-02-08 16:00","2002","02","08","16:00","-8.3","","-13.8","","64","","28","","15","","32.2","","100.39","","","","-15","","Mostly Cloudy"
"2002-02-08 17:00","2002","02","08","17:00","-8.8","","-13.4","","69","","29","","13","","32.2","","100.47","","","","-15","","Mostly Cloudy"
"2002-02-08 18:00","2002","02","08","18:00","-8.8","","-13.1","","71","","30","","11","","25.0","","100.64","","","","-14","","Mostly Cloudy"
"2002-02-08 19:00","2002","02","08","19:00","-9.3","","-13.3","","73","","28","","11","","25.0","","100.76","","","","-15","","Mainly Clear"
"2002-02-08 20:00","2002","02","08","20:00","-10.0","","-14.1","","72","","29","","11","","25.0","","100.87","","","","-16","","Clear"
"2002-02-08 21:00","2002","02","08","21:00","-10.9","","-14.6","","74","","29","","11","","25.0","","100.98","","","","-17","","Clear"
"2002-02-08 22:00","2002","02","08","22:00","-11.5","","-14.8","","76","","33","","7","","25.0","","101.09","","","","-16","","Clear"
"2002-02-08 23:00","2002","02","08","23:00","-12.7","","-15.2","","82","","28","","4","","25.0","","101.23","","","","-15","","Clear"
"2002-02-09 00:00","2002","02","09","00:00","-13.8","","-16.6","","79","","32","","13","","25.0","","101.34","","","","-21","","Clear"
"2002-02-09 01:00","2002","02","09","01:00","-13.3","","-16.0","","80","","33","","11","","25.0","","101.43","","","","-20","","Clear"
"2002-02-09 02:00","2002","02","09","02:00","-14.0","","-16.1","","84","","29","","7","","25.0","","101.56","","","","-19","","Clear"
"2002-02-09 03:00","2002","02","09","03:00","-14.6","","-16.5","","85","","31","","9","","25.0","","101.63","","","","-20","","Clear"
"2002-02-09 04:00","2002","02","09","04:00","-14.8","","-16.6","","86","","33","","7","","25.0","","101.68","","","","-20","","Clear"
"2002-02-09 05:00","2002","02","09","05:00","-14.1","","-16.8","","80","","1","","13","","25.0","","101.70","","","","-21","","Clear"
"2002-02-09 06:00","2002","02","09","06:00","-15.5","","-17.5","","85","","34","","6","","25.0","","101.81","","","","-20","","Clear"
"2002-02-09 07:00","2002","02","09","07:00","-15.1","","-17.0","","85","","33","","6","","32.2","","101.95","","","","-19","","Clear"
"2002-02-09 08:00","2002","02","09","08:00","-15.1","","-17.4","","83","","34","","6","","32.2","","102.07","","","","-19","","Mainly Clear"
"2002-02-09 09:00","2002","02","09","09:00","-14.2","","-17.3","","77","","36","","6","","32.2","","102.16","","","","-18","","Clear"
"2002-02-09 10:00","2002","02","09","10:00","-11.9","","-18.4","","58","","2","","4","","32.2","","102.23","","","","-14","","Clear"
"2002-02-09 11:00","2002","02","09","11:00","-10.8","","-17.8","","56","","31","","4","","32.2","","102.25","","","","-13","","Mainly Clear"
"2002-02-09 12:00","2002","02","09","12:00","-8.8","","-20.3","","39","","8","","6","","32.2","","102.22","","","","-12","","Mainly Clear"
"2002-02-09 13:00","2002","02","09","13:00","-8.1","","-20.3","","37","","10","","6","","32.2","","102.23","","","","-11","","Mainly Clear"
"2002-02-09 14:00","2002","02","09","14:00","-7.4","","-20.1","","35","","9","","9","","24.1","","102.16","","","","-12","","Mainly Clear"
"2002-02-09 15:00","2002","02","09","15:00","-7.2","","-19.6","","36","","7","","11","","24.1","","102.15","","","","-12","","Mostly Cloudy"
"2002-02-09 16:00","2002","02","09","16:00","-6.8","","-18.7","","38","","8","","13","","24.1","","102.05","","","","-12","","Mostly Cloudy"
"2002-02-09 17:00","2002","02","09","17:00","-7.1","","-18.3","","40","","5","","15","","24.1","","102.02","","","","-13","","Cloudy"
"2002-02-09 18:00","2002","02","09","18:00","-8.2","","-17.1","","49","","7","","15","","24.1","","102.03","","","","-15","","Mainly Clear"
"2002-02-09 19:00","2002","02","09","19:00","-9.1","","-17.6","","50","","7","","13","","24.1","","102.01","","","","-15","","Mainly Clear"
"2002-02-09 20:00","2002","02","09","20:00","-9.7","","-18.7","","48","","6","","19","","24.1","","101.97","","","","-17","","Mainly Clear"
"2002-02-09 21:00","2002","02","09","21:00","-10.2","","-19.5","","46","","6","","19","","24.1","","101.89","","","","-18","","Mainly Clear"
"2002-02-09 22:00","2002","02","09","22:00","-10.3","","-19.7","","46","","6","","20","","24.1","","101.81","","","","-18","","Mainly Clear"
"2002-02-09 23:00","2002","02","09","23:00","-10.7","","-19.5","","48","","7","","20","","24.1","","101.69","","","","-19","","Mainly Clear"
"2002-02-10 00:00","2002","02","10","00:00","-10.9","","-19.7","","48","","6","","17","","24.1","","101.62","","","","-18","","Mostly Cloudy"
"2002-02-10 01:00","2002","02","10","01:00","-11.0","","-20.4","","46","","6","","19","","24.1","","101.52","","","","-19","","Cloudy"
"2002-02-10 02:00","2002","02","10","02:00","-11.3","","-20.6","","46","","7","","17","","24.1","","101.47","","","","-19","","Cloudy"
"2002-02-10 03:00","2002","02","10","03:00","-11.3","","-20.1","","48","","7","","17","","24.1","","101.37","","","","-19","","Mostly Cloudy"
"2002-02-10 04:00","2002","02","10","04:00","-11.3","","-20.0","","49","","7","","15","","24.1","","101.23","","","","-18","","Mostly Cloudy"
"2002-02-10 05:00","2002","02","10","05:00","-11.3","","-19.2","","52","","6","","13","","24.1","","101.15","","","","-18","","Mostly Cloudy"
"2002-02-10 06:00","2002","02","10","06:00","-11.0","","-18.7","","53","","6","","15","","24.1","","101.03","","","","-18","","Mostly Cloudy"
"2002-02-10 07:00","2002","02","10","07:00","-10.7","","-18.3","","54","","6","","17","","24.1","","100.95","","","","-18","","Cloudy"
"2002-02-10 08:00","2002","02","10","08:00","-10.6","","-17.9","","55","","7","","17","","24.1","","100.86","","","","-18","","Cloudy"
"2002-02-10 09:00","2002","02","10","09:00","-9.8","","-16.6","","58","","7","","15","","24.1","","100.79","","","","-16","","Mostly Cloudy"
"2002-02-10 10:00","2002","02","10","10:00","-8.0","","-14.5","","59","","7","","17","","24.1","","100.69","","","","-15","","Mostly Cloudy"
"2002-02-10 11:00","2002","02","10","11:00","-6.1","","-11.5","","66","","8","","19","","24.1","","100.53","","","","-13","","Mostly Cloudy"
"2002-02-10 12:00","2002","02","10","12:00","-3.8","","-9.7","","64","","8","","15","","24.1","","100.35","","","","-9","","Mostly Cloudy"
"2002-02-10 13:00","2002","02","10","13:00","-3.0","","-8.8","","64","","9","","17","","16.1","","100.06","","","","-9","","Cloudy"
"2002-02-10 14:00","2002","02","10","14:00","-2.0","","-7.1","","68","","6","","9","","9.7","","99.98","","","","-5","","Freezing Rain,Ice Pellets,Fog"
"2002-02-10 15:00","2002","02","10","15:00","-1.4","","-4.0","","82","","8","","11","","6.4","","99.83","","","","-5","","Freezing Rain,Fog"
"2002-02-10 16:00","2002","02","10","16:00","-1.3","","-2.4","","92","","8","","7","","4.8","","99.68","","","","-4","","Freezing Rain,Fog"
"2002-02-10 17:00","2002","02","10","17:00","-0.3","","-0.7","","97","","14","","7","","3.2","","99.59","","","","-3","","Freezing Rain,Fog"
"2002-02-10 18:00","2002","02","10","18:00","4.0","","3.5","","97","","21","","22","","6.4","","99.52","","","","","","Rain,Fog"
"2002-02-10 19:00","2002","02","10","19:00","1.0","","0.7","","98","","30","","22","","6.4","","99.52","","","","","","Rain,Fog"
"2002-02-10 20:00","2002","02","10","20:00","-1.2","","-3.0","","88","","33","","28","","19.3","","99.56","","","","-8","","Snow"
"2002-02-10 21:00","2002","02","10","21:00","-3.4","","-5.5","","85","","33","","28","","16.1","","99.60","","","","-11","","Snow"
"2002-02-10 22:00","2002","02","10","22:00","-4.2","","-5.9","","88","","34","","26","","6.4","","99.58","","","","-11","","Snow"
"2002-02-10 23:00","2002","02","10","23:00","-5.0","","-7.1","","85","","35","","28","","4.0","","99.55","","","","-13","","Snow"
"2002-02-11 00:00","2002","02","11","00:00","-5.7","","-9.0","","77","","35","","33","","12.9","","99.63","","","","-14","","Snow"
"2002-02-11 01:00","2002","02","11","01:00","-6.1","","-9.7","","76","","36","","32","","16.1","","99.56","","","","-15","","Snow"
"2002-02-11 02:00","2002","02","11","02:00","-7.8","","-11.7","","74","","35","","28","","24.1","","99.76","","","","-16","","Cloudy"
"2002-02-11 03:00","2002","02","11","03:00","-8.8","","-13.7","","68","","35","","30","","24.1","","99.83","","","","-18","","Cloudy"
"2002-02-11 04:00","2002","02","11","04:00","-10.9","","-15.5","","69","","34","","28","","24.1","","99.97","","","","-20","","Cloudy"
"2002-02-11 05:00","2002","02","11","05:00","-12.7","","-17.8","","66","","34","","35","","24.1","","100.15","","","","-24","","Cloudy"
"2002-02-11 06:00","2002","02","11","06:00","-14.7","","-19.6","","66","","35","","35","","24.1","","100.30","","","","-26","","Mostly Cloudy"
"2002-02-11 07:00","2002","02","11","07:00","-17.5","","-25.2","","51","","33","","33","","25.0","","100.47","","","","-30","","Mainly Clear"
"2002-02-11 08:00","2002","02","11","08:00","-18.7","","-25.9","","53","","33","","30","","40.2","","100.65","","","","-31","","Clear"
"2002-02-11 09:00","2002","02","11","09:00","-18.8","","-26.2","","52","","33","","28","","40.2","","100.80","","","","-31","","Clear"
"2002-02-11 10:00","2002","02","11","10:00","-18.9","","-26.0","","53","","32","","20","","40.2","","100.84","","","","-29","","Clear"
"2002-02-11 11:00","2002","02","11","11:00","-18.0","","-26.2","","49","","33","","19","","40.2","","100.88","","","","-28","","Clear"
"2002-02-11 12:00","2002","02","11","12:00","-17.3","","-25.8","","48","","31","","22","","40.2","","100.93","","","","-28","","Clear"
"2002-02-11 13:00","2002","02","11","13:00","-16.1","","-25.6","","44","","32","","13","","40.2","","100.90","","","","-24","","Clear"
"2002-02-11 14:00","2002","02","11","14:00","-15.2","","-25.4","","41","","32","","17","","40.2","","100.93","","","","-24","","Clear"
"2002-02-11 15:00","2002","02","11","15:00","-14.5","","-25.6","","38","","34","","13","","40.2","","100.87","","","","-22","","Clear"
"2002-02-11 16:00","2002","02","11","16:00","-14.7","","-25.0","","41","","27","","9","","40.2","","100.85","","","","-20","","Mainly Clear"
"2002-02-11 17:00","2002","02","11","17:00","-15.6","","-25.3","","43","","29","","19","","40.2","","100.84","","","","-25","","Clear"
"2002-02-11 18:00","2002","02","11","18:00","-16.9","","-25.4","","48","","26","","11","","25.0","","100.89","","","","-24","","Clear"
"2002-02-11 19:00","2002","02","11","19:00","-17.3","","-26.2","","46","","23","","6","","25.0","","100.81","","","","-22","","Clear"
"2002-02-11 20:00","2002","02","11","20:00","-17.6","","-25.7","","49","","18","","6","","25.0","","100.78","","","","-22","","Clear"
"2002-02-11 21:00","2002","02","11","21:00","-18.7","","-25.3","","56","","13","","6","","25.0","","100.71","","","","-24","","Mainly Clear"
"2002-02-11 22:00","2002","02","11","22:00","-16.8","","-25.4","","47","","15","","7","","25.0","","100.60","","","","-22","","Mostly Cloudy"
"2002-02-11 23:00","2002","02","11","23:00","-16.6","","-24.2","","52","","13","","13","","25.0","","100.43","","","","-24","","Cloudy"
"2002-02-12 00:00","2002","02","12","00:00","-15.7","","-22.3","","57","","14","","13","","25.0","","100.30","","","","-23","","Cloudy"
"2002-02-12 01:00","2002","02","12","01:00","-14.6","","-21.4","","56","","14","","13","","25.0","","100.09","","","","-22","","Cloudy"
"2002-02-12 02:00","2002","02","12","02:00","-13.6","","-19.2","","63","","13","","15","","25.0","","99.91","","","","-21","","Cloudy"
"2002-02-12 03:00","2002","02","12","03:00","-12.4","","-17.2","","67","","13","","20","","25.0","","99.65","","","","-21","","Cloudy"
"2002-02-12 04:00","2002","02","12","04:00","-11.7","","-16.5","","68","","12","","11","","24.1","","99.45","","","","-18","","Cloudy"
"2002-02-12 05:00","2002","02","12","05:00","-11.0","","-15.8","","68","","6","","9","","24.1","","99.26","","","","-16","","Cloudy"
"2002-02-12 06:00","2002","02","12","06:00","-11.2","","-15.7","","69","","6","","11","","24.1","","99.12","","","","-17","","Cloudy"
"2002-02-12 07:00","2002","02","12","07:00","-10.4","","-15.0","","69","","11","","15","","24.1","","98.88","","","","-17","","Cloudy"
"2002-02-12 08:00","2002","02","12","08:00","-6.2","","-12.3","","62","","17","","17","","24.1","","98.69","","","","-12","","Cloudy"
"2002-02-12 09:00","2002","02","12","09:00","-3.8","","-9.8","","63","","19","","13","","19.3","","98.57","","","","-9","","Cloudy"
"2002-02-12 10:00","2002","02","12","10:00","-1.7","","-7.0","","67","","20","","20","","24.1","","98.45","","","","-7","","Cloudy"
"2002-02-12 11:00","2002","02","12","11:00","-0.6","","-5.2","","71","","19","","20","","19.3","","98.31","","","","-6","","Snow"
"2002-02-12 12:00","2002","02","12","12:00","1.7","","-3.3","","69","","21","","32","","19.3","","98.20","","","","","","Snow"
"2002-02-12 13:00","2002","02","12","13:00","2.7","","-2.6","","68","","22","","24","","19.3","","98.17","","","","","","Cloudy"
"2002-02-12 14:00","2002","02","12","14:00","2.7","","-2.1","","71","","22","","26","","16.1","","98.18","","","","","","Snow"
"2002-02-12 15:00","2002","02","12","15:00","2.9","","-2.9","","66","","23","","26","","24.1","","98.24","","","","","","Snow"
"2002-02-12 16:00","2002","02","12","16:00","2.8","","-3.1","","65","","24","","22","","24.1","","98.32","","","","","","Mostly Cloudy"
"2002-02-12 17:00","2002","02","12","17:00","3.0","","-6.0","","52","","25","","33","","24.1","","98.43","","","","","","Mostly Cloudy"
"2002-02-12 18:00","2002","02","12","18:00","2.5","","-5.5","","56","","26","","22","","24.1","","98.52","","","","","","Mostly Cloudy"
"2002-02-12 19:00","2002","02","12","19:00","2.1","","-5.3","","58","","27","","32","","19.3","","98.61","","","","","","Snow Showers"
"2002-02-12 20:00","2002","02","12","20:00","1.1","","-5.9","","60","","26","","30","","16.1","","98.65","","","","","","Mostly Cloudy"
"2002-02-12 21:00","2002","02","12","21:00","-0.2","","-7.4","","58","","27","","33","","25.0","","98.77","","","","-7","","Mostly Cloudy"
"2002-02-12 22:00","2002","02","12","22:00","-0.7","","-10.2","","49","","27","","37","","24.1","","98.83","","","","-8","","Snow Showers"
"2002-02-12 23:00","2002","02","12","23:00","-4.6","","-8.0","","77","","29","","39","","16.1","","99.07","","","","-13","","Snow Showers"
"2002-02-13 00:00","2002","02","13","00:00","-6.8","","-14.0","","56","","30","","35","","25.0","","99.33","","","","-16","","Mostly Cloudy"
"2002-02-13 01:00","2002","02","13","01:00","-8.7","","-15.0","","60","","29","","24","","25.0","","99.49","","","","-17","","Mostly Cloudy"
"2002-02-13 02:00","2002","02","13","02:00","-10.8","","-14.9","","72","","29","","35","","25.0","","99.69","","","","-21","","Snow Showers"
"2002-02-13 03:00","2002","02","13","03:00","-12.6","","-19.2","","58","","31","","37","","25.0","","99.82","","","","-24","","Clear"
"2002-02-13 04:00","2002","02","13","04:00","-13.8","","-19.5","","62","","30","","26","","25.0","","99.97","","","","-24","","Snow Showers"
"2002-02-13 05:00","2002","02","13","05:00","-15.2","","-24.1","","47","","31","","33","","25.0","","100.19","","","","-27","","Clear"
"2002-02-13 06:00","2002","02","13","06:00","-16.5","","-24.5","","50","","31","","32","","25.0","","100.37","","","","-28","","Clear"
"2002-02-13 07:00","2002","02","13","07:00","-17.3","","-25.0","","51","","31","","32","","25.0","","100.57","","","","-29","","Clear"
"2002-02-13 08:00","2002","02","13","08:00","-17.5","","-24.5","","54","","31","","19","","32.2","","100.74","","","","-27","","Clear"
"2002-02-13 09:00","2002","02","13","09:00","-17.1","","-24.2","","54","","30","","24","","32.2","","100.84","","","","-28","","Clear"
"2002-02-13 10:00","2002","02","13","10:00","-16.7","","-24.3","","52","","29","","28","","32.2","","100.91","","","","-28","","Clear"
"2002-02-13 11:00","2002","02","13","11:00","-16.1","","-23.6","","52","","30","","28","","32.2","","100.98","","","","-27","","Clear"
"2002-02-13 12:00","2002","02","13","12:00","-15.2","","-23.0","","51","","29","","24","","32.2","","100.99","","","","-25","","Clear"
"2002-02-13 13:00","2002","02","13","13:00","-14.3","","-22.8","","48","","27","","26","","32.2","","100.99","","","","-24","","Clear"
"2002-02-13 14:00","2002","02","13","14:00","-13.4","","-23.1","","44","","27","","30","","32.2","","100.98","","","","-24","","Clear"
"2002-02-13 15:00","2002","02","13","15:00","-12.5","","-23.3","","40","","28","","19","","32.2","","100.98","","","","-21","","Clear"
"2002-02-13 16:00","2002","02","13","16:00","-12.2","","-22.6","","42","","30","","20","","32.2","","101.03","","","","-21","","Clear"
"2002-02-13 17:00","2002","02","13","17:00","-12.4","","-22.9","","41","","29","","9","","32.2","","101.02","","","","-18","","Clear"
"2002-02-13 18:00","2002","02","13","18:00","-12.9","","-23.0","","43","","29","","6","","32.2","","101.05","","","","-17","","Clear"
"2002-02-13 19:00","2002","02","13","19:00","-13.1","","-22.6","","45","","22","","4","","25.0","","101.10","","","","-16","","Mainly Clear"
"2002-02-13 20:00","2002","02","13","20:00","-14.0","","-23.0","","46","","20","","7","","25.0","","101.10","","","","-19","","Clear"
"2002-02-13 21:00","2002","02","13","21:00","-14.4","","-22.8","","49","","20","","7","","25.0","","101.10","","","","-19","","Clear"
"2002-02-13 22:00","2002","02","13","22:00","-15.4","","-22.7","","54","","21","","7","","25.0","","101.10","","","","-20","","Mainly Clear"
"2002-02-13 23:00","2002","02","13","23:00","-13.9","","-22.6","","48","","22","","4","","25.0","","101.06","","","","-17","","Mostly Cloudy"
"2002-02-14 00:00","2002","02","14","00:00","-14.4","","-22.7","","49","","18","","7","","25.0","","101.05","","","","-19","","Mostly Cloudy"
"2002-02-14 01:00","2002","02","14","01:00","-13.3","","-21.4","","51","","17","","9","","25.0","","100.97","","","","-19","","Snow"
"2002-02-14 02:00","2002","02","14","02:00","-12.8","","-20.0","","55","","17","","11","","25.0","","100.94","","","","-19","","Mostly Cloudy"
"2002-02-14 03:00","2002","02","14","03:00","-11.4","","-18.1","","58","","18","","11","","25.0","","100.85","","","","-17","","Mostly Cloudy"
"2002-02-14 04:00","2002","02","14","04:00","-10.7","","-16.4","","63","","17","","11","","19.3","","100.78","","","","-16","","Snow Showers"
"2002-02-14 05:00","2002","02","14","05:00","-9.1","","-10.8","","87","","18","","11","","2.0","","100.71","","","","-15","","Snow Showers"
"2002-02-14 06:00","2002","02","14","06:00","-7.6","","-9.1","","89","","21","","15","","3.2","","100.63","","","","-14","","Snow Showers"
"2002-02-14 07:00","2002","02","14","07:00","-6.4","","-8.0","","88","","20","","17","","3.2","","100.57","","","","-13","","Snow Showers"
"2002-02-14 08:00","2002","02","14","08:00","-5.5","","-7.0","","89","","20","","22","","2.0","","100.54","","","","-13","","Snow"
"2002-02-14 09:00","2002","02","14","09:00","-5.3","","-6.5","","91","","20","","15","","2.0","","100.54","","","","-11","","Snow"
"2002-02-14 10:00","2002","02","14","10:00","-4.0","","-6.1","","85","","20","","19","","12.9","","100.51","","","","-10","","Snow"
"2002-02-14 11:00","2002","02","14","11:00","-1.8","","-4.0","","85","","21","","15","","4.0","","100.46","","","","-7","","Snow"
"2002-02-14 12:00","2002","02","14","12:00","-0.4","","-3.8","","78","","22","","26","","19.3","","100.40","","","","-7","","Snow"
"2002-02-14 13:00","2002","02","14","13:00","0.5","","-3.7","","73","","22","","24","","32.2","","100.36","","","","","","Cloudy"
"2002-02-14 14:00","2002","02","14","14:00","1.8","","-4.0","","65","","22","","24","","24.1","","100.29","","","","","","Cloudy"
"2002-02-14 15:00","2002","02","14","15:00","2.5","","-3.9","","63","","22","","26","","32.2","","100.26","","","","","","Mostly Cloudy"
"2002-02-14 16:00","2002","02","14","16:00","2.8","","-4.0","","61","","22","","26","","32.2","","100.24","","","","","","Mainly Clear"
"2002-02-14 17:00","2002","02","14","17:00","2.6","","-4.4","","60","","22","","24","","32.2","","100.23","","","","","","Mostly Cloudy"
"2002-02-14 18:00","2002","02","14","18:00","1.5","","-4.3","","65","","21","","22","","24.1","","100.23","","","","","","Mainly Clear"
"2002-02-14 19:00","2002","02","14","19:00","1.4","","-4.4","","65","","20","","17","","25.0","","100.25","","","","","","Clear"
"2002-02-14 20:00","2002","02","14","20:00","1.1","","-4.6","","66","","21","","28","","25.0","","100.25","","","","","","Clear"
"2002-02-14 21:00","2002","02","14","21:00","1.5","","-5.1","","61","","24","","22","","25.0","","100.31","","","","","","Mainly Clear"
"2002-02-14 22:00","2002","02","14","22:00","1.5","","-6.1","","57","","23","","22","","25.0","","100.31","","","","","","Mainly Clear"
"2002-02-14 23:00","2002","02","14","23:00","1.6","","-7.4","","51","","23","","20","","25.0","","100.25","","","","","","Mainly Clear"
"2002-02-15 00:00","2002","02","15","00:00","1.5","","-6.9","","54","","22","","22","","25.0","","100.23","","","","","","Mainly Clear"
"2002-02-15 01:00","2002","02","15","01:00","2.0","","-6.6","","53","","22","","28","","25.0","","100.20","","","","","","Mainly Clear"
"2002-02-15 02:00","2002","02","15","02:00","1.7","","-7.0","","52","","22","","22","","25.0","","100.13","","","","","","Mostly Cloudy"
"2002-02-15 03:00","2002","02","15","03:00","1.6","","-7.3","","52","","22","","24","","25.0","","100.08","","","","","","Mostly Cloudy"
"2002-02-15 04:00","2002","02","15","04:00","1.6","","-7.2","","52","","22","","28","","25.0","","100.01","","","","","","Mostly Cloudy"
"2002-02-15 05:00","2002","02","15","05:00","1.3","","-7.1","","54","","21","","26","","25.0","","99.97","","","","","","Mostly Cloudy"
"2002-02-15 06:00","2002","02","15","06:00","1.4","","-6.8","","54","","21","","24","","25.0","","99.93","","","","","","Mostly Cloudy"
"2002-02-15 07:00","2002","02","15","07:00","0.7","","-7.0","","56","","20","","17","","24.1","","99.90","","","","","","Cloudy"
"2002-02-15 08:00","2002","02","15","08:00","0.8","","-6.8","","57","","19","","19","","32.2","","99.84","","","","","","Cloudy"
"2002-02-15 09:00","2002","02","15","09:00","1.4","","-6.6","","55","","21","","20","","32.2","","99.84","","","","","","Cloudy"
"2002-02-15 10:00","2002","02","15","10:00","2.1","","-6.3","","54","","21","","19","","32.2","","99.77","","","","","","Cloudy"
"2002-02-15 11:00","2002","02","15","11:00","3.5","","-5.7","","51","","20","","26","","32.2","","99.63","","","","","","Cloudy"
"2002-02-15 12:00","2002","02","15","12:00","3.8","","-5.4","","51","","21","","20","","32.2","","99.53","","","","","","Cloudy"
"2002-02-15 13:00","2002","02","15","13:00","4.1","","-5.3","","50","","20","","17","","32.2","","99.43","","","","","","Cloudy"
"2002-02-15 14:00","2002","02","15","14:00","4.2","","-5.3","","50","","20","","15","","32.2","","99.35","","","","","","Cloudy"
"2002-02-15 15:00","2002","02","15","15:00","4.5","","-5.5","","48","","20","","20","","32.2","","99.26","","","","","","Cloudy"
"2002-02-15 16:00","2002","02","15","16:00","4.8","","-5.4","","48","","21","","24","","32.2","","99.24","","","","","","Mostly Cloudy"
"2002-02-15 17:00","2002","02","15","17:00","4.9","","-5.2","","48","","21","","26","","24.1","","99.21","","","","","","Cloudy"
"2002-02-15 18:00","2002","02","15","18:00","4.1","","-3.3","","59","","22","","32","","24.1","","99.27","","","","","","Cloudy"
"2002-02-15 19:00","2002","02","15","19:00","3.6","","-1.7","","68","","20","","24","","25.0","","99.27","","","","","","Cloudy"
"2002-02-15 20:00","2002","02","15","20:00","3.5","","-1.6","","69","","23","","15","","25.0","","99.24","","","","","","Cloudy"
"2002-02-15 21:00","2002","02","15","21:00","3.7","","-2.4","","64","","22","","13","","25.0","","99.22","","","","","","Cloudy"
"2002-02-15 22:00","2002","02","15","22:00","3.7","","-2.4","","64","","21","","17","","25.0","","99.20","","","","","","Cloudy"
"2002-02-15 23:00","2002","02","15","23:00","3.5","","-2.1","","67","","20","","15","","25.0","","99.14","","","","","","Cloudy"
"2002-02-16 00:00","2002","02","16","00:00","3.4","","-1.0","","73","","21","","11","","25.0","","99.13","","","","","","Cloudy"
"2002-02-16 01:00","2002","02","16","01:00","2.8","","-1.0","","76","","22","","15","","16.1","","99.12","","","","","","Cloudy"
"2002-02-16 02:00","2002","02","16","02:00","2.6","","-0.1","","82","","21","","17","","16.1","","99.15","","","","","","Cloudy"
"2002-02-16 03:00","2002","02","16","03:00","2.6","","-0.2","","82","","22","","19","","16.1","","99.15","","","","","","Cloudy"
"2002-02-16 04:00","2002","02","16","04:00","2.4","","0.0","","84","","22","","17","","11.3","","99.17","","","","","","Rain"
"2002-02-16 05:00","2002","02","16","05:00","2.2","","-0.3","","84","","21","","19","","16.1","","99.17","","","","","","Cloudy"
"2002-02-16 06:00","2002","02","16","06:00","2.1","","-0.9","","80","","23","","15","","16.1","","99.21","","","","","","Mostly Cloudy"
"2002-02-16 07:00","2002","02","16","07:00","1.7","","-1.5","","79","","23","","15","","19.3","","99.23","","","","","","Mostly Cloudy"
"2002-02-16 08:00","2002","02","16","08:00","1.4","","-2.3","","76","","23","","13","","24.1","","99.28","","","","","","Mainly Clear"
"2002-02-16 09:00","2002","02","16","09:00","1.3","","-2.7","","75","","26","","17","","24.1","","99.34","","","","","","Mostly Cloudy"
"2002-02-16 10:00","2002","02","16","10:00","0.5","","-3.1","","77","","29","","17","","32.2","","99.39","","","","","","Mostly Cloudy"
"2002-02-16 11:00","2002","02","16","11:00","0.7","","-4.0","","71","","29","","11","","32.2","","99.38","","","","","","Mostly Cloudy"
"2002-02-16 12:00","2002","02","16","12:00","0.9","","-3.6","","72","","32","","9","","32.2","","99.32","","","","","","Mainly Clear"
"2002-02-16 13:00","2002","02","16","13:00","2.1","","-4.1","","63","","27","","7","","32.2","","99.27","","","","","","Mainly Clear"
"2002-02-16 14:00","2002","02","16","14:00","2.6","","-3.6","","64","","16","","7","","32.2","","99.23","","","","","","Mostly Cloudy"
"2002-02-16 15:00","2002","02","16","15:00","3.0","","-4.1","","60","","17","","7","","32.2","","99.22","","","","","","Mostly Cloudy"
"2002-02-16 16:00","2002","02","16","16:00","3.0","","-4.5","","58","","","","0","","32.2","","99.20","","","","","","Mostly Cloudy"
"2002-02-16 17:00","2002","02","16","17:00","2.2","","-4.8","","60","","9","","4","","32.2","","99.20","","","","","","Mostly Cloudy"
"2002-02-16 18:00","2002","02","16","18:00","0.2","","-4.9","","69","","11","","7","","32.2","","99.22","","","","","","Mostly Cloudy"
"2002-02-16 19:00","2002","02","16","19:00","0.3","","-4.7","","69","","10","","7","","25.0","","99.22","","","","","","Mostly Cloudy"
"2002-02-16 20:00","2002","02","16","20:00","-0.3","","-4.0","","76","","14","","7","","25.0","","99.22","","","","-3","","Mostly Cloudy"
"2002-02-16 21:00","2002","02","16","21:00","-0.1","","-3.1","","80","","12","","7","","24.1","","99.21","","","","-3","","Cloudy"
"2002-02-16 22:00","2002","02","16","22:00","-0.3","","-1.9","","89","","11","","7","","6.4","","99.17","","","","-3","","Snow"
"2002-02-16 23:00","2002","02","16","23:00","-0.9","","-1.8","","94","","6","","9","","2.8","","99.11","","","","-4","","Ice Pellet Showers,Snow Showers"
"2002-02-17 00:00","2002","02","17","00:00","-1.2","","-2.1","","94","","6","","13","","2.8","","99.06","","","","-5","","Ice Pellet Showers,Snow Showers"
"2002-02-17 01:00","2002","02","17","01:00","-1.5","","-2.2","","95","","6","","13","","4.0","","99.01","","","","-6","","Snow Showers"
"2002-02-17 02:00","2002","02","17","02:00","-1.7","","-2.5","","94","","6","","19","","0.6","","98.99","","","","-7","","Moderate Snow Showers"
"2002-02-17 03:00","2002","02","17","03:00","-1.5","","-2.2","","95","","6","","17","","2.4","","98.98","","","","-7","","Snow Showers"
"2002-02-17 04:00","2002","02","17","04:00","-2.2","","-3.1","","94","","6","","22","","2.8","","99.01","","","","-8","","Ice Pellet Showers,Snow Showers"
"2002-02-17 05:00","2002","02","17","05:00","-2.7","","-4.0","","91","","5","","30","","3.2","","99.05","","","","-10","","Ice Pellet Showers,Snow Showers"
"2002-02-17 06:00","2002","02","17","06:00","-2.9","","-4.1","","91","","4","","24","","1.2","","99.13","","","","-10","","Ice Pellet Showers,Snow Showers"
"2002-02-17 07:00","2002","02","17","07:00","-2.9","","-4.2","","91","","3","","28","","1.2","","99.25","","","","-10","","Snow,Ice Pellets"
"2002-02-17 08:00","2002","02","17","08:00","-3.8","","-5.2","","90","","2","","24","","1.2","","99.40","","","","-11","","Snow"
"2002-02-17 09:00","2002","02","17","09:00","-4.5","","-6.2","","88","","36","","19","","1.2","","99.54","","","","-11","","Snow"
"2002-02-17 10:00","2002","02","17","10:00","-5.6","","-7.4","","87","","36","","28","","1.0","","99.65","","","","-14","","Snow"
"2002-02-17 11:00","2002","02","17","11:00","-5.7","","-8.1","","83","","35","","22","","2.8","","99.76","","","","-13","","Snow"
"2002-02-17 12:00","2002","02","17","12:00","-4.9","","-9.5","","70","","35","","22","","24.1","","99.83","","","","-12","","Cloudy"
"2002-02-17 13:00","2002","02","17","13:00","-3.8","","-10.2","","61","","34","","28","","32.2","","99.88","","","","-11","","Cloudy"
"2002-02-17 14:00","2002","02","17","14:00","-3.2","","-11.7","","52","","34","","20","","32.2","","99.93","","","","-9","","Mainly Clear"
"2002-02-17 15:00","2002","02","17","15:00","-3.6","","-12.7","","49","","33","","26","","32.2","","100.04","","","","-11","","Clear"
"2002-02-17 16:00","2002","02","17","16:00","-4.0","","-12.9","","50","","33","","26","","32.2","","100.16","","","","-11","","Clear"
"2002-02-17 17:00","2002","02","17","17:00","-4.9","","-12.9","","53","","36","","28","","32.2","","100.30","","","","-13","","Clear"
"2002-02-17 18:00","2002","02","17","18:00","-6.4","","-14.3","","53","","33","","15","","32.2","","100.44","","","","-12","","Clear"
"2002-02-17 19:00","2002","02","17","19:00","-6.9","","-14.2","","56","","34","","19","","25.0","","100.57","","","","-14","","Clear"
"2002-02-17 20:00","2002","02","17","20:00","-7.1","","-14.5","","55","","34","","22","","25.0","","100.69","","","","-15","","Clear"
"2002-02-17 21:00","2002","02","17","21:00","-8.5","","-15.0","","59","","32","","15","","25.0","","100.79","","","","-15","","Clear"
"2002-02-17 22:00","2002","02","17","22:00","-9.6","","-15.1","","64","","32","","20","","25.0","","100.83","","","","-17","","Clear"
"2002-02-17 23:00","2002","02","17","23:00","-11.3","","-16.1","","68","","33","","19","","25.0","","100.91","","","","-19","","Clear"
"2002-02-18 00:00","2002","02","18","00:00","-12.2","","-16.3","","71","","32","","9","","25.0","","100.98","","","","-17","","Clear"
"2002-02-18 01:00","2002","02","18","01:00","-12.7","","-17.1","","70","","32","","17","","25.0","","101.03","","","","-21","","Clear"
"2002-02-18 02:00","2002","02","18","02:00","-13.0","","-17.3","","70","","33","","15","","25.0","","101.08","","","","-20","","Clear"
"2002-02-18 03:00","2002","02","18","03:00","-13.9","","-17.1","","77","","30","","9","","25.0","","101.14","","","","-20","","Clear"
"2002-02-18 04:00","2002","02","18","04:00","-15.7","","-19.5","","73","","31","","9","","25.0","","101.19","","","","-22","","Clear"
"2002-02-18 05:00","2002","02","18","05:00","-15.2","","-19.0","","73","","29","","7","","25.0","","101.25","","","","-20","","Clear"
"2002-02-18 06:00","2002","02","18","06:00","-15.6","","-19.1","","74","","29","","6","","25.0","","101.34","","","","-20","","Clear"
"2002-02-18 07:00","2002","02","18","07:00","-15.9","","-19.2","","76","","27","","6","","32.2","","101.42","","","","-20","","Mainly Clear"
"2002-02-18 08:00","2002","02","18","08:00","-15.4","","-19.2","","73","","25","","4","","32.2","","101.48","","","","-18","","Mainly Clear"
"2002-02-18 09:00","2002","02","18","09:00","-13.6","","-18.0","","69","","","","0","","32.2","","101.46","","","","","","Mainly Clear"
"2002-02-18 10:00","2002","02","18","10:00","-11.7","","-18.1","","59","","13","","4","","32.2","","101.47","","","","-14","","Mainly Clear"
"2002-02-18 11:00","2002","02","18","11:00","-9.7","","-17.5","","53","","22","","7","","32.2","","101.52","","","","-14","","Mostly Cloudy"
"2002-02-18 12:00","2002","02","18","12:00","-8.4","","-16.7","","51","","20","","4","","32.2","","101.46","","","","-11","","Mostly Cloudy"
"2002-02-18 13:00","2002","02","18","13:00","-7.3","","-15.7","","51","","23","","7","","32.2","","101.38","","","","-11","","Mostly Cloudy"
"2002-02-18 14:00","2002","02","18","14:00","-6.0","","-14.8","","50","","17","","7","","32.2","","101.32","","","","-9","","Mostly Cloudy"
"2002-02-18 15:00","2002","02","18","15:00","-4.9","","-13.4","","51","","17","","11","","32.2","","101.26","","","","-9","","Mostly Cloudy"
"2002-02-18 16:00","2002","02","18","16:00","-4.8","","-12.5","","55","","17","","11","","32.2","","101.26","","","","-9","","Mostly Cloudy"
"2002-02-18 17:00","2002","02","18","17:00","-6.7","","-12.4","","64","","14","","9","","32.2","","101.23","","","","-11","","Mostly Cloudy"
"2002-02-18 18:00","2002","02","18","18:00","-9.3","","-13.4","","72","","12","","11","","25.0","","101.20","","","","-15","","Mostly Cloudy"
"2002-02-18 19:00","2002","02","18","19:00","-6.5","","-11.8","","66","","18","","7","","25.0","","101.25","","","","-10","","Mainly Clear"
"2002-02-18 20:00","2002","02","18","20:00","-7.4","","-11.7","","71","","17","","11","","25.0","","101.24","","","","-12","","Mainly Clear"
"2002-02-18 21:00","2002","02","18","21:00","-8.3","","-11.8","","76","","18","","13","","25.0","","101.20","","","","-14","","Mainly Clear"
"2002-02-18 22:00","2002","02","18","22:00","-8.7","","-11.5","","80","","20","","7","","25.0","","101.16","","","","-13","","Mainly Clear"
"2002-02-18 23:00","2002","02","18","23:00","-8.8","","-10.8","","85","","18","","9","","25.0","","101.07","","","","-13","","Clear"
"2002-02-19 00:00","2002","02","19","00:00","-9.6","","-10.9","","90","","18","","6","","25.0","","101.06","","","","-13","","Clear"
"2002-02-19 01:00","2002","02","19","01:00","-10.7","","-12.2","","89","","5","","6","","25.0","","101.04","","","","-14","","Mainly Clear"
"2002-02-19 02:00","2002","02","19","02:00","-9.8","","-10.9","","92","","","","0","","19.3","","101.02","","","","","","Mainly Clear"
"2002-02-19 03:00","2002","02","19","03:00","-10.6","","-11.7","","92","","","","0","","16.1","","101.04","","","","","","Clear"
"2002-02-19 04:00","2002","02","19","04:00","-10.6","","-11.7","","92","","5","","7","","12.9","","101.05","","","","-15","","Clear"
"2002-02-19 05:00","2002","02","19","05:00","-12.8","","-14.1","","90","","12","","4","","0.4","","101.05","","","","-15","","Freezing Fog"
"2002-02-19 06:00","2002","02","19","06:00","-11.7","","-12.8","","92","","17","","9","","9.7","","101.02","","","","-17","","Fog"
"2002-02-19 07:00","2002","02","19","07:00","-11.4","","-12.8","","89","","18","","7","","9.7","","101.01","","","","-16","","Fog"
"2002-02-19 08:00","2002","02","19","08:00","-10.5","","-11.4","","93","","8","","4","","12.9","","101.02","","","","-13","","Mostly Cloudy"
"2002-02-19 09:00","2002","02","19","09:00","-8.9","","-9.6","","95","","5","","4","","12.9","","100.98","","","","-11","","Cloudy"
"2002-02-19 10:00","2002","02","19","10:00","-7.1","","-8.0","","93","","6","","4","","9.7","","100.93","","","","-9","","Fog"
"2002-02-19 11:00","2002","02","19","11:00","-5.6","","-7.1","","89","","","","0","","12.9","","100.95","","","","","","Mostly Cloudy"
"2002-02-19 12:00","2002","02","19","12:00","-3.8","","-6.8","","80","","","","0","","12.9","","100.96","","","","","","Cloudy"
"2002-02-19 13:00","2002","02","19","13:00","-1.9","","-5.7","","75","","4","","6","","12.9","","100.83","","","","-4","","Cloudy"
"2002-02-19 14:00","2002","02","19","14:00","-0.6","","-5.6","","69","","5","","7","","12.9","","100.73","","","","-3","","Cloudy"
"2002-02-19 15:00","2002","02","19","15:00","-0.7","","-5.6","","69","","12","","11","","16.1","","100.76","","","","-4","","Cloudy"
"2002-02-19 16:00","2002","02","19","16:00","-0.8","","-5.9","","68","","7","","7","","16.1","","100.79","","","","-3","","Cloudy"
"2002-02-19 17:00","2002","02","19","17:00","-1.2","","-6.0","","70","","9","","7","","16.1","","100.72","","","","-4","","Cloudy"
"2002-02-19 18:00","2002","02","19","18:00","-1.2","","-5.5","","73","","9","","7","","16.1","","100.74","","","","-4","","Cloudy"
"2002-02-19 19:00","2002","02","19","19:00","-1.4","","-5.8","","72","","6","","11","","24.1","","100.75","","","","-5","","Mostly Cloudy"
"2002-02-19 20:00","2002","02","19","20:00","-1.7","","-6.0","","72","","7","","15","","24.1","","100.74","","","","-7","","Cloudy"
"2002-02-19 21:00","2002","02","19","21:00","-1.9","","-6.6","","70","","7","","13","","24.1","","100.71","","","","-6","","Cloudy"
"2002-02-19 22:00","2002","02","19","22:00","-1.8","","-6.4","","71","","6","","11","","24.1","","100.69","","","","-6","","Cloudy"
"2002-02-19 23:00","2002","02","19","23:00","-2.1","","-6.4","","72","","6","","13","","24.1","","100.66","","","","-7","","Cloudy"
"2002-02-20 00:00","2002","02","20","00:00","-1.9","","-6.7","","70","","6","","13","","24.1","","100.63","","","","-6","","Cloudy"
"2002-02-20 01:00","2002","02","20","01:00","-1.8","","-6.7","","69","","6","","19","","24.1","","100.54","","","","-7","","Cloudy"
"2002-02-20 02:00","2002","02","20","02:00","-1.7","","-6.3","","71","","8","","9","","24.1","","100.55","","","","-5","","Cloudy"
"2002-02-20 03:00","2002","02","20","03:00","-1.5","","-6.3","","70","","7","","11","","19.3","","100.49","","","","-5","","Cloudy"
"2002-02-20 04:00","2002","02","20","04:00","-1.9","","-4.7","","81","","6","","26","","11.3","","100.40","","","","-8","","Freezing Rain,Snow"
"2002-02-20 05:00","2002","02","20","05:00","-1.8","","-3.4","","89","","7","","19","","6.4","","100.41","","","","-7","","Freezing Rain,Fog"
"2002-02-20 06:00","2002","02","20","06:00","-1.3","","-2.5","","92","","6","","17","","4.0","","100.38","","","","-6","","Freezing Rain,Ice Pellets,Fog"
"2002-02-20 07:00","2002","02","20","07:00","-1.0","","-1.9","","94","","8","","19","","3.2","","100.25","","","","-6","","Freezing Rain,Fog"
"2002-02-20 08:00","2002","02","20","08:00","-0.8","","-1.8","","93","","8","","11","","4.0","","100.19","","","","-5","","Freezing Rain,Fog"
"2002-02-20 09:00","2002","02","20","09:00","-0.7","","-1.8","","92","","9","","15","","4.0","","100.11","","","","-5","","Fog"
"2002-02-20 10:00","2002","02","20","10:00","-0.5","","-1.7","","92","","9","","9","","4.0","","100.05","","","","-4","","Freezing Rain,Fog"
"2002-02-20 11:00","2002","02","20","11:00","-0.3","","-1.4","","92","","9","","17","","4.0","","99.95","","","","-5","","Freezing Rain,Fog"
"2002-02-20 12:00","2002","02","20","12:00","0.1","","-1.1","","92","","8","","19","","4.0","","99.82","","","","","","Rain,Fog"
"2002-02-20 13:00","2002","02","20","13:00","0.1","","-1.2","","91","","9","","17","","4.8","","99.70","","","","","","Rain,Fog"
"2002-02-20 14:00","2002","02","20","14:00","0.2","","-1.1","","91","","8","","15","","4.0","","99.62","","","","","","Rain,Fog"
"2002-02-20 15:00","2002","02","20","15:00","0.3","","-0.9","","92","","7","","19","","3.6","","99.46","","","","","","Rain,Fog"
"2002-02-20 16:00","2002","02","20","16:00","0.5","","-0.8","","91","","7","","17","","4.8","","99.36","","","","","","Fog"
"2002-02-20 17:00","2002","02","20","17:00","0.5","","-0.9","","90","","6","","17","","6.4","","99.21","","","","","","Fog"
"2002-02-20 18:00","2002","02","20","18:00","0.9","","-0.9","","88","","8","","15","","6.4","","99.13","","","","","","Fog"
"2002-02-20 19:00","2002","02","20","19:00","0.8","","-0.8","","89","","","","0","","6.4","","99.26","","","","","","Fog"
"2002-02-20 20:00","2002","02","20","20:00","0.9","","-0.8","","88","","7","","9","","4.8","","99.26","","","","","","Rain,Fog"
"2002-02-20 21:00","2002","02","20","21:00","0.7","","-0.7","","90","","8","","17","","6.4","","99.11","","","","","","Rain,Fog"
"2002-02-20 22:00","2002","02","20","22:00","0.9","","-0.3","","92","","9","","11","","9.7","","99.01","","","","","","Fog"
"2002-02-20 23:00","2002","02","20","23:00","0.9","","-0.2","","92","","8","","13","","9.7","","98.95","","","","","","Fog"
"2002-02-21 00:00","2002","02","21","00:00","1.6","","0.6","","93","","7","","11","","8.0","","98.94","","","","","","Rain Showers,Fog"
"2002-02-21 01:00","2002","02","21","01:00","1.1","","0.5","","96","","8","","11","","8.0","","98.91","","","","","","Rain Showers,Fog"
"2002-02-21 02:00","2002","02","21","02:00","1.3","","0.6","","95","","5","","9","","4.8","","98.91","","","","","","Fog"
"2002-02-21 03:00","2002","02","21","03:00","0.8","","0.3","","96","","8","","7","","4.8","","98.90","","","","","","Fog"
"2002-02-21 04:00","2002","02","21","04:00","1.3","","0.8","","96","","8","","7","","2.4","","98.91","","","","","","Fog"
"2002-02-21 05:00","2002","02","21","05:00","1.6","","1.3","","98","","7","","6","","2.4","","98.96","","","","","","Fog"
"2002-02-21 06:00","2002","02","21","06:00","1.3","","0.8","","96","","5","","6","","2.4","","98.99","","","","","","Fog"
"2002-02-21 07:00","2002","02","21","07:00","1.3","","0.8","","96","","7","","7","","1.2","","99.03","","","","","","Fog"
"2002-02-21 08:00","2002","02","21","08:00","1.4","","0.6","","94","","8","","7","","1.2","","99.06","","","","","","Fog"
"2002-02-21 09:00","2002","02","21","09:00","4.0","","3.8","","99","","17","","6","","3.2","","99.07","","","","","","Rain Showers,Fog"
"2002-02-21 10:00","2002","02","21","10:00","4.1","","3.9","","99","","22","","9","","3.2","","99.10","","","","","","Rain Showers,Fog"
"2002-02-21 11:00","2002","02","21","11:00","4.5","","4.1","","97","","18","","9","","4.8","","99.14","","","","","","Rain Showers,Fog"
"2002-02-21 12:00","2002","02","21","12:00","5.1","","3.9","","92","","19","","11","","9.7","","99.20","","","","","","Fog"
"2002-02-21 13:00","2002","02","21","13:00","6.0","","3.6","","85","","17","","11","","12.9","","99.18","","","","","","Mostly Cloudy"
"2002-02-21 14:00","2002","02","21","14:00","6.5","","2.5","","76","","20","","7","","19.3","","99.19","","","","","","Mostly Cloudy"
"2002-02-21 15:00","2002","02","21","15:00","6.6","","1.1","","68","","20","","9","","32.2","","99.18","","","","","","Mostly Cloudy"
"2002-02-21 16:00","2002","02","21","16:00","5.1","","0.6","","73","","21","","17","","32.2","","99.23","","","","","","Cloudy"
"2002-02-21 17:00","2002","02","21","17:00","4.4","","0.8","","77","","20","","13","","32.2","","99.29","","","","","","Cloudy"
"2002-02-21 18:00","2002","02","21","18:00","4.0","","0.7","","79","","22","","15","","19.3","","99.35","","","","","","Rain"
"2002-02-21 19:00","2002","02","21","19:00","3.1","","0.9","","85","","22","","11","","24.1","","99.38","","","","","","Rain"
"2002-02-21 20:00","2002","02","21","20:00","2.2","","0.5","","89","","20","","9","","24.1","","99.36","","","","","","Cloudy"
"2002-02-21 21:00","2002","02","21","21:00","2.5","","0.5","","87","","20","","9","","24.1","","99.36","","","","","","Mostly Cloudy"
"2002-02-21 22:00","2002","02","21","22:00","2.0","","0.4","","89","","22","","11","","24.1","","99.36","","","","","","Mostly Cloudy"
"2002-02-21 23:00","2002","02","21","23:00","1.1","","0.4","","95","","26","","13","","24.1","","99.32","","","","","","Cloudy"
"2002-02-22 00:00","2002","02","22","00:00","0.6","","-0.4","","93","","26","","15","","24.1","","99.30","","","","","","Snow"
"2002-02-22 01:00","2002","02","22","01:00","0.3","","-0.7","","93","","27","","11","","24.1","","99.27","","","","","","Snow"
"2002-02-22 02:00","2002","02","22","02:00","0.1","","-0.7","","94","","28","","15","","24.1","","99.29","","","","","","Snow"
"2002-02-22 03:00","2002","02","22","03:00","-0.6","","-1.8","","92","","33","","22","","24.1","","99.30","","","","-6","","Snow"
"2002-02-22 04:00","2002","02","22","04:00","-0.7","","-3.2","","83","","32","","19","","24.1","","99.35","","","","-6","","Snow"
"2002-02-22 05:00","2002","02","22","05:00","-1.6","","-4.7","","79","","32","","24","","19.3","","99.43","","","","-8","","Snow"
"2002-02-22 06:00","2002","02","22","06:00","-2.2","","-5.1","","80","","31","","22","","16.1","","99.49","","","","-8","","Snow"
"2002-02-22 07:00","2002","02","22","07:00","-3.8","","-5.9","","85","","29","","22","","9.7","","99.56","","","","-10","","Snow"
"2002-02-22 08:00","2002","02","22","08:00","-5.3","","-7.9","","82","","28","","26","","19.3","","99.65","","","","-13","","Snow Showers"
"2002-02-22 09:00","2002","02","22","09:00","-6.9","","-9.7","","80","","29","","32","","16.1","","99.71","","","","-16","","Snow Showers"
"2002-02-22 10:00","2002","02","22","10:00","-8.1","","-10.1","","85","","28","","35","","9.7","","99.78","","","","-18","","Snow Showers"
"2002-02-22 11:00","2002","02","22","11:00","-7.9","","-11.5","","75","","29","","32","","24.1","","99.84","","","","-17","","Mostly Cloudy"
"2002-02-22 12:00","2002","02","22","12:00","-7.2","","-11.1","","74","","29","","28","","32.2","","99.85","","","","-16","","Mostly Cloudy"
"2002-02-22 13:00","2002","02","22","13:00","-6.6","","-11.3","","69","","28","","22","","32.2","","99.87","","","","-14","","Mainly Clear"
"2002-02-22 14:00","2002","02","22","14:00","-6.0","","-10.7","","69","","29","","22","","32.2","","99.89","","","","-13","","Mainly Clear"
"2002-02-22 15:00","2002","02","22","15:00","-5.7","","-11.0","","66","","27","","24","","32.2","","99.94","","","","-13","","Clear"
"2002-02-22 16:00","2002","02","22","16:00","-4.9","","-10.5","","65","","27","","28","","32.2","","100.02","","","","-13","","Clear"
"2002-02-22 17:00","2002","02","22","17:00","-4.9","","-10.7","","64","","27","","20","","32.2","","100.07","","","","-11","","Clear"
"2002-02-22 18:00","2002","02","22","18:00","-5.7","","-10.8","","67","","27","","17","","32.2","","100.17","","","","-12","","Clear"
"2002-02-22 19:00","2002","02","22","19:00","-5.8","","-10.9","","67","","28","","19","","25.0","","100.24","","","","-12","","Clear"
"2002-02-22 20:00","2002","02","22","20:00","-6.4","","-11.0","","70","","28","","19","","25.0","","100.31","","","","-13","","Clear"
"2002-02-22 21:00","2002","02","22","21:00","-6.5","","-10.5","","73","","30","","15","","25.0","","100.42","","","","-12","","Mainly Clear"
"2002-02-22 22:00","2002","02","22","22:00","-7.1","","-11.5","","71","","32","","17","","25.0","","100.45","","","","-14","","Clear"
"2002-02-22 23:00","2002","02","22","23:00","-8.1","","-12.0","","73","","32","","20","","25.0","","100.47","","","","-15","","Clear"
"2002-02-23 00:00","2002","02","23","00:00","-9.5","","-13.0","","76","","32","","15","","25.0","","100.48","","","","-16","","Clear"
"2002-02-23 01:00","2002","02","23","01:00","-9.8","","-13.6","","74","","31","","15","","25.0","","100.50","","","","-16","","Clear"
"2002-02-23 02:00","2002","02","23","02:00","-10.4","","-14.0","","75","","31","","19","","25.0","","100.51","","","","-18","","Clear"
"2002-02-23 03:00","2002","02","23","03:00","-11.1","","-13.7","","81","","29","","11","","25.0","","100.52","","","","-17","","Clear"
"2002-02-23 04:00","2002","02","23","04:00","-11.6","","-13.9","","83","","27","","9","","25.0","","100.57","","","","-17","","Clear"
"2002-02-23 05:00","2002","02","23","05:00","-12.4","","-14.6","","84","","30","","17","","25.0","","100.60","","","","-20","","Clear"
"2002-02-23 06:00","2002","02","23","06:00","-13.0","","-15.1","","84","","30","","17","","25.0","","100.66","","","","-21","","Clear"
"2002-02-23 07:00","2002","02","23","07:00","-13.1","","-15.0","","86","","28","","11","","32.2","","100.72","","","","-19","","Clear"
"2002-02-23 08:00","2002","02","23","08:00","-12.7","","-15.0","","83","","27","","11","","32.2","","100.77","","","","-19","","Mainly Clear"
"2002-02-23 09:00","2002","02","23","09:00","-11.5","","-14.8","","76","","26","","7","","32.2","","100.81","","","","-16","","Mainly Clear"
"2002-02-23 10:00","2002","02","23","10:00","-10.4","","-14.8","","70","","24","","7","","32.2","","100.82","","","","-14","","Mainly Clear"
"2002-02-23 11:00","2002","02","23","11:00","-8.8","","-14.5","","63","","25","","11","","32.2","","100.80","","","","-14","","Mostly Cloudy"
"2002-02-23 12:00","2002","02","23","12:00","-7.4","","-13.6","","61","","24","","13","","32.2","","100.82","","","","-13","","Mainly Clear"
"2002-02-23 13:00","2002","02","23","13:00","-6.1","","-13.1","","58","","27","","11","","32.2","","100.75","","","","-11","","Mainly Clear"
"2002-02-23 14:00","2002","02","23","14:00","-5.4","","-12.9","","56","","25","","13","","32.2","","100.74","","","","-11","","Mainly Clear"
"2002-02-23 15:00","2002","02","23","15:00","-4.7","","-13.6","","50","","23","","9","","32.2","","100.75","","","","-9","","Clear"
"2002-02-23 16:00","2002","02","23","16:00","-4.3","","-13.9","","47","","25","","11","","32.2","","100.76","","","","-9","","Clear"
"2002-02-23 17:00","2002","02","23","17:00","-4.0","","-13.3","","48","","26","","9","","32.2","","100.79","","","","-8","","Mainly Clear"
"2002-02-23 18:00","2002","02","23","18:00","-5.2","","-13.5","","52","","28","","6","","32.2","","100.80","","","","-8","","Mainly Clear"
"2002-02-23 19:00","2002","02","23","19:00","-5.5","","-13.4","","54","","25","","4","","25.0","","100.83","","","","-7","","Mainly Clear"
"2002-02-23 20:00","2002","02","23","20:00","-5.9","","-13.2","","56","","22","","4","","25.0","","100.86","","","","-8","","Mainly Clear"
"2002-02-23 21:00","2002","02","23","21:00","-7.9","","-13.5","","64","","","","0","","25.0","","100.86","","","","","","Mostly Cloudy"
"2002-02-23 22:00","2002","02","23","22:00","-6.8","","-13.4","","59","","19","","4","","25.0","","100.90","","","","-9","","Mainly Clear"
"2002-02-23 23:00","2002","02","23","23:00","-7.0","","-13.3","","61","","18","","6","","25.0","","100.93","","","","-10","","Mainly Clear"
"2002-02-24 00:00","2002","02","24","00:00","-7.2","","-12.4","","66","","18","","6","","25.0","","100.92","","","","-10","","Mostly Cloudy"
"2002-02-24 01:00","2002","02","24","01:00","-7.8","","-11.3","","76","","17","","7","","25.0","","100.96","","","","-11","","Mainly Clear"
"2002-02-24 02:00","2002","02","24","02:00","-8.0","","-10.7","","81","","18","","7","","25.0","","100.98","","","","-12","","Mostly Cloudy"
"2002-02-24 03:00","2002","02","24","03:00","-9.1","","-11.1","","85","","17","","9","","25.0","","100.94","","","","-14","","Mainly Clear"
"2002-02-24 04:00","2002","02","24","04:00","-8.9","","-10.5","","88","","18","","9","","25.0","","100.94","","","","-14","","Mainly Clear"
"2002-02-24 05:00","2002","02","24","05:00","-8.2","","-9.7","","89","","15","","9","","25.0","","100.89","","","","-13","","Mostly Cloudy"
"2002-02-24 06:00","2002","02","24","06:00","-7.9","","-9.6","","88","","10","","4","","25.0","","100.92","","","","-10","","Mostly Cloudy"
"2002-02-24 07:00","2002","02","24","07:00","-9.2","","-11.2","","85","","5","","6","","24.1","","101.00","","","","-13","","Mostly Cloudy"
"2002-02-24 08:00","2002","02","24","08:00","-8.2","","-10.1","","86","","10","","7","","24.1","","100.98","","","","-12","","Mostly Cloudy"
"2002-02-24 09:00","2002","02","24","09:00","-7.1","","-9.4","","84","","6","","6","","24.1","","101.00","","","","-10","","Mostly Cloudy"
"2002-02-24 10:00","2002","02","24","10:00","-4.9","","-7.3","","83","","9","","11","","19.3","","100.99","","","","-9","","Mostly Cloudy"
"2002-02-24 11:00","2002","02","24","11:00","-3.0","","-6.0","","80","","13","","13","","19.3","","100.95","","","","-8","","Cloudy"
"2002-02-24 12:00","2002","02","24","12:00","-1.6","","-5.3","","76","","16","","17","","19.3","","100.88","","","","-7","","Cloudy"
"2002-02-24 13:00","2002","02","24","13:00","-0.1","","-5.6","","66","","17","","15","","19.3","","100.81","","","","-5","","Cloudy"
"2002-02-24 14:00","2002","02","24","14:00","0.2","","-6.3","","62","","17","","15","","19.3","","100.73","","","","","","Mostly Cloudy"
"2002-02-24 15:00","2002","02","24","15:00","0.9","","-6.0","","60","","17","","11","","19.3","","100.69","","","","","","Mostly Cloudy"
"2002-02-24 16:00","2002","02","24","16:00","1.5","","-5.2","","61","","15","","15","","24.1","","100.60","","","","","","Mostly Cloudy"
"2002-02-24 17:00","2002","02","24","17:00","1.1","","-5.0","","64","","12","","11","","24.1","","100.65","","","","","","Mostly Cloudy"
"2002-02-24 18:00","2002","02","24","18:00","0.2","","-4.7","","70","","9","","9","","24.1","","100.63","","","","","","Mostly Cloudy"
"2002-02-24 19:00","2002","02","24","19:00","0.2","","-4.5","","71","","9","","7","","24.1","","100.69","","","","","","Mostly Cloudy"
"2002-02-24 20:00","2002","02","24","20:00","-0.2","","-4.5","","73","","9","","7","","24.1","","100.68","","","","-3","","Cloudy"
"2002-02-24 21:00","2002","02","24","21:00","-0.7","","-5.4","","70","","7","","11","","24.1","","100.66","","","","-4","","Mostly Cloudy"
"2002-02-24 22:00","2002","02","24","22:00","-1.6","","-5.5","","75","","7","","13","","24.1","","100.60","","","","-6","","Mostly Cloudy"
"2002-02-24 23:00","2002","02","24","23:00","-2.6","","-5.9","","78","","4","","9","","24.1","","100.63","","","","-6","","Mostly Cloudy"
"2002-02-25 00:00","2002","02","25","00:00","-2.9","","-6.1","","79","","5","","9","","24.1","","100.60","","","","-6","","Cloudy"
"2002-02-25 01:00","2002","02","25","01:00","-2.7","","-6.0","","78","","6","","13","","19.3","","100.54","","","","-7","","Cloudy"
"2002-02-25 02:00","2002","02","25","02:00","-2.3","","-5.5","","79","","7","","11","","24.1","","100.52","","","","-6","","Cloudy"
"2002-02-25 03:00","2002","02","25","03:00","-2.7","","-5.7","","80","","4","","13","","16.1","","100.46","","","","-7","","Cloudy"
"2002-02-25 04:00","2002","02","25","04:00","-2.9","","-5.7","","81","","7","","11","","16.1","","100.38","","","","-7","","Cloudy"
"2002-02-25 05:00","2002","02","25","05:00","-2.7","","-5.7","","80","","5","","13","","16.1","","100.38","","","","-7","","Cloudy"
"2002-02-25 06:00","2002","02","25","06:00","-2.9","","-6.2","","78","","7","","13","","16.1","","100.37","","","","-8","","Cloudy"
"2002-02-25 07:00","2002","02","25","07:00","-2.9","","-5.8","","80","","9","","17","","16.1","","100.20","","","","-8","","Cloudy"
"2002-02-25 08:00","2002","02","25","08:00","-2.4","","-5.5","","79","","9","","13","","16.1","","100.20","","","","-7","","Cloudy"
"2002-02-25 09:00","2002","02","25","09:00","-1.8","","-5.3","","77","","9","","11","","16.1","","100.13","","","","-6","","Mostly Cloudy"
"2002-02-25 10:00","2002","02","25","10:00","-0.7","","-4.3","","77","","8","","11","","16.1","","100.10","","","","-4","","Mostly Cloudy"
"2002-02-25 11:00","2002","02","25","11:00","0.7","","-4.2","","70","","8","","11","","16.1","","99.98","","","","","","Mostly Cloudy"
"2002-02-25 12:00","2002","02","25","12:00","1.3","","-3.4","","71","","9","","15","","16.1","","99.84","","","","","","Cloudy"
"2002-02-25 13:00","2002","02","25","13:00","2.5","","-3.0","","67","","11","","19","","16.1","","99.70","","","","","","Mostly Cloudy"
"2002-02-25 14:00","2002","02","25","14:00","4.4","","-2.9","","59","","6","","6","","19.3","","99.66","","","","","","Mostly Cloudy"
"2002-02-25 15:00","2002","02","25","15:00","4.5","","-1.8","","64","","10","","15","","19.3","","99.58","","","","","","Mostly Cloudy"
"2002-02-25 16:00","2002","02","25","16:00","5.1","","-1.9","","61","","5","","9","","19.3","","99.57","","","","","","Mostly Cloudy"
"2002-02-25 17:00","2002","02","25","17:00","3.8","","-2.2","","65","","10","","7","","19.3","","99.56","","","","","","Mostly Cloudy"
"2002-02-25 18:00","2002","02","25","18:00","3.4","","-1.8","","69","","9","","6","","19.3","","99.58","","","","","","Cloudy"
"2002-02-25 19:00","2002","02","25","19:00","5.0","","-2.3","","59","","18","","9","","19.3","","99.59","","","","","","Cloudy"
"2002-02-25 20:00","2002","02","25","20:00","7.0","","-2.2","","52","","20","","9","","19.3","","99.61","","","","","","Rain Showers"
"2002-02-25 21:00","2002","02","25","21:00","4.8","","-0.9","","67","","27","","9","","19.3","","99.62","","","","","","Rain Showers"
"2002-02-25 22:00","2002","02","25","22:00","2.2","","-0.1","","85","","5","","9","","16.1","","99.62","","","","","","Rain Showers"
"2002-02-25 23:00","2002","02","25","23:00","2.4","","-0.5","","81","","6","","9","","19.3","","99.61","","","","","","Cloudy"
"2002-02-26 00:00","2002","02","26","00:00","2.5","","-0.5","","81","","8","","7","","19.3","","99.58","","","","","","Cloudy"
"2002-02-26 01:00","2002","02","26","01:00","2.5","","-0.6","","80","","6","","7","","19.3","","99.55","","","","","","Cloudy"
"2002-02-26 02:00","2002","02","26","02:00","1.6","","-0.5","","86","","9","","9","","16.1","","99.53","","","","","","Cloudy"
"2002-02-26 03:00","2002","02","26","03:00","2.1","","-0.6","","82","","6","","6","","16.1","","99.49","","","","","","Cloudy"
"2002-02-26 04:00","2002","02","26","04:00","1.3","","-0.6","","87","","4","","11","","16.1","","99.42","","","","","","Cloudy"
"2002-02-26 05:00","2002","02","26","05:00","1.2","","-0.8","","86","","5","","11","","12.9","","99.37","","","","","","Cloudy"
"2002-02-26 06:00","2002","02","26","06:00","0.9","","-0.9","","88","","8","","17","","16.1","","99.23","","","","","","Cloudy"
"2002-02-26 07:00","2002","02","26","07:00","1.0","","-1.0","","86","","3","","15","","12.9","","99.23","","","","","","Mostly Cloudy"
"2002-02-26 08:00","2002","02","26","08:00","1.4","","-1.1","","83","","5","","15","","12.9","","99.18","","","","","","Cloudy"
"2002-02-26 09:00","2002","02","26","09:00","2.6","","-1.1","","77","","7","","15","","12.9","","99.13","","","","","","Cloudy"
"2002-02-26 10:00","2002","02","26","10:00","3.6","","-1.0","","72","","6","","19","","12.9","","98.97","","","","","","Mostly Cloudy"
"2002-02-26 11:00","2002","02","26","11:00","3.9","","-1.2","","69","","7","","17","","16.1","","98.85","","","","","","Mostly Cloudy"
"2002-02-26 12:00","2002","02","26","12:00","5.4","","-0.9","","64","","7","","20","","16.1","","98.65","","","","","","Mostly Cloudy"
"2002-02-26 13:00","2002","02","26","13:00","5.7","","-0.7","","63","","7","","13","","16.1","","98.51","","","","","","Mostly Cloudy"
"2002-02-26 14:00","2002","02","26","14:00","6.2","","-0.5","","62","","11","","11","","16.1","","98.44","","","","","","Cloudy"
"2002-02-26 15:00","2002","02","26","15:00","4.6","","-0.6","","69","","9","","13","","12.9","","98.38","","","","","","Mostly Cloudy"
"2002-02-26 16:00","2002","02","26","16:00","4.5","","0.5","","75","","22","","6","","11.3","","98.42","","","","","","Rain"
"2002-02-26 17:00","2002","02","26","17:00","5.2","","3.2","","87","","18","","7","","12.9","","98.39","","","","","","Cloudy"
"2002-02-26 18:00","2002","02","26","18:00","4.3","","3.1","","92","","16","","15","","12.9","","98.38","","","","","","Rain"
"2002-02-26 19:00","2002","02","26","19:00","5.1","","-3.7","","53","","18","","15","","12.9","","98.40","","","","","","Mostly Cloudy"
"2002-02-26 20:00","2002","02","26","20:00","4.9","","1.5","","79","","20","","32","","19.3","","98.46","","","","","","Cloudy"
"2002-02-26 21:00","2002","02","26","21:00","3.2","","0.1","","80","","21","","20","","24.1","","98.50","","","","","","Cloudy"
"2002-02-26 22:00","2002","02","26","22:00","2.8","","-2.2","","70","","22","","26","","24.1","","98.65","","","","","","Cloudy"
"2002-02-26 23:00","2002","02","26","23:00","2.0","","-3.9","","65","","21","","28","","24.1","","98.63","","","","","","Mostly Cloudy"
"2002-02-27 00:00","2002","02","27","00:00","1.3","","-5.8","","59","","22","","24","","24.1","","98.69","","","","","","Mostly Cloudy"
"2002-02-27 01:00","2002","02","27","01:00","0.9","","-5.3","","63","","22","","24","","24.1","","98.69","","","","","","Mostly Cloudy"
"2002-02-27 02:00","2002","02","27","02:00","0.2","","-5.2","","67","","22","","20","","24.1","","98.62","","","","","","Mainly Clear"
"2002-02-27 03:00","2002","02","27","03:00","-0.4","","-3.7","","78","","19","","15","","24.1","","98.63","","","","-5","","Mainly Clear"
"2002-02-27 04:00","2002","02","27","04:00","-0.8","","-4.5","","76","","20","","15","","24.1","","98.60","","","","-5","","Clear"
"2002-02-27 05:00","2002","02","27","05:00","-0.7","","-5.6","","69","","20","","20","","24.1","","98.62","","","","-6","","Clear"
"2002-02-27 06:00","2002","02","27","06:00","-1.2","","-6.1","","69","","19","","24","","24.1","","98.60","","","","-7","","Mainly Clear"
"2002-02-27 07:00","2002","02","27","07:00","-1.5","","-5.4","","75","","21","","24","","32.2","","98.63","","","","-8","","Mainly Clear"
"2002-02-27 08:00","2002","02","27","08:00","-1.1","","-4.6","","77","","21","","20","","32.2","","98.65","","","","-7","","Snow Showers"
"2002-02-27 09:00","2002","02","27","09:00","-0.7","","-5.8","","68","","22","","24","","32.2","","98.66","","","","-7","","Mainly Clear"
"2002-02-27 10:00","2002","02","27","10:00","-0.5","","-7.1","","61","","23","","26","","32.2","","98.66","","","","-7","","Snow Showers"
"2002-02-27 11:00","2002","02","27","11:00","-0.3","","-8.4","","54","","25","","24","","32.2","","98.63","","","","-6","","Mainly Clear"
"2002-02-27 12:00","2002","02","27","12:00","-0.1","","-9.2","","50","","25","","22","","32.2","","98.64","","","","-6","","Mainly Clear"
"2002-02-27 13:00","2002","02","27","13:00","0.2","","-9.5","","48","","25","","26","","32.2","","98.55","","","","","","Mainly Clear"
"2002-02-27 14:00","2002","02","27","14:00","0.9","","-9.1","","47","","22","","20","","32.2","","98.48","","","","","","Mainly Clear"
"2002-02-27 15:00","2002","02","27","15:00","0.3","","-9.7","","47","","24","","20","","32.2","","98.45","","","","","","Mostly Cloudy"
"2002-02-27 16:00","2002","02","27","16:00","-0.6","","-9.4","","51","","23","","20","","24.1","","98.43","","","","-6","","Mostly Cloudy"
"2002-02-27 17:00","2002","02","27","17:00","-2.0","","-7.9","","64","","30","","20","","12.9","","98.42","","","","-8","","Snow Showers"
"2002-02-27 18:00","2002","02","27","18:00","-3.4","","-7.0","","76","","29","","20","","24.1","","98.42","","","","-10","","Mainly Clear"
"2002-02-27 19:00","2002","02","27","19:00","-3.8","","-7.6","","75","","28","","19","","24.1","","98.45","","","","-10","","Mainly Clear"
"2002-02-27 20:00","2002","02","27","20:00","-4.4","","-10.7","","61","","29","","19","","24.1","","98.50","","","","-11","","Mainly Clear"
"2002-02-27 21:00","2002","02","27","21:00","-5.0","","-10.7","","64","","31","","20","","25.0","","98.61","","","","-12","","Mostly Cloudy"
"2002-02-27 22:00","2002","02","27","22:00","-7.0","","-12.8","","63","","31","","19","","25.0","","98.72","","","","-14","","Mostly Cloudy"
"2002-02-27 23:00","2002","02","27","23:00","-8.5","","-12.3","","74","","31","","20","","25.0","","98.78","","","","-16","","Mostly Cloudy"
"2002-02-28 00:00","2002","02","28","00:00","-8.9","","-13.0","","72","","30","","26","","25.0","","98.84","","","","-18","","Mostly Cloudy"
"2002-02-28 01:00","2002","02","28","01:00","-9.3","","-11.3","","85","","28","","26","","25.0","","98.89","","","","-18","","Mostly Cloudy"
"2002-02-28 02:00","2002","02","28","02:00","-9.3","","-13.7","","70","","28","","24","","25.0","","98.96","","","","-18","","Mostly Cloudy"
"2002-02-28 03:00","2002","02","28","03:00","-10.1","","-15.1","","67","","29","","28","","25.0","","99.05","","","","-19","","Mainly Clear"
"2002-02-28 04:00","2002","02","28","04:00","-10.6","","-15.4","","68","","29","","35","","25.0","","99.15","","","","-21","","Mainly Clear"
"2002-02-28 05:00","2002","02","28","05:00","-10.8","","-15.6","","68","","29","","39","","25.0","","99.24","","","","-22","","Mainly Clear"
"2002-02-28 06:00","2002","02","28","06:00","-11.1","","-15.3","","71","","28","","32","","25.0","","99.36","","","","-21","","Clear"
"2002-02-28 07:00","2002","02","28","07:00","-11.3","","-15.4","","72","","29","","26","","32.2","","99.46","","","","-21","","Clear"
"2002-02-28 08:00","2002","02","28","08:00","-10.8","","-15.3","","69","","29","","24","","32.2","","99.59","","","","-20","","Clear"
"2002-02-28 09:00","2002","02","28","09:00","-9.9","","-14.9","","67","","29","","28","","32.2","","99.70","","","","-19","","Clear"
"2002-02-28 10:00","2002","02","28","10:00","-8.6","","-14.2","","64","","27","","24","","32.2","","99.82","","","","-17","","Clear"
"2002-02-28 11:00","2002","02","28","11:00","-7.3","","-14.2","","58","","27","","22","","32.2","","99.89","","","","-15","","Clear"
"2002-02-28 12:00","2002","02","28","12:00","-6.1","","-13.6","","55","","27","","28","","32.2","","99.92","","","","-14","","Clear"
"2002-02-28 13:00","2002","02","28","13:00","-5.0","","-13.6","","51","","28","","28","","32.2","","99.94","","","","-13","","Clear"
"2002-02-28 14:00","2002","02","28","14:00","-3.9","","-13.2","","48","","29","","22","","32.2","","99.95","","","","-10","","Mainly Clear"
"2002-02-28 15:00","2002","02","28","15:00","-2.9","","-13.4","","44","","26","","19","","32.2","","99.97","","","","-9","","Mainly Clear"
"2002-02-28 16:00","2002","02","28","16:00","-1.8","","-14.6","","37","","27","","7","","32.2","","100.01","","","","-4","","Mainly Clear"
"2002-02-28 17:00","2002","02","28","17:00","-1.9","","-15.6","","34","","26","","4","","32.2","","100.04","","","","-3","","Mostly Cloudy"
"2002-02-28 18:00","2002","02","28","18:00","-2.9","","-16.5","","34","","","","0","","25.0","","100.06","","","","","","Cloudy"
"2002-02-28 19:00","2002","02","28","19:00","-3.5","","-14.7","","42","","22","","6","","25.0","","100.11","","","","-6","","Mainly Clear"
"2002-02-28 20:00","2002","02","28","20:00","-3.0","","-11.6","","51","","22","","15","","25.0","","100.14","","","","-8","","Clear"
"2002-02-28 21:00","2002","02","28","21:00","-3.2","","-11.2","","54","","20","","13","","25.0","","100.22","","","","-8","","Mainly Clear"
"2002-02-28 22:00","2002","02","28","22:00","-3.8","","-9.5","","65","","21","","13","","25.0","","100.25","","","","-9","","Mainly Clear"
"2002-02-28 23:00","2002","02","28","23:00","-3.6","","-8.7","","68","","20","","13","","25.0","","100.31","","","","-8","","Mostly Cloudy"
