"Station Name","OTTAWA MACDONALD-CARTIER INT'L A"
"Province","ONTARIO"
"Latitude","45.32"
"Longitude","-75.67"
"Elevation","114.00"
"Climate Identifier","6106000"
"WMO Identifier","71628"
"TC Identifier","YOW"
"All times are specified in Local Standard Time (LST). Add 1 hour to adjust for Daylight Saving Time where and when it is observed."

"Legend"
"E","Estimated"
"M","Missing"
"NA","Not Available"

"Date/Time","Year","Month","Day","Time","Temp (°C)","Temp Flag","Dew Point Temp (°C)","Dew Point Temp Flag","Rel Hum (%)","Rel Hum Flag","Wind Dir (10s deg)","Wind Dir Flag","Wind Spd (km/h)","Wind Spd Flag","Visibility (km)","Visibility Flag","Stn Press (kPa)","Stn Press Flag","Hmdx","Hmdx Flag","Wind Chill","Wind Chill Flag","Weather"
"1994-01-01 00:00","1994","01","01","00:00","-3.4","","-5.0","","89","","21","","11","","19.3","","100.61","","","","-8","","Cloudy"
"1994-01-01 01:00","1994","01","01","01:00","-2.7","","-4.8","","86","","22","","13","","19.3","","100.57","","","","-7","","Cloudy"
"1994-01-01 02:00","1994","01","01","02:00","-4.2","","-6.2","","86","","20","","11","","19.3","","100.57","","","","-9","","Cloudy"
"1994-01-01 03:00","1994","01","01","03:00","-3.8","","-6.0","","84","","19","","9","","19.3","","100.57","","","","-8","","Cloudy"
"1994-01-01 04:00","1994","01","01","04:00","-3.3","","-5.6","","84","","19","","11","","19.3","","100.54","","","","-8","","Cloudy"
"1994-01-01 05:00","1994","01","01","05:00","-3.6","","-5.1","","89","","17","","7","","1.2","","100.47","","","","-7","","Snow"
"1994-01-01 06:00","1994","01","01","06:00","-3.4","","-4.5","","92","","16","","7","","1.0","","100.44","","","","-6","","Snow"
"1994-01-01 07:00","1994","01","01","07:00","-3.0","","-3.8","","94","","16","","7","","4.8","","100.37","","","","-6","","Snow"
"1994-01-01 08:00","1994","01","01","08:00","-2.1","","-3.0","","94","","16","","11","","2.0","","100.24","","","","-6","","Snow"
"1994-01-01 09:00","1994","01","01","09:00","-1.9","","-2.6","","95","","16","","13","","16.1","","100.14","","","","-6","","Snow"
"1994-01-01 10:00","1994","01","01","10:00","-1.4","","-2.7","","91","","19","","24","","19.3","","100.14","","","","-8","","Cloudy"
"1994-01-01 11:00","1994","01","01","11:00","-1.5","","-3.1","","89","","18","","13","","19.3","","99.97","","","","-6","","Cloudy"
"1994-01-01 12:00","1994","01","01","12:00","-1.4","","-3.6","","85","","17","","15","","24.1","","99.77","","","","-6","","Cloudy"
"1994-01-01 13:00","1994","01","01","13:00","-1.0","","-3.7","","82","","18","","17","","24.1","","99.67","","","","-6","","Cloudy"
"1994-01-01 14:00","1994","01","01","14:00","-0.8","","-3.4","","82","","15","","15","","24.1","","99.47","","","","-5","","Cloudy"
"1994-01-01 15:00","1994","01","01","15:00","-0.2","","-3.0","","81","","16","","30","","24.1","","99.27","","","","-7","","Cloudy"
"1994-01-01 16:00","1994","01","01","16:00","0.7","","-2.2","","81","","17","","20","","24.1","","99.10","","","","","","Cloudy"
"1994-01-01 17:00","1994","01","01","17:00","-0.3","","-2.5","","85","","20","","13","","6.4","","99.10","","","","-4","","Snow"
"1994-01-01 18:00","1994","01","01","18:00","0.6","","-1.0","","89","","21","","20","","4.0","","99.10","","","","","","Snow"
"1994-01-01 19:00","1994","01","01","19:00","1.0","","-0.2","","92","","21","","17","","12.9","","99.03","","","","","","Snow"
"1994-01-01 20:00","1994","01","01","20:00","0.9","","-0.2","","92","","22","","20","","6.4","","99.03","","","","","","Rain,Snow,Fog"
"1994-01-01 21:00","1994","01","01","21:00","0.7","","-0.3","","93","","21","","17","","3.2","","99.03","","","","","","Rain,Snow,Fog"
"1994-01-01 22:00","1994","01","01","22:00","0.6","","0.0","","96","","21","","19","","8.0","","99.03","","","","","","Rain,Snow,Fog"
"1994-01-01 23:00","1994","01","01","23:00","1.2","","0.4","","94","","22","","20","","16.1","","99.07","","","","","","Rain"
"1994-01-02 00:00","1994","01","02","00:00","1.3","","0.4","","94","","22","","19","","16.1","","99.07","","","","","","Rain"
"1994-01-02 01:00","1994","01","02","01:00","1.3","","0.4","","94","","22","","22","","12.9","","99.10","","","","","","Rain,Snow"
"1994-01-02 02:00","1994","01","02","02:00","1.0","","0.5","","96","","30","","26","","25.0","","99.23","","","","","","Snow"
"1994-01-02 03:00","1994","01","02","03:00","-1.7","","-2.5","","94","","29","","30","","25.0","","99.37","","","","-9","","Mostly Cloudy"
"1994-01-02 04:00","1994","01","02","04:00","-5.9","","-7.3","","90","","29","","31","","25.0","","99.50","","","","-14","","Mostly Cloudy"
"1994-01-02 05:00","1994","01","02","05:00","-8.9","","-10.5","","88","","29","","31","","25.0","","99.67","","","","-18","","Mostly Cloudy"
"1994-01-02 06:00","1994","01","02","06:00","-11.0","","-13.2","","84","","33","","30","","25.0","","99.90","","","","-21","","Mainly Clear"
"1994-01-02 07:00","1994","01","02","07:00","-12.3","","-14.7","","82","","29","","15","","25.0","","100.14","","","","-20","","Mostly Cloudy"
"1994-01-02 08:00","1994","01","02","08:00","-13.9","","-16.5","","81","","31","","19","","40.2","","100.27","","","","-23","","Mostly Cloudy"
"1994-01-02 09:00","1994","01","02","09:00","-15.2","","-17.9","","80","","33","","22","","40.2","","100.51","","","","-25","","Mostly Cloudy"
"1994-01-02 10:00","1994","01","02","10:00","-15.9","","-19.1","","76","","32","","24","","40.2","","100.61","","","","-26","","Mainly Clear"
"1994-01-02 11:00","1994","01","02","11:00","-16.0","","-20.6","","68","","31","","20","","40.2","","100.74","","","","-25","","Mainly Clear"
"1994-01-02 12:00","1994","01","02","12:00","-16.6","","-26.3","","43","","34","","17","","40.2","","100.74","","","","-25","","Mostly Cloudy"
"1994-01-02 13:00","1994","01","02","13:00","-16.7","","-25.7","","46","","34","","20","","40.2","","100.74","","","","-26","","Mostly Cloudy"
"1994-01-02 14:00","1994","01","02","14:00","-16.6","","-25.1","","48","","31","","20","","40.2","","100.84","","","","-26","","Mostly Cloudy"
"1994-01-02 15:00","1994","01","02","15:00","-17.3","","-25.3","","50","","32","","20","","40.2","","100.98","","","","-27","","Mostly Cloudy"
"1994-01-02 16:00","1994","01","02","16:00","-17.7","","-25.5","","51","","33","","17","","40.2","","101.14","","","","-27","","Mostly Cloudy"
"1994-01-02 17:00","1994","01","02","17:00","-18.3","","-25.8","","52","","32","","19","","24.1","","101.21","","","","-28","","Mostly Cloudy"
"1994-01-02 18:00","1994","01","02","18:00","-19.0","","-26.2","","53","","32","","15","","25.0","","101.24","","","","-28","","Mostly Cloudy"
"1994-01-02 19:00","1994","01","02","19:00","-19.5","","-26.6","","54","","32","","17","","25.0","","101.38","","","","-29","","Mostly Cloudy"
"1994-01-02 20:00","1994","01","02","20:00","-19.9","","-26.6","","55","","33","","9","","25.0","","101.38","","","","-27","","Mainly Clear"
"1994-01-02 21:00","1994","01","02","21:00","-20.1","","-26.6","","57","","33","","13","","25.0","","101.38","","","","-29","","Mainly Clear"
"1994-01-02 22:00","1994","01","02","22:00","-20.7","","-27.0","","58","","36","","9","","25.0","","101.44","","","","-28","","Mainly Clear"
"1994-01-02 23:00","1994","01","02","23:00","-21.3","","-27.7","","56","","36","","13","","25.0","","101.44","","","","-30","","Mainly Clear"
"1994-01-03 00:00","1994","01","03","00:00","-22.0","","-28.2","","57","","36","","11","","25.0","","101.48","","","","-30","","Mainly Clear"
"1994-01-03 01:00","1994","01","03","01:00","-22.5","","-28.9","","56","","36","","11","","25.0","","101.51","","","","-31","","Mainly Clear"
"1994-01-03 02:00","1994","01","03","02:00","-23.0","","-29.2","","57","","35","","13","","25.0","","101.51","","","","-32","","Mainly Clear"
"1994-01-03 03:00","1994","01","03","03:00","-23.8","","-29.9","","57","","1","","11","","25.0","","101.51","","","","-32","","Clear"
"1994-01-03 04:00","1994","01","03","04:00","-24.7","","-30.4","","59","","1","","11","","25.0","","101.51","","","","-33","","Clear"
"1994-01-03 05:00","1994","01","03","05:00","-24.8","","-30.6","","58","","36","","9","","25.0","","101.55","","","","-32","","Clear"
"1994-01-03 06:00","1994","01","03","06:00","-25.0","","-30.6","","60","","35","","9","","25.0","","101.58","","","","-33","","Mainly Clear"
"1994-01-03 07:00","1994","01","03","07:00","-25.5","","-31.0","","60","","1","","13","","25.0","","101.55","","","","-35","","Clear"
"1994-01-03 08:00","1994","01","03","08:00","-25.4","","-30.6","","62","","3","","13","","32.2","","101.58","","","","-35","","Mainly Clear"
"1994-01-03 09:00","1994","01","03","09:00","-24.4","","-29.5","","63","","4","","19","","32.2","","101.58","","","","-36","","Mostly Cloudy"
"1994-01-03 10:00","1994","01","03","10:00","-23.2","","-28.3","","63","","6","","17","","32.2","","101.58","","","","-34","","Mostly Cloudy"
"1994-01-03 11:00","1994","01","03","11:00","-22.1","","-27.1","","64","","5","","15","","32.2","","101.51","","","","-32","","Cloudy"
"1994-01-03 12:00","1994","01","03","12:00","-20.9","","-25.9","","65","","5","","13","","32.2","","101.41","","","","-30","","Cloudy"
"1994-01-03 13:00","1994","01","03","13:00","-20.1","","-25.2","","64","","5","","15","","40.2","","101.34","","","","-29","","Cloudy"
"1994-01-03 14:00","1994","01","03","14:00","-19.4","","-25.0","","61","","5","","17","","40.2","","101.21","","","","-29","","Cloudy"
"1994-01-03 15:00","1994","01","03","15:00","-18.8","","-24.6","","60","","6","","15","","40.2","","101.18","","","","-28","","Cloudy"
"1994-01-03 16:00","1994","01","03","16:00","-18.7","","-25.0","","58","","6","","17","","32.2","","101.18","","","","-28","","Cloudy"
"1994-01-03 17:00","1994","01","03","17:00","-19.2","","-26.0","","55","","6","","15","","24.1","","101.14","","","","-28","","Cloudy"
"1994-01-03 18:00","1994","01","03","18:00","-19.4","","-26.0","","56","","7","","19","","25.0","","101.08","","","","-29","","Mostly Cloudy"
"1994-01-03 19:00","1994","01","03","19:00","-19.5","","-26.2","","56","","7","","20","","25.0","","101.04","","","","-30","","Mostly Cloudy"
"1994-01-03 20:00","1994","01","03","20:00","-19.7","","-26.3","","56","","7","","22","","25.0","","101.01","","","","-31","","Mostly Cloudy"
"1994-01-03 21:00","1994","01","03","21:00","-19.9","","-26.7","","55","","6","","19","","25.0","","100.94","","","","-30","","Mainly Clear"
"1994-01-03 22:00","1994","01","03","22:00","-19.6","","-26.2","","56","","6","","22","","25.0","","100.81","","","","-30","","Cloudy"
"1994-01-03 23:00","1994","01","03","23:00","-19.1","","-25.7","","56","","6","","22","","25.0","","100.71","","","","-30","","Cloudy"
"1994-01-04 00:00","1994","01","04","00:00","-18.3","","-25.2","","55","","6","","19","","25.0","","100.64","","","","-28","","Cloudy"
"1994-01-04 01:00","1994","01","04","01:00","-18.1","","-24.8","","56","","4","","17","","25.0","","100.54","","","","-27","","Cloudy"
"1994-01-04 02:00","1994","01","04","02:00","-17.7","","-24.3","","57","","5","","17","","25.0","","100.54","","","","-27","","Cloudy"
"1994-01-04 03:00","1994","01","04","03:00","-17.5","","-23.7","","58","","4","","19","","25.0","","100.41","","","","-27","","Cloudy"
"1994-01-04 04:00","1994","01","04","04:00","-16.9","","-22.9","","60","","4","","17","","24.1","","100.24","","","","-26","","Cloudy"
"1994-01-04 05:00","1994","01","04","05:00","-16.0","","-22.1","","59","","4","","17","","24.1","","100.24","","","","-25","","Cloudy"
"1994-01-04 06:00","1994","01","04","06:00","-16.0","","-21.6","","62","","3","","15","","24.1","","100.10","","","","-24","","Cloudy"
"1994-01-04 07:00","1994","01","04","07:00","-15.6","","-21.0","","63","","2","","13","","24.1","","99.94","","","","-23","","Snow"
"1994-01-04 08:00","1994","01","04","08:00","-14.7","","-19.9","","65","","1","","13","","24.1","","99.80","","","","-22","","Snow"
"1994-01-04 09:00","1994","01","04","09:00","-13.9","","-18.8","","66","","1","","13","","32.2","","99.60","","","","-21","","Snow"
"1994-01-04 10:00","1994","01","04","10:00","-13.0","","-17.4","","70","","2","","17","","24.1","","99.47","","","","-21","","Snow"
"1994-01-04 11:00","1994","01","04","11:00","-12.1","","-16.3","","71","","1","","20","","1.6","","99.13","","","","-21","","Snow"
"1994-01-04 12:00","1994","01","04","12:00","-12.1","","-12.2","","99","","2","","7","","1.2","","99.10","","","","-16","","Snow"
"1994-01-04 13:00","1994","01","04","13:00","-12.0","","-12.5","","96","","34","","19","","1.0","","98.96","","","","-20","","Snow"
"1994-01-04 14:00","1994","01","04","14:00","-12.1","","-12.3","","99","","35","","26","","0.6","","98.80","","","","-22","","Moderate Snow"
"1994-01-04 15:00","1994","01","04","15:00","-11.8","","-11.8","","100","","36","","24","","0.8","","98.70","","","","-21","","Moderate Snow"
"1994-01-04 16:00","1994","01","04","16:00","-11.5","","-11.5","","100","","34","","15","","2.4","","98.70","","","","-19","","Snow"
"1994-01-04 17:00","1994","01","04","17:00","-12.3","","-12.6","","97","","33","","19","","1.2","","98.66","","","","-21","","Snow"
"1994-01-04 18:00","1994","01","04","18:00","-12.2","","-12.8","","96","","33","","17","","2.8","","98.66","","","","-20","","Snow"
"1994-01-04 19:00","1994","01","04","19:00","-12.0","","-12.5","","96","","32","","17","","2.8","","98.73","","","","-20","","Snow"
"1994-01-04 20:00","1994","01","04","20:00","-12.0","","-12.6","","95","","32","","17","","4.8","","98.80","","","","-20","","Snow"
"1994-01-04 21:00","1994","01","04","21:00","-12.2","","-12.9","","95","","32","","17","","11.3","","98.80","","","","-20","","Snow"
"1994-01-04 22:00","1994","01","04","22:00","-12.6","","-13.3","","95","","30","","13","","19.3","","98.83","","","","-19","","Snow"
"1994-01-04 23:00","1994","01","04","23:00","-12.8","","-13.8","","92","","32","","15","","25.0","","98.86","","","","-20","","Mainly Clear"
"1994-01-05 00:00","1994","01","05","00:00","-12.6","","-13.6","","92","","28","","11","","25.0","","98.90","","","","-19","","Mainly Clear"
"1994-01-05 01:00","1994","01","05","01:00","-13.1","","-14.1","","92","","29","","11","","25.0","","98.96","","","","-19","","Mainly Clear"
"1994-01-05 02:00","1994","01","05","02:00","-12.9","","-14.0","","91","","29","","9","","24.1","","99.00","","","","-18","","Snow"
"1994-01-05 03:00","1994","01","05","03:00","-14.2","","-15.4","","91","","28","","13","","19.3","","99.07","","","","-21","","Snow"
"1994-01-05 04:00","1994","01","05","04:00","-15.2","","-16.3","","92","","28","","15","","25.0","","99.03","","","","-23","","Mainly Clear"
"1994-01-05 05:00","1994","01","05","05:00","-15.8","","-17.2","","89","","28","","15","","25.0","","99.07","","","","-24","","Mainly Clear"
"1994-01-05 06:00","1994","01","05","06:00","-16.2","","-17.8","","88","","27","","17","","24.1","","99.20","","","","-25","","Mostly Cloudy"
"1994-01-05 07:00","1994","01","05","07:00","-16.4","","-18.0","","87","","28","","17","","2.8","","99.20","","","","-25","","Snow"
"1994-01-05 08:00","1994","01","05","08:00","-16.8","","-18.2","","89","","28","","24","","6.4","","99.27","","","","-27","","Snow"
"1994-01-05 09:00","1994","01","05","09:00","-17.3","","-18.7","","88","","29","","20","","24.1","","99.30","","","","-27","","Snow"
"1994-01-05 10:00","1994","01","05","10:00","-16.9","","-18.5","","87","","30","","24","","24.1","","99.37","","","","-27","","Snow"
"1994-01-05 11:00","1994","01","05","11:00","-16.7","","-18.1","","89","","30","","22","","32.2","","99.40","","","","-27","","Mostly Cloudy"
"1994-01-05 12:00","1994","01","05","12:00","-16.0","","-18.0","","85","","29","","28","","32.2","","99.43","","","","-27","","Snow Showers"
"1994-01-05 13:00","1994","01","05","13:00","-16.8","","-19.2","","81","","27","","35","","32.2","","99.50","","","","-29","","Cloudy"
"1994-01-05 14:00","1994","01","05","14:00","-17.7","","-20.3","","80","","27","","33","","4.8","","99.64","","","","-30","","Snow Showers,Blowing Snow"
"1994-01-05 15:00","1994","01","05","15:00","-18.5","","-25.8","","53","","27","","30","","9.7","","99.80","","","","-31","","Snow Showers,Blowing Snow"
"1994-01-05 16:00","1994","01","05","16:00","-19.2","","-28.8","","43","","28","","39","","12.9","","99.94","","","","-33","","Mainly Clear"
"1994-01-05 17:00","1994","01","05","17:00","-19.7","","-28.2","","47","","28","","28","","24.1","","100.14","","","","-32","","Mainly Clear"
"1994-01-05 18:00","1994","01","05","18:00","-20.1","","-27.8","","51","","29","","33","","24.1","","100.34","","","","-33","","Clear"
"1994-01-05 19:00","1994","01","05","19:00","-21.1","","-28.2","","53","","29","","31","","24.1","","100.47","","","","-34","","Clear"
"1994-01-05 20:00","1994","01","05","20:00","-21.9","","-28.6","","55","","28","","28","","24.1","","100.61","","","","-35","","Clear"
"1994-01-05 21:00","1994","01","05","21:00","-22.6","","-29.1","","56","","29","","28","","24.1","","100.74","","","","-36","","Clear"
"1994-01-05 22:00","1994","01","05","22:00","-23.4","","-29.8","","56","","29","","26","","24.1","","100.81","","","","-36","","Clear"
"1994-01-05 23:00","1994","01","05","23:00","-24.1","","-30.3","","57","","29","","30","","24.1","","100.94","","","","-38","","Clear"
"1994-01-06 00:00","1994","01","06","00:00","-24.6","","-30.8","","57","","29","","22","","24.1","","100.98","","","","-37","","Clear"
"1994-01-06 01:00","1994","01","06","01:00","-24.9","","-31.2","","56","","28","","22","","25.0","","101.08","","","","-37","","Clear"
"1994-01-06 02:00","1994","01","06","02:00","-25.2","","-31.5","","56","","29","","22","","25.0","","101.18","","","","-38","","Clear"
"1994-01-06 03:00","1994","01","06","03:00","-25.8","","-31.9","","56","","31","","17","","25.0","","101.28","","","","-37","","Clear"
"1994-01-06 04:00","1994","01","06","04:00","-26.6","","-32.7","","56","","30","","15","","25.0","","101.28","","","","-37","","Clear"
"1994-01-06 05:00","1994","01","06","05:00","-26.9","","-32.8","","57","","27","","9","","25.0","","101.28","","","","-35","","Clear"
"1994-01-06 06:00","1994","01","06","06:00","-28.1","","-34.0","","57","","25","","11","","25.0","","101.41","","","","-37","","Clear"
"1994-01-06 07:00","1994","01","06","07:00","-27.7","","-33.4","","58","","28","","11","","25.0","","101.44","","","","-37","","Clear"
"1994-01-06 08:00","1994","01","06","08:00","-27.9","","-33.5","","58","","27","","6","","32.2","","101.48","","","","-34","","Mainly Clear"
"1994-01-06 09:00","1994","01","06","09:00","-28.1","","-32.9","","63","","","","0","","32.2","","101.51","","","","","","Mainly Clear"
"1994-01-06 10:00","1994","01","06","10:00","-26.5","","-31.7","","61","","26","","7","","40.2","","101.58","","","","-33","","Mostly Cloudy"
"1994-01-06 11:00","1994","01","06","11:00","-25.8","","-30.6","","64","","28","","7","","40.2","","101.58","","","","-32","","Mostly Cloudy"
"1994-01-06 12:00","1994","01","06","12:00","-25.3","","-29.9","","65","","28","","6","","40.2","","101.48","","","","-31","","Mostly Cloudy"
"1994-01-06 13:00","1994","01","06","13:00","-24.2","","-29.4","","62","","30","","7","","32.2","","101.38","","","","-31","","Cloudy"
"1994-01-06 14:00","1994","01","06","14:00","-23.0","","-28.8","","59","","34","","7","","32.2","","101.38","","","","-29","","Cloudy"
"1994-01-06 15:00","1994","01","06","15:00","-22.7","","-28.5","","60","","4","","13","","32.2","","101.38","","","","-32","","Cloudy"
"1994-01-06 16:00","1994","01","06","16:00","-22.5","","-28.4","","59","","4","","11","","32.2","","101.28","","","","-31","","Cloudy"
"1994-01-06 17:00","1994","01","06","17:00","-22.4","","-28.3","","59","","5","","11","","24.1","","101.28","","","","-31","","Cloudy"
"1994-01-06 18:00","1994","01","06","18:00","-22.3","","-28.5","","57","","4","","11","","24.1","","101.24","","","","-30","","Cloudy"
"1994-01-06 19:00","1994","01","06","19:00","-22.3","","-28.2","","59","","3","","13","","24.1","","101.24","","","","-31","","Cloudy"
"1994-01-06 20:00","1994","01","06","20:00","-21.6","","-27.6","","59","","2","","13","","24.1","","101.21","","","","-30","","Cloudy"
"1994-01-06 21:00","1994","01","06","21:00","-21.2","","-27.2","","59","","2","","15","","24.1","","101.14","","","","-31","","Cloudy"
"1994-01-06 22:00","1994","01","06","22:00","-20.7","","-26.3","","61","","3","","15","","24.1","","101.18","","","","-30","","Cloudy"
"1994-01-06 23:00","1994","01","06","23:00","-20.5","","-26.2","","61","","2","","19","","24.1","","101.14","","","","-31","","Snow"
"1994-01-07 00:00","1994","01","07","00:00","-20.1","","-25.7","","61","","3","","19","","24.1","","101.14","","","","-30","","Snow"
"1994-01-07 01:00","1994","01","07","01:00","-20.0","","-25.6","","61","","3","","20","","24.1","","101.08","","","","-30","","Cloudy"
"1994-01-07 02:00","1994","01","07","02:00","-19.8","","-25.9","","59","","2","","22","","24.1","","101.11","","","","-31","","Cloudy"
"1994-01-07 03:00","1994","01","07","03:00","-19.8","","-26.0","","58","","3","","22","","24.1","","101.14","","","","-31","","Cloudy"
"1994-01-07 04:00","1994","01","07","04:00","-20.2","","-26.3","","59","","3","","19","","25.0","","101.11","","","","-30","","Mostly Cloudy"
"1994-01-07 05:00","1994","01","07","05:00","-21.4","","-27.6","","58","","3","","15","","25.0","","101.11","","","","-31","","Mainly Clear"
"1994-01-07 06:00","1994","01","07","06:00","-22.1","","-28.5","","56","","3","","13","","25.0","","101.11","","","","-31","","Clear"
"1994-01-07 07:00","1994","01","07","07:00","-22.9","","-28.8","","59","","2","","15","","25.0","","101.18","","","","-33","","Clear"
"1994-01-07 08:00","1994","01","07","08:00","-23.4","","-29.2","","59","","3","","15","","40.2","","101.24","","","","-33","","Clear"
"1994-01-07 09:00","1994","01","07","09:00","-22.8","","-28.3","","61","","4","","19","","40.2","","101.28","","","","-34","","Mainly Clear"
"1994-01-07 10:00","1994","01","07","10:00","-22.2","","-27.6","","62","","5","","19","","40.2","","101.31","","","","-33","","Mainly Clear"
"1994-01-07 11:00","1994","01","07","11:00","-21.2","","-26.8","","61","","2","","20","","40.2","","101.28","","","","-32","","Mostly Cloudy"
"1994-01-07 12:00","1994","01","07","12:00","-20.0","","-26.0","","59","","5","","19","","40.2","","101.21","","","","-30","","Mostly Cloudy"
"1994-01-07 13:00","1994","01","07","13:00","-19.2","","-25.6","","57","","5","","20","","40.2","","101.11","","","","-29","","Mostly Cloudy"
"1994-01-07 14:00","1994","01","07","14:00","-18.6","","-25.5","","55","","5","","19","","40.2","","101.04","","","","-28","","Mostly Cloudy"
"1994-01-07 15:00","1994","01","07","15:00","-17.7","","-24.9","","54","","5","","17","","40.2","","100.98","","","","-27","","Cloudy"
"1994-01-07 16:00","1994","01","07","16:00","-17.4","","-24.5","","54","","7","","9","","32.2","","100.98","","","","-24","","Cloudy"
"1994-01-07 17:00","1994","01","07","17:00","-18.4","","-23.5","","64","","10","","7","","24.1","","101.08","","","","-24","","Cloudy"
"1994-01-07 18:00","1994","01","07","18:00","-17.7","","-24.4","","56","","5","","13","","24.1","","101.01","","","","-26","","Cloudy"
"1994-01-07 19:00","1994","01","07","19:00","-17.7","","-24.3","","57","","5","","20","","24.1","","100.98","","","","-28","","Cloudy"
"1994-01-07 20:00","1994","01","07","20:00","-17.7","","-24.4","","56","","5","","24","","24.1","","100.91","","","","-28","","Cloudy"
"1994-01-07 21:00","1994","01","07","21:00","-17.7","","-24.2","","57","","4","","20","","24.1","","100.74","","","","-28","","Cloudy"
"1994-01-07 22:00","1994","01","07","22:00","-17.4","","-23.5","","59","","6","","15","","24.1","","100.71","","","","-26","","Cloudy"
"1994-01-07 23:00","1994","01","07","23:00","-17.1","","-23.1","","60","","6","","13","","24.1","","100.61","","","","-25","","Cloudy"
"1994-01-08 00:00","1994","01","08","00:00","-17.1","","-23.0","","60","","5","","19","","24.1","","100.44","","","","-27","","Cloudy"
"1994-01-08 01:00","1994","01","08","01:00","-17.2","","-22.8","","62","","5","","20","","19.3","","100.31","","","","-27","","Snow"
"1994-01-08 02:00","1994","01","08","02:00","-17.1","","-22.2","","65","","5","","17","","3.2","","100.24","","","","-26","","Snow"
"1994-01-08 03:00","1994","01","08","03:00","-17.1","","-21.3","","70","","6","","13","","3.2","","100.14","","","","-25","","Snow"
"1994-01-08 04:00","1994","01","08","04:00","-17.0","","-23.3","","58","","5","","15","","3.2","","100.04","","","","-25","","Snow"
"1994-01-08 05:00","1994","01","08","05:00","-17.1","","-24.2","","54","","4","","11","","1.2","","99.94","","","","-24","","Snow"
"1994-01-08 06:00","1994","01","08","06:00","-16.9","","-21.4","","68","","4","","11","","2.4","","99.87","","","","-24","","Snow"
"1994-01-08 07:00","1994","01","08","07:00","-16.9","","-20.7","","72","","3","","7","","1.6","","99.84","","","","-22","","Snow"
"1994-01-08 08:00","1994","01","08","08:00","-16.7","","-20.0","","76","","6","","4","","1.6","","99.74","","","","-20","","Snow"
"1994-01-08 09:00","1994","01","08","09:00","-17.0","","-19.8","","79","","","","0","","4.0","","99.70","","","","","","Snow"
"1994-01-08 10:00","1994","01","08","10:00","-16.3","","-19.7","","75","","30","","9","","6.4","","99.70","","","","-22","","Snow"
"1994-01-08 11:00","1994","01","08","11:00","-16.6","","-19.4","","79","","29","","11","","2.4","","99.60","","","","-24","","Snow"
"1994-01-08 12:00","1994","01","08","12:00","-16.4","","-19.4","","78","","28","","13","","8.0","","99.53","","","","-24","","Snow"
"1994-01-08 13:00","1994","01","08","13:00","-16.0","","-19.0","","78","","28","","17","","4.0","","99.47","","","","-25","","Snow"
"1994-01-08 14:00","1994","01","08","14:00","-15.5","","-18.8","","76","","28","","15","","4.8","","99.47","","","","-24","","Snow"
"1994-01-08 15:00","1994","01","08","15:00","-15.3","","-18.8","","74","","26","","13","","6.4","","99.47","","","","-23","","Snow"
"1994-01-08 16:00","1994","01","08","16:00","-16.0","","-19.7","","73","","25","","15","","6.4","","99.53","","","","-24","","Snow"
"1994-01-08 17:00","1994","01","08","17:00","-16.3","","-20.0","","73","","25","","19","","11.3","","99.57","","","","-26","","Snow"
"1994-01-08 18:00","1994","01","08","18:00","-15.6","","-19.0","","75","","25","","17","","12.9","","99.60","","","","-24","","Snow"
"1994-01-08 19:00","1994","01","08","19:00","-15.5","","-19.0","","74","","27","","20","","12.9","","99.64","","","","-25","","Snow"
"1994-01-08 20:00","1994","01","08","20:00","-16.1","","-19.5","","75","","27","","26","","12.9","","99.64","","","","-27","","Snow"
"1994-01-08 21:00","1994","01","08","21:00","-16.8","","-20.6","","72","","27","","24","","12.9","","99.70","","","","-27","","Snow"
"1994-01-08 22:00","1994","01","08","22:00","-17.4","","-21.1","","73","","28","","26","","8.0","","99.80","","","","-28","","Snow"
"1994-01-08 23:00","1994","01","08","23:00","-18.8","","-22.6","","72","","29","","31","","12.9","","99.87","","","","-31","","Snow"
"1994-01-09 00:00","1994","01","09","00:00","-19.5","","-23.8","","69","","28","","33","","12.9","","99.94","","","","-32","","Mainly Clear"
"1994-01-09 01:00","1994","01","09","01:00","-19.7","","-24.3","","67","","28","","19","","19.3","","100.00","","","","-30","","Mainly Clear"
"1994-01-09 02:00","1994","01","09","02:00","-19.2","","-24.0","","66","","28","","20","","16.1","","100.14","","","","-29","","Mostly Cloudy"
"1994-01-09 03:00","1994","01","09","03:00","-19.4","","-24.1","","66","","28","","28","","16.1","","100.24","","","","-31","","Mostly Cloudy"
"1994-01-09 04:00","1994","01","09","04:00","-19.3","","-24.2","","65","","29","","28","","19.3","","100.31","","","","-31","","Mostly Cloudy"
"1994-01-09 05:00","1994","01","09","05:00","-20.0","","-24.7","","66","","29","","33","","19.3","","100.44","","","","-33","","Mainly Clear"
"1994-01-09 06:00","1994","01","09","06:00","-21.2","","-25.9","","66","","28","","30","","19.3","","100.57","","","","-34","","Mainly Clear"
"1994-01-09 07:00","1994","01","09","07:00","-21.6","","-26.4","","66","","29","","26","","24.1","","100.74","","","","-34","","Mostly Cloudy"
"1994-01-09 08:00","1994","01","09","08:00","-21.9","","-26.9","","64","","28","","30","","32.2","","100.81","","","","-35","","Mostly Cloudy"
"1994-01-09 09:00","1994","01","09","09:00","-21.9","","-26.9","","64","","28","","31","","32.2","","100.98","","","","-35","","Mostly Cloudy"
"1994-01-09 10:00","1994","01","09","10:00","-22.1","","-26.9","","66","","28","","28","","32.2","","101.08","","","","-35","","Mostly Cloudy"
"1994-01-09 11:00","1994","01","09","11:00","-21.2","","-25.7","","67","","28","","24","","32.2","","101.11","","","","-33","","Mostly Cloudy"
"1994-01-09 12:00","1994","01","09","12:00","-20.5","","-25.3","","66","","29","","26","","40.2","","101.14","","","","-32","","Mainly Clear"
"1994-01-09 13:00","1994","01","09","13:00","-19.5","","-24.6","","64","","26","","28","","40.2","","101.14","","","","-32","","Mainly Clear"
"1994-01-09 14:00","1994","01","09","14:00","-18.8","","-24.0","","64","","28","","24","","40.2","","101.18","","","","-30","","Clear"
"1994-01-09 15:00","1994","01","09","15:00","-18.0","","-23.8","","61","","28","","24","","40.2","","101.28","","","","-29","","Clear"
"1994-01-09 16:00","1994","01","09","16:00","-17.7","","-23.7","","60","","28","","20","","40.2","","101.38","","","","-28","","Clear"
"1994-01-09 17:00","1994","01","09","17:00","-17.7","","-23.8","","59","","27","","17","","40.2","","101.48","","","","-27","","Mainly Clear"
"1994-01-09 18:00","1994","01","09","18:00","-17.8","","-24.0","","58","","28","","19","","25.0","","101.58","","","","-27","","Mainly Clear"
"1994-01-09 19:00","1994","01","09","19:00","-18.1","","-24.2","","59","","28","","20","","25.0","","101.71","","","","-28","","Clear"
"1994-01-09 20:00","1994","01","09","20:00","-18.4","","-24.3","","60","","29","","20","","25.0","","101.81","","","","-28","","Clear"
"1994-01-09 21:00","1994","01","09","21:00","-18.9","","-24.6","","61","","30","","20","","25.0","","101.95","","","","-29","","Clear"
"1994-01-09 22:00","1994","01","09","22:00","-19.5","","-25.1","","61","","29","","19","","25.0","","102.05","","","","-30","","Clear"
"1994-01-09 23:00","1994","01","09","23:00","-20.1","","-25.7","","61","","29","","19","","25.0","","102.11","","","","-30","","Clear"
"1994-01-10 00:00","1994","01","10","00:00","-20.7","","-26.2","","62","","30","","15","","25.0","","102.25","","","","-30","","Clear"
"1994-01-10 01:00","1994","01","10","01:00","-21.0","","-26.7","","60","","29","","24","","25.0","","102.32","","","","-33","","Clear"
"1994-01-10 02:00","1994","01","10","02:00","-21.6","","-27.2","","61","","29","","19","","25.0","","102.38","","","","-32","","Clear"
"1994-01-10 03:00","1994","01","10","03:00","-22.2","","-27.6","","62","","28","","15","","25.0","","102.48","","","","-32","","Clear"
"1994-01-10 04:00","1994","01","10","04:00","-22.5","","-27.8","","62","","29","","13","","25.0","","102.58","","","","-31","","Clear"
"1994-01-10 05:00","1994","01","10","05:00","-22.7","","-28.0","","62","","29","","15","","25.0","","102.62","","","","-32","","Clear"
"1994-01-10 06:00","1994","01","10","06:00","-23.5","","-28.5","","64","","29","","17","","25.0","","102.72","","","","-34","","Clear"
"1994-01-10 07:00","1994","01","10","07:00","-24.0","","-29.0","","64","","27","","4","","25.0","","102.78","","","","-28","","Clear"
"1994-01-10 08:00","1994","01","10","08:00","-25.1","","-29.7","","65","","23","","4","","40.2","","102.82","","","","-29","","Clear"
"1994-01-10 09:00","1994","01","10","09:00","-24.4","","-29.0","","66","","23","","9","","40.2","","102.92","","","","-32","","Clear"
"1994-01-10 10:00","1994","01","10","10:00","-23.0","","-27.5","","67","","24","","9","","40.2","","103.02","","","","-30","","Clear"
"1994-01-10 11:00","1994","01","10","11:00","-21.0","","-25.4","","68","","25","","9","","40.2","","102.99","","","","-28","","Clear"
"1994-01-10 12:00","1994","01","10","12:00","-19.3","","-24.1","","66","","22","","6","","40.2","","102.89","","","","-24","","Clear"
"1994-01-10 13:00","1994","01","10","13:00","-18.1","","-23.9","","61","","22","","9","","40.2","","102.82","","","","-24","","Mainly Clear"
"1994-01-10 14:00","1994","01","10","14:00","-17.1","","-23.0","","60","","20","","7","","40.2","","102.78","","","","-22","","Mostly Cloudy"
"1994-01-10 15:00","1994","01","10","15:00","-17.0","","-23.3","","58","","17","","7","","40.2","","102.78","","","","-22","","Mostly Cloudy"
"1994-01-10 16:00","1994","01","10","16:00","-17.3","","-24.4","","54","","16","","6","","40.2","","102.72","","","","-22","","Cloudy"
"1994-01-10 17:00","1994","01","10","17:00","-17.6","","-24.8","","54","","14","","7","","40.2","","102.68","","","","-23","","Mostly Cloudy"
"1994-01-10 18:00","1994","01","10","18:00","-18.9","","-25.6","","56","","11","","9","","25.0","","102.62","","","","-25","","Cloudy"
"1994-01-10 19:00","1994","01","10","19:00","-19.5","","-25.7","","58","","11","","9","","25.0","","102.52","","","","-26","","Cloudy"
"1994-01-10 20:00","1994","01","10","20:00","-20.7","","-26.2","","62","","8","","4","","25.0","","102.48","","","","-24","","Cloudy"
"1994-01-10 21:00","1994","01","10","21:00","-19.8","","-25.5","","61","","7","","7","","24.1","","102.35","","","","-25","","Cloudy"
"1994-01-10 22:00","1994","01","10","22:00","-19.7","","-25.2","","62","","9","","9","","24.1","","102.28","","","","-26","","Cloudy"
"1994-01-10 23:00","1994","01","10","23:00","-19.5","","-24.9","","63","","9","","15","","24.1","","102.15","","","","-28","","Cloudy"
"1994-01-11 00:00","1994","01","11","00:00","-18.8","","-24.4","","61","","9","","17","","24.1","","102.01","","","","-28","","Mostly Cloudy"
"1994-01-11 01:00","1994","01","11","01:00","-18.1","","-23.7","","62","","8","","22","","24.1","","101.88","","","","-29","","Mostly Cloudy"
"1994-01-11 02:00","1994","01","11","02:00","-17.7","","-23.4","","61","","8","","20","","24.1","","101.71","","","","-28","","Cloudy"
"1994-01-11 03:00","1994","01","11","03:00","-17.5","","-23.1","","62","","7","","15","","24.1","","101.58","","","","-26","","Cloudy"
"1994-01-11 04:00","1994","01","11","04:00","-17.4","","-22.6","","64","","7","","11","","24.1","","101.44","","","","-25","","Cloudy"
"1994-01-11 05:00","1994","01","11","05:00","-17.0","","-21.9","","66","","9","","13","","24.1","","101.34","","","","-25","","Cloudy"
"1994-01-11 06:00","1994","01","11","06:00","-16.8","","-21.6","","66","","8","","20","","3.2","","101.18","","","","-26","","Snow"
"1994-01-11 07:00","1994","01","11","07:00","-16.3","","-20.8","","68","","7","","15","","11.3","","101.14","","","","-25","","Snow"
"1994-01-11 08:00","1994","01","11","08:00","-16.2","","-20.1","","72","","9","","15","","2.4","","101.08","","","","-24","","Snow"
"1994-01-11 09:00","1994","01","11","09:00","-15.9","","-19.5","","74","","8","","15","","4.0","","101.01","","","","-24","","Snow"
"1994-01-11 10:00","1994","01","11","10:00","-15.3","","-18.6","","76","","8","","13","","2.0","","100.98","","","","-23","","Snow"
"1994-01-11 11:00","1994","01","11","11:00","-14.5","","-17.6","","77","","9","","9","","6.4","","100.91","","","","-20","","Snow"
"1994-01-11 12:00","1994","01","11","12:00","-13.0","","-15.3","","83","","7","","7","","9.7","","100.81","","","","-18","","Snow"
"1994-01-11 13:00","1994","01","11","13:00","-11.9","","-14.2","","83","","6","","9","","2.8","","100.71","","","","-17","","Snow"
"1994-01-11 14:00","1994","01","11","14:00","-10.5","","-11.6","","91","","4","","7","","6.4","","100.74","","","","-15","","Snow"
"1994-01-11 15:00","1994","01","11","15:00","-10.6","","-12.0","","89","","6","","7","","6.4","","100.71","","","","-15","","Snow,Fog"
"1994-01-11 16:00","1994","01","11","16:00","-10.1","","-11.8","","88","","5","","9","","11.3","","100.74","","","","-15","","Mainly Clear"
"1994-01-11 17:00","1994","01","11","17:00","-11.7","","-14.2","","82","","4","","11","","12.9","","100.81","","","","-18","","Mainly Clear"
"1994-01-11 18:00","1994","01","11","18:00","-13.1","","-14.3","","91","","5","","4","","6.4","","100.87","","","","-16","","Fog"
"1994-01-11 19:00","1994","01","11","19:00","-12.5","","-14.2","","87","","35","","9","","6.4","","100.98","","","","-18","","Fog"
"1994-01-11 20:00","1994","01","11","20:00","-8.9","","-10.9","","85","","23","","9","","9.7","","101.08","","","","-14","","Fog"
"1994-01-11 21:00","1994","01","11","21:00","-10.1","","-11.5","","89","","30","","15","","12.9","","101.18","","","","-17","","Mainly Clear"
"1994-01-11 22:00","1994","01","11","22:00","-10.3","","-11.9","","88","","32","","15","","16.1","","101.28","","","","-17","","Mainly Clear"
"1994-01-11 23:00","1994","01","11","23:00","-10.0","","-11.9","","86","","33","","19","","19.3","","101.34","","","","-18","","Mainly Clear"
"1994-01-12 00:00","1994","01","12","00:00","-10.4","","-13.1","","80","","33","","15","","24.1","","101.41","","","","-17","","Cloudy"
"1994-01-12 01:00","1994","01","12","01:00","-11.6","","-14.7","","78","","31","","13","","24.1","","101.48","","","","-18","","Mainly Clear"
"1994-01-12 02:00","1994","01","12","02:00","-12.3","","-16.0","","74","","34","","19","","24.1","","101.48","","","","-21","","Mainly Clear"
"1994-01-12 03:00","1994","01","12","03:00","-13.5","","-17.2","","73","","33","","19","","24.1","","101.55","","","","-22","","Mainly Clear"
"1994-01-12 04:00","1994","01","12","04:00","-14.2","","-18.1","","72","","34","","13","","25.0","","101.48","","","","-21","","Clear"
"1994-01-12 05:00","1994","01","12","05:00","-15.3","","-25.3","","42","","1","","11","","25.0","","101.48","","","","-22","","Clear"
"1994-01-12 06:00","1994","01","12","06:00","-16.5","","-24.4","","51","","3","","7","","25.0","","101.55","","","","-22","","Clear"
"1994-01-12 07:00","1994","01","12","07:00","-18.1","","-24.3","","59","","1","","13","","25.0","","101.55","","","","-26","","Mainly Clear"
"1994-01-12 08:00","1994","01","12","08:00","-17.5","","-23.1","","62","","1","","11","","40.2","","101.44","","","","-25","","Cloudy"
"1994-01-12 09:00","1994","01","12","09:00","-17.0","","-22.1","","65","","2","","15","","56.3","","101.28","","","","-25","","Mostly Cloudy"
"1994-01-12 10:00","1994","01","12","10:00","-16.7","","-21.4","","67","","2","","13","","40.2","","101.24","","","","-24","","Cloudy"
"1994-01-12 11:00","1994","01","12","11:00","-15.7","","-20.3","","68","","6","","6","","40.2","","101.21","","","","-20","","Cloudy"
"1994-01-12 12:00","1994","01","12","12:00","-14.6","","-19.7","","65","","","","0","","40.2","","101.04","","","","","","Cloudy"
"1994-01-12 13:00","1994","01","12","13:00","-14.3","","-19.3","","66","","8","","11","","32.2","","100.87","","","","-21","","Cloudy"
"1994-01-12 14:00","1994","01","12","14:00","-14.0","","-19.5","","63","","8","","15","","48.3","","100.71","","","","-22","","Cloudy"
"1994-01-12 15:00","1994","01","12","15:00","-13.7","","-18.9","","65","","9","","17","","48.3","","100.61","","","","-22","","Mostly Cloudy"
"1994-01-12 16:00","1994","01","12","16:00","-13.4","","-18.4","","66","","9","","11","","32.2","","100.54","","","","-20","","Cloudy"
"1994-01-12 17:00","1994","01","12","17:00","-13.7","","-18.5","","67","","10","","19","","24.1","","100.37","","","","-22","","Cloudy"
"1994-01-12 18:00","1994","01","12","18:00","-14.2","","-18.8","","68","","10","","24","","19.3","","100.20","","","","-24","","Snow"
"1994-01-12 19:00","1994","01","12","19:00","-14.6","","-18.9","","70","","9","","24","","19.3","","100.07","","","","-24","","Cloudy"
"1994-01-12 20:00","1994","01","12","20:00","-14.8","","-19.1","","69","","8","","17","","19.3","","99.94","","","","-23","","Cloudy"
"1994-01-12 21:00","1994","01","12","21:00","-14.7","","-18.7","","71","","10","","19","","19.3","","99.74","","","","-24","","Cloudy"
"1994-01-12 22:00","1994","01","12","22:00","-14.5","","-18.4","","72","","9","","15","","19.3","","99.60","","","","-22","","Cloudy"
"1994-01-12 23:00","1994","01","12","23:00","-14.2","","-17.6","","75","","8","","11","","16.1","","99.53","","","","-21","","Cloudy"
"1994-01-13 00:00","1994","01","13","00:00","-14.0","","-17.6","","74","","7","","11","","16.1","","99.43","","","","-20","","Snow"
"1994-01-13 01:00","1994","01","13","01:00","-13.9","","-16.8","","79","","7","","7","","12.9","","99.40","","","","-19","","Freezing Drizzle,Snow"
"1994-01-13 02:00","1994","01","13","02:00","-13.9","","-16.4","","81","","11","","7","","12.9","","99.33","","","","-19","","Cloudy"
"1994-01-13 03:00","1994","01","13","03:00","-13.5","","-16.2","","80","","3","","7","","12.9","","99.37","","","","-18","","Snow"
"1994-01-13 04:00","1994","01","13","04:00","-13.4","","-15.8","","82","","6","","7","","12.9","","99.37","","","","-18","","Snow"
"1994-01-13 05:00","1994","01","13","05:00","-13.6","","-16.2","","81","","5","","9","","12.9","","99.37","","","","-19","","Mostly Cloudy"
"1994-01-13 06:00","1994","01","13","06:00","-13.0","","-15.9","","79","","35","","9","","11.3","","99.47","","","","-18","","Snow"
"1994-01-13 07:00","1994","01","13","07:00","-12.6","","-13.9","","90","","","","0","","16.1","","99.53","","","","","","Mostly Cloudy"
"1994-01-13 08:00","1994","01","13","08:00","-12.6","","-13.5","","93","","26","","7","","12.9","","99.60","","","","-17","","Mostly Cloudy"
"1994-01-13 09:00","1994","01","13","09:00","-11.4","","-12.5","","91","","28","","13","","19.3","","99.60","","","","-18","","Mainly Clear"
"1994-01-13 10:00","1994","01","13","10:00","-10.0","","-11.5","","89","","29","","17","","24.1","","99.60","","","","-17","","Mainly Clear"
"1994-01-13 11:00","1994","01","13","11:00","-9.3","","-11.6","","83","","29","","26","","32.2","","99.64","","","","-18","","Ice Crystals"
"1994-01-13 12:00","1994","01","13","12:00","-8.6","","-11.9","","77","","29","","17","","40.2","","99.60","","","","-15","","Mainly Clear"
"1994-01-13 13:00","1994","01","13","13:00","-8.3","","-12.6","","71","","29","","24","","40.2","","99.57","","","","-16","","Mainly Clear"
"1994-01-13 14:00","1994","01","13","14:00","-7.8","","-13.3","","64","","29","","20","","40.2","","99.60","","","","-15","","Mainly Clear"
"1994-01-13 15:00","1994","01","13","15:00","-7.8","","-14.1","","60","","30","","20","","40.2","","99.60","","","","-15","","Mostly Cloudy"
"1994-01-13 16:00","1994","01","13","16:00","-7.9","","-14.5","","59","","32","","13","","40.2","","99.60","","","","-14","","Mostly Cloudy"
"1994-01-13 17:00","1994","01","13","17:00","-8.3","","-15.2","","57","","","","0","","40.2","","99.64","","","","","","Cloudy"
"1994-01-13 18:00","1994","01","13","18:00","-9.2","","-15.6","","60","","","","0","","25.0","","99.60","","","","","","Cloudy"
"1994-01-13 19:00","1994","01","13","19:00","-9.1","","-15.8","","58","","34","","7","","25.0","","99.60","","","","-13","","Cloudy"
"1994-01-13 20:00","1994","01","13","20:00","-9.6","","-15.4","","63","","1","","6","","25.0","","99.60","","","","-13","","Cloudy"
"1994-01-13 21:00","1994","01","13","21:00","-8.8","","-14.9","","61","","36","","7","","6.4","","99.64","","","","-13","","Snow"
"1994-01-13 22:00","1994","01","13","22:00","-10.1","","-14.3","","71","","2","","7","","1.6","","99.60","","","","-14","","Snow"
"1994-01-13 23:00","1994","01","13","23:00","-10.6","","-14.0","","76","","1","","11","","2.4","","99.57","","","","-16","","Snow"
"1994-01-14 00:00","1994","01","14","00:00","-12.5","","-14.9","","82","","2","","13","","16.1","","99.50","","","","-19","","Snow"
"1994-01-14 01:00","1994","01","14","01:00","-11.4","","-13.8","","82","","2","","15","","8.0","","99.47","","","","-18","","Snow"
"1994-01-14 02:00","1994","01","14","02:00","-11.2","","-13.4","","84","","1","","15","","4.0","","99.43","","","","-18","","Snow"
"1994-01-14 03:00","1994","01","14","03:00","-11.8","","-13.7","","85","","2","","17","","6.4","","99.37","","","","-19","","Snow"
"1994-01-14 04:00","1994","01","14","04:00","-12.3","","-14.0","","87","","36","","20","","12.9","","99.30","","","","-21","","Snow"
"1994-01-14 05:00","1994","01","14","05:00","-12.6","","-14.5","","86","","36","","19","","12.9","","99.23","","","","-21","","Snow"
"1994-01-14 06:00","1994","01","14","06:00","-12.9","","-14.9","","85","","36","","20","","4.8","","99.23","","","","-22","","Snow"
"1994-01-14 07:00","1994","01","14","07:00","-13.4","","-15.1","","87","","36","","19","","1.6","","99.20","","","","-22","","Snow"
"1994-01-14 08:00","1994","01","14","08:00","-13.7","","-15.0","","90","","35","","17","","1.6","","99.20","","","","-22","","Snow"
"1994-01-14 09:00","1994","01","14","09:00","-14.6","","-15.7","","91","","34","","19","","4.8","","99.20","","","","-23","","Snow"
"1994-01-14 10:00","1994","01","14","10:00","-14.9","","-15.9","","92","","33","","20","","2.8","","99.17","","","","-24","","Snow"
"1994-01-14 11:00","1994","01","14","11:00","-14.9","","-16.0","","91","","33","","19","","3.2","","99.10","","","","-24","","Snow"
"1994-01-14 12:00","1994","01","14","12:00","-14.7","","-15.9","","91","","32","","24","","6.4","","99.00","","","","-25","","Snow"
"1994-01-14 13:00","1994","01","14","13:00","-14.5","","-15.6","","91","","32","","24","","4.8","","98.90","","","","-24","","Snow"
"1994-01-14 14:00","1994","01","14","14:00","-14.4","","-15.5","","91","","31","","28","","6.4","","98.90","","","","-25","","Snow"
"1994-01-14 15:00","1994","01","14","15:00","-14.8","","-16.2","","89","","32","","30","","4.8","","98.90","","","","-26","","Snow"
"1994-01-14 16:00","1994","01","14","16:00","-15.1","","-16.5","","89","","33","","28","","3.2","","98.96","","","","-26","","Snow"
"1994-01-14 17:00","1994","01","14","17:00","-15.5","","-17.7","","83","","31","","24","","6.4","","99.00","","","","-26","","Snow"
"1994-01-14 18:00","1994","01","14","18:00","-16.0","","-22.4","","58","","31","","28","","8.0","","99.10","","","","-27","","Snow,Blowing Snow"
"1994-01-14 19:00","1994","01","14","19:00","-16.7","","-22.4","","62","","31","","28","","19.3","","99.10","","","","-28","","Snow"
"1994-01-14 20:00","1994","01","14","20:00","-17.4","","-22.4","","65","","31","","24","","25.0","","99.13","","","","-28","","Mostly Cloudy"
"1994-01-14 21:00","1994","01","14","21:00","-18.4","","-23.3","","66","","30","","24","","25.0","","99.17","","","","-29","","Cloudy"
"1994-01-14 22:00","1994","01","14","22:00","-20.0","","-24.9","","65","","29","","26","","25.0","","99.17","","","","-32","","Cloudy"
"1994-01-14 23:00","1994","01","14","23:00","-21.9","","-26.9","","64","","29","","33","","25.0","","99.20","","","","-36","","Mostly Cloudy"
"1994-01-15 00:00","1994","01","15","00:00","-24.2","","-29.4","","62","","29","","30","","25.0","","99.27","","","","-38","","Mostly Cloudy"
"1994-01-15 01:00","1994","01","15","01:00","-25.4","","-30.5","","62","","29","","28","","25.0","","99.27","","","","-39","","Snow"
"1994-01-15 02:00","1994","01","15","02:00","-26.3","","-31.5","","61","","29","","31","","25.0","","99.30","","","","-41","","Mainly Clear"
"1994-01-15 03:00","1994","01","15","03:00","-27.4","","-32.6","","61","","29","","28","","25.0","","99.37","","","","-42","","Mainly Clear"
"1994-01-15 04:00","1994","01","15","04:00","-28.2","","-33.4","","61","","29","","26","","25.0","","99.37","","","","-42","","Mainly Clear"
"1994-01-15 05:00","1994","01","15","05:00","-28.9","","-34.2","","60","","30","","26","","25.0","","99.40","","","","-43","","Mainly Clear"
"1994-01-15 06:00","1994","01","15","06:00","-29.6","","-34.9","","60","","29","","26","","25.0","","99.47","","","","-44","","Clear"
"1994-01-15 07:00","1994","01","15","07:00","-30.1","","-35.4","","60","","28","","24","","25.0","","99.53","","","","-44","","Clear"
"1994-01-15 08:00","1994","01","15","08:00","-30.7","","-35.8","","61","","29","","28","","40.2","","99.64","","","","-46","","Clear"
"1994-01-15 09:00","1994","01","15","09:00","-31.0","","-36.1","","61","","30","","28","","40.2","","99.74","","","","-46","","Clear"
"1994-01-15 10:00","1994","01","15","10:00","-31.0","","-36.2","","60","","30","","26","","40.2","","99.80","","","","-46","","Clear"
"1994-01-15 11:00","1994","01","15","11:00","-30.3","","-35.4","","61","","30","","28","","40.2","","99.87","","","","-46","","Clear"
"1994-01-15 12:00","1994","01","15","12:00","-29.6","","-35.1","","59","","29","","22","","40.2","","99.87","","","","-43","","Mainly Clear"
"1994-01-15 13:00","1994","01","15","13:00","-28.8","","-34.7","","56","","27","","22","","40.2","","99.87","","","","-42","","Mainly Clear"
"1994-01-15 14:00","1994","01","15","14:00","-28.8","","-34.6","","57","","26","","24","","40.2","","99.94","","","","-43","","Mainly Clear"
"1994-01-15 15:00","1994","01","15","15:00","-28.7","","-34.8","","56","","26","","26","","40.2","","100.04","","","","-43","","Mainly Clear"
"1994-01-15 16:00","1994","01","15","16:00","-28.6","","-35.1","","53","","27","","28","","40.2","","100.14","","","","-43","","Mainly Clear"
"1994-01-15 17:00","1994","01","15","17:00","-28.8","","-35.3","","53","","27","","22","","32.2","","100.27","","","","-42","","Mainly Clear"
"1994-01-15 18:00","1994","01","15","18:00","-28.9","","-35.5","","53","","28","","24","","25.0","","100.37","","","","-43","","Mainly Clear"
"1994-01-15 19:00","1994","01","15","19:00","-29.2","","-35.8","","53","","28","","28","","16.1","","100.44","","","","-44","","Mainly Clear"
"1994-01-15 20:00","1994","01","15","20:00","-29.3","","-35.8","","53","","28","","28","","24.1","","100.51","","","","-44","","Mainly Clear"
"1994-01-15 21:00","1994","01","15","21:00","-29.6","","-35.9","","54","","29","","28","","12.9","","100.61","","","","-45","","Mostly Cloudy"
"1994-01-15 22:00","1994","01","15","22:00","-29.9","","-36.0","","55","","28","","30","","8.0","","100.71","","","","-45","","Blowing Snow"
"1994-01-15 23:00","1994","01","15","23:00","-30.1","","-36.0","","56","","29","","31","","24.1","","100.81","","","","-46","","Mostly Cloudy"
"1994-01-16 00:00","1994","01","16","00:00","-30.7","","-36.5","","57","","28","","24","","24.1","","100.87","","","","-45","","Mainly Clear"
"1994-01-16 01:00","1994","01","16","01:00","-30.8","","-36.6","","56","","29","","22","","24.1","","100.94","","","","-45","","Mostly Cloudy"
"1994-01-16 02:00","1994","01","16","02:00","-30.9","","-36.6","","57","","28","","22","","11.3","","101.04","","","","-45","","Snow Showers"
"1994-01-16 03:00","1994","01","16","03:00","-31.0","","-36.8","","57","","28","","26","","25.0","","101.18","","","","-46","","Mostly Cloudy"
"1994-01-16 04:00","1994","01","16","04:00","-31.1","","-36.8","","57","","28","","15","","25.0","","101.28","","","","-43","","Mostly Cloudy"
"1994-01-16 05:00","1994","01","16","05:00","-31.2","","-37.1","","56","","27","","20","","25.0","","101.41","","","","-45","","Mainly Clear"
"1994-01-16 06:00","1994","01","16","06:00","-31.4","","-37.2","","56","","27","","17","","25.0","","101.55","","","","-44","","Mainly Clear"
"1994-01-16 07:00","1994","01","16","07:00","-32.1","","-37.7","","57","","26","","15","","25.0","","101.68","","","","-44","","Clear"
"1994-01-16 08:00","1994","01","16","08:00","-32.0","","-37.4","","59","","25","","13","","32.2","","101.81","","","","-43","","Clear"
"1994-01-16 09:00","1994","01","16","09:00","-31.6","","-36.9","","59","","25","","13","","40.2","","101.91","","","","-43","","Clear"
"1994-01-16 10:00","1994","01","16","10:00","-29.4","","-34.7","","60","","26","","17","","40.2","","102.05","","","","-41","","Clear"
"1994-01-16 11:00","1994","01","16","11:00","-28.2","","-33.9","","58","","27","","20","","40.2","","102.11","","","","-41","","Clear"
"1994-01-16 12:00","1994","01","16","12:00","-26.9","","-32.5","","59","","24","","15","","40.2","","102.08","","","","-38","","Clear"
"1994-01-16 13:00","1994","01","16","13:00","-25.9","","-32.0","","56","","21","","13","","40.2","","102.05","","","","-36","","Clear"
"1994-01-16 14:00","1994","01","16","14:00","-24.7","","-31.0","","56","","22","","15","","40.2","","102.08","","","","-35","","Mainly Clear"
"1994-01-16 15:00","1994","01","16","15:00","-23.6","","-30.3","","54","","22","","11","","40.2","","102.15","","","","-32","","Mainly Clear"
"1994-01-16 16:00","1994","01","16","16:00","-23.6","","-30.5","","53","","19","","7","","40.2","","102.15","","","","-30","","Mostly Cloudy"
"1994-01-16 17:00","1994","01","16","17:00","-24.0","","-31.1","","52","","18","","9","","32.2","","102.15","","","","-31","","Mostly Cloudy"
"1994-01-16 18:00","1994","01","16","18:00","-24.0","","-31.2","","51","","17","","9","","25.0","","102.18","","","","-31","","Mostly Cloudy"
"1994-01-16 19:00","1994","01","16","19:00","-23.7","","-31.0","","51","","17","","9","","25.0","","102.15","","","","-31","","Cloudy"
"1994-01-16 20:00","1994","01","16","20:00","-23.3","","-30.4","","52","","17","","9","","25.0","","102.11","","","","-31","","Cloudy"
"1994-01-16 21:00","1994","01","16","21:00","-22.9","","-29.8","","54","","12","","6","","11.3","","102.01","","","","-28","","Snow"
"1994-01-16 22:00","1994","01","16","22:00","-23.1","","-29.5","","56","","8","","9","","3.2","","101.95","","","","-30","","Snow"
"1994-01-16 23:00","1994","01","16","23:00","-23.1","","-29.1","","58","","8","","11","","3.2","","101.81","","","","-31","","Snow"
"1994-01-17 00:00","1994","01","17","00:00","-23.0","","-28.4","","62","","8","","13","","2.4","","101.71","","","","-32","","Snow"
"1994-01-17 01:00","1994","01","17","01:00","-22.8","","-28.1","","62","","8","","19","","1.6","","101.55","","","","-34","","Snow"
"1994-01-17 02:00","1994","01","17","02:00","-23.0","","-28.0","","64","","7","","24","","2.8","","101.34","","","","-35","","Snow"
"1994-01-17 03:00","1994","01","17","03:00","-22.7","","-27.4","","66","","7","","24","","2.8","","101.14","","","","-35","","Snow"
"1994-01-17 04:00","1994","01","17","04:00","-22.3","","-27.0","","66","","7","","20","","2.4","","100.98","","","","-33","","Snow"
"1994-01-17 05:00","1994","01","17","05:00","-21.6","","-26.0","","68","","8","","22","","1.2","","100.81","","","","-33","","Snow"
"1994-01-17 06:00","1994","01","17","06:00","-20.7","","-25.1","","68","","8","","22","","1.2","","100.64","","","","-32","","Snow"
"1994-01-17 07:00","1994","01","17","07:00","-20.4","","-24.6","","69","","9","","26","","1.6","","100.54","","","","-32","","Snow"
"1994-01-17 08:00","1994","01","17","08:00","-19.8","","-23.8","","71","","9","","22","","1.6","","100.44","","","","-31","","Snow"
"1994-01-17 09:00","1994","01","17","09:00","-19.6","","-22.6","","77","","10","","22","","6.4","","100.31","","","","-30","","Fog"
"1994-01-17 10:00","1994","01","17","10:00","-19.3","","-22.2","","78","","9","","26","","2.4","","100.24","","","","-31","","Snow,Fog"
"1994-01-17 11:00","1994","01","17","11:00","-18.6","","-21.8","","76","","9","","22","","2.4","","100.17","","","","-29","","Snow,Fog"
"1994-01-17 12:00","1994","01","17","12:00","-18.2","","-20.7","","81","","8","","24","","2.4","","99.97","","","","-29","","Snow,Fog"
"1994-01-17 13:00","1994","01","17","13:00","-17.6","","-20.0","","82","","8","","22","","4.8","","99.84","","","","-28","","Fog"
"1994-01-17 14:00","1994","01","17","14:00","-15.9","","-18.8","","78","","8","","24","","4.0","","99.64","","","","-26","","Snow"
"1994-01-17 15:00","1994","01","17","15:00","-15.4","","-18.4","","78","","8","","22","","8.0","","99.50","","","","-25","","Haze"
"1994-01-17 16:00","1994","01","17","16:00","-15.1","","-18.6","","75","","8","","20","","8.0","","99.47","","","","-24","","Snow"
"1994-01-17 17:00","1994","01","17","17:00","-15.0","","-18.4","","75","","8","","19","","16.1","","99.37","","","","-24","","Snow Grains"
"1994-01-17 18:00","1994","01","17","18:00","-14.0","","-16.8","","79","","6","","13","","4.8","","99.33","","","","-21","","Snow"
"1994-01-17 19:00","1994","01","17","19:00","-13.6","","-16.3","","80","","6","","11","","4.8","","99.30","","","","-20","","Snow"
"1994-01-17 20:00","1994","01","17","20:00","-13.7","","-16.2","","81","","4","","7","","9.7","","99.30","","","","-18","","Snow"
"1994-01-17 21:00","1994","01","17","21:00","-14.4","","-15.8","","89","","","","0","","19.3","","99.30","","","","","","Mostly Cloudy"
"1994-01-17 22:00","1994","01","17","22:00","-14.6","","-16.8","","83","","30","","11","","19.3","","99.37","","","","-21","","Mostly Cloudy"
"1994-01-17 23:00","1994","01","17","23:00","-15.1","","-17.9","","79","","26","","13","","24.1","","99.40","","","","-22","","Mainly Clear"
"1994-01-18 00:00","1994","01","18","00:00","-12.5","","-18.1","","63","","22","","13","","25.0","","99.40","","","","-19","","Clear"
"1994-01-18 01:00","1994","01","18","01:00","-13.4","","-18.6","","65","","22","","13","","25.0","","99.30","","","","-20","","Clear"
"1994-01-18 02:00","1994","01","18","02:00","-14.2","","-18.4","","71","","26","","13","","24.1","","99.30","","","","-21","","Clear"
"1994-01-18 03:00","1994","01","18","03:00","-15.1","","-16.6","","88","","23","","9","","19.3","","99.33","","","","-21","","Clear"
"1994-01-18 04:00","1994","01","18","04:00","-16.2","","-17.8","","88","","23","","11","","19.3","","99.33","","","","-23","","Clear"
"1994-01-18 05:00","1994","01","18","05:00","-16.7","","-18.6","","85","","23","","11","","19.3","","99.33","","","","-24","","Mainly Clear"
"1994-01-18 06:00","1994","01","18","06:00","-17.8","","-19.2","","88","","24","","9","","19.3","","99.33","","","","-24","","Mainly Clear"
"1994-01-18 07:00","1994","01","18","07:00","-17.7","","-19.2","","88","","23","","11","","24.1","","99.40","","","","-25","","Mainly Clear"
"1994-01-18 08:00","1994","01","18","08:00","-18.8","","-24.2","","62","","23","","11","","24.1","","99.47","","","","-26","","Mostly Cloudy"
"1994-01-18 09:00","1994","01","18","09:00","-17.6","","-24.4","","56","","27","","15","","32.2","","99.50","","","","-26","","Mostly Cloudy"
"1994-01-18 10:00","1994","01","18","10:00","-17.2","","-22.3","","65","","29","","20","","32.2","","99.57","","","","-27","","Mostly Cloudy"
"1994-01-18 11:00","1994","01","18","11:00","-16.9","","-21.3","","69","","29","","22","","32.2","","99.57","","","","-27","","Mostly Cloudy"
"1994-01-18 12:00","1994","01","18","12:00","-16.6","","-21.1","","68","","30","","24","","32.2","","99.60","","","","-27","","Mostly Cloudy"
"1994-01-18 13:00","1994","01","18","13:00","-16.4","","-21.4","","65","","30","","28","","32.2","","99.60","","","","-28","","Mostly Cloudy"
"1994-01-18 14:00","1994","01","18","14:00","-16.3","","-22.3","","60","","30","","22","","32.2","","99.60","","","","-26","","Mostly Cloudy"
"1994-01-18 15:00","1994","01","18","15:00","-16.2","","-22.9","","56","","30","","24","","32.2","","99.64","","","","-27","","Cloudy"
"1994-01-18 16:00","1994","01","18","16:00","-16.4","","-24.7","","49","","28","","24","","32.2","","99.74","","","","-27","","Cloudy"
"1994-01-18 17:00","1994","01","18","17:00","-18.0","","-26.4","","48","","30","","22","","32.2","","99.80","","","","-28","","Mostly Cloudy"
"1994-01-18 18:00","1994","01","18","18:00","-20.3","","-28.5","","48","","30","","20","","25.0","","99.94","","","","-31","","Mainly Clear"
"1994-01-18 19:00","1994","01","18","19:00","-21.9","","-30.1","","48","","30","","28","","24.1","","100.07","","","","-35","","Mainly Clear"
"1994-01-18 20:00","1994","01","18","20:00","-23.3","","-31.1","","49","","30","","30","","25.0","","100.20","","","","-37","","Clear"
"1994-01-18 21:00","1994","01","18","21:00","-24.3","","-32.0","","49","","30","","24","","25.0","","100.34","","","","-37","","Clear"
"1994-01-18 22:00","1994","01","18","22:00","-25.2","","-33.0","","48","","30","","30","","25.0","","100.51","","","","-39","","Mainly Clear"
"1994-01-18 23:00","1994","01","18","23:00","-26.3","","-34.1","","47","","30","","17","","25.0","","100.67","","","","-38","","Mainly Clear"
"1994-01-19 00:00","1994","01","19","00:00","-27.0","","-34.6","","48","","29","","15","","25.0","","100.74","","","","-38","","Mainly Clear"
"1994-01-19 01:00","1994","01","19","01:00","-27.6","","-34.8","","50","","27","","13","","25.0","","100.84","","","","-38","","Clear"
"1994-01-19 02:00","1994","01","19","02:00","-28.0","","-34.6","","53","","27","","13","","25.0","","100.94","","","","-38","","Clear"
"1994-01-19 03:00","1994","01","19","03:00","-29.4","","-35.9","","53","","26","","11","","25.0","","101.04","","","","-39","","Clear"
"1994-01-19 04:00","1994","01","19","04:00","-30.3","","-36.3","","56","","26","","11","","25.0","","101.11","","","","-40","","Clear"
"1994-01-19 05:00","1994","01","19","05:00","-30.4","","-35.8","","59","","26","","9","","25.0","","101.21","","","","-39","","Clear"
"1994-01-19 06:00","1994","01","19","06:00","-30.3","","-35.8","","58","","26","","7","","25.0","","101.24","","","","-38","","Clear"
"1994-01-19 07:00","1994","01","19","07:00","-31.0","","-36.5","","58","","22","","7","","25.0","","101.38","","","","-38","","Clear"
"1994-01-19 08:00","1994","01","19","08:00","-29.6","","-35.0","","59","","23","","7","","32.2","","101.48","","","","-37","","Clear"
"1994-01-19 09:00","1994","01","19","09:00","-29.3","","-34.1","","63","","21","","6","","32.2","","101.55","","","","-36","","Clear"
"1994-01-19 10:00","1994","01","19","10:00","-28.1","","-33.2","","61","","23","","6","","32.2","","101.61","","","","-34","","Clear"
"1994-01-19 11:00","1994","01","19","11:00","-25.1","","-29.9","","64","","","","0","","32.2","","101.61","","","","","","Clear"
"1994-01-19 12:00","1994","01","19","12:00","-24.3","","-30.1","","59","","18","","11","","32.2","","101.58","","","","-33","","Clear"
"1994-01-19 13:00","1994","01","19","13:00","-22.3","","-28.5","","57","","17","","6","","32.2","","101.55","","","","-28","","Clear"
"1994-01-19 14:00","1994","01","19","14:00","-20.7","","-28.0","","52","","18","","11","","32.2","","101.41","","","","-28","","Clear"
"1994-01-19 15:00","1994","01","19","15:00","-19.7","","-27.4","","51","","16","","15","","32.2","","101.38","","","","-29","","Clear"
"1994-01-19 16:00","1994","01","19","16:00","-18.9","","-26.7","","50","","16","","15","","32.2","","101.28","","","","-28","","Clear"
"1994-01-19 17:00","1994","01","19","17:00","-20.3","","-27.8","","51","","15","","15","","24.1","","101.28","","","","-29","","Clear"
"1994-01-19 18:00","1994","01","19","18:00","-19.4","","-26.9","","52","","20","","19","","24.1","","101.28","","","","-29","","Clear"
"1994-01-19 19:00","1994","01","19","19:00","-19.2","","-27.4","","49","","21","","19","","24.1","","101.28","","","","-29","","Clear"
"1994-01-19 20:00","1994","01","19","20:00","-20.4","","-28.4","","49","","22","","22","","24.1","","101.34","","","","-31","","Clear"
"1994-01-19 21:00","1994","01","19","21:00","-21.4","","-29.3","","49","","22","","15","","24.1","","101.28","","","","-31","","Clear"
"1994-01-19 22:00","1994","01","19","22:00","-21.5","","-29.1","","51","","22","","17","","24.1","","101.34","","","","-32","","Mainly Clear"
"1994-01-19 23:00","1994","01","19","23:00","-21.9","","-28.9","","53","","23","","9","","24.1","","101.34","","","","-29","","Mainly Clear"
"1994-01-20 00:00","1994","01","20","00:00","-22.6","","-29.0","","56","","24","","7","","24.1","","101.34","","","","-29","","Mainly Clear"
"1994-01-20 01:00","1994","01","20","01:00","-23.0","","-29.3","","57","","24","","9","","24.1","","101.38","","","","-30","","Clear"
"1994-01-20 02:00","1994","01","20","02:00","-22.8","","-28.9","","58","","24","","17","","24.1","","101.38","","","","-33","","Mainly Clear"
"1994-01-20 03:00","1994","01","20","03:00","-23.0","","-29.0","","58","","26","","7","","24.1","","101.44","","","","-29","","Mainly Clear"
"1994-01-20 04:00","1994","01","20","04:00","-23.5","","-29.1","","60","","23","","9","","24.1","","101.48","","","","-31","","Clear"
"1994-01-20 05:00","1994","01","20","05:00","-23.9","","-29.5","","60","","24","","11","","24.1","","101.58","","","","-32","","Clear"
"1994-01-20 06:00","1994","01","20","06:00","-24.3","","-29.7","","61","","22","","13","","24.1","","101.68","","","","-34","","Clear"
"1994-01-20 07:00","1994","01","20","07:00","-24.5","","-29.7","","62","","22","","11","","24.1","","101.71","","","","-33","","Clear"
"1994-01-20 08:00","1994","01","20","08:00","-24.4","","-29.6","","62","","22","","6","","24.1","","101.75","","","","-30","","Clear"
"1994-01-20 09:00","1994","01","20","09:00","-23.9","","-28.7","","65","","20","","6","","24.1","","101.78","","","","-30","","Mostly Cloudy"
"1994-01-20 10:00","1994","01","20","10:00","-22.5","","-27.3","","65","","19","","6","","19.3","","101.81","","","","-28","","Mostly Cloudy"
"1994-01-20 11:00","1994","01","20","11:00","-19.7","","-24.3","","67","","18","","6","","19.3","","101.85","","","","-25","","Mostly Cloudy"
"1994-01-20 12:00","1994","01","20","12:00","-16.7","","-22.1","","63","","20","","13","","24.1","","101.75","","","","-24","","Mostly Cloudy"
"1994-01-20 13:00","1994","01","20","13:00","-15.7","","-21.3","","62","","20","","13","","24.1","","101.65","","","","-23","","Mostly Cloudy"
"1994-01-20 14:00","1994","01","20","14:00","-13.3","","-19.4","","60","","21","","17","","32.2","","101.55","","","","-21","","Mainly Clear"
"1994-01-20 15:00","1994","01","20","15:00","-12.9","","-19.2","","59","","21","","19","","32.2","","101.51","","","","-21","","Mainly Clear"
"1994-01-20 16:00","1994","01","20","16:00","-13.0","","-19.5","","58","","21","","22","","32.2","","101.51","","","","-22","","Mainly Clear"
"1994-01-20 17:00","1994","01","20","17:00","-13.2","","-19.8","","58","","22","","24","","32.2","","101.55","","","","-23","","Mainly Clear"
"1994-01-20 18:00","1994","01","20","18:00","-13.3","","-19.8","","58","","20","","17","","25.0","","101.61","","","","-21","","Mainly Clear"
"1994-01-20 19:00","1994","01","20","19:00","-15.6","","-22.0","","58","","20","","15","","25.0","","101.65","","","","-24","","Mainly Clear"
"1994-01-20 20:00","1994","01","20","20:00","-16.3","","-22.3","","60","","20","","15","","25.0","","101.68","","","","-25","","Mainly Clear"
"1994-01-20 21:00","1994","01","20","21:00","-16.0","","-21.7","","61","","21","","15","","25.0","","101.71","","","","-24","","Clear"
"1994-01-20 22:00","1994","01","20","22:00","-16.2","","-21.7","","63","","22","","17","","25.0","","101.71","","","","-25","","Clear"
"1994-01-20 23:00","1994","01","20","23:00","-15.9","","-21.4","","63","","24","","15","","25.0","","101.75","","","","-24","","Clear"
"1994-01-21 00:00","1994","01","21","00:00","-17.4","","-22.5","","64","","22","","11","","25.0","","101.78","","","","-25","","Clear"
"1994-01-21 01:00","1994","01","21","01:00","-18.1","","-23.5","","63","","21","","13","","25.0","","101.78","","","","-26","","Clear"
"1994-01-21 02:00","1994","01","21","02:00","-18.7","","-23.5","","66","","22","","13","","24.1","","101.71","","","","-27","","Clear"
"1994-01-21 03:00","1994","01","21","03:00","-19.7","","-24.3","","67","","22","","13","","24.1","","101.75","","","","-28","","Clear"
"1994-01-21 04:00","1994","01","21","04:00","-20.0","","-24.4","","68","","22","","11","","24.1","","101.68","","","","-28","","Mainly Clear"
"1994-01-21 05:00","1994","01","21","05:00","-19.8","","-24.3","","68","","20","","11","","24.1","","101.65","","","","-27","","Mainly Clear"
"1994-01-21 06:00","1994","01","21","06:00","-20.9","","-24.9","","70","","17","","9","","24.1","","101.58","","","","-28","","Mainly Clear"
"1994-01-21 07:00","1994","01","21","07:00","-19.1","","-23.2","","70","","17","","13","","24.1","","101.51","","","","-27","","Mostly Cloudy"
"1994-01-21 08:00","1994","01","21","08:00","-16.7","","-20.5","","72","","20","","17","","19.3","","101.44","","","","-26","","Cloudy"
"1994-01-21 09:00","1994","01","21","09:00","-16.2","","-20.0","","73","","20","","19","","24.1","","101.38","","","","-25","","Mostly Cloudy"
"1994-01-21 10:00","1994","01","21","10:00","-14.2","","-18.2","","72","","20","","19","","24.1","","101.28","","","","-23","","Cloudy"
"1994-01-21 11:00","1994","01","21","11:00","-11.4","","-14.6","","77","","20","","20","","24.1","","101.14","","","","-20","","Cloudy"
"1994-01-21 12:00","1994","01","21","12:00","-9.1","","-12.0","","79","","20","","19","","32.2","","100.94","","","","-17","","Cloudy"
"1994-01-21 13:00","1994","01","21","13:00","-8.0","","-11.6","","75","","21","","30","","32.2","","100.77","","","","-17","","Cloudy"
"1994-01-21 14:00","1994","01","21","14:00","-7.2","","-11.4","","72","","22","","35","","32.2","","100.61","","","","-16","","Cloudy"
"1994-01-21 15:00","1994","01","21","15:00","-7.2","","-11.7","","70","","21","","31","","24.1","","100.44","","","","-16","","Snow"
"1994-01-21 16:00","1994","01","21","16:00","-8.1","","-11.6","","76","","21","","24","","6.4","","100.41","","","","-16","","Snow,Blowing Snow"
"1994-01-21 17:00","1994","01","21","17:00","-8.4","","-11.0","","81","","22","","22","","1.2","","100.37","","","","-16","","Snow,Blowing Snow"
"1994-01-21 18:00","1994","01","21","18:00","-8.5","","-10.5","","85","","21","","19","","6.4","","100.34","","","","-16","","Snow"
"1994-01-21 19:00","1994","01","21","19:00","-9.0","","-10.7","","87","","22","","26","","1.2","","100.31","","","","-18","","Snow,Blowing Snow"
"1994-01-21 20:00","1994","01","21","20:00","-8.7","","-10.5","","87","","22","","24","","16.1","","100.20","","","","-17","","Mostly Cloudy"
"1994-01-21 21:00","1994","01","21","21:00","-8.9","","-11.1","","84","","23","","22","","19.3","","100.17","","","","-17","","Mostly Cloudy"
"1994-01-21 22:00","1994","01","21","22:00","-9.4","","-12.0","","81","","23","","26","","19.3","","100.07","","","","-18","","Mostly Cloudy"
"1994-01-21 23:00","1994","01","21","23:00","-10.0","","-12.9","","79","","23","","17","","19.3","","100.00","","","","-17","","Mainly Clear"
"1994-01-22 00:00","1994","01","22","00:00","-9.9","","-13.0","","78","","23","","20","","19.3","","99.94","","","","-18","","Cloudy"
"1994-01-22 01:00","1994","01","22","01:00","-10.5","","-13.6","","78","","23","","19","","19.3","","99.87","","","","-18","","Cloudy"
"1994-01-22 02:00","1994","01","22","02:00","-10.0","","-13.2","","77","","23","","20","","12.9","","99.80","","","","-18","","Snow"
"1994-01-22 03:00","1994","01","22","03:00","-10.3","","-13.1","","80","","24","","20","","16.1","","99.77","","","","-18","","Cloudy"
"1994-01-22 04:00","1994","01","22","04:00","-10.4","","-13.0","","81","","24","","20","","8.0","","99.74","","","","-18","","Snow Showers"
"1994-01-22 05:00","1994","01","22","05:00","-10.2","","-12.6","","83","","25","","15","","4.8","","99.80","","","","-17","","Snow"
"1994-01-22 06:00","1994","01","22","06:00","-9.7","","-11.6","","86","","29","","19","","3.2","","99.87","","","","-17","","Snow"
"1994-01-22 07:00","1994","01","22","07:00","-10.2","","-12.1","","86","","31","","24","","19.3","","99.97","","","","-19","","Snow"
"1994-01-22 08:00","1994","01","22","08:00","-11.0","","-13.9","","79","","31","","22","","24.1","","100.10","","","","-20","","Mostly Cloudy"
"1994-01-22 09:00","1994","01","22","09:00","-12.2","","-15.8","","75","","32","","26","","19.3","","100.24","","","","-22","","Mainly Clear"
"1994-01-22 10:00","1994","01","22","10:00","-13.8","","-17.4","","74","","34","","28","","24.1","","100.44","","","","-24","","Mainly Clear"
"1994-01-22 11:00","1994","01","22","11:00","-13.7","","-18.2","","69","","31","","26","","24.1","","100.54","","","","-24","","Mainly Clear"
"1994-01-22 12:00","1994","01","22","12:00","-13.6","","-19.3","","62","","31","","30","","24.1","","100.61","","","","-24","","Mainly Clear"
"1994-01-22 13:00","1994","01","22","13:00","-13.8","","-25.7","","36","","32","","28","","24.1","","100.64","","","","-24","","Mainly Clear"
"1994-01-22 14:00","1994","01","22","14:00","-14.1","","-25.2","","39","","29","","28","","24.1","","100.74","","","","-25","","Mainly Clear"
"1994-01-22 15:00","1994","01","22","15:00","-15.2","","-22.7","","53","","28","","26","","19.3","","100.84","","","","-26","","Mainly Clear"
"1994-01-22 16:00","1994","01","22","16:00","-15.6","","-22.1","","57","","29","","20","","24.1","","100.94","","","","-25","","Mainly Clear"
"1994-01-22 17:00","1994","01","22","17:00","-16.4","","-23.6","","54","","28","","24","","32.2","","101.04","","","","-27","","Mainly Clear"
"1994-01-22 18:00","1994","01","22","18:00","-17.1","","-24.9","","51","","28","","19","","25.0","","101.14","","","","-27","","Clear"
"1994-01-22 19:00","1994","01","22","19:00","-17.7","","-25.6","","50","","30","","15","","25.0","","101.18","","","","-26","","Clear"
"1994-01-22 20:00","1994","01","22","20:00","-18.5","","-26.4","","50","","28","","13","","25.0","","101.24","","","","-27","","Mainly Clear"
"1994-01-22 21:00","1994","01","22","21:00","-19.1","","-26.6","","52","","30","","7","","25.0","","101.28","","","","-25","","Mostly Cloudy"
"1994-01-22 22:00","1994","01","22","22:00","-20.0","","-27.1","","54","","25","","6","","25.0","","101.28","","","","-25","","Mostly Cloudy"
"1994-01-22 23:00","1994","01","22","23:00","-20.6","","-27.5","","54","","28","","4","","25.0","","101.28","","","","-24","","Mainly Clear"
"1994-01-23 00:00","1994","01","23","00:00","-20.9","","-27.6","","55","","25","","4","","25.0","","101.28","","","","-24","","Mainly Clear"
"1994-01-23 01:00","1994","01","23","01:00","-21.1","","-27.5","","57","","","","0","","25.0","","101.28","","","","","","Cloudy"
"1994-01-23 02:00","1994","01","23","02:00","-20.8","","-27.0","","58","","20","","6","","25.0","","101.24","","","","-26","","Cloudy"
"1994-01-23 03:00","1994","01","23","03:00","-20.8","","-27.1","","57","","19","","9","","19.3","","101.18","","","","-28","","Snow"
"1994-01-23 04:00","1994","01","23","04:00","-20.7","","-26.3","","61","","","","0","","4.8","","101.08","","","","","","Snow"
"1994-01-23 05:00","1994","01","23","05:00","-21.1","","-26.8","","61","","","","0","","8.0","","101.08","","","","","","Snow"
"1994-01-23 06:00","1994","01","23","06:00","-20.7","","-26.0","","63","","15","","7","","4.8","","101.04","","","","-26","","Snow"
"1994-01-23 07:00","1994","01","23","07:00","-20.3","","-25.4","","64","","16","","6","","19.3","","101.04","","","","-25","","Snow"
"1994-01-23 08:00","1994","01","23","08:00","-20.1","","-25.0","","65","","15","","6","","9.7","","101.04","","","","-25","","Snow"
"1994-01-23 09:00","1994","01","23","09:00","-19.2","","-24.1","","65","","14","","4","","4.8","","100.94","","","","-23","","Snow"
"1994-01-23 10:00","1994","01","23","10:00","-18.3","","-22.8","","68","","13","","6","","4.8","","100.91","","","","-23","","Snow"
"1994-01-23 11:00","1994","01","23","11:00","-17.4","","-21.6","","70","","13","","11","","8.0","","100.81","","","","-25","","Snow"
"1994-01-23 12:00","1994","01","23","12:00","-17.5","","-21.6","","70","","8","","11","","1.6","","100.64","","","","-25","","Snow"
"1994-01-23 13:00","1994","01","23","13:00","-17.7","","-22.0","","69","","7","","17","","1.2","","100.51","","","","-27","","Snow"
"1994-01-23 14:00","1994","01","23","14:00","-16.6","","-20.6","","71","","8","","20","","2.0","","100.34","","","","-26","","Snow"
"1994-01-23 15:00","1994","01","23","15:00","-16.5","","-20.4","","72","","7","","17","","1.0","","100.24","","","","-25","","Snow"
"1994-01-23 16:00","1994","01","23","16:00","-16.8","","-20.8","","71","","6","","19","","4.8","","100.20","","","","-26","","Snow"
"1994-01-23 17:00","1994","01","23","17:00","-17.1","","-21.1","","71","","7","","19","","1.2","","100.14","","","","-27","","Snow"
"1994-01-23 18:00","1994","01","23","18:00","-17.2","","-20.7","","74","","8","","19","","1.6","","100.04","","","","-27","","Snow"
"1994-01-23 19:00","1994","01","23","19:00","-16.9","","-20.2","","75","","6","","22","","0.8","","99.94","","","","-27","","Moderate Snow"
"1994-01-23 20:00","1994","01","23","20:00","-16.9","","-20.3","","75","","6","","22","","4.8","","99.80","","","","-27","","Snow"
"1994-01-23 21:00","1994","01","23","21:00","-16.9","","-20.2","","75","","6","","22","","4.8","","99.70","","","","-27","","Snow"
"1994-01-23 22:00","1994","01","23","22:00","-16.7","","-20.0","","76","","6","","19","","9.7","","99.64","","","","-26","","Snow"
"1994-01-23 23:00","1994","01","23","23:00","-16.7","","-19.9","","76","","6","","17","","1.6","","99.60","","","","-26","","Snow"
"1994-01-24 00:00","1994","01","24","00:00","-16.6","","-19.7","","77","","6","","15","","8.0","","99.57","","","","-25","","Snow"
"1994-01-24 01:00","1994","01","24","01:00","-16.5","","-19.5","","78","","7","","9","","4.8","","99.50","","","","-23","","Freezing Drizzle,Snow,Ice Pellets"
"1994-01-24 02:00","1994","01","24","02:00","-16.3","","-19.2","","78","","8","","9","","4.0","","99.53","","","","-22","","Freezing Drizzle,Snow"
"1994-01-24 03:00","1994","01","24","03:00","-16.1","","-18.9","","79","","8","","4","","8.0","","99.57","","","","-19","","Freezing Drizzle,Snow"
"1994-01-24 04:00","1994","01","24","04:00","-16.0","","-18.6","","80","","","","0","","8.0","","99.60","","","","","","Snow"
"1994-01-24 05:00","1994","01","24","05:00","-16.0","","-19.2","","76","","24","","6","","16.1","","99.67","","","","-20","","Snow"
"1994-01-24 06:00","1994","01","24","06:00","-16.0","","-19.0","","78","","25","","9","","16.1","","99.80","","","","-22","","Snow"
"1994-01-24 07:00","1994","01","24","07:00","-16.0","","-18.8","","79","","24","","9","","16.1","","99.90","","","","-22","","Snow"
"1994-01-24 08:00","1994","01","24","08:00","-15.3","","-18.2","","78","","23","","7","","16.1","","100.00","","","","-20","","Snow"
"1994-01-24 09:00","1994","01","24","09:00","-14.3","","-17.0","","80","","24","","6","","6.4","","100.04","","","","-18","","Snow"
"1994-01-24 10:00","1994","01","24","10:00","-13.1","","-15.0","","86","","23","","6","","12.9","","100.10","","","","-17","","Ice Crystals"
"1994-01-24 11:00","1994","01","24","11:00","-11.2","","-13.9","","81","","23","","6","","19.3","","100.10","","","","-15","","Mainly Clear"
"1994-01-24 12:00","1994","01","24","12:00","-10.7","","-13.1","","82","","23","","7","","24.1","","100.07","","","","-15","","Mainly Clear"
"1994-01-24 13:00","1994","01","24","13:00","-9.2","","-11.0","","87","","23","","6","","19.3","","100.04","","","","-13","","Mostly Cloudy"
"1994-01-24 14:00","1994","01","24","14:00","-7.3","","-9.5","","84","","","","0","","19.3","","100.10","","","","","","Snow Showers"
"1994-01-24 15:00","1994","01","24","15:00","-7.5","","-10.3","","80","","28","","20","","24.1","","100.20","","","","-15","","Snow Showers"
"1994-01-24 16:00","1994","01","24","16:00","-8.1","","-9.5","","90","","29","","19","","24.1","","100.34","","","","-15","","Mainly Clear"
"1994-01-24 17:00","1994","01","24","17:00","-7.8","","-11.0","","78","","29","","17","","24.1","","100.47","","","","-14","","Mainly Clear"
"1994-01-24 18:00","1994","01","24","18:00","-9.0","","-12.5","","76","","30","","20","","25.0","","100.61","","","","-17","","Mainly Clear"
"1994-01-24 19:00","1994","01","24","19:00","-9.6","","-13.4","","74","","30","","19","","25.0","","100.77","","","","-17","","Clear"
"1994-01-24 20:00","1994","01","24","20:00","-11.0","","-15.1","","72","","30","","17","","25.0","","100.91","","","","-18","","Clear"
"1994-01-24 21:00","1994","01","24","21:00","-12.5","","-16.3","","73","","30","","11","","24.1","","101.04","","","","-19","","Clear"
"1994-01-24 22:00","1994","01","24","22:00","-13.8","","-17.7","","72","","29","","11","","24.1","","101.18","","","","-20","","Clear"
"1994-01-24 23:00","1994","01","24","23:00","-14.9","","-18.6","","73","","30","","11","","24.1","","101.18","","","","-21","","Clear"
"1994-01-25 00:00","1994","01","25","00:00","-15.3","","-18.2","","78","","32","","13","","24.1","","101.28","","","","-23","","Clear"
"1994-01-25 01:00","1994","01","25","01:00","-15.4","","-19.0","","74","","33","","19","","24.1","","101.31","","","","-24","","Clear"
"1994-01-25 02:00","1994","01","25","02:00","-16.4","","-19.5","","77","","33","","15","","24.1","","101.38","","","","-25","","Clear"
"1994-01-25 03:00","1994","01","25","03:00","-17.6","","-27.3","","43","","28","","6","","24.1","","101.41","","","","-22","","Mainly Clear"
"1994-01-25 04:00","1994","01","25","04:00","-18.5","","-27.5","","45","","27","","7","","24.1","","101.48","","","","-24","","Mainly Clear"
"1994-01-25 05:00","1994","01","25","05:00","-20.3","","-26.6","","57","","24","","6","","24.1","","101.55","","","","-25","","Clear"
"1994-01-25 06:00","1994","01","25","06:00","-22.6","","-27.4","","65","","24","","7","","24.1","","101.61","","","","-29","","Clear"
"1994-01-25 07:00","1994","01","25","07:00","-21.0","","-26.7","","60","","30","","9","","24.1","","101.75","","","","-28","","Clear"
"1994-01-25 08:00","1994","01","25","08:00","-21.5","","-26.2","","66","","31","","13","","32.2","","101.78","","","","-30","","Mainly Clear"
"1994-01-25 09:00","1994","01","25","09:00","-19.8","","-24.5","","66","","32","","9","","40.2","","101.88","","","","-27","","Mainly Clear"
"1994-01-25 10:00","1994","01","25","10:00","-18.2","","-23.1","","66","","33","","13","","40.2","","101.95","","","","-26","","Mainly Clear"
"1994-01-25 11:00","1994","01","25","11:00","-17.8","","-23.3","","62","","33","","13","","40.2","","101.98","","","","-26","","Mainly Clear"
"1994-01-25 12:00","1994","01","25","12:00","-17.6","","-24.1","","57","","34","","17","","40.2","","101.95","","","","-27","","Mostly Cloudy"
"1994-01-25 13:00","1994","01","25","13:00","-17.4","","-24.5","","54","","33","","9","","40.2","","101.91","","","","-24","","Mostly Cloudy"
"1994-01-25 14:00","1994","01","25","14:00","-17.3","","-24.3","","55","","34","","13","","40.2","","101.91","","","","-25","","Mostly Cloudy"
"1994-01-25 15:00","1994","01","25","15:00","-16.9","","-24.8","","51","","31","","9","","40.2","","101.95","","","","-23","","Mostly Cloudy"
"1994-01-25 16:00","1994","01","25","16:00","-17.1","","-25.7","","47","","36","","13","","40.2","","102.01","","","","-25","","Mostly Cloudy"
"1994-01-25 17:00","1994","01","25","17:00","-17.7","","-26.7","","46","","35","","15","","32.2","","102.08","","","","-26","","Mostly Cloudy"
"1994-01-25 18:00","1994","01","25","18:00","-18.4","","-27.6","","45","","1","","20","","25.0","","102.15","","","","-28","","Cloudy"
"1994-01-25 19:00","1994","01","25","19:00","-19.4","","-28.4","","45","","1","","20","","25.0","","102.18","","","","-30","","Mostly Cloudy"
"1994-01-25 20:00","1994","01","25","20:00","-19.7","","-28.2","","47","","2","","20","","25.0","","102.25","","","","-30","","Mostly Cloudy"
"1994-01-25 21:00","1994","01","25","21:00","-20.3","","-28.5","","48","","2","","24","","25.0","","102.28","","","","-32","","Cloudy"
"1994-01-25 22:00","1994","01","25","22:00","-21.3","","-29.5","","48","","2","","20","","25.0","","102.32","","","","-32","","Mostly Cloudy"
"1994-01-25 23:00","1994","01","25","23:00","-21.7","","-29.8","","48","","2","","24","","25.0","","102.32","","","","-34","","Mostly Cloudy"
"1994-01-26 00:00","1994","01","26","00:00","-22.2","","-30.1","","49","","3","","26","","25.0","","102.42","","","","-35","","Cloudy"
"1994-01-26 01:00","1994","01","26","01:00","-23.0","","-30.8","","49","","3","","26","","25.0","","102.48","","","","-36","","Cloudy"
"1994-01-26 02:00","1994","01","26","02:00","-23.7","","-31.3","","50","","5","","28","","24.1","","102.52","","","","-37","","Cloudy"
"1994-01-26 03:00","1994","01","26","03:00","-24.7","","-32.4","","49","","4","","28","","24.1","","102.62","","","","-38","","Cloudy"
"1994-01-26 04:00","1994","01","26","04:00","-25.9","","-33.3","","50","","4","","24","","24.1","","102.72","","","","-39","","Cloudy"
"1994-01-26 05:00","1994","01","26","05:00","-27.2","","-34.6","","49","","3","","22","","24.1","","102.78","","","","-40","","Clear"
"1994-01-26 06:00","1994","01","26","06:00","-29.0","","-35.9","","51","","4","","19","","24.1","","102.89","","","","-42","","Clear"
"1994-01-26 07:00","1994","01","26","07:00","-29.2","","-36.2","","51","","3","","15","","24.1","","102.99","","","","-40","","Mainly Clear"
"1994-01-26 08:00","1994","01","26","08:00","-29.6","","-36.6","","50","","3","","15","","40.2","","103.05","","","","-41","","Mainly Clear"
"1994-01-26 09:00","1994","01","26","09:00","-29.6","","-36.7","","50","","4","","17","","40.2","","103.12","","","","-42","","Clear"
"1994-01-26 10:00","1994","01","26","10:00","-28.6","","-35.7","","50","","3","","19","","40.2","","103.19","","","","-41","","Clear"
"1994-01-26 11:00","1994","01","26","11:00","-27.3","","-34.4","","51","","3","","17","","40.2","","103.19","","","","-39","","Clear"
"1994-01-26 12:00","1994","01","26","12:00","-26.2","","-33.8","","49","","5","","19","","32.2","","103.12","","","","-38","","Clear"
"1994-01-26 13:00","1994","01","26","13:00","-25.2","","-33.4","","46","","7","","17","","32.2","","103.12","","","","-36","","Clear"
"1994-01-26 14:00","1994","01","26","14:00","-24.8","","-33.2","","45","","5","","15","","40.2","","103.09","","","","-35","","Clear"
"1994-01-26 15:00","1994","01","26","15:00","-24.2","","-33.4","","42","","8","","13","","40.2","","103.09","","","","-34","","Clear"
"1994-01-26 16:00","1994","01","26","16:00","-23.8","","-33.7","","40","","8","","9","","40.2","","103.09","","","","-31","","Clear"
"1994-01-26 17:00","1994","01","26","17:00","-24.5","","-34.6","","39","","8","","6","","32.2","","103.12","","","","-30","","Mainly Clear"
"1994-01-26 18:00","1994","01","26","18:00","-25.5","","-35.5","","39","","4","","7","","25.0","","103.09","","","","-32","","Mainly Clear"
"1994-01-26 19:00","1994","01","26","19:00","-25.7","","-35.1","","41","","","","0","","24.1","","103.19","","","","","","Mainly Clear"
"1994-01-26 20:00","1994","01","26","20:00","-25.8","","-35.0","","42","","","","0","","24.1","","103.22","","","","","","Mainly Clear"
"1994-01-26 21:00","1994","01","26","21:00","-25.7","","-34.9","","42","","","","0","","24.1","","103.22","","","","","","Mainly Clear"
"1994-01-26 22:00","1994","01","26","22:00","-26.5","","-35.1","","44","","12","","6","","24.1","","103.19","","","","-32","","Mainly Clear"
"1994-01-26 23:00","1994","01","26","23:00","-27.3","","-35.8","","44","","9","","11","","24.1","","103.15","","","","-36","","Mainly Clear"
"1994-01-27 00:00","1994","01","27","00:00","-28.6","","-36.8","","45","","7","","9","","24.1","","103.09","","","","-37","","Clear"
"1994-01-27 01:00","1994","01","27","01:00","-29.7","","-37.8","","45","","4","","11","","24.1","","103.02","","","","-39","","Clear"
"1994-01-27 02:00","1994","01","27","02:00","-29.6","","-37.5","","46","","4","","11","","24.1","","103.02","","","","-39","","Clear"
"1994-01-27 03:00","1994","01","27","03:00","-31.4","","-37.9","","53","","4","","15","","25.0","","102.92","","","","-43","","Clear"
"1994-01-27 04:00","1994","01","27","04:00","-30.2","","-37.1","","51","","4","","11","","25.0","","102.89","","","","-40","","Clear"
"1994-01-27 05:00","1994","01","27","05:00","-30.4","","-37.0","","52","","4","","13","","25.0","","102.82","","","","-41","","Clear"
"1994-01-27 06:00","1994","01","27","06:00","-30.3","","-36.9","","52","","5","","19","","25.0","","102.78","","","","-43","","Clear"
"1994-01-27 07:00","1994","01","27","07:00","-29.8","","-36.2","","53","","6","","17","","25.0","","102.78","","","","-42","","Mainly Clear"
"1994-01-27 08:00","1994","01","27","08:00","-29.1","","-35.3","","55","","7","","13","","32.2","","102.75","","","","-39","","Mostly Cloudy"
"1994-01-27 09:00","1994","01","27","09:00","-28.5","","-34.8","","55","","6","","22","","24.1","","102.72","","","","-42","","Mostly Cloudy"
"1994-01-27 10:00","1994","01","27","10:00","-26.9","","-33.2","","55","","7","","20","","24.1","","102.62","","","","-39","","Cloudy"
"1994-01-27 11:00","1994","01","27","11:00","-25.3","","-31.5","","56","","8","","24","","24.1","","102.58","","","","-38","","Mostly Cloudy"
"1994-01-27 12:00","1994","01","27","12:00","-24.0","","-30.2","","57","","6","","17","","32.2","","102.42","","","","-35","","Mostly Cloudy"
"1994-01-27 13:00","1994","01","27","13:00","-22.8","","-29.6","","54","","7","","22","","32.2","","102.22","","","","-35","","Mostly Cloudy"
"1994-01-27 14:00","1994","01","27","14:00","-22.1","","-29.0","","54","","6","","17","","32.2","","102.18","","","","-32","","Mostly Cloudy"
"1994-01-27 15:00","1994","01","27","15:00","-21.6","","-29.4","","50","","6","","19","","32.2","","101.98","","","","-32","","Cloudy"
"1994-01-27 16:00","1994","01","27","16:00","-21.5","","-29.2","","50","","7","","17","","32.2","","101.95","","","","-32","","Cloudy"
"1994-01-27 17:00","1994","01","27","17:00","-21.4","","-28.6","","52","","8","","22","","24.1","","101.81","","","","-33","","Cloudy"
"1994-01-27 18:00","1994","01","27","18:00","-21.4","","-28.7","","52","","8","","19","","24.1","","101.75","","","","-32","","Cloudy"
"1994-01-27 19:00","1994","01","27","19:00","-21.0","","-28.3","","52","","8","","19","","24.1","","101.65","","","","-31","","Cloudy"
"1994-01-27 20:00","1994","01","27","20:00","-20.8","","-28.0","","53","","7","","22","","24.1","","101.44","","","","-32","","Cloudy"
"1994-01-27 21:00","1994","01","27","21:00","-20.5","","-27.3","","55","","8","","22","","12.9","","101.24","","","","-32","","Snow"
"1994-01-27 22:00","1994","01","27","22:00","-19.9","","-26.1","","58","","7","","20","","12.9","","101.08","","","","-30","","Snow"
"1994-01-27 23:00","1994","01","27","23:00","-19.1","","-24.8","","61","","8","","24","","8.0","","100.87","","","","-30","","Ice Pellets"
"1994-01-28 00:00","1994","01","28","00:00","-18.3","","-23.3","","65","","8","","22","","4.8","","100.71","","","","-29","","Snow,Ice Pellets"
"1994-01-28 01:00","1994","01","28","01:00","-17.3","","-21.7","","68","","6","","15","","2.0","","100.61","","","","-26","","Snow,Ice Pellets"
"1994-01-28 02:00","1994","01","28","02:00","-16.4","","-20.7","","69","","6","","19","","1.6","","100.41","","","","-26","","Snow,Ice Pellets"
"1994-01-28 03:00","1994","01","28","03:00","-14.9","","-18.6","","73","","6","","15","","4.0","","100.27","","","","-23","","Snow,Ice Pellets"
"1994-01-28 04:00","1994","01","28","04:00","-13.6","","-16.6","","78","","6","","15","","9.7","","100.10","","","","-21","","Freezing Rain,Ice Pellets"
"1994-01-28 05:00","1994","01","28","05:00","-12.4","","-14.9","","81","","5","","13","","9.7","","100.00","","","","-19","","Freezing Rain,Ice Pellets"
"1994-01-28 06:00","1994","01","28","06:00","-10.3","","-11.2","","93","","5","","15","","8.0","","99.84","","","","-17","","Freezing Rain,Ice Pellets"
"1994-01-28 07:00","1994","01","28","07:00","-6.6","","-8.0","","90","","6","","17","","4.8","","99.64","","","","-13","","Freezing Rain,Ice Pellets"
"1994-01-28 08:00","1994","01","28","08:00","-3.6","","-4.7","","92","","8","","17","","2.4","","99.43","","","","-9","","Freezing Rain,Ice Pellets,Fog"
"1994-01-28 09:00","1994","01","28","09:00","-2.3","","-3.2","","93","","8","","15","","2.4","","99.23","","","","-7","","Freezing Rain,Fog"
"1994-01-28 10:00","1994","01","28","10:00","-1.9","","-2.3","","97","","8","","17","","4.0","","99.03","","","","-7","","Freezing Rain,Fog"
"1994-01-28 11:00","1994","01","28","11:00","-1.6","","-2.1","","96","","7","","15","","3.2","","98.80","","","","-6","","Freezing Rain,Fog"
"1994-01-28 12:00","1994","01","28","12:00","-1.3","","-1.6","","98","","7","","15","","3.2","","98.40","","","","-6","","Freezing Rain,Fog"
"1994-01-28 13:00","1994","01","28","13:00","-0.7","","-1.1","","97","","7","","15","","2.4","","98.13","","","","-5","","Freezing Rain,Fog"
"1994-01-28 14:00","1994","01","28","14:00","-0.4","","-0.4","","100","","7","","6","","1.6","","97.93","","","","-2","","Freezing Rain,Fog"
"1994-01-28 15:00","1994","01","28","15:00","0.2","","-0.2","","97","","7","","7","","1.2","","97.83","","","","","","Drizzle,Fog"
"1994-01-28 16:00","1994","01","28","16:00","0.2","","0.2","","100","","9","","6","","0.8","","97.73","","","","","","Drizzle,Fog"
"1994-01-28 17:00","1994","01","28","17:00","3.0","","2.4","","96","","20","","13","","4.0","","97.69","","","","","","Rain,Fog"
"1994-01-28 18:00","1994","01","28","18:00","5.0","","4.5","","97","","21","","28","","12.9","","97.62","","","","","","Rain"
"1994-01-28 19:00","1994","01","28","19:00","4.7","","4.2","","97","","22","","33","","16.1","","97.73","","","","","","Mostly Cloudy"
"1994-01-28 20:00","1994","01","28","20:00","4.3","","3.7","","96","","23","","35","","19.3","","97.76","","","","","","Cloudy"
"1994-01-28 21:00","1994","01","28","21:00","4.0","","2.9","","92","","24","","35","","19.3","","97.79","","","","","","Cloudy"
"1994-01-28 22:00","1994","01","28","22:00","0.7","","0.6","","99","","29","","26","","6.4","","97.93","","","","","","Rain,Snow"
"1994-01-28 23:00","1994","01","28","23:00","-1.7","","-2.4","","95","","28","","26","","2.8","","98.13","","","","-8","","Snow"
"1994-01-29 00:00","1994","01","29","00:00","-3.6","","-4.3","","95","","28","","22","","4.0","","98.33","","","","-10","","Snow"
"1994-01-29 01:00","1994","01","29","01:00","-5.5","","-6.1","","95","","29","","26","","3.2","","98.50","","","","-13","","Snow"
"1994-01-29 02:00","1994","01","29","02:00","-7.1","","-7.6","","96","","29","","31","","4.8","","98.66","","","","-16","","Snow"
"1994-01-29 03:00","1994","01","29","03:00","-8.5","","-8.9","","97","","29","","28","","3.2","","98.80","","","","-17","","Snow"
"1994-01-29 04:00","1994","01","29","04:00","-9.7","","-10.2","","96","","29","","33","","4.0","","99.13","","","","-20","","Snow"
"1994-01-29 05:00","1994","01","29","05:00","-10.4","","-11.2","","94","","30","","28","","16.1","","99.33","","","","-20","","Snow"
"1994-01-29 06:00","1994","01","29","06:00","-11.4","","-12.7","","90","","30","","24","","24.1","","99.60","","","","-20","","Mostly Cloudy"
"1994-01-29 07:00","1994","01","29","07:00","-12.6","","-14.0","","89","","30","","28","","24.1","","99.80","","","","-23","","Mainly Clear"
"1994-01-29 08:00","1994","01","29","08:00","-13.3","","-14.9","","88","","31","","22","","40.2","","100.00","","","","-22","","Mainly Clear"
"1994-01-29 09:00","1994","01","29","09:00","-13.4","","-15.3","","86","","31","","26","","40.2","","100.10","","","","-23","","Mainly Clear"
"1994-01-29 10:00","1994","01","29","10:00","-13.7","","-16.1","","82","","31","","24","","40.2","","100.31","","","","-23","","Mainly Clear"
"1994-01-29 11:00","1994","01","29","11:00","-14.7","","-17.3","","81","","34","","20","","40.2","","100.37","","","","-24","","Mainly Clear"
"1994-01-29 12:00","1994","01","29","12:00","-14.5","","-17.7","","76","","34","","15","","40.2","","100.41","","","","-22","","Clear"
"1994-01-29 13:00","1994","01","29","13:00","-14.5","","-18.1","","74","","32","","15","","40.2","","100.44","","","","-22","","Clear"
"1994-01-29 14:00","1994","01","29","14:00","-14.2","","-18.0","","73","","30","","19","","40.2","","100.41","","","","-23","","Clear"
"1994-01-29 15:00","1994","01","29","15:00","-14.3","","-18.7","","69","","28","","17","","40.2","","100.51","","","","-23","","Clear"
"1994-01-29 16:00","1994","01","29","16:00","-14.7","","-24.0","","45","","29","","15","","40.2","","100.54","","","","-23","","Clear"
"1994-01-29 17:00","1994","01","29","17:00","-15.7","","-22.3","","57","","29","","17","","32.2","","100.61","","","","-24","","Mainly Clear"
"1994-01-29 18:00","1994","01","29","18:00","-15.9","","-21.3","","63","","29","","13","","25.0","","100.64","","","","-23","","Mostly Cloudy"
"1994-01-29 19:00","1994","01","29","19:00","-15.8","","-20.9","","65","","33","","15","","25.0","","100.67","","","","-24","","Mostly Cloudy"
"1994-01-29 20:00","1994","01","29","20:00","-16.4","","-21.4","","65","","33","","13","","25.0","","100.74","","","","-24","","Mostly Cloudy"
"1994-01-29 21:00","1994","01","29","21:00","-16.5","","-21.3","","67","","32","","11","","25.0","","100.81","","","","-23","","Mostly Cloudy"
"1994-01-29 22:00","1994","01","29","22:00","-16.9","","-21.9","","65","","33","","15","","25.0","","100.87","","","","-25","","Mostly Cloudy"
"1994-01-29 23:00","1994","01","29","23:00","-18.1","","-23.4","","63","","34","","15","","25.0","","100.91","","","","-27","","Mostly Cloudy"
"1994-01-30 00:00","1994","01","30","00:00","-18.8","","-24.3","","62","","33","","17","","25.0","","100.98","","","","-28","","Mostly Cloudy"
"1994-01-30 01:00","1994","01","30","01:00","-19.4","","-25.0","","61","","33","","17","","25.0","","101.04","","","","-29","","Mainly Clear"
"1994-01-30 02:00","1994","01","30","02:00","-20.4","","-25.9","","62","","30","","15","","25.0","","101.14","","","","-30","","Mainly Clear"
"1994-01-30 03:00","1994","01","30","03:00","-21.4","","-27.1","","60","","33","","17","","25.0","","101.24","","","","-31","","Clear"
"1994-01-30 04:00","1994","01","30","04:00","-22.3","","-27.8","","61","","32","","15","","25.0","","101.28","","","","-32","","Clear"
"1994-01-30 05:00","1994","01","30","05:00","-22.8","","-28.3","","61","","32","","15","","25.0","","101.34","","","","-33","","Clear"
"1994-01-30 06:00","1994","01","30","06:00","-23.7","","-29.0","","62","","32","","15","","25.0","","101.41","","","","-34","","Clear"
"1994-01-30 07:00","1994","01","30","07:00","-24.1","","-29.4","","62","","33","","15","","25.0","","101.51","","","","-34","","Clear"
"1994-01-30 08:00","1994","01","30","08:00","-24.3","","-29.6","","61","","33","","11","","32.2","","101.61","","","","-33","","Clear"
"1994-01-30 09:00","1994","01","30","09:00","-23.9","","-29.2","","62","","33","","13","","32.2","","101.75","","","","-33","","Clear"
"1994-01-30 10:00","1994","01","30","10:00","-23.2","","-28.6","","62","","33","","15","","24.1","","101.75","","","","-33","","Clear"
"1994-01-30 11:00","1994","01","30","11:00","-22.0","","-27.5","","61","","35","","13","","24.1","","101.71","","","","-31","","Clear"
"1994-01-30 12:00","1994","01","30","12:00","-20.6","","-26.6","","59","","31","","9","","24.1","","101.71","","","","-27","","Clear"
"1994-01-30 13:00","1994","01","30","13:00","-20.5","","-26.8","","58","","23","","11","","24.1","","101.75","","","","-28","","Mainly Clear"
"1994-01-30 14:00","1994","01","30","14:00","-20.1","","-26.3","","58","","24","","9","","24.1","","101.68","","","","-27","","Clear"
"1994-01-30 15:00","1994","01","30","15:00","-19.1","","-25.9","","55","","30","","4","","32.2","","101.65","","","","-22","","Clear"
"1994-01-30 16:00","1994","01","30","16:00","-19.0","","-26.3","","53","","24","","7","","32.2","","101.58","","","","-24","","Clear"
"1994-01-30 17:00","1994","01","30","17:00","-20.2","","-27.2","","54","","24","","9","","32.2","","101.58","","","","-27","","Mainly Clear"
"1994-01-30 18:00","1994","01","30","18:00","-22.2","","-28.8","","56","","27","","9","","24.1","","101.61","","","","-29","","Mainly Clear"
"1994-01-30 19:00","1994","01","30","19:00","-22.5","","-28.4","","59","","27","","7","","19.3","","101.65","","","","-29","","Mainly Clear"
"1994-01-30 20:00","1994","01","30","20:00","-22.0","","-27.7","","60","","29","","7","","16.1","","101.58","","","","-28","","Mostly Cloudy"
"1994-01-30 21:00","1994","01","30","21:00","-22.6","","-28.2","","60","","28","","6","","12.9","","101.58","","","","-28","","Cloudy"
"1994-01-30 22:00","1994","01","30","22:00","-22.5","","-27.1","","66","","25","","4","","12.9","","101.58","","","","-26","","Mostly Cloudy"
"1994-01-30 23:00","1994","01","30","23:00","-22.2","","-27.2","","64","","31","","7","","16.1","","101.51","","","","-28","","Mostly Cloudy"
"1994-01-31 00:00","1994","01","31","00:00","-22.7","","-27.4","","66","","","","0","","24.1","","101.44","","","","","","Mainly Clear"
"1994-01-31 01:00","1994","01","31","01:00","-23.6","","-27.8","","69","","24","","7","","24.1","","101.41","","","","-30","","Clear"
"1994-01-31 02:00","1994","01","31","02:00","-25.0","","-29.6","","66","","23","","7","","24.1","","101.38","","","","-31","","Clear"
"1994-01-31 03:00","1994","01","31","03:00","-25.4","","-30.0","","65","","23","","6","","25.0","","101.38","","","","-31","","Clear"
"1994-01-31 04:00","1994","01","31","04:00","-25.8","","-30.7","","63","","27","","6","","25.0","","101.28","","","","-32","","Clear"
"1994-01-31 05:00","1994","01","31","05:00","-25.5","","-29.8","","67","","27","","4","","25.0","","101.28","","","","-30","","Clear"
"1994-01-31 06:00","1994","01","31","06:00","-26.8","","-30.5","","70","","26","","4","","25.0","","101.24","","","","-31","","Clear"
"1994-01-31 07:00","1994","01","31","07:00","-27.6","","-31.6","","68","","21","","4","","24.1","","101.24","","","","-32","","Clear"
"1994-01-31 08:00","1994","01","31","08:00","-26.2","","-31.0","","64","","21","","4","","24.1","","101.24","","","","-30","","Mainly Clear"
"1994-01-31 09:00","1994","01","31","09:00","-25.7","","-30.1","","67","","","","0","","24.1","","101.18","","","","","","Clear"
"1994-01-31 10:00","1994","01","31","10:00","-24.2","","-28.3","","69","","22","","4","","19.3","","101.18","","","","-28","","Ice Crystals"
"1994-01-31 11:00","1994","01","31","11:00","-23.0","","-26.5","","73","","24","","4","","24.1","","101.14","","","","-27","","Ice Crystals"
"1994-01-31 12:00","1994","01","31","12:00","-20.7","","-24.6","","71","","","","0","","24.1","","101.08","","","","","","Clear"
"1994-01-31 13:00","1994","01","31","13:00","-19.3","","-22.8","","74","","23","","7","","24.1","","100.98","","","","-25","","Clear"
"1994-01-31 14:00","1994","01","31","14:00","-18.2","","-21.8","","74","","22","","7","","24.1","","100.87","","","","-24","","Clear"
"1994-01-31 15:00","1994","01","31","15:00","-17.3","","-20.8","","74","","23","","7","","24.1","","100.84","","","","-23","","Mainly Clear"
"1994-01-31 16:00","1994","01","31","16:00","-16.9","","-20.4","","74","","21","","9","","32.2","","100.84","","","","-23","","Mostly Cloudy"
"1994-01-31 17:00","1994","01","31","17:00","-17.7","","-21.1","","75","","21","","7","","32.2","","100.81","","","","-23","","Mainly Clear"
"1994-01-31 18:00","1994","01","31","18:00","-17.7","","-21.6","","72","","19","","6","","25.0","","100.81","","","","-22","","Mainly Clear"
"1994-01-31 19:00","1994","01","31","19:00","-18.4","","-22.1","","73","","","","0","","24.1","","100.81","","","","","","Mainly Clear"
"1994-01-31 20:00","1994","01","31","20:00","-19.2","","-23.2","","71","","20","","9","","24.1","","100.81","","","","-26","","Mainly Clear"
"1994-01-31 21:00","1994","01","31","21:00","-19.4","","-23.8","","68","","21","","7","","24.1","","100.74","","","","-25","","Mainly Clear"
"1994-01-31 22:00","1994","01","31","22:00","-19.7","","-24.2","","68","","20","","7","","24.1","","100.74","","","","-25","","Mainly Clear"
"1994-01-31 23:00","1994","01","31","23:00","-20.0","","-24.4","","68","","21","","9","","24.1","","100.71","","","","-27","","Clear"
