"Station Name","OTTAWA MACDONALD-CARTIER INT'L A"
"Province","ONTARIO"
"Latitude","45.32"
"Longitude","-75.67"
"Elevation","114.00"
"Climate Identifier","6106000"
"WMO Identifier","71628"
"TC Identifier","YOW"
"All times are specified in Local Standard Time (LST). Add 1 hour to adjust for Daylight Saving Time where and when it is observed."

"Legend"
"E","Estimated"
"M","Missing"
"NA","Not Available"

"Date/Time","Year","Month","Day","Time","Temp (°C)","Temp Flag","Dew Point Temp (°C)","Dew Point Temp Flag","Rel Hum (%)","Rel Hum Flag","Wind Dir (10s deg)","Wind Dir Flag","Wind Spd (km/h)","Wind Spd Flag","Visibility (km)","Visibility Flag","Stn Press (kPa)","Stn Press Flag","Hmdx","Hmdx Flag","Wind Chill","Wind Chill Flag","Weather"
"2010-08-01 00:00","2010","08","01","00:00","15.0","","10.2","","73","","","","0","","25.0","","100.23","","","","","","Clear"
"2010-08-01 01:00","2010","08","01","01:00","14.8","","10.1","","73","","","","0","","25.0","","100.24","","","","","","Clear"
"2010-08-01 02:00","2010","08","01","02:00","12.8","","9.0","","78","","7","","6","","25.0","","100.27","","","","","","Clear"
"2010-08-01 03:00","2010","08","01","03:00","12.7","","9.6","","81","","","","0","","25.0","","100.28","","","","","","Clear"
"2010-08-01 04:00","2010","08","01","04:00","11.9","","9.6","","86","","8","","6","","25.0","","100.32","","","","","","Clear"
"2010-08-01 05:00","2010","08","01","05:00","12.5","","9.8","","84","","5","","7","","24.1","","100.35","","","","","","Mainly Clear"
"2010-08-01 06:00","2010","08","01","06:00","13.8","","11.4","","85","","5","","9","","24.1","","100.40","","","","","","Clear"
"2010-08-01 07:00","2010","08","01","07:00","15.7","","11.7","","77","","7","","7","","24.1","","100.46","","","","","","Mainly Clear"
"2010-08-01 08:00","2010","08","01","08:00","19.3","","11.8","","62","","7","","9","","24.1","","100.45","","","","","","Mainly Clear"
"2010-08-01 09:00","2010","08","01","09:00","20.8","","10.5","","52","","9","","11","","24.1","","100.42","","","","","","Mainly Clear"
"2010-08-01 10:00","2010","08","01","10:00","22.0","","12.1","","53","","9","","11","","24.1","","100.38","","","","","","Mainly Clear"
"2010-08-01 11:00","2010","08","01","11:00","22.8","","12.0","","51","","6","","13","","24.1","","100.38","","25","","","","Mainly Clear"
"2010-08-01 12:00","2010","08","01","12:00","24.8","","11.3","","43","","10","","7","","24.1","","100.35","","27","","","","Mostly Cloudy"
"2010-08-01 13:00","2010","08","01","13:00","24.8","","11.0","","42","","18","","7","","24.1","","100.32","","27","","","","Mostly Cloudy"
"2010-08-01 14:00","2010","08","01","14:00","24.5","","10.6","","42","","8","","7","","24.1","","100.32","","26","","","","Mostly Cloudy"
"2010-08-01 15:00","2010","08","01","15:00","24.6","","10.7","","42","","11","","11","","24.1","","100.30","","26","","","","Mostly Cloudy"
"2010-08-01 16:00","2010","08","01","16:00","26.3","","11.2","","39","","8","","9","","24.1","","100.25","","28","","","","Mostly Cloudy"
"2010-08-01 17:00","2010","08","01","17:00","25.7","","11.6","","41","","11","","7","","24.1","","100.24","","28","","","","Mostly Cloudy"
"2010-08-01 18:00","2010","08","01","18:00","24.4","","12.1","","46","","11","","6","","24.1","","100.22","","27","","","","Mostly Cloudy"
"2010-08-01 19:00","2010","08","01","19:00","22.9","","13.0","","54","","12","","6","","24.1","","100.23","","26","","","","Mostly Cloudy"
"2010-08-01 20:00","2010","08","01","20:00","21.8","","12.5","","55","","17","","6","","25.0","","100.29","","","","","","Mostly Cloudy"
"2010-08-01 21:00","2010","08","01","21:00","21.0","","12.5","","58","","16","","4","","25.0","","100.32","","","","","","Mostly Cloudy"
"2010-08-01 22:00","2010","08","01","22:00","19.9","","12.2","","61","","16","","4","","25.0","","100.32","","","","","","Mostly Cloudy"
"2010-08-01 23:00","2010","08","01","23:00","17.8","","11.7","","67","","14","","4","","25.0","","100.33","","","","","","Mainly Clear"
"2010-08-02 00:00","2010","08","02","00:00","18.1","","11.5","","65","","","","0","","25.0","","100.32","","","","","","Mainly Clear"
"2010-08-02 01:00","2010","08","02","01:00","18.1","","11.5","","65","","","","0","","25.0","","100.32","","","","","","Mainly Clear"
"2010-08-02 02:00","2010","08","02","02:00","17.7","","11.4","","67","","6","","4","","25.0","","100.29","","","","","","Mostly Cloudy"
"2010-08-02 03:00","2010","08","02","03:00","17.7","","12.1","","70","","8","","6","","25.0","","100.27","","","","","","Mostly Cloudy"
"2010-08-02 04:00","2010","08","02","04:00","17.3","","13.2","","77","","7","","4","","25.0","","100.33","","","","","","Mostly Cloudy"
"2010-08-02 05:00","2010","08","02","05:00","16.1","","13.2","","83","","7","","7","","24.1","","100.36","","","","","","Mostly Cloudy"
"2010-08-02 06:00","2010","08","02","06:00","16.3","","13.6","","84","","8","","6","","24.1","","100.39","","","","","","Mainly Clear"
"2010-08-02 07:00","2010","08","02","07:00","18.8","","14.6","","77","","16","","4","","24.1","","100.43","","","","","","Mostly Cloudy"
"2010-08-02 08:00","2010","08","02","08:00","20.7","","16.8","","78","","18","","6","","24.1","","100.39","","26","","","","Mostly Cloudy"
"2010-08-02 09:00","2010","08","02","09:00","23.1","","18.7","","76","","18","","11","","24.1","","100.34","","30","","","","Mostly Cloudy"
"2010-08-02 10:00","2010","08","02","10:00","25.1","","19.5","","71","","18","","11","","24.1","","100.32","","32","","","","Mostly Cloudy"
"2010-08-02 11:00","2010","08","02","11:00","26.3","","19.7","","67","","20","","15","","24.1","","100.28","","34","","","","Mainly Clear"
"2010-08-02 12:00","2010","08","02","12:00","27.8","","19.6","","61","","19","","13","","24.1","","100.27","","35","","","","Mostly Cloudy"
"2010-08-02 13:00","2010","08","02","13:00","28.0","","18.8","","57","","20","","17","","24.1","","100.22","","35","","","","Mostly Cloudy"
"2010-08-02 14:00","2010","08","02","14:00","27.9","","19.1","","59","","19","","19","","24.1","","100.16","","35","","","","Mostly Cloudy"
"2010-08-02 15:00","2010","08","02","15:00","28.3","","19.1","","57","","23","","20","","24.1","","100.16","","35","","","","Cloudy"
"2010-08-02 16:00","2010","08","02","16:00","27.2","","19.4","","62","","20","","24","","24.1","","100.14","","34","","","","Cloudy"
"2010-08-02 17:00","2010","08","02","17:00","25.4","","18.6","","66","","21","","15","","24.1","","100.15","","32","","","","Cloudy"
"2010-08-02 18:00","2010","08","02","18:00","24.8","","20.1","","75","","18","","9","","24.1","","100.16","","32","","","","Cloudy"
"2010-08-02 19:00","2010","08","02","19:00","23.0","","21.4","","91","","22","","11","","12.9","","100.17","","32","","","","Rain Showers"
"2010-08-02 20:00","2010","08","02","20:00","21.9","","20.6","","92","","23","","7","","19.3","","100.19","","30","","","","Rain Showers"
"2010-08-02 21:00","2010","08","02","21:00","20.9","","19.7","","93","","32","","7","","24.1","","100.23","","28","","","","Cloudy"
"2010-08-02 22:00","2010","08","02","22:00","21.5","","20.3","","93","","3","","6","","24.1","","100.19","","29","","","","Rain Showers"
"2010-08-02 23:00","2010","08","02","23:00","20.8","","20.3","","97","","13","","4","","16.1","","100.13","","29","","","","Cloudy"
"2010-08-03 00:00","2010","08","03","00:00","20.1","","19.8","","98","","18","","6","","11.3","","100.13","","28","","","","Rain Showers"
"2010-08-03 01:00","2010","08","03","01:00","20.5","","20.2","","98","","4","","4","","11.3","","100.13","","28","","","","Cloudy"
"2010-08-03 02:00","2010","08","03","02:00","20.4","","20.3","","99","","14","","4","","11.3","","100.10","","28","","","","Cloudy"
"2010-08-03 03:00","2010","08","03","03:00","20.2","","19.9","","98","","16","","9","","11.3","","100.03","","28","","","","Cloudy"
"2010-08-03 04:00","2010","08","03","04:00","20.2","","19.9","","98","","10","","4","","11.3","","100.03","","28","","","","Cloudy"
"2010-08-03 05:00","2010","08","03","05:00","20.3","","20.1","","99","","19","","6","","9.7","","100.03","","28","","","","Fog"
"2010-08-03 06:00","2010","08","03","06:00","20.9","","20.7","","99","","21","","9","","8.0","","100.01","","29","","","","Rain,Fog"
"2010-08-03 07:00","2010","08","03","07:00","21.1","","21.0","","99","","17","","6","","8.0","","99.99","","30","","","","Rain,Fog"
"2010-08-03 08:00","2010","08","03","08:00","22.2","","21.1","","93","","20","","9","","12.9","","100.01","","31","","","","Cloudy"
"2010-08-03 09:00","2010","08","03","09:00","23.7","","21.9","","90","","22","","15","","16.1","","99.97","","33","","","","Mostly Cloudy"
"2010-08-03 10:00","2010","08","03","10:00","24.9","","21.8","","83","","22","","13","","19.3","","99.96","","34","","","","Cloudy"
"2010-08-03 11:00","2010","08","03","11:00","25.0","","21.6","","81","","24","","15","","19.3","","99.97","","34","","","","Cloudy"
"2010-08-03 12:00","2010","08","03","12:00","26.0","","22.6","","82","","24","","13","","24.1","","99.88","","36","","","","Mostly Cloudy"
"2010-08-03 13:00","2010","08","03","13:00","26.9","","22.1","","75","","24","","17","","24.1","","99.85","","36","","","","Mostly Cloudy"
"2010-08-03 14:00","2010","08","03","14:00","29.4","","22.2","","65","","27","","13","","24.1","","99.73","","39","","","","Mostly Cloudy"
"2010-08-03 15:00","2010","08","03","15:00","22.4","","19.9","","86","","36","","33","","1.6","","99.79","","30","","","","Thunderstorms,Rain Showers,Fog"
"2010-08-03 16:00","2010","08","03","16:00","20.9","","20.9","","100","","35","","11","","4.8","","99.78","","29","","","","Rain Showers"
"2010-08-03 17:00","2010","08","03","17:00","22.6","","21.1","","91","","22","","11","","24.1","","99.73","","31","","","","Cloudy"
"2010-08-03 18:00","2010","08","03","18:00","22.0","","21.6","","98","","16","","7","","24.1","","99.67","","31","","","","Rain Showers"
"2010-08-03 19:00","2010","08","03","19:00","21.6","","21.3","","98","","17","","4","","24.1","","99.68","","30","","","","Mostly Cloudy"
"2010-08-03 20:00","2010","08","03","20:00","20.9","","20.6","","98","","16","","7","","24.1","","99.65","","29","","","","Mostly Cloudy"
"2010-08-03 21:00","2010","08","03","21:00","20.8","","20.4","","98","","18","","7","","25.0","","99.62","","29","","","","Mostly Cloudy"
"2010-08-03 22:00","2010","08","03","22:00","20.8","","20.6","","99","","18","","6","","16.1","","99.61","","29","","","","Mainly Clear"
"2010-08-03 23:00","2010","08","03","23:00","20.5","","20.5","","100","","18","","4","","12.9","","99.57","","28","","","","Mainly Clear"
"2010-08-04 00:00","2010","08","04","00:00","20.9","","20.9","","100","","21","","4","","12.9","","99.56","","29","","","","Mainly Clear"
"2010-08-04 01:00","2010","08","04","01:00","20.1","","20.1","","100","","22","","7","","6.4","","99.53","","28","","","","Fog"
"2010-08-04 02:00","2010","08","04","02:00","20.2","","20.2","","100","","26","","6","","8.0","","99.51","","28","","","","Fog"
"2010-08-04 03:00","2010","08","04","03:00","20.9","","20.8","","99","","22","","7","","8.0","","99.52","","29","","","","Fog"
"2010-08-04 04:00","2010","08","04","04:00","21.0","","20.7","","98","","20","","6","","8.0","","99.48","","29","","","","Fog"
"2010-08-04 05:00","2010","08","04","05:00","21.2","","20.9","","98","","23","","7","","4.8","","99.55","","30","","","","Fog"
"2010-08-04 06:00","2010","08","04","06:00","21.6","","21.5","","99","","20","","7","","4.8","","99.54","","30","","","","Fog"
"2010-08-04 07:00","2010","08","04","07:00","22.5","","21.8","","96","","21","","13","","6.4","","99.52","","32","","","","Fog"
"2010-08-04 08:00","2010","08","04","08:00","24.2","","22.5","","90","","22","","11","","9.7","","99.52","","34","","","","Fog"
"2010-08-04 09:00","2010","08","04","09:00","24.8","","22.5","","87","","23","","17","","16.1","","99.49","","35","","","","Mostly Cloudy"
"2010-08-04 10:00","2010","08","04","10:00","26.7","","23.2","","81","","22","","17","","24.1","","99.44","","37","","","","Mostly Cloudy"
"2010-08-04 11:00","2010","08","04","11:00","27.7","","23.5","","78","","23","","20","","24.1","","99.42","","38","","","","Mostly Cloudy"
"2010-08-04 12:00","2010","08","04","12:00","28.8","","24.0","","75","","23","","19","","19.3","","99.32","","40","","","","Mostly Cloudy"
"2010-08-04 13:00","2010","08","04","13:00","29.6","","23.5","","70","","25","","28","","19.3","","99.22","","40","","","","Mostly Cloudy"
"2010-08-04 14:00","2010","08","04","14:00","30.8","","23.2","","64","","25","","19","","24.1","","99.17","","41","","","","Mostly Cloudy"
"2010-08-04 15:00","2010","08","04","15:00","21.2","","20.6","","96","","36","","57","","16.1","","99.18","","29","","","","Thunderstorms,Moderate Rain Showers"
"2010-08-04 16:00","2010","08","04","16:00","22.0","","21.5","","97","","19","","13","","19.3","","99.21","","31","","","","Thunderstorms,Rain Showers"
"2010-08-04 17:00","2010","08","04","17:00","22.5","","21.5","","94","","27","","4","","12.9","","99.19","","31","","","","Thunderstorms,Rain Showers"
"2010-08-04 18:00","2010","08","04","18:00","23.5","","22.6","","95","","16","","9","","24.1","","99.11","","33","","","","Mainly Clear"
"2010-08-04 19:00","2010","08","04","19:00","22.5","","22.4","","99","","17","","7","","24.1","","99.08","","32","","","","Mainly Clear"
"2010-08-04 20:00","2010","08","04","20:00","22.0","","21.8","","99","","16","","6","","19.3","","99.09","","31","","","","Mostly Cloudy"
"2010-08-04 21:00","2010","08","04","21:00","23.0","","22.0","","94","","22","","7","","16.1","","99.10","","32","","","","Mostly Cloudy"
"2010-08-04 22:00","2010","08","04","22:00","22.9","","21.7","","93","","22","","6","","16.1","","99.10","","32","","","","Mostly Cloudy"
"2010-08-04 23:00","2010","08","04","23:00","21.9","","21.3","","96","","23","","6","","12.9","","99.08","","31","","","","Mainly Clear"
"2010-08-05 00:00","2010","08","05","00:00","21.6","","21.2","","98","","25","","6","","12.9","","99.05","","30","","","","Clear"
"2010-08-05 01:00","2010","08","05","01:00","20.9","","20.9","","100","","21","","7","","8.0","","99.04","","29","","","","Fog"
"2010-08-05 02:00","2010","08","05","02:00","20.9","","20.9","","100","","22","","7","","4.8","","99.00","","29","","","","Fog"
"2010-08-05 03:00","2010","08","05","03:00","20.7","","20.7","","100","","22","","9","","8.0","","98.93","","29","","","","Fog"
"2010-08-05 04:00","2010","08","05","04:00","20.4","","20.4","","100","","22","","7","","8.0","","98.92","","28","","","","Fog"
"2010-08-05 05:00","2010","08","05","05:00","20.3","","20.3","","100","","20","","6","","8.0","","98.91","","28","","","","Fog"
"2010-08-05 06:00","2010","08","05","06:00","20.4","","20.2","","99","","23","","7","","16.1","","98.90","","28","","","","Mostly Cloudy"
"2010-08-05 07:00","2010","08","05","07:00","20.9","","19.9","","94","","24","","7","","24.1","","98.92","","28","","","","Mainly Clear"
"2010-08-05 08:00","2010","08","05","08:00","22.3","","20.1","","87","","26","","11","","24.1","","98.88","","30","","","","Mainly Clear"
"2010-08-05 09:00","2010","08","05","09:00","24.0","","20.6","","81","","27","","13","","24.1","","98.87","","32","","","","Mainly Clear"
"2010-08-05 10:00","2010","08","05","10:00","25.3","","20.2","","73","","25","","13","","24.1","","98.82","","33","","","","Clear"
"2010-08-05 11:00","2010","08","05","11:00","27.3","","19.2","","61","","29","","17","","24.1","","98.80","","34","","","","Clear"
"2010-08-05 12:00","2010","08","05","12:00","28.1","","19.2","","58","","27","","19","","24.1","","98.75","","35","","","","Mainly Clear"
"2010-08-05 13:00","2010","08","05","13:00","28.7","","19.4","","57","","22","","15","","24.1","","98.67","","36","","","","Mainly Clear"
"2010-08-05 14:00","2010","08","05","14:00","29.4","","18.5","","52","","22","","26","","24.1","","98.60","","36","","","","Mainly Clear"
"2010-08-05 15:00","2010","08","05","15:00","29.9","","19.2","","53","","23","","17","","24.1","","98.53","","37","","","","Mainly Clear"
"2010-08-05 16:00","2010","08","05","16:00","27.8","","18.6","","57","","27","","19","","24.1","","98.53","","34","","","","Mainly Clear"
"2010-08-05 17:00","2010","08","05","17:00","28.3","","17.0","","50","","24","","24","","24.1","","98.45","","34","","","","Mainly Clear"
"2010-08-05 18:00","2010","08","05","18:00","28.0","","17.2","","52","","25","","22","","24.1","","98.48","","33","","","","Mainly Clear"
"2010-08-05 19:00","2010","08","05","19:00","26.3","","15.0","","50","","27","","19","","24.1","","98.55","","30","","","","Mainly Clear"
"2010-08-05 20:00","2010","08","05","20:00","24.9","","14.7","","53","","26","","15","","24.1","","98.61","","29","","","","Mainly Clear"
"2010-08-05 21:00","2010","08","05","21:00","23.5","","14.3","","56","","27","","15","","25.0","","98.69","","27","","","","Clear"
"2010-08-05 22:00","2010","08","05","22:00","22.4","","14.2","","60","","29","","15","","25.0","","98.77","","26","","","","Clear"
"2010-08-05 23:00","2010","08","05","23:00","21.2","","13.6","","62","","28","","13","","25.0","","98.84","","","","","","Mainly Clear"
"2010-08-06 00:00","2010","08","06","00:00","19.8","","13.5","","67","","28","","17","","25.0","","98.85","","","","","","Clear"
"2010-08-06 01:00","2010","08","06","01:00","18.5","","13.8","","74","","29","","13","","25.0","","98.89","","","","","","Clear"
"2010-08-06 02:00","2010","08","06","02:00","18.3","","14.4","","78","","30","","19","","25.0","","98.91","","","","","","Mainly Clear"
"2010-08-06 03:00","2010","08","06","03:00","17.3","","14.7","","85","","29","","7","","25.0","","98.91","","","","","","Mostly Cloudy"
"2010-08-06 04:00","2010","08","06","04:00","17.3","","15.0","","86","","30","","11","","25.0","","98.92","","","","","","Mostly Cloudy"
"2010-08-06 05:00","2010","08","06","05:00","17.4","","15.2","","87","","29","","15","","24.1","","98.98","","","","","","Mostly Cloudy"
"2010-08-06 06:00","2010","08","06","06:00","17.2","","14.0","","81","","31","","19","","24.1","","99.05","","","","","","Mostly Cloudy"
"2010-08-06 07:00","2010","08","06","07:00","16.3","","9.2","","63","","31","","22","","24.1","","99.17","","","","","","Mostly Cloudy"
"2010-08-06 08:00","2010","08","06","08:00","16.8","","9.6","","62","","30","","26","","24.1","","99.26","","","","","","Mostly Cloudy"
"2010-08-06 09:00","2010","08","06","09:00","17.5","","9.6","","60","","29","","26","","24.1","","99.31","","","","","","Mainly Clear"
"2010-08-06 10:00","2010","08","06","10:00","18.1","","7.9","","51","","29","","32","","24.1","","99.36","","","","","","Mainly Clear"
"2010-08-06 11:00","2010","08","06","11:00","18.1","","5.9","","45","","30","","26","","24.1","","99.40","","","","","","Mainly Clear"
"2010-08-06 12:00","2010","08","06","12:00","19.0","","5.7","","42","","29","","32","","24.1","","99.46","","","","","","Mainly Clear"
"2010-08-06 13:00","2010","08","06","13:00","19.8","","6.1","","41","","27","","33","","24.1","","99.48","","","","","","Mainly Clear"
"2010-08-06 14:00","2010","08","06","14:00","17.7","","5.1","","43","","31","","17","","24.1","","99.52","","","","","","Mainly Clear"
"2010-08-06 15:00","2010","08","06","15:00","18.9","","3.9","","37","","28","","24","","24.1","","99.53","","","","","","Mainly Clear"
"2010-08-06 16:00","2010","08","06","16:00","19.7","","4.2","","36","","29","","20","","24.1","","99.50","","","","","","Mainly Clear"
"2010-08-06 17:00","2010","08","06","17:00","19.7","","4.2","","36","","28","","19","","24.1","","99.50","","","","","","Clear"
"2010-08-06 18:00","2010","08","06","18:00","19.2","","3.8","","36","","30","","15","","24.1","","99.49","","","","","","Mainly Clear"
"2010-08-06 19:00","2010","08","06","19:00","17.3","","5.4","","45","","31","","6","","24.1","","99.52","","","","","","Mainly Clear"
"2010-08-06 20:00","2010","08","06","20:00","16.8","","6.4","","50","","36","","22","","24.1","","99.60","","","","","","Mostly Cloudy"
"2010-08-06 21:00","2010","08","06","21:00","15.5","","6.7","","56","","36","","11","","25.0","","99.68","","","","","","Mainly Clear"
"2010-08-06 22:00","2010","08","06","22:00","14.6","","7.2","","61","","27","","4","","25.0","","99.71","","","","","","Mainly Clear"
"2010-08-06 23:00","2010","08","06","23:00","13.8","","7.8","","67","","32","","7","","25.0","","99.74","","","","","","Mainly Clear"
"2010-08-07 00:00","2010","08","07","00:00","13.0","","8.5","","74","","25","","7","","25.0","","99.77","","","","","","Clear"
"2010-08-07 01:00","2010","08","07","01:00","12.1","","7.7","","74","","26","","7","","25.0","","99.80","","","","","","Clear"
"2010-08-07 02:00","2010","08","07","02:00","11.6","","7.9","","78","","24","","4","","25.0","","99.79","","","","","","Mainly Clear"
"2010-08-07 03:00","2010","08","07","03:00","11.3","","7.9","","80","","24","","4","","25.0","","99.84","","","","","","Mainly Clear"
"2010-08-07 04:00","2010","08","07","04:00","10.1","","8.2","","88","","29","","9","","25.0","","99.90","","","","","","Mainly Clear"
"2010-08-07 05:00","2010","08","07","05:00","9.9","","8.8","","93","","28","","9","","24.1","","99.99","","","","","","Clear"
"2010-08-07 06:00","2010","08","07","06:00","11.2","","9.8","","91","","27","","4","","24.1","","100.02","","","","","","Clear"
"2010-08-07 07:00","2010","08","07","07:00","12.7","","10.5","","86","","21","","4","","24.1","","100.09","","","","","","Clear"
"2010-08-07 08:00","2010","08","07","08:00","15.1","","9.4","","69","","30","","11","","24.1","","100.13","","","","","","Clear"
"2010-08-07 09:00","2010","08","07","09:00","16.7","","6.1","","50","","30","","15","","24.1","","100.17","","","","","","Mainly Clear"
"2010-08-07 10:00","2010","08","07","10:00","17.7","","5.5","","45","","29","","17","","24.1","","100.16","","","","","","Mainly Clear"
"2010-08-07 11:00","2010","08","07","11:00","18.8","","5.8","","42","","27","","15","","24.1","","100.14","","","","","","Mainly Clear"
"2010-08-07 12:00","2010","08","07","12:00","19.3","","6.2","","42","","28","","13","","24.1","","100.11","","","","","","Mainly Clear"
"2010-08-07 13:00","2010","08","07","13:00","20.2","","5.7","","39","","27","","13","","24.1","","100.07","","","","","","Mainly Clear"
"2010-08-07 14:00","2010","08","07","14:00","20.7","","5.2","","36","","27","","22","","24.1","","100.06","","","","","","Mainly Clear"
"2010-08-07 15:00","2010","08","07","15:00","21.2","","6.8","","39","","26","","7","","24.1","","100.03","","","","","","Mostly Cloudy"
"2010-08-07 16:00","2010","08","07","16:00","21.5","","6.4","","37","","21","","19","","24.1","","99.99","","","","","","Mostly Cloudy"
"2010-08-07 17:00","2010","08","07","17:00","21.7","","7.0","","39","","20","","15","","24.1","","99.92","","","","","","Mainly Clear"
"2010-08-07 18:00","2010","08","07","18:00","21.0","","7.9","","43","","20","","11","","24.1","","99.90","","","","","","Mostly Cloudy"
"2010-08-07 19:00","2010","08","07","19:00","19.6","","8.4","","48","","19","","11","","24.1","","99.88","","","","","","Mainly Clear"
"2010-08-07 20:00","2010","08","07","20:00","17.2","","10.2","","63","","18","","7","","24.1","","99.91","","","","","","Mainly Clear"
"2010-08-07 21:00","2010","08","07","21:00","17.4","","10.0","","62","","20","","13","","25.0","","99.93","","","","","","Mainly Clear"
"2010-08-07 22:00","2010","08","07","22:00","16.4","","10.5","","68","","20","","13","","25.0","","99.92","","","","","","Mainly Clear"
"2010-08-07 23:00","2010","08","07","23:00","15.8","","11.1","","74","","21","","7","","25.0","","99.94","","","","","","Mainly Clear"
"2010-08-08 00:00","2010","08","08","00:00","15.3","","11.5","","78","","20","","7","","25.0","","99.93","","","","","","Mostly Cloudy"
"2010-08-08 01:00","2010","08","08","01:00","15.7","","12.6","","82","","22","","7","","25.0","","99.92","","","","","","Mostly Cloudy"
"2010-08-08 02:00","2010","08","08","02:00","16.0","","13.2","","83","","21","","6","","25.0","","99.90","","","","","","Mostly Cloudy"
"2010-08-08 03:00","2010","08","08","03:00","16.2","","14.0","","87","","16","","6","","25.0","","99.89","","","","","","Mostly Cloudy"
"2010-08-08 04:00","2010","08","08","04:00","16.6","","14.1","","85","","17","","6","","25.0","","99.87","","","","","","Mainly Clear"
"2010-08-08 05:00","2010","08","08","05:00","16.6","","14.3","","86","","21","","7","","24.1","","99.91","","","","","","Cloudy"
"2010-08-08 06:00","2010","08","08","06:00","17.6","","14.8","","84","","20","","9","","24.1","","99.89","","","","","","Cloudy"
"2010-08-08 07:00","2010","08","08","07:00","17.6","","15.5","","87","","21","","4","","24.1","","99.92","","","","","","Rain Showers"
"2010-08-08 08:00","2010","08","08","08:00","18.7","","17.1","","90","","21","","6","","24.1","","99.89","","","","","","Mostly Cloudy"
"2010-08-08 09:00","2010","08","08","09:00","21.1","","17.6","","80","","21","","20","","24.1","","99.87","","27","","","","Cloudy"
"2010-08-08 10:00","2010","08","08","10:00","22.8","","17.5","","72","","23","","17","","24.1","","99.84","","28","","","","Cloudy"
"2010-08-08 11:00","2010","08","08","11:00","23.8","","18.3","","71","","22","","15","","24.1","","99.83","","30","","","","Cloudy"
"2010-08-08 12:00","2010","08","08","12:00","23.3","","18.4","","74","","20","","17","","24.1","","99.84","","30","","","","Cloudy"
"2010-08-08 13:00","2010","08","08","13:00","22.5","","18.3","","77","","20","","13","","24.1","","99.81","","29","","","","Cloudy"
"2010-08-08 14:00","2010","08","08","14:00","21.6","","18.3","","82","","19","","13","","16.1","","99.77","","28","","","","Rain"
"2010-08-08 15:00","2010","08","08","15:00","20.2","","19.6","","96","","20","","19","","3.2","","99.77","","27","","","","Moderate Rain,Fog"
"2010-08-08 16:00","2010","08","08","16:00","20.3","","19.9","","98","","21","","17","","6.4","","99.73","","28","","","","Moderate Rain,Fog"
"2010-08-08 17:00","2010","08","08","17:00","19.9","","19.5","","98","","21","","9","","8.0","","99.76","","","","","","Rain,Fog"
"2010-08-08 18:00","2010","08","08","18:00","18.5","","18.3","","99","","20","","7","","8.0","","99.78","","","","","","Moderate Rain,Fog"
"2010-08-08 19:00","2010","08","08","19:00","19.5","","19.2","","98","","20","","11","","9.7","","99.74","","","","","","Rain,Fog"
"2010-08-08 20:00","2010","08","08","20:00","19.5","","18.8","","96","","19","","11","","16.1","","99.71","","","","","","Mostly Cloudy"
"2010-08-08 21:00","2010","08","08","21:00","19.3","","18.9","","98","","22","","6","","11.3","","99.73","","","","","","Drizzle"
"2010-08-08 22:00","2010","08","08","22:00","18.9","","18.9","","100","","19","","4","","9.7","","99.72","","","","","","Fog"
"2010-08-08 23:00","2010","08","08","23:00","19.1","","19.1","","100","","35","","6","","8.0","","99.78","","","","","","Fog"
"2010-08-09 00:00","2010","08","09","00:00","18.5","","18.5","","100","","","","0","","1.2","","99.84","","","","","","Fog"
"2010-08-09 01:00","2010","08","09","01:00","18.8","","18.8","","100","","22","","6","","4.8","","99.87","","","","","","Fog"
"2010-08-09 02:00","2010","08","09","02:00","18.5","","18.5","","100","","27","","9","","0.6","","99.90","","","","","","Fog"
"2010-08-09 03:00","2010","08","09","03:00","18.4","","18.4","","100","","20","","6","","0.8","","99.90","","","","","","Fog"
"2010-08-09 04:00","2010","08","09","04:00","17.9","","17.9","","100","","20","","6","","0.4","","99.92","","","","","","Fog"
"2010-08-09 05:00","2010","08","09","05:00","17.8","","17.8","","100","","19","","6","","1.0","","99.97","","","","","","Fog"
"2010-08-09 06:00","2010","08","09","06:00","18.0","","18.0","","100","","22","","4","","3.2","","100.00","","","","","","Fog"
"2010-08-09 07:00","2010","08","09","07:00","18.8","","18.8","","100","","21","","4","","8.0","","100.03","","","","","","Fog"
"2010-08-09 08:00","2010","08","09","08:00","19.8","","19.5","","98","","22","","6","","16.1","","100.06","","","","","","Mostly Cloudy"
"2010-08-09 09:00","2010","08","09","09:00","20.8","","19.9","","95","","26","","4","","19.3","","100.06","","28","","","","Cloudy"
"2010-08-09 10:00","2010","08","09","10:00","22.4","","19.5","","84","","28","","7","","24.1","","100.06","","30","","","","Mostly Cloudy"
"2010-08-09 11:00","2010","08","09","11:00","23.8","","19.6","","77","","24","","4","","24.1","","100.03","","31","","","","Mainly Clear"
"2010-08-09 12:00","2010","08","09","12:00","24.7","","20.1","","76","","29","","6","","24.1","","99.98","","32","","","","Cloudy"
"2010-08-09 13:00","2010","08","09","13:00","25.8","","18.8","","65","","26","","7","","24.1","","99.97","","32","","","","Cloudy"
"2010-08-09 14:00","2010","08","09","14:00","25.6","","20.0","","71","","28","","9","","24.1","","99.93","","33","","","","Mostly Cloudy"
"2010-08-09 15:00","2010","08","09","15:00","26.5","","19.9","","67","","25","","11","","24.1","","99.88","","34","","","","Mostly Cloudy"
"2010-08-09 16:00","2010","08","09","16:00","26.4","","19.9","","68","","25","","7","","24.1","","99.88","","34","","","","Mostly Cloudy"
"2010-08-09 17:00","2010","08","09","17:00","26.6","","19.4","","65","","26","","7","","24.1","","99.85","","34","","","","Cloudy"
"2010-08-09 18:00","2010","08","09","18:00","26.2","","19.5","","67","","27","","7","","24.1","","99.87","","33","","","","Mostly Cloudy"
"2010-08-09 19:00","2010","08","09","19:00","25.1","","19.5","","71","","26","","4","","24.1","","99.87","","32","","","","Mainly Clear"
"2010-08-09 20:00","2010","08","09","20:00","22.5","","19.0","","81","","30","","7","","25.0","","99.88","","29","","","","Mainly Clear"
"2010-08-09 21:00","2010","08","09","21:00","21.7","","20.2","","91","","19","","9","","24.1","","99.92","","29","","","","Mainly Clear"
"2010-08-09 22:00","2010","08","09","22:00","21.9","","20.6","","92","","22","","6","","24.1","","99.92","","30","","","","Clear"
"2010-08-09 23:00","2010","08","09","23:00","20.2","","20.0","","99","","19","","4","","9.7","","99.93","","28","","","","Fog"
"2010-08-10 00:00","2010","08","10","00:00","19.3","","19.3","","100","","20","","6","","4.8","","99.93","","","","","","Fog"
"2010-08-10 01:00","2010","08","10","01:00","18.4","","18.4","","100","","20","","4","","1.2","","99.92","","","","","","Fog"
"2010-08-10 02:00","2010","08","10","02:00","18.2","","18.2","","100","","20","","4","","0.4","","99.92","","","","","","Fog"
"2010-08-10 03:00","2010","08","10","03:00","17.2","","17.2","","100","","","","0","","0.4","","99.96","","","","","","Fog"
"2010-08-10 04:00","2010","08","10","04:00","17.0","","17.0","","100","","20","","6","","0.0","","99.93","","","","","","Fog"
"2010-08-10 05:00","2010","08","10","05:00","17.3","","17.3","","100","","20","","6","","0.0","","99.98","","","","","","Fog"
"2010-08-10 06:00","2010","08","10","06:00","18.2","","18.2","","100","","21","","6","","0.0","","99.99","","","","","","Fog"
"2010-08-10 07:00","2010","08","10","07:00","19.3","","19.3","","100","","23","","7","","0.4","","100.00","","","","","","Fog"
"2010-08-10 08:00","2010","08","10","08:00","19.8","","19.8","","100","","24","","6","","0.4","","99.98","","","","","","Fog"
"2010-08-10 09:00","2010","08","10","09:00","20.6","","20.6","","100","","21","","9","","8.0","","99.99","","29","","","","Fog"
"2010-08-10 10:00","2010","08","10","10:00","22.0","","21.0","","94","","20","","7","","16.1","","100.00","","30","","","","Mostly Cloudy"
"2010-08-10 11:00","2010","08","10","11:00","23.4","","21.5","","89","","21","","9","","24.1","","100.01","","32","","","","Mainly Clear"
"2010-08-10 12:00","2010","08","10","12:00","24.9","","21.2","","80","","16","","7","","24.1","","99.95","","33","","","","Clear"
"2010-08-10 13:00","2010","08","10","13:00","27.2","","20.8","","68","","23","","6","","24.1","","99.89","","35","","","","Clear"
"2010-08-10 14:00","2010","08","10","14:00","28.0","","19.8","","61","","18","","7","","24.1","","99.83","","35","","","","Clear"
"2010-08-10 15:00","2010","08","10","15:00","28.3","","16.8","","50","","27","","7","","24.1","","99.81","","33","","","","Mainly Clear"
"2010-08-10 16:00","2010","08","10","16:00","27.7","","17.8","","55","","27","","4","","24.1","","99.82","","34","","","","Mostly Cloudy"
"2010-08-10 17:00","2010","08","10","17:00","25.3","","19.7","","71","","5","","13","","24.1","","99.83","","33","","","","Mostly Cloudy"
"2010-08-10 18:00","2010","08","10","18:00","24.4","","18.9","","71","","5","","15","","24.1","","99.81","","31","","","","Mainly Clear"
"2010-08-10 19:00","2010","08","10","19:00","24.0","","18.8","","73","","3","","11","","24.1","","99.85","","31","","","","Mainly Clear"
"2010-08-10 20:00","2010","08","10","20:00","23.2","","18.6","","75","","3","","7","","24.1","","99.91","","30","","","","Mainly Clear"
"2010-08-10 21:00","2010","08","10","21:00","22.1","","18.7","","81","","","","0","","24.1","","99.95","","29","","","","Mainly Clear"
"2010-08-10 22:00","2010","08","10","22:00","20.2","","18.9","","92","","11","","4","","25.0","","99.99","","27","","","","Clear"
"2010-08-10 23:00","2010","08","10","23:00","19.7","","19.2","","97","","9","","4","","25.0","","100.00","","","","","","Clear"
"2010-08-11 00:00","2010","08","11","00:00","19.5","","18.7","","95","","26","","4","","25.0","","100.00","","","","","","Clear"
"2010-08-11 01:00","2010","08","11","01:00","18.6","","18.5","","99","","28","","6","","25.0","","100.00","","","","","","Mostly Cloudy"
"2010-08-11 02:00","2010","08","11","02:00","17.9","","17.9","","100","","32","","7","","2.4","","100.00","","","","","","Fog"
"2010-08-11 03:00","2010","08","11","03:00","18.7","","18.7","","100","","26","","4","","0.6","","100.00","","","","","","Fog"
"2010-08-11 04:00","2010","08","11","04:00","17.4","","17.4","","100","","","","0","","8.0","","99.98","","","","","","Fog"
"2010-08-11 05:00","2010","08","11","05:00","17.8","","17.8","","100","","","","0","","0.8","","100.02","","","","","","Fog"
"2010-08-11 06:00","2010","08","11","06:00","18.7","","18.7","","100","","36","","7","","24.1","","100.04","","","","","","Mostly Cloudy"
"2010-08-11 07:00","2010","08","11","07:00","21.1","","19.7","","92","","33","","7","","24.1","","100.05","","28","","","","Mainly Clear"
"2010-08-11 08:00","2010","08","11","08:00","21.9","","20.8","","93","","25","","6","","24.1","","100.07","","30","","","","Clear"
"2010-08-11 09:00","2010","08","11","09:00","23.5","","20.7","","84","","26","","4","","24.1","","100.08","","32","","","","Clear"
"2010-08-11 10:00","2010","08","11","10:00","24.9","","17.2","","62","","35","","9","","24.1","","100.08","","30","","","","Mainly Clear"
"2010-08-11 11:00","2010","08","11","11:00","26.1","","15.9","","53","","33","","13","","24.1","","100.07","","31","","","","Mainly Clear"
"2010-08-11 12:00","2010","08","11","12:00","27.1","","14.8","","47","","32","","11","","24.1","","100.06","","31","","","","Mainly Clear"
"2010-08-11 13:00","2010","08","11","13:00","27.1","","12.8","","41","","34","","9","","24.1","","100.01","","30","","","","Mainly Clear"
"2010-08-11 14:00","2010","08","11","14:00","27.3","","11.7","","38","","33","","9","","24.1","","99.98","","29","","","","Mainly Clear"
"2010-08-11 15:00","2010","08","11","15:00","27.7","","12.0","","38","","36","","11","","24.1","","99.94","","30","","","","Mostly Cloudy"
"2010-08-11 16:00","2010","08","11","16:00","27.6","","11.8","","37","","36","","11","","24.1","","99.93","","30","","","","Mostly Cloudy"
"2010-08-11 17:00","2010","08","11","17:00","27.2","","11.8","","38","","36","","6","","24.1","","99.90","","29","","","","Mostly Cloudy"
"2010-08-11 18:00","2010","08","11","18:00","25.2","","17.1","","61","","9","","9","","24.1","","99.88","","31","","","","Mostly Cloudy"
"2010-08-11 19:00","2010","08","11","19:00","23.4","","17.3","","69","","10","","7","","24.1","","99.91","","29","","","","Mostly Cloudy"
"2010-08-11 20:00","2010","08","11","20:00","21.9","","17.7","","77","","10","","7","","24.1","","99.92","","28","","","","Cloudy"
"2010-08-11 21:00","2010","08","11","21:00","21.2","","16.9","","76","","11","","6","","25.0","","99.94","","26","","","","Cloudy"
"2010-08-11 22:00","2010","08","11","22:00","20.4","","17.2","","82","","8","","7","","25.0","","99.98","","26","","","","Cloudy"
"2010-08-11 23:00","2010","08","11","23:00","20.1","","17.4","","84","","5","","11","","25.0","","100.00","","26","","","","Cloudy"
"2010-08-12 00:00","2010","08","12","00:00","18.7","","17.0","","90","","8","","13","","25.0","","100.01","","","","","","Cloudy"
"2010-08-12 01:00","2010","08","12","01:00","18.1","","16.1","","88","","9","","13","","25.0","","100.01","","","","","","Cloudy"
"2010-08-12 02:00","2010","08","12","02:00","17.7","","15.6","","88","","8","","11","","25.0","","100.00","","","","","","Mostly Cloudy"
"2010-08-12 03:00","2010","08","12","03:00","17.2","","15.4","","89","","5","","11","","25.0","","99.99","","","","","","Mostly Cloudy"
"2010-08-12 04:00","2010","08","12","04:00","16.8","","14.8","","88","","5","","15","","25.0","","99.99","","","","","","Mostly Cloudy"
"2010-08-12 05:00","2010","08","12","05:00","15.9","","13.9","","88","","7","","13","","24.1","","100.02","","","","","","Mostly Cloudy"
"2010-08-12 06:00","2010","08","12","06:00","15.9","","13.7","","87","","7","","13","","24.1","","100.07","","","","","","Mostly Cloudy"
"2010-08-12 07:00","2010","08","12","07:00","17.4","","13.9","","80","","7","","19","","24.1","","100.08","","","","","","Mostly Cloudy"
"2010-08-12 08:00","2010","08","12","08:00","17.4","","13.6","","78","","7","","15","","24.1","","100.07","","","","","","Mostly Cloudy"
"2010-08-12 09:00","2010","08","12","09:00","20.1","","14.5","","70","","7","","15","","24.1","","100.10","","","","","","Mostly Cloudy"
"2010-08-12 10:00","2010","08","12","10:00","20.8","","15.0","","69","","6","","15","","24.1","","100.14","","25","","","","Mostly Cloudy"
"2010-08-12 11:00","2010","08","12","11:00","22.1","","15.0","","64","","8","","19","","24.1","","100.11","","26","","","","Mostly Cloudy"
"2010-08-12 12:00","2010","08","12","12:00","23.0","","15.6","","63","","7","","17","","24.1","","100.10","","27","","","","Mostly Cloudy"
"2010-08-12 13:00","2010","08","12","13:00","24.0","","13.6","","52","","9","","19","","24.1","","100.09","","27","","","","Mostly Cloudy"
"2010-08-12 14:00","2010","08","12","14:00","24.7","","12.9","","48","","8","","22","","24.1","","100.07","","27","","","","Mostly Cloudy"
"2010-08-12 15:00","2010","08","12","15:00","25.0","","12.1","","45","","9","","20","","24.1","","100.08","","27","","","","Mainly Clear"
"2010-08-12 16:00","2010","08","12","16:00","25.1","","13.2","","48","","9","","19","","24.1","","100.07","","28","","","","Mainly Clear"
"2010-08-12 17:00","2010","08","12","17:00","24.3","","13.0","","49","","9","","15","","24.1","","100.05","","27","","","","Clear"
"2010-08-12 18:00","2010","08","12","18:00","23.0","","13.3","","54","","9","","15","","24.1","","100.08","","26","","","","Mainly Clear"
"2010-08-12 19:00","2010","08","12","19:00","20.5","","12.6","","60","","8","","9","","24.1","","100.11","","","","","","Mainly Clear"
"2010-08-12 20:00","2010","08","12","20:00","18.6","","12.4","","67","","8","","11","","24.1","","100.14","","","","","","Mainly Clear"
"2010-08-12 21:00","2010","08","12","21:00","18.8","","12.0","","65","","7","","11","","25.0","","100.19","","","","","","Clear"
"2010-08-12 22:00","2010","08","12","22:00","18.0","","12.1","","68","","7","","13","","25.0","","100.18","","","","","","Clear"
"2010-08-12 23:00","2010","08","12","23:00","17.3","","11.2","","67","","6","","13","","25.0","","100.22","","","","","","Clear"
"2010-08-13 00:00","2010","08","13","00:00","16.1","","11.1","","72","","7","","15","","25.0","","100.22","","","","","","Clear"
"2010-08-13 01:00","2010","08","13","01:00","16.0","","10.8","","71","","5","","11","","25.0","","100.24","","","","","","Clear"
"2010-08-13 02:00","2010","08","13","02:00","15.7","","10.8","","73","","5","","13","","25.0","","100.22","","","","","","Clear"
"2010-08-13 03:00","2010","08","13","03:00","15.6","","10.6","","72","","5","","11","","25.0","","100.27","","","","","","Mainly Clear"
"2010-08-13 04:00","2010","08","13","04:00","15.7","","10.7","","72","","6","","13","","25.0","","100.25","","","","","","Mainly Clear"
"2010-08-13 05:00","2010","08","13","05:00","14.6","","10.5","","76","","5","","7","","24.1","","100.30","","","","","","Mainly Clear"
"2010-08-13 06:00","2010","08","13","06:00","15.6","","11.1","","75","","7","","11","","24.1","","100.33","","","","","","Clear"
"2010-08-13 07:00","2010","08","13","07:00","17.1","","11.6","","70","","6","","15","","24.1","","100.35","","","","","","Clear"
"2010-08-13 08:00","2010","08","13","08:00","18.1","","12.6","","70","","7","","13","","24.1","","100.41","","","","","","Clear"
"2010-08-13 09:00","2010","08","13","09:00","19.7","","13.9","","69","","6","","11","","24.1","","100.41","","","","","","Clear"
"2010-08-13 10:00","2010","08","13","10:00","21.0","","14.9","","68","","4","","4","","24.1","","100.43","","25","","","","Clear"
"2010-08-13 11:00","2010","08","13","11:00","22.6","","15.4","","64","","6","","7","","24.1","","100.40","","27","","","","Mainly Clear"
"2010-08-13 12:00","2010","08","13","12:00","24.0","","16.3","","62","","7","","6","","24.1","","100.36","","29","","","","Mainly Clear"
"2010-08-13 13:00","2010","08","13","13:00","25.0","","18.4","","67","","12","","9","","24.1","","100.36","","31","","","","Mainly Clear"
"2010-08-13 14:00","2010","08","13","14:00","25.8","","18.7","","65","","18","","6","","24.1","","100.35","","32","","","","Mainly Clear"
"2010-08-13 15:00","2010","08","13","15:00","26.0","","17.6","","60","","","","0","","24.1","","100.31","","32","","","","Mainly Clear"
"2010-08-13 16:00","2010","08","13","16:00","26.1","","18.2","","62","","10","","4","","24.1","","100.28","","32","","","","Mainly Clear"
"2010-08-13 17:00","2010","08","13","17:00","25.8","","18.6","","64","","16","","9","","24.1","","100.25","","32","","","","Mainly Clear"
"2010-08-13 18:00","2010","08","13","18:00","25.2","","19.0","","69","","14","","7","","24.1","","100.21","","32","","","","Mostly Cloudy"
"2010-08-13 19:00","2010","08","13","19:00","23.3","","19.1","","77","","14","","7","","24.1","","100.21","","30","","","","Mostly Cloudy"
"2010-08-13 20:00","2010","08","13","20:00","21.6","","19.0","","85","","12","","7","","24.1","","100.23","","28","","","","Mainly Clear"
"2010-08-13 21:00","2010","08","13","21:00","20.9","","18.9","","88","","12","","11","","24.1","","100.28","","28","","","","Mainly Clear"
"2010-08-13 22:00","2010","08","13","22:00","20.3","","18.9","","92","","13","","9","","24.1","","100.32","","27","","","","Mainly Clear"
"2010-08-13 23:00","2010","08","13","23:00","20.0","","18.9","","93","","15","","9","","24.1","","100.30","","27","","","","Mainly Clear"
"2010-08-14 00:00","2010","08","14","00:00","19.6","","18.6","","94","","14","","6","","24.1","","100.34","","","","","","Mainly Clear"
"2010-08-14 01:00","2010","08","14","01:00","19.8","","19.0","","95","","15","","9","","24.1","","100.30","","","","","","Mainly Clear"
"2010-08-14 02:00","2010","08","14","02:00","19.3","","18.5","","95","","16","","7","","25.0","","100.33","","","","","","Mainly Clear"
"2010-08-14 03:00","2010","08","14","03:00","18.4","","17.8","","96","","17","","6","","25.0","","100.38","","","","","","Mainly Clear"
"2010-08-14 04:00","2010","08","14","04:00","18.8","","17.5","","92","","17","","6","","25.0","","100.39","","","","","","Mainly Clear"
"2010-08-14 05:00","2010","08","14","05:00","17.7","","17.2","","97","","14","","7","","25.0","","100.41","","","","","","Mainly Clear"
"2010-08-14 06:00","2010","08","14","06:00","18.5","","17.7","","95","","14","","9","","24.1","","100.39","","","","","","Cloudy"
"2010-08-14 07:00","2010","08","14","07:00","19.7","","18.0","","90","","18","","11","","19.3","","100.42","","","","","","Cloudy"
"2010-08-14 08:00","2010","08","14","08:00","21.9","","18.2","","80","","17","","11","","19.3","","100.40","","28","","","","Cloudy"
"2010-08-14 09:00","2010","08","14","09:00","23.1","","17.9","","73","","17","","13","","19.3","","100.38","","29","","","","Cloudy"
"2010-08-14 10:00","2010","08","14","10:00","24.2","","17.1","","65","","17","","19","","24.1","","100.30","","30","","","","Mostly Cloudy"
"2010-08-14 11:00","2010","08","14","11:00","24.8","","17.0","","62","","18","","20","","24.1","","100.25","","30","","","","Mostly Cloudy"
"2010-08-14 12:00","2010","08","14","12:00","25.7","","17.1","","59","","17","","20","","24.1","","100.23","","31","","","","Mostly Cloudy"
"2010-08-14 13:00","2010","08","14","13:00","26.6","","16.8","","55","","16","","19","","24.1","","100.22","","32","","","","Mostly Cloudy"
"2010-08-14 14:00","2010","08","14","14:00","26.9","","17.3","","56","","19","","19","","24.1","","100.19","","32","","","","Cloudy"
"2010-08-14 15:00","2010","08","14","15:00","26.4","","16.8","","56","","20","","19","","24.1","","100.14","","32","","","","Cloudy"
"2010-08-14 16:00","2010","08","14","16:00","25.8","","17.3","","59","","19","","15","","24.1","","100.13","","31","","","","Cloudy"
"2010-08-14 17:00","2010","08","14","17:00","25.3","","17.7","","63","","20","","11","","24.1","","100.10","","31","","","","Mostly Cloudy"
"2010-08-14 18:00","2010","08","14","18:00","24.8","","18.2","","67","","18","","6","","24.1","","100.07","","31","","","","Cloudy"
"2010-08-14 19:00","2010","08","14","19:00","23.1","","18.9","","77","","15","","7","","24.1","","100.02","","30","","","","Mostly Cloudy"
"2010-08-14 20:00","2010","08","14","20:00","23.0","","18.7","","77","","18","","4","","25.0","","100.08","","30","","","","Mostly Cloudy"
"2010-08-14 21:00","2010","08","14","21:00","21.4","","18.5","","84","","13","","6","","25.0","","100.06","","28","","","","Cloudy"
"2010-08-14 22:00","2010","08","14","22:00","21.5","","18.5","","83","","13","","9","","25.0","","100.05","","28","","","","Mostly Cloudy"
"2010-08-14 23:00","2010","08","14","23:00","21.2","","17.9","","81","","14","","7","","25.0","","100.02","","27","","","","Cloudy"
"2010-08-15 00:00","2010","08","15","00:00","21.2","","17.0","","77","","15","","13","","25.0","","99.98","","26","","","","Cloudy"
"2010-08-15 01:00","2010","08","15","01:00","20.6","","16.6","","78","","14","","11","","25.0","","99.98","","26","","","","Mostly Cloudy"
"2010-08-15 02:00","2010","08","15","02:00","20.0","","16.5","","80","","16","","9","","25.0","","99.94","","25","","","","Mostly Cloudy"
"2010-08-15 03:00","2010","08","15","03:00","20.2","","16.2","","78","","16","","7","","25.0","","99.94","","25","","","","Mostly Cloudy"
"2010-08-15 04:00","2010","08","15","04:00","20.8","","16.1","","74","","19","","7","","25.0","","99.97","","25","","","","Cloudy"
"2010-08-15 05:00","2010","08","15","05:00","19.7","","16.7","","83","","15","","6","","24.1","","99.98","","","","","","Thunderstorms,Rain Showers"
"2010-08-15 06:00","2010","08","15","06:00","19.1","","17.4","","90","","18","","11","","16.1","","99.95","","","","","","Thunderstorms,Rain Showers"
"2010-08-15 07:00","2010","08","15","07:00","18.1","","18.0","","99","","17","","9","","16.1","","99.94","","","","","","Thunderstorms,Rain Showers"
"2010-08-15 08:00","2010","08","15","08:00","18.3","","17.8","","97","","9","","7","","9.7","","99.98","","","","","","Rain Showers"
"2010-08-15 09:00","2010","08","15","09:00","18.8","","18.1","","96","","15","","6","","16.1","","99.97","","","","","","Rain Showers"
"2010-08-15 10:00","2010","08","15","10:00","18.8","","18.3","","97","","15","","7","","8.0","","99.95","","","","","","Rain Showers"
"2010-08-15 11:00","2010","08","15","11:00","20.2","","18.6","","91","","18","","11","","19.3","","99.94","","27","","","","Cloudy"
"2010-08-15 12:00","2010","08","15","12:00","19.0","","18.7","","98","","31","","7","","3.2","","99.99","","","","","","Thunderstorms,Heavy Rain Showers"
"2010-08-15 13:00","2010","08","15","13:00","19.0","","19.0","","100","","17","","6","","2.4","","99.93","","","","","","Thunderstorms,Heavy Rain Showers,Fog"
"2010-08-15 14:00","2010","08","15","14:00","20.9","","19.9","","94","","16","","9","","19.3","","99.76","","28","","","","Cloudy"
"2010-08-15 15:00","2010","08","15","15:00","21.9","","20.3","","91","","16","","11","","19.3","","99.78","","30","","","","Cloudy"
"2010-08-15 16:00","2010","08","15","16:00","21.1","","20.8","","98","","18","","19","","9.7","","99.74","","29","","","","Rain,Fog"
"2010-08-15 17:00","2010","08","15","17:00","20.3","","20.0","","98","","18","","17","","16.1","","99.74","","28","","","","Cloudy"
"2010-08-15 18:00","2010","08","15","18:00","19.7","","19.7","","100","","16","","11","","9.7","","99.72","","","","","","Rain Showers,Fog"
"2010-08-15 19:00","2010","08","15","19:00","20.2","","19.9","","98","","17","","9","","16.1","","99.67","","28","","","","Cloudy"
"2010-08-15 20:00","2010","08","15","20:00","20.3","","19.9","","98","","16","","13","","16.1","","99.64","","28","","","","Cloudy"
"2010-08-15 21:00","2010","08","15","21:00","20.4","","19.9","","97","","19","","7","","19.3","","99.61","","28","","","","Cloudy"
"2010-08-15 22:00","2010","08","15","22:00","20.3","","19.9","","98","","18","","9","","19.3","","99.63","","28","","","","Cloudy"
"2010-08-15 23:00","2010","08","15","23:00","20.1","","19.7","","98","","17","","6","","19.3","","99.58","","27","","","","Cloudy"
"2010-08-16 00:00","2010","08","16","00:00","19.9","","19.7","","99","","16","","6","","19.3","","99.56","","","","","","Cloudy"
"2010-08-16 01:00","2010","08","16","01:00","19.9","","19.6","","98","","16","","7","","19.3","","99.50","","","","","","Cloudy"
"2010-08-16 02:00","2010","08","16","02:00","19.9","","19.5","","98","","16","","9","","19.3","","99.46","","","","","","Cloudy"
"2010-08-16 03:00","2010","08","16","03:00","20.1","","19.6","","97","","16","","9","","19.3","","99.45","","27","","","","Thunderstorms"
"2010-08-16 04:00","2010","08","16","04:00","19.8","","19.6","","99","","17","","6","","12.9","","99.30","","","","","","Thunderstorms,Rain Showers"
"2010-08-16 05:00","2010","08","16","05:00","20.2","","20.2","","100","","18","","7","","9.7","","99.37","","28","","","","Fog"
"2010-08-16 06:00","2010","08","16","06:00","20.8","","20.6","","99","","20","","6","","9.7","","99.38","","29","","","","Fog"
"2010-08-16 07:00","2010","08","16","07:00","21.1","","21.0","","99","","19","","7","","9.7","","99.37","","30","","","","Fog"
"2010-08-16 08:00","2010","08","16","08:00","22.2","","21.6","","96","","23","","11","","12.9","","99.45","","31","","","","Cloudy"
"2010-08-16 09:00","2010","08","16","09:00","24.3","","21.2","","83","","23","","20","","24.1","","99.45","","33","","","","Clear"
"2010-08-16 10:00","2010","08","16","10:00","25.6","","20.9","","75","","23","","19","","24.1","","99.46","","34","","","","Mainly Clear"
"2010-08-16 11:00","2010","08","16","11:00","25.7","","18.7","","65","","26","","24","","24.1","","99.47","","32","","","","Mainly Clear"
"2010-08-16 12:00","2010","08","16","12:00","26.6","","16.7","","55","","26","","26","","24.1","","99.47","","32","","","","Mainly Clear"
"2010-08-16 13:00","2010","08","16","13:00","26.8","","16.2","","52","","24","","28","","24.1","","99.46","","32","","","","Mainly Clear"
"2010-08-16 14:00","2010","08","16","14:00","25.7","","15.2","","52","","24","","26","","24.1","","99.50","","30","","","","Mostly Cloudy"
"2010-08-16 15:00","2010","08","16","15:00","24.6","","17.0","","63","","28","","11","","24.1","","99.54","","30","","","","Mainly Clear"
"2010-08-16 16:00","2010","08","16","16:00","24.9","","16.2","","58","","24","","19","","24.1","","99.57","","30","","","","Mostly Cloudy"
"2010-08-16 17:00","2010","08","16","17:00","25.0","","15.2","","55","","25","","17","","24.1","","99.59","","29","","","","Mostly Cloudy"
"2010-08-16 18:00","2010","08","16","18:00","24.4","","14.5","","54","","25","","17","","24.1","","99.61","","28","","","","Mostly Cloudy"
"2010-08-16 19:00","2010","08","16","19:00","23.2","","14.4","","58","","24","","17","","24.1","","99.67","","27","","","","Mostly Cloudy"
"2010-08-16 20:00","2010","08","16","20:00","21.8","","15.1","","66","","16","","11","","25.0","","99.76","","26","","","","Mostly Cloudy"
"2010-08-16 21:00","2010","08","16","21:00","21.1","","15.5","","70","","24","","7","","25.0","","99.83","","25","","","","Mostly Cloudy"
"2010-08-16 22:00","2010","08","16","22:00","19.4","","15.3","","77","","26","","7","","25.0","","99.88","","","","","","Mainly Clear"
"2010-08-16 23:00","2010","08","16","23:00","18.8","","14.3","","75","","25","","9","","25.0","","99.87","","","","","","Clear"
"2010-08-17 00:00","2010","08","17","00:00","18.2","","14.2","","77","","22","","9","","24.1","","99.89","","","","","","Clear"
"2010-08-17 01:00","2010","08","17","01:00","17.0","","14.2","","84","","20","","7","","25.0","","99.88","","","","","","Clear"
"2010-08-17 02:00","2010","08","17","02:00","16.4","","14.1","","86","","20","","7","","25.0","","99.90","","","","","","Mainly Clear"
"2010-08-17 03:00","2010","08","17","03:00","15.8","","14.3","","91","","19","","4","","25.0","","99.93","","","","","","Clear"
"2010-08-17 04:00","2010","08","17","04:00","15.6","","14.4","","93","","21","","4","","25.0","","99.93","","","","","","Mainly Clear"
"2010-08-17 05:00","2010","08","17","05:00","15.4","","14.3","","93","","25","","9","","24.1","","99.96","","","","","","Mainly Clear"
"2010-08-17 06:00","2010","08","17","06:00","15.7","","14.5","","93","","25","","7","","24.1","","100.00","","","","","","Clear"
"2010-08-17 07:00","2010","08","17","07:00","17.0","","15.1","","89","","22","","7","","24.1","","100.03","","","","","","Mainly Clear"
"2010-08-17 08:00","2010","08","17","08:00","19.3","","15.5","","79","","22","","6","","24.1","","100.05","","","","","","Mainly Clear"
"2010-08-17 09:00","2010","08","17","09:00","21.7","","15.0","","66","","22","","15","","24.1","","100.05","","26","","","","Mainly Clear"
"2010-08-17 10:00","2010","08","17","10:00","24.0","","14.9","","57","","22","","22","","24.1","","100.00","","28","","","","Mainly Clear"
"2010-08-17 11:00","2010","08","17","11:00","24.4","","14.7","","55","","24","","28","","24.1","","99.95","","28","","","","Mostly Cloudy"
"2010-08-17 12:00","2010","08","17","12:00","25.4","","14.1","","50","","24","","33","","24.1","","99.91","","29","","","","Mostly Cloudy"
"2010-08-17 13:00","2010","08","17","13:00","25.3","","13.4","","48","","24","","26","","24.1","","99.87","","28","","","","Mainly Clear"
"2010-08-17 14:00","2010","08","17","14:00","25.2","","12.6","","45","","23","","24","","24.1","","99.85","","28","","","","Mainly Clear"
"2010-08-17 15:00","2010","08","17","15:00","25.2","","12.4","","45","","23","","28","","24.1","","99.85","","28","","","","Mainly Clear"
"2010-08-17 16:00","2010","08","17","16:00","25.2","","14.3","","51","","23","","26","","24.1","","99.86","","29","","","","Mainly Clear"
"2010-08-17 17:00","2010","08","17","17:00","24.5","","13.2","","49","","23","","26","","24.1","","99.90","","27","","","","Mostly Cloudy"
"2010-08-17 18:00","2010","08","17","18:00","23.6","","13.0","","51","","24","","20","","24.1","","99.96","","26","","","","Mostly Cloudy"
"2010-08-17 19:00","2010","08","17","19:00","21.9","","13.6","","59","","24","","11","","24.1","","99.99","","25","","","","Mainly Clear"
"2010-08-17 20:00","2010","08","17","20:00","20.3","","11.8","","58","","24","","9","","24.1","","100.07","","","","","","Mainly Clear"
"2010-08-17 21:00","2010","08","17","21:00","19.1","","11.0","","59","","27","","13","","25.0","","100.14","","","","","","Mainly Clear"
"2010-08-17 22:00","2010","08","17","22:00","19.0","","9.9","","56","","28","","17","","25.0","","100.20","","","","","","Mainly Clear"
"2010-08-17 23:00","2010","08","17","23:00","17.8","","9.9","","60","","26","","11","","25.0","","100.25","","","","","","Mainly Clear"
"2010-08-18 00:00","2010","08","18","00:00","16.6","","10.0","","65","","29","","6","","25.0","","100.30","","","","","","Mainly Clear"
"2010-08-18 01:00","2010","08","18","01:00","16.3","","10.2","","67","","26","","4","","25.0","","100.31","","","","","","Clear"
"2010-08-18 02:00","2010","08","18","02:00","15.6","","10.5","","72","","27","","9","","25.0","","100.31","","","","","","Mainly Clear"
"2010-08-18 03:00","2010","08","18","03:00","14.3","","10.6","","78","","26","","7","","25.0","","100.33","","","","","","Mainly Clear"
"2010-08-18 04:00","2010","08","18","04:00","14.4","","10.7","","78","","23","","11","","25.0","","100.38","","","","","","Cloudy"
"2010-08-18 05:00","2010","08","18","05:00","13.5","","11.0","","85","","26","","9","","24.1","","100.43","","","","","","Mostly Cloudy"
"2010-08-18 06:00","2010","08","18","06:00","13.9","","11.5","","85","","26","","9","","24.1","","100.44","","","","","","Mostly Cloudy"
"2010-08-18 07:00","2010","08","18","07:00","15.7","","12.4","","81","","28","","13","","24.1","","100.46","","","","","","Mostly Cloudy"
"2010-08-18 08:00","2010","08","18","08:00","16.4","","12.7","","79","","29","","9","","24.1","","100.46","","","","","","Mostly Cloudy"
"2010-08-18 09:00","2010","08","18","09:00","17.9","","12.9","","73","","28","","7","","24.1","","100.44","","","","","","Mostly Cloudy"
"2010-08-18 10:00","2010","08","18","10:00","18.7","","13.1","","70","","27","","9","","24.1","","100.43","","","","","","Mostly Cloudy"
"2010-08-18 11:00","2010","08","18","11:00","20.3","","13.1","","63","","27","","11","","24.1","","100.41","","","","","","Mostly Cloudy"
"2010-08-18 12:00","2010","08","18","12:00","20.7","","13.0","","61","","24","","9","","24.1","","100.38","","","","","","Mostly Cloudy"
"2010-08-18 13:00","2010","08","18","13:00","21.9","","13.5","","59","","23","","4","","24.1","","100.35","","25","","","","Mostly Cloudy"
"2010-08-18 14:00","2010","08","18","14:00","22.8","","12.8","","53","","24","","11","","24.1","","100.31","","25","","","","Mostly Cloudy"
"2010-08-18 15:00","2010","08","18","15:00","23.4","","12.9","","52","","20","","9","","24.1","","100.26","","26","","","","Clear"
"2010-08-18 16:00","2010","08","18","16:00","23.7","","12.9","","51","","21","","15","","24.1","","100.22","","26","","","","Clear"
"2010-08-18 17:00","2010","08","18","17:00","23.0","","12.1","","50","","21","","13","","24.1","","100.19","","25","","","","Clear"
"2010-08-18 18:00","2010","08","18","18:00","22.4","","11.7","","51","","22","","15","","24.1","","100.17","","25","","","","Mainly Clear"
"2010-08-18 19:00","2010","08","18","19:00","20.2","","11.4","","57","","18","","7","","24.1","","100.10","","","","","","Mainly Clear"
"2010-08-18 20:00","2010","08","18","20:00","18.1","","12.1","","68","","18","","6","","25.0","","100.10","","","","","","Mainly Clear"
"2010-08-18 21:00","2010","08","18","21:00","17.1","","12.3","","73","","18","","4","","25.0","","100.11","","","","","","Clear"
"2010-08-18 22:00","2010","08","18","22:00","16.2","","11.9","","76","","19","","7","","25.0","","100.08","","","","","","Clear"
"2010-08-18 23:00","2010","08","18","23:00","15.3","","12.8","","85","","19","","7","","25.0","","100.06","","","","","","Clear"
"2010-08-19 00:00","2010","08","19","00:00","14.1","","12.9","","92","","23","","4","","25.0","","100.06","","","","","","Clear"
"2010-08-19 01:00","2010","08","19","01:00","14.9","","13.0","","88","","22","","6","","25.0","","100.04","","","","","","Clear"
"2010-08-19 02:00","2010","08","19","02:00","13.5","","12.5","","94","","","","0","","25.0","","100.01","","","","","","Clear"
"2010-08-19 03:00","2010","08","19","03:00","13.8","","12.7","","93","","20","","6","","25.0","","100.02","","","","","","Clear"
"2010-08-19 04:00","2010","08","19","04:00","12.7","","12.3","","97","","18","","6","","25.0","","100.01","","","","","","Clear"
"2010-08-19 05:00","2010","08","19","05:00","12.7","","12.4","","98","","18","","4","","24.1","","99.98","","","","","","Mostly Cloudy"
"2010-08-19 06:00","2010","08","19","06:00","12.7","","12.6","","99","","","","0","","24.1","","99.98","","","","","","Mostly Cloudy"
"2010-08-19 07:00","2010","08","19","07:00","14.4","","14.0","","97","","18","","7","","24.1","","99.95","","","","","","Mainly Clear"
"2010-08-19 08:00","2010","08","19","08:00","17.8","","16.2","","90","","22","","9","","24.1","","99.94","","","","","","Mainly Clear"
"2010-08-19 09:00","2010","08","19","09:00","20.9","","17.7","","82","","20","","15","","24.1","","99.84","","27","","","","Mainly Clear"
"2010-08-19 10:00","2010","08","19","10:00","22.9","","17.2","","70","","25","","7","","24.1","","99.79","","28","","","","Mainly Clear"
"2010-08-19 11:00","2010","08","19","11:00","24.7","","16.5","","60","","19","","17","","24.1","","99.74","","30","","","","Mainly Clear"
"2010-08-19 12:00","2010","08","19","12:00","25.2","","16.7","","59","","20","","17","","24.1","","99.66","","30","","","","Mostly Cloudy"
"2010-08-19 13:00","2010","08","19","13:00","26.4","","16.3","","54","","20","","22","","24.1","","99.55","","31","","","","Mostly Cloudy"
"2010-08-19 14:00","2010","08","19","14:00","25.6","","15.5","","54","","22","","17","","24.1","","99.46","","30","","","","Mostly Cloudy"
"2010-08-19 15:00","2010","08","19","15:00","18.1","","17.2","","94","","23","","11","","12.9","","99.55","","","","","","Thunderstorms,Rain Showers"
"2010-08-19 16:00","2010","08","19","16:00","19.9","","19.0","","95","","20","","24","","24.1","","99.51","","","","","","Mostly Cloudy"
"2010-08-19 17:00","2010","08","19","17:00","19.7","","17.3","","86","","23","","15","","24.1","","99.52","","","","","","Mostly Cloudy"
"2010-08-19 18:00","2010","08","19","18:00","20.0","","17.0","","83","","29","","17","","24.1","","99.59","","25","","","","Mostly Cloudy"
"2010-08-19 19:00","2010","08","19","19:00","18.7","","15.0","","79","","32","","13","","24.1","","99.66","","","","","","Mostly Cloudy"
"2010-08-19 20:00","2010","08","19","20:00","17.5","","15.3","","87","","33","","9","","25.0","","99.77","","","","","","Mostly Cloudy"
"2010-08-19 21:00","2010","08","19","21:00","15.8","","14.6","","93","","31","","9","","25.0","","99.80","","","","","","Clear"
"2010-08-19 22:00","2010","08","19","22:00","15.5","","14.2","","92","","32","","7","","25.0","","99.85","","","","","","Mainly Clear"
"2010-08-19 23:00","2010","08","19","23:00","15.6","","14.4","","93","","36","","15","","25.0","","99.91","","","","","","Mainly Clear"
"2010-08-20 00:00","2010","08","20","00:00","14.6","","12.7","","88","","36","","17","","25.0","","99.98","","","","","","Clear"
"2010-08-20 01:00","2010","08","20","01:00","13.7","","11.5","","87","","35","","15","","25.0","","100.06","","","","","","Clear"
"2010-08-20 02:00","2010","08","20","02:00","12.9","","11.0","","88","","36","","17","","25.0","","100.10","","","","","","Clear"
"2010-08-20 03:00","2010","08","20","03:00","10.8","","9.3","","90","","34","","13","","25.0","","100.16","","","","","","Clear"
"2010-08-20 04:00","2010","08","20","04:00","10.6","","9.8","","95","","33","","7","","25.0","","100.22","","","","","","Clear"
"2010-08-20 05:00","2010","08","20","05:00","9.5","","9.0","","97","","33","","9","","25.0","","100.28","","","","","","Clear"
"2010-08-20 06:00","2010","08","20","06:00","10.7","","10.0","","95","","32","","6","","24.1","","100.37","","","","","","Clear"
"2010-08-20 07:00","2010","08","20","07:00","13.1","","10.2","","83","","2","","7","","24.1","","100.43","","","","","","Clear"
"2010-08-20 08:00","2010","08","20","08:00","14.8","","9.7","","71","","9","","6","","24.1","","100.45","","","","","","Clear"
"2010-08-20 09:00","2010","08","20","09:00","15.8","","9.5","","66","","","","0","","24.1","","100.48","","","","","","Clear"
"2010-08-20 10:00","2010","08","20","10:00","16.4","","9.1","","62","","25","","7","","24.1","","100.49","","","","","","Clear"
"2010-08-20 11:00","2010","08","20","11:00","18.2","","10.0","","59","","26","","7","","24.1","","100.52","","","","","","Mainly Clear"
"2010-08-20 12:00","2010","08","20","12:00","19.5","","10.9","","58","","24","","7","","24.1","","100.50","","","","","","Mainly Clear"
"2010-08-20 13:00","2010","08","20","13:00","20.8","","10.1","","50","","30","","11","","24.1","","100.48","","","","","","Mainly Clear"
"2010-08-20 14:00","2010","08","20","14:00","20.9","","9.2","","47","","27","","4","","24.1","","100.43","","","","","","Mainly Clear"
"2010-08-20 15:00","2010","08","20","15:00","21.9","","10.9","","50","","23","","9","","24.1","","100.39","","","","","","Mostly Cloudy"
"2010-08-20 16:00","2010","08","20","16:00","21.9","","8.8","","43","","27","","11","","24.1","","100.36","","","","","","Mostly Cloudy"
"2010-08-20 17:00","2010","08","20","17:00","21.5","","9.7","","47","","26","","7","","24.1","","100.33","","","","","","Mostly Cloudy"
"2010-08-20 18:00","2010","08","20","18:00","21.5","","9.0","","45","","25","","6","","24.1","","100.29","","","","","","Mostly Cloudy"
"2010-08-20 19:00","2010","08","20","19:00","19.7","","9.8","","53","","19","","4","","24.1","","100.31","","","","","","Mostly Cloudy"
"2010-08-20 20:00","2010","08","20","20:00","18.1","","10.6","","62","","23","","6","","25.0","","100.40","","","","","","Mostly Cloudy"
"2010-08-20 21:00","2010","08","20","21:00","17.4","","11.0","","66","","21","","7","","24.1","","100.40","","","","","","Mainly Clear"
"2010-08-20 22:00","2010","08","20","22:00","15.9","","10.9","","72","","18","","6","","25.0","","100.39","","","","","","Clear"
"2010-08-20 23:00","2010","08","20","23:00","15.9","","10.6","","71","","19","","7","","25.0","","100.43","","","","","","Clear"
"2010-08-21 00:00","2010","08","21","00:00","15.1","","10.8","","75","","21","","6","","25.0","","100.43","","","","","","Mainly Clear"
"2010-08-21 01:00","2010","08","21","01:00","14.5","","10.6","","77","","9","","4","","25.0","","100.34","","","","","","Mostly Cloudy"
"2010-08-21 02:00","2010","08","21","02:00","14.0","","10.4","","79","","","","0","","25.0","","100.34","","","","","","Clear"
"2010-08-21 03:00","2010","08","21","03:00","12.7","","10.1","","84","","9","","4","","25.0","","100.33","","","","","","Clear"
"2010-08-21 04:00","2010","08","21","04:00","12.1","","10.3","","89","","9","","6","","25.0","","100.32","","","","","","Mainly Clear"
"2010-08-21 05:00","2010","08","21","05:00","13.4","","9.8","","79","","","","0","","24.1","","100.40","","","","","","Mostly Cloudy"
"2010-08-21 06:00","2010","08","21","06:00","13.8","","10.3","","79","","7","","4","","24.1","","100.39","","","","","","Cloudy"
"2010-08-21 07:00","2010","08","21","07:00","14.1","","12.1","","88","","6","","4","","24.1","","100.46","","","","","","Cloudy"
"2010-08-21 08:00","2010","08","21","08:00","14.4","","12.2","","87","","9","","6","","24.1","","100.44","","","","","","Cloudy"
"2010-08-21 09:00","2010","08","21","09:00","15.3","","12.5","","83","","7","","9","","24.1","","100.38","","","","","","Cloudy"
"2010-08-21 10:00","2010","08","21","10:00","16.3","","12.5","","78","","5","","6","","24.1","","100.43","","","","","","Cloudy"
"2010-08-21 11:00","2010","08","21","11:00","17.6","","13.2","","75","","10","","9","","24.1","","100.35","","","","","","Cloudy"
"2010-08-21 12:00","2010","08","21","12:00","18.1","","14.1","","77","","7","","15","","24.1","","100.30","","","","","","Cloudy"
"2010-08-21 13:00","2010","08","21","13:00","18.3","","14.3","","77","","6","","13","","24.1","","100.30","","","","","","Cloudy"
"2010-08-21 14:00","2010","08","21","14:00","16.2","","14.7","","91","","3","","11","","6.4","","100.34","","","","","","Rain Showers,Fog"
"2010-08-21 15:00","2010","08","21","15:00","16.2","","15.1","","93","","7","","19","","24.1","","100.10","","","","","","Cloudy"
"2010-08-21 16:00","2010","08","21","16:00","16.6","","15.0","","90","","9","","19","","19.3","","100.08","","","","","","Rain Showers"
"2010-08-21 17:00","2010","08","21","17:00","16.1","","15.3","","95","","6","","19","","19.3","","100.07","","","","","","Rain Showers"
"2010-08-21 18:00","2010","08","21","18:00","16.0","","15.0","","94","","5","","15","","24.1","","100.10","","","","","","Cloudy"
"2010-08-21 19:00","2010","08","21","19:00","14.9","","14.3","","96","","8","","15","","24.1","","100.15","","","","","","Rain Showers"
"2010-08-21 20:00","2010","08","21","20:00","14.8","","13.9","","94","","5","","13","","24.1","","100.17","","","","","","Cloudy"
"2010-08-21 21:00","2010","08","21","21:00","14.4","","13.8","","96","","5","","13","","24.1","","100.19","","","","","","Cloudy"
"2010-08-21 22:00","2010","08","21","22:00","14.5","","14.0","","97","","6","","20","","24.1","","100.12","","","","","","Cloudy"
"2010-08-21 23:00","2010","08","21","23:00","14.8","","14.3","","97","","7","","13","","24.1","","100.16","","","","","","Cloudy"
"2010-08-22 00:00","2010","08","22","00:00","14.9","","14.3","","96","","7","","19","","24.1","","100.11","","","","","","Cloudy"
"2010-08-22 01:00","2010","08","22","01:00","15.1","","14.9","","99","","7","","19","","16.1","","100.10","","","","","","Cloudy"
"2010-08-22 02:00","2010","08","22","02:00","15.0","","14.7","","98","","5","","15","","16.1","","100.06","","","","","","Cloudy"
"2010-08-22 03:00","2010","08","22","03:00","14.6","","14.2","","97","","9","","13","","19.3","","100.11","","","","","","Cloudy"
"2010-08-22 04:00","2010","08","22","04:00","14.5","","14.1","","97","","7","","11","","24.1","","100.08","","","","","","Cloudy"
"2010-08-22 05:00","2010","08","22","05:00","14.3","","13.9","","97","","7","","17","","24.1","","100.09","","","","","","Cloudy"
"2010-08-22 06:00","2010","08","22","06:00","14.5","","14.0","","97","","8","","17","","19.3","","100.15","","","","","","Cloudy"
"2010-08-22 07:00","2010","08","22","07:00","14.7","","14.2","","97","","6","","15","","19.3","","100.15","","","","","","Cloudy"
"2010-08-22 08:00","2010","08","22","08:00","15.1","","14.9","","99","","8","","15","","19.3","","100.18","","","","","","Drizzle"
"2010-08-22 09:00","2010","08","22","09:00","15.6","","15.0","","96","","7","","19","","19.3","","100.16","","","","","","Cloudy"
"2010-08-22 10:00","2010","08","22","10:00","16.1","","15.3","","95","","7","","11","","19.3","","100.20","","","","","","Cloudy"
"2010-08-22 11:00","2010","08","22","11:00","16.5","","15.5","","94","","6","","11","","19.3","","100.22","","","","","","Cloudy"
"2010-08-22 12:00","2010","08","22","12:00","16.8","","15.8","","94","","7","","11","","19.3","","100.21","","","","","","Cloudy"
"2010-08-22 13:00","2010","08","22","13:00","17.2","","16.2","","94","","7","","15","","19.3","","100.21","","","","","","Cloudy"
"2010-08-22 14:00","2010","08","22","14:00","17.3","","16.2","","93","","6","","15","","16.1","","100.19","","","","","","Cloudy"
"2010-08-22 15:00","2010","08","22","15:00","17.5","","16.3","","93","","6","","13","","16.1","","100.22","","","","","","Rain"
"2010-08-22 16:00","2010","08","22","16:00","17.4","","16.6","","95","","6","","17","","9.7","","100.24","","","","","","Rain,Fog"
"2010-08-22 17:00","2010","08","22","17:00","17.4","","17.0","","97","","6","","19","","8.0","","100.26","","","","","","Rain,Fog"
"2010-08-22 18:00","2010","08","22","18:00","17.2","","16.8","","97","","6","","22","","12.9","","100.29","","","","","","Rain"
"2010-08-22 19:00","2010","08","22","19:00","17.3","","16.8","","97","","6","","17","","16.1","","100.30","","","","","","Rain"
"2010-08-22 20:00","2010","08","22","20:00","17.3","","16.7","","96","","6","","20","","16.1","","100.32","","","","","","Rain"
"2010-08-22 21:00","2010","08","22","21:00","17.2","","16.8","","97","","7","","20","","16.1","","100.34","","","","","","Rain"
"2010-08-22 22:00","2010","08","22","22:00","16.9","","16.7","","99","","6","","19","","12.9","","100.31","","","","","","Rain"
"2010-08-22 23:00","2010","08","22","23:00","16.8","","16.7","","99","","5","","17","","12.9","","100.28","","","","","","Rain"
"2010-08-23 00:00","2010","08","23","00:00","16.9","","16.7","","99","","6","","20","","9.7","","100.30","","","","","","Rain,Fog"
"2010-08-23 01:00","2010","08","23","01:00","16.9","","16.8","","99","","6","","15","","8.0","","100.32","","","","","","Moderate Rain,Fog"
"2010-08-23 02:00","2010","08","23","02:00","17.0","","16.8","","99","","6","","17","","8.0","","100.32","","","","","","Moderate Rain,Fog"
"2010-08-23 03:00","2010","08","23","03:00","17.0","","16.8","","99","","5","","17","","6.4","","100.34","","","","","","Moderate Rain,Fog"
"2010-08-23 04:00","2010","08","23","04:00","16.7","","16.2","","97","","8","","17","","8.0","","100.39","","","","","","Moderate Rain,Fog"
"2010-08-23 05:00","2010","08","23","05:00","16.5","","16.5","","100","","5","","17","","8.0","","100.45","","","","","","Moderate Rain,Fog"
"2010-08-23 06:00","2010","08","23","06:00","16.3","","16.0","","98","","6","","22","","8.0","","100.52","","","","","","Moderate Rain,Fog"
"2010-08-23 07:00","2010","08","23","07:00","15.6","","15.5","","99","","7","","19","","8.0","","100.57","","","","","","Moderate Rain,Fog"
"2010-08-23 08:00","2010","08","23","08:00","15.6","","15.4","","99","","7","","15","","8.0","","100.66","","","","","","Moderate Rain,Fog"
"2010-08-23 09:00","2010","08","23","09:00","16.0","","15.5","","97","","4","","15","","12.9","","100.70","","","","","","Rain"
"2010-08-23 10:00","2010","08","23","10:00","17.0","","16.2","","95","","5","","19","","19.3","","100.70","","","","","","Rain"
"2010-08-23 11:00","2010","08","23","11:00","17.9","","16.4","","91","","5","","20","","24.1","","100.70","","","","","","Mostly Cloudy"
"2010-08-23 12:00","2010","08","23","12:00","19.5","","16.2","","81","","7","","24","","24.1","","100.67","","","","","","Mostly Cloudy"
"2010-08-23 13:00","2010","08","23","13:00","21.7","","16.4","","72","","7","","20","","24.1","","100.67","","27","","","","Mainly Clear"
"2010-08-23 14:00","2010","08","23","14:00","22.8","","16.4","","67","","9","","22","","24.1","","100.64","","28","","","","Mainly Clear"
"2010-08-23 15:00","2010","08","23","15:00","22.9","","15.4","","63","","7","","19","","24.1","","100.61","","27","","","","Mainly Clear"
"2010-08-23 16:00","2010","08","23","16:00","22.5","","15.5","","65","","9","","17","","24.1","","100.67","","27","","","","Mainly Clear"
"2010-08-23 17:00","2010","08","23","17:00","22.5","","15.0","","63","","7","","17","","24.1","","100.69","","26","","","","Clear"
"2010-08-23 18:00","2010","08","23","18:00","21.6","","15.2","","67","","7","","11","","24.1","","100.70","","26","","","","Clear"
"2010-08-23 19:00","2010","08","23","19:00","20.9","","15.5","","71","","6","","9","","24.1","","100.75","","25","","","","Clear"
"2010-08-23 20:00","2010","08","23","20:00","19.3","","15.6","","79","","7","","7","","25.0","","100.75","","","","","","Clear"
"2010-08-23 21:00","2010","08","23","21:00","18.0","","15.3","","84","","9","","11","","25.0","","100.75","","","","","","Clear"
"2010-08-23 22:00","2010","08","23","22:00","17.8","","15.4","","86","","8","","11","","25.0","","100.73","","","","","","Clear"
"2010-08-23 23:00","2010","08","23","23:00","17.4","","15.4","","88","","6","","9","","25.0","","100.74","","","","","","Clear"
"2010-08-24 00:00","2010","08","24","00:00","16.7","","15.1","","90","","5","","11","","25.0","","100.72","","","","","","Clear"
"2010-08-24 01:00","2010","08","24","01:00","16.1","","14.8","","92","","5","","9","","25.0","","100.72","","","","","","Clear"
"2010-08-24 02:00","2010","08","24","02:00","15.8","","14.7","","93","","5","","11","","25.0","","100.68","","","","","","Clear"
"2010-08-24 03:00","2010","08","24","03:00","16.0","","14.7","","92","","5","","11","","25.0","","100.69","","","","","","Clear"
"2010-08-24 04:00","2010","08","24","04:00","15.3","","14.4","","94","","4","","9","","25.0","","100.72","","","","","","Clear"
"2010-08-24 05:00","2010","08","24","05:00","15.0","","14.3","","96","","5","","9","","24.1","","100.73","","","","","","Mainly Clear"
"2010-08-24 06:00","2010","08","24","06:00","15.5","","14.6","","94","","5","","9","","24.1","","100.79","","","","","","Clear"
"2010-08-24 07:00","2010","08","24","07:00","16.5","","15.2","","92","","7","","11","","24.1","","100.82","","","","","","Clear"
"2010-08-24 08:00","2010","08","24","08:00","17.9","","15.7","","87","","9","","7","","24.1","","100.84","","","","","","Clear"
"2010-08-24 09:00","2010","08","24","09:00","19.5","","16.3","","82","","9","","9","","24.1","","100.83","","","","","","Clear"
"2010-08-24 10:00","2010","08","24","10:00","20.9","","16.9","","78","","5","","7","","24.1","","100.79","","26","","","","Clear"
"2010-08-24 11:00","2010","08","24","11:00","22.1","","16.8","","72","","8","","9","","24.1","","100.74","","27","","","","Mainly Clear"
"2010-08-24 12:00","2010","08","24","12:00","23.0","","16.3","","66","","6","","11","","24.1","","100.68","","28","","","","Mainly Clear"
"2010-08-24 13:00","2010","08","24","13:00","23.0","","15.9","","64","","7","","11","","24.1","","100.62","","28","","","","Mostly Cloudy"
"2010-08-24 14:00","2010","08","24","14:00","23.4","","15.6","","62","","11","","9","","24.1","","100.57","","28","","","","Mainly Clear"
"2010-08-24 15:00","2010","08","24","15:00","23.7","","15.4","","60","","9","","9","","24.1","","100.50","","28","","","","Mainly Clear"
"2010-08-24 16:00","2010","08","24","16:00","24.0","","15.5","","59","","5","","17","","24.1","","100.48","","28","","","","Mainly Clear"
"2010-08-24 17:00","2010","08","24","17:00","23.0","","14.9","","60","","7","","15","","24.1","","100.47","","27","","","","Clear"
"2010-08-24 18:00","2010","08","24","18:00","21.9","","15.0","","65","","9","","11","","24.1","","100.43","","26","","","","Clear"
"2010-08-24 19:00","2010","08","24","19:00","19.7","","14.9","","74","","9","","11","","24.1","","100.39","","","","","","Clear"
"2010-08-24 20:00","2010","08","24","20:00","18.1","","14.6","","80","","9","","7","","25.0","","100.40","","","","","","Clear"
"2010-08-24 21:00","2010","08","24","21:00","17.8","","14.5","","81","","8","","6","","25.0","","100.39","","","","","","Clear"
"2010-08-24 22:00","2010","08","24","22:00","18.1","","14.7","","81","","6","","7","","25.0","","100.36","","","","","","Clear"
"2010-08-24 23:00","2010","08","24","23:00","17.1","","14.6","","85","","4","","9","","25.0","","100.33","","","","","","Clear"
"2010-08-25 00:00","2010","08","25","00:00","17.0","","14.8","","87","","5","","11","","25.0","","100.31","","","","","","Clear"
"2010-08-25 01:00","2010","08","25","01:00","16.5","","14.8","","90","","5","","13","","25.0","","100.27","","","","","","Clear"
"2010-08-25 02:00","2010","08","25","02:00","15.9","","14.7","","93","","6","","9","","25.0","","100.24","","","","","","Mainly Clear"
"2010-08-25 03:00","2010","08","25","03:00","15.1","","14.6","","97","","8","","7","","25.0","","100.21","","","","","","Mostly Cloudy"
"2010-08-25 04:00","2010","08","25","04:00","15.2","","14.6","","96","","9","","7","","25.0","","100.18","","","","","","Mostly Cloudy"
"2010-08-25 05:00","2010","08","25","05:00","14.7","","14.3","","97","","6","","6","","24.1","","100.15","","","","","","Mostly Cloudy"
"2010-08-25 06:00","2010","08","25","06:00","15.1","","14.7","","97","","9","","4","","24.1","","100.17","","","","","","Mostly Cloudy"
"2010-08-25 07:00","2010","08","25","07:00","15.8","","15.0","","95","","8","","4","","24.1","","100.17","","","","","","Mostly Cloudy"
"2010-08-25 08:00","2010","08","25","08:00","16.9","","15.4","","91","","","","0","","24.1","","100.13","","","","","","Mostly Cloudy"
"2010-08-25 09:00","2010","08","25","09:00","18.4","","16.4","","88","","9","","6","","24.1","","100.08","","","","","","Mostly Cloudy"
"2010-08-25 10:00","2010","08","25","10:00","19.4","","17.0","","86","","6","","4","","24.1","","100.09","","","","","","Mostly Cloudy"
"2010-08-25 11:00","2010","08","25","11:00","20.4","","17.2","","82","","5","","6","","24.1","","100.04","","26","","","","Mainly Clear"
"2010-08-25 12:00","2010","08","25","12:00","23.2","","18.7","","76","","17","","7","","24.1","","99.96","","30","","","","Mainly Clear"
"2010-08-25 13:00","2010","08","25","13:00","23.7","","18.1","","71","","11","","7","","24.1","","99.90","","30","","","","Mostly Cloudy"
"2010-08-25 14:00","2010","08","25","14:00","23.3","","17.6","","70","","11","","9","","24.1","","99.86","","29","","","","Mostly Cloudy"
"2010-08-25 15:00","2010","08","25","15:00","22.8","","18.1","","75","","9","","9","","24.1","","99.80","","29","","","","Mostly Cloudy"
"2010-08-25 16:00","2010","08","25","16:00","22.2","","18.4","","79","","9","","7","","24.1","","99.77","","29","","","","Mostly Cloudy"
"2010-08-25 17:00","2010","08","25","17:00","22.3","","18.6","","80","","14","","6","","24.1","","99.76","","29","","","","Mostly Cloudy"
"2010-08-25 18:00","2010","08","25","18:00","20.5","","18.5","","88","","27","","7","","24.1","","99.76","","27","","","","Rain Showers"
"2010-08-25 19:00","2010","08","25","19:00","19.5","","18.7","","95","","16","","6","","24.1","","99.75","","","","","","Mostly Cloudy"
"2010-08-25 20:00","2010","08","25","20:00","19.5","","18.5","","94","","","","0","","25.0","","99.78","","","","","","Mostly Cloudy"
"2010-08-25 21:00","2010","08","25","21:00","19.5","","18.4","","93","","22","","6","","25.0","","99.80","","","","","","Mostly Cloudy"
"2010-08-25 22:00","2010","08","25","22:00","18.4","","17.9","","97","","25","","7","","16.1","","99.77","","","","","","Mostly Cloudy"
"2010-08-25 23:00","2010","08","25","23:00","17.9","","17.5","","98","","27","","9","","16.1","","99.74","","","","","","Mostly Cloudy"
"2010-08-26 00:00","2010","08","26","00:00","17.7","","17.5","","99","","27","","7","","16.1","","99.74","","","","","","Mostly Cloudy"
"2010-08-26 01:00","2010","08","26","01:00","17.7","","17.7","","100","","26","","6","","6.4","","99.72","","","","","","Fog"
"2010-08-26 02:00","2010","08","26","02:00","18.0","","18.0","","100","","29","","6","","6.4","","99.74","","","","","","Fog"
"2010-08-26 03:00","2010","08","26","03:00","17.3","","17.3","","100","","27","","7","","1.6","","99.74","","","","","","Fog"
"2010-08-26 04:00","2010","08","26","04:00","17.0","","17.0","","100","","31","","13","","12.9","","99.74","","","","","","Mostly Cloudy"
"2010-08-26 05:00","2010","08","26","05:00","15.6","","15.3","","98","","27","","9","","16.1","","99.79","","","","","","Mainly Clear"
"2010-08-26 06:00","2010","08","26","06:00","15.1","","14.7","","97","","27","","15","","16.1","","99.84","","","","","","Mainly Clear"
"2010-08-26 07:00","2010","08","26","07:00","16.1","","15.2","","94","","30","","9","","24.1","","99.83","","","","","","Mostly Cloudy"
"2010-08-26 08:00","2010","08","26","08:00","16.8","","15.4","","91","","29","","15","","24.1","","99.89","","","","","","Mostly Cloudy"
"2010-08-26 09:00","2010","08","26","09:00","17.2","","15.3","","89","","30","","19","","24.1","","99.94","","","","","","Mostly Cloudy"
"2010-08-26 10:00","2010","08","26","10:00","18.4","","14.5","","78","","29","","19","","24.1","","99.97","","","","","","Mostly Cloudy"
"2010-08-26 11:00","2010","08","26","11:00","18.9","","14.3","","75","","28","","24","","24.1","","99.99","","","","","","Mostly Cloudy"
"2010-08-26 12:00","2010","08","26","12:00","19.1","","16.8","","87","","28","","22","","24.1","","99.99","","","","","","Mostly Cloudy"
"2010-08-26 13:00","2010","08","26","13:00","18.5","","14.6","","78","","30","","28","","24.1","","100.03","","","","","","Mostly Cloudy"
"2010-08-26 14:00","2010","08","26","14:00","19.4","","13.0","","66","","31","","28","","24.1","","100.06","","","","","","Mostly Cloudy"
"2010-08-26 15:00","2010","08","26","15:00","18.9","","12.3","","66","","30","","26","","24.1","","100.09","","","","","","Mainly Clear"
"2010-08-26 16:00","2010","08","26","16:00","19.6","","12.6","","64","","30","","28","","24.1","","100.13","","","","","","Mainly Clear"
"2010-08-26 17:00","2010","08","26","17:00","18.7","","12.4","","67","","28","","20","","24.1","","100.18","","","","","","Mostly Cloudy"
"2010-08-26 18:00","2010","08","26","18:00","18.0","","12.3","","69","","30","","20","","24.1","","100.23","","","","","","Mostly Cloudy"
"2010-08-26 19:00","2010","08","26","19:00","16.4","","12.3","","77","","27","","17","","24.1","","100.30","","","","","","Mostly Cloudy"
"2010-08-26 20:00","2010","08","26","20:00","15.6","","12.8","","83","","29","","13","","24.1","","100.38","","","","","","Mainly Clear"
"2010-08-26 21:00","2010","08","26","21:00","15.0","","12.4","","84","","30","","15","","25.0","","100.43","","","","","","Mainly Clear"
"2010-08-26 22:00","2010","08","26","22:00","14.1","","11.6","","85","","30","","15","","25.0","","100.48","","","","","","Mainly Clear"
"2010-08-26 23:00","2010","08","26","23:00","13.4","","11.7","","89","","25","","7","","25.0","","100.48","","","","","","Clear"
"2010-08-27 00:00","2010","08","27","00:00","12.1","","11.1","","94","","28","","7","","25.0","","100.50","","","","","","Clear"
"2010-08-27 01:00","2010","08","27","01:00","11.6","","11.0","","96","","29","","9","","25.0","","100.48","","","","","","Clear"
"2010-08-27 02:00","2010","08","27","02:00","10.9","","10.6","","98","","27","","9","","25.0","","100.53","","","","","","Clear"
"2010-08-27 03:00","2010","08","27","03:00","10.5","","10.1","","97","","26","","7","","25.0","","100.56","","","","","","Clear"
"2010-08-27 04:00","2010","08","27","04:00","10.1","","9.8","","98","","23","","7","","25.0","","100.58","","","","","","Clear"
"2010-08-27 05:00","2010","08","27","05:00","9.8","","9.6","","99","","24","","6","","24.1","","100.62","","","","","","Mainly Clear"
"2010-08-27 06:00","2010","08","27","06:00","10.4","","9.8","","96","","24","","4","","24.1","","100.65","","","","","","Clear"
"2010-08-27 07:00","2010","08","27","07:00","11.8","","11.0","","95","","24","","6","","24.1","","100.67","","","","","","Clear"
"2010-08-27 08:00","2010","08","27","08:00","14.6","","11.3","","81","","27","","11","","24.1","","100.70","","","","","","Mainly Clear"
"2010-08-27 09:00","2010","08","27","09:00","16.8","","11.8","","72","","27","","7","","24.1","","100.71","","","","","","Mostly Cloudy"
"2010-08-27 10:00","2010","08","27","10:00","18.5","","11.7","","65","","23","","9","","24.1","","100.70","","","","","","Mostly Cloudy"
"2010-08-27 11:00","2010","08","27","11:00","19.9","","10.8","","56","","25","","11","","24.1","","100.67","","","","","","Mostly Cloudy"
"2010-08-27 12:00","2010","08","27","12:00","20.4","","10.2","","52","","26","","11","","24.1","","100.63","","","","","","Mostly Cloudy"
"2010-08-27 13:00","2010","08","27","13:00","21.2","","10.2","","49","","25","","11","","24.1","","100.57","","","","","","Mainly Clear"
"2010-08-27 14:00","2010","08","27","14:00","22.3","","10.8","","48","","27","","11","","24.1","","100.51","","","","","","Mainly Clear"
"2010-08-27 15:00","2010","08","27","15:00","21.4","","11.2","","52","","25","","7","","24.1","","100.46","","","","","","Mostly Cloudy"
"2010-08-27 16:00","2010","08","27","16:00","22.0","","12.3","","54","","22","","11","","24.1","","100.41","","","","","","Mainly Clear"
"2010-08-27 17:00","2010","08","27","17:00","21.9","","12.8","","56","","23","","13","","24.1","","100.39","","25","","","","Mainly Clear"
"2010-08-27 18:00","2010","08","27","18:00","21.3","","12.9","","59","","23","","13","","24.1","","100.37","","","","","","Mostly Cloudy"
"2010-08-27 19:00","2010","08","27","19:00","19.2","","12.5","","65","","20","","9","","24.1","","100.41","","","","","","Mostly Cloudy"
"2010-08-27 20:00","2010","08","27","20:00","17.5","","13.6","","78","","19","","7","","25.0","","100.45","","","","","","Mostly Cloudy"
"2010-08-27 21:00","2010","08","27","21:00","16.7","","13.6","","82","","21","","9","","25.0","","100.47","","","","","","Mostly Cloudy"
"2010-08-27 22:00","2010","08","27","22:00","15.7","","13.4","","86","","20","","9","","25.0","","100.48","","","","","","Mainly Clear"
"2010-08-27 23:00","2010","08","27","23:00","15.7","","13.0","","84","","23","","13","","25.0","","100.50","","","","","","Mainly Clear"
"2010-08-28 00:00","2010","08","28","00:00","14.8","","12.8","","88","","23","","7","","25.0","","100.54","","","","","","Mainly Clear"
"2010-08-28 01:00","2010","08","28","01:00","14.2","","12.6","","90","","22","","11","","25.0","","100.53","","","","","","Mainly Clear"
"2010-08-28 02:00","2010","08","28","02:00","13.8","","12.5","","92","","23","","11","","25.0","","100.54","","","","","","Mainly Clear"
"2010-08-28 03:00","2010","08","28","03:00","13.7","","12.5","","92","","22","","6","","24.1","","100.58","","","","","","Mainly Clear"
"2010-08-28 04:00","2010","08","28","04:00","13.3","","12.3","","94","","19","","7","","24.1","","100.64","","","","","","Mainly Clear"
"2010-08-28 05:00","2010","08","28","05:00","12.3","","12.0","","98","","18","","9","","24.1","","100.68","","","","","","Mainly Clear"
"2010-08-28 06:00","2010","08","28","06:00","12.6","","12.2","","97","","19","","7","","24.1","","100.73","","","","","","Mainly Clear"
"2010-08-28 07:00","2010","08","28","07:00","14.8","","13.6","","93","","21","","9","","24.1","","100.74","","","","","","Mainly Clear"
"2010-08-28 08:00","2010","08","28","08:00","17.8","","14.2","","79","","22","","9","","24.1","","100.74","","","","","","Mainly Clear"
"2010-08-28 09:00","2010","08","28","09:00","19.5","","14.8","","74","","23","","15","","24.1","","100.75","","","","","","Mostly Cloudy"
"2010-08-28 10:00","2010","08","28","10:00","22.0","","15.2","","65","","22","","11","","24.1","","100.71","","26","","","","Mostly Cloudy"
"2010-08-28 11:00","2010","08","28","11:00","23.8","","15.8","","61","","22","","13","","24.1","","100.66","","28","","","","Mostly Cloudy"
"2010-08-28 12:00","2010","08","28","12:00","24.9","","16.4","","59","","23","","17","","24.1","","100.60","","30","","","","Mostly Cloudy"
"2010-08-28 13:00","2010","08","28","13:00","25.7","","16.7","","58","","22","","15","","24.1","","100.54","","31","","","","Mostly Cloudy"
"2010-08-28 14:00","2010","08","28","14:00","27.3","","17.2","","54","","23","","19","","24.1","","100.47","","33","","","","Mostly Cloudy"
"2010-08-28 15:00","2010","08","28","15:00","27.8","","17.2","","53","","22","","22","","24.1","","100.41","","33","","","","Mostly Cloudy"
"2010-08-28 16:00","2010","08","28","16:00","27.7","","17.4","","53","","22","","19","","24.1","","100.38","","33","","","","Mostly Cloudy"
"2010-08-28 17:00","2010","08","28","17:00","26.8","","18.5","","60","","21","","19","","24.1","","100.35","","33","","","","Mainly Clear"
"2010-08-28 18:00","2010","08","28","18:00","25.5","","18.3","","64","","22","","19","","24.1","","100.30","","32","","","","Clear"
"2010-08-28 19:00","2010","08","28","19:00","24.0","","17.9","","69","","21","","17","","24.1","","100.34","","30","","","","Mainly Clear"
"2010-08-28 20:00","2010","08","28","20:00","23.0","","17.3","","70","","21","","19","","25.0","","100.40","","28","","","","Mainly Clear"
"2010-08-28 21:00","2010","08","28","21:00","22.1","","17.2","","74","","22","","17","","25.0","","100.45","","28","","","","Mainly Clear"
"2010-08-28 22:00","2010","08","28","22:00","21.6","","17.3","","77","","23","","19","","25.0","","100.50","","27","","","","Mainly Clear"
"2010-08-28 23:00","2010","08","28","23:00","20.8","","17.6","","82","","23","","17","","25.0","","100.51","","27","","","","Mainly Clear"
"2010-08-29 00:00","2010","08","29","00:00","19.7","","17.7","","88","","23","","13","","25.0","","100.56","","","","","","Clear"
"2010-08-29 01:00","2010","08","29","01:00","18.8","","17.7","","93","","25","","11","","24.1","","100.60","","","","","","Clear"
"2010-08-29 02:00","2010","08","29","02:00","18.8","","17.7","","93","","23","","9","","24.1","","100.63","","","","","","Clear"
"2010-08-29 03:00","2010","08","29","03:00","18.3","","17.5","","95","","22","","11","","24.1","","100.67","","","","","","Clear"
"2010-08-29 04:00","2010","08","29","04:00","17.9","","17.3","","96","","22","","9","","24.1","","100.69","","","","","","Clear"
"2010-08-29 05:00","2010","08","29","05:00","17.1","","16.8","","98","","22","","7","","16.1","","100.73","","","","","","Mainly Clear"
"2010-08-29 06:00","2010","08","29","06:00","16.8","","16.4","","97","","20","","9","","19.3","","100.80","","","","","","Mainly Clear"
"2010-08-29 07:00","2010","08","29","07:00","18.3","","17.3","","94","","21","","6","","19.3","","100.84","","","","","","Mainly Clear"
"2010-08-29 08:00","2010","08","29","08:00","21.1","","18.3","","84","","22","","11","","19.3","","100.85","","27","","","","Mainly Clear"
"2010-08-29 09:00","2010","08","29","09:00","23.6","","18.6","","74","","24","","11","","24.1","","100.85","","30","","","","Mainly Clear"
"2010-08-29 10:00","2010","08","29","10:00","25.2","","19.4","","70","","24","","9","","24.1","","100.83","","32","","","","Mainly Clear"
"2010-08-29 11:00","2010","08","29","11:00","26.8","","19.5","","64","","25","","11","","24.1","","100.81","","34","","","","Mainly Clear"
"2010-08-29 12:00","2010","08","29","12:00","28.0","","18.8","","57","","26","","9","","24.1","","100.75","","35","","","","Mainly Clear"
"2010-08-29 13:00","2010","08","29","13:00","28.8","","18.8","","55","","25","","17","","24.1","","100.70","","35","","","","Mainly Clear"
"2010-08-29 14:00","2010","08","29","14:00","29.6","","19.4","","54","","22","","11","","24.1","","100.65","","37","","","","Mainly Clear"
"2010-08-29 15:00","2010","08","29","15:00","30.3","","15.7","","41","","24","","17","","24.1","","100.60","","35","","","","Mainly Clear"
"2010-08-29 16:00","2010","08","29","16:00","30.1","","17.0","","45","","25","","17","","24.1","","100.58","","35","","","","Mainly Clear"
"2010-08-29 17:00","2010","08","29","17:00","29.3","","18.2","","51","","24","","13","","24.1","","100.58","","35","","","","Mainly Clear"
"2010-08-29 18:00","2010","08","29","18:00","28.3","","17.1","","51","","23","","13","","24.1","","100.57","","34","","","","Mostly Cloudy"
"2010-08-29 19:00","2010","08","29","19:00","25.7","","17.6","","61","","22","","7","","25.0","","100.60","","31","","","","Mainly Clear"
"2010-08-29 20:00","2010","08","29","20:00","23.1","","19.0","","78","","21","","9","","25.0","","100.63","","30","","","","Clear"
"2010-08-29 21:00","2010","08","29","21:00","21.7","","18.7","","83","","19","","9","","25.0","","100.66","","28","","","","Clear"
"2010-08-29 22:00","2010","08","29","22:00","20.5","","18.4","","88","","20","","9","","24.1","","100.71","","27","","","","Clear"
"2010-08-29 23:00","2010","08","29","23:00","20.3","","18.3","","88","","22","","11","","25.0","","100.73","","27","","","","Clear"
"2010-08-30 00:00","2010","08","30","00:00","19.7","","17.5","","87","","24","","7","","25.0","","100.76","","","","","","Clear"
"2010-08-30 01:00","2010","08","30","01:00","19.1","","16.5","","85","","22","","11","","24.1","","100.79","","","","","","Clear"
"2010-08-30 02:00","2010","08","30","02:00","18.0","","16.0","","88","","23","","9","","24.1","","100.80","","","","","","Clear"
"2010-08-30 03:00","2010","08","30","03:00","16.6","","15.5","","93","","","","0","","25.0","","100.84","","","","","","Clear"
"2010-08-30 04:00","2010","08","30","04:00","16.3","","15.3","","94","","20","","7","","25.0","","100.86","","","","","","Clear"
"2010-08-30 05:00","2010","08","30","05:00","16.0","","14.9","","93","","22","","9","","24.1","","100.88","","","","","","Clear"
"2010-08-30 06:00","2010","08","30","06:00","16.6","","15.2","","91","","","","0","","24.1","","100.93","","","","","","Mainly Clear"
"2010-08-30 07:00","2010","08","30","07:00","17.7","","15.8","","89","","23","","7","","24.1","","100.95","","","","","","Mainly Clear"
"2010-08-30 08:00","2010","08","30","08:00","19.4","","16.1","","81","","25","","7","","24.1","","100.98","","","","","","Mainly Clear"
"2010-08-30 09:00","2010","08","30","09:00","22.1","","17.2","","74","","24","","7","","24.1","","100.94","","28","","","","Mainly Clear"
"2010-08-30 10:00","2010","08","30","10:00","24.7","","18.3","","68","","23","","6","","24.1","","100.89","","31","","","","Mainly Clear"
"2010-08-30 11:00","2010","08","30","11:00","27.4","","19.2","","61","","23","","7","","24.1","","100.83","","34","","","","Mainly Clear"
"2010-08-30 12:00","2010","08","30","12:00","29.2","","20.2","","58","","25","","15","","24.1","","100.78","","37","","","","Mainly Clear"
"2010-08-30 13:00","2010","08","30","13:00","30.1","","21.0","","58","","27","","9","","24.1","","100.71","","39","","","","Mainly Clear"
"2010-08-30 14:00","2010","08","30","14:00","31.0","","22.0","","59","","24","","11","","24.1","","100.65","","40","","","","Mainly Clear"
"2010-08-30 15:00","2010","08","30","15:00","31.2","","22.9","","61","","23","","11","","24.1","","100.59","","41","","","","Mainly Clear"
"2010-08-30 16:00","2010","08","30","16:00","31.6","","22.9","","60","","25","","9","","24.1","","100.56","","42","","","","Mainly Clear"
"2010-08-30 17:00","2010","08","30","17:00","31.4","","22.0","","58","","26","","11","","24.1","","100.51","","41","","","","Mostly Cloudy"
"2010-08-30 18:00","2010","08","30","18:00","30.1","","21.7","","61","","27","","7","","24.1","","100.48","","39","","","","Mainly Clear"
"2010-08-30 19:00","2010","08","30","19:00","26.9","","21.1","","71","","24","","9","","24.1","","100.52","","35","","","","Mainly Clear"
"2010-08-30 20:00","2010","08","30","20:00","25.6","","19.3","","68","","23","","4","","25.0","","100.53","","33","","","","Clear"
"2010-08-30 21:00","2010","08","30","21:00","23.9","","19.4","","76","","21","","9","","25.0","","100.53","","31","","","","Clear"
"2010-08-30 22:00","2010","08","30","22:00","23.7","","19.6","","78","","24","","9","","24.1","","100.54","","31","","","","Clear"
"2010-08-30 23:00","2010","08","30","23:00","23.0","","19.9","","83","","22","","9","","25.0","","100.54","","30","","","","Clear"
"2010-08-31 00:00","2010","08","31","00:00","22.3","","20.0","","87","","24","","11","","25.0","","100.55","","30","","","","Clear"
"2010-08-31 01:00","2010","08","31","01:00","23.1","","20.0","","83","","26","","11","","25.0","","100.54","","31","","","","Clear"
"2010-08-31 02:00","2010","08","31","02:00","21.9","","19.9","","88","","23","","9","","24.1","","100.55","","29","","","","Clear"
"2010-08-31 03:00","2010","08","31","03:00","21.2","","19.7","","91","","22","","9","","24.1","","100.57","","29","","","","Clear"
"2010-08-31 04:00","2010","08","31","04:00","20.3","","19.0","","92","","26","","9","","25.0","","100.59","","27","","","","Clear"
"2010-08-31 05:00","2010","08","31","05:00","20.0","","19.0","","94","","25","","7","","16.1","","100.61","","27","","","","Clear"
"2010-08-31 06:00","2010","08","31","06:00","20.2","","19.0","","93","","22","","7","","19.3","","100.67","","27","","","","Clear"
"2010-08-31 07:00","2010","08","31","07:00","21.5","","19.7","","89","","23","","7","","24.1","","100.67","","29","","","","Clear"
"2010-08-31 08:00","2010","08","31","08:00","24.0","","20.9","","83","","25","","13","","24.1","","100.66","","32","","","","Clear"
"2010-08-31 09:00","2010","08","31","09:00","25.9","","21.2","","75","","26","","13","","24.1","","100.64","","34","","","","Clear"
"2010-08-31 10:00","2010","08","31","10:00","28.0","","21.7","","69","","25","","11","","24.1","","100.62","","37","","","","Clear"
"2010-08-31 11:00","2010","08","31","11:00","29.5","","21.7","","63","","26","","13","","24.1","","100.57","","39","","","","Clear"
"2010-08-31 12:00","2010","08","31","12:00","30.7","","22.0","","60","","26","","11","","24.1","","100.49","","40","","","","Clear"
"2010-08-31 13:00","2010","08","31","13:00","31.7","","21.8","","56","","24","","13","","24.1","","100.41","","41","","","","Mainly Clear"
"2010-08-31 14:00","2010","08","31","14:00","32.0","","22.2","","56","","22","","13","","24.1","","100.33","","42","","","","Mainly Clear"
"2010-08-31 15:00","2010","08","31","15:00","31.6","","22.1","","57","","23","","20","","24.1","","100.27","","41","","","","Mostly Cloudy"
"2010-08-31 16:00","2010","08","31","16:00","30.9","","22.6","","61","","20","","13","","24.1","","100.25","","41","","","","Mostly Cloudy"
"2010-08-31 17:00","2010","08","31","17:00","30.4","","21.6","","59","","22","","19","","24.1","","100.22","","39","","","","Clear"
"2010-08-31 18:00","2010","08","31","18:00","28.8","","21.7","","66","","21","","15","","24.1","","100.21","","38","","","","Mainly Clear"
"2010-08-31 19:00","2010","08","31","19:00","27.2","","22.4","","75","","21","","13","","16.1","","100.24","","37","","","","Mainly Clear"
"2010-08-31 20:00","2010","08","31","20:00","26.0","","22.2","","80","","24","","13","","12.9","","100.29","","36","","","","Mainly Clear"
"2010-08-31 21:00","2010","08","31","21:00","25.4","","22.1","","82","","22","","7","","12.9","","100.30","","35","","","","Mainly Clear"
"2010-08-31 22:00","2010","08","31","22:00","24.9","","21.8","","83","","19","","9","","12.9","","100.28","","34","","","","Mostly Cloudy"
"2010-08-31 23:00","2010","08","31","23:00","24.3","","21.3","","83","","20","","7","","12.9","","100.26","","33","","","","Mostly Cloudy"
