"Station Name","OTTAWA MACDONALD-CARTIER INT'L A"
"Province","ONTARIO"
"Latitude","45.32"
"Longitude","-75.67"
"Elevation","114.00"
"Climate Identifier","6106000"
"WMO Identifier","71628"
"TC Identifier","YOW"
"All times are specified in Local Standard Time (LST). Add 1 hour to adjust for Daylight Saving Time where and when it is observed."

"Legend"
"E","Estimated"
"M","Missing"
"NA","Not Available"

"Date/Time","Year","Month","Day","Time","Temp (°C)","Temp Flag","Dew Point Temp (°C)","Dew Point Temp Flag","Rel Hum (%)","Rel Hum Flag","Wind Dir (10s deg)","Wind Dir Flag","Wind Spd (km/h)","Wind Spd Flag","Visibility (km)","Visibility Flag","Stn Press (kPa)","Stn Press Flag","Hmdx","Hmdx Flag","Wind Chill","Wind Chill Flag","Weather"
"2009-03-01 00:00","2009","03","01","00:00","-14.2","","-19.8","","62","","3","","9","","25.0","","101.36","","","","-20","","Clear"
"2009-03-01 01:00","2009","03","01","01:00","-14.9","","-20.1","","64","","6","","9","","25.0","","101.29","","","","-21","","Clear"
"2009-03-01 02:00","2009","03","01","02:00","-15.3","","-20.7","","63","","5","","7","","25.0","","101.27","","","","-20","","Clear"
"2009-03-01 03:00","2009","03","01","03:00","-15.7","","-21.0","","64","","4","","6","","25.0","","101.24","","","","-20","","Clear"
"2009-03-01 04:00","2009","03","01","04:00","-15.9","","-21.3","","63","","5","","9","","25.0","","101.21","","","","-22","","Clear"
"2009-03-01 05:00","2009","03","01","05:00","-16.0","","-21.0","","65","","4","","13","","25.0","","101.20","","","","-24","","Clear"
"2009-03-01 06:00","2009","03","01","06:00","-16.5","","-21.4","","66","","4","","11","","25.0","","101.14","","","","-23","","Clear"
"2009-03-01 07:00","2009","03","01","07:00","-16.7","","-21.8","","65","","4","","11","","24.1","","101.06","","","","-24","","Clear"
"2009-03-01 08:00","2009","03","01","08:00","-15.8","","-21.1","","64","","3","","9","","24.1","","101.11","","","","-22","","Clear"
"2009-03-01 09:00","2009","03","01","09:00","-13.4","","-19.5","","60","","4","","11","","24.1","","101.16","","","","-20","","Clear"
"2009-03-01 10:00","2009","03","01","10:00","-12.1","","-19.7","","53","","9","","13","","24.1","","101.12","","","","-19","","Clear"
"2009-03-01 11:00","2009","03","01","11:00","-11.1","","-18.8","","53","","7","","6","","24.1","","101.09","","","","-15","","Clear"
"2009-03-01 12:00","2009","03","01","12:00","-10.2","","-18.5","","51","","36","","7","","24.1","","101.05","","","","-14","","Clear"
"2009-03-01 13:00","2009","03","01","13:00","-9.3","","-18.8","","46","","36","","6","","24.1","","100.98","","","","-13","","Mainly Clear"
"2009-03-01 14:00","2009","03","01","14:00","-7.8","","-16.5","","50","","30","","9","","24.1","","100.94","","","","-12","","Mainly Clear"
"2009-03-01 15:00","2009","03","01","15:00","-6.7","","-15.6","","49","","33","","13","","24.1","","100.86","","","","-12","","Mainly Clear"
"2009-03-01 16:00","2009","03","01","16:00","-6.4","","-16.0","","46","","28","","13","","24.1","","100.93","","","","-12","","Mainly Clear"
"2009-03-01 17:00","2009","03","01","17:00","-6.2","","-16.4","","44","","29","","15","","24.1","","101.00","","","","-12","","Mainly Clear"
"2009-03-01 18:00","2009","03","01","18:00","-7.3","","-17.3","","45","","29","","20","","24.1","","101.01","","","","-14","","Mainly Clear"
"2009-03-01 19:00","2009","03","01","19:00","-7.8","","-17.0","","48","","30","","13","","25.0","","101.05","","","","-14","","Mainly Clear"
"2009-03-01 20:00","2009","03","01","20:00","-7.9","","-15.9","","53","","31","","11","","25.0","","101.07","","","","-13","","Mostly Cloudy"
"2009-03-01 21:00","2009","03","01","21:00","-8.1","","-18.2","","44","","34","","19","","25.0","","101.11","","","","-15","","Mostly Cloudy"
"2009-03-01 22:00","2009","03","01","22:00","-9.3","","-16.6","","55","","36","","20","","25.0","","101.12","","","","-17","","Mostly Cloudy"
"2009-03-01 23:00","2009","03","01","23:00","-9.9","","-16.5","","58","","35","","26","","25.0","","101.17","","","","-19","","Mostly Cloudy"
"2009-03-02 00:00","2009","03","02","00:00","-10.4","","-17.4","","56","","36","","20","","25.0","","101.30","","","","-18","","Cloudy"
"2009-03-02 01:00","2009","03","02","01:00","-11.3","","-19.1","","52","","36","","24","","25.0","","101.26","","","","-20","","Mostly Cloudy"
"2009-03-02 02:00","2009","03","02","02:00","-12.0","","-20.0","","51","","35","","24","","25.0","","101.28","","","","-21","","Mainly Clear"
"2009-03-02 03:00","2009","03","02","03:00","-12.7","","-20.8","","51","","36","","26","","25.0","","101.29","","","","-22","","Mainly Clear"
"2009-03-02 04:00","2009","03","02","04:00","-13.3","","-20.7","","54","","35","","28","","25.0","","101.21","","","","-24","","Mostly Cloudy"
"2009-03-02 05:00","2009","03","02","05:00","-13.9","","-20.8","","56","","35","","24","","25.0","","101.24","","","","-24","","Cloudy"
"2009-03-02 06:00","2009","03","02","06:00","-14.7","","-21.5","","56","","34","","24","","25.0","","101.31","","","","-25","","Mostly Cloudy"
"2009-03-02 07:00","2009","03","02","07:00","-15.5","","-21.7","","59","","34","","28","","24.1","","101.21","","","","-26","","Mainly Clear"
"2009-03-02 08:00","2009","03","02","08:00","-15.5","","-22.7","","54","","35","","24","","24.1","","101.28","","","","-26","","Mainly Clear"
"2009-03-02 09:00","2009","03","02","09:00","-15.1","","-23.2","","50","","36","","24","","24.1","","101.31","","","","-25","","Mainly Clear"
"2009-03-02 10:00","2009","03","02","10:00","-14.5","","-22.5","","51","","34","","30","","24.1","","101.25","","","","-25","","Mainly Clear"
"2009-03-02 11:00","2009","03","02","11:00","-13.3","","-21.9","","48","","34","","28","","24.1","","101.16","","","","-24","","Mainly Clear"
"2009-03-02 12:00","2009","03","02","12:00","-12.4","","-21.2","","48","","35","","24","","24.1","","101.13","","","","-22","","Mostly Cloudy"
"2009-03-02 13:00","2009","03","02","13:00","-11.9","","-20.7","","48","","34","","30","","24.1","","101.06","","","","-22","","Mostly Cloudy"
"2009-03-02 14:00","2009","03","02","14:00","-10.9","","-19.9","","47","","32","","30","","24.1","","100.97","","","","-21","","Cloudy"
"2009-03-02 15:00","2009","03","02","15:00","-10.7","","-20.2","","46","","33","","33","","24.1","","100.96","","","","-21","","Cloudy"
"2009-03-02 16:00","2009","03","02","16:00","-10.1","","-20.7","","42","","36","","30","","24.1","","100.94","","","","-20","","Mostly Cloudy"
"2009-03-02 17:00","2009","03","02","17:00","-10.0","","-20.3","","43","","36","","28","","24.1","","100.93","","","","-19","","Mostly Cloudy"
"2009-03-02 18:00","2009","03","02","18:00","-10.4","","-20.9","","42","","35","","24","","24.1","","100.98","","","","-19","","Mostly Cloudy"
"2009-03-02 19:00","2009","03","02","19:00","-10.8","","-21.4","","41","","35","","22","","25.0","","101.05","","","","-19","","Mainly Clear"
"2009-03-02 20:00","2009","03","02","20:00","-11.9","","-20.6","","48","","34","","22","","25.0","","101.03","","","","-21","","Mainly Clear"
"2009-03-02 21:00","2009","03","02","21:00","-12.4","","-21.5","","47","","34","","22","","25.0","","101.05","","","","-21","","Mainly Clear"
"2009-03-02 22:00","2009","03","02","22:00","-12.9","","-21.9","","47","","35","","19","","25.0","","101.06","","","","-21","","Clear"
"2009-03-02 23:00","2009","03","02","23:00","-13.7","","-21.7","","51","","35","","22","","25.0","","101.00","","","","-23","","Mainly Clear"
"2009-03-03 00:00","2009","03","03","00:00","-14.2","","-22.3","","50","","34","","22","","25.0","","100.96","","","","-24","","Mainly Clear"
"2009-03-03 01:00","2009","03","03","01:00","-15.0","","-22.4","","53","","32","","22","","25.0","","100.99","","","","-25","","Mainly Clear"
"2009-03-03 02:00","2009","03","03","02:00","-15.6","","-23.0","","53","","32","","20","","25.0","","101.01","","","","-25","","Clear"
"2009-03-03 03:00","2009","03","03","03:00","-16.2","","-23.3","","54","","33","","20","","25.0","","101.02","","","","-26","","Clear"
"2009-03-03 04:00","2009","03","03","04:00","-16.6","","-23.8","","54","","32","","26","","25.0","","101.03","","","","-27","","Clear"
"2009-03-03 05:00","2009","03","03","05:00","-17.2","","-23.9","","56","","32","","22","","25.0","","101.10","","","","-27","","Clear"
"2009-03-03 06:00","2009","03","03","06:00","-17.7","","-24.2","","57","","31","","22","","25.0","","101.15","","","","-28","","Mainly Clear"
"2009-03-03 07:00","2009","03","03","07:00","-18.0","","-24.6","","56","","31","","24","","24.1","","101.22","","","","-29","","Clear"
"2009-03-03 08:00","2009","03","03","08:00","-17.7","","-24.2","","57","","31","","20","","24.1","","101.27","","","","-28","","Clear"
"2009-03-03 09:00","2009","03","03","09:00","-16.9","","-23.9","","55","","31","","19","","24.1","","101.31","","","","-26","","Clear"
"2009-03-03 10:00","2009","03","03","10:00","-15.9","","-23.0","","54","","28","","19","","24.1","","101.35","","","","-25","","Clear"
"2009-03-03 11:00","2009","03","03","11:00","-14.5","","-22.3","","52","","27","","19","","24.1","","101.36","","","","-23","","Clear"
"2009-03-03 12:00","2009","03","03","12:00","-13.3","","-22.4","","46","","27","","11","","24.1","","101.32","","","","-20","","Clear"
"2009-03-03 13:00","2009","03","03","13:00","-11.9","","-21.3","","46","","28","","20","","24.1","","101.25","","","","-20","","Clear"
"2009-03-03 14:00","2009","03","03","14:00","-10.7","","-20.9","","43","","27","","19","","24.1","","101.19","","","","-19","","Clear"
"2009-03-03 15:00","2009","03","03","15:00","-9.9","","-20.1","","43","","26","","20","","24.1","","101.18","","","","-18","","Clear"
"2009-03-03 16:00","2009","03","03","16:00","-9.4","","-20.2","","41","","27","","26","","24.1","","101.19","","","","-18","","Clear"
"2009-03-03 17:00","2009","03","03","17:00","-9.0","","-20.0","","40","","27","","20","","24.1","","101.22","","","","-17","","Clear"
"2009-03-03 18:00","2009","03","03","18:00","-9.1","","-20.0","","41","","28","","17","","24.1","","101.22","","","","-16","","Clear"
"2009-03-03 19:00","2009","03","03","19:00","-9.6","","-19.4","","45","","28","","13","","25.0","","101.25","","","","-16","","Mainly Clear"
"2009-03-03 20:00","2009","03","03","20:00","-10.0","","-19.5","","46","","24","","6","","25.0","","101.27","","","","-14","","Clear"
"2009-03-03 21:00","2009","03","03","21:00","-10.4","","-19.0","","49","","21","","4","","25.0","","101.30","","","","-13","","Clear"
"2009-03-03 22:00","2009","03","03","22:00","-11.0","","-19.5","","50","","25","","6","","25.0","","101.30","","","","-15","","Mainly Clear"
"2009-03-03 23:00","2009","03","03","23:00","-11.2","","-19.0","","53","","23","","6","","25.0","","101.30","","","","-15","","Mostly Cloudy"
"2009-03-04 00:00","2009","03","04","00:00","-11.6","","-19.0","","54","","23","","6","","25.0","","101.27","","","","-15","","Clear"
"2009-03-04 01:00","2009","03","04","01:00","-11.7","","-19.1","","54","","24","","6","","25.0","","101.28","","","","-15","","Clear"
"2009-03-04 02:00","2009","03","04","02:00","-11.9","","-19.4","","54","","26","","9","","25.0","","101.26","","","","-17","","Clear"
"2009-03-04 03:00","2009","03","04","03:00","-12.7","","-19.5","","57","","25","","11","","25.0","","101.25","","","","-19","","Clear"
"2009-03-04 04:00","2009","03","04","04:00","-12.7","","-19.3","","58","","24","","7","","25.0","","101.23","","","","-17","","Clear"
"2009-03-04 05:00","2009","03","04","05:00","-13.2","","-19.3","","60","","26","","7","","25.0","","101.27","","","","-18","","Clear"
"2009-03-04 06:00","2009","03","04","06:00","-13.7","","-19.2","","63","","26","","6","","25.0","","101.30","","","","-18","","Mainly Clear"
"2009-03-04 07:00","2009","03","04","07:00","-14.0","","-19.1","","65","","25","","7","","24.1","","101.30","","","","-19","","Clear"
"2009-03-04 08:00","2009","03","04","08:00","-12.5","","-17.4","","67","","28","","9","","24.1","","101.32","","","","-18","","Clear"
"2009-03-04 09:00","2009","03","04","09:00","-10.6","","-15.7","","66","","29","","20","","24.1","","101.31","","","","-19","","Clear"
"2009-03-04 10:00","2009","03","04","10:00","-9.5","","-14.8","","65","","30","","19","","24.1","","101.32","","","","-17","","Mainly Clear"
"2009-03-04 11:00","2009","03","04","11:00","-7.4","","-12.9","","65","","28","","13","","24.1","","101.29","","","","-13","","Mainly Clear"
"2009-03-04 12:00","2009","03","04","12:00","-5.6","","-13.2","","55","","25","","15","","24.1","","101.25","","","","-11","","Mainly Clear"
"2009-03-04 13:00","2009","03","04","13:00","-4.3","","-12.8","","51","","25","","20","","24.1","","101.20","","","","-11","","Mainly Clear"
"2009-03-04 14:00","2009","03","04","14:00","-3.5","","-13.1","","47","","27","","24","","24.1","","101.15","","","","-10","","Mainly Clear"
"2009-03-04 15:00","2009","03","04","15:00","-3.2","","-13.5","","45","","26","","22","","24.1","","101.12","","","","-10","","Mainly Clear"
"2009-03-04 16:00","2009","03","04","16:00","-2.7","","-14.0","","41","","28","","22","","24.1","","101.11","","","","-9","","Mainly Clear"
"2009-03-04 17:00","2009","03","04","17:00","-2.7","","-13.5","","43","","29","","20","","24.1","","101.11","","","","-9","","Mainly Clear"
"2009-03-04 18:00","2009","03","04","18:00","-4.0","","-13.3","","48","","31","","11","","24.1","","101.12","","","","-8","","Mainly Clear"
"2009-03-04 19:00","2009","03","04","19:00","-3.9","","-14.2","","45","","29","","4","","25.0","","101.15","","","","-6","","Clear"
"2009-03-04 20:00","2009","03","04","20:00","-4.2","","-14.4","","45","","30","","4","","25.0","","101.17","","","","-6","","Clear"
"2009-03-04 21:00","2009","03","04","21:00","-5.4","","-14.5","","49","","6","","6","","25.0","","101.25","","","","-8","","Clear"
"2009-03-04 22:00","2009","03","04","22:00","-6.1","","-15.3","","48","","6","","9","","25.0","","101.32","","","","-10","","Clear"
"2009-03-04 23:00","2009","03","04","23:00","-7.9","","-15.6","","54","","8","","7","","25.0","","101.34","","","","-12","","Clear"
"2009-03-05 00:00","2009","03","05","00:00","-8.4","","-15.1","","58","","11","","7","","25.0","","101.35","","","","-12","","Clear"
"2009-03-05 01:00","2009","03","05","01:00","-8.4","","-16.1","","54","","14","","6","","25.0","","101.34","","","","-12","","Clear"
"2009-03-05 02:00","2009","03","05","02:00","-9.7","","-15.4","","63","","11","","7","","25.0","","101.34","","","","-14","","Clear"
"2009-03-05 03:00","2009","03","05","03:00","-8.7","","-17.2","","50","","8","","6","","25.0","","101.35","","","","-12","","Clear"
"2009-03-05 04:00","2009","03","05","04:00","-10.0","","-16.2","","60","","4","","6","","25.0","","101.40","","","","-14","","Clear"
"2009-03-05 05:00","2009","03","05","05:00","-11.0","","-16.4","","64","","5","","9","","25.0","","101.47","","","","-16","","Clear"
"2009-03-05 06:00","2009","03","05","06:00","-11.3","","-16.8","","64","","6","","7","","25.0","","101.50","","","","-16","","Mainly Clear"
"2009-03-05 07:00","2009","03","05","07:00","-11.9","","-17.1","","65","","6","","11","","24.1","","101.50","","","","-18","","Clear"
"2009-03-05 08:00","2009","03","05","08:00","-11.3","","-16.9","","63","","7","","9","","24.1","","101.50","","","","-16","","Clear"
"2009-03-05 09:00","2009","03","05","09:00","-8.8","","-15.3","","59","","8","","11","","24.1","","101.49","","","","-14","","Clear"
"2009-03-05 10:00","2009","03","05","10:00","-6.7","","-12.7","","62","","11","","9","","24.1","","101.44","","","","-11","","Mainly Clear"
"2009-03-05 11:00","2009","03","05","11:00","-4.4","","-11.1","","59","","10","","7","","24.1","","101.40","","","","-8","","Mostly Cloudy"
"2009-03-05 12:00","2009","03","05","12:00","-2.1","","-9.8","","56","","8","","4","","24.1","","101.38","","","","-4","","Mostly Cloudy"
"2009-03-05 13:00","2009","03","05","13:00","-1.5","","-9.5","","54","","6","","11","","24.1","","101.27","","","","-5","","Mostly Cloudy"
"2009-03-05 14:00","2009","03","05","14:00","-1.5","","-8.0","","61","","8","","15","","24.1","","101.15","","","","-6","","Cloudy"
"2009-03-05 15:00","2009","03","05","15:00","-1.4","","-7.7","","62","","9","","19","","24.1","","101.01","","","","-7","","Cloudy"
"2009-03-05 16:00","2009","03","05","16:00","-1.0","","-6.9","","64","","8","","17","","24.1","","100.97","","","","-6","","Cloudy"
"2009-03-05 17:00","2009","03","05","17:00","-2.1","","-8.1","","63","","9","","20","","24.1","","100.83","","","","-8","","Mostly Cloudy"
"2009-03-05 18:00","2009","03","05","18:00","-2.8","","-7.4","","71","","9","","20","","24.1","","100.86","","","","-9","","Cloudy"
"2009-03-05 19:00","2009","03","05","19:00","-3.5","","-7.2","","75","","8","","22","","19.3","","100.84","","","","-10","","Snow"
"2009-03-05 20:00","2009","03","05","20:00","-4.0","","-6.3","","84","","9","","20","","19.3","","100.70","","","","-10","","Cloudy"
"2009-03-05 21:00","2009","03","05","21:00","-3.8","","-6.0","","85","","9","","26","","19.3","","100.50","","","","-11","","Cloudy"
"2009-03-05 22:00","2009","03","05","22:00","-3.3","","-6.0","","82","","10","","19","","19.3","","100.40","","","","-9","","Cloudy"
"2009-03-05 23:00","2009","03","05","23:00","-3.0","","-5.8","","81","","10","","11","","16.1","","100.25","","","","-7","","Cloudy"
"2009-03-06 00:00","2009","03","06","00:00","-2.8","","-5.9","","79","","9","","19","","25.0","","100.20","","","","-9","","Cloudy"
"2009-03-06 01:00","2009","03","06","01:00","-3.0","","-5.8","","81","","9","","15","","16.1","","100.13","","","","-8","","Freezing Rain"
"2009-03-06 02:00","2009","03","06","02:00","-2.6","","-4.5","","87","","9","","20","","16.1","","99.98","","","","-9","","Cloudy"
"2009-03-06 03:00","2009","03","06","03:00","-2.7","","-4.4","","88","","8","","24","","16.1","","99.80","","","","-9","","Cloudy"
"2009-03-06 04:00","2009","03","06","04:00","-2.7","","-4.5","","87","","8","","19","","11.3","","99.76","","","","-8","","Cloudy"
"2009-03-06 05:00","2009","03","06","05:00","-3.2","","-4.8","","89","","7","","19","","11.3","","99.71","","","","-9","","Cloudy"
"2009-03-06 06:00","2009","03","06","06:00","-3.4","","-5.0","","89","","7","","15","","11.3","","99.64","","","","-9","","Cloudy"
"2009-03-06 07:00","2009","03","06","07:00","-3.4","","-4.9","","89","","5","","9","","9.7","","99.63","","","","-7","","Fog"
"2009-03-06 08:00","2009","03","06","08:00","-3.1","","-4.5","","90","","7","","13","","9.7","","99.55","","","","-8","","Fog"
"2009-03-06 09:00","2009","03","06","09:00","-1.6","","-3.1","","89","","8","","7","","9.7","","99.46","","","","-4","","Freezing Rain,Fog"
"2009-03-06 10:00","2009","03","06","10:00","-0.7","","-2.4","","88","","4","","7","","9.7","","99.42","","","","-3","","Freezing Rain,Fog"
"2009-03-06 11:00","2009","03","06","11:00","-0.1","","-1.7","","89","","9","","7","","9.7","","99.33","","","","-3","","Freezing Rain,Fog"
"2009-03-06 12:00","2009","03","06","12:00","1.1","","-0.6","","88","","11","","6","","12.9","","99.18","","","","","","Cloudy"
"2009-03-06 13:00","2009","03","06","13:00","2.9","","0.4","","84","","12","","6","","12.9","","99.00","","","","","","Cloudy"
"2009-03-06 14:00","2009","03","06","14:00","7.7","","2.1","","68","","20","","13","","24.1","","98.94","","","","","","Cloudy"
"2009-03-06 15:00","2009","03","06","15:00","9.3","","4.1","","70","","22","","11","","24.1","","98.93","","","","","","Cloudy"
"2009-03-06 16:00","2009","03","06","16:00","8.2","","4.1","","75","","21","","17","","24.1","","98.94","","","","","","Cloudy"
"2009-03-06 17:00","2009","03","06","17:00","9.0","","5.1","","77","","19","","20","","24.1","","98.82","","","","","","Clear"
"2009-03-06 18:00","2009","03","06","18:00","8.6","","5.8","","83","","21","","17","","16.1","","98.96","","","","","","Mostly Cloudy"
"2009-03-06 19:00","2009","03","06","19:00","8.6","","5.7","","82","","25","","26","","25.0","","99.14","","","","","","Mainly Clear"
"2009-03-06 20:00","2009","03","06","20:00","8.2","","1.8","","64","","26","","28","","25.0","","99.26","","","","","","Mostly Cloudy"
"2009-03-06 21:00","2009","03","06","21:00","7.2","","2.1","","70","","27","","28","","25.0","","99.44","","","","","","Cloudy"
"2009-03-06 22:00","2009","03","06","22:00","6.3","","1.5","","71","","26","","24","","25.0","","99.56","","","","","","Cloudy"
"2009-03-06 23:00","2009","03","06","23:00","6.1","","1.3","","71","","28","","20","","25.0","","99.70","","","","","","Cloudy"
"2009-03-07 00:00","2009","03","07","00:00","5.5","","1.0","","73","","27","","22","","25.0","","99.82","","","","","","Cloudy"
"2009-03-07 01:00","2009","03","07","01:00","4.9","","0.9","","75","","27","","20","","25.0","","99.95","","","","","","Cloudy"
"2009-03-07 02:00","2009","03","07","02:00","4.7","","0.8","","76","","27","","17","","25.0","","100.02","","","","","","Cloudy"
"2009-03-07 03:00","2009","03","07","03:00","4.4","","0.2","","74","","27","","15","","25.0","","100.11","","","","","","Cloudy"
"2009-03-07 04:00","2009","03","07","04:00","3.9","","-0.3","","74","","25","","13","","25.0","","100.23","","","","","","Cloudy"
"2009-03-07 05:00","2009","03","07","05:00","4.1","","-0.7","","71","","28","","15","","25.0","","100.32","","","","","","Cloudy"
"2009-03-07 06:00","2009","03","07","06:00","3.8","","-0.7","","72","","27","","7","","25.0","","100.35","","","","","","Cloudy"
"2009-03-07 07:00","2009","03","07","07:00","3.5","","-0.3","","76","","22","","7","","19.3","","100.36","","","","","","Cloudy"
"2009-03-07 08:00","2009","03","07","08:00","3.0","","0.0","","81","","23","","7","","19.3","","100.44","","","","","","Cloudy"
"2009-03-07 09:00","2009","03","07","09:00","3.3","","0.1","","80","","23","","6","","19.3","","100.49","","","","","","Cloudy"
"2009-03-07 10:00","2009","03","07","10:00","3.8","","0.1","","77","","26","","4","","19.3","","100.56","","","","","","Cloudy"
"2009-03-07 11:00","2009","03","07","11:00","5.4","","0.5","","71","","23","","7","","19.3","","100.46","","","","","","Mostly Cloudy"
"2009-03-07 12:00","2009","03","07","12:00","6.4","","-0.9","","60","","24","","7","","19.3","","100.41","","","","","","Mainly Clear"
"2009-03-07 13:00","2009","03","07","13:00","7.0","","-0.8","","58","","22","","7","","19.3","","100.29","","","","","","Mostly Cloudy"
"2009-03-07 14:00","2009","03","07","14:00","7.6","","-0.2","","58","","17","","11","","19.3","","100.24","","","","","","Cloudy"
"2009-03-07 15:00","2009","03","07","15:00","7.1","","-0.3","","59","","19","","13","","19.3","","100.11","","","","","","Cloudy"
"2009-03-07 16:00","2009","03","07","16:00","5.6","","-0.3","","66","","17","","11","","19.3","","100.11","","","","","","Cloudy"
"2009-03-07 17:00","2009","03","07","17:00","4.7","","-0.2","","71","","17","","9","","19.3","","100.07","","","","","","Cloudy"
"2009-03-07 18:00","2009","03","07","18:00","3.4","","-0.3","","77","","16","","9","","19.3","","99.96","","","","","","Cloudy"
"2009-03-07 19:00","2009","03","07","19:00","3.3","","-0.2","","78","","15","","4","","19.3","","99.92","","","","","","Rain"
"2009-03-07 20:00","2009","03","07","20:00","3.2","","0.5","","82","","18","","6","","19.3","","99.88","","","","","","Rain"
"2009-03-07 21:00","2009","03","07","21:00","2.5","","1.0","","90","","17","","6","","8.0","","99.77","","","","","","Rain"
"2009-03-07 22:00","2009","03","07","22:00","2.1","","0.9","","92","","16","","13","","8.0","","99.62","","","","","","Rain"
"2009-03-07 23:00","2009","03","07","23:00","1.8","","1.1","","95","","34","","11","","8.0","","99.67","","","","","","Rain,Fog"
"2009-03-08 00:00","2009","03","08","00:00","1.8","","1.1","","95","","","","0","","4.8","","99.60","","","","","","Fog"
"2009-03-08 01:00","2009","03","08","01:00","1.6","","0.9","","95","","14","","4","","3.2","","99.61","","","","","","Fog"
"2009-03-08 02:00","2009","03","08","02:00","1.6","","1.1","","96","","18","","7","","3.2","","99.63","","","","","","Fog"
"2009-03-08 03:00","2009","03","08","03:00","1.3","","0.7","","96","","24","","4","","2.4","","99.62","","","","","","Fog"
"2009-03-08 04:00","2009","03","08","04:00","0.7","","0.1","","96","","24","","7","","2.4","","99.66","","","","","","Fog"
"2009-03-08 05:00","2009","03","08","05:00","0.2","","-0.3","","96","","27","","9","","3.2","","99.76","","","","","","Fog"
"2009-03-08 06:00","2009","03","08","06:00","0.0","","-0.7","","95","","26","","13","","8.0","","99.88","","","","-4","","Fog"
"2009-03-08 07:00","2009","03","08","07:00","0.6","","-1.0","","89","","29","","13","","8.0","","99.98","","","","","","Fog"
"2009-03-08 08:00","2009","03","08","08:00","1.4","","-0.4","","88","","28","","11","","24.1","","100.08","","","","","","Mainly Clear"
"2009-03-08 09:00","2009","03","08","09:00","2.8","","-3.9","","61","","32","","28","","24.1","","100.19","","","","","","Mainly Clear"
"2009-03-08 10:00","2009","03","08","10:00","2.8","","-5.7","","54","","33","","26","","24.1","","100.26","","","","","","Mostly Cloudy"
"2009-03-08 11:00","2009","03","08","11:00","3.2","","-5.2","","54","","34","","15","","24.1","","100.29","","","","","","Mostly Cloudy"
"2009-03-08 12:00","2009","03","08","12:00","3.7","","-5.5","","51","","33","","17","","24.1","","100.31","","","","","","Mostly Cloudy"
"2009-03-08 13:00","2009","03","08","13:00","3.6","","-6.3","","48","","34","","17","","24.1","","100.34","","","","","","Mostly Cloudy"
"2009-03-08 14:00","2009","03","08","14:00","3.5","","-7.2","","45","","34","","20","","24.1","","100.34","","","","","","Mostly Cloudy"
"2009-03-08 15:00","2009","03","08","15:00","3.4","","-7.6","","44","","36","","13","","24.1","","100.37","","","","","","Mostly Cloudy"
"2009-03-08 16:00","2009","03","08","16:00","2.8","","-8.8","","42","","2","","17","","24.1","","100.37","","","","","","Mostly Cloudy"
"2009-03-08 17:00","2009","03","08","17:00","2.1","","-10.1","","40","","1","","13","","24.1","","100.39","","","","","","Mostly Cloudy"
"2009-03-08 18:00","2009","03","08","18:00","1.0","","-9.7","","45","","36","","11","","24.1","","100.39","","","","","","Mostly Cloudy"
"2009-03-08 19:00","2009","03","08","19:00","-0.1","","-9.2","","50","","36","","9","","25.0","","100.40","","","","-3","","Mostly Cloudy"
"2009-03-08 20:00","2009","03","08","20:00","-0.7","","-9.7","","51","","36","","9","","25.0","","100.36","","","","-4","","Mostly Cloudy"
"2009-03-08 21:00","2009","03","08","21:00","-0.7","","-10.6","","47","","4","","17","","25.0","","100.32","","","","-6","","Cloudy"
"2009-03-08 22:00","2009","03","08","22:00","-1.2","","-11.3","","46","","5","","19","","25.0","","100.23","","","","-7","","Cloudy"
"2009-03-08 23:00","2009","03","08","23:00","-1.5","","-11.0","","48","","6","","26","","25.0","","100.09","","","","-8","","Cloudy"
"2009-03-09 00:00","2009","03","09","00:00","-1.2","","-10.5","","49","","8","","20","","25.0","","100.15","","","","-7","","Cloudy"
"2009-03-09 01:00","2009","03","09","01:00","-1.9","","-10.4","","52","","8","","30","","25.0","","100.05","","","","-9","","Cloudy"
"2009-03-09 02:00","2009","03","09","02:00","-2.6","","-10.6","","54","","7","","20","","25.0","","100.03","","","","-9","","Cloudy"
"2009-03-09 03:00","2009","03","09","03:00","-3.4","","-9.8","","61","","8","","22","","25.0","","99.86","","","","-10","","Cloudy"
"2009-03-09 04:00","2009","03","09","04:00","-3.8","","-10.0","","62","","8","","32","","25.0","","99.86","","","","-12","","Cloudy"
"2009-03-09 05:00","2009","03","09","05:00","-4.4","","-9.8","","66","","8","","24","","24.1","","99.82","","","","-11","","Snow"
"2009-03-09 06:00","2009","03","09","06:00","-5.7","","-9.2","","76","","7","","28","","8.0","","99.78","","","","-14","","Snow"
"2009-03-09 07:00","2009","03","09","07:00","-5.7","","-8.5","","81","","6","","37","","6.4","","99.77","","","","-15","","Freezing Drizzle,Snow"
"2009-03-09 08:00","2009","03","09","08:00","-5.3","","-8.1","","81","","6","","32","","4.8","","99.92","","","","-14","","Freezing Rain,Snow"
"2009-03-09 09:00","2009","03","09","09:00","-4.5","","-6.7","","85","","5","","28","","3.2","","100.04","","","","-12","","Snow"
"2009-03-09 10:00","2009","03","09","10:00","-3.5","","-5.8","","84","","3","","20","","3.2","","100.14","","","","-10","","Snow"
"2009-03-09 11:00","2009","03","09","11:00","-3.5","","-6.3","","81","","3","","28","","4.8","","100.24","","","","-11","","Snow"
"2009-03-09 12:00","2009","03","09","12:00","-3.3","","-5.5","","85","","3","","19","","4.8","","100.35","","","","-9","","Snow"
"2009-03-09 13:00","2009","03","09","13:00","-2.3","","-4.7","","84","","1","","20","","3.2","","100.36","","","","-8","","Snow"
"2009-03-09 14:00","2009","03","09","14:00","-0.7","","-4.9","","73","","36","","13","","19.3","","100.47","","","","-5","","Mostly Cloudy"
"2009-03-09 15:00","2009","03","09","15:00","-0.6","","-4.6","","74","","36","","9","","24.1","","100.58","","","","-4","","Cloudy"
"2009-03-09 16:00","2009","03","09","16:00","-0.3","","-4.8","","72","","2","","11","","24.1","","100.70","","","","-4","","Cloudy"
"2009-03-09 17:00","2009","03","09","17:00","0.2","","-4.5","","71","","30","","6","","24.1","","100.81","","","","","","Mostly Cloudy"
"2009-03-09 18:00","2009","03","09","18:00","-0.1","","-5.3","","68","","27","","9","","24.1","","100.89","","","","-3","","Mostly Cloudy"
"2009-03-09 19:00","2009","03","09","19:00","-1.1","","-5.7","","71","","24","","7","","25.0","","100.99","","","","-4","","Mostly Cloudy"
"2009-03-09 20:00","2009","03","09","20:00","-2.1","","-5.8","","76","","27","","7","","25.0","","101.09","","","","-5","","Mainly Clear"
"2009-03-09 21:00","2009","03","09","21:00","-2.6","","-6.0","","77","","30","","7","","25.0","","101.20","","","","-5","","Mainly Clear"
"2009-03-09 22:00","2009","03","09","22:00","-2.9","","-5.9","","80","","19","","6","","25.0","","101.20","","","","-5","","Mainly Clear"
"2009-03-09 23:00","2009","03","09","23:00","-3.4","","-6.1","","82","","18","","11","","25.0","","101.18","","","","-8","","Mainly Clear"
"2009-03-10 00:00","2009","03","10","00:00","-3.7","","-6.2","","83","","19","","9","","25.0","","101.19","","","","-7","","Clear"
"2009-03-10 01:00","2009","03","10","01:00","-4.3","","-6.3","","86","","20","","7","","25.0","","101.24","","","","-7","","Clear"
"2009-03-10 02:00","2009","03","10","02:00","-4.7","","-6.5","","87","","20","","6","","25.0","","101.25","","","","-7","","Mainly Clear"
"2009-03-10 03:00","2009","03","10","03:00","-5.2","","-6.8","","88","","27","","6","","25.0","","101.28","","","","-8","","Mainly Clear"
"2009-03-10 04:00","2009","03","10","04:00","-5.2","","-6.8","","88","","20","","4","","25.0","","101.29","","","","-7","","Mostly Cloudy"
"2009-03-10 05:00","2009","03","10","05:00","-5.6","","-7.0","","90","","16","","4","","25.0","","101.29","","","","-7","","Mostly Cloudy"
"2009-03-10 06:00","2009","03","10","06:00","-6.0","","-7.5","","89","","16","","7","","24.1","","101.32","","","","-9","","Mainly Clear"
"2009-03-10 07:00","2009","03","10","07:00","-5.9","","-7.3","","90","","12","","4","","24.1","","101.35","","","","-8","","Mainly Clear"
"2009-03-10 08:00","2009","03","10","08:00","-4.3","","-6.0","","88","","12","","6","","24.1","","101.33","","","","-7","","Mostly Cloudy"
"2009-03-10 09:00","2009","03","10","09:00","-3.2","","-5.0","","87","","","","0","","24.1","","101.38","","","","","","Cloudy"
"2009-03-10 10:00","2009","03","10","10:00","-1.8","","-4.4","","82","","","","0","","24.1","","101.36","","","","","","Cloudy"
"2009-03-10 11:00","2009","03","10","11:00","-0.8","","-3.9","","79","","5","","7","","24.1","","101.28","","","","-3","","Cloudy"
"2009-03-10 12:00","2009","03","10","12:00","-0.1","","-3.4","","78","","9","","17","","24.1","","101.22","","","","-5","","Cloudy"
"2009-03-10 13:00","2009","03","10","13:00","0.3","","-3.0","","78","","11","","17","","24.1","","101.07","","","","","","Cloudy"
"2009-03-10 14:00","2009","03","10","14:00","0.7","","-2.3","","80","","12","","15","","24.1","","100.96","","","","","","Cloudy"
"2009-03-10 15:00","2009","03","10","15:00","1.2","","-2.1","","79","","8","","15","","24.1","","100.86","","","","","","Cloudy"
"2009-03-10 16:00","2009","03","10","16:00","1.6","","-2.6","","74","","9","","20","","24.1","","100.75","","","","","","Cloudy"
"2009-03-10 17:00","2009","03","10","17:00","1.3","","-2.8","","74","","9","","15","","24.1","","100.75","","","","","","Cloudy"
"2009-03-10 18:00","2009","03","10","18:00","0.9","","-2.8","","76","","9","","15","","24.1","","100.73","","","","","","Cloudy"
"2009-03-10 19:00","2009","03","10","19:00","0.6","","-2.8","","78","","8","","17","","16.1","","100.71","","","","","","Cloudy"
"2009-03-10 20:00","2009","03","10","20:00","0.2","","-2.2","","84","","8","","19","","9.7","","100.55","","","","","","Snow"
"2009-03-10 21:00","2009","03","10","21:00","0.1","","-2.1","","85","","9","","15","","11.3","","100.43","","","","","","Snow"
"2009-03-10 22:00","2009","03","10","22:00","0.2","","-1.2","","90","","10","","17","","4.8","","100.34","","","","","","Rain,Fog"
"2009-03-10 23:00","2009","03","10","23:00","0.3","","-0.5","","94","","9","","17","","4.0","","100.16","","","","","","Rain,Fog"
"2009-03-11 00:00","2009","03","11","00:00","0.7","","0.0","","95","","9","","17","","2.4","","100.04","","","","","","Rain,Fog"
"2009-03-11 01:00","2009","03","11","01:00","1.0","","0.4","","96","","11","","20","","4.0","","99.88","","","","","","Rain,Fog"
"2009-03-11 02:00","2009","03","11","02:00","1.3","","0.7","","96","","11","","19","","6.4","","99.75","","","","","","Rain,Fog"
"2009-03-11 03:00","2009","03","11","03:00","1.4","","0.9","","96","","12","","20","","4.8","","99.54","","","","","","Rain,Fog"
"2009-03-11 04:00","2009","03","11","04:00","1.9","","1.2","","95","","12","","19","","6.4","","99.32","","","","","","Rain,Fog"
"2009-03-11 05:00","2009","03","11","05:00","2.2","","1.5","","95","","13","","15","","8.0","","99.27","","","","","","Rain,Fog"
"2009-03-11 06:00","2009","03","11","06:00","2.3","","1.6","","95","","14","","15","","8.0","","99.14","","","","","","Rain,Fog"
"2009-03-11 07:00","2009","03","11","07:00","2.5","","1.9","","96","","14","","19","","9.7","","98.94","","","","","","Rain,Fog"
"2009-03-11 08:00","2009","03","11","08:00","3.7","","2.7","","93","","18","","20","","9.7","","98.77","","","","","","Rain,Fog"
"2009-03-11 09:00","2009","03","11","09:00","4.8","","3.7","","93","","19","","30","","9.7","","98.67","","","","","","Rain,Fog"
"2009-03-11 10:00","2009","03","11","10:00","5.0","","4.5","","97","","20","","19","","2.4","","98.69","","","","","","Drizzle,Fog"
"2009-03-11 11:00","2009","03","11","11:00","6.9","","5.8","","93","","24","","30","","24.1","","98.76","","","","","","Mainly Clear"
"2009-03-11 12:00","2009","03","11","12:00","7.3","","0.0","","60","","25","","33","","24.1","","98.86","","","","","","Mainly Clear"
"2009-03-11 13:00","2009","03","11","13:00","5.7","","-2.2","","57","","25","","46","","24.1","","99.00","","","","","","Mostly Cloudy"
"2009-03-11 14:00","2009","03","11","14:00","4.9","","-3.9","","53","","25","","39","","24.1","","99.15","","","","","","Mostly Cloudy"
"2009-03-11 15:00","2009","03","11","15:00","4.2","","-4.0","","55","","25","","33","","24.1","","99.24","","","","","","Mostly Cloudy"
"2009-03-11 16:00","2009","03","11","16:00","3.4","","-5.4","","52","","24","","46","","24.1","","99.36","","","","","","Mostly Cloudy"
"2009-03-11 17:00","2009","03","11","17:00","1.6","","-7.3","","52","","25","","48","","24.1","","99.62","","","","","","Mostly Cloudy"
"2009-03-11 18:00","2009","03","11","18:00","-0.1","","-9.2","","50","","27","","48","","24.1","","99.82","","","","-8","","Mostly Cloudy"
"2009-03-11 19:00","2009","03","11","19:00","-1.9","","-11.4","","48","","27","","46","","25.0","","100.08","","","","-10","","Cloudy"
"2009-03-11 20:00","2009","03","11","20:00","-4.6","","-13.7","","49","","27","","54","","25.0","","100.36","","","","-15","","Mainly Clear"
"2009-03-11 21:00","2009","03","11","21:00","-5.9","","-14.2","","52","","28","","35","","25.0","","100.64","","","","-15","","Mainly Clear"
"2009-03-11 22:00","2009","03","11","22:00","-6.3","","-14.5","","52","","29","","35","","25.0","","100.81","","","","-15","","Mainly Clear"
"2009-03-11 23:00","2009","03","11","23:00","-6.7","","-14.9","","52","","29","","35","","25.0","","100.97","","","","-16","","Mainly Clear"
"2009-03-12 00:00","2009","03","12","00:00","-7.7","","-16.0","","51","","30","","35","","25.0","","101.10","","","","-17","","Mainly Clear"
"2009-03-12 01:00","2009","03","12","01:00","-8.4","","-16.6","","52","","30","","28","","25.0","","101.22","","","","-17","","Clear"
"2009-03-12 02:00","2009","03","12","02:00","-8.9","","-17.4","","50","","30","","33","","25.0","","101.35","","","","-18","","Clear"
"2009-03-12 03:00","2009","03","12","03:00","-9.5","","-17.0","","54","","29","","26","","25.0","","101.39","","","","-18","","Clear"
"2009-03-12 04:00","2009","03","12","04:00","-10.3","","-18.3","","52","","29","","24","","25.0","","101.47","","","","-19","","Clear"
"2009-03-12 05:00","2009","03","12","05:00","-10.8","","-18.3","","54","","28","","26","","25.0","","101.59","","","","-20","","Clear"
"2009-03-12 06:00","2009","03","12","06:00","-11.4","","-18.8","","54","","29","","20","","24.1","","101.69","","","","-20","","Clear"
"2009-03-12 07:00","2009","03","12","07:00","-11.8","","-19.1","","55","","29","","32","","24.1","","101.79","","","","-22","","Clear"
"2009-03-12 08:00","2009","03","12","08:00","-11.7","","-18.9","","55","","29","","28","","24.1","","101.87","","","","-21","","Clear"
"2009-03-12 09:00","2009","03","12","09:00","-10.8","","-18.3","","54","","30","","28","","24.1","","101.92","","","","-20","","Clear"
"2009-03-12 10:00","2009","03","12","10:00","-10.3","","-18.4","","51","","30","","33","","24.1","","101.96","","","","-20","","Clear"
"2009-03-12 11:00","2009","03","12","11:00","-9.9","","-18.6","","49","","29","","28","","24.1","","101.99","","","","-19","","Clear"
"2009-03-12 12:00","2009","03","12","12:00","-9.6","","-17.8","","51","","30","","28","","24.1","","102.02","","","","-19","","Mainly Clear"
"2009-03-12 13:00","2009","03","12","13:00","-9.2","","-20.6","","39","","30","","30","","24.1","","101.99","","","","-18","","Mainly Clear"
"2009-03-12 14:00","2009","03","12","14:00","-7.9","","-18.6","","42","","31","","26","","24.1","","101.94","","","","-16","","Mainly Clear"
"2009-03-12 15:00","2009","03","12","15:00","-7.7","","-18.3","","42","","30","","20","","24.1","","101.93","","","","-15","","Mainly Clear"
"2009-03-12 16:00","2009","03","12","16:00","-7.3","","-18.1","","42","","30","","22","","24.1","","101.89","","","","-15","","Mainly Clear"
"2009-03-12 17:00","2009","03","12","17:00","-7.1","","-18.4","","40","","30","","11","","24.1","","101.87","","","","-12","","Mainly Clear"
"2009-03-12 18:00","2009","03","12","18:00","-7.9","","-18.2","","43","","32","","11","","24.1","","101.83","","","","-13","","Mainly Clear"
"2009-03-12 19:00","2009","03","12","19:00","-8.5","","-17.9","","47","","32","","7","","25.0","","101.86","","","","-12","","Mainly Clear"
"2009-03-12 20:00","2009","03","12","20:00","-8.9","","-18.9","","44","","29","","6","","25.0","","101.89","","","","-12","","Clear"
"2009-03-12 21:00","2009","03","12","21:00","-9.1","","-19.3","","43","","27","","6","","25.0","","101.91","","","","-12","","Clear"
"2009-03-12 22:00","2009","03","12","22:00","-9.7","","-16.3","","59","","25","","6","","25.0","","101.91","","","","-13","","Clear"
"2009-03-12 23:00","2009","03","12","23:00","-10.3","","-17.5","","56","","26","","7","","25.0","","101.96","","","","-14","","Clear"
"2009-03-13 00:00","2009","03","13","00:00","-10.8","","-17.4","","58","","28","","4","","25.0","","101.98","","","","-13","","Clear"
"2009-03-13 01:00","2009","03","13","01:00","-10.8","","-19.3","","50","","25","","7","","25.0","","102.01","","","","-15","","Clear"
"2009-03-13 02:00","2009","03","13","02:00","-11.0","","-19.7","","49","","24","","6","","25.0","","102.01","","","","-15","","Clear"
"2009-03-13 03:00","2009","03","13","03:00","-11.8","","-18.7","","57","","27","","7","","25.0","","102.00","","","","-16","","Clear"
"2009-03-13 04:00","2009","03","13","04:00","-12.1","","-19.6","","54","","27","","7","","25.0","","102.02","","","","-16","","Clear"
"2009-03-13 05:00","2009","03","13","05:00","-13.0","","-18.3","","64","","27","","6","","25.0","","102.02","","","","-17","","Clear"
"2009-03-13 06:00","2009","03","13","06:00","-13.1","","-19.0","","61","","26","","9","","24.1","","102.01","","","","-19","","Clear"
"2009-03-13 07:00","2009","03","13","07:00","-12.6","","-17.8","","65","","25","","9","","24.1","","102.02","","","","-18","","Clear"
"2009-03-13 08:00","2009","03","13","08:00","-10.8","","-17.1","","60","","26","","13","","24.1","","102.03","","","","-17","","Clear"
"2009-03-13 09:00","2009","03","13","09:00","-9.7","","-17.1","","55","","29","","13","","24.1","","102.03","","","","-16","","Clear"
"2009-03-13 10:00","2009","03","13","10:00","-8.7","","-18.3","","46","","27","","9","","24.1","","101.97","","","","-13","","Clear"
"2009-03-13 11:00","2009","03","13","11:00","-7.3","","-17.3","","45","","27","","11","","24.1","","101.90","","","","-12","","Clear"
"2009-03-13 12:00","2009","03","13","12:00","-6.0","","-17.3","","40","","24","","15","","24.1","","101.86","","","","-12","","Clear"
"2009-03-13 13:00","2009","03","13","13:00","-4.7","","-17.4","","36","","23","","9","","24.1","","101.71","","","","-9","","Clear"
"2009-03-13 14:00","2009","03","13","14:00","-3.5","","-16.7","","35","","19","","17","","24.1","","101.57","","","","-9","","Clear"
"2009-03-13 15:00","2009","03","13","15:00","-2.8","","-15.7","","36","","24","","19","","24.1","","101.46","","","","-9","","Clear"
"2009-03-13 16:00","2009","03","13","16:00","-2.6","","-14.1","","41","","24","","19","","24.1","","101.37","","","","-8","","Mainly Clear"
"2009-03-13 17:00","2009","03","13","17:00","-2.7","","-14.1","","41","","23","","17","","24.1","","101.27","","","","-8","","Mostly Cloudy"
"2009-03-13 18:00","2009","03","13","18:00","-2.8","","-13.4","","44","","21","","15","","24.1","","101.21","","","","-8","","Mostly Cloudy"
"2009-03-13 19:00","2009","03","13","19:00","-3.6","","-11.7","","53","","20","","19","","25.0","","101.21","","","","-10","","Mostly Cloudy"
"2009-03-13 20:00","2009","03","13","20:00","-4.7","","-11.2","","60","","21","","19","","25.0","","101.17","","","","-11","","Mainly Clear"
"2009-03-13 21:00","2009","03","13","21:00","-5.3","","-10.9","","65","","21","","13","","25.0","","101.15","","","","-10","","Clear"
"2009-03-13 22:00","2009","03","13","22:00","-5.7","","-10.9","","67","","21","","13","","25.0","","101.07","","","","-11","","Mainly Clear"
"2009-03-13 23:00","2009","03","13","23:00","-6.0","","-11.2","","67","","21","","11","","25.0","","101.02","","","","-11","","Mainly Clear"
"2009-03-14 00:00","2009","03","14","00:00","-6.6","","-11.3","","69","","21","","9","","25.0","","101.01","","","","-11","","Clear"
"2009-03-14 01:00","2009","03","14","01:00","-6.9","","-11.0","","73","","21","","9","","25.0","","100.98","","","","-11","","Clear"
"2009-03-14 02:00","2009","03","14","02:00","-7.1","","-10.8","","75","","20","","6","","25.0","","100.99","","","","-10","","Mainly Clear"
"2009-03-14 03:00","2009","03","14","03:00","-7.3","","-10.7","","77","","20","","7","","25.0","","100.95","","","","-11","","Clear"
"2009-03-14 04:00","2009","03","14","04:00","-7.8","","-10.6","","80","","21","","7","","25.0","","100.93","","","","-11","","Clear"
"2009-03-14 05:00","2009","03","14","05:00","-7.0","","-9.6","","82","","21","","7","","25.0","","100.91","","","","-11","","Clear"
"2009-03-14 06:00","2009","03","14","06:00","-7.1","","-9.2","","85","","22","","9","","19.3","","100.92","","","","-11","","Clear"
"2009-03-14 07:00","2009","03","14","07:00","-6.3","","-8.6","","84","","22","","7","","19.3","","100.93","","","","-10","","Clear"
"2009-03-14 08:00","2009","03","14","08:00","-4.7","","-7.6","","80","","23","","15","","19.3","","100.92","","","","-10","","Clear"
"2009-03-14 09:00","2009","03","14","09:00","-2.8","","-6.8","","74","","23","","15","","19.3","","100.92","","","","-8","","Clear"
"2009-03-14 10:00","2009","03","14","10:00","-0.8","","-6.7","","64","","22","","17","","19.3","","100.91","","","","-6","","Clear"
"2009-03-14 11:00","2009","03","14","11:00","0.8","","-6.6","","58","","24","","15","","24.1","","100.91","","","","","","Clear"
"2009-03-14 12:00","2009","03","14","12:00","2.7","","-8.1","","45","","22","","19","","24.1","","100.88","","","","","","Clear"
"2009-03-14 13:00","2009","03","14","13:00","4.0","","-7.7","","42","","24","","19","","24.1","","100.78","","","","","","Mainly Clear"
"2009-03-14 14:00","2009","03","14","14:00","4.6","","-8.1","","39","","22","","20","","24.1","","100.73","","","","","","Mainly Clear"
"2009-03-14 15:00","2009","03","14","15:00","4.9","","-8.4","","37","","23","","20","","24.1","","100.65","","","","","","Mainly Clear"
"2009-03-14 16:00","2009","03","14","16:00","5.1","","-8.2","","38","","25","","22","","24.1","","100.65","","","","","","Mainly Clear"
"2009-03-14 17:00","2009","03","14","17:00","5.1","","-7.9","","38","","23","","20","","24.1","","100.63","","","","","","Mainly Clear"
"2009-03-14 18:00","2009","03","14","18:00","3.9","","-7.4","","43","","22","","13","","24.1","","100.60","","","","","","Mainly Clear"
"2009-03-14 19:00","2009","03","14","19:00","2.5","","-4.4","","60","","19","","15","","24.1","","100.63","","","","","","Clear"
"2009-03-14 20:00","2009","03","14","20:00","1.2","","-4.7","","65","","19","","11","","24.1","","100.65","","","","","","Clear"
"2009-03-14 21:00","2009","03","14","21:00","0.6","","-5.1","","66","","20","","11","","24.1","","100.65","","","","","","Mainly Clear"
"2009-03-14 22:00","2009","03","14","22:00","-0.1","","-5.3","","68","","21","","9","","24.1","","100.67","","","","-3","","Mainly Clear"
"2009-03-14 23:00","2009","03","14","23:00","0.0","","-5.3","","67","","22","","11","","24.1","","100.68","","","","-4","","Clear"
"2009-03-15 00:00","2009","03","15","00:00","-0.5","","-5.5","","69","","22","","13","","24.1","","100.69","","","","-5","","Clear"
"2009-03-15 01:00","2009","03","15","01:00","-0.5","","-5.8","","67","","23","","13","","24.1","","100.68","","","","-5","","Clear"
"2009-03-15 02:00","2009","03","15","02:00","-1.4","","-5.8","","72","","22","","9","","24.1","","100.69","","","","-5","","Clear"
"2009-03-15 03:00","2009","03","15","03:00","-1.6","","-5.8","","73","","22","","9","","24.1","","100.68","","","","-5","","Clear"
"2009-03-15 04:00","2009","03","15","04:00","-2.2","","-5.9","","76","","19","","6","","24.1","","100.70","","","","-5","","Clear"
"2009-03-15 05:00","2009","03","15","05:00","-2.4","","-5.7","","78","","18","","6","","24.1","","100.73","","","","-5","","Mainly Clear"
"2009-03-15 06:00","2009","03","15","06:00","-2.6","","-5.6","","80","","20","","6","","19.3","","100.77","","","","-5","","Mostly Cloudy"
"2009-03-15 07:00","2009","03","15","07:00","-3.0","","-5.8","","81","","21","","9","","19.3","","100.82","","","","-7","","Mostly Cloudy"
"2009-03-15 08:00","2009","03","15","08:00","-1.7","","-5.3","","76","","22","","11","","19.3","","100.87","","","","-6","","Mainly Clear"
"2009-03-15 09:00","2009","03","15","09:00","1.2","","-4.9","","64","","23","","9","","19.3","","100.90","","","","","","Mainly Clear"
"2009-03-15 10:00","2009","03","15","10:00","4.0","","-4.2","","55","","24","","11","","19.3","","100.90","","","","","","Clear"
"2009-03-15 11:00","2009","03","15","11:00","5.5","","-4.1","","50","","25","","11","","19.3","","100.89","","","","","","Clear"
"2009-03-15 12:00","2009","03","15","12:00","6.7","","-4.5","","45","","32","","15","","19.3","","100.88","","","","","","Clear"
"2009-03-15 13:00","2009","03","15","13:00","8.2","","-4.8","","39","","29","","11","","24.1","","100.83","","","","","","Clear"
"2009-03-15 14:00","2009","03","15","14:00","8.7","","-4.8","","38","","27","","6","","24.1","","100.80","","","","","","Clear"
"2009-03-15 15:00","2009","03","15","15:00","8.8","","-4.5","","39","","27","","9","","24.1","","100.78","","","","","","Clear"
"2009-03-15 16:00","2009","03","15","16:00","9.1","","-5.2","","36","","28","","4","","24.1","","100.79","","","","","","Clear"
"2009-03-15 17:00","2009","03","15","17:00","8.5","","-4.7","","39","","","","0","","24.1","","100.83","","","","","","Clear"
"2009-03-15 18:00","2009","03","15","18:00","8.3","","-6.1","","35","","4","","4","","24.1","","100.88","","","","","","Clear"
"2009-03-15 19:00","2009","03","15","19:00","6.1","","-5.6","","43","","11","","4","","24.1","","100.92","","","","","","Clear"
"2009-03-15 20:00","2009","03","15","20:00","5.2","","-5.7","","45","","11","","6","","24.1","","100.96","","","","","","Clear"
"2009-03-15 21:00","2009","03","15","21:00","5.5","","-6.6","","41","","15","","4","","24.1","","100.98","","","","","","Clear"
"2009-03-15 22:00","2009","03","15","22:00","4.1","","-5.8","","48","","18","","4","","24.1","","101.02","","","","","","Clear"
"2009-03-15 23:00","2009","03","15","23:00","3.8","","-5.9","","49","","19","","4","","24.1","","101.06","","","","","","Clear"
"2009-03-16 00:00","2009","03","16","00:00","0.1","","-4.9","","69","","9","","22","","24.1","","101.18","","","","","","Clear"
"2009-03-16 01:00","2009","03","16","01:00","-0.5","","-3.9","","78","","9","","20","","24.1","","101.28","","","","-6","","Clear"
"2009-03-16 02:00","2009","03","16","02:00","-1.5","","-5.2","","76","","7","","15","","24.1","","101.33","","","","-6","","Clear"
"2009-03-16 03:00","2009","03","16","03:00","-2.1","","-7.4","","67","","6","","6","","24.1","","101.33","","","","-4","","Clear"
"2009-03-16 04:00","2009","03","16","04:00","-2.9","","-7.6","","70","","7","","15","","24.1","","101.37","","","","-8","","Clear"
"2009-03-16 05:00","2009","03","16","05:00","-3.3","","-8.2","","69","","7","","13","","24.1","","101.41","","","","-8","","Clear"
"2009-03-16 06:00","2009","03","16","06:00","-3.3","","-9.3","","63","","7","","19","","24.1","","101.46","","","","-9","","Clear"
"2009-03-16 07:00","2009","03","16","07:00","-3.5","","-9.4","","64","","6","","17","","24.1","","101.52","","","","-9","","Clear"
"2009-03-16 08:00","2009","03","16","08:00","-2.3","","-9.6","","57","","7","","19","","24.1","","101.58","","","","-8","","Clear"
"2009-03-16 09:00","2009","03","16","09:00","-1.4","","-9.5","","54","","9","","17","","24.1","","101.60","","","","-7","","Clear"
"2009-03-16 10:00","2009","03","16","10:00","-0.1","","-8.1","","55","","9","","15","","24.1","","101.58","","","","-5","","Clear"
"2009-03-16 11:00","2009","03","16","11:00","1.8","","-7.8","","49","","8","","13","","24.1","","101.53","","","","","","Mostly Cloudy"
"2009-03-16 12:00","2009","03","16","12:00","2.7","","-7.3","","48","","7","","11","","24.1","","101.53","","","","","","Cloudy"
"2009-03-16 13:00","2009","03","16","13:00","3.4","","-7.2","","46","","7","","9","","24.1","","101.44","","","","","","Cloudy"
"2009-03-16 14:00","2009","03","16","14:00","4.4","","-6.2","","46","","9","","15","","24.1","","101.35","","","","","","Cloudy"
"2009-03-16 15:00","2009","03","16","15:00","4.1","","-6.4","","46","","8","","15","","24.1","","101.34","","","","","","Cloudy"
"2009-03-16 16:00","2009","03","16","16:00","4.1","","-5.6","","49","","8","","17","","24.1","","101.27","","","","","","Cloudy"
"2009-03-16 17:00","2009","03","16","17:00","3.4","","-5.6","","52","","7","","15","","24.1","","101.23","","","","","","Cloudy"
"2009-03-16 18:00","2009","03","16","18:00","2.2","","-5.7","","56","","6","","13","","24.1","","101.23","","","","","","Cloudy"
"2009-03-16 19:00","2009","03","16","19:00","0.9","","-6.2","","59","","6","","9","","25.0","","101.22","","","","","","Cloudy"
"2009-03-16 20:00","2009","03","16","20:00","0.1","","-6.6","","61","","7","","13","","25.0","","101.20","","","","","","Mostly Cloudy"
"2009-03-16 21:00","2009","03","16","21:00","-0.3","","-7.6","","58","","5","","11","","25.0","","101.19","","","","-4","","Mostly Cloudy"
"2009-03-16 22:00","2009","03","16","22:00","-1.1","","-8.1","","59","","4","","11","","25.0","","101.14","","","","-5","","Mostly Cloudy"
"2009-03-16 23:00","2009","03","16","23:00","-1.5","","-9.4","","55","","5","","9","","25.0","","101.12","","","","-5","","Mostly Cloudy"
"2009-03-17 00:00","2009","03","17","00:00","-2.0","","-10.5","","52","","5","","9","","25.0","","101.10","","","","-5","","Mostly Cloudy"
"2009-03-17 01:00","2009","03","17","01:00","-2.2","","-11.9","","47","","5","","11","","25.0","","101.07","","","","-6","","Mostly Cloudy"
"2009-03-17 02:00","2009","03","17","02:00","-2.7","","-12.7","","46","","4","","11","","25.0","","101.04","","","","-7","","Mostly Cloudy"
"2009-03-17 03:00","2009","03","17","03:00","-2.7","","-13.0","","45","","5","","11","","25.0","","101.00","","","","-7","","Mostly Cloudy"
"2009-03-17 04:00","2009","03","17","04:00","-3.1","","-12.8","","47","","4","","9","","25.0","","101.01","","","","-7","","Mainly Clear"
"2009-03-17 05:00","2009","03","17","05:00","-3.2","","-13.0","","47","","6","","9","","25.0","","101.00","","","","-7","","Mainly Clear"
"2009-03-17 06:00","2009","03","17","06:00","-3.4","","-13.1","","47","","7","","9","","24.1","","101.00","","","","-7","","Mainly Clear"
"2009-03-17 07:00","2009","03","17","07:00","-2.5","","-12.7","","45","","5","","7","","24.1","","101.03","","","","-5","","Clear"
"2009-03-17 08:00","2009","03","17","08:00","-1.2","","-11.8","","44","","8","","9","","24.1","","101.03","","","","-4","","Mainly Clear"
"2009-03-17 09:00","2009","03","17","09:00","0.2","","-10.7","","44","","8","","6","","24.1","","101.04","","","","","","Mainly Clear"
"2009-03-17 10:00","2009","03","17","10:00","2.2","","-8.6","","45","","8","","4","","24.1","","100.99","","","","","","Mainly Clear"
"2009-03-17 11:00","2009","03","17","11:00","4.0","","-6.6","","46","","13","","4","","24.1","","100.98","","","","","","Mainly Clear"
"2009-03-17 12:00","2009","03","17","12:00","6.0","","-4.7","","46","","19","","4","","24.1","","100.88","","","","","","Mostly Cloudy"
"2009-03-17 13:00","2009","03","17","13:00","7.7","","-3.0","","47","","19","","7","","24.1","","100.77","","","","","","Mostly Cloudy"
"2009-03-17 14:00","2009","03","17","14:00","9.4","","-1.7","","46","","22","","7","","24.1","","100.71","","","","","","Mostly Cloudy"
"2009-03-17 15:00","2009","03","17","15:00","10.3","","-0.9","","46","","17","","9","","24.1","","100.62","","","","","","Mostly Cloudy"
"2009-03-17 16:00","2009","03","17","16:00","11.0","","0.7","","49","","15","","7","","24.1","","100.55","","","","","","Mainly Clear"
"2009-03-17 17:00","2009","03","17","17:00","11.3","","1.5","","51","","18","","9","","24.1","","100.53","","","","","","Mainly Clear"
"2009-03-17 18:00","2009","03","17","18:00","8.6","","0.9","","58","","17","","7","","24.1","","100.49","","","","","","Mainly Clear"
"2009-03-17 19:00","2009","03","17","19:00","7.0","","0.2","","62","","16","","7","","25.0","","100.49","","","","","","Mainly Clear"
"2009-03-17 20:00","2009","03","17","20:00","6.2","","-0.2","","64","","17","","7","","25.0","","100.45","","","","","","Mainly Clear"
"2009-03-17 21:00","2009","03","17","21:00","5.9","","-0.8","","62","","20","","7","","25.0","","100.41","","","","","","Mainly Clear"
"2009-03-17 22:00","2009","03","17","22:00","4.0","","-0.9","","70","","18","","7","","25.0","","100.32","","","","","","Clear"
"2009-03-17 23:00","2009","03","17","23:00","4.8","","-0.5","","68","","19","","6","","25.0","","100.27","","","","","","Mainly Clear"
"2009-03-18 00:00","2009","03","18","00:00","3.7","","-0.5","","74","","17","","7","","25.0","","100.18","","","","","","Cloudy"
"2009-03-18 01:00","2009","03","18","01:00","4.3","","0.9","","79","","17","","13","","25.0","","100.02","","","","","","Cloudy"
"2009-03-18 02:00","2009","03","18","02:00","5.4","","1.5","","76","","18","","15","","16.1","","99.90","","","","","","Cloudy"
"2009-03-18 03:00","2009","03","18","03:00","7.1","","1.2","","66","","18","","17","","16.1","","99.75","","","","","","Cloudy"
"2009-03-18 04:00","2009","03","18","04:00","7.3","","1.2","","65","","20","","26","","16.1","","99.71","","","","","","Cloudy"
"2009-03-18 05:00","2009","03","18","05:00","7.0","","1.7","","69","","21","","9","","16.1","","99.73","","","","","","Rain"
"2009-03-18 06:00","2009","03","18","06:00","7.7","","2.3","","69","","23","","11","","19.3","","99.71","","","","","","Cloudy"
"2009-03-18 07:00","2009","03","18","07:00","7.1","","2.2","","71","","23","","13","","19.3","","99.78","","","","","","Cloudy"
"2009-03-18 08:00","2009","03","18","08:00","7.5","","2.3","","70","","24","","11","","24.1","","99.83","","","","","","Mostly Cloudy"
"2009-03-18 09:00","2009","03","18","09:00","8.0","","2.3","","67","","23","","13","","24.1","","99.86","","","","","","Cloudy"
"2009-03-18 10:00","2009","03","18","10:00","9.0","","3.2","","67","","25","","13","","24.1","","99.89","","","","","","Mostly Cloudy"
"2009-03-18 11:00","2009","03","18","11:00","10.3","","3.5","","63","","27","","24","","24.1","","99.87","","","","","","Mostly Cloudy"
"2009-03-18 12:00","2009","03","18","12:00","10.9","","2.4","","56","","28","","20","","24.1","","99.87","","","","","","Mostly Cloudy"
"2009-03-18 13:00","2009","03","18","13:00","12.0","","-2.5","","36","","28","","19","","24.1","","99.85","","","","","","Mainly Clear"
"2009-03-18 14:00","2009","03","18","14:00","12.8","","-3.3","","32","","27","","19","","24.1","","99.83","","","","","","Mostly Cloudy"
"2009-03-18 15:00","2009","03","18","15:00","13.0","","-3.5","","32","","26","","7","","24.1","","99.77","","","","","","Mostly Cloudy"
"2009-03-18 16:00","2009","03","18","16:00","13.0","","-3.7","","31","","31","","9","","24.1","","99.73","","","","","","Mainly Clear"
"2009-03-18 17:00","2009","03","18","17:00","12.8","","-5.1","","28","","25","","9","","24.1","","99.72","","","","","","Mostly Cloudy"
"2009-03-18 18:00","2009","03","18","18:00","10.6","","-7.5","","27","","24","","19","","24.1","","99.75","","","","","","Mostly Cloudy"
"2009-03-18 19:00","2009","03","18","19:00","10.2","","-8.1","","27","","25","","22","","25.0","","99.81","","","","","","Mostly Cloudy"
"2009-03-18 20:00","2009","03","18","20:00","9.0","","-6.7","","32","","26","","30","","25.0","","99.88","","","","","","Cloudy"
"2009-03-18 21:00","2009","03","18","21:00","8.2","","-6.9","","34","","26","","20","","25.0","","99.91","","","","","","Cloudy"
"2009-03-18 22:00","2009","03","18","22:00","7.3","","-7.2","","35","","27","","24","","25.0","","99.93","","","","","","Cloudy"
"2009-03-18 23:00","2009","03","18","23:00","6.3","","-7.8","","36","","27","","24","","25.0","","99.97","","","","","","Clear"
"2009-03-19 00:00","2009","03","19","00:00","5.3","","-8.0","","38","","27","","22","","25.0","","100.00","","","","","","Mainly Clear"
"2009-03-19 01:00","2009","03","19","01:00","4.1","","-8.1","","41","","27","","20","","25.0","","100.03","","","","","","Mainly Clear"
"2009-03-19 02:00","2009","03","19","02:00","3.8","","-8.3","","41","","28","","17","","25.0","","100.02","","","","","","Clear"
"2009-03-19 03:00","2009","03","19","03:00","2.3","","-8.1","","46","","27","","11","","25.0","","100.00","","","","","","Clear"
"2009-03-19 04:00","2009","03","19","04:00","1.5","","-7.5","","51","","20","","7","","25.0","","100.06","","","","","","Clear"
"2009-03-19 05:00","2009","03","19","05:00","0.2","","-7.7","","55","","22","","7","","25.0","","100.13","","","","","","Clear"
"2009-03-19 06:00","2009","03","19","06:00","-0.7","","-7.4","","60","","27","","11","","24.1","","100.21","","","","-4","","Clear"
"2009-03-19 07:00","2009","03","19","07:00","-0.1","","-5.6","","66","","33","","11","","24.1","","100.32","","","","-4","","Clear"
"2009-03-19 08:00","2009","03","19","08:00","0.9","","-5.6","","62","","34","","13","","24.1","","100.40","","","","","","Mostly Cloudy"
"2009-03-19 09:00","2009","03","19","09:00","1.6","","-5.4","","60","","34","","19","","24.1","","100.47","","","","","","Mainly Clear"
"2009-03-19 10:00","2009","03","19","10:00","2.1","","-7.1","","51","","32","","17","","24.1","","100.55","","","","","","Mainly Clear"
"2009-03-19 11:00","2009","03","19","11:00","1.1","","-7.5","","53","","32","","20","","24.1","","100.62","","","","","","Mostly Cloudy"
"2009-03-19 12:00","2009","03","19","12:00","2.0","","-7.8","","48","","32","","13","","24.1","","100.64","","","","","","Mainly Clear"
"2009-03-19 13:00","2009","03","19","13:00","3.1","","-8.2","","43","","28","","19","","24.1","","100.65","","","","","","Clear"
"2009-03-19 14:00","2009","03","19","14:00","2.1","","-10.6","","38","","29","","22","","24.1","","100.68","","","","","","Clear"
"2009-03-19 15:00","2009","03","19","15:00","1.4","","-12.0","","36","","35","","26","","24.1","","100.75","","","","","","Clear"
"2009-03-19 16:00","2009","03","19","16:00","1.3","","-12.5","","35","","33","","17","","24.1","","100.83","","","","","","Clear"
"2009-03-19 17:00","2009","03","19","17:00","0.6","","-12.1","","38","","35","","19","","24.1","","100.89","","","","","","Clear"
"2009-03-19 18:00","2009","03","19","18:00","-1.0","","-13.0","","40","","36","","17","","24.1","","100.98","","","","-6","","Clear"
"2009-03-19 19:00","2009","03","19","19:00","-1.8","","-14.6","","37","","35","","19","","25.0","","101.07","","","","-7","","Clear"
"2009-03-19 20:00","2009","03","19","20:00","-2.5","","-13.8","","41","","36","","15","","25.0","","101.15","","","","-7","","Clear"
"2009-03-19 21:00","2009","03","19","21:00","-2.6","","-14.8","","39","","36","","17","","25.0","","101.22","","","","-8","","Clear"
"2009-03-19 22:00","2009","03","19","22:00","-3.3","","-14.9","","40","","36","","17","","25.0","","101.23","","","","-9","","Clear"
"2009-03-19 23:00","2009","03","19","23:00","-4.0","","-15.6","","40","","35","","19","","25.0","","101.25","","","","-10","","Clear"
"2009-03-20 00:00","2009","03","20","00:00","-4.7","","-15.7","","42","","36","","15","","25.0","","101.27","","","","-10","","Clear"
"2009-03-20 01:00","2009","03","20","01:00","-5.3","","-15.7","","44","","1","","15","","25.0","","101.32","","","","-11","","Clear"
"2009-03-20 02:00","2009","03","20","02:00","-6.5","","-15.5","","49","","1","","11","","25.0","","101.35","","","","-11","","Clear"
"2009-03-20 03:00","2009","03","20","03:00","-6.9","","-15.6","","50","","35","","9","","25.0","","101.40","","","","-11","","Clear"
"2009-03-20 04:00","2009","03","20","04:00","-8.8","","-15.1","","60","","32","","9","","25.0","","101.49","","","","-13","","Clear"
"2009-03-20 05:00","2009","03","20","05:00","-8.6","","-14.4","","63","","35","","11","","25.0","","101.55","","","","-14","","Clear"
"2009-03-20 06:00","2009","03","20","06:00","-7.9","","-15.6","","54","","36","","11","","24.1","","101.61","","","","-13","","Clear"
"2009-03-20 07:00","2009","03","20","07:00","-7.0","","-16.5","","47","","36","","11","","24.1","","101.72","","","","-12","","Clear"
"2009-03-20 08:00","2009","03","20","08:00","-6.3","","-17.2","","42","","1","","17","","24.1","","101.79","","","","-13","","Clear"
"2009-03-20 09:00","2009","03","20","09:00","-5.1","","-18.1","","35","","2","","15","","24.1","","101.84","","","","-11","","Clear"
"2009-03-20 10:00","2009","03","20","10:00","-3.6","","-17.7","","33","","2","","7","","24.1","","101.84","","","","-7","","Clear"
"2009-03-20 11:00","2009","03","20","11:00","-3.8","","-18.5","","31","","34","","11","","24.1","","101.83","","","","-8","","Clear"
"2009-03-20 12:00","2009","03","20","12:00","-2.4","","-18.0","","29","","35","","11","","24.1","","101.81","","","","-6","","Clear"
"2009-03-20 13:00","2009","03","20","13:00","-1.3","","-17.2","","29","","31","","4","","24.1","","101.78","","","","-3","","Clear"
"2009-03-20 14:00","2009","03","20","14:00","-0.6","","-16.4","","29","","24","","7","","24.1","","101.73","","","","-3","","Clear"
"2009-03-20 15:00","2009","03","20","15:00","0.3","","-15.7","","29","","25","","11","","24.1","","101.72","","","","","","Clear"
"2009-03-20 16:00","2009","03","20","16:00","0.3","","-15.5","","29","","26","","7","","24.1","","101.70","","","","","","Clear"
"2009-03-20 17:00","2009","03","20","17:00","0.6","","-15.1","","30","","27","","6","","24.1","","101.71","","","","","","Clear"
"2009-03-20 18:00","2009","03","20","18:00","-0.9","","-14.8","","34","","28","","11","","24.1","","101.76","","","","-5","","Clear"
"2009-03-20 19:00","2009","03","20","19:00","-2.1","","-13.7","","41","","27","","9","","25.0","","101.78","","","","-6","","Clear"
"2009-03-20 20:00","2009","03","20","20:00","-2.4","","-13.7","","42","","27","","7","","25.0","","101.82","","","","-5","","Clear"
"2009-03-20 21:00","2009","03","20","21:00","-2.9","","-13.8","","43","","29","","4","","25.0","","101.83","","","","-4","","Clear"
"2009-03-20 22:00","2009","03","20","22:00","-3.5","","-13.9","","44","","","","0","","25.0","","101.79","","","","","","Clear"
"2009-03-20 23:00","2009","03","20","23:00","-4.0","","-12.9","","50","","","","0","","25.0","","101.77","","","","","","Clear"
"2009-03-21 00:00","2009","03","21","00:00","-4.9","","-11.1","","62","","21","","6","","25.0","","101.78","","","","-8","","Clear"
"2009-03-21 01:00","2009","03","21","01:00","-5.3","","-10.9","","65","","21","","4","","25.0","","101.82","","","","-7","","Clear"
"2009-03-21 02:00","2009","03","21","02:00","-5.4","","-11.1","","64","","20","","4","","25.0","","101.80","","","","-7","","Clear"
"2009-03-21 03:00","2009","03","21","03:00","-5.4","","-11.9","","60","","18","","7","","25.0","","101.79","","","","-9","","Clear"
"2009-03-21 04:00","2009","03","21","04:00","-5.6","","-12.3","","59","","18","","7","","25.0","","101.82","","","","-9","","Clear"
"2009-03-21 05:00","2009","03","21","05:00","-7.1","","-12.8","","64","","16","","6","","25.0","","101.84","","","","-10","","Clear"
"2009-03-21 06:00","2009","03","21","06:00","-7.5","","-12.4","","68","","14","","6","","24.1","","101.87","","","","-11","","Clear"
"2009-03-21 07:00","2009","03","21","07:00","-6.0","","-10.3","","72","","18","","7","","24.1","","101.91","","","","-9","","Mainly Clear"
"2009-03-21 08:00","2009","03","21","08:00","-4.4","","-8.6","","72","","21","","11","","24.1","","101.89","","","","-9","","Mainly Clear"
"2009-03-21 09:00","2009","03","21","09:00","-1.3","","-7.5","","63","","22","","9","","24.1","","101.88","","","","-5","","Mostly Cloudy"
"2009-03-21 10:00","2009","03","21","10:00","1.1","","-8.7","","48","","24","","15","","24.1","","101.88","","","","","","Mostly Cloudy"
"2009-03-21 11:00","2009","03","21","11:00","3.3","","-11.8","","32","","23","","20","","24.1","","101.82","","","","","","Mostly Cloudy"
"2009-03-21 12:00","2009","03","21","12:00","3.6","","-12.1","","31","","22","","19","","24.1","","101.76","","","","","","Mostly Cloudy"
"2009-03-21 13:00","2009","03","21","13:00","5.0","","-11.5","","29","","20","","15","","24.1","","101.64","","","","","","Cloudy"
"2009-03-21 14:00","2009","03","21","14:00","5.5","","-10.6","","30","","21","","19","","24.1","","101.55","","","","","","Cloudy"
"2009-03-21 15:00","2009","03","21","15:00","5.3","","-9.3","","34","","22","","20","","24.1","","101.49","","","","","","Cloudy"
"2009-03-21 16:00","2009","03","21","16:00","5.6","","-9.1","","34","","24","","19","","24.1","","101.43","","","","","","Mostly Cloudy"
"2009-03-21 17:00","2009","03","21","17:00","4.8","","-8.2","","38","","21","","20","","24.1","","101.40","","","","","","Mostly Cloudy"
"2009-03-21 18:00","2009","03","21","18:00","3.1","","-10.0","","38","","21","","15","","24.1","","101.40","","","","","","Cloudy"
"2009-03-21 19:00","2009","03","21","19:00","2.0","","-10.0","","41","","21","","13","","25.0","","101.41","","","","","","Mostly Cloudy"
"2009-03-21 20:00","2009","03","21","20:00","1.6","","-10.1","","41","","22","","15","","25.0","","101.39","","","","","","Mostly Cloudy"
"2009-03-21 21:00","2009","03","21","21:00","1.7","","-9.8","","42","","22","","15","","25.0","","101.35","","","","","","Mostly Cloudy"
"2009-03-21 22:00","2009","03","21","22:00","1.6","","-9.6","","43","","23","","15","","25.0","","101.32","","","","","","Cloudy"
"2009-03-21 23:00","2009","03","21","23:00","1.3","","-8.5","","48","","25","","9","","24.1","","101.29","","","","","","Cloudy"
"2009-03-22 00:00","2009","03","22","00:00","0.9","","-2.8","","76","","29","","11","","11.3","","101.27","","","","","","Snow"
"2009-03-22 01:00","2009","03","22","01:00","0.2","","-1.2","","90","","27","","11","","6.4","","101.26","","","","","","Snow"
"2009-03-22 02:00","2009","03","22","02:00","0.1","","-1.2","","91","","27","","13","","6.4","","101.25","","","","","","Snow"
"2009-03-22 03:00","2009","03","22","03:00","0.0","","-1.5","","90","","29","","13","","12.9","","101.24","","","","-4","","Snow"
"2009-03-22 04:00","2009","03","22","04:00","-0.2","","-1.7","","90","","29","","15","","16.1","","101.28","","","","-5","","Snow"
"2009-03-22 05:00","2009","03","22","05:00","-0.6","","-3.7","","80","","34","","28","","19.3","","101.31","","","","-7","","Snow Showers"
"2009-03-22 06:00","2009","03","22","06:00","-1.9","","-6.8","","69","","36","","22","","24.1","","101.42","","","","-8","","Mostly Cloudy"
"2009-03-22 07:00","2009","03","22","07:00","-3.0","","-9.3","","62","","35","","24","","24.1","","101.51","","","","-10","","Mainly Clear"
"2009-03-22 08:00","2009","03","22","08:00","-3.8","","-11.1","","57","","34","","28","","24.1","","101.58","","","","-11","","Mainly Clear"
"2009-03-22 09:00","2009","03","22","09:00","-3.4","","-12.9","","48","","34","","24","","24.1","","101.64","","","","-10","","Clear"
"2009-03-22 10:00","2009","03","22","10:00","-2.9","","-14.1","","42","","32","","33","","24.1","","101.68","","","","-11","","Clear"
"2009-03-22 11:00","2009","03","22","11:00","-1.7","","-14.8","","36","","33","","30","","24.1","","101.68","","","","-9","","Clear"
"2009-03-22 12:00","2009","03","22","12:00","-0.8","","-16.3","","30","","32","","28","","32.2","","101.65","","","","-7","","Clear"
"2009-03-22 13:00","2009","03","22","13:00","-0.7","","-18.0","","26","","33","","32","","32.2","","101.60","","","","-8","","Clear"
"2009-03-22 14:00","2009","03","22","14:00","0.0","","-18.4","","24","","32","","26","","32.2","","101.57","","","","-6","","Clear"
"2009-03-22 15:00","2009","03","22","15:00","-0.6","","-18.5","","24","","35","","22","","32.2","","101.54","","","","-6","","Clear"
"2009-03-22 16:00","2009","03","22","16:00","-0.2","","-19.5","","22","","31","","24","","32.2","","101.53","","","","-6","","Clear"
"2009-03-22 17:00","2009","03","22","17:00","-0.7","","-19.4","","23","","35","","24","","32.2","","101.52","","","","-7","","Clear"
"2009-03-22 18:00","2009","03","22","18:00","-2.1","","-19.1","","26","","34","","19","","32.2","","101.56","","","","-8","","Clear"
"2009-03-22 19:00","2009","03","22","19:00","-3.0","","-20.4","","25","","34","","20","","25.0","","101.61","","","","-9","","Clear"
"2009-03-22 20:00","2009","03","22","20:00","-3.5","","-18.7","","30","","34","","15","","25.0","","101.66","","","","-9","","Clear"
"2009-03-22 21:00","2009","03","22","21:00","-4.4","","-17.4","","35","","34","","20","","25.0","","101.72","","","","-11","","Clear"
"2009-03-22 22:00","2009","03","22","22:00","-5.1","","-17.9","","36","","33","","22","","25.0","","101.74","","","","-12","","Clear"
"2009-03-22 23:00","2009","03","22","23:00","-6.1","","-17.1","","41","","34","","13","","25.0","","101.75","","","","-11","","Clear"
"2009-03-23 00:00","2009","03","23","00:00","-6.5","","-19.3","","35","","31","","28","","25.0","","101.77","","","","-15","","Clear"
"2009-03-23 01:00","2009","03","23","01:00","-7.6","","-19.3","","39","","33","","19","","25.0","","101.75","","","","-15","","Clear"
"2009-03-23 02:00","2009","03","23","02:00","-8.3","","-20.2","","38","","33","","20","","25.0","","101.76","","","","-16","","Clear"
"2009-03-23 03:00","2009","03","23","03:00","-9.1","","-21.2","","37","","34","","22","","25.0","","101.76","","","","-17","","Clear"
"2009-03-23 04:00","2009","03","23","04:00","-9.9","","-20.8","","41","","35","","22","","25.0","","101.81","","","","-18","","Clear"
"2009-03-23 05:00","2009","03","23","05:00","-10.7","","-22.2","","38","","33","","24","","25.0","","101.86","","","","-19","","Clear"
"2009-03-23 06:00","2009","03","23","06:00","-11.7","","-22.0","","42","","34","","19","","24.1","","101.94","","","","-20","","Clear"
"2009-03-23 07:00","2009","03","23","07:00","-11.4","","-21.4","","43","","34","","22","","24.1","","102.01","","","","-20","","Clear"
"2009-03-23 08:00","2009","03","23","08:00","-10.6","","-21.5","","40","","32","","20","","24.1","","102.04","","","","-19","","Clear"
"2009-03-23 09:00","2009","03","23","09:00","-9.7","","-21.1","","39","","32","","26","","24.1","","102.05","","","","-19","","Clear"
"2009-03-23 10:00","2009","03","23","10:00","-8.2","","-20.7","","36","","31","","20","","24.1","","102.03","","","","-16","","Clear"
"2009-03-23 11:00","2009","03","23","11:00","-7.0","","-20.6","","33","","34","","26","","24.1","","101.99","","","","-15","","Clear"
"2009-03-23 12:00","2009","03","23","12:00","-5.2","","-20.4","","29","","32","","28","","24.1","","101.93","","","","-13","","Clear"
"2009-03-23 13:00","2009","03","23","13:00","-4.2","","-18.7","","31","","33","","19","","24.1","","101.88","","","","-10","","Clear"
"2009-03-23 14:00","2009","03","23","14:00","-3.1","","-18.1","","30","","32","","24","","24.1","","101.84","","","","-10","","Clear"
"2009-03-23 15:00","2009","03","23","15:00","-2.0","","-17.1","","30","","32","","24","","24.1","","101.84","","","","-8","","Clear"
"2009-03-23 16:00","2009","03","23","16:00","-2.2","","-17.0","","31","","33","","22","","24.1","","101.86","","","","-8","","Clear"
"2009-03-23 17:00","2009","03","23","17:00","-2.1","","-17.0","","31","","1","","20","","24.1","","101.88","","","","-8","","Mainly Clear"
"2009-03-23 18:00","2009","03","23","18:00","-3.1","","-16.7","","34","","35","","22","","24.1","","101.93","","","","-9","","Mainly Clear"
"2009-03-23 19:00","2009","03","23","19:00","-4.0","","-17.0","","36","","33","","20","","25.0","","102.00","","","","-10","","Mainly Clear"
"2009-03-23 20:00","2009","03","23","20:00","-4.4","","-16.6","","38","","35","","15","","25.0","","102.01","","","","-10","","Clear"
"2009-03-23 21:00","2009","03","23","21:00","-6.1","","-16.7","","43","","33","","13","","25.0","","102.03","","","","-11","","Clear"
"2009-03-23 22:00","2009","03","23","22:00","-7.5","","-16.4","","49","","33","","9","","25.0","","102.03","","","","-12","","Clear"
"2009-03-23 23:00","2009","03","23","23:00","-6.3","","-16.1","","46","","35","","13","","25.0","","102.03","","","","-12","","Clear"
"2009-03-24 00:00","2009","03","24","00:00","-6.1","","-16.7","","43","","1","","13","","25.0","","102.02","","","","-11","","Clear"
"2009-03-24 01:00","2009","03","24","01:00","-6.0","","-16.6","","43","","1","","9","","25.0","","102.01","","","","-10","","Clear"
"2009-03-24 02:00","2009","03","24","02:00","-7.6","","-17.1","","46","","36","","9","","25.0","","102.02","","","","-12","","Clear"
"2009-03-24 03:00","2009","03","24","03:00","-7.8","","-16.3","","50","","36","","9","","25.0","","102.04","","","","-12","","Clear"
"2009-03-24 04:00","2009","03","24","04:00","-8.9","","-16.5","","54","","34","","7","","25.0","","102.12","","","","-13","","Clear"
"2009-03-24 05:00","2009","03","24","05:00","-8.3","","-16.5","","52","","35","","11","","25.0","","102.14","","","","-14","","Clear"
"2009-03-24 06:00","2009","03","24","06:00","-10.4","","-16.8","","59","","32","","9","","24.1","","102.22","","","","-15","","Mainly Clear"
"2009-03-24 07:00","2009","03","24","07:00","-7.1","","-15.4","","52","","1","","9","","24.1","","102.27","","","","-11","","Mainly Clear"
"2009-03-24 08:00","2009","03","24","08:00","-5.6","","-16.3","","43","","36","","9","","24.1","","102.30","","","","-10","","Mainly Clear"
"2009-03-24 09:00","2009","03","24","09:00","-3.3","","-15.2","","39","","1","","4","","24.1","","102.32","","","","-5","","Mainly Clear"
"2009-03-24 10:00","2009","03","24","10:00","-1.2","","-14.2","","36","","1","","4","","24.1","","102.28","","","","-3","","Clear"
"2009-03-24 11:00","2009","03","24","11:00","0.6","","-14.4","","31","","7","","7","","24.1","","102.21","","","","","","Clear"
"2009-03-24 12:00","2009","03","24","12:00","2.4","","-13.9","","29","","1","","6","","24.1","","102.19","","","","","","Clear"
"2009-03-24 13:00","2009","03","24","13:00","2.2","","-13.9","","29","","5","","9","","24.1","","102.07","","","","","","Clear"
"2009-03-24 14:00","2009","03","24","14:00","3.6","","-15.4","","23","","9","","6","","24.1","","102.01","","","","","","Mainly Clear"
"2009-03-24 15:00","2009","03","24","15:00","3.8","","-13.7","","27","","7","","9","","24.1","","101.96","","","","","","Clear"
"2009-03-24 16:00","2009","03","24","16:00","4.2","","-12.5","","28","","12","","13","","24.1","","101.92","","","","","","Clear"
"2009-03-24 17:00","2009","03","24","17:00","3.7","","-12.3","","30","","12","","19","","24.1","","101.94","","","","","","Mainly Clear"
"2009-03-24 18:00","2009","03","24","18:00","1.2","","-11.3","","39","","10","","11","","24.1","","101.94","","","","","","Mainly Clear"
"2009-03-24 19:00","2009","03","24","19:00","0.2","","-11.0","","43","","9","","4","","25.0","","101.92","","","","","","Mainly Clear"
"2009-03-24 20:00","2009","03","24","20:00","-1.1","","-10.6","","48","","8","","11","","25.0","","101.87","","","","-5","","Mainly Clear"
"2009-03-24 21:00","2009","03","24","21:00","-2.0","","-10.7","","51","","9","","9","","25.0","","101.84","","","","-5","","Clear"
"2009-03-24 22:00","2009","03","24","22:00","-0.6","","-10.2","","48","","9","","15","","25.0","","101.79","","","","-5","","Clear"
"2009-03-24 23:00","2009","03","24","23:00","-2.3","","-9.7","","57","","8","","13","","25.0","","101.75","","","","-7","","Clear"
"2009-03-25 00:00","2009","03","25","00:00","-2.6","","-9.4","","59","","9","","15","","25.0","","101.70","","","","-8","","Clear"
"2009-03-25 01:00","2009","03","25","01:00","-2.5","","-8.4","","64","","9","","15","","25.0","","101.66","","","","-7","","Clear"
"2009-03-25 02:00","2009","03","25","02:00","-3.9","","-8.8","","69","","9","","9","","25.0","","101.63","","","","-8","","Clear"
"2009-03-25 03:00","2009","03","25","03:00","-3.5","","-8.4","","69","","7","","11","","25.0","","101.58","","","","-8","","Clear"
"2009-03-25 04:00","2009","03","25","04:00","-4.4","","-8.7","","72","","8","","11","","25.0","","101.53","","","","-9","","Clear"
"2009-03-25 05:00","2009","03","25","05:00","-5.0","","-9.4","","71","","8","","13","","25.0","","101.51","","","","-10","","Clear"
"2009-03-25 06:00","2009","03","25","06:00","-5.2","","-9.3","","73","","8","","11","","25.0","","101.47","","","","-10","","Clear"
"2009-03-25 07:00","2009","03","25","07:00","-3.7","","-8.2","","71","","9","","17","","24.1","","101.44","","","","-9","","Clear"
"2009-03-25 08:00","2009","03","25","08:00","-0.7","","-6.8","","63","","9","","17","","24.1","","101.40","","","","-6","","Clear"
"2009-03-25 09:00","2009","03","25","09:00","1.2","","-6.4","","57","","9","","17","","24.1","","101.35","","","","","","Clear"
"2009-03-25 10:00","2009","03","25","10:00","3.8","","-5.9","","49","","9","","17","","24.1","","101.26","","","","","","Mainly Clear"
"2009-03-25 11:00","2009","03","25","11:00","6.4","","-5.4","","43","","9","","15","","24.1","","101.19","","","","","","Mostly Cloudy"
"2009-03-25 12:00","2009","03","25","12:00","6.5","","-5.6","","42","","8","","24","","24.1","","101.05","","","","","","Mostly Cloudy"
"2009-03-25 13:00","2009","03","25","13:00","8.3","","-5.3","","38","","9","","24","","24.1","","100.92","","","","","","Mostly Cloudy"
"2009-03-25 14:00","2009","03","25","14:00","10.2","","-4.9","","34","","9","","22","","24.1","","100.81","","","","","","Mainly Clear"
"2009-03-25 15:00","2009","03","25","15:00","10.0","","-3.8","","38","","9","","24","","24.1","","100.72","","","","","","Mainly Clear"
"2009-03-25 16:00","2009","03","25","16:00","8.6","","-3.2","","43","","8","","28","","24.1","","100.62","","","","","","Mostly Cloudy"
"2009-03-25 17:00","2009","03","25","17:00","7.8","","-3.5","","45","","8","","24","","24.1","","100.53","","","","","","Mostly Cloudy"
"2009-03-25 18:00","2009","03","25","18:00","6.8","","-3.5","","48","","8","","24","","24.1","","100.48","","","","","","Mostly Cloudy"
"2009-03-25 19:00","2009","03","25","19:00","4.3","","-3.8","","56","","9","","17","","25.0","","100.49","","","","","","Mostly Cloudy"
"2009-03-25 20:00","2009","03","25","20:00","2.9","","-3.7","","62","","9","","17","","25.0","","100.51","","","","","","Mainly Clear"
"2009-03-25 21:00","2009","03","25","21:00","2.5","","-3.6","","64","","9","","22","","25.0","","100.45","","","","","","Mainly Clear"
"2009-03-25 22:00","2009","03","25","22:00","2.6","","-3.3","","65","","9","","20","","25.0","","100.42","","","","","","Cloudy"
"2009-03-25 23:00","2009","03","25","23:00","2.9","","-3.1","","65","","9","","19","","25.0","","100.35","","","","","","Cloudy"
"2009-03-26 00:00","2009","03","26","00:00","3.1","","-3.3","","63","","10","","13","","25.0","","100.30","","","","","","Cloudy"
"2009-03-26 01:00","2009","03","26","01:00","3.7","","-3.5","","59","","12","","11","","25.0","","100.29","","","","","","Cloudy"
"2009-03-26 02:00","2009","03","26","02:00","3.8","","-3.0","","61","","13","","9","","25.0","","100.23","","","","","","Cloudy"
"2009-03-26 03:00","2009","03","26","03:00","3.7","","-3.3","","60","","12","","7","","25.0","","100.18","","","","","","Cloudy"
"2009-03-26 04:00","2009","03","26","04:00","2.5","","-0.9","","78","","11","","7","","12.9","","100.16","","","","","","Rain"
"2009-03-26 05:00","2009","03","26","05:00","1.6","","-0.9","","83","","9","","13","","11.3","","100.04","","","","","","Rain"
"2009-03-26 06:00","2009","03","26","06:00","1.9","","-1.6","","78","","8","","11","","12.9","","100.02","","","","","","Rain"
"2009-03-26 07:00","2009","03","26","07:00","1.8","","-1.6","","78","","6","","11","","12.9","","100.09","","","","","","Rain"
"2009-03-26 08:00","2009","03","26","08:00","1.9","","-1.6","","78","","9","","11","","16.1","","100.11","","","","","","Cloudy"
"2009-03-26 09:00","2009","03","26","09:00","3.1","","-1.1","","74","","9","","13","","19.3","","100.09","","","","","","Cloudy"
"2009-03-26 10:00","2009","03","26","10:00","4.1","","-1.0","","69","","9","","9","","19.3","","100.06","","","","","","Cloudy"
"2009-03-26 11:00","2009","03","26","11:00","4.3","","-1.7","","65","","9","","9","","19.3","","100.01","","","","","","Cloudy"
"2009-03-26 12:00","2009","03","26","12:00","4.8","","-1.5","","64","","9","","9","","24.1","","100.00","","","","","","Cloudy"
"2009-03-26 13:00","2009","03","26","13:00","5.8","","-1.2","","61","","9","","11","","24.1","","99.92","","","","","","Cloudy"
"2009-03-26 14:00","2009","03","26","14:00","5.6","","-1.5","","60","","9","","11","","24.1","","99.87","","","","","","Cloudy"
"2009-03-26 15:00","2009","03","26","15:00","5.9","","-0.5","","63","","12","","15","","24.1","","99.78","","","","","","Cloudy"
"2009-03-26 16:00","2009","03","26","16:00","5.0","","1.7","","79","","11","","7","","24.1","","99.78","","","","","","Cloudy"
"2009-03-26 17:00","2009","03","26","17:00","4.1","","3.1","","93","","9","","6","","4.8","","99.84","","","","","","Rain,Fog"
"2009-03-26 18:00","2009","03","26","18:00","3.0","","2.2","","94","","9","","13","","3.2","","99.79","","","","","","Rain,Fog"
"2009-03-26 19:00","2009","03","26","19:00","2.6","","2.0","","96","","9","","9","","2.4","","99.77","","","","","","Rain,Fog"
"2009-03-26 20:00","2009","03","26","20:00","2.4","","1.9","","96","","11","","6","","2.4","","99.79","","","","","","Rain,Fog"
"2009-03-26 21:00","2009","03","26","21:00","2.5","","2.0","","96","","8","","4","","2.4","","99.76","","","","","","Rain,Fog"
"2009-03-26 22:00","2009","03","26","22:00","2.3","","1.8","","96","","","","0","","2.4","","99.79","","","","","","Fog"
"2009-03-26 23:00","2009","03","26","23:00","2.5","","2.0","","96","","","","0","","2.4","","99.76","","","","","","Rain,Fog"
"2009-03-27 00:00","2009","03","27","00:00","2.2","","1.7","","96","","","","0","","1.2","","99.74","","","","","","Rain,Fog"
"2009-03-27 01:00","2009","03","27","01:00","2.4","","1.9","","96","","20","","4","","0.8","","99.74","","","","","","Rain,Fog"
"2009-03-27 02:00","2009","03","27","02:00","2.5","","2.1","","97","","23","","7","","0.8","","99.74","","","","","","Fog"
"2009-03-27 03:00","2009","03","27","03:00","2.5","","2.2","","98","","25","","9","","0.8","","99.73","","","","","","Fog"
"2009-03-27 04:00","2009","03","27","04:00","2.9","","2.1","","94","","29","","15","","11.3","","99.81","","","","","","Cloudy"
"2009-03-27 05:00","2009","03","27","05:00","2.0","","1.1","","94","","26","","11","","12.9","","99.85","","","","","","Mainly Clear"
"2009-03-27 06:00","2009","03","27","06:00","1.0","","-0.1","","92","","25","","11","","16.1","","99.95","","","","","","Mainly Clear"
"2009-03-27 07:00","2009","03","27","07:00","1.8","","0.3","","90","","24","","9","","16.1","","100.05","","","","","","Mostly Cloudy"
"2009-03-27 08:00","2009","03","27","08:00","2.5","","0.5","","87","","24","","11","","16.1","","100.06","","","","","","Mostly Cloudy"
"2009-03-27 09:00","2009","03","27","09:00","4.0","","0.9","","80","","26","","17","","16.1","","100.15","","","","","","Mostly Cloudy"
"2009-03-27 10:00","2009","03","27","10:00","5.4","","1.4","","75","","27","","17","","24.1","","100.16","","","","","","Mainly Clear"
"2009-03-27 11:00","2009","03","27","11:00","6.8","","0.5","","64","","27","","19","","24.1","","100.19","","","","","","Mainly Clear"
"2009-03-27 12:00","2009","03","27","12:00","7.9","","-0.1","","57","","27","","11","","24.1","","100.15","","","","","","Mainly Clear"
"2009-03-27 13:00","2009","03","27","13:00","9.0","","1.2","","58","","20","","9","","24.1","","100.16","","","","","","Clear"
"2009-03-27 14:00","2009","03","27","14:00","10.1","","0.8","","52","","24","","15","","24.1","","100.16","","","","","","Clear"
"2009-03-27 15:00","2009","03","27","15:00","11.4","","0.4","","47","","23","","11","","24.1","","100.08","","","","","","Clear"
"2009-03-27 16:00","2009","03","27","16:00","11.8","","0.5","","46","","24","","11","","24.1","","100.06","","","","","","Clear"
"2009-03-27 17:00","2009","03","27","17:00","11.8","","0.3","","45","","21","","13","","24.1","","100.09","","","","","","Clear"
"2009-03-27 18:00","2009","03","27","18:00","10.4","","-0.5","","47","","19","","7","","24.1","","100.08","","","","","","Clear"
"2009-03-27 19:00","2009","03","27","19:00","8.3","","0.1","","56","","20","","15","","24.1","","100.13","","","","","","Mainly Clear"
"2009-03-27 20:00","2009","03","27","20:00","5.8","","-0.2","","65","","18","","7","","24.1","","100.16","","","","","","Clear"
"2009-03-27 21:00","2009","03","27","21:00","4.1","","-0.9","","70","","17","","6","","24.1","","100.14","","","","","","Clear"
"2009-03-27 22:00","2009","03","27","22:00","4.4","","-0.8","","69","","17","","7","","25.0","","100.11","","","","","","Clear"
"2009-03-27 23:00","2009","03","27","23:00","3.6","","-1.4","","70","","16","","7","","25.0","","100.06","","","","","","Clear"
"2009-03-28 00:00","2009","03","28","00:00","3.7","","-1.4","","69","","18","","6","","25.0","","100.08","","","","","","Clear"
"2009-03-28 01:00","2009","03","28","01:00","2.9","","-1.9","","71","","17","","6","","25.0","","100.06","","","","","","Mainly Clear"
"2009-03-28 02:00","2009","03","28","02:00","3.4","","-1.9","","68","","17","","6","","25.0","","100.04","","","","","","Mainly Clear"
"2009-03-28 03:00","2009","03","28","03:00","2.8","","-1.8","","72","","","","0","","25.0","","100.03","","","","","","Cloudy"
"2009-03-28 04:00","2009","03","28","04:00","2.7","","-1.5","","74","","","","0","","25.0","","100.04","","","","","","Cloudy"
"2009-03-28 05:00","2009","03","28","05:00","2.5","","-1.3","","76","","3","","9","","25.0","","100.04","","","","","","Cloudy"
"2009-03-28 06:00","2009","03","28","06:00","1.3","","-1.8","","80","","","","0","","24.1","","100.06","","","","","","Mostly Cloudy"
"2009-03-28 07:00","2009","03","28","07:00","1.4","","-0.7","","86","","32","","6","","19.3","","100.12","","","","","","Mostly Cloudy"
"2009-03-28 08:00","2009","03","28","08:00","3.4","","-0.3","","77","","","","0","","19.3","","100.14","","","","","","Mainly Clear"
"2009-03-28 09:00","2009","03","28","09:00","6.7","","0.3","","64","","36","","9","","19.3","","100.18","","","","","","Mainly Clear"
"2009-03-28 10:00","2009","03","28","10:00","8.3","","1.4","","62","","36","","4","","24.1","","100.18","","","","","","Mainly Clear"
"2009-03-28 11:00","2009","03","28","11:00","9.7","","2.3","","60","","34","","6","","24.1","","100.16","","","","","","Clear"
"2009-03-28 12:00","2009","03","28","12:00","11.5","","2.3","","53","","36","","4","","24.1","","100.08","","","","","","Clear"
"2009-03-28 13:00","2009","03","28","13:00","11.8","","2.2","","52","","","","0","","24.1","","100.04","","","","","","Clear"
"2009-03-28 14:00","2009","03","28","14:00","13.2","","2.2","","47","","34","","4","","24.1","","99.99","","","","","","Clear"
"2009-03-28 15:00","2009","03","28","15:00","13.1","","0.5","","42","","28","","6","","24.1","","99.96","","","","","","Mainly Clear"
"2009-03-28 16:00","2009","03","28","16:00","13.2","","0.6","","42","","","","0","","24.1","","99.93","","","","","","Mainly Clear"
"2009-03-28 17:00","2009","03","28","17:00","13.1","","0.9","","43","","1","","4","","24.1","","99.87","","","","","","Mainly Clear"
"2009-03-28 18:00","2009","03","28","18:00","10.5","","1.0","","52","","36","","6","","24.1","","99.88","","","","","","Cloudy"
"2009-03-28 19:00","2009","03","28","19:00","10.2","","0.5","","51","","5","","9","","24.1","","99.84","","","","","","Cloudy"
"2009-03-28 20:00","2009","03","28","20:00","9.0","","0.5","","55","","3","","13","","24.1","","99.85","","","","","","Mainly Clear"
"2009-03-28 21:00","2009","03","28","21:00","7.6","","0.0","","59","","2","","15","","24.1","","99.80","","","","","","Clear"
"2009-03-28 22:00","2009","03","28","22:00","7.0","","-0.3","","60","","4","","19","","25.0","","99.66","","","","","","Clear"
"2009-03-28 23:00","2009","03","28","23:00","6.6","","-0.3","","61","","5","","13","","25.0","","99.62","","","","","","Cloudy"
"2009-03-29 00:00","2009","03","29","00:00","5.8","","-0.5","","64","","5","","15","","25.0","","99.60","","","","","","Mostly Cloudy"
"2009-03-29 01:00","2009","03","29","01:00","5.4","","-0.5","","66","","5","","19","","25.0","","99.51","","","","","","Mainly Clear"
"2009-03-29 02:00","2009","03","29","02:00","5.1","","-0.4","","68","","7","","20","","25.0","","99.43","","","","","","Mainly Clear"
"2009-03-29 03:00","2009","03","29","03:00","5.9","","-0.9","","62","","7","","33","","25.0","","99.31","","","","","","Cloudy"
"2009-03-29 04:00","2009","03","29","04:00","5.6","","0.0","","67","","7","","28","","25.0","","99.21","","","","","","Cloudy"
"2009-03-29 05:00","2009","03","29","05:00","5.4","","0.0","","68","","8","","20","","25.0","","99.14","","","","","","Cloudy"
"2009-03-29 06:00","2009","03","29","06:00","5.8","","-0.2","","65","","8","","28","","24.1","","98.96","","","","","","Mostly Cloudy"
"2009-03-29 07:00","2009","03","29","07:00","5.0","","0.2","","71","","9","","32","","24.1","","98.83","","","","","","Mostly Cloudy"
"2009-03-29 08:00","2009","03","29","08:00","4.1","","2.3","","88","","8","","30","","16.1","","98.71","","","","","","Rain"
"2009-03-29 09:00","2009","03","29","09:00","4.8","","3.2","","89","","7","","30","","16.1","","98.56","","","","","","Rain"
"2009-03-29 10:00","2009","03","29","10:00","5.1","","3.0","","86","","8","","20","","16.1","","98.50","","","","","","Rain"
"2009-03-29 11:00","2009","03","29","11:00","4.8","","3.7","","93","","7","","35","","8.0","","98.30","","","","","","Moderate Rain,Fog"
"2009-03-29 12:00","2009","03","29","12:00","4.3","","3.6","","95","","8","","33","","8.0","","98.21","","","","","","Moderate Rain,Fog"
"2009-03-29 13:00","2009","03","29","13:00","4.7","","4.2","","97","","9","","26","","3.2","","98.12","","","","","","Rain,Fog"
"2009-03-29 14:00","2009","03","29","14:00","5.1","","4.4","","95","","9","","28","","3.2","","98.01","","","","","","Rain,Fog"
"2009-03-29 15:00","2009","03","29","15:00","5.2","","4.8","","97","","8","","28","","2.4","","97.98","","","","","","Rain,Fog"
"2009-03-29 16:00","2009","03","29","16:00","5.3","","5.0","","98","","8","","28","","3.2","","97.96","","","","","","Rain,Fog"
"2009-03-29 17:00","2009","03","29","17:00","5.6","","5.2","","97","","8","","20","","2.4","","97.95","","","","","","Rain,Fog"
"2009-03-29 18:00","2009","03","29","18:00","5.5","","5.2","","98","","6","","4","","3.2","","98.00","","","","","","Rain,Fog"
"2009-03-29 19:00","2009","03","29","19:00","4.8","","4.5","","98","","5","","9","","6.4","","98.01","","","","","","Rain,Fog"
"2009-03-29 20:00","2009","03","29","20:00","4.5","","4.2","","98","","5","","7","","6.4","","98.05","","","","","","Rain,Fog"
"2009-03-29 21:00","2009","03","29","21:00","4.6","","4.2","","97","","6","","9","","4.8","","98.07","","","","","","Rain,Fog"
"2009-03-29 22:00","2009","03","29","22:00","4.3","","4.2","","99","","","","0","","3.2","","98.09","","","","","","Rain,Fog"
"2009-03-29 23:00","2009","03","29","23:00","4.9","","4.6","","98","","24","","13","","8.0","","98.12","","","","","","Rain,Fog"
"2009-03-30 00:00","2009","03","30","00:00","4.6","","4.4","","99","","24","","9","","6.4","","98.10","","","","","","Rain,Fog"
"2009-03-30 01:00","2009","03","30","01:00","4.4","","4.0","","97","","24","","7","","9.7","","98.14","","","","","","Rain,Fog"
"2009-03-30 02:00","2009","03","30","02:00","4.3","","3.5","","95","","26","","13","","16.1","","98.19","","","","","","Rain"
"2009-03-30 03:00","2009","03","30","03:00","3.8","","3.2","","96","","24","","11","","6.4","","98.23","","","","","","Rain,Fog"
"2009-03-30 04:00","2009","03","30","04:00","3.7","","3.0","","95","","25","","17","","6.4","","98.28","","","","","","Rain,Fog"
"2009-03-30 05:00","2009","03","30","05:00","3.8","","2.9","","94","","25","","11","","12.9","","98.36","","","","","","Rain"
"2009-03-30 06:00","2009","03","30","06:00","3.8","","2.7","","93","","27","","13","","12.9","","98.43","","","","","","Rain"
"2009-03-30 07:00","2009","03","30","07:00","4.0","","2.8","","92","","26","","15","","12.9","","98.53","","","","","","Rain"
"2009-03-30 08:00","2009","03","30","08:00","4.4","","2.6","","88","","29","","30","","19.3","","98.58","","","","","","Cloudy"
"2009-03-30 09:00","2009","03","30","09:00","4.4","","2.3","","86","","27","","19","","16.1","","98.66","","","","","","Cloudy"
"2009-03-30 10:00","2009","03","30","10:00","4.1","","2.4","","89","","28","","28","","16.1","","98.76","","","","","","Rain"
"2009-03-30 11:00","2009","03","30","11:00","4.2","","2.7","","90","","29","","26","","19.3","","98.84","","","","","","Rain"
"2009-03-30 12:00","2009","03","30","12:00","3.4","","1.5","","87","","29","","32","","24.1","","98.95","","","","","","Rain"
"2009-03-30 13:00","2009","03","30","13:00","3.1","","1.6","","90","","29","","24","","24.1","","99.04","","","","","","Rain"
"2009-03-30 14:00","2009","03","30","14:00","2.2","","0.8","","90","","28","","24","","16.1","","99.18","","","","","","Rain,Snow"
"2009-03-30 15:00","2009","03","30","15:00","2.0","","0.4","","89","","29","","33","","6.4","","99.32","","","","","","Rain,Snow,Fog"
"2009-03-30 16:00","2009","03","30","16:00","1.7","","-0.1","","88","","29","","28","","24.1","","99.46","","","","","","Rain,Snow"
"2009-03-30 17:00","2009","03","30","17:00","2.1","","-1.1","","79","","30","","26","","24.1","","99.63","","","","","","Cloudy"
"2009-03-30 18:00","2009","03","30","18:00","2.1","","-1.0","","80","","30","","20","","24.1","","99.76","","","","","","Mostly Cloudy"
"2009-03-30 19:00","2009","03","30","19:00","2.0","","-1.3","","79","","30","","20","","24.1","","99.89","","","","","","Cloudy"
"2009-03-30 20:00","2009","03","30","20:00","1.5","","-1.8","","79","","31","","24","","25.0","","100.05","","","","","","Cloudy"
"2009-03-30 21:00","2009","03","30","21:00","1.4","","-2.4","","76","","30","","20","","25.0","","100.17","","","","","","Cloudy"
"2009-03-30 22:00","2009","03","30","22:00","1.3","","-2.5","","76","","32","","20","","25.0","","100.26","","","","","","Cloudy"
"2009-03-30 23:00","2009","03","30","23:00","1.0","","-3.0","","75","","33","","24","","25.0","","100.35","","","","","","Cloudy"
"2009-03-31 00:00","2009","03","31","00:00","1.0","","-3.2","","73","","31","","20","","25.0","","100.45","","","","","","Cloudy"
"2009-03-31 01:00","2009","03","31","01:00","0.9","","-3.4","","73","","30","","15","","25.0","","100.56","","","","","","Cloudy"
"2009-03-31 02:00","2009","03","31","02:00","0.8","","-3.4","","73","","31","","19","","25.0","","100.63","","","","","","Cloudy"
"2009-03-31 03:00","2009","03","31","03:00","0.6","","-3.5","","74","","31","","15","","25.0","","100.66","","","","","","Cloudy"
"2009-03-31 04:00","2009","03","31","04:00","0.6","","-3.8","","72","","33","","20","","25.0","","100.73","","","","","","Cloudy"
"2009-03-31 05:00","2009","03","31","05:00","0.4","","-4.0","","72","","33","","11","","25.0","","100.79","","","","","","Cloudy"
"2009-03-31 06:00","2009","03","31","06:00","0.3","","-4.2","","72","","33","","13","","24.1","","100.88","","","","","","Cloudy"
"2009-03-31 07:00","2009","03","31","07:00","0.9","","-4.4","","68","","36","","13","","24.1","","101.00","","","","","","Cloudy"
"2009-03-31 08:00","2009","03","31","08:00","0.9","","-4.4","","68","","36","","11","","24.1","","101.04","","","","","","Cloudy"
"2009-03-31 09:00","2009","03","31","09:00","1.1","","-4.1","","68","","3","","9","","24.1","","101.08","","","","","","Cloudy"
"2009-03-31 10:00","2009","03","31","10:00","1.5","","-4.0","","67","","33","","6","","24.1","","101.11","","","","","","Cloudy"
"2009-03-31 11:00","2009","03","31","11:00","2.2","","-3.9","","64","","36","","7","","24.1","","101.11","","","","","","Cloudy"
"2009-03-31 12:00","2009","03","31","12:00","3.0","","-3.8","","61","","34","","6","","24.1","","101.09","","","","","","Cloudy"
"2009-03-31 13:00","2009","03","31","13:00","3.9","","-3.3","","59","","","","0","","24.1","","101.06","","","","","","Mostly Cloudy"
"2009-03-31 14:00","2009","03","31","14:00","4.1","","-2.9","","60","","22","","4","","24.1","","101.01","","","","","","Mostly Cloudy"
"2009-03-31 15:00","2009","03","31","15:00","4.8","","-2.6","","59","","11","","9","","24.1","","100.97","","","","","","Mostly Cloudy"
"2009-03-31 16:00","2009","03","31","16:00","5.1","","-2.4","","58","","12","","11","","24.1","","100.89","","","","","","Mainly Clear"
"2009-03-31 17:00","2009","03","31","17:00","4.9","","-1.7","","62","","11","","17","","24.1","","100.92","","","","","","Mainly Clear"
"2009-03-31 18:00","2009","03","31","18:00","4.0","","-1.5","","67","","11","","17","","24.1","","100.88","","","","","","Mostly Cloudy"
"2009-03-31 19:00","2009","03","31","19:00","3.6","","-1.4","","70","","9","","20","","25.0","","100.80","","","","","","Mostly Cloudy"
"2009-03-31 20:00","2009","03","31","20:00","2.4","","-1.8","","74","","9","","15","","25.0","","100.86","","","","","","Mostly Cloudy"
"2009-03-31 21:00","2009","03","31","21:00","1.9","","-1.6","","78","","8","","17","","25.0","","100.76","","","","","","Mainly Clear"
"2009-03-31 22:00","2009","03","31","22:00","1.5","","-1.8","","79","","9","","20","","25.0","","100.71","","","","","","Clear"
"2009-03-31 23:00","2009","03","31","23:00","1.0","","-2.0","","80","","8","","26","","25.0","","100.54","","","","","","Cloudy"
