"Station Name","OTTAWA MACDONALD-CARTIER INT'L A"
"Province","ONTARIO"
"Latitude","45.32"
"Longitude","-75.67"
"Elevation","114.00"
"Climate Identifier","6106000"
"WMO Identifier","71628"
"TC Identifier","YOW"
"All times are specified in Local Standard Time (LST). Add 1 hour to adjust for Daylight Saving Time where and when it is observed."

"Legend"
"E","Estimated"
"M","Missing"
"NA","Not Available"

"Date/Time","Year","Month","Day","Time","Temp (°C)","Temp Flag","Dew Point Temp (°C)","Dew Point Temp Flag","Rel Hum (%)","Rel Hum Flag","Wind Dir (10s deg)","Wind Dir Flag","Wind Spd (km/h)","Wind Spd Flag","Visibility (km)","Visibility Flag","Stn Press (kPa)","Stn Press Flag","Hmdx","Hmdx Flag","Wind Chill","Wind Chill Flag","Weather"
"2003-10-01 00:00","2003","10","01","00:00","4.9","","3.9","","93","","26","","7","","25.0","","100.55","","","","","","Mainly Clear"
"2003-10-01 01:00","2003","10","01","01:00","4.0","","3.7","","98","","21","","4","","25.0","","100.59","","","","","","Mainly Clear"
"2003-10-01 02:00","2003","10","01","02:00","3.4","","3.2","","99","","17","","6","","25.0","","100.55","","","","","","Mostly Cloudy"
"2003-10-01 03:00","2003","10","01","03:00","3.6","","3.5","","99","","17","","4","","25.0","","100.52","","","","","","Mostly Cloudy"
"2003-10-01 04:00","2003","10","01","04:00","3.8","","3.7","","99","","23","","7","","25.0","","100.54","","","","","","Mainly Clear"
"2003-10-01 05:00","2003","10","01","05:00","3.9","","3.7","","99","","18","","7","","25.0","","100.52","","","","","","Mostly Cloudy"
"2003-10-01 06:00","2003","10","01","06:00","3.8","","3.8","","100","","20","","6","","24.1","","100.54","","","","","","Mainly Clear"
"2003-10-01 07:00","2003","10","01","07:00","4.6","","4.5","","99","","22","","7","","24.1","","100.57","","","","","","Mainly Clear"
"2003-10-01 08:00","2003","10","01","08:00","5.8","","5.0","","95","","20","","7","","24.1","","100.56","","","","","","Mainly Clear"
"2003-10-01 09:00","2003","10","01","09:00","7.3","","5.3","","87","","23","","6","","24.1","","100.55","","","","","","Mainly Clear"
"2003-10-01 10:00","2003","10","01","10:00","8.6","","4.0","","73","","22","","13","","24.1","","100.53","","","","","","Mainly Clear"
"2003-10-01 11:00","2003","10","01","11:00","9.0","","3.9","","70","","20","","15","","24.1","","100.49","","","","","","Mainly Clear"
"2003-10-01 12:00","2003","10","01","12:00","11.5","","2.9","","55","","21","","15","","24.1","","100.43","","","","","","Mainly Clear"
"2003-10-01 13:00","2003","10","01","13:00","11.1","","3.3","","59","","18","","17","","24.1","","100.33","","","","","","Mostly Cloudy"
"2003-10-01 14:00","2003","10","01","14:00","10.9","","2.4","","56","","21","","9","","24.1","","100.31","","","","","","Mostly Cloudy"
"2003-10-01 15:00","2003","10","01","15:00","10.6","","1.6","","54","","23","","7","","25.0","","100.29","","","","","","Mostly Cloudy"
"2003-10-01 16:00","2003","10","01","16:00","9.0","","3.1","","66","","31","","13","","25.0","","100.27","","","","","","Mostly Cloudy"
"2003-10-01 17:00","2003","10","01","17:00","8.1","","5.1","","81","","30","","13","","24.1","","100.31","","","","","","Rain Showers"
"2003-10-01 18:00","2003","10","01","18:00","6.8","","4.5","","85","","34","","6","","25.0","","100.35","","","","","","Mostly Cloudy"
"2003-10-01 19:00","2003","10","01","19:00","6.6","","4.4","","86","","","","0","","25.0","","100.35","","","","","","Mostly Cloudy"
"2003-10-01 20:00","2003","10","01","20:00","6.2","","4.9","","91","","15","","6","","25.0","","100.39","","","","","","Rain Showers"
"2003-10-01 21:00","2003","10","01","21:00","5.2","","5.2","","100","","","","0","","25.0","","100.34","","","","","","Mostly Cloudy"
"2003-10-01 22:00","2003","10","01","22:00","4.9","","4.7","","99","","","","0","","25.0","","100.29","","","","","","Mostly Cloudy"
"2003-10-01 23:00","2003","10","01","23:00","4.3","","4.3","","100","","14","","4","","25.0","","100.21","","","","","","Mostly Cloudy"
"2003-10-02 00:00","2003","10","02","00:00","4.3","","4.3","","100","","","","0","","25.0","","100.16","","","","","","Cloudy"
"2003-10-02 01:00","2003","10","02","01:00","3.9","","3.9","","100","","13","","6","","25.0","","100.13","","","","","","Cloudy"
"2003-10-02 02:00","2003","10","02","02:00","4.2","","4.2","","100","","10","","6","","25.0","","100.07","","","","","","Cloudy"
"2003-10-02 03:00","2003","10","02","03:00","4.7","","4.7","","100","","13","","4","","6.4","","100.05","","","","","","Rain,Fog"
"2003-10-02 04:00","2003","10","02","04:00","4.4","","4.4","","100","","24","","9","","6.4","","100.02","","","","","","Rain,Fog"
"2003-10-02 05:00","2003","10","02","05:00","4.1","","4.1","","100","","","","0","","12.9","","100.00","","","","","","Rain"
"2003-10-02 06:00","2003","10","02","06:00","4.0","","4.0","","100","","17","","7","","12.9","","100.01","","","","","","Rain"
"2003-10-02 07:00","2003","10","02","07:00","3.9","","3.7","","99","","18","","6","","24.1","","99.97","","","","","","Mostly Cloudy"
"2003-10-02 08:00","2003","10","02","08:00","4.9","","4.3","","96","","19","","9","","19.3","","99.98","","","","","","Mostly Cloudy"
"2003-10-02 09:00","2003","10","02","09:00","5.5","","4.1","","91","","18","","9","","19.3","","99.98","","","","","","Cloudy"
"2003-10-02 10:00","2003","10","02","10:00","6.4","","3.6","","82","","24","","13","","19.3","","99.96","","","","","","Cloudy"
"2003-10-02 11:00","2003","10","02","11:00","7.1","","2.2","","71","","27","","13","","24.1","","99.95","","","","","","Cloudy"
"2003-10-02 12:00","2003","10","02","12:00","6.8","","2.1","","72","","28","","11","","24.1","","99.96","","","","","","Cloudy"
"2003-10-02 13:00","2003","10","02","13:00","7.0","","3.7","","79","","30","","22","","16.1","","99.94","","","","","","Rain Showers"
"2003-10-02 14:00","2003","10","02","14:00","6.7","","3.7","","81","","33","","22","","24.1","","99.96","","","","","","Mostly Cloudy"
"2003-10-02 15:00","2003","10","02","15:00","5.4","","2.3","","80","","31","","24","","24.1","","100.02","","","","","","Mostly Cloudy"
"2003-10-02 16:00","2003","10","02","16:00","4.0","","2.6","","91","","32","","19","","16.1","","100.12","","","","","","Rain Showers"
"2003-10-02 17:00","2003","10","02","17:00","3.8","","2.7","","93","","33","","20","","25.0","","100.19","","","","","","Rain Showers"
"2003-10-02 18:00","2003","10","02","18:00","3.4","","2.2","","92","","32","","11","","25.0","","100.23","","","","","","Mostly Cloudy"
"2003-10-02 19:00","2003","10","02","19:00","3.1","","2.3","","94","","","","0","","25.0","","100.27","","","","","","Mainly Clear"
"2003-10-02 20:00","2003","10","02","20:00","3.0","","2.3","","95","","22","","7","","25.0","","100.31","","","","","","Clear"
"2003-10-02 21:00","2003","10","02","21:00","1.9","","0.9","","93","","26","","7","","25.0","","100.34","","","","","","Clear"
"2003-10-02 22:00","2003","10","02","22:00","2.5","","1.5","","93","","29","","13","","25.0","","100.38","","","","","","Clear"
"2003-10-02 23:00","2003","10","02","23:00","2.2","","1.4","","94","","27","","13","","25.0","","100.40","","","","","","Clear"
"2003-10-03 00:00","2003","10","03","00:00","1.3","","1.0","","98","","24","","9","","25.0","","100.42","","","","","","Mainly Clear"
"2003-10-03 01:00","2003","10","03","01:00","1.4","","1.0","","97","","24","","7","","25.0","","100.43","","","","","","Clear"
"2003-10-03 02:00","2003","10","03","02:00","0.9","","0.9","","100","","27","","13","","25.0","","100.41","","","","","","Mainly Clear"
"2003-10-03 03:00","2003","10","03","03:00","-0.1","","-0.1","","100","","25","","9","","25.0","","100.42","","","","-3","","Clear"
"2003-10-03 04:00","2003","10","03","04:00","-0.7","","-0.7","","100","","21","","9","","25.0","","100.42","","","","-4","","Clear"
"2003-10-03 05:00","2003","10","03","05:00","-0.6","","-0.6","","100","","20","","9","","25.0","","100.46","","","","-4","","Clear"
"2003-10-03 06:00","2003","10","03","06:00","-0.8","","-0.9","","99","","21","","7","","25.0","","100.47","","","","-3","","Mainly Clear"
"2003-10-03 07:00","2003","10","03","07:00","0.1","","-0.3","","97","","17","","7","","25.0","","100.43","","","","","","Mainly Clear"
"2003-10-03 08:00","2003","10","03","08:00","3.1","","2.3","","94","","17","","9","","25.0","","100.39","","","","","","Mainly Clear"
"2003-10-03 09:00","2003","10","03","09:00","6.3","","2.0","","74","","18","","17","","25.0","","100.33","","","","","","Mostly Cloudy"
"2003-10-03 10:00","2003","10","03","10:00","9.0","","2.9","","66","","18","","17","","25.0","","100.24","","","","","","Mostly Cloudy"
"2003-10-03 11:00","2003","10","03","11:00","9.5","","2.6","","62","","18","","17","","25.0","","100.14","","","","","","Mostly Cloudy"
"2003-10-03 12:00","2003","10","03","12:00","8.2","","4.2","","76","","18","","20","","24.1","","100.06","","","","","","Rain Showers"
"2003-10-03 13:00","2003","10","03","13:00","8.4","","2.9","","68","","18","","22","","24.1","","99.95","","","","","","Rain Showers"
"2003-10-03 14:00","2003","10","03","14:00","9.3","","2.8","","64","","19","","26","","24.1","","99.88","","","","","","Mostly Cloudy"
"2003-10-03 15:00","2003","10","03","15:00","9.3","","1.9","","60","","20","","22","","32.2","","99.82","","","","","","Cloudy"
"2003-10-03 16:00","2003","10","03","16:00","10.0","","0.1","","50","","19","","22","","32.2","","99.74","","","","","","Cloudy"
"2003-10-03 17:00","2003","10","03","17:00","9.3","","2.2","","61","","16","","11","","32.2","","99.70","","","","","","Cloudy"
"2003-10-03 18:00","2003","10","03","18:00","9.1","","2.1","","62","","14","","11","","24.1","","99.66","","","","","","Cloudy"
"2003-10-03 19:00","2003","10","03","19:00","8.9","","2.3","","63","","14","","17","","24.1","","99.58","","","","","","Cloudy"
"2003-10-03 20:00","2003","10","03","20:00","8.9","","2.1","","62","","15","","22","","24.1","","99.50","","","","","","Cloudy"
"2003-10-03 21:00","2003","10","03","21:00","9.1","","1.7","","60","","16","","19","","24.1","","99.42","","","","","","Cloudy"
"2003-10-03 22:00","2003","10","03","22:00","9.3","","1.1","","56","","16","","17","","25.0","","99.40","","","","","","Cloudy"
"2003-10-03 23:00","2003","10","03","23:00","9.4","","0.7","","55","","17","","19","","25.0","","99.34","","","","","","Cloudy"
"2003-10-04 00:00","2003","10","04","00:00","9.1","","2.9","","65","","19","","24","","25.0","","99.30","","","","","","Rain Showers"
"2003-10-04 01:00","2003","10","04","01:00","7.2","","5.7","","90","","18","","15","","12.9","","99.26","","","","","","Rain Showers"
"2003-10-04 02:00","2003","10","04","02:00","6.9","","5.7","","92","","15","","17","","25.0","","99.11","","","","","","Cloudy"
"2003-10-04 03:00","2003","10","04","03:00","7.6","","4.6","","81","","17","","20","","25.0","","99.04","","","","","","Cloudy"
"2003-10-04 04:00","2003","10","04","04:00","7.5","","4.9","","84","","17","","22","","25.0","","98.97","","","","","","Cloudy"
"2003-10-04 05:00","2003","10","04","05:00","7.1","","5.2","","88","","16","","22","","25.0","","98.86","","","","","","Cloudy"
"2003-10-04 06:00","2003","10","04","06:00","7.2","","5.5","","89","","17","","28","","16.1","","98.79","","","","","","Rain Showers"
"2003-10-04 07:00","2003","10","04","07:00","7.7","","5.8","","88","","18","","20","","19.3","","98.74","","","","","","Rain"
"2003-10-04 08:00","2003","10","04","08:00","8.0","","6.5","","90","","18","","28","","12.9","","98.77","","","","","","Rain"
"2003-10-04 09:00","2003","10","04","09:00","7.7","","7.5","","99","","18","","26","","8.0","","98.80","","","","","","Rain,Fog"
"2003-10-04 10:00","2003","10","04","10:00","8.0","","8.0","","100","","20","","13","","9.7","","98.82","","","","","","Rain,Fog"
"2003-10-04 11:00","2003","10","04","11:00","8.2","","7.2","","93","","25","","7","","24.1","","98.88","","","","","","Rain Showers"
"2003-10-04 12:00","2003","10","04","12:00","8.5","","6.2","","85","","21","","11","","19.3","","98.89","","","","","","Rain Showers"
"2003-10-04 13:00","2003","10","04","13:00","8.6","","7.7","","94","","18","","11","","25.0","","98.85","","","","","","Mostly Cloudy"
"2003-10-04 14:00","2003","10","04","14:00","5.7","","4.8","","94","","25","","19","","16.1","","98.94","","","","","","Rain Showers"
"2003-10-04 15:00","2003","10","04","15:00","8.4","","6.5","","88","","18","","13","","32.2","","98.90","","","","","","Rain Showers"
"2003-10-04 16:00","2003","10","04","16:00","8.1","","6.2","","88","","19","","15","","24.1","","98.92","","","","","","Rain Showers"
"2003-10-04 17:00","2003","10","04","17:00","8.2","","6.8","","91","","20","","9","","32.2","","98.97","","","","","","Mainly Clear"
"2003-10-04 18:00","2003","10","04","18:00","6.9","","4.1","","82","","23","","11","","25.0","","99.02","","","","","","Mainly Clear"
"2003-10-04 19:00","2003","10","04","19:00","5.8","","4.6","","92","","23","","7","","25.0","","99.13","","","","","","Mostly Cloudy"
"2003-10-04 20:00","2003","10","04","20:00","6.2","","4.8","","91","","22","","11","","24.1","","99.18","","","","","","Rain Showers"
"2003-10-04 21:00","2003","10","04","21:00","4.7","","3.9","","95","","22","","9","","25.0","","99.21","","","","","","Mainly Clear"
"2003-10-04 22:00","2003","10","04","22:00","4.0","","3.0","","93","","23","","11","","25.0","","99.24","","","","","","Mainly Clear"
"2003-10-04 23:00","2003","10","04","23:00","3.5","","2.8","","95","","22","","9","","25.0","","99.25","","","","","","Clear"
"2003-10-05 00:00","2003","10","05","00:00","2.5","","2.3","","99","","24","","7","","25.0","","99.24","","","","","","Mainly Clear"
"2003-10-05 01:00","2003","10","05","01:00","2.5","","2.2","","98","","21","","6","","25.0","","99.28","","","","","","Clear"
"2003-10-05 02:00","2003","10","05","02:00","2.5","","2.3","","99","","22","","9","","25.0","","99.26","","","","","","Mainly Clear"
"2003-10-05 03:00","2003","10","05","03:00","1.8","","1.8","","100","","21","","7","","25.0","","99.27","","","","","","Mainly Clear"
"2003-10-05 04:00","2003","10","05","04:00","2.0","","2.0","","100","","23","","9","","25.0","","99.28","","","","","","Mainly Clear"
"2003-10-05 05:00","2003","10","05","05:00","2.1","","2.1","","100","","23","","11","","25.0","","99.32","","","","","","Mainly Clear"
"2003-10-05 06:00","2003","10","05","06:00","2.2","","2.2","","100","","22","","11","","25.0","","99.36","","","","","","Mostly Cloudy"
"2003-10-05 07:00","2003","10","05","07:00","2.9","","2.7","","99","","23","","15","","32.2","","99.42","","","","","","Mostly Cloudy"
"2003-10-05 08:00","2003","10","05","08:00","4.0","","3.2","","95","","23","","11","","25.0","","99.48","","","","","","Mainly Clear"
"2003-10-05 09:00","2003","10","05","09:00","6.2","","3.1","","81","","27","","26","","32.2","","99.52","","","","","","Mostly Cloudy"
"2003-10-05 10:00","2003","10","05","10:00","6.4","","2.0","","73","","26","","17","","32.2","","99.56","","","","","","Mostly Cloudy"
"2003-10-05 11:00","2003","10","05","11:00","7.7","","2.3","","69","","27","","24","","32.2","","99.61","","","","","","Mainly Clear"
"2003-10-05 12:00","2003","10","05","12:00","6.9","","3.9","","81","","29","","13","","32.2","","99.64","","","","","","Rain Showers"
"2003-10-05 13:00","2003","10","05","13:00","8.2","","2.5","","67","","28","","17","","32.2","","99.65","","","","","","Mostly Cloudy"
"2003-10-05 14:00","2003","10","05","14:00","10.6","","2.0","","55","","25","","19","","32.2","","99.67","","","","","","Mostly Cloudy"
"2003-10-05 15:00","2003","10","05","15:00","10.7","","-0.2","","47","","28","","22","","32.2","","99.70","","","","","","Mainly Clear"
"2003-10-05 16:00","2003","10","05","16:00","10.3","","1.1","","53","","26","","19","","32.2","","99.75","","","","","","Mostly Cloudy"
"2003-10-05 17:00","2003","10","05","17:00","9.3","","1.4","","58","","28","","19","","32.2","","99.84","","","","","","Mostly Cloudy"
"2003-10-05 18:00","2003","10","05","18:00","7.0","","2.4","","72","","28","","13","","25.0","","99.93","","","","","","Mainly Clear"
"2003-10-05 19:00","2003","10","05","19:00","6.3","","3.2","","81","","24","","7","","25.0","","100.00","","","","","","Mostly Cloudy"
"2003-10-05 20:00","2003","10","05","20:00","6.0","","3.3","","83","","30","","28","","19.3","","100.12","","","","","","Rain Showers"
"2003-10-05 21:00","2003","10","05","21:00","4.8","","3.2","","89","","28","","11","","25.0","","100.14","","","","","","Mainly Clear"
"2003-10-05 22:00","2003","10","05","22:00","4.0","","2.9","","93","","27","","9","","25.0","","100.18","","","","","","Clear"
"2003-10-05 23:00","2003","10","05","23:00","3.6","","2.7","","94","","27","","9","","25.0","","100.20","","","","","","Clear"
"2003-10-06 00:00","2003","10","06","00:00","2.7","","2.3","","97","","26","","11","","25.0","","100.21","","","","","","Clear"
"2003-10-06 01:00","2003","10","06","01:00","2.2","","1.8","","97","","25","","11","","25.0","","100.26","","","","","","Mainly Clear"
"2003-10-06 02:00","2003","10","06","02:00","2.7","","2.1","","96","","27","","13","","25.0","","100.31","","","","","","Mostly Cloudy"
"2003-10-06 03:00","2003","10","06","03:00","2.8","","2.4","","97","","26","","11","","25.0","","100.35","","","","","","Mostly Cloudy"
"2003-10-06 04:00","2003","10","06","04:00","2.0","","1.7","","98","","25","","6","","25.0","","100.42","","","","","","Mostly Cloudy"
"2003-10-06 05:00","2003","10","06","05:00","0.9","","0.7","","99","","26","","11","","25.0","","100.48","","","","","","Mainly Clear"
"2003-10-06 06:00","2003","10","06","06:00","-0.1","","-0.1","","100","","26","","7","","24.1","","100.53","","","","-3","","Mainly Clear"
"2003-10-06 07:00","2003","10","06","07:00","1.0","","1.0","","100","","26","","11","","24.1","","100.60","","","","","","Clear"
"2003-10-06 08:00","2003","10","06","08:00","3.1","","2.3","","94","","27","","13","","24.1","","100.67","","","","","","Mostly Cloudy"
"2003-10-06 09:00","2003","10","06","09:00","3.9","","2.1","","88","","29","","11","","32.2","","100.71","","","","","","Mostly Cloudy"
"2003-10-06 10:00","2003","10","06","10:00","4.8","","1.6","","80","","29","","19","","32.2","","100.72","","","","","","Mostly Cloudy"
"2003-10-06 11:00","2003","10","06","11:00","5.8","","1.5","","74","","31","","17","","32.2","","100.71","","","","","","Mostly Cloudy"
"2003-10-06 12:00","2003","10","06","12:00","6.8","","1.7","","70","","28","","19","","32.2","","100.68","","","","","","Mainly Clear"
"2003-10-06 13:00","2003","10","06","13:00","8.1","","1.7","","64","","32","","9","","32.2","","100.62","","","","","","Mainly Clear"
"2003-10-06 14:00","2003","10","06","14:00","8.3","","0.9","","60","","29","","11","","32.2","","100.58","","","","","","Mainly Clear"
"2003-10-06 15:00","2003","10","06","15:00","8.2","","-0.5","","54","","32","","17","","32.2","","100.56","","","","","","Mainly Clear"
"2003-10-06 16:00","2003","10","06","16:00","8.5","","-0.5","","53","","28","","15","","32.2","","100.54","","","","","","Mainly Clear"
"2003-10-06 17:00","2003","10","06","17:00","7.8","","-0.9","","54","","30","","9","","32.2","","100.54","","","","","","Clear"
"2003-10-06 18:00","2003","10","06","18:00","5.5","","-0.9","","63","","36","","7","","25.0","","100.55","","","","","","Clear"
"2003-10-06 19:00","2003","10","06","19:00","4.7","","0.2","","73","","8","","6","","25.0","","100.57","","","","","","Clear"
"2003-10-06 20:00","2003","10","06","20:00","3.1","","0.0","","80","","10","","6","","25.0","","100.58","","","","","","Mainly Clear"
"2003-10-06 21:00","2003","10","06","21:00","2.7","","0.3","","84","","","","0","","25.0","","100.60","","","","","","Mostly Cloudy"
"2003-10-06 22:00","2003","10","06","22:00","3.4","","0.4","","81","","","","0","","25.0","","100.60","","","","","","Mainly Clear"
"2003-10-06 23:00","2003","10","06","23:00","2.9","","0.4","","84","","","","0","","25.0","","100.59","","","","","","Clear"
"2003-10-07 00:00","2003","10","07","00:00","2.3","","0.3","","87","","","","0","","25.0","","100.60","","","","","","Mainly Clear"
"2003-10-07 01:00","2003","10","07","01:00","1.0","","-1.0","","86","","","","0","","25.0","","100.60","","","","","","Clear"
"2003-10-07 02:00","2003","10","07","02:00","0.9","","0.8","","99","","","","0","","25.0","","100.61","","","","","","Mainly Clear"
"2003-10-07 03:00","2003","10","07","03:00","-0.1","","-0.1","","100","","","","0","","6.4","","100.60","","","","","","Fog"
"2003-10-07 04:00","2003","10","07","04:00","-0.1","","-0.1","","100","","22","","7","","25.0","","100.61","","","","-3","","Clear"
"2003-10-07 05:00","2003","10","07","05:00","1.0","","0.1","","94","","23","","6","","25.0","","100.65","","","","","","Mainly Clear"
"2003-10-07 06:00","2003","10","07","06:00","1.3","","0.0","","91","","22","","6","","24.1","","100.64","","","","","","Mainly Clear"
"2003-10-07 07:00","2003","10","07","07:00","1.3","","0.4","","94","","21","","7","","24.1","","100.65","","","","","","Mainly Clear"
"2003-10-07 08:00","2003","10","07","08:00","2.3","","1.4","","94","","18","","7","","24.1","","100.68","","","","","","Mostly Cloudy"
"2003-10-07 09:00","2003","10","07","09:00","4.8","","3.4","","91","","20","","9","","24.1","","100.70","","","","","","Mainly Clear"
"2003-10-07 10:00","2003","10","07","10:00","8.8","","3.6","","70","","22","","9","","24.1","","100.65","","","","","","Mainly Clear"
"2003-10-07 11:00","2003","10","07","11:00","10.6","","2.7","","58","","22","","15","","24.1","","100.56","","","","","","Mostly Cloudy"
"2003-10-07 12:00","2003","10","07","12:00","11.5","","3.2","","57","","23","","22","","24.1","","100.51","","","","","","Mostly Cloudy"
"2003-10-07 13:00","2003","10","07","13:00","13.3","","4.0","","53","","23","","19","","24.1","","100.41","","","","","","Mostly Cloudy"
"2003-10-07 14:00","2003","10","07","14:00","14.4","","3.9","","49","","20","","22","","24.1","","100.34","","","","","","Mostly Cloudy"
"2003-10-07 15:00","2003","10","07","15:00","14.9","","4.0","","48","","23","","24","","24.1","","100.29","","","","","","Mostly Cloudy"
"2003-10-07 16:00","2003","10","07","16:00","14.2","","4.1","","51","","22","","20","","24.1","","100.27","","","","","","Mostly Cloudy"
"2003-10-07 17:00","2003","10","07","17:00","13.4","","5.0","","57","","22","","17","","24.1","","100.27","","","","","","Mostly Cloudy"
"2003-10-07 18:00","2003","10","07","18:00","11.7","","5.7","","67","","21","","20","","24.1","","100.31","","","","","","Mostly Cloudy"
"2003-10-07 19:00","2003","10","07","19:00","10.8","","5.3","","69","","21","","15","","25.0","","100.32","","","","","","Mainly Clear"
"2003-10-07 20:00","2003","10","07","20:00","10.0","","4.7","","70","","21","","17","","25.0","","100.35","","","","","","Mostly Cloudy"
"2003-10-07 21:00","2003","10","07","21:00","9.2","","3.8","","69","","20","","11","","25.0","","100.42","","","","","","Mostly Cloudy"
"2003-10-07 22:00","2003","10","07","22:00","8.8","","3.4","","69","","21","","9","","25.0","","100.45","","","","","","Cloudy"
"2003-10-07 23:00","2003","10","07","23:00","7.8","","3.4","","74","","21","","6","","25.0","","100.50","","","","","","Mainly Clear"
"2003-10-08 00:00","2003","10","08","00:00","6.6","","3.5","","81","","20","","9","","25.0","","100.52","","","","","","Mainly Clear"
"2003-10-08 01:00","2003","10","08","01:00","6.7","","4.2","","84","","20","","11","","25.0","","100.54","","","","","","Clear"
"2003-10-08 02:00","2003","10","08","02:00","6.4","","4.4","","87","","21","","9","","25.0","","100.53","","","","","","Clear"
"2003-10-08 03:00","2003","10","08","03:00","6.6","","4.8","","88","","20","","9","","25.0","","100.53","","","","","","Clear"
"2003-10-08 04:00","2003","10","08","04:00","6.4","","4.9","","90","","19","","9","","25.0","","100.55","","","","","","Clear"
"2003-10-08 05:00","2003","10","08","05:00","5.7","","5.2","","97","","19","","9","","25.0","","100.54","","","","","","Clear"
"2003-10-08 06:00","2003","10","08","06:00","5.2","","5.2","","100","","20","","7","","16.1","","100.54","","","","","","Clear"
"2003-10-08 07:00","2003","10","08","07:00","5.8","","5.8","","100","","21","","6","","16.1","","100.57","","","","","","Clear"
"2003-10-08 08:00","2003","10","08","08:00","8.9","","7.9","","93","","22","","13","","12.9","","100.57","","","","","","Clear"
"2003-10-08 09:00","2003","10","08","09:00","12.8","","9.1","","78","","22","","17","","16.1","","100.58","","","","","","Clear"
"2003-10-08 10:00","2003","10","08","10:00","13.9","","9.9","","77","","19","","17","","16.1","","100.53","","","","","","Clear"
"2003-10-08 11:00","2003","10","08","11:00","16.3","","10.3","","68","","21","","15","","19.3","","100.49","","","","","","Clear"
"2003-10-08 12:00","2003","10","08","12:00","18.1","","9.7","","58","","22","","17","","24.1","","100.42","","","","","","Mainly Clear"
"2003-10-08 13:00","2003","10","08","13:00","19.5","","10.0","","54","","21","","15","","24.1","","100.36","","","","","","Clear"
"2003-10-08 14:00","2003","10","08","14:00","19.8","","10.2","","54","","23","","15","","24.1","","100.31","","","","","","Clear"
"2003-10-08 15:00","2003","10","08","15:00","20.2","","11.2","","56","","23","","17","","24.1","","100.30","","","","","","Clear"
"2003-10-08 16:00","2003","10","08","16:00","19.8","","11.7","","60","","21","","13","","24.1","","100.28","","","","","","Clear"
"2003-10-08 17:00","2003","10","08","17:00","18.7","","12.6","","68","","19","","9","","24.1","","100.28","","","","","","Clear"
"2003-10-08 18:00","2003","10","08","18:00","16.5","","12.2","","76","","19","","9","","24.1","","100.31","","","","","","Clear"
"2003-10-08 19:00","2003","10","08","19:00","14.9","","11.6","","81","","19","","9","","25.0","","100.32","","","","","","Clear"
"2003-10-08 20:00","2003","10","08","20:00","13.6","","11.6","","88","","21","","9","","25.0","","100.34","","","","","","Clear"
"2003-10-08 21:00","2003","10","08","21:00","13.3","","11.7","","90","","20","","9","","25.0","","100.37","","","","","","Clear"
"2003-10-08 22:00","2003","10","08","22:00","12.9","","11.8","","93","","19","","6","","25.0","","100.40","","","","","","Clear"
"2003-10-08 23:00","2003","10","08","23:00","13.5","","12.3","","92","","23","","4","","25.0","","100.42","","","","","","Mainly Clear"
"2003-10-09 00:00","2003","10","09","00:00","11.4","","11.3","","99","","17","","7","","25.0","","100.46","","","","","","Clear"
"2003-10-09 01:00","2003","10","09","01:00","11.1","","11.1","","100","","20","","6","","9.7","","100.49","","","","","","Fog"
"2003-10-09 02:00","2003","10","09","02:00","10.6","","10.6","","100","","21","","7","","3.2","","100.52","","","","","","Fog"
"2003-10-09 03:00","2003","10","09","03:00","10.6","","10.6","","100","","24","","6","","1.6","","100.54","","","","","","Fog"
"2003-10-09 04:00","2003","10","09","04:00","9.2","","9.2","","100","","22","","6","","0.8","","100.62","","","","","","Fog"
"2003-10-09 05:00","2003","10","09","05:00","9.7","","9.7","","100","","24","","6","","25.0","","100.69","","","","","","Clear"
"2003-10-09 06:00","2003","10","09","06:00","10.0","","10.0","","100","","","","0","","16.1","","100.75","","","","","","Clear"
"2003-10-09 07:00","2003","10","09","07:00","10.5","","10.5","","100","","28","","4","","24.1","","100.81","","","","","","Clear"
"2003-10-09 08:00","2003","10","09","08:00","12.4","","12.2","","99","","32","","6","","24.1","","100.89","","","","","","Clear"
"2003-10-09 09:00","2003","10","09","09:00","14.3","","12.7","","90","","5","","9","","24.1","","100.94","","","","","","Clear"
"2003-10-09 10:00","2003","10","09","10:00","14.4","","12.0","","85","","5","","11","","16.1","","101.00","","","","","","Clear"
"2003-10-09 11:00","2003","10","09","11:00","13.3","","11.9","","91","","7","","17","","12.9","","101.02","","","","","","Mostly Cloudy"
"2003-10-09 12:00","2003","10","09","12:00","13.9","","12.3","","90","","6","","15","","16.1","","101.02","","","","","","Mainly Clear"
"2003-10-09 13:00","2003","10","09","13:00","15.2","","12.9","","86","","4","","17","","19.3","","100.97","","","","","","Clear"
"2003-10-09 14:00","2003","10","09","14:00","16.5","","13.5","","82","","6","","9","","19.3","","100.94","","","","","","Clear"
"2003-10-09 15:00","2003","10","09","15:00","17.8","","13.8","","77","","8","","9","","19.3","","100.92","","","","","","Mainly Clear"
"2003-10-09 16:00","2003","10","09","16:00","18.2","","13.6","","75","","7","","9","","16.1","","100.92","","","","","","Mostly Cloudy"
"2003-10-09 17:00","2003","10","09","17:00","17.4","","13.7","","79","","7","","6","","19.3","","100.93","","","","","","Mostly Cloudy"
"2003-10-09 18:00","2003","10","09","18:00","15.6","","12.2","","80","","7","","9","","24.1","","100.97","","","","","","Mostly Cloudy"
"2003-10-09 19:00","2003","10","09","19:00","13.9","","11.1","","83","","9","","11","","25.0","","100.98","","","","","","Mostly Cloudy"
"2003-10-09 20:00","2003","10","09","20:00","12.2","","10.1","","87","","8","","9","","25.0","","101.00","","","","","","Mostly Cloudy"
"2003-10-09 21:00","2003","10","09","21:00","12.2","","9.6","","84","","6","","9","","25.0","","101.01","","","","","","Mainly Clear"
"2003-10-09 22:00","2003","10","09","22:00","11.4","","9.2","","86","","5","","9","","25.0","","101.01","","","","","","Mostly Cloudy"
"2003-10-09 23:00","2003","10","09","23:00","10.6","","8.5","","87","","5","","9","","25.0","","101.00","","","","","","Mainly Clear"
"2003-10-10 00:00","2003","10","10","00:00","10.0","","7.9","","87","","4","","11","","25.0","","101.02","","","","","","Mainly Clear"
"2003-10-10 01:00","2003","10","10","01:00","9.3","","6.7","","84","","5","","9","","25.0","","101.01","","","","","","Mainly Clear"
"2003-10-10 02:00","2003","10","10","02:00","9.0","","5.6","","79","","4","","11","","25.0","","101.01","","","","","","Mainly Clear"
"2003-10-10 03:00","2003","10","10","03:00","8.9","","4.6","","74","","5","","9","","25.0","","101.00","","","","","","Mainly Clear"
"2003-10-10 04:00","2003","10","10","04:00","9.0","","4.1","","71","","7","","15","","25.0","","101.00","","","","","","Mainly Clear"
"2003-10-10 05:00","2003","10","10","05:00","8.6","","4.2","","74","","6","","9","","25.0","","101.01","","","","","","Mainly Clear"
"2003-10-10 06:00","2003","10","10","06:00","8.4","","4.5","","76","","6","","7","","24.1","","101.07","","","","","","Mainly Clear"
"2003-10-10 07:00","2003","10","10","07:00","8.5","","5.0","","79","","5","","9","","24.1","","101.09","","","","","","Mainly Clear"
"2003-10-10 08:00","2003","10","10","08:00","9.9","","5.5","","74","","5","","13","","24.1","","101.13","","","","","","Mainly Clear"
"2003-10-10 09:00","2003","10","10","09:00","12.5","","6.7","","68","","6","","9","","24.1","","101.14","","","","","","Mainly Clear"
"2003-10-10 10:00","2003","10","10","10:00","14.9","","8.6","","66","","9","","7","","24.1","","101.13","","","","","","Clear"
"2003-10-10 11:00","2003","10","10","11:00","16.9","","10.2","","65","","9","","7","","24.1","","101.10","","","","","","Mainly Clear"
"2003-10-10 12:00","2003","10","10","12:00","19.2","","11.4","","61","","3","","4","","24.1","","101.03","","","","","","Mainly Clear"
"2003-10-10 13:00","2003","10","10","13:00","20.8","","12.1","","57","","","","0","","24.1","","100.96","","","","","","Mainly Clear"
"2003-10-10 14:00","2003","10","10","14:00","21.9","","12.9","","57","","","","0","","19.3","","100.92","","25","","","","Mainly Clear"
"2003-10-10 15:00","2003","10","10","15:00","22.6","","13.4","","56","","5","","6","","19.3","","100.88","","26","","","","Mainly Clear"
"2003-10-10 16:00","2003","10","10","16:00","22.4","","13.1","","56","","10","","6","","16.1","","100.86","","25","","","","Mainly Clear"
"2003-10-10 17:00","2003","10","10","17:00","20.8","","13.2","","62","","6","","6","","16.1","","100.86","","","","","","Mainly Clear"
"2003-10-10 18:00","2003","10","10","18:00","19.3","","13.0","","67","","6","","7","","16.1","","100.87","","","","","","Mainly Clear"
"2003-10-10 19:00","2003","10","10","19:00","16.3","","12.7","","79","","8","","6","","16.1","","100.88","","","","","","Clear"
"2003-10-10 20:00","2003","10","10","20:00","16.7","","13.0","","79","","6","","9","","16.1","","100.90","","","","","","Clear"
"2003-10-10 21:00","2003","10","10","21:00","13.8","","12.4","","91","","9","","7","","16.1","","100.90","","","","","","Clear"
"2003-10-10 22:00","2003","10","10","22:00","13.1","","12.5","","96","","3","","9","","12.9","","100.90","","","","","","Clear"
"2003-10-10 23:00","2003","10","10","23:00","13.2","","12.8","","97","","5","","7","","9.7","","100.92","","","","","","Fog"
"2003-10-11 00:00","2003","10","11","00:00","13.0","","12.9","","99","","5","","7","","6.4","","100.92","","","","","","Fog"
"2003-10-11 01:00","2003","10","11","01:00","12.5","","12.5","","100","","5","","9","","4.0","","100.96","","","","","","Fog"
"2003-10-11 02:00","2003","10","11","02:00","12.1","","12.1","","100","","4","","7","","4.0","","100.95","","","","","","Fog"
"2003-10-11 03:00","2003","10","11","03:00","11.1","","11.1","","100","","2","","6","","2.8","","100.94","","","","","","Fog"
"2003-10-11 04:00","2003","10","11","04:00","10.6","","10.6","","100","","","","0","","0.8","","101.00","","","","","","Fog"
"2003-10-11 05:00","2003","10","11","05:00","11.6","","11.6","","100","","5","","9","","3.2","","101.02","","","","","","Fog"
"2003-10-11 06:00","2003","10","11","06:00","10.8","","10.8","","100","","","","0","","1.2","","101.04","","","","","","Fog"
"2003-10-11 07:00","2003","10","11","07:00","11.0","","11.0","","100","","5","","7","","1.6","","101.07","","","","","","Fog"
"2003-10-11 08:00","2003","10","11","08:00","12.1","","12.1","","100","","10","","6","","1.6","","101.12","","","","","","Fog"
"2003-10-11 09:00","2003","10","11","09:00","12.1","","12.1","","100","","8","","4","","0.2","","101.14","","","","","","Fog"
"2003-10-11 10:00","2003","10","11","10:00","15.5","","14.8","","96","","11","","4","","3.2","","101.11","","","","","","Fog"
"2003-10-11 11:00","2003","10","11","11:00","18.8","","14.8","","78","","24","","4","","9.7","","101.06","","","","","","Fog"
"2003-10-11 12:00","2003","10","11","12:00","20.8","","13.6","","63","","25","","4","","16.1","","100.97","","","","","","Clear"
"2003-10-11 13:00","2003","10","11","13:00","22.5","","13.0","","55","","","","0","","19.3","","100.88","","25","","","","Clear"
"2003-10-11 14:00","2003","10","11","14:00","23.5","","12.6","","50","","","","0","","19.3","","100.81","","26","","","","Clear"
"2003-10-11 15:00","2003","10","11","15:00","23.2","","12.0","","49","","19","","4","","19.3","","100.73","","25","","","","Clear"
"2003-10-11 16:00","2003","10","11","16:00","23.0","","11.6","","49","","","","0","","24.1","","100.68","","25","","","","Clear"
"2003-10-11 17:00","2003","10","11","17:00","21.7","","11.7","","53","","10","","4","","24.1","","100.65","","","","","","Clear"
"2003-10-11 18:00","2003","10","11","18:00","18.6","","11.3","","62","","9","","6","","24.1","","100.63","","","","","","Clear"
"2003-10-11 19:00","2003","10","11","19:00","16.7","","11.7","","72","","9","","6","","24.1","","100.61","","","","","","Clear"
"2003-10-11 20:00","2003","10","11","20:00","16.2","","11.4","","73","","9","","7","","24.1","","100.55","","","","","","Clear"
"2003-10-11 21:00","2003","10","11","21:00","14.5","","10.8","","78","","10","","11","","24.1","","100.50","","","","","","Clear"
"2003-10-11 22:00","2003","10","11","22:00","14.4","","10.3","","76","","9","","9","","19.3","","100.46","","","","","","Clear"
"2003-10-11 23:00","2003","10","11","23:00","14.0","","10.7","","80","","9","","4","","16.1","","100.42","","","","","","Clear"
"2003-10-12 00:00","2003","10","12","00:00","12.7","","10.7","","88","","8","","6","","12.9","","100.37","","","","","","Clear"
"2003-10-12 01:00","2003","10","12","01:00","12.4","","11.5","","94","","5","","7","","11.3","","100.32","","","","","","Clear"
"2003-10-12 02:00","2003","10","12","02:00","10.7","","10.7","","100","","8","","9","","3.2","","100.23","","","","","","Fog"
"2003-10-12 03:00","2003","10","12","03:00","10.2","","10.2","","100","","7","","7","","0.0","","100.19","","","","","","Fog"
"2003-10-12 04:00","2003","10","12","04:00","9.0","","9.0","","100","","6","","7","","1.6","","100.13","","","","","","Fog"
"2003-10-12 05:00","2003","10","12","05:00","7.5","","7.5","","100","","7","","7","","4.8","","100.06","","","","","","Fog"
"2003-10-12 06:00","2003","10","12","06:00","6.6","","6.6","","100","","9","","7","","4.8","","100.02","","","","","","Fog"
"2003-10-12 07:00","2003","10","12","07:00","8.3","","8.3","","100","","4","","7","","1.6","","100.04","","","","","","Fog"
"2003-10-12 08:00","2003","10","12","08:00","10.4","","10.0","","97","","10","","6","","8.0","","100.00","","","","","","Fog"
"2003-10-12 09:00","2003","10","12","09:00","15.2","","11.6","","79","","17","","9","","16.1","","99.94","","","","","","Mainly Clear"
"2003-10-12 10:00","2003","10","12","10:00","18.5","","11.9","","65","","19","","13","","19.3","","99.84","","","","","","Mostly Cloudy"
"2003-10-12 11:00","2003","10","12","11:00","20.0","","10.6","","55","","17","","15","","24.1","","99.68","","","","","","Mostly Cloudy"
"2003-10-12 12:00","2003","10","12","12:00","22.0","","9.7","","46","","18","","20","","25.0","","99.55","","","","","","Mostly Cloudy"
"2003-10-12 13:00","2003","10","12","13:00","22.2","","9.4","","44","","18","","20","","25.0","","99.47","","","","","","Mostly Cloudy"
"2003-10-12 14:00","2003","10","12","14:00","21.8","","8.6","","43","","20","","20","","25.0","","99.42","","","","","","Mostly Cloudy"
"2003-10-12 15:00","2003","10","12","15:00","17.5","","11.9","","70","","25","","20","","16.1","","99.47","","","","","","Rain Showers"
"2003-10-12 16:00","2003","10","12","16:00","15.3","","14.4","","94","","29","","13","","6.4","","99.54","","","","","","Rain Showers,Fog"
"2003-10-12 17:00","2003","10","12","17:00","14.5","","13.7","","95","","28","","11","","19.3","","99.56","","","","","","Mostly Cloudy"
"2003-10-12 18:00","2003","10","12","18:00","13.0","","13.0","","100","","25","","9","","19.3","","99.66","","","","","","Mainly Clear"
"2003-10-12 19:00","2003","10","12","19:00","12.1","","12.1","","100","","25","","7","","24.1","","99.71","","","","","","Mainly Clear"
"2003-10-12 20:00","2003","10","12","20:00","11.5","","11.1","","97","","27","","11","","25.0","","99.76","","","","","","Clear"
"2003-10-12 21:00","2003","10","12","21:00","10.6","","10.4","","99","","26","","7","","25.0","","99.80","","","","","","Clear"
"2003-10-12 22:00","2003","10","12","22:00","9.6","","9.3","","98","","25","","11","","25.0","","99.85","","","","","","Clear"
"2003-10-12 23:00","2003","10","12","23:00","8.8","","8.1","","95","","24","","9","","25.0","","99.86","","","","","","Clear"
"2003-10-13 00:00","2003","10","13","00:00","7.9","","7.2","","95","","25","","11","","25.0","","99.88","","","","","","Clear"
"2003-10-13 01:00","2003","10","13","01:00","7.7","","6.8","","94","","26","","9","","25.0","","99.90","","","","","","Clear"
"2003-10-13 02:00","2003","10","13","02:00","8.0","","6.9","","93","","24","","7","","25.0","","99.90","","","","","","Clear"
"2003-10-13 03:00","2003","10","13","03:00","6.4","","6.3","","99","","20","","9","","25.0","","99.92","","","","","","Clear"
"2003-10-13 04:00","2003","10","13","04:00","6.6","","6.4","","99","","22","","9","","25.0","","99.91","","","","","","Mainly Clear"
"2003-10-13 05:00","2003","10","13","05:00","5.9","","5.9","","100","","22","","9","","25.0","","99.95","","","","","","Mainly Clear"
"2003-10-13 06:00","2003","10","13","06:00","5.0","","5.0","","100","","25","","9","","25.0","","99.96","","","","","","Mainly Clear"
"2003-10-13 07:00","2003","10","13","07:00","5.8","","5.8","","100","","25","","11","","25.0","","100.02","","","","","","Clear"
"2003-10-13 08:00","2003","10","13","08:00","8.5","","8.0","","97","","25","","11","","25.0","","100.05","","","","","","Clear"
"2003-10-13 09:00","2003","10","13","09:00","11.1","","8.9","","86","","26","","15","","25.0","","100.07","","","","","","Clear"
"2003-10-13 10:00","2003","10","13","10:00","12.3","","7.8","","74","","29","","15","","25.0","","100.06","","","","","","Clear"
"2003-10-13 11:00","2003","10","13","11:00","13.9","","8.9","","72","","29","","13","","25.0","","100.07","","","","","","Clear"
"2003-10-13 12:00","2003","10","13","12:00","14.9","","7.8","","62","","28","","20","","25.0","","100.02","","","","","","Mainly Clear"
"2003-10-13 13:00","2003","10","13","13:00","15.6","","6.2","","54","","30","","19","","25.0","","99.99","","","","","","Mostly Cloudy"
"2003-10-13 14:00","2003","10","13","14:00","16.4","","6.4","","52","","29","","15","","25.0","","99.94","","","","","","Mainly Clear"
"2003-10-13 15:00","2003","10","13","15:00","16.8","","5.4","","47","","29","","17","","25.0","","99.92","","","","","","Clear"
"2003-10-13 16:00","2003","10","13","16:00","16.8","","5.9","","49","","28","","13","","25.0","","99.92","","","","","","Clear"
"2003-10-13 17:00","2003","10","13","17:00","15.2","","5.8","","53","","27","","4","","25.0","","99.95","","","","","","Clear"
"2003-10-13 18:00","2003","10","13","18:00","13.7","","5.1","","56","","","","0","","25.0","","99.95","","","","","","Clear"
"2003-10-13 19:00","2003","10","13","19:00","10.8","","5.0","","67","","","","0","","25.0","","99.98","","","","","","Clear"
"2003-10-13 20:00","2003","10","13","20:00","10.7","","5.6","","71","","","","0","","25.0","","100.00","","","","","","Clear"
"2003-10-13 21:00","2003","10","13","21:00","9.9","","7.5","","85","","19","","7","","25.0","","100.01","","","","","","Clear"
"2003-10-13 22:00","2003","10","13","22:00","10.0","","7.7","","86","","20","","7","","25.0","","100.00","","","","","","Mainly Clear"
"2003-10-13 23:00","2003","10","13","23:00","9.3","","7.3","","87","","21","","9","","25.0","","99.99","","","","","","Mainly Clear"
"2003-10-14 00:00","2003","10","14","00:00","8.4","","7.2","","92","","18","","6","","25.0","","99.98","","","","","","Mainly Clear"
"2003-10-14 01:00","2003","10","14","01:00","7.5","","6.9","","96","","","","0","","25.0","","99.97","","","","","","Mostly Cloudy"
"2003-10-14 02:00","2003","10","14","02:00","7.0","","6.3","","95","","18","","6","","25.0","","99.97","","","","","","Mostly Cloudy"
"2003-10-14 03:00","2003","10","14","03:00","6.5","","6.1","","97","","18","","6","","25.0","","99.94","","","","","","Mostly Cloudy"
"2003-10-14 04:00","2003","10","14","04:00","5.3","","5.3","","100","","14","","6","","16.1","","99.90","","","","","","Mainly Clear"
"2003-10-14 05:00","2003","10","14","05:00","5.3","","5.3","","100","","11","","7","","0.8","","99.87","","","","","","Fog"
"2003-10-14 06:00","2003","10","14","06:00","5.7","","5.7","","100","","3","","7","","4.8","","99.84","","","","","","Fog"
"2003-10-14 07:00","2003","10","14","07:00","5.5","","5.5","","100","","4","","6","","4.8","","99.86","","","","","","Fog"
"2003-10-14 08:00","2003","10","14","08:00","6.9","","6.5","","97","","8","","7","","19.3","","99.84","","","","","","Mostly Cloudy"
"2003-10-14 09:00","2003","10","14","09:00","9.6","","6.9","","83","","8","","7","","19.3","","99.76","","","","","","Mostly Cloudy"
"2003-10-14 10:00","2003","10","14","10:00","12.9","","7.2","","68","","9","","13","","24.1","","99.62","","","","","","Mostly Cloudy"
"2003-10-14 11:00","2003","10","14","11:00","16.0","","8.0","","59","","11","","17","","24.1","","99.45","","","","","","Mostly Cloudy"
"2003-10-14 12:00","2003","10","14","12:00","17.7","","6.8","","49","","11","","20","","24.1","","99.31","","","","","","Mostly Cloudy"
"2003-10-14 13:00","2003","10","14","13:00","19.3","","7.4","","46","","11","","19","","24.1","","99.16","","","","","","Mostly Cloudy"
"2003-10-14 14:00","2003","10","14","14:00","18.9","","7.2","","47","","11","","17","","24.1","","99.02","","","","","","Cloudy"
"2003-10-14 15:00","2003","10","14","15:00","18.1","","7.6","","50","","10","","7","","24.1","","98.88","","","","","","Cloudy"
"2003-10-14 16:00","2003","10","14","16:00","17.4","","7.8","","53","","11","","15","","24.1","","98.75","","","","","","Cloudy"
"2003-10-14 17:00","2003","10","14","17:00","16.8","","6.5","","51","","11","","15","","24.1","","98.60","","","","","","Cloudy"
"2003-10-14 18:00","2003","10","14","18:00","13.8","","9.0","","73","","14","","15","","25.0","","98.55","","","","","","Rain"
"2003-10-14 19:00","2003","10","14","19:00","11.5","","10.4","","93","","9","","15","","8.0","","98.37","","","","","","Moderate Rain,Fog"
"2003-10-14 20:00","2003","10","14","20:00","11.3","","10.8","","97","","5","","11","","25.0","","98.28","","","","","","Rain"
"2003-10-14 21:00","2003","10","14","21:00","11.2","","10.5","","95","","6","","13","","14.5","","98.25","","","","","","Rain"
"2003-10-14 22:00","2003","10","14","22:00","10.6","","10.6","","100","","8","","13","","9.7","","98.17","","","","","","Moderate Rain,Fog"
"2003-10-14 23:00","2003","10","14","23:00","10.7","","10.7","","100","","7","","15","","8.0","","98.11","","","","","","Rain,Fog"
"2003-10-15 00:00","2003","10","15","00:00","10.7","","10.7","","100","","9","","20","","12.9","","97.97","","","","","","Rain"
"2003-10-15 01:00","2003","10","15","01:00","10.7","","10.7","","100","","9","","19","","16.1","","97.81","","","","","","Rain"
"2003-10-15 02:00","2003","10","15","02:00","10.5","","10.5","","100","","9","","24","","9.7","","97.66","","","","","","Rain,Fog"
"2003-10-15 03:00","2003","10","15","03:00","10.5","","10.5","","100","","9","","26","","9.7","","97.52","","","","","","Rain,Fog"
"2003-10-15 04:00","2003","10","15","04:00","10.0","","10.0","","100","","9","","28","","12.9","","97.34","","","","","","Rain"
"2003-10-15 05:00","2003","10","15","05:00","10.4","","10.4","","100","","8","","28","","12.9","","97.16","","","","","","Rain"
"2003-10-15 06:00","2003","10","15","06:00","10.6","","10.6","","100","","8","","22","","12.9","","96.98","","","","","","Rain"
"2003-10-15 07:00","2003","10","15","07:00","9.9","","9.9","","100","","7","","28","","12.9","","96.83","","","","","","Rain"
"2003-10-15 08:00","2003","10","15","08:00","9.3","","9.3","","100","","6","","11","","16.1","","96.74","","","","","","Rain"
"2003-10-15 09:00","2003","10","15","09:00","9.6","","9.6","","100","","34","","6","","6.4","","96.62","","","","","","Rain,Fog"
"2003-10-15 10:00","2003","10","15","10:00","9.9","","9.9","","100","","32","","17","","12.9","","96.56","","","","","","Rain"
"2003-10-15 11:00","2003","10","15","11:00","10.2","","10.2","","100","","29","","22","","16.1","","96.55","","","","","","Rain"
"2003-10-15 12:00","2003","10","15","12:00","10.6","","10.6","","100","","29","","24","","16.1","","96.60","","","","","","Rain"
"2003-10-15 13:00","2003","10","15","13:00","10.7","","10.4","","98","","29","","30","","16.1","","96.75","","","","","","Rain"
"2003-10-15 14:00","2003","10","15","14:00","8.2","","7.8","","97","","28","","52","","12.9","","97.01","","","","","","Rain"
"2003-10-15 15:00","2003","10","15","15:00","7.3","","6.4","","94","","28","","43","","12.9","","97.35","","","","","","Rain"
"2003-10-15 16:00","2003","10","15","16:00","6.6","","5.7","","94","","28","","44","","12.9","","97.65","","","","","","Rain"
"2003-10-15 17:00","2003","10","15","17:00","6.9","","5.6","","91","","28","","43","","12.9","","97.92","","","","","","Rain"
"2003-10-15 18:00","2003","10","15","18:00","6.3","","5.1","","92","","27","","41","","25.0","","98.17","","","","","","Rain"
"2003-10-15 19:00","2003","10","15","19:00","6.5","","3.4","","81","","28","","48","","25.0","","98.38","","","","","","Cloudy"
"2003-10-15 20:00","2003","10","15","20:00","7.2","","2.2","","70","","27","","41","","25.0","","98.56","","","","","","Mostly Cloudy"
"2003-10-15 21:00","2003","10","15","21:00","6.7","","1.6","","70","","27","","30","","25.0","","98.68","","","","","","Mainly Clear"
"2003-10-15 22:00","2003","10","15","22:00","6.2","","0.4","","66","","27","","26","","25.0","","98.82","","","","","","Mainly Clear"
"2003-10-15 23:00","2003","10","15","23:00","5.8","","0.2","","67","","26","","24","","25.0","","98.95","","","","","","Mainly Clear"
"2003-10-16 00:00","2003","10","16","00:00","5.5","","-0.6","","65","","26","","17","","25.0","","99.06","","","","","","Clear"
"2003-10-16 01:00","2003","10","16","01:00","3.9","","-0.2","","75","","24","","13","","25.0","","99.14","","","","","","Clear"
"2003-10-16 02:00","2003","10","16","02:00","3.6","","0.0","","77","","24","","13","","25.0","","99.20","","","","","","Mainly Clear"
"2003-10-16 03:00","2003","10","16","03:00","3.9","","0.5","","78","","24","","13","","25.0","","99.23","","","","","","Mostly Cloudy"
"2003-10-16 04:00","2003","10","16","04:00","3.9","","1.1","","82","","23","","11","","25.0","","99.25","","","","","","Mostly Cloudy"
"2003-10-16 05:00","2003","10","16","05:00","3.3","","1.3","","87","","23","","9","","25.0","","99.26","","","","","","Mainly Clear"
"2003-10-16 06:00","2003","10","16","06:00","3.4","","1.8","","89","","24","","4","","24.1","","99.26","","","","","","Mainly Clear"
"2003-10-16 07:00","2003","10","16","07:00","4.3","","2.7","","89","","22","","7","","24.1","","99.28","","","","","","Mainly Clear"
"2003-10-16 08:00","2003","10","16","08:00","5.5","","3.0","","84","","25","","17","","24.1","","99.36","","","","","","Mostly Cloudy"
"2003-10-16 09:00","2003","10","16","09:00","6.7","","3.7","","81","","26","","22","","24.1","","99.44","","","","","","Mostly Cloudy"
"2003-10-16 10:00","2003","10","16","10:00","8.0","","1.8","","65","","27","","24","","24.1","","99.45","","","","","","Mostly Cloudy"
"2003-10-16 11:00","2003","10","16","11:00","8.3","","-1.8","","49","","27","","30","","24.1","","99.49","","","","","","Mostly Cloudy"
"2003-10-16 12:00","2003","10","16","12:00","8.2","","0.8","","60","","29","","24","","24.1","","99.59","","","","","","Mostly Cloudy"
"2003-10-16 13:00","2003","10","16","13:00","8.1","","-0.6","","54","","29","","26","","24.1","","99.62","","","","","","Mostly Cloudy"
"2003-10-16 14:00","2003","10","16","14:00","8.2","","-1.9","","49","","27","","15","","24.1","","99.68","","","","","","Mostly Cloudy"
"2003-10-16 15:00","2003","10","16","15:00","8.3","","-1.7","","49","","28","","13","","24.1","","99.73","","","","","","Cloudy"
"2003-10-16 16:00","2003","10","16","16:00","8.1","","-1.4","","51","","27","","13","","24.1","","99.81","","","","","","Mostly Cloudy"
"2003-10-16 17:00","2003","10","16","17:00","7.7","","-0.7","","55","","28","","11","","24.1","","99.89","","","","","","Cloudy"
"2003-10-16 18:00","2003","10","16","18:00","6.7","","-0.3","","61","","31","","15","","25.0","","99.98","","","","","","Cloudy"
"2003-10-16 19:00","2003","10","16","19:00","6.7","","-0.5","","60","","31","","11","","25.0","","100.06","","","","","","Cloudy"
"2003-10-16 20:00","2003","10","16","20:00","5.9","","0.3","","67","","27","","7","","25.0","","100.15","","","","","","Cloudy"
"2003-10-16 21:00","2003","10","16","21:00","5.5","","0.5","","70","","","","0","","25.0","","100.20","","","","","","Mostly Cloudy"
"2003-10-16 22:00","2003","10","16","22:00","4.9","","0.8","","75","","22","","7","","25.0","","100.23","","","","","","Mainly Clear"
"2003-10-16 23:00","2003","10","16","23:00","4.1","","1.7","","84","","","","0","","25.0","","100.21","","","","","","Mostly Cloudy"
"2003-10-17 00:00","2003","10","17","00:00","4.4","","2.1","","85","","22","","4","","25.0","","100.23","","","","","","Cloudy"
"2003-10-17 01:00","2003","10","17","01:00","3.7","","1.7","","87","","","","0","","25.0","","100.27","","","","","","Mainly Clear"
"2003-10-17 02:00","2003","10","17","02:00","3.8","","1.3","","84","","24","","7","","25.0","","100.30","","","","","","Clear"
"2003-10-17 03:00","2003","10","17","03:00","2.8","","1.2","","89","","24","","9","","25.0","","100.31","","","","","","Mainly Clear"
"2003-10-17 04:00","2003","10","17","04:00","1.9","","0.7","","92","","","","0","","25.0","","100.30","","","","","","Mainly Clear"
"2003-10-17 05:00","2003","10","17","05:00","2.0","","0.9","","92","","","","0","","25.0","","100.39","","","","","","Mostly Cloudy"
"2003-10-17 06:00","2003","10","17","06:00","2.5","","1.3","","92","","23","","7","","25.0","","100.42","","","","","","Mostly Cloudy"
"2003-10-17 07:00","2003","10","17","07:00","2.6","","1.7","","94","","27","","9","","25.0","","100.49","","","","","","Mostly Cloudy"
"2003-10-17 08:00","2003","10","17","08:00","3.9","","2.7","","92","","25","","7","","25.0","","100.55","","","","","","Mostly Cloudy"
"2003-10-17 09:00","2003","10","17","09:00","5.5","","2.0","","78","","25","","11","","25.0","","100.59","","","","","","Mostly Cloudy"
"2003-10-17 10:00","2003","10","17","10:00","6.5","","2.4","","75","","27","","7","","25.0","","100.60","","","","","","Mainly Clear"
"2003-10-17 11:00","2003","10","17","11:00","5.8","","1.7","","75","","29","","11","","25.0","","100.60","","","","","","Cloudy"
"2003-10-17 12:00","2003","10","17","12:00","5.9","","1.9","","75","","28","","11","","25.0","","100.61","","","","","","Cloudy"
"2003-10-17 13:00","2003","10","17","13:00","6.6","","1.1","","68","","30","","19","","25.0","","100.58","","","","","","Cloudy"
"2003-10-17 14:00","2003","10","17","14:00","6.4","","0.7","","67","","30","","15","","32.2","","100.59","","","","","","Cloudy"
"2003-10-17 15:00","2003","10","17","15:00","5.8","","0.5","","69","","28","","15","","32.2","","100.62","","","","","","Cloudy"
"2003-10-17 16:00","2003","10","17","16:00","5.7","","-0.5","","64","","29","","11","","32.2","","100.64","","","","","","Cloudy"
"2003-10-17 17:00","2003","10","17","17:00","5.4","","-1.6","","61","","30","","15","","32.2","","100.64","","","","","","Cloudy"
"2003-10-17 18:00","2003","10","17","18:00","4.9","","-0.8","","67","","32","","11","","25.0","","100.65","","","","","","Cloudy"
"2003-10-17 19:00","2003","10","17","19:00","4.4","","-0.7","","69","","32","","7","","25.0","","100.63","","","","","","Cloudy"
"2003-10-17 20:00","2003","10","17","20:00","4.7","","-0.3","","70","","","","0","","25.0","","100.64","","","","","","Cloudy"
"2003-10-17 21:00","2003","10","17","21:00","4.3","","0.3","","75","","","","0","","25.0","","100.61","","","","","","Cloudy"
"2003-10-17 22:00","2003","10","17","22:00","3.8","","-0.2","","75","","","","0","","25.0","","100.61","","","","","","Cloudy"
"2003-10-17 23:00","2003","10","17","23:00","3.9","","1.1","","82","","","","0","","25.0","","100.62","","","","","","Cloudy"
"2003-10-18 00:00","2003","10","18","00:00","3.8","","1.6","","86","","","","0","","25.0","","100.59","","","","","","Cloudy"
"2003-10-18 01:00","2003","10","18","01:00","3.1","","1.5","","89","","","","0","","25.0","","100.54","","","","","","Cloudy"
"2003-10-18 02:00","2003","10","18","02:00","3.6","","0.4","","80","","","","0","","25.0","","100.51","","","","","","Cloudy"
"2003-10-18 03:00","2003","10","18","03:00","3.4","","0.9","","84","","","","0","","25.0","","100.49","","","","","","Cloudy"
"2003-10-18 04:00","2003","10","18","04:00","3.0","","1.1","","87","","","","0","","25.0","","100.46","","","","","","Cloudy"
"2003-10-18 05:00","2003","10","18","05:00","3.1","","0.6","","84","","","","0","","25.0","","100.48","","","","","","Cloudy"
"2003-10-18 06:00","2003","10","18","06:00","3.1","","0.8","","85","","","","0","","19.3","","100.46","","","","","","Rain"
"2003-10-18 07:00","2003","10","18","07:00","3.1","","1.2","","87","","","","0","","24.1","","100.46","","","","","","Rain"
"2003-10-18 08:00","2003","10","18","08:00","3.4","","1.2","","85","","","","0","","19.3","","100.48","","","","","","Rain Showers"
"2003-10-18 09:00","2003","10","18","09:00","3.6","","1.5","","86","","","","0","","19.3","","100.47","","","","","","Rain Showers"
"2003-10-18 10:00","2003","10","18","10:00","3.4","","2.4","","93","","26","","7","","24.1","","100.46","","","","","","Rain Showers"
"2003-10-18 11:00","2003","10","18","11:00","4.4","","1.1","","79","","","","0","","32.2","","100.43","","","","","","Mostly Cloudy"
"2003-10-18 12:00","2003","10","18","12:00","5.2","","0.5","","72","","","","0","","32.2","","100.38","","","","","","Mostly Cloudy"
"2003-10-18 13:00","2003","10","18","13:00","6.2","","-0.3","","63","","27","","15","","32.2","","100.31","","","","","","Mostly Cloudy"
"2003-10-18 14:00","2003","10","18","14:00","6.6","","-2.1","","54","","27","","9","","32.2","","100.28","","","","","","Mostly Cloudy"
"2003-10-18 15:00","2003","10","18","15:00","6.1","","-4.0","","48","","29","","13","","32.2","","100.27","","","","","","Mostly Cloudy"
"2003-10-18 16:00","2003","10","18","16:00","5.8","","-1.4","","60","","36","","13","","32.2","","100.24","","","","","","Mostly Cloudy"
"2003-10-18 17:00","2003","10","18","17:00","4.8","","-2.6","","59","","36","","6","","32.2","","100.21","","","","","","Mainly Clear"
"2003-10-18 18:00","2003","10","18","18:00","4.0","","-2.8","","61","","","","0","","25.0","","100.22","","","","","","Clear"
"2003-10-18 19:00","2003","10","18","19:00","2.8","","-2.6","","68","","","","0","","25.0","","100.23","","","","","","Clear"
"2003-10-18 20:00","2003","10","18","20:00","1.9","","-1.9","","76","","","","0","","25.0","","100.24","","","","","","Mainly Clear"
"2003-10-18 21:00","2003","10","18","21:00","2.5","","-1.4","","75","","","","0","","25.0","","100.21","","","","","","Mostly Cloudy"
"2003-10-18 22:00","2003","10","18","22:00","2.7","","-1.6","","73","","","","0","","25.0","","100.20","","","","","","Mostly Cloudy"
"2003-10-18 23:00","2003","10","18","23:00","2.8","","-1.4","","74","","","","0","","25.0","","100.17","","","","","","Mostly Cloudy"
"2003-10-19 00:00","2003","10","19","00:00","2.0","","-1.0","","80","","","","0","","25.0","","100.12","","","","","","Mostly Cloudy"
"2003-10-19 01:00","2003","10","19","01:00","1.3","","-0.5","","88","","3","","7","","25.0","","100.10","","","","","","Mostly Cloudy"
"2003-10-19 02:00","2003","10","19","02:00","1.5","","0.2","","91","","4","","7","","25.0","","100.07","","","","","","Mostly Cloudy"
"2003-10-19 03:00","2003","10","19","03:00","1.5","","0.6","","94","","3","","9","","25.0","","100.07","","","","","","Mostly Cloudy"
"2003-10-19 04:00","2003","10","19","04:00","1.4","","0.6","","94","","3","","7","","25.0","","100.08","","","","","","Mostly Cloudy"
"2003-10-19 05:00","2003","10","19","05:00","0.7","","0.0","","95","","2","","9","","25.0","","100.11","","","","","","Mainly Clear"
"2003-10-19 06:00","2003","10","19","06:00","0.0","","-0.5","","96","","2","","11","","25.0","","100.16","","","","-4","","Mainly Clear"
"2003-10-19 07:00","2003","10","19","07:00","-0.3","","-0.8","","96","","1","","13","","32.2","","100.24","","","","-4","","Mainly Clear"
"2003-10-19 08:00","2003","10","19","08:00","2.0","","0.2","","88","","1","","11","","32.2","","100.32","","","","","","Mainly Clear"
"2003-10-19 09:00","2003","10","19","09:00","4.0","","0.4","","77","","3","","15","","32.2","","100.37","","","","","","Mainly Clear"
"2003-10-19 10:00","2003","10","19","10:00","5.6","","0.3","","69","","1","","15","","32.2","","100.38","","","","","","Mainly Clear"
"2003-10-19 11:00","2003","10","19","11:00","6.4","","-1.3","","58","","5","","7","","32.2","","100.41","","","","","","Mainly Clear"
"2003-10-19 12:00","2003","10","19","12:00","6.6","","-1.9","","55","","4","","9","","32.2","","100.38","","","","","","Mostly Cloudy"
"2003-10-19 13:00","2003","10","19","13:00","6.6","","-3.1","","50","","4","","7","","32.2","","100.41","","","","","","Mostly Cloudy"
"2003-10-19 14:00","2003","10","19","14:00","6.9","","-3.4","","48","","29","","9","","32.2","","100.44","","","","","","Mostly Cloudy"
"2003-10-19 15:00","2003","10","19","15:00","7.5","","-4.5","","42","","","","0","","32.2","","100.46","","","","","","Mainly Clear"
"2003-10-19 16:00","2003","10","19","16:00","7.7","","-4.4","","42","","31","","6","","32.2","","100.49","","","","","","Mainly Clear"
"2003-10-19 17:00","2003","10","19","17:00","6.2","","-5.7","","42","","","","0","","32.2","","100.49","","","","","","Clear"
"2003-10-19 18:00","2003","10","19","18:00","5.3","","-5.5","","46","","","","0","","25.0","","100.54","","","","","","Clear"
"2003-10-19 19:00","2003","10","19","19:00","3.9","","-5.4","","51","","21","","6","","25.0","","100.61","","","","","","Clear"
"2003-10-19 20:00","2003","10","19","20:00","3.5","","-4.4","","56","","","","0","","25.0","","100.63","","","","","","Clear"
"2003-10-19 21:00","2003","10","19","21:00","1.7","","-3.8","","67","","","","0","","25.0","","100.63","","","","","","Clear"
"2003-10-19 22:00","2003","10","19","22:00","1.3","","-4.3","","66","","20","","7","","25.0","","100.61","","","","","","Clear"
"2003-10-19 23:00","2003","10","19","23:00","0.6","","-4.1","","71","","","","0","","25.0","","100.58","","","","","","Clear"
"2003-10-20 00:00","2003","10","20","00:00","-0.5","","-3.9","","78","","","","0","","25.0","","100.59","","","","","","Clear"
"2003-10-20 01:00","2003","10","20","01:00","-0.4","","-3.9","","77","","","","0","","25.0","","100.59","","","","","","Clear"
"2003-10-20 02:00","2003","10","20","02:00","-0.9","","-4.0","","79","","","","0","","25.0","","100.60","","","","","","Mainly Clear"
"2003-10-20 03:00","2003","10","20","03:00","-1.2","","-3.8","","82","","","","0","","25.0","","100.58","","","","","","Mainly Clear"
"2003-10-20 04:00","2003","10","20","04:00","-1.5","","-3.7","","85","","","","0","","25.0","","100.59","","","","","","Mainly Clear"
"2003-10-20 05:00","2003","10","20","05:00","-1.3","","-3.1","","88","","21","","9","","25.0","","100.59","","","","-5","","Cloudy"
"2003-10-20 06:00","2003","10","20","06:00","0.2","","-2.1","","84","","","","0","","25.0","","100.59","","","","","","Mostly Cloudy"
"2003-10-20 07:00","2003","10","20","07:00","0.2","","-2.0","","85","","","","0","","24.1","","100.56","","","","","","Mostly Cloudy"
"2003-10-20 08:00","2003","10","20","08:00","1.4","","-0.5","","87","","","","0","","32.2","","100.59","","","","","","Cloudy"
"2003-10-20 09:00","2003","10","20","09:00","2.6","","0.8","","88","","","","0","","24.1","","100.58","","","","","","Cloudy"
"2003-10-20 10:00","2003","10","20","10:00","4.0","","2.5","","90","","","","0","","19.3","","100.52","","","","","","Rain Showers"
"2003-10-20 11:00","2003","10","20","11:00","4.8","","2.5","","85","","","","0","","19.3","","100.49","","","","","","Rain Showers"
"2003-10-20 12:00","2003","10","20","12:00","5.2","","3.9","","91","","","","0","","19.3","","100.40","","","","","","Rain Showers"
"2003-10-20 13:00","2003","10","20","13:00","6.7","","5.1","","90","","","","0","","19.3","","100.27","","","","","","Rain Showers"
"2003-10-20 14:00","2003","10","20","14:00","7.9","","3.9","","76","","","","0","","19.3","","100.17","","","","","","Cloudy"
"2003-10-20 15:00","2003","10","20","15:00","8.1","","3.9","","75","","","","0","","19.3","","100.11","","","","","","Cloudy"
"2003-10-20 16:00","2003","10","20","16:00","7.4","","5.1","","85","","","","0","","9.7","","100.07","","","","","","Rain Showers"
"2003-10-20 17:00","2003","10","20","17:00","5.8","","5.8","","100","","9","","15","","4.8","","99.89","","","","","","Rain Showers,Fog"
"2003-10-20 18:00","2003","10","20","18:00","5.7","","5.7","","100","","8","","13","","16.1","","99.83","","","","","","Cloudy"
"2003-10-20 19:00","2003","10","20","19:00","5.7","","5.7","","100","","11","","17","","9.7","","99.60","","","","","","Rain Showers,Fog"
"2003-10-20 20:00","2003","10","20","20:00","5.4","","5.4","","100","","8","","20","","6.4","","99.51","","","","","","Rain Showers,Fog"
"2003-10-20 21:00","2003","10","20","21:00","5.1","","5.1","","100","","8","","20","","12.9","","99.35","","","","","","Thunderstorms,Rain Showers"
"2003-10-20 22:00","2003","10","20","22:00","4.9","","4.9","","100","","7","","28","","8.0","","99.19","","","","","","Thunderstorms,Moderate Rain Showers"
"2003-10-20 23:00","2003","10","20","23:00","4.7","","4.7","","100","","6","","32","","9.7","","99.17","","","","","","Thunderstorms,Rain Showers"
"2003-10-21 00:00","2003","10","21","00:00","4.4","","4.4","","100","","8","","35","","16.1","","98.90","","","","","","Thunderstorms,Rain Showers"
"2003-10-21 01:00","2003","10","21","01:00","4.2","","4.2","","100","","4","","24","","16.1","","99.03","","","","","","Thunderstorms,Heavy Rain Showers"
"2003-10-21 02:00","2003","10","21","02:00","2.7","","2.7","","100","","9","","35","","16.1","","98.63","","","","","","Rain Showers"
"2003-10-21 03:00","2003","10","21","03:00","2.2","","2.2","","100","","6","","28","","12.9","","98.59","","","","","","Thunderstorms,Rain Showers"
"2003-10-21 04:00","2003","10","21","04:00","2.1","","2.1","","100","","6","","24","","12.9","","98.49","","","","","","Thunderstorms,Rain Showers"
"2003-10-21 05:00","2003","10","21","05:00","2.3","","2.3","","100","","5","","24","","16.1","","98.29","","","","","","Thunderstorms,Rain Showers"
"2003-10-21 06:00","2003","10","21","06:00","2.5","","2.5","","100","","6","","33","","16.1","","98.25","","","","","","Thunderstorms,Rain Showers"
"2003-10-21 07:00","2003","10","21","07:00","3.1","","3.1","","100","","6","","11","","12.9","","98.36","","","","","","Rain Showers"
"2003-10-21 08:00","2003","10","21","08:00","3.0","","3.0","","100","","3","","26","","9.7","","98.40","","","","","","Rain Showers,Fog"
"2003-10-21 09:00","2003","10","21","09:00","3.3","","3.3","","100","","36","","20","","16.1","","98.49","","","","","","Rain Showers"
"2003-10-21 10:00","2003","10","21","10:00","3.4","","3.4","","100","","36","","22","","24.1","","98.56","","","","","","Drizzle"
"2003-10-21 11:00","2003","10","21","11:00","3.7","","3.7","","100","","36","","19","","24.1","","98.65","","","","","","Cloudy"
"2003-10-21 12:00","2003","10","21","12:00","3.7","","3.7","","100","","36","","17","","24.1","","98.69","","","","","","Cloudy"
"2003-10-21 13:00","2003","10","21","13:00","3.8","","3.8","","100","","35","","9","","24.1","","98.78","","","","","","Cloudy"
"2003-10-21 14:00","2003","10","21","14:00","3.8","","3.4","","97","","1","","13","","24.1","","98.82","","","","","","Cloudy"
"2003-10-21 15:00","2003","10","21","15:00","4.0","","2.0","","87","","2","","15","","24.1","","98.90","","","","","","Cloudy"
"2003-10-21 16:00","2003","10","21","16:00","4.0","","1.1","","81","","2","","13","","24.1","","98.99","","","","","","Cloudy"
"2003-10-21 17:00","2003","10","21","17:00","3.9","","0.2","","77","","3","","6","","24.1","","99.09","","","","","","Cloudy"
"2003-10-21 18:00","2003","10","21","18:00","3.8","","0.2","","77","","2","","6","","25.0","","99.15","","","","","","Cloudy"
"2003-10-21 19:00","2003","10","21","19:00","3.8","","0.2","","77","","36","","7","","25.0","","99.21","","","","","","Cloudy"
"2003-10-21 20:00","2003","10","21","20:00","3.8","","-1.2","","70","","1","","7","","25.0","","99.23","","","","","","Cloudy"
"2003-10-21 21:00","2003","10","21","21:00","3.5","","-0.9","","73","","36","","9","","25.0","","99.22","","","","","","Mostly Cloudy"
"2003-10-21 22:00","2003","10","21","22:00","3.6","","-1.3","","70","","2","","13","","25.0","","99.22","","","","","","Mostly Cloudy"
"2003-10-21 23:00","2003","10","21","23:00","3.1","","-2.1","","69","","2","","11","","25.0","","99.22","","","","","","Mostly Cloudy"
"2003-10-22 00:00","2003","10","22","00:00","2.5","","-2.3","","71","","2","","13","","25.0","","99.21","","","","","","Mostly Cloudy"
"2003-10-22 01:00","2003","10","22","01:00","1.0","","-2.7","","76","","1","","11","","25.0","","99.22","","","","","","Mostly Cloudy"
"2003-10-22 02:00","2003","10","22","02:00","0.3","","-3.2","","77","","1","","11","","25.0","","99.22","","","","","","Mostly Cloudy"
"2003-10-22 03:00","2003","10","22","03:00","0.7","","-3.0","","76","","36","","15","","25.0","","99.20","","","","","","Mostly Cloudy"
"2003-10-22 04:00","2003","10","22","04:00","0.6","","-3.4","","75","","1","","13","","25.0","","99.21","","","","","","Mostly Cloudy"
"2003-10-22 05:00","2003","10","22","05:00","0.3","","-3.6","","75","","1","","13","","25.0","","99.28","","","","","","Mostly Cloudy"
"2003-10-22 06:00","2003","10","22","06:00","0.4","","-4.1","","72","","2","","15","","25.0","","99.31","","","","","","Mostly Cloudy"
"2003-10-22 07:00","2003","10","22","07:00","0.3","","-4.1","","72","","1","","17","","24.1","","99.37","","","","","","Mostly Cloudy"
"2003-10-22 08:00","2003","10","22","08:00","0.9","","-4.1","","69","","2","","19","","24.1","","99.41","","","","","","Mostly Cloudy"
"2003-10-22 09:00","2003","10","22","09:00","1.5","","-3.7","","68","","1","","19","","24.1","","99.41","","","","","","Mostly Cloudy"
"2003-10-22 10:00","2003","10","22","10:00","1.9","","-4.2","","64","","2","","17","","24.1","","99.38","","","","","","Mostly Cloudy"
"2003-10-22 11:00","2003","10","22","11:00","2.7","","-4.4","","59","","1","","15","","24.1","","99.34","","","","","","Mostly Cloudy"
"2003-10-22 12:00","2003","10","22","12:00","4.3","","-4.2","","54","","1","","15","","24.1","","99.28","","","","","","Mostly Cloudy"
"2003-10-22 13:00","2003","10","22","13:00","4.1","","-4.2","","55","","34","","17","","24.1","","99.25","","","","","","Mostly Cloudy"
"2003-10-22 14:00","2003","10","22","14:00","4.3","","-4.5","","53","","2","","15","","24.1","","99.23","","","","","","Mostly Cloudy"
"2003-10-22 15:00","2003","10","22","15:00","4.1","","-5.6","","49","","1","","17","","24.1","","99.26","","","","","","Cloudy"
"2003-10-22 16:00","2003","10","22","16:00","3.8","","-5.4","","51","","1","","15","","24.1","","99.30","","","","","","Cloudy"
"2003-10-22 17:00","2003","10","22","17:00","3.4","","-5.2","","53","","1","","19","","24.1","","99.34","","","","","","Cloudy"
"2003-10-22 18:00","2003","10","22","18:00","3.1","","-5.8","","52","","36","","19","","25.0","","99.36","","","","","","Cloudy"
"2003-10-22 19:00","2003","10","22","19:00","2.8","","-5.4","","55","","36","","15","","25.0","","99.39","","","","","","Cloudy"
"2003-10-22 20:00","2003","10","22","20:00","2.7","","-5.1","","56","","34","","13","","25.0","","99.38","","","","","","Cloudy"
"2003-10-22 21:00","2003","10","22","21:00","2.5","","-4.9","","58","","33","","15","","25.0","","99.35","","","","","","Mostly Cloudy"
"2003-10-22 22:00","2003","10","22","22:00","2.1","","-3.9","","64","","33","","13","","25.0","","99.34","","","","","","Mostly Cloudy"
"2003-10-22 23:00","2003","10","22","23:00","2.0","","-3.9","","65","","33","","13","","25.0","","99.30","","","","","","Mostly Cloudy"
"2003-10-23 00:00","2003","10","23","00:00","1.9","","-3.8","","66","","34","","9","","25.0","","99.28","","","","","","Mostly Cloudy"
"2003-10-23 01:00","2003","10","23","01:00","1.9","","-4.1","","64","","34","","13","","25.0","","99.24","","","","","","Mostly Cloudy"
"2003-10-23 02:00","2003","10","23","02:00","1.6","","-4.3","","65","","33","","13","","25.0","","99.22","","","","","","Cloudy"
"2003-10-23 03:00","2003","10","23","03:00","1.6","","-4.5","","64","","33","","17","","25.0","","99.18","","","","","","Cloudy"
"2003-10-23 04:00","2003","10","23","04:00","1.7","","-4.8","","62","","33","","17","","25.0","","99.16","","","","","","Cloudy"
"2003-10-23 05:00","2003","10","23","05:00","1.6","","-5.1","","61","","32","","19","","25.0","","99.15","","","","","","Cloudy"
"2003-10-23 06:00","2003","10","23","06:00","1.5","","-4.9","","62","","33","","20","","25.0","","99.15","","","","","","Cloudy"
"2003-10-23 07:00","2003","10","23","07:00","1.5","","-4.7","","63","","32","","15","","24.1","","99.18","","","","","","Cloudy"
"2003-10-23 08:00","2003","10","23","08:00","1.9","","-4.7","","62","","33","","17","","24.1","","99.20","","","","","","Cloudy"
"2003-10-23 09:00","2003","10","23","09:00","2.3","","-5.2","","58","","34","","20","","24.1","","99.17","","","","","","Cloudy"
"2003-10-23 10:00","2003","10","23","10:00","2.3","","-5.0","","58","","33","","19","","24.1","","99.14","","","","","","Cloudy"
"2003-10-23 11:00","2003","10","23","11:00","2.5","","-5.3","","56","","32","","26","","24.1","","99.12","","","","","","Cloudy"
"2003-10-23 12:00","2003","10","23","12:00","2.7","","-5.7","","54","","31","","26","","24.1","","99.07","","","","","","Cloudy"
"2003-10-23 13:00","2003","10","23","13:00","3.2","","-5.8","","52","","31","","32","","24.1","","99.05","","","","","","Cloudy"
"2003-10-23 14:00","2003","10","23","14:00","3.5","","-5.5","","52","","32","","26","","24.1","","99.04","","","","","","Cloudy"
"2003-10-23 15:00","2003","10","23","15:00","3.4","","-6.4","","49","","33","","26","","24.1","","99.07","","","","","","Cloudy"
"2003-10-23 16:00","2003","10","23","16:00","3.4","","-5.6","","52","","31","","20","","24.1","","99.07","","","","","","Cloudy"
"2003-10-23 17:00","2003","10","23","17:00","3.2","","-5.0","","55","","30","","17","","24.1","","99.11","","","","","","Cloudy"
"2003-10-23 18:00","2003","10","23","18:00","3.2","","-5.2","","54","","30","","20","","25.0","","99.18","","","","","","Mostly Cloudy"
"2003-10-23 19:00","2003","10","23","19:00","3.0","","-4.3","","59","","29","","19","","25.0","","99.26","","","","","","Mostly Cloudy"
"2003-10-23 20:00","2003","10","23","20:00","1.8","","-3.8","","66","","28","","22","","25.0","","99.31","","","","","","Mainly Clear"
"2003-10-23 21:00","2003","10","23","21:00","1.4","","-3.2","","71","","28","","20","","25.0","","99.36","","","","","","Mainly Clear"
"2003-10-23 22:00","2003","10","23","22:00","0.9","","-2.4","","79","","28","","17","","25.0","","99.40","","","","","","Mostly Cloudy"
"2003-10-23 23:00","2003","10","23","23:00","0.1","","-2.8","","81","","27","","17","","25.0","","99.43","","","","","","Mainly Clear"
"2003-10-24 00:00","2003","10","24","00:00","0.1","","-3.0","","80","","28","","17","","25.0","","99.50","","","","","","Clear"
"2003-10-24 01:00","2003","10","24","01:00","0.0","","-2.9","","81","","27","","15","","25.0","","99.58","","","","-4","","Mainly Clear"
"2003-10-24 02:00","2003","10","24","02:00","0.3","","-2.6","","81","","29","","19","","25.0","","99.66","","","","","","Cloudy"
"2003-10-24 03:00","2003","10","24","03:00","0.6","","-2.5","","80","","27","","19","","25.0","","99.72","","","","","","Cloudy"
"2003-10-24 04:00","2003","10","24","04:00","0.7","","-2.2","","81","","27","","15","","25.0","","99.81","","","","","","Mostly Cloudy"
"2003-10-24 05:00","2003","10","24","05:00","1.0","","-1.9","","81","","28","","17","","25.0","","99.92","","","","","","Mostly Cloudy"
"2003-10-24 06:00","2003","10","24","06:00","1.4","","-2.3","","76","","29","","19","","25.0","","100.03","","","","","","Mostly Cloudy"
"2003-10-24 07:00","2003","10","24","07:00","-0.1","","-2.5","","84","","27","","19","","24.1","","100.19","","","","-5","","Mainly Clear"
"2003-10-24 08:00","2003","10","24","08:00","1.4","","-1.8","","79","","29","","19","","24.1","","100.32","","","","","","Clear"
"2003-10-24 09:00","2003","10","24","09:00","2.6","","-1.9","","72","","29","","24","","24.1","","100.40","","","","","","Clear"
"2003-10-24 10:00","2003","10","24","10:00","3.7","","-2.9","","62","","30","","17","","24.1","","100.51","","","","","","Mainly Clear"
"2003-10-24 11:00","2003","10","24","11:00","3.8","","-3.1","","61","","28","","26","","24.1","","100.60","","","","","","Mainly Clear"
"2003-10-24 12:00","2003","10","24","12:00","4.8","","-2.9","","57","","28","","22","","24.1","","100.61","","","","","","Mainly Clear"
"2003-10-24 13:00","2003","10","24","13:00","5.3","","-3.2","","54","","30","","19","","24.1","","100.62","","","","","","Mainly Clear"
"2003-10-24 14:00","2003","10","24","14:00","6.4","","-3.3","","50","","27","","13","","32.2","","100.65","","","","","","Mainly Clear"
"2003-10-24 15:00","2003","10","24","15:00","7.1","","-3.5","","47","","29","","13","","32.2","","100.70","","","","","","Mainly Clear"
"2003-10-24 16:00","2003","10","24","16:00","6.5","","-4.1","","47","","27","","13","","32.2","","100.79","","","","","","Mainly Clear"
"2003-10-24 17:00","2003","10","24","17:00","5.3","","-5.6","","45","","","","0","","32.2","","100.85","","","","","","Mainly Clear"
"2003-10-24 18:00","2003","10","24","18:00","4.4","","-5.5","","49","","","","0","","25.0","","100.93","","","","","","Mainly Clear"
"2003-10-24 19:00","2003","10","24","19:00","1.9","","-5.6","","57","","","","0","","25.0","","100.96","","","","","","Clear"
"2003-10-24 20:00","2003","10","24","20:00","1.8","","-5.4","","59","","","","0","","25.0","","101.03","","","","","","Clear"
"2003-10-24 21:00","2003","10","24","21:00","2.2","","-4.6","","61","","","","0","","25.0","","101.04","","","","","","Mainly Clear"
"2003-10-24 22:00","2003","10","24","22:00","2.5","","-2.9","","67","","","","0","","25.0","","101.07","","","","","","Mostly Cloudy"
"2003-10-24 23:00","2003","10","24","23:00","2.6","","-2.4","","70","","","","0","","25.0","","101.12","","","","","","Mostly Cloudy"
"2003-10-25 00:00","2003","10","25","00:00","2.5","","-1.7","","74","","","","0","","25.0","","101.15","","","","","","Cloudy"
"2003-10-25 01:00","2003","10","25","01:00","2.5","","-0.9","","78","","","","0","","25.0","","101.17","","","","","","Cloudy"
"2003-10-25 02:00","2003","10","25","02:00","3.2","","-0.8","","75","","","","0","","25.0","","101.22","","","","","","Cloudy"
"2003-10-25 03:00","2003","10","25","03:00","3.4","","-1.5","","70","","","","0","","25.0","","101.17","","","","","","Cloudy"
"2003-10-25 04:00","2003","10","25","04:00","3.9","","-2.2","","64","","18","","9","","25.0","","101.17","","","","","","Cloudy"
"2003-10-25 05:00","2003","10","25","05:00","3.8","","-1.6","","68","","18","","4","","25.0","","101.13","","","","","","Rain"
"2003-10-25 06:00","2003","10","25","06:00","3.6","","0.6","","81","","","","0","","19.3","","101.14","","","","","","Rain"
"2003-10-25 07:00","2003","10","25","07:00","2.8","","2.0","","94","","17","","7","","16.1","","101.15","","","","","","Rain"
"2003-10-25 08:00","2003","10","25","08:00","3.1","","2.1","","93","","14","","11","","19.3","","101.14","","","","","","Rain"
"2003-10-25 09:00","2003","10","25","09:00","3.7","","2.8","","94","","11","","11","","19.3","","101.06","","","","","","Rain"
"2003-10-25 10:00","2003","10","25","10:00","4.1","","3.0","","93","","8","","6","","19.3","","101.00","","","","","","Rain"
"2003-10-25 11:00","2003","10","25","11:00","4.4","","3.5","","94","","9","","9","","24.1","","100.93","","","","","","Rain"
"2003-10-25 12:00","2003","10","25","12:00","5.3","","4.5","","95","","11","","9","","19.3","","100.84","","","","","","Rain"
"2003-10-25 13:00","2003","10","25","13:00","5.8","","4.7","","93","","12","","9","","19.3","","100.77","","","","","","Cloudy"
"2003-10-25 14:00","2003","10","25","14:00","6.0","","4.6","","91","","14","","6","","24.1","","100.75","","","","","","Cloudy"
"2003-10-25 15:00","2003","10","25","15:00","6.4","","4.9","","90","","10","","6","","19.3","","100.76","","","","","","Cloudy"
"2003-10-25 16:00","2003","10","25","16:00","6.2","","5.4","","95","","7","","4","","24.1","","100.78","","","","","","Cloudy"
"2003-10-25 17:00","2003","10","25","17:00","5.9","","5.2","","95","","11","","6","","24.1","","100.83","","","","","","Cloudy"
"2003-10-25 18:00","2003","10","25","18:00","5.7","","5.2","","97","","11","","6","","19.3","","100.87","","","","","","Cloudy"
"2003-10-25 19:00","2003","10","25","19:00","6.2","","4.8","","91","","9","","4","","19.3","","100.90","","","","","","Cloudy"
"2003-10-25 20:00","2003","10","25","20:00","5.5","","4.6","","94","","8","","4","","19.3","","100.90","","","","","","Mostly Cloudy"
"2003-10-25 21:00","2003","10","25","21:00","4.8","","4.6","","99","","2","","7","","16.1","","100.94","","","","","","Mostly Cloudy"
"2003-10-25 22:00","2003","10","25","22:00","4.2","","4.2","","100","","7","","7","","16.1","","100.94","","","","","","Mainly Clear"
"2003-10-25 23:00","2003","10","25","23:00","2.7","","2.7","","100","","8","","6","","12.9","","100.89","","","","","","Clear"
"2003-10-26 00:00","2003","10","26","00:00","3.1","","3.1","","100","","9","","4","","12.9","","100.87","","","","","","Mainly Clear"
"2003-10-26 01:00","2003","10","26","01:00","3.4","","3.4","","100","","4","","7","","12.9","","100.85","","","","","","Mostly Cloudy"
"2003-10-26 02:00","2003","10","26","02:00","3.1","","3.1","","100","","6","","7","","12.9","","100.82","","","","","","Rain"
"2003-10-26 03:00","2003","10","26","03:00","3.1","","3.1","","100","","5","","6","","12.9","","100.81","","","","","","Rain"
"2003-10-26 04:00","2003","10","26","04:00","3.2","","3.2","","100","","4","","7","","11.3","","100.74","","","","","","Rain"
"2003-10-26 05:00","2003","10","26","05:00","3.4","","3.4","","100","","6","","11","","4.8","","100.64","","","","","","Rain,Fog"
"2003-10-26 06:00","2003","10","26","06:00","3.6","","3.6","","100","","6","","7","","4.0","","100.61","","","","","","Rain,Fog"
"2003-10-26 07:00","2003","10","26","07:00","3.8","","3.8","","100","","3","","6","","1.6","","100.60","","","","","","Rain,Fog"
"2003-10-26 08:00","2003","10","26","08:00","4.1","","4.1","","100","","6","","11","","1.6","","100.45","","","","","","Rain,Fog"
"2003-10-26 09:00","2003","10","26","09:00","4.7","","4.7","","100","","4","","15","","1.6","","100.34","","","","","","Rain,Fog"
"2003-10-26 10:00","2003","10","26","10:00","5.0","","5.0","","100","","4","","9","","1.2","","100.29","","","","","","Rain,Fog"
"2003-10-26 11:00","2003","10","26","11:00","5.3","","5.3","","100","","5","","13","","2.4","","100.16","","","","","","Rain,Fog"
"2003-10-26 12:00","2003","10","26","12:00","5.5","","5.5","","100","","3","","9","","2.4","","100.11","","","","","","Moderate Rain,Fog"
"2003-10-26 13:00","2003","10","26","13:00","5.7","","5.7","","100","","1","","13","","4.0","","99.98","","","","","","Rain,Fog"
"2003-10-26 14:00","2003","10","26","14:00","6.1","","6.1","","100","","36","","9","","4.0","","100.00","","","","","","Moderate Rain,Fog"
"2003-10-26 15:00","2003","10","26","15:00","6.5","","6.5","","100","","2","","7","","8.0","","99.97","","","","","","Rain,Fog"
"2003-10-26 16:00","2003","10","26","16:00","6.6","","6.6","","100","","1","","6","","12.9","","99.97","","","","","","Rain"
"2003-10-26 17:00","2003","10","26","17:00","6.5","","6.5","","100","","31","","7","","16.1","","100.03","","","","","","Cloudy"
"2003-10-26 18:00","2003","10","26","18:00","6.4","","6.4","","100","","29","","6","","16.1","","100.06","","","","","","Cloudy"
"2003-10-26 19:00","2003","10","26","19:00","6.5","","6.5","","100","","29","","7","","11.3","","100.10","","","","","","Cloudy"
"2003-10-26 20:00","2003","10","26","20:00","6.5","","6.5","","100","","27","","4","","12.9","","100.12","","","","","","Cloudy"
"2003-10-26 21:00","2003","10","26","21:00","6.2","","6.2","","100","","","","0","","9.7","","100.15","","","","","","Fog"
"2003-10-26 22:00","2003","10","26","22:00","5.9","","5.9","","100","","","","0","","4.0","","100.14","","","","","","Fog"
"2003-10-26 23:00","2003","10","26","23:00","5.7","","5.7","","100","","","","0","","1.6","","100.12","","","","","","Fog"
"2003-10-27 00:00","2003","10","27","00:00","5.6","","5.6","","100","","","","0","","0.4","","100.09","","","","","","Fog"
"2003-10-27 01:00","2003","10","27","01:00","5.3","","5.3","","100","","","","0","","0.2","","100.08","","","","","","Fog"
"2003-10-27 02:00","2003","10","27","02:00","5.1","","5.1","","100","","","","0","","0.2","","100.09","","","","","","Fog"
"2003-10-27 03:00","2003","10","27","03:00","5.1","","5.1","","100","","","","0","","0.2","","100.02","","","","","","Fog"
"2003-10-27 04:00","2003","10","27","04:00","4.8","","4.8","","100","","1","","6","","0.2","","100.05","","","","","","Fog"
"2003-10-27 05:00","2003","10","27","05:00","4.1","","4.1","","100","","35","","6","","0.4","","100.00","","","","","","Fog"
"2003-10-27 06:00","2003","10","27","06:00","3.9","","3.9","","100","","6","","9","","0.4","","99.91","","","","","","Fog"
"2003-10-27 07:00","2003","10","27","07:00","3.8","","3.8","","100","","4","","7","","0.6","","99.91","","","","","","Fog"
"2003-10-27 08:00","2003","10","27","08:00","3.8","","3.8","","100","","5","","7","","2.0","","99.91","","","","","","Rain,Fog"
"2003-10-27 09:00","2003","10","27","09:00","3.9","","3.9","","100","","8","","6","","6.4","","99.83","","","","","","Rain,Fog"
"2003-10-27 10:00","2003","10","27","10:00","4.2","","4.2","","100","","7","","11","","9.7","","99.67","","","","","","Rain,Fog"
"2003-10-27 11:00","2003","10","27","11:00","4.7","","4.7","","100","","7","","6","","12.9","","99.64","","","","","","Rain"
"2003-10-27 12:00","2003","10","27","12:00","4.9","","4.9","","100","","1","","6","","12.9","","99.55","","","","","","Rain"
"2003-10-27 13:00","2003","10","27","13:00","5.2","","5.2","","100","","5","","6","","6.4","","99.46","","","","","","Rain,Fog"
"2003-10-27 14:00","2003","10","27","14:00","5.5","","5.5","","100","","6","","6","","11.3","","99.35","","","","","","Rain"
"2003-10-27 15:00","2003","10","27","15:00","5.5","","5.5","","100","","6","","9","","11.3","","99.28","","","","","","Rain"
"2003-10-27 16:00","2003","10","27","16:00","5.4","","5.4","","100","","6","","13","","8.0","","99.13","","","","","","Rain,Fog"
"2003-10-27 17:00","2003","10","27","17:00","5.3","","5.3","","100","","5","","9","","12.9","","99.08","","","","","","Rain"
"2003-10-27 18:00","2003","10","27","18:00","5.1","","5.1","","100","","2","","4","","12.9","","99.11","","","","","","Rain"
"2003-10-27 19:00","2003","10","27","19:00","4.8","","4.8","","100","","","","0","","12.9","","99.06","","","","","","Cloudy"
"2003-10-27 20:00","2003","10","27","20:00","4.8","","4.8","","100","","25","","4","","12.9","","99.06","","","","","","Cloudy"
"2003-10-27 21:00","2003","10","27","21:00","4.9","","4.9","","100","","22","","6","","12.9","","99.03","","","","","","Rain"
"2003-10-27 22:00","2003","10","27","22:00","5.1","","5.1","","100","","22","","7","","8.0","","99.05","","","","","","Rain,Fog"
"2003-10-27 23:00","2003","10","27","23:00","5.2","","5.2","","100","","22","","9","","8.0","","99.09","","","","","","Rain,Fog"
"2003-10-28 00:00","2003","10","28","00:00","5.2","","5.2","","100","","22","","7","","9.7","","99.14","","","","","","Rain,Fog"
"2003-10-28 01:00","2003","10","28","01:00","5.3","","5.3","","100","","23","","6","","8.0","","99.19","","","","","","Fog"
"2003-10-28 02:00","2003","10","28","02:00","5.5","","5.4","","99","","25","","9","","12.9","","99.27","","","","","","Mostly Cloudy"
"2003-10-28 03:00","2003","10","28","03:00","4.8","","4.4","","97","","26","","15","","16.1","","99.39","","","","","","Cloudy"
"2003-10-28 04:00","2003","10","28","04:00","3.7","","3.2","","97","","26","","11","","16.1","","99.43","","","","","","Mostly Cloudy"
"2003-10-28 05:00","2003","10","28","05:00","2.5","","2.3","","99","","24","","7","","24.1","","99.47","","","","","","Mainly Clear"
"2003-10-28 06:00","2003","10","28","06:00","2.7","","2.7","","100","","23","","4","","19.3","","99.56","","","","","","Mostly Cloudy"
"2003-10-28 07:00","2003","10","28","07:00","2.5","","2.2","","98","","23","","7","","24.1","","99.70","","","","","","Mostly Cloudy"
"2003-10-28 08:00","2003","10","28","08:00","3.1","","2.2","","94","","23","","9","","24.1","","99.86","","","","","","Mostly Cloudy"
"2003-10-28 09:00","2003","10","28","09:00","3.9","","2.3","","89","","23","","11","","24.1","","99.92","","","","","","Mainly Clear"
"2003-10-28 10:00","2003","10","28","10:00","5.0","","2.1","","81","","25","","7","","24.1","","99.93","","","","","","Mostly Cloudy"
"2003-10-28 11:00","2003","10","28","11:00","6.6","","1.7","","71","","22","","7","","24.1","","99.97","","","","","","Mostly Cloudy"
"2003-10-28 12:00","2003","10","28","12:00","7.6","","1.3","","64","","21","","13","","24.1","","99.94","","","","","","Mostly Cloudy"
"2003-10-28 13:00","2003","10","28","13:00","8.5","","2.2","","65","","18","","13","","24.1","","99.92","","","","","","Mostly Cloudy"
"2003-10-28 14:00","2003","10","28","14:00","8.5","","1.7","","62","","15","","6","","24.1","","99.87","","","","","","Mostly Cloudy"
"2003-10-28 15:00","2003","10","28","15:00","8.4","","2.0","","64","","15","","13","","24.1","","99.88","","","","","","Cloudy"
"2003-10-28 16:00","2003","10","28","16:00","8.2","","2.6","","68","","11","","11","","24.1","","99.82","","","","","","Cloudy"
"2003-10-28 17:00","2003","10","28","17:00","7.0","","2.8","","75","","9","","7","","24.1","","99.83","","","","","","Mostly Cloudy"
"2003-10-28 18:00","2003","10","28","18:00","6.5","","2.9","","78","","9","","11","","24.1","","99.86","","","","","","Mostly Cloudy"
"2003-10-28 19:00","2003","10","28","19:00","5.7","","2.8","","82","","9","","15","","25.0","","99.89","","","","","","Cloudy"
"2003-10-28 20:00","2003","10","28","20:00","5.0","","2.5","","84","","8","","13","","25.0","","99.89","","","","","","Mostly Cloudy"
"2003-10-28 21:00","2003","10","28","21:00","4.4","","2.0","","84","","8","","15","","25.0","","99.84","","","","","","Mainly Clear"
"2003-10-28 22:00","2003","10","28","22:00","4.5","","2.0","","84","","8","","19","","25.0","","99.76","","","","","","Mostly Cloudy"
"2003-10-28 23:00","2003","10","28","23:00","4.7","","2.2","","84","","9","","20","","25.0","","99.71","","","","","","Mostly Cloudy"
"2003-10-29 00:00","2003","10","29","00:00","4.9","","2.7","","86","","9","","20","","25.0","","99.67","","","","","","Cloudy"
"2003-10-29 01:00","2003","10","29","01:00","4.9","","2.8","","86","","8","","20","","25.0","","99.61","","","","","","Cloudy"
"2003-10-29 02:00","2003","10","29","02:00","5.1","","3.2","","88","","9","","20","","25.0","","99.56","","","","","","Cloudy"
"2003-10-29 03:00","2003","10","29","03:00","5.1","","3.4","","89","","8","","20","","25.0","","99.51","","","","","","Cloudy"
"2003-10-29 04:00","2003","10","29","04:00","4.9","","3.4","","90","","7","","13","","25.0","","99.48","","","","","","Cloudy"
"2003-10-29 05:00","2003","10","29","05:00","5.1","","3.4","","89","","8","","13","","25.0","","99.41","","","","","","Cloudy"
"2003-10-29 06:00","2003","10","29","06:00","5.0","","3.4","","89","","6","","9","","25.0","","99.34","","","","","","Cloudy"
"2003-10-29 07:00","2003","10","29","07:00","4.9","","3.8","","93","","8","","13","","16.1","","99.30","","","","","","Rain"
"2003-10-29 08:00","2003","10","29","08:00","5.0","","4.5","","97","","8","","17","","16.1","","99.32","","","","","","Rain"
"2003-10-29 09:00","2003","10","29","09:00","4.9","","4.9","","100","","7","","17","","3.2","","99.24","","","","","","Rain,Fog"
"2003-10-29 10:00","2003","10","29","10:00","5.0","","5.0","","100","","7","","13","","4.8","","99.13","","","","","","Rain,Fog"
"2003-10-29 11:00","2003","10","29","11:00","5.4","","5.4","","100","","5","","9","","3.2","","99.06","","","","","","Rain,Fog"
"2003-10-29 12:00","2003","10","29","12:00","5.8","","5.8","","100","","3","","11","","3.2","","98.95","","","","","","Rain,Fog"
"2003-10-29 13:00","2003","10","29","13:00","5.9","","5.9","","100","","","","0","","3.2","","98.96","","","","","","Rain,Fog"
"2003-10-29 14:00","2003","10","29","14:00","6.0","","6.0","","100","","27","","6","","4.8","","98.94","","","","","","Rain,Fog"
"2003-10-29 15:00","2003","10","29","15:00","6.0","","5.9","","99","","26","","9","","4.8","","99.02","","","","","","Rain,Fog"
"2003-10-29 16:00","2003","10","29","16:00","5.5","","5.3","","99","","27","","6","","4.8","","99.00","","","","","","Rain,Fog"
"2003-10-29 17:00","2003","10","29","17:00","5.4","","5.2","","99","","24","","6","","6.4","","99.08","","","","","","Rain,Fog"
"2003-10-29 18:00","2003","10","29","18:00","5.4","","5.3","","99","","23","","6","","6.4","","99.11","","","","","","Rain,Fog"
"2003-10-29 19:00","2003","10","29","19:00","5.4","","5.4","","100","","22","","7","","8.0","","99.13","","","","","","Rain,Fog"
"2003-10-29 20:00","2003","10","29","20:00","5.6","","5.6","","100","","22","","6","","6.4","","99.17","","","","","","Rain,Fog"
"2003-10-29 21:00","2003","10","29","21:00","5.6","","5.6","","100","","19","","7","","4.0","","99.16","","","","","","Moderate Rain,Fog"
"2003-10-29 22:00","2003","10","29","22:00","6.2","","5.2","","93","","28","","24","","12.9","","99.23","","","","","","Rain"
"2003-10-29 23:00","2003","10","29","23:00","5.7","","5.1","","96","","26","","13","","16.1","","99.32","","","","","","Cloudy"
"2003-10-30 00:00","2003","10","30","00:00","6.0","","4.4","","89","","25","","17","","25.0","","99.44","","","","","","Cloudy"
"2003-10-30 01:00","2003","10","30","01:00","5.8","","4.6","","92","","25","","15","","25.0","","99.53","","","","","","Mostly Cloudy"
"2003-10-30 02:00","2003","10","30","02:00","5.8","","4.6","","92","","25","","15","","25.0","","99.63","","","","","","Mostly Cloudy"
"2003-10-30 03:00","2003","10","30","03:00","5.7","","4.6","","93","","23","","11","","25.0","","99.73","","","","","","Mostly Cloudy"
"2003-10-30 04:00","2003","10","30","04:00","5.6","","4.3","","91","","24","","17","","25.0","","99.83","","","","","","Cloudy"
"2003-10-30 05:00","2003","10","30","05:00","5.0","","3.6","","91","","23","","15","","25.0","","99.88","","","","","","Mainly Clear"
"2003-10-30 06:00","2003","10","30","06:00","4.4","","3.1","","91","","24","","15","","25.0","","99.96","","","","","","Mostly Cloudy"
"2003-10-30 07:00","2003","10","30","07:00","4.0","","2.9","","93","","24","","17","","24.1","","100.06","","","","","","Mainly Clear"
"2003-10-30 08:00","2003","10","30","08:00","5.4","","3.8","","89","","24","","19","","24.1","","100.17","","","","","","Mainly Clear"
"2003-10-30 09:00","2003","10","30","09:00","7.4","","4.0","","79","","26","","19","","24.1","","100.31","","","","","","Mainly Clear"
"2003-10-30 10:00","2003","10","30","10:00","8.6","","3.7","","71","","27","","30","","24.1","","100.41","","","","","","Mainly Clear"
"2003-10-30 11:00","2003","10","30","11:00","9.8","","3.8","","66","","27","","30","","24.1","","100.48","","","","","","Mainly Clear"
"2003-10-30 12:00","2003","10","30","12:00","10.4","","4.0","","64","","25","","24","","24.1","","100.54","","","","","","Mostly Cloudy"
"2003-10-30 13:00","2003","10","30","13:00","10.8","","3.5","","61","","25","","24","","24.1","","100.60","","","","","","Mostly Cloudy"
"2003-10-30 14:00","2003","10","30","14:00","11.4","","3.6","","59","","23","","20","","24.1","","100.62","","","","","","Mostly Cloudy"
"2003-10-30 15:00","2003","10","30","15:00","11.4","","3.0","","56","","25","","22","","24.1","","100.68","","","","","","Mainly Clear"
"2003-10-30 16:00","2003","10","30","16:00","10.7","","3.1","","59","","24","","15","","24.1","","100.74","","","","","","Mainly Clear"
"2003-10-30 17:00","2003","10","30","17:00","9.3","","3.3","","66","","","","0","","24.1","","100.73","","","","","","Mainly Clear"
"2003-10-30 18:00","2003","10","30","18:00","6.9","","3.2","","77","","","","0","","24.1","","100.79","","","","","","Mainly Clear"
"2003-10-30 19:00","2003","10","30","19:00","7.0","","3.0","","76","","","","0","","25.0","","100.86","","","","","","Mostly Cloudy"
"2003-10-30 20:00","2003","10","30","20:00","6.7","","3.4","","79","","","","0","","25.0","","100.86","","","","","","Mostly Cloudy"
"2003-10-30 21:00","2003","10","30","21:00","6.0","","3.8","","86","","","","0","","25.0","","100.90","","","","","","Mostly Cloudy"
"2003-10-30 22:00","2003","10","30","22:00","6.5","","4.4","","86","","16","","9","","25.0","","100.91","","","","","","Cloudy"
"2003-10-30 23:00","2003","10","30","23:00","6.5","","4.3","","86","","15","","9","","25.0","","100.89","","","","","","Mostly Cloudy"
"2003-10-31 00:00","2003","10","31","00:00","6.8","","4.1","","83","","15","","9","","25.0","","100.88","","","","","","Mostly Cloudy"
"2003-10-31 01:00","2003","10","31","01:00","6.9","","3.5","","79","","13","","11","","25.0","","100.82","","","","","","Mostly Cloudy"
"2003-10-31 02:00","2003","10","31","02:00","6.2","","3.1","","81","","10","","15","","25.0","","100.75","","","","","","Mostly Cloudy"
"2003-10-31 03:00","2003","10","31","03:00","5.6","","3.2","","85","","9","","15","","25.0","","100.67","","","","","","Mostly Cloudy"
"2003-10-31 04:00","2003","10","31","04:00","5.1","","3.1","","87","","9","","15","","25.0","","100.62","","","","","","Mainly Clear"
"2003-10-31 05:00","2003","10","31","05:00","4.8","","3.0","","88","","9","","13","","25.0","","100.57","","","","","","Clear"
"2003-10-31 06:00","2003","10","31","06:00","4.1","","2.7","","91","","6","","13","","25.0","","100.51","","","","","","Mainly Clear"
"2003-10-31 07:00","2003","10","31","07:00","4.1","","2.7","","91","","6","","11","","24.1","","100.50","","","","","","Mostly Cloudy"
"2003-10-31 08:00","2003","10","31","08:00","5.5","","3.7","","88","","9","","13","","24.1","","100.47","","","","","","Mainly Clear"
"2003-10-31 09:00","2003","10","31","09:00","8.9","","4.8","","75","","12","","9","","24.1","","100.45","","","","","","Mostly Cloudy"
"2003-10-31 10:00","2003","10","31","10:00","10.9","","5.7","","70","","14","","7","","24.1","","100.40","","","","","","Mostly Cloudy"
"2003-10-31 11:00","2003","10","31","11:00","15.4","","7.7","","60","","18","","15","","24.1","","100.32","","","","","","Mainly Clear"
"2003-10-31 12:00","2003","10","31","12:00","18.5","","9.1","","54","","22","","19","","24.1","","100.25","","","","","","Mainly Clear"
"2003-10-31 13:00","2003","10","31","13:00","19.3","","9.7","","54","","22","","15","","24.1","","100.20","","","","","","Mostly Cloudy"
"2003-10-31 14:00","2003","10","31","14:00","20.5","","10.4","","52","","20","","19","","24.1","","100.17","","","","","","Mostly Cloudy"
"2003-10-31 15:00","2003","10","31","15:00","19.9","","10.7","","55","","21","","15","","19.3","","100.17","","","","","","Mostly Cloudy"
"2003-10-31 16:00","2003","10","31","16:00","19.1","","10.7","","58","","19","","17","","19.3","","100.17","","","","","","Mostly Cloudy"
"2003-10-31 17:00","2003","10","31","17:00","17.5","","10.8","","65","","18","","11","","19.3","","100.21","","","","","","Cloudy"
"2003-10-31 18:00","2003","10","31","18:00","16.7","","11.1","","70","","","","0","","19.3","","100.22","","","","","","Cloudy"
"2003-10-31 19:00","2003","10","31","19:00","16.1","","12.1","","77","","20","","6","","16.1","","100.22","","","","","","Cloudy"
"2003-10-31 20:00","2003","10","31","20:00","17.7","","12.1","","70","","21","","13","","19.3","","100.14","","","","","","Cloudy"
"2003-10-31 21:00","2003","10","31","21:00","17.6","","12.9","","74","","23","","15","","19.3","","100.14","","","","","","Mostly Cloudy"
"2003-10-31 22:00","2003","10","31","22:00","17.3","","12.6","","74","","22","","15","","19.3","","100.15","","","","","","Cloudy"
"2003-10-31 23:00","2003","10","31","23:00","17.2","","12.8","","75","","21","","17","","25.0","","100.11","","","","","","Mostly Cloudy"
