"Station Name","OTTAWA MACDONALD-CARTIER INT'L A"
"Province","ONTARIO"
"Latitude","45.32"
"Longitude","-75.67"
"Elevation","114.00"
"Climate Identifier","6106000"
"WMO Identifier","71628"
"TC Identifier","YOW"
"All times are specified in Local Standard Time (LST). Add 1 hour to adjust for Daylight Saving Time where and when it is observed."

"Legend"
"E","Estimated"
"M","Missing"
"NA","Not Available"

"Date/Time","Year","Month","Day","Time","Temp (°C)","Temp Flag","Dew Point Temp (°C)","Dew Point Temp Flag","Rel Hum (%)","Rel Hum Flag","Wind Dir (10s deg)","Wind Dir Flag","Wind Spd (km/h)","Wind Spd Flag","Visibility (km)","Visibility Flag","Stn Press (kPa)","Stn Press Flag","Hmdx","Hmdx Flag","Wind Chill","Wind Chill Flag","Weather"
"1998-08-01 00:00","1998","08","01","00:00","15.4","","10.1","","71","","24","","4","","25.0","","101.00","","","","","","Mainly Clear"
"1998-08-01 01:00","1998","08","01","01:00","13.9","","8.9","","72","","25","","4","","25.0","","101.00","","","","","","Mainly Clear"
"1998-08-01 02:00","1998","08","01","02:00","13.1","","8.5","","74","","24","","6","","25.0","","101.03","","","","","","Mainly Clear"
"1998-08-01 03:00","1998","08","01","03:00","12.5","","9.0","","79","","23","","4","","25.0","","101.03","","","","","","Mainly Clear"
"1998-08-01 04:00","1998","08","01","04:00","12.7","","8.8","","77","","24","","4","","25.0","","101.06","","","","","","Mainly Clear"
"1998-08-01 05:00","1998","08","01","05:00","12.5","","9.5","","82","","24","","7","","40.2","","101.13","","","","","","Mainly Clear"
"1998-08-01 06:00","1998","08","01","06:00","13.8","","10.7","","82","","27","","7","","32.2","","101.20","","","","","","Mainly Clear"
"1998-08-01 07:00","1998","08","01","07:00","16.0","","11.8","","76","","25","","7","","32.2","","101.23","","","","","","Mainly Clear"
"1998-08-01 08:00","1998","08","01","08:00","17.0","","11.5","","70","","29","","13","","32.2","","101.30","","","","","","Mainly Clear"
"1998-08-01 09:00","1998","08","01","09:00","19.1","","12.1","","64","","29","","7","","32.2","","101.30","","","","","","Mainly Clear"
"1998-08-01 10:00","1998","08","01","10:00","20.8","","12.9","","61","","33","","6","","32.2","","101.30","","","","","","Clear"
"1998-08-01 11:00","1998","08","01","11:00","22.3","","13.0","","56","","24","","6","","40.2","","101.27","","25","","","","Mainly Clear"
"1998-08-01 12:00","1998","08","01","12:00","24.2","","12.6","","48","","27","","15","","40.2","","101.27","","27","","","","Mainly Clear"
"1998-08-01 13:00","1998","08","01","13:00","25.1","","11.3","","42","","30","","19","","40.2","","101.20","","27","","","","Mainly Clear"
"1998-08-01 14:00","1998","08","01","14:00","25.5","","11.4","","41","","30","","17","","40.2","","101.16","","27","","","","Mainly Clear"
"1998-08-01 15:00","1998","08","01","15:00","25.6","","9.0","","35","","30","","19","","40.2","","101.13","","26","","","","Mainly Clear"
"1998-08-01 16:00","1998","08","01","16:00","25.9","","9.9","","36","","30","","15","","40.2","","101.10","","27","","","","Mainly Clear"
"1998-08-01 17:00","1998","08","01","17:00","25.7","","8.9","","35","","29","","9","","40.2","","101.06","","26","","","","Mainly Clear"
"1998-08-01 18:00","1998","08","01","18:00","24.9","","9.1","","37","","29","","13","","40.2","","101.06","","26","","","","Mainly Clear"
"1998-08-01 19:00","1998","08","01","19:00","24.1","","9.4","","39","","28","","4","","40.2","","101.06","","25","","","","Clear"
"1998-08-01 20:00","1998","08","01","20:00","22.6","","9.8","","44","","","","0","","40.2","","101.10","","","","","","Clear"
"1998-08-01 21:00","1998","08","01","21:00","19.8","","12.5","","63","","19","","7","","25.0","","101.13","","","","","","Clear"
"1998-08-01 22:00","1998","08","01","22:00","19.0","","12.3","","65","","20","","6","","25.0","","101.10","","","","","","Clear"
"1998-08-01 23:00","1998","08","01","23:00","17.8","","12.0","","69","","19","","6","","25.0","","101.10","","","","","","Clear"
"1998-08-02 00:00","1998","08","02","00:00","17.0","","11.7","","71","","20","","6","","25.0","","101.06","","","","","","Clear"
"1998-08-02 01:00","1998","08","02","01:00","15.9","","11.4","","75","","24","","7","","25.0","","101.06","","","","","","Mainly Clear"
"1998-08-02 02:00","1998","08","02","02:00","15.9","","11.5","","75","","22","","9","","25.0","","101.06","","","","","","Mainly Clear"
"1998-08-02 03:00","1998","08","02","03:00","14.6","","11.3","","81","","22","","7","","25.0","","101.00","","","","","","Clear"
"1998-08-02 04:00","1998","08","02","04:00","14.8","","11.5","","81","","22","","7","","25.0","","101.03","","","","","","Mainly Clear"
"1998-08-02 05:00","1998","08","02","05:00","14.1","","11.5","","84","","21","","7","","40.2","","101.06","","","","","","Mainly Clear"
"1998-08-02 06:00","1998","08","02","06:00","14.2","","11.5","","84","","22","","7","","40.2","","101.10","","","","","","Mainly Clear"
"1998-08-02 07:00","1998","08","02","07:00","17.2","","13.3","","78","","22","","7","","40.2","","101.10","","","","","","Mainly Clear"
"1998-08-02 08:00","1998","08","02","08:00","20.3","","13.9","","67","","23","","6","","40.2","","101.06","","","","","","Mainly Clear"
"1998-08-02 09:00","1998","08","02","09:00","22.1","","12.5","","54","","25","","13","","40.2","","101.06","","25","","","","Mainly Clear"
"1998-08-02 10:00","1998","08","02","10:00","23.9","","11.3","","45","","24","","17","","40.2","","101.00","","26","","","","Mainly Clear"
"1998-08-02 11:00","1998","08","02","11:00","25.6","","10.2","","38","","25","","17","","40.2","","100.93","","27","","","","Mainly Clear"
"1998-08-02 12:00","1998","08","02","12:00","26.5","","10.5","","37","","25","","19","","40.2","","100.86","","28","","","","Mainly Clear"
"1998-08-02 13:00","1998","08","02","13:00","26.1","","11.7","","41","","26","","17","","40.2","","100.83","","28","","","","Mostly Cloudy"
"1998-08-02 14:00","1998","08","02","14:00","27.3","","11.9","","38","","26","","15","","40.2","","100.76","","30","","","","Mostly Cloudy"
"1998-08-02 15:00","1998","08","02","15:00","26.9","","11.0","","37","","23","","9","","40.2","","100.73","","29","","","","Mainly Clear"
"1998-08-02 16:00","1998","08","02","16:00","27.7","","11.6","","37","","27","","15","","32.2","","100.70","","30","","","","Mainly Clear"
"1998-08-02 17:00","1998","08","02","17:00","27.2","","12.0","","39","","23","","9","","32.2","","100.66","","29","","","","Mainly Clear"
"1998-08-02 18:00","1998","08","02","18:00","26.4","","12.3","","42","","25","","9","","32.2","","100.63","","29","","","","Mainly Clear"
"1998-08-02 19:00","1998","08","02","19:00","24.1","","14.2","","54","","20","","11","","32.2","","100.63","","28","","","","Mainly Clear"
"1998-08-02 20:00","1998","08","02","20:00","21.8","","13.6","","60","","19","","7","","32.2","","100.66","","25","","","","Mainly Clear"
"1998-08-02 21:00","1998","08","02","21:00","20.3","","13.4","","65","","18","","6","","24.1","","100.70","","","","","","Mainly Clear"
"1998-08-02 22:00","1998","08","02","22:00","19.8","","13.3","","66","","22","","6","","24.1","","100.70","","","","","","Mainly Clear"
"1998-08-02 23:00","1998","08","02","23:00","19.3","","13.0","","67","","23","","7","","24.1","","100.70","","","","","","Mainly Clear"
"1998-08-03 00:00","1998","08","03","00:00","18.8","","13.4","","71","","27","","6","","24.1","","100.70","","","","","","Mainly Clear"
"1998-08-03 01:00","1998","08","03","01:00","17.8","","13.0","","73","","","","0","","24.1","","100.70","","","","","","Mainly Clear"
"1998-08-03 02:00","1998","08","03","02:00","18.2","","13.2","","73","","","","0","","24.1","","100.70","","","","","","Mostly Cloudy"
"1998-08-03 03:00","1998","08","03","03:00","18.3","","13.0","","71","","21","","4","","24.1","","100.66","","","","","","Cloudy"
"1998-08-03 04:00","1998","08","03","04:00","17.9","","13.8","","77","","21","","4","","24.1","","100.70","","","","","","Cloudy"
"1998-08-03 05:00","1998","08","03","05:00","17.6","","13.7","","78","","23","","4","","40.2","","100.73","","","","","","Mostly Cloudy"
"1998-08-03 06:00","1998","08","03","06:00","18.5","","14.4","","77","","","","0","","40.2","","100.83","","","","","","Mostly Cloudy"
"1998-08-03 07:00","1998","08","03","07:00","20.7","","15.6","","73","","36","","6","","40.2","","100.83","","25","","","","Mostly Cloudy"
"1998-08-03 08:00","1998","08","03","08:00","21.1","","15.2","","69","","3","","6","","40.2","","100.90","","25","","","","Mostly Cloudy"
"1998-08-03 09:00","1998","08","03","09:00","21.0","","15.4","","70","","3","","9","","40.2","","100.90","","25","","","","Mostly Cloudy"
"1998-08-03 10:00","1998","08","03","10:00","22.9","","16.1","","66","","4","","6","","40.2","","100.93","","28","","","","Mainly Clear"
"1998-08-03 11:00","1998","08","03","11:00","24.6","","16.3","","60","","2","","4","","40.2","","100.90","","29","","","","Clear"
"1998-08-03 12:00","1998","08","03","12:00","25.3","","15.8","","56","","3","","9","","40.2","","100.86","","30","","","","Mainly Clear"
"1998-08-03 13:00","1998","08","03","13:00","26.2","","15.6","","52","","36","","4","","40.2","","100.86","","31","","","","Mainly Clear"
"1998-08-03 14:00","1998","08","03","14:00","26.5","","15.7","","52","","","","0","","40.2","","100.83","","31","","","","Mostly Cloudy"
"1998-08-03 15:00","1998","08","03","15:00","27.5","","16.0","","50","","36","","4","","40.2","","100.80","","32","","","","Mostly Cloudy"
"1998-08-03 16:00","1998","08","03","16:00","26.7","","15.0","","49","","","","0","","40.2","","100.76","","31","","","","Mostly Cloudy"
"1998-08-03 17:00","1998","08","03","17:00","27.3","","14.5","","45","","20","","4","","40.2","","100.73","","31","","","","Mostly Cloudy"
"1998-08-03 18:00","1998","08","03","18:00","26.3","","15.0","","50","","5","","6","","40.2","","100.73","","30","","","","Mostly Cloudy"
"1998-08-03 19:00","1998","08","03","19:00","25.5","","15.6","","54","","7","","4","","40.2","","100.76","","30","","","","Mostly Cloudy"
"1998-08-03 20:00","1998","08","03","20:00","24.6","","15.8","","58","","11","","4","","40.2","","100.80","","29","","","","Mostly Cloudy"
"1998-08-03 21:00","1998","08","03","21:00","22.7","","16.0","","66","","8","","4","","25.0","","100.83","","27","","","","Mainly Clear"
"1998-08-03 22:00","1998","08","03","22:00","22.9","","16.4","","67","","6","","4","","25.0","","100.80","","28","","","","Mostly Cloudy"
"1998-08-03 23:00","1998","08","03","23:00","22.2","","15.8","","67","","7","","4","","25.0","","100.80","","27","","","","Mostly Cloudy"
"1998-08-04 00:00","1998","08","04","00:00","22.1","","15.7","","67","","11","","6","","25.0","","100.83","","27","","","","Mostly Cloudy"
"1998-08-04 01:00","1998","08","04","01:00","20.8","","15.1","","70","","8","","4","","25.0","","100.80","","25","","","","Mostly Cloudy"
"1998-08-04 02:00","1998","08","04","02:00","19.0","","14.3","","74","","4","","9","","25.0","","100.83","","","","","","Cloudy"
"1998-08-04 03:00","1998","08","04","03:00","18.6","","14.3","","76","","","","0","","25.0","","100.83","","","","","","Cloudy"
"1998-08-04 04:00","1998","08","04","04:00","18.4","","14.5","","78","","5","","6","","25.0","","100.86","","","","","","Cloudy"
"1998-08-04 05:00","1998","08","04","05:00","18.7","","14.6","","77","","36","","7","","40.2","","100.90","","","","","","Cloudy"
"1998-08-04 06:00","1998","08","04","06:00","19.0","","14.5","","75","","29","","13","","32.2","","101.00","","","","","","Cloudy"
"1998-08-04 07:00","1998","08","04","07:00","18.1","","14.5","","79","","4","","7","","19.3","","101.00","","","","","","Rain Showers"
"1998-08-04 08:00","1998","08","04","08:00","17.9","","15.6","","86","","4","","6","","24.1","","101.00","","","","","","Cloudy"
"1998-08-04 09:00","1998","08","04","09:00","19.4","","17.3","","88","","","","0","","24.1","","101.00","","","","","","Cloudy"
"1998-08-04 10:00","1998","08","04","10:00","21.2","","18.2","","83","","5","","4","","24.1","","100.96","","27","","","","Cloudy"
"1998-08-04 11:00","1998","08","04","11:00","22.6","","18.8","","79","","10","","6","","24.1","","100.96","","29","","","","Mostly Cloudy"
"1998-08-04 12:00","1998","08","04","12:00","25.0","","18.4","","67","","","","0","","24.1","","100.96","","31","","","","Mostly Cloudy"
"1998-08-04 13:00","1998","08","04","13:00","25.4","","17.2","","60","","","","0","","24.1","","100.93","","31","","","","Mostly Cloudy"
"1998-08-04 14:00","1998","08","04","14:00","26.3","","16.2","","54","","","","0","","16.1","","100.86","","31","","","","Mostly Cloudy"
"1998-08-04 15:00","1998","08","04","15:00","26.6","","16.7","","55","","6","","11","","16.1","","100.83","","32","","","","Mostly Cloudy"
"1998-08-04 16:00","1998","08","04","16:00","27.2","","15.0","","47","","21","","4","","19.3","","100.83","","31","","","","Mainly Clear"
"1998-08-04 17:00","1998","08","04","17:00","28.0","","15.6","","47","","24","","6","","19.3","","100.80","","32","","","","Mainly Clear"
"1998-08-04 18:00","1998","08","04","18:00","27.0","","16.5","","53","","23","","4","","19.3","","100.83","","32","","","","Mainly Clear"
"1998-08-04 19:00","1998","08","04","19:00","23.9","","15.1","","58","","36","","15","","19.3","","100.90","","28","","","","Mainly Clear"
"1998-08-04 20:00","1998","08","04","20:00","22.3","","15.0","","63","","4","","11","","19.3","","100.90","","26","","","","Mainly Clear"
"1998-08-04 21:00","1998","08","04","21:00","21.1","","15.4","","70","","","","0","","19.3","","100.90","","25","","","","Mainly Clear"
"1998-08-04 22:00","1998","08","04","22:00","20.8","","15.8","","73","","3","","4","","25.0","","100.86","","25","","","","Mostly Cloudy"
"1998-08-04 23:00","1998","08","04","23:00","20.8","","16.2","","75","","","","0","","25.0","","100.90","","26","","","","Mostly Cloudy"
"1998-08-05 00:00","1998","08","05","00:00","19.7","","15.6","","77","","7","","4","","25.0","","100.90","","","","","","Mainly Clear"
"1998-08-05 01:00","1998","08","05","01:00","18.7","","15.4","","81","","1","","4","","25.0","","100.90","","","","","","Mainly Clear"
"1998-08-05 02:00","1998","08","05","02:00","18.4","","16.0","","86","","","","0","","25.0","","100.90","","","","","","Clear"
"1998-08-05 03:00","1998","08","05","03:00","17.9","","15.9","","88","","","","0","","25.0","","100.90","","","","","","Clear"
"1998-08-05 04:00","1998","08","05","04:00","18.1","","16.1","","88","","35","","7","","25.0","","100.86","","","","","","Mainly Clear"
"1998-08-05 05:00","1998","08","05","05:00","18.1","","16.3","","89","","36","","4","","32.2","","100.90","","","","","","Mostly Cloudy"
"1998-08-05 06:00","1998","08","05","06:00","18.6","","16.8","","89","","","","0","","24.1","","100.96","","","","","","Mostly Cloudy"
"1998-08-05 07:00","1998","08","05","07:00","20.4","","17.5","","83","","","","0","","19.3","","101.03","","26","","","","Mostly Cloudy"
"1998-08-05 08:00","1998","08","05","08:00","22.7","","17.1","","71","","6","","4","","19.3","","101.03","","28","","","","Mostly Cloudy"
"1998-08-05 09:00","1998","08","05","09:00","23.1","","17.3","","70","","8","","4","","24.1","","101.03","","29","","","","Mostly Cloudy"
"1998-08-05 10:00","1998","08","05","10:00","25.1","","17.6","","63","","","","0","","24.1","","101.03","","31","","","","Mainly Clear"
"1998-08-05 11:00","1998","08","05","11:00","26.9","","17.2","","55","","23","","4","","24.1","","101.00","","32","","","","Mostly Cloudy"
"1998-08-05 12:00","1998","08","05","12:00","28.3","","16.8","","50","","27","","4","","24.1","","100.93","","33","","","","Mostly Cloudy"
"1998-08-05 13:00","1998","08","05","13:00","28.3","","16.4","","48","","6","","4","","24.1","","100.93","","33","","","","Mostly Cloudy"
"1998-08-05 14:00","1998","08","05","14:00","29.3","","15.7","","44","","","","0","","19.3","","100.86","","34","","","","Mostly Cloudy"
"1998-08-05 15:00","1998","08","05","15:00","29.5","","15.9","","44","","23","","9","","19.3","","100.83","","34","","","","Cloudy"
"1998-08-05 16:00","1998","08","05","16:00","28.6","","16.2","","47","","21","","9","","24.1","","100.83","","33","","","","Mostly Cloudy"
"1998-08-05 17:00","1998","08","05","17:00","28.0","","16.7","","50","","18","","2","","24.1","","100.83","","33","","","","Mostly Cloudy"
"1998-08-05 18:00","1998","08","05","18:00","27.7","","16.6","","51","","26","","4","","24.1","","100.83","","33","","","","Mostly Cloudy"
"1998-08-05 19:00","1998","08","05","19:00","27.0","","16.5","","53","","","","0","","32.2","","100.83","","32","","","","Mostly Cloudy"
"1998-08-05 20:00","1998","08","05","20:00","25.0","","16.9","","61","","6","","4","","24.1","","100.86","","30","","","","Mainly Clear"
"1998-08-05 21:00","1998","08","05","21:00","24.7","","16.3","","60","","12","","4","","24.1","","100.90","","30","","","","Mainly Clear"
"1998-08-05 22:00","1998","08","05","22:00","25.2","","16.3","","58","","","","0","","24.1","","100.86","","30","","","","Mainly Clear"
"1998-08-05 23:00","1998","08","05","23:00","23.1","","16.5","","66","","","","0","","24.1","","100.90","","28","","","","Mainly Clear"
"1998-08-06 00:00","1998","08","06","00:00","22.7","","16.2","","67","","","","0","","24.1","","100.86","","27","","","","Mainly Clear"
"1998-08-06 01:00","1998","08","06","01:00","20.9","","17.6","","81","","","","0","","24.1","","100.90","","27","","","","Mostly Cloudy"
"1998-08-06 02:00","1998","08","06","02:00","21.1","","17.5","","80","","7","","4","","24.1","","100.86","","27","","","","Mostly Cloudy"
"1998-08-06 03:00","1998","08","06","03:00","20.2","","17.3","","83","","36","","4","","19.3","","100.86","","26","","","","Mostly Cloudy"
"1998-08-06 04:00","1998","08","06","04:00","19.5","","17.2","","87","","4","","9","","19.3","","100.86","","","","","","Mostly Cloudy"
"1998-08-06 05:00","1998","08","06","05:00","19.8","","17.7","","88","","6","","6","","12.9","","100.90","","","","","","Cloudy"
"1998-08-06 06:00","1998","08","06","06:00","19.5","","17.5","","88","","6","","7","","12.9","","100.93","","","","","","Cloudy"
"1998-08-06 07:00","1998","08","06","07:00","19.4","","17.4","","88","","7","","6","","12.9","","100.96","","","","","","Mostly Cloudy"
"1998-08-06 08:00","1998","08","06","08:00","21.0","","18.1","","84","","","","0","","11.3","","100.96","","27","","","","Rain Showers"
"1998-08-06 09:00","1998","08","06","09:00","21.9","","18.0","","79","","","","0","","12.9","","101.00","","28","","","","Cloudy"
"1998-08-06 10:00","1998","08","06","10:00","22.1","","18.2","","79","","4","","6","","14.5","","101.00","","28","","","","Cloudy"
"1998-08-06 11:00","1998","08","06","11:00","22.1","","18.5","","80","","","","0","","11.3","","101.00","","28","","","","Rain Showers"
"1998-08-06 12:00","1998","08","06","12:00","22.1","","19.1","","83","","","","0","","14.5","","101.00","","29","","","","Cloudy"
"1998-08-06 13:00","1998","08","06","13:00","22.3","","19.2","","83","","18","","4","","12.9","","101.00","","29","","","","Cloudy"
"1998-08-06 14:00","1998","08","06","14:00","22.2","","18.9","","82","","25","","7","","9.7","","101.03","","29","","","","Rain,Haze"
"1998-08-06 15:00","1998","08","06","15:00","21.8","","17.6","","77","","","","0","","9.7","","101.00","","28","","","","Haze"
"1998-08-06 16:00","1998","08","06","16:00","21.8","","18.2","","80","","25","","6","","9.7","","101.00","","28","","","","Haze"
"1998-08-06 17:00","1998","08","06","17:00","21.9","","18.9","","83","","17","","6","","8.0","","100.96","","29","","","","Haze"
"1998-08-06 18:00","1998","08","06","18:00","21.7","","18.0","","79","","14","","4","","8.0","","100.93","","28","","","","Haze"
"1998-08-06 19:00","1998","08","06","19:00","21.1","","17.2","","78","","12","","4","","6.4","","100.90","","27","","","","Haze"
"1998-08-06 20:00","1998","08","06","20:00","20.2","","17.3","","83","","15","","4","","6.4","","100.93","","26","","","","Haze"
"1998-08-06 21:00","1998","08","06","21:00","19.9","","17.6","","87","","12","","4","","6.4","","100.93","","","","","","Haze"
"1998-08-06 22:00","1998","08","06","22:00","19.7","","17.5","","87","","","","0","","8.0","","100.96","","","","","","Haze"
"1998-08-06 23:00","1998","08","06","23:00","19.4","","17.6","","89","","5","","4","","8.0","","100.96","","","","","","Fog"
"1998-08-07 00:00","1998","08","07","00:00","19.0","","17.2","","89","","4","","7","","4.8","","100.93","","","","","","Fog"
"1998-08-07 01:00","1998","08","07","01:00","19.1","","17.5","","90","","5","","9","","4.8","","100.93","","","","","","Fog"
"1998-08-07 02:00","1998","08","07","02:00","19.1","","17.7","","92","","5","","7","","4.8","","100.93","","","","","","Fog"
"1998-08-07 03:00","1998","08","07","03:00","19.0","","17.8","","93","","8","","7","","4.8","","100.93","","","","","","Fog"
"1998-08-07 04:00","1998","08","07","04:00","18.9","","17.8","","93","","12","","4","","4.8","","101.00","","","","","","Fog"
"1998-08-07 05:00","1998","08","07","05:00","19.0","","17.8","","93","","14","","4","","2.4","","101.03","","","","","","Rain Showers,Fog"
"1998-08-07 06:00","1998","08","07","06:00","19.1","","18.3","","95","","","","0","","3.2","","101.06","","","","","","Rain Showers,Fog"
"1998-08-07 07:00","1998","08","07","07:00","19.2","","18.1","","93","","8","","4","","2.0","","101.06","","","","","","Rain Showers,Fog"
"1998-08-07 08:00","1998","08","07","08:00","19.4","","18.2","","93","","9","","4","","2.8","","101.10","","","","","","Rain Showers,Fog"
"1998-08-07 09:00","1998","08","07","09:00","19.9","","18.6","","92","","12","","9","","3.2","","101.13","","","","","","Rain,Fog"
"1998-08-07 10:00","1998","08","07","10:00","20.6","","19.3","","92","","13","","9","","4.0","","101.13","","28","","","","Rain,Fog"
"1998-08-07 11:00","1998","08","07","11:00","21.5","","19.8","","90","","12","","9","","6.4","","101.16","","29","","","","Fog"
"1998-08-07 12:00","1998","08","07","12:00","21.8","","19.9","","89","","12","","6","","8.0","","101.16","","29","","","","Fog"
"1998-08-07 13:00","1998","08","07","13:00","21.6","","19.6","","88","","14","","6","","6.4","","101.16","","29","","","","Rain Showers,Fog"
"1998-08-07 14:00","1998","08","07","14:00","21.4","","19.0","","86","","12","","6","","9.7","","101.16","","28","","","","Haze"
"1998-08-07 15:00","1998","08","07","15:00","21.8","","19.4","","86","","12","","6","","9.7","","101.13","","29","","","","Haze"
"1998-08-07 16:00","1998","08","07","16:00","21.9","","19.7","","87","","11","","4","","9.7","","101.13","","29","","","","Haze"
"1998-08-07 17:00","1998","08","07","17:00","22.2","","19.4","","84","","8","","4","","9.7","","101.13","","29","","","","Haze"
"1998-08-07 18:00","1998","08","07","18:00","21.8","","19.0","","84","","6","","4","","12.9","","101.10","","29","","","","Cloudy"
"1998-08-07 19:00","1998","08","07","19:00","21.8","","18.8","","83","","10","","4","","9.7","","101.10","","28","","","","Haze"
"1998-08-07 20:00","1998","08","07","20:00","21.7","","19.1","","85","","7","","4","","9.7","","101.16","","29","","","","Haze"
"1998-08-07 21:00","1998","08","07","21:00","21.3","","19.0","","87","","4","","4","","12.9","","101.20","","28","","","","Cloudy"
"1998-08-07 22:00","1998","08","07","22:00","21.4","","19.3","","88","","7","","6","","12.9","","101.23","","28","","","","Cloudy"
"1998-08-07 23:00","1998","08","07","23:00","21.0","","19.1","","89","","7","","4","","12.9","","101.23","","28","","","","Cloudy"
"1998-08-08 00:00","1998","08","08","00:00","21.3","","19.7","","91","","","","0","","9.7","","101.27","","29","","","","Fog"
"1998-08-08 01:00","1998","08","08","01:00","20.7","","18.8","","89","","6","","4","","12.9","","101.27","","27","","","","Cloudy"
"1998-08-08 02:00","1998","08","08","02:00","20.6","","19.4","","93","","","","0","","9.7","","101.27","","28","","","","Fog"
"1998-08-08 03:00","1998","08","08","03:00","20.5","","19.3","","93","","7","","4","","8.0","","101.23","","28","","","","Fog"
"1998-08-08 04:00","1998","08","08","04:00","20.3","","19.2","","93","","","","0","","4.8","","101.23","","27","","","","Fog"
"1998-08-08 05:00","1998","08","08","05:00","20.2","","19.2","","94","","11","","7","","3.2","","101.23","","27","","","","Fog"
"1998-08-08 06:00","1998","08","08","06:00","20.5","","19.3","","93","","10","","4","","3.2","","101.27","","28","","","","Fog"
"1998-08-08 07:00","1998","08","08","07:00","20.5","","19.2","","92","","12","","4","","4.0","","101.30","","27","","","","Fog"
"1998-08-08 08:00","1998","08","08","08:00","21.2","","19.5","","90","","12","","6","","16.1","","101.30","","28","","","","Cloudy"
"1998-08-08 09:00","1998","08","08","09:00","22.1","","19.3","","84","","13","","6","","24.1","","101.30","","29","","","","Cloudy"
"1998-08-08 10:00","1998","08","08","10:00","23.3","","19.1","","77","","14","","6","","24.1","","101.33","","30","","","","Cloudy"
"1998-08-08 11:00","1998","08","08","11:00","22.8","","18.4","","76","","13","","7","","19.3","","101.33","","29","","","","Cloudy"
"1998-08-08 12:00","1998","08","08","12:00","23.3","","18.7","","75","","12","","6","","24.1","","101.30","","30","","","","Cloudy"
"1998-08-08 13:00","1998","08","08","13:00","23.8","","19.0","","75","","12","","6","","24.1","","101.27","","31","","","","Cloudy"
"1998-08-08 14:00","1998","08","08","14:00","26.2","","20.2","","70","","13","","7","","24.1","","101.23","","34","","","","Mostly Cloudy"
"1998-08-08 15:00","1998","08","08","15:00","26.7","","20.4","","68","","12","","7","","32.2","","101.16","","35","","","","Cloudy"
"1998-08-08 16:00","1998","08","08","16:00","28.1","","20.2","","62","","14","","7","","32.2","","101.13","","36","","","","Cloudy"
"1998-08-08 17:00","1998","08","08","17:00","27.1","","20.3","","66","","13","","7","","32.2","","101.10","","35","","","","Mostly Cloudy"
"1998-08-08 18:00","1998","08","08","18:00","26.6","","20.6","","70","","13","","6","","24.1","","101.03","","35","","","","Mostly Cloudy"
"1998-08-08 19:00","1998","08","08","19:00","25.9","","20.6","","73","","11","","4","","16.1","","101.00","","34","","","","Mainly Clear"
"1998-08-08 20:00","1998","08","08","20:00","24.6","","19.9","","75","","11","","6","","16.1","","101.00","","32","","","","Clear"
"1998-08-08 21:00","1998","08","08","21:00","23.7","","19.8","","79","","14","","7","","19.3","","101.00","","31","","","","Clear"
"1998-08-08 22:00","1998","08","08","22:00","23.0","","19.6","","81","","12","","6","","19.3","","101.00","","30","","","","Clear"
"1998-08-08 23:00","1998","08","08","23:00","21.9","","19.1","","84","","12","","7","","16.1","","101.00","","29","","","","Clear"
"1998-08-09 00:00","1998","08","09","00:00","21.4","","19.0","","86","","12","","6","","12.9","","101.00","","28","","","","Clear"
"1998-08-09 01:00","1998","08","09","01:00","20.8","","18.6","","87","","14","","6","","16.1","","100.96","","27","","","","Clear"
"1998-08-09 02:00","1998","08","09","02:00","21.2","","18.2","","83","","17","","6","","19.3","","100.93","","27","","","","Clear"
"1998-08-09 03:00","1998","08","09","03:00","20.7","","16.8","","78","","17","","6","","24.1","","100.90","","26","","","","Clear"
"1998-08-09 04:00","1998","08","09","04:00","19.9","","16.1","","79","","18","","6","","24.1","","100.90","","","","","","Clear"
"1998-08-09 05:00","1998","08","09","05:00","19.5","","15.6","","78","","17","","7","","24.1","","100.86","","","","","","Mainly Clear"
"1998-08-09 06:00","1998","08","09","06:00","19.7","","15.7","","78","","17","","7","","32.2","","100.90","","","","","","Mainly Clear"
"1998-08-09 07:00","1998","08","09","07:00","21.1","","16.6","","75","","18","","9","","40.2","","100.86","","26","","","","Clear"
"1998-08-09 08:00","1998","08","09","08:00","23.1","","17.6","","71","","19","","15","","40.2","","100.86","","29","","","","Clear"
"1998-08-09 09:00","1998","08","09","09:00","24.9","","18.3","","67","","19","","17","","40.2","","100.83","","31","","","","Mainly Clear"
"1998-08-09 10:00","1998","08","09","10:00","26.4","","19.5","","66","","20","","15","","40.2","","100.80","","34","","","","Mainly Clear"
"1998-08-09 11:00","1998","08","09","11:00","27.9","","20.2","","63","","18","","15","","40.2","","100.73","","36","","","","Mostly Cloudy"
"1998-08-09 12:00","1998","08","09","12:00","28.8","","20.5","","61","","17","","20","","40.2","","100.63","","37","","","","Mostly Cloudy"
"1998-08-09 13:00","1998","08","09","13:00","29.4","","20.9","","60","","18","","15","","40.2","","100.56","","38","","","","Mainly Clear"
"1998-08-09 14:00","1998","08","09","14:00","30.2","","21.1","","58","","18","","17","","32.2","","100.49","","39","","","","Mainly Clear"
"1998-08-09 15:00","1998","08","09","15:00","29.7","","20.7","","59","","18","","19","","40.2","","100.36","","38","","","","Mainly Clear"
"1998-08-09 16:00","1998","08","09","16:00","30.0","","20.5","","57","","19","","19","","40.2","","100.29","","38","","","","Mainly Clear"
"1998-08-09 17:00","1998","08","09","17:00","29.5","","19.8","","56","","19","","17","","24.1","","100.29","","37","","","","Mainly Clear"
"1998-08-09 18:00","1998","08","09","18:00","28.5","","20.0","","60","","20","","13","","14.5","","100.26","","36","","","","Mainly Clear"
"1998-08-09 19:00","1998","08","09","19:00","26.5","","19.8","","67","","20","","7","","14.5","","100.26","","34","","","","Mostly Cloudy"
"1998-08-09 20:00","1998","08","09","20:00","25.5","","19.3","","69","","20","","9","","14.5","","100.23","","33","","","","Mostly Cloudy"
"1998-08-09 21:00","1998","08","09","21:00","24.8","","19.5","","72","","19","","6","","16.1","","100.19","","32","","","","Mostly Cloudy"
"1998-08-09 22:00","1998","08","09","22:00","24.5","","19.4","","73","","15","","4","","14.5","","100.09","","32","","","","Mostly Cloudy"
"1998-08-09 23:00","1998","08","09","23:00","23.7","","19.5","","77","","18","","6","","16.1","","100.13","","31","","","","Cloudy"
"1998-08-10 00:00","1998","08","10","00:00","23.5","","19.6","","79","","18","","6","","14.5","","100.06","","31","","","","Mostly Cloudy"
"1998-08-10 01:00","1998","08","10","01:00","23.3","","19.9","","81","","21","","4","","16.1","","99.99","","31","","","","Mostly Cloudy"
"1998-08-10 02:00","1998","08","10","02:00","22.4","","19.5","","84","","16","","4","","12.9","","99.99","","30","","","","Mostly Cloudy"
"1998-08-10 03:00","1998","08","10","03:00","22.5","","19.8","","85","","21","","4","","12.9","","99.93","","30","","","","Rain Showers"
"1998-08-10 04:00","1998","08","10","04:00","22.7","","19.9","","84","","21","","6","","9.7","","99.93","","30","","","","Haze"
"1998-08-10 05:00","1998","08","10","05:00","22.3","","20.1","","87","","17","","4","","4.8","","99.89","","30","","","","Fog"
"1998-08-10 06:00","1998","08","10","06:00","22.4","","20.9","","91","","18","","6","","4.8","","99.89","","31","","","","Fog"
"1998-08-10 07:00","1998","08","10","07:00","23.0","","21.1","","89","","22","","11","","9.7","","99.86","","32","","","","Fog"
"1998-08-10 08:00","1998","08","10","08:00","23.8","","21.2","","85","","21","","11","","9.7","","99.86","","32","","","","Fog"
"1998-08-10 09:00","1998","08","10","09:00","24.1","","21.0","","83","","21","","7","","12.9","","99.82","","33","","","","Cloudy"
"1998-08-10 10:00","1998","08","10","10:00","24.5","","20.6","","79","","22","","7","","12.9","","99.82","","33","","","","Cloudy"
"1998-08-10 11:00","1998","08","10","11:00","23.3","","20.5","","84","","24","","4","","12.9","","99.82","","31","","","","Rain Showers"
"1998-08-10 12:00","1998","08","10","12:00","22.7","","21.0","","90","","24","","7","","4.0","","99.72","","31","","","","Rain Showers,Fog"
"1998-08-10 13:00","1998","08","10","13:00","22.7","","21.3","","92","","17","","4","","6.4","","99.69","","31","","","","Rain,Fog"
"1998-08-10 14:00","1998","08","10","14:00","23.4","","22.0","","92","","18","","7","","4.8","","99.66","","33","","","","Rain,Fog"
"1998-08-10 15:00","1998","08","10","15:00","24.0","","22.0","","89","","16","","9","","4.8","","99.59","","33","","","","Fog"
"1998-08-10 16:00","1998","08","10","16:00","23.2","","21.5","","90","","18","","7","","4.8","","99.52","","32","","","","Fog"
"1998-08-10 17:00","1998","08","10","17:00","23.1","","21.6","","91","","18","","7","","4.8","","99.52","","32","","","","Rain,Fog"
"1998-08-10 18:00","1998","08","10","18:00","22.8","","21.5","","92","","20","","9","","4.8","","99.46","","32","","","","Fog"
"1998-08-10 19:00","1998","08","10","19:00","22.4","","21.0","","92","","19","","9","","6.4","","99.46","","31","","","","Fog"
"1998-08-10 20:00","1998","08","10","20:00","21.9","","20.7","","93","","21","","6","","4.8","","99.49","","30","","","","Fog"
"1998-08-10 21:00","1998","08","10","21:00","21.7","","20.7","","94","","19","","4","","4.8","","99.49","","30","","","","Fog"
"1998-08-10 22:00","1998","08","10","22:00","21.5","","20.4","","93","","20","","6","","4.8","","99.46","","29","","","","Rain Showers,Fog"
"1998-08-10 23:00","1998","08","10","23:00","21.8","","21.0","","95","","3","","4","","4.0","","99.46","","30","","","","Thunderstorms,Fog"
"1998-08-11 00:00","1998","08","11","00:00","19.8","","18.4","","92","","","","0","","24.1","","99.39","","","","","","Cloudy"
"1998-08-11 01:00","1998","08","11","01:00","19.7","","18.0","","90","","22","","4","","24.1","","99.42","","","","","","Cloudy"
"1998-08-11 02:00","1998","08","11","02:00","19.9","","18.5","","92","","","","0","","24.1","","99.42","","","","","","Cloudy"
"1998-08-11 03:00","1998","08","11","03:00","19.7","","18.3","","92","","","","0","","19.3","","99.46","","","","","","Cloudy"
"1998-08-11 04:00","1998","08","11","04:00","19.6","","18.4","","93","","","","0","","19.3","","99.42","","","","","","Cloudy"
"1998-08-11 05:00","1998","08","11","05:00","19.4","","18.2","","93","","27","","6","","8.0","","99.42","","","","","","Fog"
"1998-08-11 06:00","1998","08","11","06:00","19.8","","18.4","","92","","30","","7","","8.0","","99.49","","","","","","Fog"
"1998-08-11 07:00","1998","08","11","07:00","20.5","","19.0","","91","","28","","7","","6.4","","99.56","","27","","","","Fog"
"1998-08-11 08:00","1998","08","11","08:00","21.4","","19.3","","88","","30","","11","","16.1","","99.56","","28","","","","Mostly Cloudy"
"1998-08-11 09:00","1998","08","11","09:00","22.9","","18.9","","78","","31","","13","","24.1","","99.59","","30","","","","Mainly Clear"
"1998-08-11 10:00","1998","08","11","10:00","23.6","","18.5","","73","","31","","17","","32.2","","99.66","","30","","","","Mostly Cloudy"
"1998-08-11 11:00","1998","08","11","11:00","23.0","","18.2","","74","","32","","17","","32.2","","99.69","","29","","","","Mostly Cloudy"
"1998-08-11 12:00","1998","08","11","12:00","24.4","","17.6","","66","","34","","17","","40.2","","99.72","","30","","","","Mostly Cloudy"
"1998-08-11 13:00","1998","08","11","13:00","24.6","","16.6","","61","","36","","17","","40.2","","99.72","","30","","","","Mostly Cloudy"
"1998-08-11 14:00","1998","08","11","14:00","25.0","","17.7","","64","","31","","26","","32.2","","99.69","","31","","","","Mostly Cloudy"
"1998-08-11 15:00","1998","08","11","15:00","24.4","","17.2","","64","","33","","28","","32.2","","99.79","","30","","","","Mostly Cloudy"
"1998-08-11 16:00","1998","08","11","16:00","24.0","","17.0","","65","","33","","19","","24.1","","99.86","","29","","","","Mostly Cloudy"
"1998-08-11 17:00","1998","08","11","17:00","22.8","","15.3","","63","","34","","22","","19.3","","99.86","","27","","","","Mostly Cloudy"
"1998-08-11 18:00","1998","08","11","18:00","22.6","","16.2","","67","","1","","19","","16.1","","99.96","","27","","","","Mostly Cloudy"
"1998-08-11 19:00","1998","08","11","19:00","22.3","","14.4","","61","","1","","19","","19.3","","100.03","","26","","","","Mostly Cloudy"
"1998-08-11 20:00","1998","08","11","20:00","22.0","","14.2","","61","","35","","19","","19.3","","100.06","","25","","","","Mostly Cloudy"
"1998-08-11 21:00","1998","08","11","21:00","21.1","","13.7","","63","","32","","17","","19.3","","100.16","","","","","","Cloudy"
"1998-08-11 22:00","1998","08","11","22:00","19.8","","15.2","","75","","31","","11","","24.1","","100.23","","","","","","Mostly Cloudy"
"1998-08-11 23:00","1998","08","11","23:00","19.2","","14.6","","75","","31","","13","","24.1","","100.26","","","","","","Mostly Cloudy"
"1998-08-12 00:00","1998","08","12","00:00","19.2","","13.4","","69","","35","","17","","24.1","","100.33","","","","","","Mostly Cloudy"
"1998-08-12 01:00","1998","08","12","01:00","18.7","","9.9","","57","","1","","17","","25.0","","100.36","","","","","","Mostly Cloudy"
"1998-08-12 02:00","1998","08","12","02:00","17.2","","8.9","","58","","36","","13","","25.0","","100.39","","","","","","Mainly Clear"
"1998-08-12 03:00","1998","08","12","03:00","16.3","","8.5","","60","","35","","11","","25.0","","100.43","","","","","","Clear"
"1998-08-12 04:00","1998","08","12","04:00","15.2","","8.2","","63","","35","","15","","25.0","","100.46","","","","","","Mainly Clear"
"1998-08-12 05:00","1998","08","12","05:00","14.7","","8.0","","64","","34","","17","","40.2","","100.53","","","","","","Mainly Clear"
"1998-08-12 06:00","1998","08","12","06:00","14.6","","8.6","","67","","35","","13","","40.2","","100.63","","","","","","Mainly Clear"
"1998-08-12 07:00","1998","08","12","07:00","15.9","","8.8","","63","","35","","17","","40.2","","100.73","","","","","","Mostly Cloudy"
"1998-08-12 08:00","1998","08","12","08:00","17.2","","9.4","","60","","36","","11","","40.2","","100.80","","","","","","Mostly Cloudy"
"1998-08-12 09:00","1998","08","12","09:00","17.9","","9.6","","58","","36","","15","","40.2","","100.83","","","","","","Mostly Cloudy"
"1998-08-12 10:00","1998","08","12","10:00","19.4","","10.5","","56","","3","","7","","40.2","","100.83","","","","","","Mostly Cloudy"
"1998-08-12 11:00","1998","08","12","11:00","20.6","","10.7","","53","","8","","4","","40.2","","100.83","","","","","","Mostly Cloudy"
"1998-08-12 12:00","1998","08","12","12:00","21.6","","10.6","","50","","4","","13","","40.2","","100.83","","","","","","Mostly Cloudy"
"1998-08-12 13:00","1998","08","12","13:00","22.4","","9.6","","44","","36","","11","","40.2","","100.83","","","","","","Mostly Cloudy"
"1998-08-12 14:00","1998","08","12","14:00","22.8","","9.1","","42","","36","","9","","40.2","","100.83","","","","","","Mostly Cloudy"
"1998-08-12 15:00","1998","08","12","15:00","23.7","","8.9","","39","","3","","6","","40.2","","100.83","","","","","","Mostly Cloudy"
"1998-08-12 16:00","1998","08","12","16:00","23.2","","8.2","","38","","6","","7","","40.2","","100.83","","","","","","Mostly Cloudy"
"1998-08-12 17:00","1998","08","12","17:00","23.0","","8.7","","40","","7","","7","","40.2","","100.83","","","","","","Mostly Cloudy"
"1998-08-12 18:00","1998","08","12","18:00","21.8","","9.8","","46","","1","","11","","40.2","","100.83","","","","","","Cloudy"
"1998-08-12 19:00","1998","08","12","19:00","20.8","","7.8","","43","","1","","9","","40.2","","100.86","","","","","","Mostly Cloudy"
"1998-08-12 20:00","1998","08","12","20:00","19.8","","7.7","","46","","36","","9","","32.2","","100.93","","","","","","Mostly Cloudy"
"1998-08-12 21:00","1998","08","12","21:00","18.9","","8.6","","51","","35","","6","","25.0","","100.93","","","","","","Mostly Cloudy"
"1998-08-12 22:00","1998","08","12","22:00","17.5","","9.1","","58","","","","0","","25.0","","100.93","","","","","","Cloudy"
"1998-08-12 23:00","1998","08","12","23:00","16.5","","9.3","","62","","","","0","","25.0","","100.96","","","","","","Mostly Cloudy"
"1998-08-13 00:00","1998","08","13","00:00","14.9","","8.9","","67","","","","0","","25.0","","100.96","","","","","","Mostly Cloudy"
"1998-08-13 01:00","1998","08","13","01:00","14.2","","8.6","","69","","8","","4","","25.0","","100.96","","","","","","Mainly Clear"
"1998-08-13 02:00","1998","08","13","02:00","13.9","","8.9","","72","","5","","4","","25.0","","100.96","","","","","","Mainly Clear"
"1998-08-13 03:00","1998","08","13","03:00","12.1","","8.8","","80","","4","","2","","25.0","","101.00","","","","","","Mainly Clear"
"1998-08-13 04:00","1998","08","13","04:00","10.8","","8.8","","87","","3","","6","","25.0","","101.00","","","","","","Mainly Clear"
"1998-08-13 05:00","1998","08","13","05:00","10.4","","8.6","","89","","5","","6","","24.1","","101.03","","","","","","Mainly Clear"
"1998-08-13 06:00","1998","08","13","06:00","11.1","","9.7","","91","","7","","6","","32.2","","101.06","","","","","","Mainly Clear"
"1998-08-13 07:00","1998","08","13","07:00","13.5","","12.0","","91","","11","","4","","32.2","","101.06","","","","","","Mainly Clear"
"1998-08-13 08:00","1998","08","13","08:00","16.1","","12.7","","80","","9","","4","","32.2","","101.06","","","","","","Mainly Clear"
"1998-08-13 09:00","1998","08","13","09:00","18.9","","13.2","","69","","","","0","","32.2","","101.03","","","","","","Mainly Clear"
"1998-08-13 10:00","1998","08","13","10:00","20.6","","12.1","","58","","25","","4","","32.2","","101.00","","","","","","Mainly Clear"
"1998-08-13 11:00","1998","08","13","11:00","21.4","","10.8","","51","","18","","7","","40.2","","100.93","","","","","","Mostly Cloudy"
"1998-08-13 12:00","1998","08","13","12:00","22.1","","10.1","","46","","13","","7","","40.2","","100.90","","","","","","Mostly Cloudy"
"1998-08-13 13:00","1998","08","13","13:00","22.8","","10.6","","46","","26","","6","","40.2","","100.83","","","","","","Mostly Cloudy"
"1998-08-13 14:00","1998","08","13","14:00","22.8","","10.6","","46","","12","","4","","40.2","","100.76","","","","","","Mostly Cloudy"
"1998-08-13 15:00","1998","08","13","15:00","24.5","","11.0","","43","","","","0","","40.2","","100.70","","26","","","","Mostly Cloudy"
"1998-08-13 16:00","1998","08","13","16:00","23.6","","11.3","","46","","18","","6","","40.2","","100.66","","26","","","","Mainly Clear"
"1998-08-13 17:00","1998","08","13","17:00","23.6","","11.0","","45","","18","","6","","40.2","","100.63","","25","","","","Mainly Clear"
"1998-08-13 18:00","1998","08","13","18:00","22.7","","11.0","","48","","17","","6","","40.2","","100.56","","","","","","Mainly Clear"
"1998-08-13 19:00","1998","08","13","19:00","20.4","","11.8","","58","","14","","7","","40.2","","100.53","","","","","","Mostly Cloudy"
"1998-08-13 20:00","1998","08","13","20:00","18.5","","11.2","","62","","15","","7","","32.2","","100.53","","","","","","Mainly Clear"
"1998-08-13 21:00","1998","08","13","21:00","17.9","","11.1","","64","","15","","7","","25.0","","100.53","","","","","","Mainly Clear"
"1998-08-13 22:00","1998","08","13","22:00","17.4","","11.0","","66","","16","","4","","25.0","","100.53","","","","","","Mostly Cloudy"
"1998-08-13 23:00","1998","08","13","23:00","16.9","","10.8","","67","","16","","7","","25.0","","100.49","","","","","","Mostly Cloudy"
"1998-08-14 00:00","1998","08","14","00:00","15.9","","10.6","","71","","17","","4","","25.0","","100.46","","","","","","Mostly Cloudy"
"1998-08-14 01:00","1998","08","14","01:00","14.5","","10.1","","75","","26","","2","","25.0","","100.46","","","","","","Mostly Cloudy"
"1998-08-14 02:00","1998","08","14","02:00","15.8","","10.7","","72","","19","","2","","25.0","","100.46","","","","","","Mainly Clear"
"1998-08-14 03:00","1998","08","14","03:00","14.9","","10.1","","73","","","","0","","25.0","","100.43","","","","","","Mainly Clear"
"1998-08-14 04:00","1998","08","14","04:00","14.7","","10.4","","75","","19","","4","","25.0","","100.43","","","","","","Mostly Cloudy"
"1998-08-14 05:00","1998","08","14","05:00","13.8","","10.2","","79","","18","","6","","32.2","","100.39","","","","","","Mostly Cloudy"
"1998-08-14 06:00","1998","08","14","06:00","14.5","","11.2","","81","","18","","4","","24.1","","100.39","","","","","","Mostly Cloudy"
"1998-08-14 07:00","1998","08","14","07:00","15.9","","12.2","","79","","","","0","","24.1","","100.36","","","","","","Mostly Cloudy"
"1998-08-14 08:00","1998","08","14","08:00","18.7","","13.5","","72","","","","0","","24.1","","100.33","","","","","","Mostly Cloudy"
"1998-08-14 09:00","1998","08","14","09:00","20.7","","12.4","","59","","20","","4","","32.2","","100.26","","","","","","Mostly Cloudy"
"1998-08-14 10:00","1998","08","14","10:00","22.1","","13.5","","58","","22","","9","","32.2","","100.23","","25","","","","Mostly Cloudy"
"1998-08-14 11:00","1998","08","14","11:00","23.7","","12.4","","49","","22","","4","","32.2","","100.16","","26","","","","Mainly Clear"
"1998-08-14 12:00","1998","08","14","12:00","24.7","","11.6","","44","","16","","9","","32.2","","100.09","","27","","","","Mainly Clear"
"1998-08-14 13:00","1998","08","14","13:00","25.5","","12.6","","45","","15","","11","","32.2","","99.99","","28","","","","Mainly Clear"
"1998-08-14 14:00","1998","08","14","14:00","26.0","","12.6","","43","","15","","15","","40.2","","99.96","","29","","","","Mainly Clear"
"1998-08-14 15:00","1998","08","14","15:00","27.3","","13.1","","42","","19","","13","","40.2","","99.89","","30","","","","Mainly Clear"
"1998-08-14 16:00","1998","08","14","16:00","26.9","","14.2","","46","","18","","13","","32.2","","99.82","","30","","","","Mainly Clear"
"1998-08-14 17:00","1998","08","14","17:00","26.8","","14.9","","48","","20","","11","","32.2","","99.76","","31","","","","Mainly Clear"
"1998-08-14 18:00","1998","08","14","18:00","26.1","","16.4","","55","","18","","9","","24.1","","99.72","","31","","","","Mainly Clear"
"1998-08-14 19:00","1998","08","14","19:00","24.1","","16.6","","63","","17","","6","","19.3","","99.72","","29","","","","Mainly Clear"
"1998-08-14 20:00","1998","08","14","20:00","22.7","","16.6","","68","","16","","6","","16.1","","99.72","","28","","","","Mainly Clear"
"1998-08-14 21:00","1998","08","14","21:00","21.6","","17.0","","75","","18","","6","","11.3","","99.72","","27","","","","Mainly Clear"
"1998-08-14 22:00","1998","08","14","22:00","20.9","","17.2","","79","","18","","6","","9.7","","99.69","","26","","","","Haze"
"1998-08-14 23:00","1998","08","14","23:00","20.6","","17.6","","83","","19","","6","","8.0","","99.69","","26","","","","Haze"
"1998-08-15 00:00","1998","08","15","00:00","19.8","","17.1","","84","","18","","9","","6.4","","99.66","","","","","","Haze"
"1998-08-15 01:00","1998","08","15","01:00","19.2","","17.3","","89","","22","","2","","6.4","","99.66","","","","","","Haze"
"1998-08-15 02:00","1998","08","15","02:00","19.2","","17.6","","90","","","","0","","4.8","","99.59","","","","","","Haze"
"1998-08-15 03:00","1998","08","15","03:00","19.8","","17.9","","89","","16","","7","","4.8","","99.59","","","","","","Haze"
"1998-08-15 04:00","1998","08","15","04:00","19.1","","17.7","","92","","18","","4","","4.8","","99.59","","","","","","Haze"
"1998-08-15 05:00","1998","08","15","05:00","19.1","","17.7","","92","","19","","4","","3.2","","99.62","","","","","","Fog"
"1998-08-15 06:00","1998","08","15","06:00","20.0","","18.5","","91","","19","","6","","2.4","","99.62","","26","","","","Fog"
"1998-08-15 07:00","1998","08","15","07:00","20.8","","19.1","","90","","20","","7","","4.0","","99.66","","28","","","","Fog"
"1998-08-15 08:00","1998","08","15","08:00","21.6","","18.0","","80","","21","","7","","9.7","","99.69","","28","","","","Fog"
"1998-08-15 09:00","1998","08","15","09:00","23.4","","17.2","","68","","21","","13","","16.1","","99.69","","29","","","","Mainly Clear"
"1998-08-15 10:00","1998","08","15","10:00","25.7","","16.3","","56","","21","","13","","24.1","","99.69","","31","","","","Mainly Clear"
"1998-08-15 11:00","1998","08","15","11:00","27.9","","15.2","","46","","23","","20","","32.2","","99.69","","32","","","","Mainly Clear"
"1998-08-15 12:00","1998","08","15","12:00","28.5","","15.2","","44","","22","","19","","40.2","","99.62","","33","","","","Mainly Clear"
"1998-08-15 13:00","1998","08","15","13:00","29.0","","15.3","","43","","21","","19","","40.2","","99.59","","33","","","","Mainly Clear"
"1998-08-15 14:00","1998","08","15","14:00","29.4","","14.3","","40","","21","","24","","40.2","","99.56","","33","","","","Mainly Clear"
"1998-08-15 15:00","1998","08","15","15:00","29.0","","15.3","","43","","20","","20","","40.2","","99.56","","33","","","","Mainly Clear"
"1998-08-15 16:00","1998","08","15","16:00","28.1","","16.0","","48","","21","","24","","32.2","","99.59","","33","","","","Mainly Clear"
"1998-08-15 17:00","1998","08","15","17:00","27.7","","16.8","","51","","21","","20","","32.2","","99.59","","33","","","","Mainly Clear"
"1998-08-15 18:00","1998","08","15","18:00","24.4","","16.4","","61","","31","","37","","9.7","","99.62","","29","","","","Rain Showers"
"1998-08-15 19:00","1998","08","15","19:00","19.8","","17.8","","88","","24","","4","","8.0","","99.76","","","","","","Fog"
"1998-08-15 20:00","1998","08","15","20:00","19.5","","18.0","","91","","29","","4","","12.9","","99.89","","","","","","Mostly Cloudy"
"1998-08-15 21:00","1998","08","15","21:00","19.5","","18.0","","91","","25","","6","","12.9","","99.93","","","","","","Mostly Cloudy"
"1998-08-15 22:00","1998","08","15","22:00","19.3","","17.8","","91","","27","","4","","12.9","","99.96","","","","","","Mainly Clear"
"1998-08-15 23:00","1998","08","15","23:00","19.0","","18.0","","94","","29","","6","","9.7","","99.99","","","","","","Fog"
"1998-08-16 00:00","1998","08","16","00:00","18.8","","17.4","","92","","33","","9","","6.4","","100.06","","","","","","Fog"
"1998-08-16 01:00","1998","08","16","01:00","18.2","","16.9","","92","","33","","15","","16.1","","100.13","","","","","","Mainly Clear"
"1998-08-16 02:00","1998","08","16","02:00","17.8","","15.9","","89","","34","","15","","24.1","","100.19","","","","","","Mostly Cloudy"
"1998-08-16 03:00","1998","08","16","03:00","16.6","","14.5","","87","","35","","13","","24.1","","100.26","","","","","","Mainly Clear"
"1998-08-16 04:00","1998","08","16","04:00","15.9","","13.6","","86","","36","","13","","24.1","","100.36","","","","","","Clear"
"1998-08-16 05:00","1998","08","16","05:00","14.9","","13.0","","88","","3","","9","","32.2","","100.39","","","","","","Clear"
"1998-08-16 06:00","1998","08","16","06:00","15.0","","13.2","","89","","2","","11","","32.2","","100.49","","","","","","Clear"
"1998-08-16 07:00","1998","08","16","07:00","15.7","","12.7","","82","","2","","17","","40.2","","100.60","","","","","","Clear"
"1998-08-16 08:00","1998","08","16","08:00","16.7","","12.0","","74","","2","","11","","40.2","","100.70","","","","","","Mainly Clear"
"1998-08-16 09:00","1998","08","16","09:00","18.1","","12.3","","69","","4","","9","","40.2","","100.73","","","","","","Clear"
"1998-08-16 10:00","1998","08","16","10:00","19.3","","12.1","","63","","36","","4","","40.2","","100.76","","","","","","Clear"
"1998-08-16 11:00","1998","08","16","11:00","20.5","","12.3","","59","","33","","9","","40.2","","100.76","","","","","","Clear"
"1998-08-16 12:00","1998","08","16","12:00","21.5","","12.3","","56","","3","","9","","40.2","","100.76","","","","","","Clear"
"1998-08-16 13:00","1998","08","16","13:00","22.7","","12.4","","52","","36","","6","","40.2","","100.70","","25","","","","Mainly Clear"
"1998-08-16 14:00","1998","08","16","14:00","24.4","","12.3","","47","","10","","6","","40.2","","100.60","","27","","","","Clear"
"1998-08-16 15:00","1998","08","16","15:00","23.4","","12.0","","49","","9","","22","","40.2","","100.56","","26","","","","Clear"
"1998-08-16 16:00","1998","08","16","16:00","24.5","","12.8","","48","","10","","4","","40.2","","100.53","","27","","","","Clear"
"1998-08-16 17:00","1998","08","16","17:00","23.7","","13.1","","51","","11","","6","","40.2","","100.53","","27","","","","Clear"
"1998-08-16 18:00","1998","08","16","18:00","23.1","","13.1","","53","","9","","6","","40.2","","100.46","","26","","","","Clear"
"1998-08-16 19:00","1998","08","16","19:00","22.0","","13.3","","58","","9","","6","","40.2","","100.49","","25","","","","Clear"
"1998-08-16 20:00","1998","08","16","20:00","21.3","","13.4","","61","","","","0","","25.0","","100.49","","","","","","Clear"
"1998-08-16 21:00","1998","08","16","21:00","20.6","","12.8","","61","","6","","4","","25.0","","100.53","","","","","","Clear"
"1998-08-16 22:00","1998","08","16","22:00","19.6","","12.8","","65","","8","","6","","25.0","","100.49","","","","","","Clear"
"1998-08-16 23:00","1998","08","16","23:00","18.3","","13.1","","72","","8","","6","","25.0","","100.43","","","","","","Clear"
"1998-08-17 00:00","1998","08","17","00:00","18.5","","13.9","","75","","7","","4","","25.0","","100.43","","","","","","Clear"
"1998-08-17 01:00","1998","08","17","01:00","16.2","","13.1","","82","","5","","9","","25.0","","100.39","","","","","","Clear"
"1998-08-17 02:00","1998","08","17","02:00","15.2","","12.5","","84","","4","","7","","25.0","","100.36","","","","","","Clear"
"1998-08-17 03:00","1998","08","17","03:00","15.3","","12.9","","86","","4","","9","","25.0","","100.33","","","","","","Mainly Clear"
"1998-08-17 04:00","1998","08","17","04:00","15.3","","13.1","","87","","5","","9","","25.0","","100.29","","","","","","Mainly Clear"
"1998-08-17 05:00","1998","08","17","05:00","15.4","","13.1","","86","","6","","7","","32.2","","100.29","","","","","","Mainly Clear"
"1998-08-17 06:00","1998","08","17","06:00","15.2","","12.7","","85","","5","","7","","40.2","","100.29","","","","","","Mostly Cloudy"
"1998-08-17 07:00","1998","08","17","07:00","16.1","","13.2","","83","","7","","6","","40.2","","100.29","","","","","","Mostly Cloudy"
"1998-08-17 08:00","1998","08","17","08:00","17.8","","14.7","","82","","5","","4","","40.2","","100.26","","","","","","Mostly Cloudy"
"1998-08-17 09:00","1998","08","17","09:00","20.6","","15.8","","74","","","","0","","40.2","","100.26","","25","","","","Cloudy"
"1998-08-17 10:00","1998","08","17","10:00","21.3","","16.5","","74","","","","0","","40.2","","100.23","","26","","","","Cloudy"
"1998-08-17 11:00","1998","08","17","11:00","24.8","","18.1","","66","","16","","6","","24.1","","100.09","","31","","","","Mainly Clear"
"1998-08-17 12:00","1998","08","17","12:00","25.9","","18.5","","64","","","","0","","24.1","","100.06","","32","","","","Mostly Cloudy"
"1998-08-17 13:00","1998","08","17","13:00","26.9","","18.8","","61","","17","","11","","24.1","","100.03","","34","","","","Mostly Cloudy"
"1998-08-17 14:00","1998","08","17","14:00","28.8","","19.5","","57","","19","","9","","24.1","","99.93","","36","","","","Mainly Clear"
"1998-08-17 15:00","1998","08","17","15:00","29.6","","18.9","","53","","20","","17","","24.1","","99.79","","36","","","","Mainly Clear"
"1998-08-17 16:00","1998","08","17","16:00","30.0","","18.6","","50","","19","","13","","24.1","","99.72","","36","","","","Mainly Clear"
"1998-08-17 17:00","1998","08","17","17:00","28.6","","20.7","","62","","18","","15","","24.1","","99.69","","37","","","","Mainly Clear"
"1998-08-17 18:00","1998","08","17","18:00","27.4","","20.8","","67","","20","","11","","9.7","","99.66","","36","","","","Haze"
"1998-08-17 19:00","1998","08","17","19:00","25.8","","20.6","","73","","19","","15","","8.0","","99.66","","34","","","","Haze"
"1998-08-17 20:00","1998","08","17","20:00","24.4","","20.2","","77","","20","","13","","8.0","","99.66","","32","","","","Haze"
"1998-08-17 21:00","1998","08","17","21:00","23.8","","20.0","","79","","20","","13","","6.4","","99.69","","31","","","","Haze"
"1998-08-17 22:00","1998","08","17","22:00","23.5","","19.8","","80","","22","","15","","8.0","","99.69","","31","","","","Haze"
"1998-08-17 23:00","1998","08","17","23:00","24.4","","17.4","","65","","29","","22","","24.1","","99.69","","30","","","","Cloudy"
"1998-08-18 00:00","1998","08","18","00:00","22.0","","17.0","","73","","29","","26","","25.0","","99.76","","27","","","","Cloudy"
"1998-08-18 01:00","1998","08","18","01:00","21.4","","17.1","","76","","33","","26","","25.0","","99.79","","27","","","","Cloudy"
"1998-08-18 02:00","1998","08","18","02:00","17.9","","14.1","","78","","32","","22","","25.0","","99.89","","","","","","Mostly Cloudy"
"1998-08-18 03:00","1998","08","18","03:00","16.9","","13.6","","81","","31","","24","","25.0","","99.93","","","","","","Cloudy"
"1998-08-18 04:00","1998","08","18","04:00","15.8","","12.6","","81","","32","","26","","25.0","","100.03","","","","","","Cloudy"
"1998-08-18 05:00","1998","08","18","05:00","14.5","","11.1","","80","","31","","20","","40.2","","100.09","","","","","","Cloudy"
"1998-08-18 06:00","1998","08","18","06:00","13.8","","9.5","","75","","34","","22","","32.2","","100.19","","","","","","Mostly Cloudy"
"1998-08-18 07:00","1998","08","18","07:00","13.3","","8.7","","74","","35","","22","","40.2","","100.26","","","","","","Mostly Cloudy"
"1998-08-18 08:00","1998","08","18","08:00","13.2","","8.2","","72","","35","","24","","40.2","","100.29","","","","","","Cloudy"
"1998-08-18 09:00","1998","08","18","09:00","13.4","","8.2","","71","","35","","19","","40.2","","100.33","","","","","","Cloudy"
"1998-08-18 10:00","1998","08","18","10:00","13.4","","8.3","","71","","34","","22","","40.2","","100.36","","","","","","Cloudy"
"1998-08-18 11:00","1998","08","18","11:00","13.3","","8.1","","71","","36","","20","","40.2","","100.43","","","","","","Cloudy"
"1998-08-18 12:00","1998","08","18","12:00","13.8","","7.5","","66","","36","","17","","40.2","","100.46","","","","","","Cloudy"
"1998-08-18 13:00","1998","08","18","13:00","13.5","","7.6","","67","","34","","17","","40.2","","100.49","","","","","","Cloudy"
"1998-08-18 14:00","1998","08","18","14:00","13.7","","7.3","","65","","34","","17","","40.2","","100.49","","","","","","Cloudy"
"1998-08-18 15:00","1998","08","18","15:00","14.1","","7.2","","63","","35","","19","","40.2","","100.53","","","","","","Mostly Cloudy"
"1998-08-18 16:00","1998","08","18","16:00","15.2","","7.1","","58","","1","","24","","40.2","","100.53","","","","","","Mainly Clear"
"1998-08-18 17:00","1998","08","18","17:00","16.2","","6.8","","54","","1","","15","","40.2","","100.53","","","","","","Mainly Clear"
"1998-08-18 18:00","1998","08","18","18:00","16.3","","5.9","","50","","36","","17","","40.2","","100.60","","","","","","Mainly Clear"
"1998-08-18 19:00","1998","08","18","19:00","15.3","","5.8","","53","","36","","9","","40.2","","100.63","","","","","","Mainly Clear"
"1998-08-18 20:00","1998","08","18","20:00","15.0","","6.2","","56","","35","","7","","25.0","","100.73","","","","","","Mainly Clear"
"1998-08-18 21:00","1998","08","18","21:00","14.7","","6.5","","58","","2","","19","","25.0","","100.80","","","","","","Mostly Cloudy"
"1998-08-18 22:00","1998","08","18","22:00","12.0","","4.9","","62","","3","","6","","25.0","","100.83","","","","","","Clear"
"1998-08-18 23:00","1998","08","18","23:00","12.2","","5.9","","65","","36","","4","","25.0","","100.86","","","","","","Mostly Cloudy"
"1998-08-19 00:00","1998","08","19","00:00","11.7","","5.7","","67","","32","","6","","25.0","","100.83","","","","","","Mainly Clear"
"1998-08-19 01:00","1998","08","19","01:00","11.1","","5.8","","70","","31","","7","","25.0","","100.83","","","","","","Clear"
"1998-08-19 02:00","1998","08","19","02:00","10.3","","5.8","","74","","31","","7","","25.0","","100.86","","","","","","Clear"
"1998-08-19 03:00","1998","08","19","03:00","9.6","","5.7","","77","","33","","11","","25.0","","100.86","","","","","","Clear"
"1998-08-19 04:00","1998","08","19","04:00","10.0","","6.3","","78","","35","","11","","25.0","","100.90","","","","","","Clear"
"1998-08-19 05:00","1998","08","19","05:00","9.7","","6.3","","79","","34","","11","","40.2","","100.96","","","","","","Clear"
"1998-08-19 06:00","1998","08","19","06:00","10.0","","6.7","","80","","34","","13","","40.2","","101.03","","","","","","Clear"
"1998-08-19 07:00","1998","08","19","07:00","12.0","","7.8","","75","","34","","13","","40.2","","101.06","","","","","","Mainly Clear"
"1998-08-19 08:00","1998","08","19","08:00","14.4","","7.6","","64","","36","","13","","40.2","","101.10","","","","","","Mainly Clear"
"1998-08-19 09:00","1998","08","19","09:00","16.4","","7.4","","55","","2","","15","","40.2","","101.13","","","","","","Clear"
"1998-08-19 10:00","1998","08","19","10:00","17.1","","5.4","","46","","36","","17","","40.2","","101.16","","","","","","Mainly Clear"
"1998-08-19 11:00","1998","08","19","11:00","18.3","","4.2","","39","","36","","19","","40.2","","101.13","","","","","","Mainly Clear"
"1998-08-19 12:00","1998","08","19","12:00","18.5","","5.1","","41","","35","","15","","40.2","","101.13","","","","","","Mainly Clear"
"1998-08-19 13:00","1998","08","19","13:00","19.4","","5.7","","41","","33","","13","","40.2","","101.10","","","","","","Mainly Clear"
"1998-08-19 14:00","1998","08","19","14:00","21.0","","5.8","","37","","31","","9","","40.2","","101.03","","","","","","Mainly Clear"
"1998-08-19 15:00","1998","08","19","15:00","20.9","","6.5","","39","","31","","17","","40.2","","101.00","","","","","","Mainly Clear"
"1998-08-19 16:00","1998","08","19","16:00","21.1","","6.3","","38","","32","","13","","40.2","","100.96","","","","","","Mainly Clear"
"1998-08-19 17:00","1998","08","19","17:00","20.8","","6.1","","38","","32","","13","","40.2","","100.96","","","","","","Mainly Clear"
"1998-08-19 18:00","1998","08","19","18:00","20.6","","5.8","","38","","33","","13","","40.2","","100.96","","","","","","Mainly Clear"
"1998-08-19 19:00","1998","08","19","19:00","19.2","","6.4","","43","","5","","4","","40.2","","101.00","","","","","","Mainly Clear"
"1998-08-19 20:00","1998","08","19","20:00","17.4","","6.8","","50","","","","0","","32.2","","101.00","","","","","","Clear"
"1998-08-19 21:00","1998","08","19","21:00","17.6","","6.6","","48","","","","0","","24.1","","101.00","","","","","","Clear"
"1998-08-19 22:00","1998","08","19","22:00","15.4","","6.4","","55","","","","0","","24.1","","101.03","","","","","","Clear"
"1998-08-19 23:00","1998","08","19","23:00","14.6","","7.3","","62","","23","","4","","24.1","","101.06","","","","","","Clear"
"1998-08-20 00:00","1998","08","20","00:00","14.3","","7.5","","64","","22","","4","","24.1","","101.06","","","","","","Clear"
"1998-08-20 01:00","1998","08","20","01:00","12.9","","7.2","","68","","","","0","","24.1","","101.06","","","","","","Clear"
"1998-08-20 02:00","1998","08","20","02:00","12.4","","7.4","","72","","21","","4","","24.1","","101.03","","","","","","Clear"
"1998-08-20 03:00","1998","08","20","03:00","12.1","","9.2","","82","","23","","4","","24.1","","101.03","","","","","","Clear"
"1998-08-20 04:00","1998","08","20","04:00","11.2","","7.1","","76","","","","0","","24.1","","101.03","","","","","","Mainly Clear"
"1998-08-20 05:00","1998","08","20","05:00","11.2","","7.5","","78","","","","0","","40.2","","101.03","","","","","","Mainly Clear"
"1998-08-20 06:00","1998","08","20","06:00","10.6","","7.1","","79","","19","","4","","40.2","","101.10","","","","","","Mostly Cloudy"
"1998-08-20 07:00","1998","08","20","07:00","13.2","","9.6","","79","","","","0","","40.2","","101.10","","","","","","Mostly Cloudy"
"1998-08-20 08:00","1998","08","20","08:00","15.5","","11.8","","79","","20","","4","","40.2","","101.10","","","","","","Mostly Cloudy"
"1998-08-20 09:00","1998","08","20","09:00","18.0","","12.5","","70","","20","","6","","40.2","","101.06","","","","","","Mostly Cloudy"
"1998-08-20 10:00","1998","08","20","10:00","21.1","","12.8","","59","","19","","9","","40.2","","101.00","","","","","","Mostly Cloudy"
"1998-08-20 11:00","1998","08","20","11:00","22.0","","10.5","","48","","22","","15","","40.2","","100.96","","","","","","Mostly Cloudy"
"1998-08-20 12:00","1998","08","20","12:00","23.1","","9.4","","42","","21","","15","","40.2","","100.93","","","","","","Mostly Cloudy"
"1998-08-20 13:00","1998","08","20","13:00","22.3","","8.5","","41","","22","","13","","40.2","","100.83","","","","","","Cloudy"
"1998-08-20 14:00","1998","08","20","14:00","21.8","","10.0","","47","","21","","15","","40.2","","100.73","","","","","","Rain Showers"
"1998-08-20 15:00","1998","08","20","15:00","22.4","","10.2","","46","","20","","15","","40.2","","100.63","","","","","","Mostly Cloudy"
"1998-08-20 16:00","1998","08","20","16:00","22.8","","10.1","","45","","20","","9","","40.2","","100.63","","","","","","Cloudy"
"1998-08-20 17:00","1998","08","20","17:00","20.6","","13.3","","63","","16","","7","","32.2","","100.60","","","","","","Mostly Cloudy"
"1998-08-20 18:00","1998","08","20","18:00","19.8","","14.3","","71","","17","","7","","24.1","","100.63","","","","","","Rain Showers"
"1998-08-20 19:00","1998","08","20","19:00","17.1","","14.2","","83","","16","","4","","12.9","","100.70","","","","","","Rain Showers"
"1998-08-20 20:00","1998","08","20","20:00","16.3","","14.0","","86","","17","","7","","19.3","","100.70","","","","","","Rain Showers"
"1998-08-20 21:00","1998","08","20","21:00","16.2","","14.1","","87","","22","","4","","24.1","","100.73","","","","","","Rain"
"1998-08-20 22:00","1998","08","20","22:00","15.9","","14.7","","93","","","","0","","19.3","","100.70","","","","","","Rain"
"1998-08-20 23:00","1998","08","20","23:00","15.9","","14.5","","91","","21","","4","","19.3","","100.66","","","","","","Cloudy"
"1998-08-21 00:00","1998","08","21","00:00","16.1","","14.5","","90","","22","","4","","16.1","","100.63","","","","","","Rain"
"1998-08-21 01:00","1998","08","21","01:00","16.2","","14.7","","91","","19","","6","","19.3","","100.63","","","","","","Cloudy"
"1998-08-21 02:00","1998","08","21","02:00","16.2","","14.7","","91","","20","","4","","16.1","","100.63","","","","","","Cloudy"
"1998-08-21 03:00","1998","08","21","03:00","16.4","","14.7","","90","","30","","4","","16.1","","100.66","","","","","","Cloudy"
"1998-08-21 04:00","1998","08","21","04:00","16.4","","14.5","","89","","26","","4","","12.9","","100.66","","","","","","Drizzle"
"1998-08-21 05:00","1998","08","21","05:00","16.3","","14.8","","91","","","","0","","9.7","","100.70","","","","","","Fog"
"1998-08-21 06:00","1998","08","21","06:00","16.7","","15.7","","94","","29","","4","","9.7","","100.73","","","","","","Fog"
"1998-08-21 07:00","1998","08","21","07:00","17.3","","16.0","","92","","30","","9","","9.7","","100.76","","","","","","Fog"
"1998-08-21 08:00","1998","08","21","08:00","17.6","","16.0","","90","","33","","9","","12.9","","100.83","","","","","","Cloudy"
"1998-08-21 09:00","1998","08","21","09:00","18.8","","16.4","","86","","35","","7","","24.1","","100.83","","","","","","Cloudy"
"1998-08-21 10:00","1998","08","21","10:00","20.5","","16.5","","78","","36","","7","","32.2","","100.86","","25","","","","Mostly Cloudy"
"1998-08-21 11:00","1998","08","21","11:00","22.7","","15.8","","65","","3","","4","","40.2","","100.83","","27","","","","Mostly Cloudy"
"1998-08-21 12:00","1998","08","21","12:00","22.5","","15.7","","65","","30","","9","","40.2","","100.83","","27","","","","Mostly Cloudy"
"1998-08-21 13:00","1998","08","21","13:00","23.2","","15.0","","60","","","","0","","40.2","","100.80","","27","","","","Mainly Clear"
"1998-08-21 14:00","1998","08","21","14:00","23.7","","14.7","","57","","36","","9","","40.2","","100.80","","27","","","","Mainly Clear"
"1998-08-21 15:00","1998","08","21","15:00","23.9","","14.2","","55","","2","","7","","40.2","","100.76","","27","","","","Mainly Clear"
"1998-08-21 16:00","1998","08","21","16:00","24.0","","14.4","","55","","","","0","","32.2","","100.70","","28","","","","Mostly Cloudy"
"1998-08-21 17:00","1998","08","21","17:00","23.9","","14.6","","56","","","","0","","32.2","","100.70","","28","","","","Mostly Cloudy"
"1998-08-21 18:00","1998","08","21","18:00","23.9","","14.9","","57","","","","0","","32.2","","100.70","","28","","","","Mainly Clear"
"1998-08-21 19:00","1998","08","21","19:00","23.1","","14.7","","59","","","","0","","32.2","","100.70","","27","","","","Mainly Clear"
"1998-08-21 20:00","1998","08","21","20:00","21.7","","14.6","","64","","","","0","","24.1","","100.73","","25","","","","Mainly Clear"
"1998-08-21 21:00","1998","08","21","21:00","20.7","","14.6","","68","","","","0","","24.1","","100.73","","","","","","Mainly Clear"
"1998-08-21 22:00","1998","08","21","22:00","20.7","","14.5","","68","","12","","4","","24.1","","100.70","","","","","","Mainly Clear"
"1998-08-21 23:00","1998","08","21","23:00","19.7","","14.2","","71","","","","0","","24.1","","100.70","","","","","","Mainly Clear"
"1998-08-22 00:00","1998","08","22","00:00","18.7","","14.7","","78","","21","","4","","24.1","","100.70","","","","","","Mainly Clear"
"1998-08-22 01:00","1998","08","22","01:00","17.7","","14.5","","82","","","","0","","24.1","","100.66","","","","","","Mainly Clear"
"1998-08-22 02:00","1998","08","22","02:00","17.9","","14.0","","78","","","","0","","24.1","","100.66","","","","","","Mostly Cloudy"
"1998-08-22 03:00","1998","08","22","03:00","17.3","","15.7","","90","","4","","11","","24.1","","100.66","","","","","","Mostly Cloudy"
"1998-08-22 04:00","1998","08","22","04:00","17.2","","16.1","","93","","5","","7","","24.1","","100.63","","","","","","Rain Showers"
"1998-08-22 05:00","1998","08","22","05:00","17.2","","16.3","","94","","","","0","","24.1","","100.70","","","","","","Mostly Cloudy"
"1998-08-22 06:00","1998","08","22","06:00","17.2","","16.2","","94","","","","0","","19.3","","100.70","","","","","","Mostly Cloudy"
"1998-08-22 07:00","1998","08","22","07:00","17.5","","16.3","","93","","2","","6","","19.3","","100.70","","","","","","Cloudy"
"1998-08-22 08:00","1998","08","22","08:00","18.2","","16.4","","89","","3","","6","","16.1","","100.70","","","","","","Mostly Cloudy"
"1998-08-22 09:00","1998","08","22","09:00","19.3","","16.2","","82","","2","","7","","16.1","","100.66","","","","","","Mostly Cloudy"
"1998-08-22 10:00","1998","08","22","10:00","19.3","","15.2","","77","","2","","9","","19.3","","100.70","","","","","","Cloudy"
"1998-08-22 11:00","1998","08","22","11:00","19.6","","15.3","","76","","3","","6","","24.1","","100.70","","","","","","Mostly Cloudy"
"1998-08-22 12:00","1998","08","22","12:00","21.2","","15.4","","69","","","","0","","32.2","","100.60","","25","","","","Mostly Cloudy"
"1998-08-22 13:00","1998","08","22","13:00","21.7","","13.9","","61","","10","","7","","32.2","","100.53","","25","","","","Mainly Clear"
"1998-08-22 14:00","1998","08","22","14:00","23.1","","14.2","","57","","","","0","","32.2","","100.46","","27","","","","Mostly Cloudy"
"1998-08-22 15:00","1998","08","22","15:00","23.7","","14.8","","57","","17","","7","","32.2","","100.43","","28","","","","Mainly Clear"
"1998-08-22 16:00","1998","08","22","16:00","23.2","","14.0","","56","","","","0","","32.2","","100.43","","27","","","","Mainly Clear"
"1998-08-22 17:00","1998","08","22","17:00","24.1","","12.1","","47","","33","","9","","40.2","","100.39","","26","","","","Mostly Cloudy"
"1998-08-22 18:00","1998","08","22","18:00","23.2","","9.5","","42","","32","","13","","40.2","","100.36","","","","","","Mostly Cloudy"
"1998-08-22 19:00","1998","08","22","19:00","21.4","","9.4","","46","","35","","9","","40.2","","100.36","","","","","","Mostly Cloudy"
"1998-08-22 20:00","1998","08","22","20:00","19.6","","9.8","","53","","6","","7","","25.0","","100.39","","","","","","Mostly Cloudy"
"1998-08-22 21:00","1998","08","22","21:00","18.6","","10.0","","57","","5","","7","","25.0","","100.43","","","","","","Mainly Clear"
"1998-08-22 22:00","1998","08","22","22:00","17.7","","10.1","","61","","7","","6","","25.0","","100.43","","","","","","Mostly Cloudy"
"1998-08-22 23:00","1998","08","22","23:00","17.5","","10.2","","62","","7","","4","","25.0","","100.39","","","","","","Mostly Cloudy"
"1998-08-23 00:00","1998","08","23","00:00","16.5","","9.5","","63","","","","0","","25.0","","100.36","","","","","","Mainly Clear"
"1998-08-23 01:00","1998","08","23","01:00","16.5","","9.9","","65","","","","0","","25.0","","100.33","","","","","","Mostly Cloudy"
"1998-08-23 02:00","1998","08","23","02:00","16.2","","10.3","","68","","","","0","","25.0","","100.26","","","","","","Mainly Clear"
"1998-08-23 03:00","1998","08","23","03:00","15.2","","9.3","","68","","4","","4","","25.0","","100.23","","","","","","Mostly Cloudy"
"1998-08-23 04:00","1998","08","23","04:00","14.2","","10.0","","76","","5","","9","","25.0","","100.16","","","","","","Mostly Cloudy"
"1998-08-23 05:00","1998","08","23","05:00","13.8","","10.4","","80","","6","","9","","40.2","","100.16","","","","","","Cloudy"
"1998-08-23 06:00","1998","08","23","06:00","13.8","","10.9","","83","","6","","7","","40.2","","100.16","","","","","","Cloudy"
"1998-08-23 07:00","1998","08","23","07:00","14.1","","11.5","","84","","7","","7","","40.2","","100.13","","","","","","Cloudy"
"1998-08-23 08:00","1998","08","23","08:00","15.2","","12.7","","85","","7","","6","","40.2","","100.09","","","","","","Cloudy"
"1998-08-23 09:00","1998","08","23","09:00","17.7","","15.2","","85","","8","","7","","40.2","","100.03","","","","","","Cloudy"
"1998-08-23 10:00","1998","08","23","10:00","19.4","","15.5","","78","","8","","9","","40.2","","99.96","","","","","","Cloudy"
"1998-08-23 11:00","1998","08","23","11:00","20.2","","15.6","","75","","12","","7","","40.2","","99.93","","25","","","","Cloudy"
"1998-08-23 12:00","1998","08","23","12:00","20.9","","15.4","","71","","13","","7","","40.2","","99.86","","25","","","","Cloudy"
"1998-08-23 13:00","1998","08","23","13:00","20.6","","15.3","","72","","15","","7","","24.1","","99.79","","25","","","","Cloudy"
"1998-08-23 14:00","1998","08","23","14:00","20.8","","16.2","","75","","17","","6","","24.1","","99.72","","26","","","","Cloudy"
"1998-08-23 15:00","1998","08","23","15:00","20.4","","16.0","","76","","20","","6","","12.9","","99.62","","25","","","","Rain"
"1998-08-23 16:00","1998","08","23","16:00","18.2","","15.9","","86","","17","","6","","9.7","","99.59","","","","","","Rain,Fog"
"1998-08-23 17:00","1998","08","23","17:00","18.0","","16.4","","90","","13","","6","","16.1","","99.49","","","","","","Rain"
"1998-08-23 18:00","1998","08","23","18:00","18.5","","17.3","","93","","12","","6","","9.7","","99.36","","","","","","Fog"
"1998-08-23 19:00","1998","08","23","19:00","18.2","","17.2","","94","","10","","6","","4.8","","99.29","","","","","","Fog"
"1998-08-23 20:00","1998","08","23","20:00","18.4","","17.1","","92","","13","","7","","8.0","","99.26","","","","","","Fog"
"1998-08-23 21:00","1998","08","23","21:00","18.0","","17.0","","94","","15","","13","","3.2","","99.15","","","","","","Thunderstorms,Rain Showers,Fog"
"1998-08-23 22:00","1998","08","23","22:00","18.3","","17.3","","94","","14","","11","","16.1","","99.09","","","","","","Mostly Cloudy"
"1998-08-23 23:00","1998","08","23","23:00","18.6","","17.7","","95","","15","","11","","6.4","","98.92","","","","","","Thunderstorms,Moderate Rain Showers,Fog"
"1998-08-24 00:00","1998","08","24","00:00","19.0","","17.5","","91","","22","","13","","4.8","","98.99","","","","","","Thunderstorms,Rain Showers,Fog"
"1998-08-24 01:00","1998","08","24","01:00","19.9","","19.6","","98","","32","","6","","8.0","","98.89","","","","","","Moderate Rain,Fog"
"1998-08-24 02:00","1998","08","24","02:00","19.2","","18.3","","95","","16","","6","","12.9","","98.85","","","","","","Cloudy"
"1998-08-24 03:00","1998","08","24","03:00","18.9","","18.1","","95","","20","","11","","16.1","","98.85","","","","","","Mostly Cloudy"
"1998-08-24 04:00","1998","08","24","04:00","18.8","","17.8","","94","","21","","11","","16.1","","98.85","","","","","","Cloudy"
"1998-08-24 05:00","1998","08","24","05:00","18.7","","17.8","","95","","21","","9","","16.1","","98.82","","","","","","Cloudy"
"1998-08-24 06:00","1998","08","24","06:00","19.5","","18.7","","95","","18","","6","","6.4","","98.82","","","","","","Fog"
"1998-08-24 07:00","1998","08","24","07:00","19.9","","19.1","","95","","21","","6","","9.7","","98.85","","","","","","Fog"
"1998-08-24 08:00","1998","08","24","08:00","21.2","","19.5","","90","","23","","9","","24.1","","98.89","","28","","","","Mainly Clear"
"1998-08-24 09:00","1998","08","24","09:00","23.1","","18.5","","75","","24","","13","","40.2","","98.89","","29","","","","Mainly Clear"
"1998-08-24 10:00","1998","08","24","10:00","24.3","","18.3","","69","","24","","19","","40.2","","98.92","","31","","","","Mostly Cloudy"
"1998-08-24 11:00","1998","08","24","11:00","22.4","","17.6","","74","","22","","22","","40.2","","98.92","","28","","","","Cloudy"
"1998-08-24 12:00","1998","08","24","12:00","25.3","","18.0","","64","","24","","20","","40.2","","98.82","","31","","","","Mainly Clear"
"1998-08-24 13:00","1998","08","24","13:00","26.2","","17.5","","59","","25","","19","","40.2","","98.82","","32","","","","Mainly Clear"
"1998-08-24 14:00","1998","08","24","14:00","23.6","","16.2","","63","","27","","11","","40.2","","98.79","","28","","","","Thunderstorms,Rain Showers"
"1998-08-24 15:00","1998","08","24","15:00","21.4","","17.0","","76","","21","","7","","40.2","","98.82","","27","","","","Mostly Cloudy"
"1998-08-24 16:00","1998","08","24","16:00","19.4","","16.9","","85","","22","","7","","24.1","","98.89","","","","","","Rain Showers"
"1998-08-24 17:00","1998","08","24","17:00","19.2","","17.4","","89","","22","","4","","32.2","","98.89","","","","","","Mostly Cloudy"
"1998-08-24 18:00","1998","08","24","18:00","20.2","","18.0","","87","","22","","7","","32.2","","98.95","","26","","","","Mainly Clear"
"1998-08-24 19:00","1998","08","24","19:00","19.5","","17.2","","87","","","","0","","32.2","","98.99","","","","","","Mainly Clear"
"1998-08-24 20:00","1998","08","24","20:00","18.7","","17.0","","90","","24","","6","","25.0","","99.09","","","","","","Clear"
"1998-08-24 21:00","1998","08","24","21:00","18.7","","16.4","","86","","22","","7","","25.0","","99.12","","","","","","Clear"
"1998-08-24 22:00","1998","08","24","22:00","17.7","","17.2","","97","","","","0","","25.0","","99.09","","","","","","Clear"
"1998-08-24 23:00","1998","08","24","23:00","17.7","","16.9","","95","","23","","4","","25.0","","99.12","","","","","","Clear"
"1998-08-25 00:00","1998","08","25","00:00","16.9","","16.4","","97","","","","0","","24.1","","99.15","","","","","","Clear"
"1998-08-25 01:00","1998","08","25","01:00","17.1","","16.8","","98","","","","0","","24.1","","99.19","","","","","","Mainly Clear"
"1998-08-25 02:00","1998","08","25","02:00","17.0","","16.5","","97","","18","","4","","4.0","","99.19","","","","","","Fog"
"1998-08-25 03:00","1998","08","25","03:00","16.6","","16.2","","97","","15","","6","","1.6","","99.12","","","","","","Fog"
"1998-08-25 04:00","1998","08","25","04:00","16.8","","16.3","","97","","19","","6","","0.2","","99.12","","","","","","Fog"
"1998-08-25 05:00","1998","08","25","05:00","17.4","","16.9","","97","","21","","6","","0.4","","99.12","","","","","","Fog"
"1998-08-25 06:00","1998","08","25","06:00","18.3","","18.1","","99","","21","","4","","0.4","","99.22","","","","","","Fog"
"1998-08-25 07:00","1998","08","25","07:00","19.1","","18.5","","96","","16","","4","","0.8","","99.19","","","","","","Fog"
"1998-08-25 08:00","1998","08","25","08:00","20.3","","19.3","","94","","21","","9","","9.7","","99.19","","27","","","","Fog"
"1998-08-25 09:00","1998","08","25","09:00","21.1","","20.5","","96","","21","","6","","9.7","","99.15","","29","","","","Fog"
"1998-08-25 10:00","1998","08","25","10:00","21.6","","20.2","","92","","19","","7","","9.7","","99.19","","29","","","","Fog"
"1998-08-25 11:00","1998","08","25","11:00","21.5","","20.2","","92","","","","0","","4.8","","99.12","","29","","","","Thunderstorms,Rain,Fog"
"1998-08-25 12:00","1998","08","25","12:00","20.8","","19.1","","90","","25","","13","","12.9","","99.15","","28","","","","Rain"
"1998-08-25 13:00","1998","08","25","13:00","22.3","","21.1","","93","","21","","7","","9.7","","99.12","","31","","","","Rain,Fog"
"1998-08-25 14:00","1998","08","25","14:00","21.0","","19.6","","92","","23","","7","","8.0","","99.12","","28","","","","Rain Showers,Fog"
"1998-08-25 15:00","1998","08","25","15:00","20.9","","18.2","","85","","27","","9","","19.3","","99.09","","27","","","","Mostly Cloudy"
"1998-08-25 16:00","1998","08","25","16:00","21.2","","16.8","","76","","","","0","","24.1","","99.09","","26","","","","Mostly Cloudy"
"1998-08-25 17:00","1998","08","25","17:00","22.5","","17.1","","72","","21","","6","","24.1","","99.12","","28","","","","Mainly Clear"
"1998-08-25 18:00","1998","08","25","18:00","21.9","","17.2","","75","","22","","4","","24.1","","99.19","","27","","","","Mostly Cloudy"
"1998-08-25 19:00","1998","08","25","19:00","20.8","","17.2","","80","","19","","4","","19.3","","99.26","","26","","","","Mainly Clear"
"1998-08-25 20:00","1998","08","25","20:00","19.7","","17.2","","85","","15","","6","","24.1","","99.26","","","","","","Mainly Clear"
"1998-08-25 21:00","1998","08","25","21:00","18.8","","17.2","","90","","17","","6","","24.1","","99.29","","","","","","Mostly Cloudy"
"1998-08-25 22:00","1998","08","25","22:00","18.9","","17.4","","91","","17","","6","","16.1","","99.32","","","","","","Thunderstorms"
"1998-08-25 23:00","1998","08","25","23:00","19.2","","18.0","","93","","22","","4","","25.0","","99.39","","","","","","Mainly Clear"
"1998-08-26 00:00","1998","08","26","00:00","18.4","","17.2","","93","","22","","4","","25.0","","99.39","","","","","","Mainly Clear"
"1998-08-26 01:00","1998","08","26","01:00","18.1","","17.4","","96","","22","","4","","25.0","","99.36","","","","","","Mainly Clear"
"1998-08-26 02:00","1998","08","26","02:00","17.9","","16.8","","93","","22","","4","","25.0","","99.39","","","","","","Clear"
"1998-08-26 03:00","1998","08","26","03:00","17.2","","16.5","","96","","19","","4","","25.0","","99.46","","","","","","Mainly Clear"
"1998-08-26 04:00","1998","08","26","04:00","17.0","","16.0","","94","","24","","6","","25.0","","99.49","","","","","","Mainly Clear"
"1998-08-26 05:00","1998","08","26","05:00","17.0","","16.2","","95","","20","","4","","24.1","","99.59","","","","","","Mainly Clear"
"1998-08-26 06:00","1998","08","26","06:00","17.0","","16.1","","94","","23","","6","","19.3","","99.62","","","","","","Mainly Clear"
"1998-08-26 07:00","1998","08","26","07:00","18.0","","16.8","","93","","25","","6","","19.3","","99.69","","","","","","Mainly Clear"
"1998-08-26 08:00","1998","08","26","08:00","19.6","","17.6","","88","","29","","9","","24.1","","99.72","","","","","","Mostly Cloudy"
"1998-08-26 09:00","1998","08","26","09:00","20.8","","18.0","","84","","25","","6","","24.1","","99.79","","27","","","","Mostly Cloudy"
"1998-08-26 10:00","1998","08","26","10:00","21.4","","17.6","","79","","28","","7","","24.1","","99.86","","27","","","","Cloudy"
"1998-08-26 11:00","1998","08","26","11:00","21.8","","17.8","","78","","29","","9","","24.1","","99.89","","28","","","","Mostly Cloudy"
"1998-08-26 12:00","1998","08","26","12:00","20.5","","17.3","","82","","34","","7","","19.3","","99.93","","26","","","","Mostly Cloudy"
"1998-08-26 13:00","1998","08","26","13:00","22.2","","18.8","","81","","28","","11","","24.1","","99.93","","29","","","","Mostly Cloudy"
"1998-08-26 14:00","1998","08","26","14:00","23.8","","18.0","","70","","31","","9","","32.2","","99.89","","30","","","","Mainly Clear"
"1998-08-26 15:00","1998","08","26","15:00","25.0","","16.9","","61","","32","","9","","32.2","","99.89","","30","","","","Mainly Clear"
"1998-08-26 16:00","1998","08","26","16:00","24.6","","15.5","","57","","32","","11","","32.2","","99.96","","29","","","","Mainly Clear"
"1998-08-26 17:00","1998","08","26","17:00","24.6","","15.0","","55","","1","","11","","32.2","","99.99","","29","","","","Mainly Clear"
"1998-08-26 18:00","1998","08","26","18:00","24.4","","14.8","","55","","35","","7","","32.2","","100.03","","28","","","","Mainly Clear"
"1998-08-26 19:00","1998","08","26","19:00","22.9","","15.1","","61","","","","0","","32.2","","100.06","","27","","","","Clear"
"1998-08-26 20:00","1998","08","26","20:00","22.0","","15.0","","64","","23","","4","","24.1","","100.16","","26","","","","Clear"
"1998-08-26 21:00","1998","08","26","21:00","20.5","","15.0","","71","","22","","4","","24.1","","100.23","","","","","","Clear"
"1998-08-26 22:00","1998","08","26","22:00","19.5","","15.0","","75","","24","","6","","24.1","","100.26","","","","","","Mainly Clear"
"1998-08-26 23:00","1998","08","26","23:00","18.2","","15.1","","82","","23","","6","","24.1","","100.26","","","","","","Clear"
"1998-08-27 00:00","1998","08","27","00:00","17.6","","15.0","","85","","29","","6","","24.1","","100.26","","","","","","Clear"
"1998-08-27 01:00","1998","08","27","01:00","17.8","","15.0","","84","","30","","6","","24.1","","100.26","","","","","","Clear"
"1998-08-27 02:00","1998","08","27","02:00","17.0","","14.8","","87","","25","","4","","24.1","","100.29","","","","","","Clear"
"1998-08-27 03:00","1998","08","27","03:00","15.9","","13.9","","88","","25","","4","","24.1","","100.33","","","","","","Clear"
"1998-08-27 04:00","1998","08","27","04:00","15.9","","14.6","","92","","28","","6","","24.1","","100.39","","","","","","Clear"
"1998-08-27 05:00","1998","08","27","05:00","15.6","","14.1","","91","","25","","4","","24.1","","100.43","","","","","","Clear"
"1998-08-27 06:00","1998","08","27","06:00","15.3","","13.7","","90","","27","","6","","24.1","","100.49","","","","","","Clear"
"1998-08-27 07:00","1998","08","27","07:00","17.7","","15.3","","86","","27","","6","","24.1","","100.49","","","","","","Clear"
"1998-08-27 08:00","1998","08","27","08:00","19.8","","14.9","","73","","27","","7","","24.1","","100.53","","","","","","Clear"
"1998-08-27 09:00","1998","08","27","09:00","21.2","","15.1","","68","","29","","11","","24.1","","100.53","","25","","","","Clear"
"1998-08-27 10:00","1998","08","27","10:00","22.6","","15.9","","66","","26","","7","","24.1","","100.53","","27","","","","Clear"
"1998-08-27 11:00","1998","08","27","11:00","24.1","","16.9","","64","","26","","9","","24.1","","100.53","","29","","","","Clear"
"1998-08-27 12:00","1998","08","27","12:00","26.2","","17.0","","57","","26","","9","","24.1","","100.49","","31","","","","Clear"
"1998-08-27 13:00","1998","08","27","13:00","27.0","","15.5","","49","","30","","15","","24.1","","100.46","","31","","","","Clear"
"1998-08-27 14:00","1998","08","27","14:00","28.1","","13.2","","40","","27","","17","","24.1","","100.43","","31","","","","Mainly Clear"
"1998-08-27 15:00","1998","08","27","15:00","27.6","","12.6","","39","","30","","20","","32.2","","100.43","","30","","","","Clear"
"1998-08-27 16:00","1998","08","27","16:00","27.6","","14.1","","44","","27","","13","","32.2","","100.43","","31","","","","Mainly Clear"
"1998-08-27 17:00","1998","08","27","17:00","27.5","","14.3","","44","","29","","13","","32.2","","100.39","","31","","","","Mainly Clear"
"1998-08-27 18:00","1998","08","27","18:00","26.5","","14.1","","46","","29","","4","","32.2","","100.43","","30","","","","Clear"
"1998-08-27 19:00","1998","08","27","19:00","25.0","","13.2","","48","","29","","4","","32.2","","100.43","","28","","","","Mainly Clear"
"1998-08-27 20:00","1998","08","27","20:00","23.5","","13.7","","54","","24","","2","","24.1","","100.49","","27","","","","Mainly Clear"
"1998-08-27 21:00","1998","08","27","21:00","22.6","","14.4","","60","","","","0","","24.1","","100.49","","26","","","","Mainly Clear"
"1998-08-27 22:00","1998","08","27","22:00","21.4","","14.2","","64","","","","0","","24.1","","100.53","","25","","","","Mainly Clear"
"1998-08-27 23:00","1998","08","27","23:00","19.8","","14.3","","71","","20","","2","","19.3","","100.53","","","","","","Mainly Clear"
"1998-08-28 00:00","1998","08","28","00:00","19.5","","13.9","","70","","","","0","","19.3","","100.53","","","","","","Mainly Clear"
"1998-08-28 01:00","1998","08","28","01:00","18.5","","13.7","","74","","2","","4","","24.1","","100.49","","","","","","Mainly Clear"
"1998-08-28 02:00","1998","08","28","02:00","17.4","","13.8","","79","","3","","6","","24.1","","100.49","","","","","","Mainly Clear"
"1998-08-28 03:00","1998","08","28","03:00","16.5","","13.6","","83","","3","","6","","24.1","","100.46","","","","","","Mostly Cloudy"
"1998-08-28 04:00","1998","08","28","04:00","16.5","","14.0","","85","","5","","7","","24.1","","100.49","","","","","","Mostly Cloudy"
"1998-08-28 05:00","1998","08","28","05:00","15.7","","13.7","","88","","","","0","","24.1","","100.46","","","","","","Mainly Clear"
"1998-08-28 06:00","1998","08","28","06:00","15.4","","13.6","","89","","7","","4","","24.1","","100.49","","","","","","Mainly Clear"
"1998-08-28 07:00","1998","08","28","07:00","16.6","","14.8","","89","","8","","6","","24.1","","100.53","","","","","","Mainly Clear"
"1998-08-28 08:00","1998","08","28","08:00","18.9","","16.3","","85","","7","","6","","19.3","","100.53","","","","","","Mainly Clear"
"1998-08-28 09:00","1998","08","28","09:00","21.5","","17.5","","78","","15","","4","","19.3","","100.53","","27","","","","Mainly Clear"
"1998-08-28 10:00","1998","08","28","10:00","23.3","","18.7","","75","","","","0","","16.1","","100.46","","30","","","","Mainly Clear"
"1998-08-28 11:00","1998","08","28","11:00","24.4","","19.0","","72","","19","","4","","16.1","","100.36","","31","","","","Mainly Clear"
"1998-08-28 12:00","1998","08","28","12:00","26.0","","19.0","","65","","19","","9","","16.1","","100.29","","33","","","","Mainly Clear"
"1998-08-28 13:00","1998","08","28","13:00","27.5","","18.4","","58","","14","","7","","19.3","","100.23","","34","","","","Mostly Cloudy"
"1998-08-28 14:00","1998","08","28","14:00","27.3","","16.7","","52","","19","","6","","19.3","","100.13","","32","","","","Mostly Cloudy"
"1998-08-28 15:00","1998","08","28","15:00","26.7","","16.4","","53","","17","","4","","24.1","","100.09","","32","","","","Mostly Cloudy"
"1998-08-28 16:00","1998","08","28","16:00","26.4","","17.0","","56","","16","","4","","19.3","","100.06","","32","","","","Mostly Cloudy"
"1998-08-28 17:00","1998","08","28","17:00","25.8","","17.8","","61","","","","0","","24.1","","100.03","","32","","","","Cloudy"
"1998-08-28 18:00","1998","08","28","18:00","25.1","","17.8","","64","","15","","2","","19.3","","99.99","","31","","","","Mostly Cloudy"
"1998-08-28 19:00","1998","08","28","19:00","24.3","","17.1","","64","","","","0","","16.1","","99.96","","30","","","","Cloudy"
"1998-08-28 20:00","1998","08","28","20:00","24.0","","17.0","","65","","9","","4","","16.1","","99.96","","29","","","","Cloudy"
"1998-08-28 21:00","1998","08","28","21:00","23.4","","17.0","","67","","9","","6","","19.3","","99.89","","29","","","","Cloudy"
"1998-08-28 22:00","1998","08","28","22:00","22.6","","16.7","","69","","10","","6","","19.3","","99.86","","28","","","","Cloudy"
"1998-08-28 23:00","1998","08","28","23:00","22.0","","16.4","","71","","9","","4","","19.3","","99.82","","27","","","","Cloudy"
"1998-08-29 00:00","1998","08","29","00:00","20.7","","16.4","","76","","3","","6","","19.3","","99.76","","26","","","","Cloudy"
"1998-08-29 01:00","1998","08","29","01:00","20.9","","16.4","","75","","1","","6","","19.3","","99.69","","26","","","","Cloudy"
"1998-08-29 02:00","1998","08","29","02:00","20.1","","16.3","","79","","2","","4","","16.1","","99.62","","25","","","","Rain Showers"
"1998-08-29 03:00","1998","08","29","03:00","19.5","","16.2","","81","","35","","6","","19.3","","99.56","","","","","","Rain Showers"
"1998-08-29 04:00","1998","08","29","04:00","19.5","","16.7","","84","","32","","4","","16.1","","99.56","","","","","","Rain Showers"
"1998-08-29 05:00","1998","08","29","05:00","19.5","","17.1","","86","","33","","2","","12.9","","99.56","","","","","","Cloudy"
"1998-08-29 06:00","1998","08","29","06:00","18.9","","17.0","","89","","26","","4","","16.1","","99.59","","","","","","Rain Showers"
"1998-08-29 07:00","1998","08","29","07:00","18.4","","17.6","","95","","","","0","","3.2","","99.56","","","","","","Rain,Fog"
"1998-08-29 08:00","1998","08","29","08:00","18.8","","17.7","","93","","","","0","","4.0","","99.49","","","","","","Rain,Fog"
"1998-08-29 09:00","1998","08","29","09:00","18.4","","17.5","","94","","","","0","","8.0","","99.49","","","","","","Rain,Fog"
"1998-08-29 10:00","1998","08","29","10:00","18.3","","17.1","","93","","24","","7","","4.8","","99.49","","","","","","Rain,Fog"
"1998-08-29 11:00","1998","08","29","11:00","19.2","","18.1","","93","","20","","7","","9.7","","99.46","","","","","","Drizzle,Fog"
"1998-08-29 12:00","1998","08","29","12:00","20.1","","18.6","","91","","22","","7","","12.9","","99.39","","27","","","","Cloudy"
"1998-08-29 13:00","1998","08","29","13:00","21.1","","18.3","","84","","26","","6","","16.1","","99.39","","27","","","","Cloudy"
"1998-08-29 14:00","1998","08","29","14:00"
"1998-08-29 15:00","1998","08","29","15:00","24.0","","17.4","","67","","25","","9","","32.2","","99.32","","30","","","","Mainly Clear"
"1998-08-29 16:00","1998","08","29","16:00","24.6","","16.2","","60","","24","","9","","40.2","","99.26","","29","","","","Mainly Clear"
"1998-08-29 17:00","1998","08","29","17:00","24.7","","16.4","","60","","22","","11","","40.2","","99.26","","30","","","","Clear"
"1998-08-29 18:00","1998","08","29","18:00","20.4","","15.0","","71","","32","","22","","24.1","","99.29","","","","","","Rain Showers"
"1998-08-29 19:00","1998","08","29","19:00","19.3","","16.7","","85","","22","","6","","24.1","","99.32","","","","","","Mostly Cloudy"
"1998-08-29 20:00","1998","08","29","20:00","18.3","","16.3","","88","","20","","4","","24.1","","99.39","","","","","","Mostly Cloudy"
"1998-08-29 21:00","1998","08","29","21:00","17.7","","14.4","","81","","24","","4","","25.0","","99.46","","","","","","Mostly Cloudy"
"1998-08-29 22:00","1998","08","29","22:00","16.8","","13.9","","83","","22","","4","","25.0","","99.46","","","","","","Mostly Cloudy"
"1998-08-29 23:00","1998","08","29","23:00","16.5","","13.9","","85","","20","","6","","25.0","","99.42","","","","","","Mostly Cloudy"
"1998-08-30 00:00","1998","08","30","00:00","16.1","","13.9","","87","","21","","6","","25.0","","99.46","","","","","","Mainly Clear"
"1998-08-30 01:00","1998","08","30","01:00","15.5","","13.6","","88","","22","","6","","25.0","","99.49","","","","","","Clear"
"1998-08-30 02:00","1998","08","30","02:00","15.2","","13.1","","87","","24","","7","","25.0","","99.52","","","","","","Mainly Clear"
"1998-08-30 03:00","1998","08","30","03:00","14.0","","12.0","","88","","26","","7","","25.0","","99.56","","","","","","Clear"
"1998-08-30 04:00","1998","08","30","04:00","14.4","","12.6","","89","","29","","13","","25.0","","99.59","","","","","","Clear"
"1998-08-30 05:00","1998","08","30","05:00","14.3","","11.8","","85","","29","","15","","25.0","","99.66","","","","","","Clear"
"1998-08-30 06:00","1998","08","30","06:00","13.9","","11.7","","87","","29","","13","","40.2","","99.79","","","","","","Clear"
"1998-08-30 07:00","1998","08","30","07:00","15.0","","12.3","","84","","30","","13","","40.2","","99.86","","","","","","Clear"
"1998-08-30 08:00","1998","08","30","08:00","15.9","","12.6","","81","","30","","17","","40.2","","99.89","","","","","","Clear"
"1998-08-30 09:00","1998","08","30","09:00","16.8","","12.6","","76","","28","","15","","40.2","","99.96","","","","","","Clear"
"1998-08-30 10:00","1998","08","30","10:00","18.2","","11.9","","67","","30","","17","","40.2","","99.96","","","","","","Clear"
"1998-08-30 11:00","1998","08","30","11:00","19.5","","11.7","","61","","29","","13","","40.2","","99.96","","","","","","Mainly Clear"
"1998-08-30 12:00","1998","08","30","12:00","20.8","","11.0","","53","","31","","9","","40.2","","99.93","","","","","","Mainly Clear"
"1998-08-30 13:00","1998","08","30","13:00","21.0","","11.1","","53","","30","","9","","40.2","","99.93","","","","","","Mainly Clear"
"1998-08-30 14:00","1998","08","30","14:00","21.1","","10.8","","52","","29","","6","","40.2","","99.86","","","","","","Mainly Clear"
"1998-08-30 15:00","1998","08","30","15:00","22.6","","11.6","","50","","25","","6","","40.2","","99.82","","25","","","","Mostly Cloudy"
"1998-08-30 16:00","1998","08","30","16:00","20.8","","11.2","","54","","29","","6","","40.2","","99.82","","","","","","Rain"
"1998-08-30 17:00","1998","08","30","17:00","20.4","","13.2","","63","","","","0","","40.2","","99.82","","","","","","Mainly Clear"
"1998-08-30 18:00","1998","08","30","18:00","19.8","","12.2","","62","","19","","4","","40.2","","99.79","","","","","","Mainly Clear"
"1998-08-30 19:00","1998","08","30","19:00","19.2","","13.0","","67","","","","0","","40.2","","99.79","","","","","","Rain Showers"
"1998-08-30 20:00","1998","08","30","20:00","17.9","","12.4","","70","","15","","6","","25.0","","99.82","","","","","","Mainly Clear"
"1998-08-30 21:00","1998","08","30","21:00","17.2","","13.2","","77","","15","","7","","24.1","","99.82","","","","","","Mainly Clear"
"1998-08-30 22:00","1998","08","30","22:00","16.3","","13.1","","81","","20","","4","","25.0","","99.82","","","","","","Clear"
"1998-08-30 23:00","1998","08","30","23:00","15.7","","12.3","","80","","23","","6","","25.0","","99.82","","","","","","Clear"
"1998-08-31 00:00","1998","08","31","00:00","14.9","","11.2","","79","","22","","4","","25.0","","99.86","","","","","","Clear"
"1998-08-31 01:00","1998","08","31","01:00","13.7","","10.4","","80","","21","","6","","25.0","","99.86","","","","","","Clear"
"1998-08-31 02:00","1998","08","31","02:00","14.1","","10.8","","81","","25","","6","","25.0","","99.82","","","","","","Clear"
"1998-08-31 03:00","1998","08","31","03:00","13.1","","10.4","","84","","21","","4","","25.0","","99.82","","","","","","Clear"
"1998-08-31 04:00","1998","08","31","04:00","12.9","","10.3","","84","","22","","4","","25.0","","99.86","","","","","","Clear"
"1998-08-31 05:00","1998","08","31","05:00","12.9","","10.3","","84","","22","","6","","40.2","","99.89","","","","","","Clear"
"1998-08-31 06:00","1998","08","31","06:00","12.5","","10.5","","88","","25","","6","","40.2","","99.96","","","","","","Clear"
"1998-08-31 07:00","1998","08","31","07:00","14.7","","12.5","","87","","29","","9","","40.2","","99.96","","","","","","Mainly Clear"
"1998-08-31 08:00","1998","08","31","08:00","15.9","","13.1","","83","","30","","9","","40.2","","100.03","","","","","","Mainly Clear"
"1998-08-31 09:00","1998","08","31","09:00","17.4","","12.7","","74","","30","","9","","40.2","","100.03","","","","","","Clear"
"1998-08-31 10:00","1998","08","31","10:00","18.2","","11.3","","64","","29","","15","","40.2","","100.03","","","","","","Mainly Clear"
"1998-08-31 11:00","1998","08","31","11:00","19.2","","10.5","","57","","30","","17","","40.2","","100.03","","","","","","Mainly Clear"
"1998-08-31 12:00","1998","08","31","12:00","19.1","","10.4","","57","","30","","17","","40.2","","100.03","","","","","","Mostly Cloudy"
"1998-08-31 13:00","1998","08","31","13:00","20.4","","11.4","","56","","29","","15","","40.2","","100.03","","","","","","Mainly Clear"
"1998-08-31 14:00","1998","08","31","14:00","20.6","","11.0","","54","","29","","15","","40.2","","100.03","","","","","","Mainly Clear"
"1998-08-31 15:00","1998","08","31","15:00","21.1","","11.2","","53","","30","","17","","40.2","","99.99","","","","","","Mainly Clear"
"1998-08-31 16:00","1998","08","31","16:00","21.4","","11.2","","52","","30","","15","","40.2","","99.99","","","","","","Mainly Clear"
"1998-08-31 17:00","1998","08","31","17:00","20.7","","11.2","","54","","31","","19","","40.2","","99.99","","","","","","Clear"
"1998-08-31 18:00","1998","08","31","18:00","20.0","","10.7","","55","","31","","15","","40.2","","99.96","","","","","","Clear"
"1998-08-31 19:00","1998","08","31","19:00","18.8","","10.8","","60","","30","","6","","40.2","","99.99","","","","","","Mainly Clear"
"1998-08-31 20:00","1998","08","31","20:00","17.8","","10.7","","63","","32","","6","","25.0","","100.06","","","","","","Mainly Clear"
"1998-08-31 21:00","1998","08","31","21:00","16.8","","10.8","","68","","26","","6","","25.0","","100.06","","","","","","Mostly Cloudy"
"1998-08-31 22:00","1998","08","31","22:00","16.5","","11.2","","71","","29","","6","","25.0","","100.06","","","","","","Mainly Clear"
"1998-08-31 23:00","1998","08","31","23:00","16.3","","11.2","","72","","30","","4","","25.0","","100.09","","","","","","Clear"
