"Station Name","OTTAWA INTL A"
"Province","ONTARIO"
"Latitude","45.32"
"Longitude","-75.67"
"Elevation","114.90"
"Climate Identifier","6106001"
"WMO Identifier","71628"
"TC Identifier","YOW"
"All times are specified in Local Standard Time (LST). Add 1 hour to adjust for Daylight Saving Time where and when it is observed."

"Legend"
"E","Estimated"
"M","Missing"
"NA","Not Available"

"Date/Time","Year","Month","Day","Time","Temp (°C)","Temp Flag","Dew Point Temp (°C)","Dew Point Temp Flag","Rel Hum (%)","Rel Hum Flag","Wind Dir (10s deg)","Wind Dir Flag","Wind Spd (km/h)","Wind Spd Flag","Visibility (km)","Visibility Flag","Stn Press (kPa)","Stn Press Flag","Hmdx","Hmdx Flag","Wind Chill","Wind Chill Flag","Weather"
"2014-12-01 00:00","2014","12","01","00:00","6.7","","6.0","","95","","27","","14","","12.9","","99.62","","","","","","NA"
"2014-12-01 01:00","2014","12","01","01:00","5.2","","4.5","","95","","29","","19","","4.8","","99.74","","","","","","Rain,Fog"
"2014-12-01 02:00","2014","12","01","02:00","2.8","","1.6","","92","","33","","21","","24.1","","99.84","","","","","","NA"
"2014-12-01 03:00","2014","12","01","03:00","1.7","","0.5","","92","","33","","19","","24.1","","99.95","","","","","","NA"
"2014-12-01 04:00","2014","12","01","04:00","1.0","","-0.6","","89","","33","","22","","24.1","","100.13","","","","","","Cloudy"
"2014-12-01 05:00","2014","12","01","05:00","0.1","","-1.1","","92","","31","","16","","12.9","","100.26","","","","","","Snow"
"2014-12-01 06:00","2014","12","01","06:00","-0.4","","-2.3","","87","","29","","18","","24.1","","100.40","","","","-5","","NA"
"2014-12-01 07:00","2014","12","01","07:00","-1.1","","-4.5","","78","","29","","29","","24.1","","100.53","","","","-8","","Mostly Cloudy"
"2014-12-01 08:00","2014","12","01","08:00","-1.3","","-5.5","","73","","29","","24","","24.1","","100.64","","","","-7","","NA"
"2014-12-01 09:00","2014","12","01","09:00","-1.7","","-7.1","","67","","31","","29","","24.1","","100.80","","","","-9","","NA"
"2014-12-01 10:00","2014","12","01","10:00","-1.9","","-8.5","","61","","29","","28","","24.1","","100.94","","","","-9","","Mostly Cloudy"
"2014-12-01 11:00","2014","12","01","11:00","-1.5","","-8.5","","59","","29","","24","","24.1","","100.96","","","","-8","","NA"
"2014-12-01 12:00","2014","12","01","12:00","-1.2","","-9.4","","54","","28","","30","","24.1","","101.03","","","","-8","","NA"
"2014-12-01 13:00","2014","12","01","13:00","-1.7","","-10.6","","51","","30","","26","","24.1","","101.01","","","","-8","","Mostly Cloudy"
"2014-12-01 14:00","2014","12","01","14:00","-1.6","","-11.3","","48","","30","","19","","24.1","","101.08","","","","-7","","NA"
"2014-12-01 15:00","2014","12","01","15:00","-1.0","","-9.9","","51","","28","","10","","24.1","","101.12","","","","-5","","NA"
"2014-12-01 16:00","2014","12","01","16:00","-1.9","","-7.8","","64","","25","","11","","24.1","","101.20","","","","-6","","Snow Showers"
"2014-12-01 17:00","2014","12","01","17:00","-2.2","","-7.7","","66","","24","","6","","24.1","","101.30","","","","-5","","NA"
"2014-12-01 18:00","2014","12","01","18:00","-2.5","","-6.3","","75","","30","","26","","24.1","","101.53","","","","-9","","Snow Showers"
"2014-12-01 19:00","2014","12","01","19:00","-3.5","","-8.8","","67","","31","","29","","24.1","","101.67","","","","-11","","Mainly Clear"
"2014-12-01 20:00","2014","12","01","20:00","-5.3","","-13.0","","55","","31","","37","","24.1","","101.93","","","","-14","","NA"
"2014-12-01 21:00","2014","12","01","21:00","-7.6","","-16.1","","51","","32","","33","","24.1","","102.11","","","","-17","","NA"
"2014-12-01 22:00","2014","12","01","22:00","-9.6","","-18.5","","49","","33","","41","","24.1","","102.30","","","","-20","","Clear"
"2014-12-01 23:00","2014","12","01","23:00","-11.0","","-18.8","","53","","32","","24","","24.1","","102.47","","","","-20","","NA"
"2014-12-02 00:00","2014","12","02","00:00","-12.6","","-21.5","","48","","31","","23","","24.1","","102.57","","","","-22","","NA"
"2014-12-02 01:00","2014","12","02","01:00","-13.3","","-22.4","","47","","34","","23","","24.1","","102.63","","","","-23","","Clear"
"2014-12-02 02:00","2014","12","02","02:00","-13.9","","-22.0","","51","","33","","19","","24.1","","102.72","","","","-23","","NA"
"2014-12-02 03:00","2014","12","02","03:00","-14.2","","-21.6","","54","","33","","19","","24.1","","102.75","","","","-23","","NA"
"2014-12-02 04:00","2014","12","02","04:00","-14.6","","-21.4","","57","","2","","14","","24.1","","102.76","","","","-22","","Clear"
"2014-12-02 05:00","2014","12","02","05:00","-14.9","","-21.2","","59","","3","","14","","24.1","","102.79","","","","-22","","NA"
"2014-12-02 06:00","2014","12","02","06:00","-15.3","","-21.0","","62","","4","","13","","24.1","","102.83","","","","-23","","NA"
"2014-12-02 07:00","2014","12","02","07:00","-15.9","","-20.4","","69","","4","","9","","24.1","","102.85","","","","-22","","Clear"
"2014-12-02 08:00","2014","12","02","08:00","-15.5","","-21.6","","60","","5","","15","","24.1","","102.82","","","","-24","","NA"
"2014-12-02 09:00","2014","12","02","09:00","-14.5","","-22.3","","52","","6","","17","","24.1","","102.77","","","","-23","","NA"
"2014-12-02 10:00","2014","12","02","10:00","-13.3","","-21.7","","50","","7","","19","","24.1","","102.75","","","","-22","","Mainly Clear"
"2014-12-02 11:00","2014","12","02","11:00","-11.6","","-19.6","","52","","9","","17","","24.1","","102.66","","","","-19","","NA"
"2014-12-02 12:00","2014","12","02","12:00","-10.7","","-18.8","","52","","8","","21","","24.1","","102.53","","","","-19","","NA"
"2014-12-02 13:00","2014","12","02","13:00","-9.7","","-18.5","","49","","8","","20","","24.1","","102.39","","","","-17","","Mostly Cloudy"
"2014-12-02 14:00","2014","12","02","14:00","-9.4","","-17.1","","54","","8","","19","","24.1","","102.21","","","","-17","","NA"
"2014-12-02 15:00","2014","12","02","15:00","-9.8","","-16.6","","58","","8","","25","","24.1","","102.06","","","","-19","","NA"
"2014-12-02 16:00","2014","12","02","16:00","-10.2","","-16.6","","60","","7","","22","","24.1","","101.93","","","","-18","","Mostly Cloudy"
"2014-12-02 17:00","2014","12","02","17:00","-10.2","","-16.4","","61","","8","","19","","24.1","","101.86","","","","-18","","NA"
"2014-12-02 18:00","2014","12","02","18:00","-10.1","","-15.9","","63","","8","","26","","24.1","","101.67","","","","-19","","NA"
"2014-12-02 19:00","2014","12","02","19:00","-9.7","","-15.3","","64","","8","","23","","24.1","","101.53","","","","-18","","Cloudy"
"2014-12-02 20:00","2014","12","02","20:00","-9.9","","-12.4","","82","","8","","23","","3.2","","101.37","","","","-18","","Snow"
"2014-12-02 21:00","2014","12","02","21:00","-9.3","","-11.1","","87","","8","","22","","4.8","","101.18","","","","-17","","Snow"
"2014-12-02 22:00","2014","12","02","22:00","-9.2","","-10.8","","88","","7","","18","","2.8","","101.05","","","","-16","","Snow"
"2014-12-02 23:00","2014","12","02","23:00","-9.2","","-10.8","","88","","7","","22","","2.4","","100.91","","","","-17","","Snow"
"2014-12-03 00:00","2014","12","03","00:00","-8.7","","-10.2","","89","","8","","14","","2.4","","100.80","","","","-15","","Snow"
"2014-12-03 01:00","2014","12","03","01:00","-8.1","","-9.5","","90","","8","","16","","9.7","","100.62","","","","-15","","Snow"
"2014-12-03 02:00","2014","12","03","02:00","-7.5","","-8.6","","92","","8","","17","","6.4","","100.46","","","","-14","","Snow"
"2014-12-03 03:00","2014","12","03","03:00","-6.7","","-7.5","","94","","7","","15","","9.7","","100.32","","","","-13","","Snow"
"2014-12-03 04:00","2014","12","03","04:00","-5.8","","-6.3","","96","","8","","16","","2.8","","100.18","","","","-12","","Freezing Rain,Fog"
"2014-12-03 05:00","2014","12","03","05:00","-4.8","","-5.3","","96","","9","","9","","6.4","","100.08","","","","-9","","Fog"
"2014-12-03 06:00","2014","12","03","06:00","-3.8","","-4.2","","97","","12","","8","","6.4","","99.99","","","","-7","","Fog"
"2014-12-03 07:00","2014","12","03","07:00","-2.1","","-2.4","","98","","13","","8","","4.8","","99.93","","","","-5","","Freezing Drizzle,Fog"
"2014-12-03 08:00","2014","12","03","08:00","-0.5","","-0.6","","99","","18","","7","","2.4","","99.89","","","","-3","","Freezing Drizzle,Fog"
"2014-12-03 09:00","2014","12","03","09:00","0.6","","0.5","","99","","21","","9","","4.0","","99.85","","","","","","Drizzle,Fog"
"2014-12-03 10:00","2014","12","03","10:00","1.0","","0.7","","98","","22","","12","","9.7","","99.86","","","","","","Drizzle,Fog"
"2014-12-03 11:00","2014","12","03","11:00","1.4","","1.0","","97","","23","","16","","16.1","","99.80","","","","","","Drizzle"
"2014-12-03 12:00","2014","12","03","12:00","1.5","","0.8","","95","","24","","18","","12.9","","99.72","","","","","","Rain"
"2014-12-03 13:00","2014","12","03","13:00","0.5","","0.1","","97","","24","","11","","2.4","","99.67","","","","","","Snow,Fog"
"2014-12-03 14:00","2014","12","03","14:00","0.3","","0.0","","98","","23","","12","","4.0","","99.61","","","","","","Snow,Fog"
"2014-12-03 15:00","2014","12","03","15:00","0.8","","0.1","","95","","22","","20","","12.9","","99.56","","","","","","Snow"
"2014-12-03 16:00","2014","12","03","16:00","0.8","","-0.1","","94","","22","","16","","16.1","","99.61","","","","","","Mostly Cloudy"
"2014-12-03 17:00","2014","12","03","17:00","0.8","","-0.2","","93","","22","","19","","16.1","","99.66","","","","","","NA"
"2014-12-03 18:00","2014","12","03","18:00","0.6","","-0.4","","93","","24","","20","","16.1","","99.77","","","","","","Rain"
"2014-12-03 19:00","2014","12","03","19:00","0.4","","-2.0","","84","","26","","28","","24.1","","99.88","","","","","","Mainly Clear"
"2014-12-03 20:00","2014","12","03","20:00","0.2","","-2.9","","80","","25","","23","","24.1","","99.98","","","","","","NA"
"2014-12-03 21:00","2014","12","03","21:00","0.1","","-2.6","","82","","25","","23","","24.1","","100.08","","","","","","Snow"
"2014-12-03 22:00","2014","12","03","22:00","-0.4","","-4.0","","77","","26","","16","","24.1","","100.13","","","","-5","","Cloudy"
"2014-12-03 23:00","2014","12","03","23:00","-0.7","","-5.5","","70","","26","","27","","24.1","","100.22","","","","-7","","NA"
"2014-12-04 00:00","2014","12","04","00:00","-0.9","","-3.6","","82","","26","","19","","6.4","","100.27","","","","-6","","Snow"
"2014-12-04 01:00","2014","12","04","01:00","-0.9","","-4.4","","77","","24","","19","","12.9","","100.29","","","","-6","","Snow"
"2014-12-04 02:00","2014","12","04","02:00","-1.5","","-3.1","","89","","30","","17","","6.4","","100.39","","","","-7","","Snow Showers"
"2014-12-04 03:00","2014","12","04","03:00","-1.6","","-5.6","","74","","28","","29","","16.1","","100.54","","","","-8","","Snow"
"2014-12-04 04:00","2014","12","04","04:00","-4.0","","-8.2","","73","","29","","38","","24.1","","100.74","","","","-13","","Snow Showers"
"2014-12-04 05:00","2014","12","04","05:00","-5.3","","-11.1","","64","","29","","23","","24.1","","100.93","","","","-12","","NA"
"2014-12-04 06:00","2014","12","04","06:00","-6.7","","-13.7","","58","","30","","18","","24.1","","101.09","","","","-13","","NA"
"2014-12-04 07:00","2014","12","04","07:00","-7.5","","-16.0","","51","","30","","25","","24.1","","101.25","","","","-16","","Clear"
"2014-12-04 08:00","2014","12","04","08:00","-8.2","","-16.0","","54","","29","","18","","24.1","","101.38","","","","-15","","NA"
"2014-12-04 09:00","2014","12","04","09:00","-7.4","","-15.4","","53","","31","","18","","24.1","","101.53","","","","-14","","NA"
"2014-12-04 10:00","2014","12","04","10:00","-7.3","","-16.3","","49","","31","","22","","24.1","","101.64","","","","-15","","Clear"
"2014-12-04 11:00","2014","12","04","11:00","-7.2","","-15.5","","52","","30","","18","","24.1","","101.67","","","","-14","","NA"
"2014-12-04 12:00","2014","12","04","12:00","-7.0","","-16.0","","49","","27","","24","","24.1","","101.68","","","","-15","","NA"
"2014-12-04 13:00","2014","12","04","13:00","-7.0","","-16.5","","47","","29","","19","","24.1","","101.70","","","","-14","","Clear"
"2014-12-04 14:00","2014","12","04","14:00","-6.9","","-16.2","","48","","26","","14","","24.1","","101.75","","","","-13","","NA"
"2014-12-04 15:00","2014","12","04","15:00","-7.0","","-15.3","","52","","30","","15","","24.1","","101.81","","","","-13","","NA"
"2014-12-04 16:00","2014","12","04","16:00","-8.5","","-16.5","","53","","30","","13","","24.1","","101.86","","","","-14","","Mainly Clear"
"2014-12-04 17:00","2014","12","04","17:00","-9.0","","-16.9","","53","","1","","8","","24.1","","101.90","","","","-13","","NA"
"2014-12-04 18:00","2014","12","04","18:00","-10.0","","-17.4","","55","","1","","7","","24.1","","101.91","","","","-14","","NA"
"2014-12-04 19:00","2014","12","04","19:00","-13.4","","-17.4","","72","","9","","5","","24.1","","101.99","","","","-17","","Clear"
"2014-12-04 20:00","2014","12","04","20:00","-11.0","","-18.0","","57","","7","","7","","24.1","","102.02","","","","-15","","NA"
"2014-12-04 21:00","2014","12","04","21:00","-12.1","","-17.8","","63","","9","","6","","24.1","","102.04","","","","-16","","NA"
"2014-12-04 22:00","2014","12","04","22:00","-12.9","","-18.4","","64","","14","","8","","24.1","","102.08","","","","-18","","Clear"
"2014-12-04 23:00","2014","12","04","23:00","-12.4","","-17.9","","64","","10","","9","","24.1","","102.14","","","","-18","","NA"
"2014-12-05 00:00","2014","12","05","00:00","-13.5","","-18.0","","69","","7","","9","","24.1","","102.16","","","","-19","","NA"
"2014-12-05 01:00","2014","12","05","01:00","-15.2","","-18.4","","77","","5","","9","","24.1","","102.14","","","","-21","","Clear"
"2014-12-05 02:00","2014","12","05","02:00","-15.5","","-18.5","","78","","4","","13","","24.1","","102.16","","","","-23","","NA"
"2014-12-05 03:00","2014","12","05","03:00","-15.4","","-18.0","","81","","5","","12","","24.1","","102.22","","","","-22","","NA"
"2014-12-05 04:00","2014","12","05","04:00","-15.2","","-17.8","","81","","5","","12","","24.1","","102.19","","","","-22","","Cloudy"
"2014-12-05 05:00","2014","12","05","05:00","-14.9","","-17.5","","81","","6","","14","","24.1","","102.17","","","","-22","","NA"
"2014-12-05 06:00","2014","12","05","06:00","-14.7","","-17.3","","81","","6","","11","","24.1","","102.19","","","","-21","","NA"
"2014-12-05 07:00","2014","12","05","07:00","-14.4","","-16.8","","82","","6","","10","","24.1","","102.16","","","","-21","","Mostly Cloudy"
"2014-12-05 08:00","2014","12","05","08:00","-14.2","","-16.5","","83","","6","","15","","24.1","","102.15","","","","-22","","NA"
"2014-12-05 09:00","2014","12","05","09:00","-12.1","","-15.0","","79","","7","","12","","24.1","","102.15","","","","-18","","NA"
"2014-12-05 10:00","2014","12","05","10:00","-9.6","","-13.6","","73","","6","","14","","24.1","","102.13","","","","-16","","Clear"
"2014-12-05 11:00","2014","12","05","11:00","-8.6","","-13.7","","67","","6","","15","","24.1","","102.04","","","","-15","","NA"
"2014-12-05 12:00","2014","12","05","12:00","-7.4","","-12.5","","67","","7","","14","","24.1","","101.92","","","","-13","","NA"
"2014-12-05 13:00","2014","12","05","13:00","-6.6","","-12.3","","64","","8","","19","","24.1","","101.81","","","","-13","","Mostly Cloudy"
"2014-12-05 14:00","2014","12","05","14:00","-6.1","","-11.5","","66","","6","","16","","24.1","","101.71","","","","-12","","NA"
"2014-12-05 15:00","2014","12","05","15:00","-6.1","","-11.1","","68","","6","","17","","24.1","","101.62","","","","-12","","NA"
"2014-12-05 16:00","2014","12","05","16:00","-6.5","","-10.9","","71","","6","","15","","16.1","","101.58","","","","-12","","Cloudy"
"2014-12-05 17:00","2014","12","05","17:00","-6.5","","-10.8","","72","","6","","14","","24.1","","101.55","","","","-12","","NA"
"2014-12-05 18:00","2014","12","05","18:00","-6.4","","-10.7","","72","","9","","19","","24.1","","101.45","","","","-13","","NA"
"2014-12-05 19:00","2014","12","05","19:00","-6.3","","-10.0","","75","","8","","14","","24.1","","101.42","","","","-12","","Cloudy"
"2014-12-05 20:00","2014","12","05","20:00","-6.1","","-10.0","","74","","6","","16","","24.1","","101.37","","","","-12","","NA"
"2014-12-05 21:00","2014","12","05","21:00","-5.8","","-9.2","","77","","5","","13","","16.1","","101.32","","","","-11","","NA"
"2014-12-05 22:00","2014","12","05","22:00","-6.2","","-9.4","","78","","5","","16","","16.1","","101.25","","","","-12","","Cloudy"
"2014-12-05 23:00","2014","12","05","23:00","-6.3","","-9.4","","79","","5","","14","","12.9","","101.24","","","","-12","","NA"
"2014-12-06 00:00","2014","12","06","00:00","-6.1","","-9.0","","80","","5","","14","","12.9","","101.20","","","","-12","","NA"
"2014-12-06 01:00","2014","12","06","01:00","-5.8","","-8.6","","81","","5","","15","","12.9","","101.17","","","","-12","","Cloudy"
"2014-12-06 02:00","2014","12","06","02:00","-5.4","","-8.0","","82","","5","","11","","12.9","","101.12","","","","-10","","NA"
"2014-12-06 03:00","2014","12","06","03:00","-5.3","","-7.3","","86","","3","","9","","9.7","","101.11","","","","-9","","Fog"
"2014-12-06 04:00","2014","12","06","04:00","-5.6","","-6.0","","97","","2","","9","","2.0","","101.10","","","","-10","","Freezing Drizzle,Fog"
"2014-12-06 05:00","2014","12","06","05:00","-5.3","","-5.7","","97","","1","","8","","2.0","","101.05","","","","-9","","Freezing Drizzle,Fog"
"2014-12-06 06:00","2014","12","06","06:00","-4.7","","-5.0","","98","","35","","7","","1.6","","101.09","","","","-8","","Freezing Drizzle,Fog"
"2014-12-06 07:00","2014","12","06","07:00","-4.2","","-4.5","","98","","33","","8","","0.8","","101.10","","","","-8","","Freezing Fog"
"2014-12-06 08:00","2014","12","06","08:00","-3.8","","-4.1","","98","","33","","9","","0.4","","101.12","","","","-8","","Freezing Fog"
"2014-12-06 09:00","2014","12","06","09:00","-3.3","","-3.6","","98","","32","","12","","1.2","","101.14","","","","-8","","Fog"
"2014-12-06 10:00","2014","12","06","10:00","-2.9","","-3.5","","96","","31","","9","","3.2","","101.15","","","","-6","","Fog"
"2014-12-06 11:00","2014","12","06","11:00","-2.6","","-3.2","","96","","28","","9","","3.2","","101.13","","","","-6","","Fog"
"2014-12-06 12:00","2014","12","06","12:00","-2.0","","-2.8","","94","","30","","11","","4.8","","101.11","","","","-6","","Fog"
"2014-12-06 13:00","2014","12","06","13:00","-0.6","","-2.5","","87","","32","","12","","6.4","","101.08","","","","-5","","Fog"
"2014-12-06 14:00","2014","12","06","14:00","0.0","","-2.7","","82","","31","","16","","8.1","","101.09","","","","-5","","Fog"
"2014-12-06 15:00","2014","12","06","15:00","-0.1","","-2.8","","82","","30","","15","","16.1","","101.17","","","","-5","","NA"
"2014-12-06 16:00","2014","12","06","16:00","-0.5","","-3.5","","80","","32","","21","","16.1","","101.23","","","","-6","","Mostly Cloudy"
"2014-12-06 17:00","2014","12","06","17:00","-1.7","","-4.2","","83","","33","","13","","19.3","","101.35","","","","-6","","NA"
"2014-12-06 18:00","2014","12","06","18:00","-2.0","","-4.5","","83","","31","","9","","24.1","","101.46","","","","-5","","NA"
"2014-12-06 19:00","2014","12","06","19:00","-3.5","","-5.2","","88","","31","","12","","24.1","","101.56","","","","-8","","Mostly Cloudy"
"2014-12-06 20:00","2014","12","06","20:00","-0.9","","-4.8","","75","","33","","19","","24.1","","101.64","","","","-6","","NA"
"2014-12-06 21:00","2014","12","06","21:00","-2.0","","-6.6","","71","","32","","23","","24.1","","101.73","","","","-8","","NA"
"2014-12-06 22:00","2014","12","06","22:00","-2.8","","-7.9","","68","","33","","27","","24.1","","101.82","","","","-10","","Mainly Clear"
"2014-12-06 23:00","2014","12","06","23:00","-4.1","","-8.6","","71","","32","","26","","24.1","","101.90","","","","-11","","NA"
"2014-12-07 00:00","2014","12","07","00:00","-5.5","","-10.1","","70","","31","","19","","24.1","","101.97","","","","-12","","NA"
"2014-12-07 01:00","2014","12","07","01:00","-6.5","","-10.8","","72","","32","","19","","24.1","","102.08","","","","-13","","Mainly Clear"
"2014-12-07 02:00","2014","12","07","02:00","-7.8","","-11.7","","74","","32","","19","","24.1","","102.18","","","","-15","","NA"
"2014-12-07 03:00","2014","12","07","03:00","-8.5","","-13.6","","67","","34","","14","","24.1","","102.29","","","","-15","","NA"
"2014-12-07 04:00","2014","12","07","04:00","-9.2","","-13.5","","71","","33","","25","","24.1","","102.41","","","","-18","","Clear"
"2014-12-07 05:00","2014","12","07","05:00","-10.2","","-14.0","","74","","33","","19","","24.1","","102.51","","","","-18","","NA"
"2014-12-07 06:00","2014","12","07","06:00","-11.2","","-15.3","","72","","33","","22","","24.1","","102.61","","","","-20","","NA"
"2014-12-07 07:00","2014","12","07","07:00","-11.9","","-16.0","","72","","33","","22","","24.1","","102.72","","","","-21","","Clear"
"2014-12-07 08:00","2014","12","07","08:00","-12.2","","-16.3","","72","","33","","18","","24.1","","102.81","","","","-20","","NA"
"2014-12-07 09:00","2014","12","07","09:00","-11.7","","-17.0","","65","","33","","22","","24.1","","102.91","","","","-20","","NA"
"2014-12-07 10:00","2014","12","07","10:00","-11.1","","-17.0","","62","","1","","20","","24.1","","102.95","","","","-19","","Clear"
"2014-12-07 11:00","2014","12","07","11:00","-10.3","","-17.5","","56","","35","","22","","24.1","","102.90","","","","-19","","NA"
"2014-12-07 12:00","2014","12","07","12:00","-9.7","","-18.8","","48","","35","","15","","24.1","","102.87","","","","-16","","NA"
"2014-12-07 13:00","2014","12","07","13:00","-8.9","","-18.0","","48","","34","","13","","24.1","","102.79","","","","-15","","Clear"
"2014-12-07 14:00","2014","12","07","14:00","-8.5","","-19.9","","40","","36","","9","","24.1","","102.78","","","","-13","","NA"
"2014-12-07 15:00","2014","12","07","15:00","-8.7","","-20.0","","40","","34","","5","","24.1","","102.79","","","","-11","","NA"
"2014-12-07 16:00","2014","12","07","16:00","-9.4","","-20.4","","41","","2","","6","","24.1","","102.82","","","","-13","","Clear"
"2014-12-07 17:00","2014","12","07","17:00","-10.6","","-19.4","","49","","4","","4","","24.1","","102.86","","","","-13","","NA"
"2014-12-07 18:00","2014","12","07","18:00","-11.6","","-19.2","","54","","3","","9","","24.1","","102.87","","","","-17","","NA"
"2014-12-07 19:00","2014","12","07","19:00","-11.5","","-19.5","","52","","6","","12","","24.1","","102.86","","","","-18","","Mainly Clear"
"2014-12-07 20:00","2014","12","07","20:00","-11.9","","-18.8","","57","","6","","7","","24.1","","102.88","","","","-16","","NA"
"2014-12-07 21:00","2014","12","07","21:00","-12.2","","-19.1","","57","","5","","9","","24.1","","102.84","","","","-17","","NA"
"2014-12-07 22:00","2014","12","07","22:00","-12.6","","-19.1","","59","","6","","12","","24.1","","102.79","","","","-19","","Mainly Clear"
"2014-12-07 23:00","2014","12","07","23:00","-13.7","","-18.8","","66","","5","","10","","24.1","","102.79","","","","-20","","NA"
"2014-12-08 00:00","2014","12","08","00:00","-13.6","","-19.0","","64","","6","","12","","24.1","","102.74","","","","-20","","NA"
"2014-12-08 01:00","2014","12","08","01:00","-13.9","","-19.0","","66","","5","","11","","24.1","","102.70","","","","-20","","Mainly Clear"
"2014-12-08 02:00","2014","12","08","02:00","-14.3","","-18.6","","70","","5","","14","","24.1","","102.68","","","","-22","","NA"
"2014-12-08 03:00","2014","12","08","03:00","-13.9","","-17.8","","73","","8","","16","","24.1","","102.57","","","","-22","","NA"
"2014-12-08 04:00","2014","12","08","04:00","-13.7","","-17.2","","75","","6","","11","","24.1","","102.55","","","","-20","","Clear"
"2014-12-08 05:00","2014","12","08","05:00","-13.3","","-17.3","","72","","7","","14","","24.1","","102.47","","","","-21","","NA"
"2014-12-08 06:00","2014","12","08","06:00","-13.3","","-18.0","","68","","8","","16","","24.1","","102.45","","","","-21","","NA"
"2014-12-08 07:00","2014","12","08","07:00","-13.5","","-18.6","","66","","6","","17","","24.1","","102.41","","","","-22","","Mainly Clear"
"2014-12-08 08:00","2014","12","08","08:00","-13.3","","-18.6","","65","","6","","18","","24.1","","102.38","","","","-22","","NA"
"2014-12-08 09:00","2014","12","08","09:00","-12.5","","-18.2","","63","","8","","27","","24.1","","102.35","","","","-22","","NA"
"2014-12-08 10:00","2014","12","08","10:00","-11.5","","-18.0","","59","","9","","21","","24.1","","102.33","","","","-20","","Mostly Cloudy"
"2014-12-08 11:00","2014","12","08","11:00","-10.8","","-17.8","","57","","8","","25","","24.1","","102.23","","","","-20","","NA"
"2014-12-08 12:00","2014","12","08","12:00","-9.9","","-17.3","","55","","8","","20","","24.1","","102.10","","","","-18","","NA"
"2014-12-08 13:00","2014","12","08","13:00","-9.1","","-16.6","","55","","9","","17","","24.1","","101.98","","","","-16","","Mostly Cloudy"
"2014-12-08 14:00","2014","12","08","14:00","-8.8","","-16.3","","55","","8","","18","","24.1","","101.87","","","","-16","","NA"
"2014-12-08 15:00","2014","12","08","15:00","-8.8","","-15.9","","57","","8","","19","","24.1","","101.80","","","","-16","","NA"
"2014-12-08 16:00","2014","12","08","16:00","-9.0","","-15.2","","61","","8","","17","","24.1","","101.77","","","","-16","","Mostly Cloudy"
"2014-12-08 17:00","2014","12","08","17:00","-9.0","","-14.3","","66","","8","","15","","24.1","","101.76","","","","-16","","NA"
"2014-12-08 18:00","2014","12","08","18:00","-9.3","","-13.6","","71","","9","","17","","24.1","","101.74","","","","-16","","NA"
"2014-12-08 19:00","2014","12","08","19:00","-9.7","","-13.7","","73","","8","","16","","24.1","","101.72","","","","-17","","Mostly Cloudy"
"2014-12-08 20:00","2014","12","08","20:00","-9.6","","-13.4","","74","","7","","17","","24.1","","101.64","","","","-17","","NA"
"2014-12-08 21:00","2014","12","08","21:00","-9.2","","-12.9","","75","","7","","20","","24.1","","101.52","","","","-17","","NA"
"2014-12-08 22:00","2014","12","08","22:00","-7.9","","-11.6","","75","","8","","18","","24.1","","101.40","","","","-15","","Cloudy"
"2014-12-08 23:00","2014","12","08","23:00","-6.6","","-10.3","","75","","8","","14","","24.1","","101.36","","","","-12","","NA"
"2014-12-09 00:00","2014","12","09","00:00","-5.1","","-9.0","","74","","8","","11","","24.1","","101.29","","","","-10","","NA"
"2014-12-09 01:00","2014","12","09","01:00","-5.4","","-9.0","","76","","7","","16","","24.1","","101.24","","","","-11","","Cloudy"
"2014-12-09 02:00","2014","12","09","02:00","-5.5","","-10.3","","69","","7","","16","","24.1","","101.23","","","","-11","","NA"
"2014-12-09 03:00","2014","12","09","03:00","-5.8","","-10.4","","70","","8","","13","","24.1","","101.17","","","","-11","","NA"
"2014-12-09 04:00","2014","12","09","04:00","-6.2","","-10.5","","72","","5","","10","","24.1","","101.17","","","","-11","","Cloudy"
"2014-12-09 05:00","2014","12","09","05:00","-6.4","","-9.8","","77","","6","","8","","24.1","","101.17","","","","-10","","NA"
"2014-12-09 06:00","2014","12","09","06:00","-6.1","","-8.9","","81","","5","","12","","24.1","","101.15","","","","-11","","NA"
"2014-12-09 07:00","2014","12","09","07:00","-5.8","","-8.2","","83","","6","","14","","24.1","","101.07","","","","-11","","Mostly Cloudy"
"2014-12-09 08:00","2014","12","09","08:00","-5.7","","-7.7","","86","","6","","13","","24.1","","101.03","","","","-11","","NA"
"2014-12-09 09:00","2014","12","09","09:00","-4.8","","-6.8","","86","","5","","17","","24.1","","101.05","","","","-11","","NA"
"2014-12-09 10:00","2014","12","09","10:00","-3.7","","-6.2","","83","","5","","13","","24.1","","101.05","","","","-9","","Mostly Cloudy"
"2014-12-09 11:00","2014","12","09","11:00","-2.6","","-5.4","","81","","4","","11","","24.1","","100.98","","","","-7","","NA"
"2014-12-09 12:00","2014","12","09","12:00","-2.0","","-5.0","","80","","5","","13","","24.1","","100.93","","","","-6","","NA"
"2014-12-09 13:00","2014","12","09","13:00","-1.2","","-4.2","","80","","5","","13","","24.1","","100.86","","","","-5","","Cloudy"
"2014-12-09 14:00","2014","12","09","14:00","-0.7","","-3.9","","79","","5","","13","","24.1","","100.80","","","","-5","","NA"
"2014-12-09 15:00","2014","12","09","15:00","-0.4","","-3.4","","80","","5","","16","","24.1","","100.77","","","","-5","","NA"
"2014-12-09 16:00","2014","12","09","16:00","-0.3","","-3.2","","81","","3","","10","","24.1","","100.77","","","","-4","","Cloudy"
"2014-12-09 17:00","2014","12","09","17:00","-0.3","","-3.2","","81","","2","","15","","24.1","","100.75","","","","-5","","NA"
"2014-12-09 18:00","2014","12","09","18:00","-0.6","","-3.0","","84","","4","","8","","24.1","","100.69","","","","-3","","NA"
"2014-12-09 19:00","2014","12","09","19:00","-1.0","","-3.1","","86","","2","","12","","24.1","","100.66","","","","-5","","Cloudy"
"2014-12-09 20:00","2014","12","09","20:00","-0.1","","-3.0","","81","","36","","17","","24.1","","100.62","","","","-5","","NA"
"2014-12-09 21:00","2014","12","09","21:00","0.0","","-3.0","","80","","36","","16","","24.1","","100.59","","","","-5","","NA"
"2014-12-09 22:00","2014","12","09","22:00","0.1","","-2.8","","81","","35","","16","","24.1","","100.54","","","","","","Cloudy"
"2014-12-09 23:00","2014","12","09","23:00","0.1","","-3.1","","79","","35","","19","","24.1","","100.52","","","","","","NA"
"2014-12-10 00:00","2014","12","10","00:00","0.1","","-3.3","","78","","35","","18","","24.1","","100.47","","","","","","NA"
"2014-12-10 01:00","2014","12","10","01:00","-0.1","","-3.5","","78","","35","","28","","24.1","","100.41","","","","-6","","Cloudy"
"2014-12-10 02:00","2014","12","10","02:00","-0.4","","-4.1","","76","","35","","29","","24.1","","100.38","","","","-7","","NA"
"2014-12-10 03:00","2014","12","10","03:00","-0.8","","-4.7","","75","","35","","28","","24.1","","100.34","","","","-7","","NA"
"2014-12-10 04:00","2014","12","10","04:00","-0.9","","-5.0","","74","","35","","29","","24.1","","100.32","","","","-8","","Snow"
"2014-12-10 05:00","2014","12","10","05:00","-1.2","","-5.3","","74","","35","","30","","24.1","","100.29","","","","-8","","Snow"
"2014-12-10 06:00","2014","12","10","06:00","-1.6","","-5.6","","74","","36","","27","","24.1","","100.29","","","","-8","","Snow"
"2014-12-10 07:00","2014","12","10","07:00","-2.1","","-5.4","","78","","34","","25","","24.1","","100.32","","","","-9","","Snow"
"2014-12-10 08:00","2014","12","10","08:00","-2.7","","-5.4","","82","","35","","33","","3.2","","100.28","","","","-10","","Snow,Fog"
"2014-12-10 09:00","2014","12","10","09:00","-2.8","","-4.7","","87","","34","","28","","3.2","","100.19","","","","-10","","Snow,Fog,Blowing Snow"
"2014-12-10 10:00","2014","12","10","10:00","-2.4","","-5.1","","82","","35","","33","","9.7","","100.15","","","","-10","","Snow,Fog,Blowing Snow"
"2014-12-10 11:00","2014","12","10","11:00","-2.0","","-5.0","","80","","35","","33","","12.9","","100.08","","","","-9","","Snow,Blowing Snow"
"2014-12-10 12:00","2014","12","10","12:00","-2.1","","-3.7","","89","","34","","25","","1.2","","99.96","","","","-9","","Snow,Fog,Blowing Snow"
"2014-12-10 13:00","2014","12","10","13:00","-1.8","","-3.7","","87","","35","","23","","2.4","","99.84","","","","-8","","Snow,Fog,Blowing Snow"
"2014-12-10 14:00","2014","12","10","14:00","-2.0","","-4.0","","86","","35","","30","","4.0","","99.81","","","","-9","","Snow,Fog,Blowing Snow"
"2014-12-10 15:00","2014","12","10","15:00","-2.3","","-3.6","","91","","34","","33","","2.4","","99.72","","","","-10","","Snow,Fog,Blowing Snow"
"2014-12-10 16:00","2014","12","10","16:00","-2.3","","-3.4","","92","","34","","31","","0.8","","99.67","","","","-10","","Moderate Snow,Fog,Blowing Snow"
"2014-12-10 17:00","2014","12","10","17:00","-2.2","","-3.5","","91","","35","","31","","3.2","","99.61","","","","-9","","Snow,Fog,Blowing Snow"
"2014-12-10 18:00","2014","12","10","18:00","-2.3","","-3.4","","92","","35","","30","","1.6","","99.58","","","","-9","","Snow,Fog,Blowing Snow"
"2014-12-10 19:00","2014","12","10","19:00","-2.4","","-3.4","","93","","35","","28","","1.2","","99.47","","","","-9","","Snow,Blowing Snow"
"2014-12-10 20:00","2014","12","10","20:00","-2.5","","-3.3","","94","","35","","34","","1.2","","99.38","","","","-10","","Snow,Blowing Snow"
"2014-12-10 21:00","2014","12","10","21:00","-2.7","","-3.8","","92","","35","","33","","1.6","","99.30","","","","-10","","Snow,Blowing Snow"
"2014-12-10 22:00","2014","12","10","22:00","-3.0","","-3.8","","94","","34","","30","","1.2","","99.21","","","","-10","","Snow,Blowing Snow"
"2014-12-10 23:00","2014","12","10","23:00","-3.0","","-4.0","","93","","35","","30","","1.2","","99.15","","","","-10","","Snow,Blowing Snow"
"2014-12-11 00:00","2014","12","11","00:00","-3.0","","-4.3","","91","","35","","26","","3.2","","99.09","","","","-10","","Snow,Blowing Snow"
"2014-12-11 01:00","2014","12","11","01:00","-2.9","","-4.3","","90","","34","","27","","6.4","","99.04","","","","-10","","Snow"
"2014-12-11 02:00","2014","12","11","02:00","-2.5","","-4.7","","85","","35","","21","","24.1","","99.01","","","","-9","","Snow"
"2014-12-11 03:00","2014","12","11","03:00","-2.3","","-5.1","","81","","34","","22","","24.1","","99.00","","","","-8","","Snow"
"2014-12-11 04:00","2014","12","11","04:00","-2.5","","-5.0","","83","","34","","22","","24.1","","98.98","","","","-9","","Cloudy"
"2014-12-11 05:00","2014","12","11","05:00","-3.0","","-5.2","","85","","32","","21","","24.1","","98.99","","","","-9","","NA"
"2014-12-11 06:00","2014","12","11","06:00","-3.3","","-5.3","","86","","32","","22","","24.1","","99.02","","","","-10","","NA"
"2014-12-11 07:00","2014","12","11","07:00","-3.2","","-5.5","","84","","32","","22","","24.1","","99.04","","","","-10","","Cloudy"
"2014-12-11 08:00","2014","12","11","08:00","-3.1","","-5.1","","86","","32","","20","","24.1","","99.08","","","","-9","","NA"
"2014-12-11 09:00","2014","12","11","09:00","-3.0","","-5.0","","86","","31","","17","","24.1","","99.09","","","","-9","","NA"
"2014-12-11 10:00","2014","12","11","10:00","-2.8","","-4.7","","87","","30","","16","","24.1","","99.12","","","","-8","","Cloudy"
"2014-12-11 11:00","2014","12","11","11:00","-2.6","","-4.6","","86","","31","","16","","24.1","","99.09","","","","-8","","NA"
"2014-12-11 12:00","2014","12","11","12:00","-2.2","","-4.4","","85","","30","","17","","24.1","","99.08","","","","-8","","Snow"
"2014-12-11 13:00","2014","12","11","13:00","-2.0","","-4.2","","85","","31","","17","","16.1","","99.10","","","","-7","","Snow"
"2014-12-11 14:00","2014","12","11","14:00","-2.4","","-4.1","","88","","29","","18","","16.1","","99.13","","","","-8","","Snow"
"2014-12-11 15:00","2014","12","11","15:00","-2.5","","-4.4","","87","","28","","14","","24.1","","99.17","","","","-7","","NA"
"2014-12-11 16:00","2014","12","11","16:00","-3.0","","-4.9","","87","","28","","15","","24.1","","99.24","","","","-8","","Cloudy"
"2014-12-11 17:00","2014","12","11","17:00","-3.4","","-5.4","","86","","28","","22","","24.1","","99.33","","","","-10","","NA"
"2014-12-11 18:00","2014","12","11","18:00","-3.6","","-5.6","","86","","28","","17","","24.1","","99.38","","","","-9","","NA"
"2014-12-11 19:00","2014","12","11","19:00","-4.3","","-6.2","","87","","27","","17","","16.1","","99.44","","","","-10","","Cloudy"
"2014-12-11 20:00","2014","12","11","20:00","-4.4","","-6.3","","87","","28","","18","","24.1","","99.53","","","","-10","","NA"
"2014-12-11 21:00","2014","12","11","21:00","-4.5","","-6.3","","87","","28","","17","","24.1","","99.57","","","","-10","","NA"
"2014-12-11 22:00","2014","12","11","22:00","-4.5","","-6.3","","87","","27","","18","","24.1","","99.56","","","","-11","","Cloudy"
"2014-12-11 23:00","2014","12","11","23:00","-4.6","","-6.4","","87","","27","","15","","24.1","","99.60","","","","-10","","NA"
"2014-12-12 00:00","2014","12","12","00:00","-4.8","","-6.6","","87","","27","","17","","24.1","","99.62","","","","-11","","NA"
"2014-12-12 01:00","2014","12","12","01:00","-5.1","","-6.8","","88","","28","","19","","24.1","","99.70","","","","-12","","Snow"
"2014-12-12 02:00","2014","12","12","02:00","-5.4","","-7.2","","87","","27","","18","","24.1","","99.75","","","","-12","","NA"
"2014-12-12 03:00","2014","12","12","03:00","-5.7","","-7.4","","88","","28","","19","","16.1","","99.82","","","","-12","","Snow"
"2014-12-12 04:00","2014","12","12","04:00","-6.0","","-7.7","","88","","27","","20","","24.1","","99.85","","","","-13","","Snow"
"2014-12-12 05:00","2014","12","12","05:00","-6.2","","-7.6","","90","","27","","18","","6.4","","99.90","","","","-13","","Snow"
"2014-12-12 06:00","2014","12","12","06:00","-6.2","","-7.3","","92","","28","","17","","6.4","","99.93","","","","-12","","Snow"
"2014-12-12 07:00","2014","12","12","07:00","-6.3","","-7.8","","89","","28","","18","","12.9","","99.99","","","","-13","","Snow"
"2014-12-12 08:00","2014","12","12","08:00","-6.4","","-7.8","","90","","28","","17","","0.8","","100.04","","","","-13","","Snow"
"2014-12-12 09:00","2014","12","12","09:00","-6.3","","-8.0","","88","","29","","21","","6.4","","100.09","","","","-13","","Snow"
"2014-12-12 10:00","2014","12","12","10:00","-5.9","","-8.0","","85","","28","","22","","16.1","","100.10","","","","-13","","Snow"
"2014-12-12 11:00","2014","12","12","11:00","-5.4","","-7.2","","87","","29","","18","","12.9","","100.09","","","","-12","","Snow"
"2014-12-12 12:00","2014","12","12","12:00","-4.9","","-7.4","","83","","28","","14","","16.1","","100.06","","","","-10","","NA"
"2014-12-12 13:00","2014","12","12","13:00","-4.6","","-7.2","","82","","28","","22","","12.9","","100.08","","","","-11","","Snow"
"2014-12-12 14:00","2014","12","12","14:00","-4.0","","-6.6","","82","","29","","17","","16.1","","100.11","","","","-10","","Snow"
"2014-12-12 15:00","2014","12","12","15:00","-3.6","","-6.7","","79","","28","","25","","24.1","","100.13","","","","-11","","NA"
"2014-12-12 16:00","2014","12","12","16:00","-3.4","","-6.4","","80","","28","","19","","24.1","","100.14","","","","-9","","Cloudy"
"2014-12-12 17:00","2014","12","12","17:00","-3.1","","-5.9","","81","","29","","18","","24.1","","100.20","","","","-9","","NA"
"2014-12-12 18:00","2014","12","12","18:00","-3.0","","-5.7","","82","","29","","16","","24.1","","100.26","","","","-8","","NA"
"2014-12-12 19:00","2014","12","12","19:00","-2.9","","-5.4","","83","","30","","13","","24.1","","100.28","","","","-8","","Cloudy"
"2014-12-12 20:00","2014","12","12","20:00","-2.8","","-5.1","","84","","31","","16","","24.1","","100.33","","","","-8","","NA"
"2014-12-12 21:00","2014","12","12","21:00","-2.6","","-5.1","","83","","31","","26","","24.1","","100.33","","","","-9","","NA"
"2014-12-12 22:00","2014","12","12","22:00","-2.8","","-5.0","","85","","31","","19","","24.1","","100.32","","","","-9","","Cloudy"
"2014-12-12 23:00","2014","12","12","23:00","-3.4","","-5.0","","89","","28","","15","","24.1","","100.33","","","","-9","","NA"
"2014-12-13 00:00","2014","12","13","00:00","-3.8","","-5.4","","89","","28","","22","","24.1","","100.32","","","","-10","","NA"
"2014-12-13 01:00","2014","12","13","01:00","-4.2","","-5.5","","91","","28","","21","","8.1","","100.32","","","","-11","","Snow Grains,Fog"
"2014-12-13 02:00","2014","12","13","02:00","-4.6","","-5.7","","92","","28","","17","","24.1","","100.34","","","","-10","","NA"
"2014-12-13 03:00","2014","12","13","03:00","-4.8","","-6.1","","91","","29","","16","","24.1","","100.37","","","","-11","","NA"
"2014-12-13 04:00","2014","12","13","04:00","-5.0","","-6.4","","90","","28","","13","","24.1","","100.32","","","","-10","","Cloudy"
"2014-12-13 05:00","2014","12","13","05:00","-5.4","","-6.8","","90","","29","","15","","24.1","","100.29","","","","-11","","NA"
"2014-12-13 06:00","2014","12","13","06:00","-5.6","","-7.1","","89","","29","","13","","24.1","","100.32","","","","-11","","NA"
"2014-12-13 07:00","2014","12","13","07:00","-5.8","","-7.6","","87","","29","","13","","24.1","","100.31","","","","-11","","Cloudy"
"2014-12-13 08:00","2014","12","13","08:00","-6.0","","-7.4","","90","","26","","18","","24.1","","100.32","","","","-12","","NA"
"2014-12-13 09:00","2014","12","13","09:00","-6.0","","-7.1","","92","","28","","13","","12.9","","100.32","","","","-11","","NA"
"2014-12-13 10:00","2014","12","13","10:00","-6.0","","-6.5","","96","","26","","18","","12.9","","100.30","","","","-12","","Snow Grains,Fog"
"2014-12-13 11:00","2014","12","13","11:00","-5.3","","-6.8","","89","","26","","13","","19.3","","100.22","","","","-10","","Snow Grains"
"2014-12-13 12:00","2014","12","13","12:00","-4.4","","-8.7","","72","","26","","13","","24.1","","100.15","","","","-9","","NA"
"2014-12-13 13:00","2014","12","13","13:00","-4.3","","-8.8","","71","","25","","10","","24.1","","100.06","","","","-8","","Mostly Cloudy"
"2014-12-13 14:00","2014","12","13","14:00","-3.4","","-7.8","","72","","27","","18","","24.1","","100.04","","","","-9","","NA"
"2014-12-13 15:00","2014","12","13","15:00","-2.7","","-6.9","","73","","26","","16","","24.1","","100.01","","","","-8","","NA"
"2014-12-13 16:00","2014","12","13","16:00","-4.1","","-6.9","","81","","26","","17","","24.1","","100.00","","","","-10","","Mainly Clear"
"2014-12-13 17:00","2014","12","13","17:00","-5.5","","-7.8","","84","","24","","10","","24.1","","99.96","","","","-10","","NA"
"2014-12-13 18:00","2014","12","13","18:00","-3.6","","-6.2","","82","","28","","9","","16.1","","99.96","","","","-7","","NA"
"2014-12-13 19:00","2014","12","13","19:00","-4.1","","-6.4","","84","","22","","6","","24.1","","99.92","","","","-7","","Cloudy"
"2014-12-13 20:00","2014","12","13","20:00","-3.3","","-5.8","","83","","27","","5","","24.1","","99.90","","","","-5","","NA"
"2014-12-13 21:00","2014","12","13","21:00","-2.9","","-5.2","","84","","36","","2","","24.1","","99.89","","","","-4","","NA"
"2014-12-13 22:00","2014","12","13","22:00","-3.0","","-5.2","","85","","9","","4","","24.1","","99.86","","","","-5","","Cloudy"
"2014-12-13 23:00","2014","12","13","23:00","-2.7","","-3.7","","93","","19","","5","","12.9","","99.85","","","","-5","","Freezing Drizzle"
"2014-12-14 00:00","2014","12","14","00:00","-2.5","","-3.2","","95","","36","","3","","12.9","","99.85","","","","-4","","Freezing Drizzle"
"2014-12-14 01:00","2014","12","14","01:00","-2.6","","-3.0","","97","","15","","3","","6.4","","99.79","","","","-4","","Freezing Drizzle,Fog"
"2014-12-14 02:00","2014","12","14","02:00","-2.6","","-2.9","","98","","22","","5","","4.8","","99.79","","","","-5","","Freezing Drizzle,Fog"
"2014-12-14 03:00","2014","12","14","03:00","-2.5","","-2.8","","98","","25","","8","","2.4","","99.81","","","","-6","","Snow,Fog"
"2014-12-14 04:00","2014","12","14","04:00","-2.5","","-2.8","","98","","25","","8","","6.4","","99.79","","","","-6","","Snow,Fog"
"2014-12-14 05:00","2014","12","14","05:00","-2.3","","-2.7","","97","","27","","8","","9.7","","99.80","","","","-5","","Snow,Fog"
"2014-12-14 06:00","2014","12","14","06:00","-2.5","","-3.2","","95","","27","","7","","8.1","","99.86","","","","-5","","Snow,Fog"
"2014-12-14 07:00","2014","12","14","07:00","-2.5","","-3.1","","96","","28","","7","","8.1","","99.90","","","","-5","","Snow,Fog"
"2014-12-14 08:00","2014","12","14","08:00","-2.4","","-3.1","","95","","30","","12","","9.7","","99.98","","","","-7","","Snow,Fog"
"2014-12-14 09:00","2014","12","14","09:00","-2.0","","-2.8","","94","","24","","5","","16.1","","99.98","","","","-4","","Snow,Fog"
"2014-12-14 10:00","2014","12","14","10:00","-1.7","","-2.5","","94","","26","","9","","16.1","","99.97","","","","-5","","Snow"
"2014-12-14 11:00","2014","12","14","11:00","-0.5","","-1.6","","92","","28","","11","","16.1","","99.96","","","","-4","","Snow"
"2014-12-14 12:00","2014","12","14","12:00","-0.1","","-1.4","","91","","28","","14","","16.1","","99.96","","","","-4","","Snow"
"2014-12-14 13:00","2014","12","14","13:00","-0.1","","-1.4","","91","","29","","11","","16.1","","99.98","","","","-4","","Snow"
"2014-12-14 14:00","2014","12","14","14:00","0.4","","-1.7","","86","","28","","13","","24.1","","99.97","","","","","","Snow"
"2014-12-14 15:00","2014","12","14","15:00","0.7","","-1.9","","83","","28","","12","","24.1","","100.00","","","","","","Snow"
"2014-12-14 16:00","2014","12","14","16:00","0.8","","-1.9","","82","","29","","14","","24.1","","100.04","","","","","","Snow"
"2014-12-14 17:00","2014","12","14","17:00","0.5","","-1.6","","86","","28","","13","","16.1","","100.11","","","","","","Snow"
"2014-12-14 18:00","2014","12","14","18:00","0.4","","-1.4","","88","","29","","8","","24.1","","100.17","","","","","","Snow"
"2014-12-14 19:00","2014","12","14","19:00","0.3","","-1.3","","89","","30","","8","","24.1","","100.22","","","","","","Snow"
"2014-12-14 20:00","2014","12","14","20:00","0.0","","-0.6","","96","","30","","7","","16.1","","100.24","","","","-2","","Snow"
"2014-12-14 21:00","2014","12","14","21:00","-0.1","","-0.8","","95","","28","","5","","16.1","","100.27","","","","-2","","NA"
"2014-12-14 22:00","2014","12","14","22:00","0.2","","-1.9","","86","","33","","11","","24.1","","100.29","","","","","","Cloudy"
"2014-12-14 23:00","2014","12","14","23:00","-0.3","","-2.2","","87","","32","","7","","24.1","","100.32","","","","-3","","NA"
"2014-12-15 00:00","2014","12","15","00:00","-0.3","","-2.4","","86","","33","","8","","24.1","","100.33","","","","-3","","NA"
"2014-12-15 01:00","2014","12","15","01:00","-0.5","","-2.7","","85","","30","","7","","24.1","","100.34","","","","-3","","Cloudy"
"2014-12-15 02:00","2014","12","15","02:00","-0.4","","-2.9","","83","","29","","9","","24.1","","100.41","","","","-4","","NA"
"2014-12-15 03:00","2014","12","15","03:00","-0.8","","-2.4","","89","","29","","7","","24.1","","100.43","","","","-3","","NA"
"2014-12-15 04:00","2014","12","15","04:00","-1.0","","-2.0","","93","","27","","3","","24.1","","100.45","","","","-2","","Cloudy"
"2014-12-15 05:00","2014","12","15","05:00","-1.3","","-2.0","","95","","23","","5","","16.1","","100.47","","","","-3","","Snow"
"2014-12-15 06:00","2014","12","15","06:00","-1.4","","-2.1","","95","","26","","5","","24.1","","100.51","","","","-3","","NA"
"2014-12-15 07:00","2014","12","15","07:00","-1.0","","-2.9","","87","","27","","5","","24.1","","100.53","","","","-3","","Snow"
"2014-12-15 08:00","2014","12","15","08:00","-1.2","","-2.8","","89","","25","","4","","24.1","","100.56","","","","-3","","Snow"
"2014-12-15 09:00","2014","12","15","09:00","-1.2","","-2.3","","92","","25","","4","","24.1","","100.56","","","","-3","","Snow"
"2014-12-15 10:00","2014","12","15","10:00","-0.7","","-2.9","","85","","24","","7","","24.1","","100.59","","","","-3","","Snow"
"2014-12-15 11:00","2014","12","15","11:00","-0.6","","-3.5","","81","","30","","9","","24.1","","100.56","","","","-4","","Snow"
"2014-12-15 12:00","2014","12","15","12:00","-0.4","","-3.4","","80","","26","","5","","24.1","","100.51","","","","-2","","NA"
"2014-12-15 13:00","2014","12","15","13:00","-0.2","","-3.1","","81","","21","","8","","24.1","","100.47","","","","-3","","Cloudy"
"2014-12-15 14:00","2014","12","15","14:00","0.0","","-2.9","","81","","26","","7","","16.1","","100.46","","","","-2","","Snow"
"2014-12-15 15:00","2014","12","15","15:00","0.0","","-2.9","","81","","23","","4","","24.1","","100.47","","","","-1","","NA"
"2014-12-15 16:00","2014","12","15","16:00","-0.1","","-2.6","","83","","18","","4","","24.1","","100.47","","","","-1","","Cloudy"
"2014-12-15 17:00","2014","12","15","17:00","0.0","","-2.5","","83","","21","","5","","16.1","","100.52","","","","-2","","NA"
"2014-12-15 18:00","2014","12","15","18:00","0.0","","-2.7","","82","","35","","4","","24.1","","100.54","","","","-1","","NA"
"2014-12-15 19:00","2014","12","15","19:00","0.0","","-2.5","","83","","11","","4","","24.1","","100.55","","","","-1","","Cloudy"
"2014-12-15 20:00","2014","12","15","20:00","-0.3","","-2.4","","86","","12","","7","","24.1","","100.54","","","","-3","","NA"
"2014-12-15 21:00","2014","12","15","21:00","-0.6","","-2.3","","88","","13","","8","","24.1","","100.50","","","","-3","","NA"
"2014-12-15 22:00","2014","12","15","22:00","-0.6","","-2.3","","88","","14","","9","","24.1","","100.47","","","","-4","","Cloudy"
"2014-12-15 23:00","2014","12","15","23:00","-0.5","","-2.1","","89","","13","","11","","24.1","","100.46","","","","-4","","NA"
"2014-12-16 00:00","2014","12","16","00:00","-0.7","","-2.0","","91","","10","","9","","24.1","","100.43","","","","-4","","NA"
"2014-12-16 01:00","2014","12","16","01:00","-0.7","","-2.0","","91","","9","","9","","24.1","","100.37","","","","-4","","Cloudy"
"2014-12-16 02:00","2014","12","16","02:00","-0.9","","-2.0","","92","","9","","10","","24.1","","100.38","","","","-4","","NA"
"2014-12-16 03:00","2014","12","16","03:00","-0.9","","-1.9","","93","","8","","9","","24.1","","100.38","","","","-4","","NA"
"2014-12-16 04:00","2014","12","16","04:00","-1.0","","-1.7","","95","","8","","13","","24.1","","100.31","","","","-5","","Cloudy"
"2014-12-16 05:00","2014","12","16","05:00","-1.0","","-1.4","","97","","9","","12","","9.7","","100.30","","","","-5","","Fog"
"2014-12-16 06:00","2014","12","16","06:00","-1.0","","-1.3","","98","","9","","14","","2.4","","100.29","","","","-5","","Fog"
"2014-12-16 07:00","2014","12","16","07:00","-1.0","","-1.3","","98","","10","","18","","4.0","","100.28","","","","-6","","Fog"
"2014-12-16 08:00","2014","12","16","08:00","-1.2","","-1.8","","96","","9","","14","","4.0","","100.31","","","","-6","","Snow Grains,Fog"
"2014-12-16 09:00","2014","12","16","09:00","-1.3","","-2.3","","93","","9","","16","","16.1","","100.27","","","","-6","","NA"
"2014-12-16 10:00","2014","12","16","10:00","-1.3","","-2.4","","92","","10","","21","","16.1","","100.24","","","","-7","","Cloudy"
"2014-12-16 11:00","2014","12","16","11:00","-1.1","","-2.4","","91","","9","","18","","12.9","","100.18","","","","-6","","Snow"
"2014-12-16 12:00","2014","12","16","12:00","-1.4","","-2.1","","95","","7","","18","","9.7","","100.10","","","","-7","","Snow,Fog"
"2014-12-16 13:00","2014","12","16","13:00","-1.4","","-2.0","","96","","7","","17","","9.7","","100.04","","","","-7","","Snow,Fog"
"2014-12-16 14:00","2014","12","16","14:00","-1.2","","-1.8","","96","","8","","18","","4.8","","99.96","","","","-6","","Snow"
"2014-12-16 15:00","2014","12","16","15:00","-1.2","","-1.8","","96","","6","","16","","4.8","","99.93","","","","-6","","Snow,Fog"
"2014-12-16 16:00","2014","12","16","16:00","-1.2","","-1.6","","97","","7","","21","","2.4","","99.91","","","","-7","","Freezing Drizzle,Fog"
"2014-12-16 17:00","2014","12","16","17:00","-1.2","","-1.6","","97","","8","","18","","3.2","","99.91","","","","-6","","Freezing Drizzle,Fog"
"2014-12-16 18:00","2014","12","16","18:00","-1.2","","-1.6","","97","","6","","17","","4.0","","99.83","","","","-6","","Freezing Drizzle,Fog"
"2014-12-16 19:00","2014","12","16","19:00","-1.1","","-1.5","","97","","7","","14","","6.4","","99.83","","","","-6","","Freezing Rain,Freezing Drizzle,Fog"
"2014-12-16 20:00","2014","12","16","20:00","-1.2","","-1.8","","96","","5","","19","","6.4","","99.75","","","","-7","","Freezing Rain,Fog"
"2014-12-16 21:00","2014","12","16","21:00","-1.2","","-1.6","","97","","6","","19","","6.4","","99.72","","","","-7","","Freezing Rain,Ice Pellets,Fog"
"2014-12-16 22:00","2014","12","16","22:00","-1.0","","-1.4","","97","","6","","17","","3.2","","99.68","","","","-6","","Freezing Drizzle,Fog"
"2014-12-16 23:00","2014","12","16","23:00","-0.6","","-1.0","","97","","10","","10","","6.4","","99.66","","","","-4","","Freezing Rain,Fog"
"2014-12-17 00:00","2014","12","17","00:00","-0.3","","-0.6","","98","","8","","13","","3.2","","99.62","","","","-4","","Freezing Rain,Fog"
"2014-12-17 01:00","2014","12","17","01:00","-0.2","","-0.5","","98","","7","","15","","3.2","","99.56","","","","-5","","Freezing Rain,Fog"
"2014-12-17 02:00","2014","12","17","02:00","-0.1","","-0.4","","98","","8","","13","","2.4","","99.55","","","","-4","","Freezing Rain,Fog"
"2014-12-17 03:00","2014","12","17","03:00","0.0","","-0.3","","98","","7","","14","","3.2","","99.51","","","","-4","","Freezing Rain,Fog"
"2014-12-17 04:00","2014","12","17","04:00","0.0","","-0.1","","99","","9","","13","","2.4","","99.47","","","","-4","","Rain,Fog"
"2014-12-17 05:00","2014","12","17","05:00","0.0","","-0.1","","99","","7","","12","","2.4","","99.42","","","","-4","","Rain,Fog"
"2014-12-17 06:00","2014","12","17","06:00","0.0","","-0.1","","99","","7","","16","","4.8","","99.43","","","","-5","","Rain,Fog"
"2014-12-17 07:00","2014","12","17","07:00","0.1","","0.0","","99","","7","","14","","3.2","","99.44","","","","","","Rain,Fog"
"2014-12-17 08:00","2014","12","17","08:00","0.1","","0.0","","99","","8","","12","","3.2","","99.44","","","","","","Rain,Fog"
"2014-12-17 09:00","2014","12","17","09:00","0.1","","0.0","","99","","6","","13","","2.4","","99.44","","","","","","Rain,Fog"
"2014-12-17 10:00","2014","12","17","10:00","0.2","","0.1","","99","","7","","12","","0.8","","99.44","","","","","","Rain,Fog"
"2014-12-17 11:00","2014","12","17","11:00","0.2","","0.1","","99","","5","","9","","0.6","","99.39","","","","","","Rain,Fog"
"2014-12-17 12:00","2014","12","17","12:00","0.2","","0.2","","100","","5","","7","","0.4","","99.34","","","","","","Rain,Fog"
"2014-12-17 13:00","2014","12","17","13:00","0.3","","0.3","","100","","3","","5","","0.4","","99.31","","","","","","Rain,Fog"
"2014-12-17 14:00","2014","12","17","14:00","0.3","","0.3","","100","","26","","9","","0.8","","99.32","","","","","","Drizzle,Fog"
"2014-12-17 15:00","2014","12","17","15:00","0.1","","0.1","","100","","25","","12","","2.4","","99.37","","","","","","Snow,Fog"
"2014-12-17 16:00","2014","12","17","16:00","0.1","","0.1","","100","","24","","9","","3.2","","99.41","","","","","","Snow,Fog"
"2014-12-17 17:00","2014","12","17","17:00","0.0","","0.0","","100","","24","","10","","4.0","","99.45","","","","-3","","Snow,Fog"
"2014-12-17 18:00","2014","12","17","18:00","0.0","","-0.1","","99","","25","","13","","12.9","","99.48","","","","-4","","Snow"
"2014-12-17 19:00","2014","12","17","19:00","0.1","","-0.2","","98","","26","","13","","9.7","","99.50","","","","","","Snow,Fog"
"2014-12-17 20:00","2014","12","17","20:00","0.1","","-0.2","","98","","25","","13","","6.4","","99.50","","","","","","Snow,Fog"
"2014-12-17 21:00","2014","12","17","21:00","0.1","","-0.2","","98","","25","","13","","3.2","","99.50","","","","","","Snow,Fog"
"2014-12-17 22:00","2014","12","17","22:00","0.1","","-0.2","","98","","26","","13","","4.8","","99.50","","","","","","Snow,Fog"
"2014-12-17 23:00","2014","12","17","23:00","0.1","","-0.2","","98","","26","","13","","3.2","","99.50","","","","","","Snow,Fog"
"2014-12-18 00:00","2014","12","18","00:00","0.1","","0.0","","99","","26","","13","","3.2","","99.51","","","","","","Snow,Fog"
"2014-12-18 01:00","2014","12","18","01:00","0.2","","-0.1","","98","","28","","17","","4.0","","99.51","","","","","","Snow,Fog"
"2014-12-18 02:00","2014","12","18","02:00","0.2","","-0.2","","97","","28","","17","","4.0","","99.56","","","","","","Snow,Fog"
"2014-12-18 03:00","2014","12","18","03:00","0.2","","-0.2","","97","","29","","20","","8.1","","99.61","","","","","","Snow,Fog"
"2014-12-18 04:00","2014","12","18","04:00","-0.1","","-0.5","","97","","28","","22","","4.8","","99.66","","","","-6","","Snow,Fog"
"2014-12-18 05:00","2014","12","18","05:00","-0.5","","-1.1","","96","","28","","21","","8.1","","99.71","","","","-6","","Snow,Fog"
"2014-12-18 06:00","2014","12","18","06:00","-0.8","","-1.5","","95","","28","","23","","12.9","","99.79","","","","-7","","Snow"
"2014-12-18 07:00","2014","12","18","07:00","-1.2","","-2.0","","94","","29","","25","","16.1","","99.86","","","","-7","","Snow"
"2014-12-18 08:00","2014","12","18","08:00","-1.6","","-2.4","","94","","29","","23","","2.4","","99.93","","","","-8","","Snow,Fog"
"2014-12-18 09:00","2014","12","18","09:00","-1.6","","-2.7","","92","","28","","26","","8.1","","100.02","","","","-8","","Snow,Fog"
"2014-12-18 10:00","2014","12","18","10:00","-1.6","","-2.7","","92","","29","","21","","6.4","","100.09","","","","-7","","Snow,Fog"
"2014-12-18 11:00","2014","12","18","11:00","-1.7","","-3.9","","85","","30","","21","","16.1","","100.10","","","","-8","","Snow"
"2014-12-18 12:00","2014","12","18","12:00","-2.1","","-3.8","","88","","29","","23","","24.1","","100.06","","","","-8","","NA"
"2014-12-18 13:00","2014","12","18","13:00","-2.9","","-4.6","","88","","29","","27","","24.1","","100.05","","","","-10","","Snow"
"2014-12-18 14:00","2014","12","18","14:00","-2.9","","-4.8","","87","","30","","21","","24.1","","100.02","","","","-9","","Snow"
"2014-12-18 15:00","2014","12","18","15:00","-2.9","","-4.8","","87","","29","","20","","24.1","","100.07","","","","-9","","NA"
"2014-12-18 16:00","2014","12","18","16:00","-3.1","","-5.3","","85","","29","","25","","24.1","","100.14","","","","-10","","Cloudy"
"2014-12-18 17:00","2014","12","18","17:00","-3.3","","-5.5","","85","","30","","18","","24.1","","100.20","","","","-9","","NA"
"2014-12-18 18:00","2014","12","18","18:00","-3.5","","-5.7","","85","","30","","23","","24.1","","100.22","","","","-10","","NA"
"2014-12-18 19:00","2014","12","18","19:00","-3.8","","-5.8","","86","","30","","25","","24.1","","100.23","","","","-11","","Snow"
"2014-12-18 20:00","2014","12","18","20:00","-3.9","","-5.9","","86","","30","","23","","24.1","","100.22","","","","-11","","Snow"
"2014-12-18 21:00","2014","12","18","21:00","-4.2","","-6.2","","86","","30","","22","","24.1","","100.21","","","","-11","","NA"
"2014-12-18 22:00","2014","12","18","22:00","-4.3","","-6.5","","85","","30","","19","","24.1","","100.22","","","","-10","","Cloudy"
"2014-12-18 23:00","2014","12","18","23:00","-4.5","","-6.8","","84","","31","","22","","24.1","","100.24","","","","-11","","NA"
"2014-12-19 00:00","2014","12","19","00:00","-5.1","","-7.6","","83","","33","","31","","24.1","","100.26","","","","-13","","NA"
"2014-12-19 01:00","2014","12","19","01:00","-5.5","","-8.1","","82","","32","","22","","24.1","","100.27","","","","-13","","Cloudy"
"2014-12-19 02:00","2014","12","19","02:00","-5.9","","-7.9","","86","","32","","19","","24.1","","100.30","","","","-13","","NA"
"2014-12-19 03:00","2014","12","19","03:00","-6.0","","-8.4","","83","","31","","21","","24.1","","100.33","","","","-13","","NA"
"2014-12-19 04:00","2014","12","19","04:00","-6.2","","-9.1","","80","","31","","22","","24.1","","100.34","","","","-13","","Cloudy"
"2014-12-19 05:00","2014","12","19","05:00","-6.2","","-9.0","","81","","31","","19","","24.1","","100.36","","","","-13","","NA"
"2014-12-19 06:00","2014","12","19","06:00","-7.2","","-9.6","","83","","33","","23","","12.9","","100.40","","","","-15","","Ice Crystals"
"2014-12-19 07:00","2014","12","19","07:00","-8.0","","-11.0","","79","","32","","22","","24.1","","100.48","","","","-16","","Snow"
"2014-12-19 08:00","2014","12","19","08:00","-8.6","","-11.6","","79","","32","","16","","24.1","","100.57","","","","-15","","NA"
"2014-12-19 09:00","2014","12","19","09:00","-8.9","","-12.1","","78","","32","","20","","24.1","","100.65","","","","-16","","NA"
"2014-12-19 10:00","2014","12","19","10:00","-8.5","","-12.0","","76","","33","","20","","24.1","","100.69","","","","-16","","Mainly Clear"
"2014-12-19 11:00","2014","12","19","11:00","-7.9","","-11.8","","74","","30","","12","","24.1","","100.70","","","","-13","","NA"
"2014-12-19 12:00","2014","12","19","12:00","-7.1","","-11.3","","72","","30","","12","","24.1","","100.69","","","","-12","","NA"
"2014-12-19 13:00","2014","12","19","13:00","-6.5","","-11.1","","70","","30","","9","","24.1","","100.69","","","","-11","","Clear"
"2014-12-19 14:00","2014","12","19","14:00","-5.9","","-10.5","","70","","31","","14","","24.1","","100.69","","","","-11","","NA"
"2014-12-19 15:00","2014","12","19","15:00","-6.0","","-11.0","","68","","31","","11","","24.1","","100.73","","","","-11","","NA"
"2014-12-19 16:00","2014","12","19","16:00","-6.9","","-11.5","","70","","31","","16","","24.1","","100.79","","","","-13","","Clear"
"2014-12-19 17:00","2014","12","19","17:00","-9.0","","-11.7","","81","","25","","13","","24.1","","100.87","","","","-15","","NA"
"2014-12-19 18:00","2014","12","19","18:00","-10.2","","-13.2","","79","","26","","14","","24.1","","100.95","","","","-17","","NA"
"2014-12-19 19:00","2014","12","19","19:00","-10.5","","-12.6","","85","","28","","10","","24.1","","100.97","","","","-16","","Clear"
"2014-12-19 20:00","2014","12","19","20:00","-10.6","","-12.2","","88","","28","","8","","24.1","","101.01","","","","-15","","NA"
"2014-12-19 21:00","2014","12","19","21:00","-11.5","","-12.7","","91","","29","","7","","24.1","","101.01","","","","-16","","NA"
"2014-12-19 22:00","2014","12","19","22:00","-11.3","","-12.6","","90","","24","","10","","24.1","","101.04","","","","-17","","Clear"
"2014-12-19 23:00","2014","12","19","23:00","-12.3","","-13.3","","92","","25","","11","","24.1","","101.05","","","","-18","","NA"
"2014-12-20 00:00","2014","12","20","00:00","-12.9","","-14.2","","90","","23","","7","","24.1","","101.07","","","","-17","","NA"
"2014-12-20 01:00","2014","12","20","01:00","-13.4","","-14.8","","89","","28","","9","","24.1","","101.11","","","","-19","","Clear"
"2014-12-20 02:00","2014","12","20","02:00","-13.1","","-14.6","","89","","31","","15","","24.1","","101.13","","","","-21","","NA"
"2014-12-20 03:00","2014","12","20","03:00","-11.6","","-13.1","","89","","33","","13","","24.1","","101.12","","","","-18","","NA"
"2014-12-20 04:00","2014","12","20","04:00","-12.8","","-14.1","","90","","29","","7","","24.1","","101.12","","","","-17","","Clear"
"2014-12-20 05:00","2014","12","20","05:00","-12.2","","-13.7","","89","","34","","10","","24.1","","101.12","","","","-18","","NA"
"2014-12-20 06:00","2014","12","20","06:00","-14.5","","-15.5","","92","","26","","8","","24.1","","101.18","","","","-20","","NA"
"2014-12-20 07:00","2014","12","20","07:00","-14.6","","-15.9","","90","","29","","9","","24.1","","101.21","","","","-20","","Clear"
"2014-12-20 08:00","2014","12","20","08:00","-15.6","","-17.3","","87","","31","","8","","24.1","","101.28","","","","-21","","NA"
"2014-12-20 09:00","2014","12","20","09:00","-14.1","","-15.5","","89","","25","","6","","24.1","","101.37","","","","-18","","NA"
"2014-12-20 10:00","2014","12","20","10:00","-12.2","","-13.7","","89","","36","","3","","24.1","","101.40","","","","-14","","Clear"
"2014-12-20 11:00","2014","12","20","11:00","-9.9","","-11.5","","88","","28","","5","","24.1","","101.35","","","","-13","","NA"
"2014-12-20 12:00","2014","12","20","12:00","-8.4","","-11.1","","81","","28","","3","","24.1","","101.30","","","","-10","","NA"
"2014-12-20 13:00","2014","12","20","13:00","-6.7","","-11.1","","71","","25","","4","","24.1","","101.26","","","","-9","","Mainly Clear"
"2014-12-20 14:00","2014","12","20","14:00","-5.6","","-10.8","","67","","12","","4","","24.1","","101.24","","","","-7","","NA"
"2014-12-20 15:00","2014","12","20","15:00","-6.2","","-11.0","","69","","8","","9","","24.1","","101.24","","","","-10","","NA"
"2014-12-20 16:00","2014","12","20","16:00","-7.4","","-11.1","","75","","9","","8","","24.1","","101.23","","","","-11","","Mainly Clear"
"2014-12-20 17:00","2014","12","20","17:00","-7.9","","-10.9","","79","","8","","9","","24.1","","101.23","","","","-12","","NA"
"2014-12-20 18:00","2014","12","20","18:00","-8.5","","-11.0","","82","","7","","5","","24.1","","101.27","","","","-11","","NA"
"2014-12-20 19:00","2014","12","20","19:00","-10.2","","-12.0","","87","","6","","7","","24.1","","101.30","","","","-14","","Mainly Clear"
"2014-12-20 20:00","2014","12","20","20:00","-11.3","","-12.6","","90","","36","","3","","24.1","","101.33","","","","-13","","NA"
"2014-12-20 21:00","2014","12","20","21:00","-10.8","","-12.6","","87","","2","","7","","24.1","","101.34","","","","-15","","NA"
"2014-12-20 22:00","2014","12","20","22:00","-11.9","","-13.1","","91","","5","","8","","24.1","","101.36","","","","-17","","Clear"
"2014-12-20 23:00","2014","12","20","23:00","-11.7","","-12.8","","92","","6","","9","","24.1","","101.35","","","","-17","","NA"
"2014-12-21 00:00","2014","12","21","00:00","-12.6","","-13.8","","91","","5","","10","","24.1","","101.32","","","","-18","","NA"
"2014-12-21 01:00","2014","12","21","01:00","-11.6","","-12.8","","91","","7","","8","","24.1","","101.33","","","","-16","","Mostly Cloudy"
"2014-12-21 02:00","2014","12","21","02:00","-11.8","","-13.0","","91","","7","","8","","16.1","","101.37","","","","-17","","NA"
"2014-12-21 03:00","2014","12","21","03:00","-11.5","","-12.8","","90","","7","","14","","16.1","","101.36","","","","-18","","NA"
"2014-12-21 04:00","2014","12","21","04:00","-11.4","","-12.7","","90","","5","","12","","12.9","","101.35","","","","-18","","Cloudy"
"2014-12-21 05:00","2014","12","21","05:00","-11.8","","-13.3","","89","","6","","13","","11.3","","101.32","","","","-18","","NA"
"2014-12-21 06:00","2014","12","21","06:00","-11.7","","-13.0","","90","","7","","13","","9.7","","101.35","","","","-18","","Fog"
"2014-12-21 07:00","2014","12","21","07:00","-11.6","","-12.9","","90","","6","","10","","4.8","","101.38","","","","-17","","Fog"
"2014-12-21 08:00","2014","12","21","08:00","-11.7","","-12.9","","91","","6","","9","","4.8","","101.42","","","","-17","","Fog"
"2014-12-21 09:00","2014","12","21","09:00","-11.2","","-12.3","","92","","9","","12","","4.8","","101.47","","","","-17","","Snow,Fog"
"2014-12-21 10:00","2014","12","21","10:00","-10.4","","-11.5","","92","","5","","8","","3.2","","101.51","","","","-15","","Snow,Fog"
"2014-12-21 11:00","2014","12","21","11:00","-9.3","","-10.5","","91","","5","","9","","4.0","","101.49","","","","-14","","Snow,Fog"
"2014-12-21 12:00","2014","12","21","12:00","-8.7","","-9.9","","91","","5","","9","","4.8","","101.42","","","","-13","","Snow,Fog"
"2014-12-21 13:00","2014","12","21","13:00","-8.4","","-9.6","","91","","5","","8","","3.2","","101.37","","","","-13","","Fog"
"2014-12-21 14:00","2014","12","21","14:00","-7.8","","-9.3","","89","","7","","7","","4.0","","101.35","","","","-11","","Fog"
"2014-12-21 15:00","2014","12","21","15:00","-7.5","","-9.3","","87","","7","","7","","9.7","","101.36","","","","-11","","Fog"
"2014-12-21 16:00","2014","12","21","16:00","-7.4","","-9.1","","88","","8","","7","","9.7","","101.37","","","","-11","","Fog"
"2014-12-21 17:00","2014","12","21","17:00","-7.4","","-8.9","","89","","7","","8","","9.7","","101.41","","","","-11","","Fog"
"2014-12-21 18:00","2014","12","21","18:00","-7.7","","-9.1","","90","","7","","6","","9.7","","101.44","","","","-11","","Fog"
"2014-12-21 19:00","2014","12","21","19:00","-8.0","","-9.2","","91","","8","","8","","8.1","","101.47","","","","-12","","Fog"
"2014-12-21 20:00","2014","12","21","20:00","-8.4","","-9.3","","93","","8","","7","","6.4","","101.49","","","","-12","","Fog"
"2014-12-21 21:00","2014","12","21","21:00","-8.6","","-9.5","","93","","10","","6","","4.8","","101.53","","","","-12","","Fog"
"2014-12-21 22:00","2014","12","21","22:00","-8.9","","-9.7","","94","","7","","10","","2.4","","101.49","","","","-14","","Fog"
"2014-12-21 23:00","2014","12","21","23:00","-9.4","","-10.2","","94","","7","","12","","0.8","","101.50","","","","-15","","Freezing Fog"
"2014-12-22 00:00","2014","12","22","00:00","-8.9","","-9.7","","94","","11","","5","","0.6","","101.51","","","","-12","","Freezing Fog"
"2014-12-22 01:00","2014","12","22","01:00","-8.8","","-9.7","","93","","13","","10","","1.0","","101.48","","","","-14","","Fog"
"2014-12-22 02:00","2014","12","22","02:00","-8.6","","-9.5","","93","","12","","9","","0.8","","101.51","","","","-13","","Freezing Fog"
"2014-12-22 03:00","2014","12","22","03:00","-8.4","","-9.3","","93","","10","","6","","2.4","","101.51","","","","-12","","Fog"
"2014-12-22 04:00","2014","12","22","04:00","-8.3","","-9.2","","93","","8","","10","","3.2","","101.47","","","","-13","","Fog"
"2014-12-22 05:00","2014","12","22","05:00","-8.7","","-9.6","","93","","11","","13","","2.4","","101.51","","","","-15","","Fog"
"2014-12-22 06:00","2014","12","22","06:00","-8.5","","-9.4","","93","","11","","15","","2.4","","101.52","","","","-15","","Fog"
"2014-12-22 07:00","2014","12","22","07:00","-8.4","","-9.3","","93","","10","","18","","4.0","","101.50","","","","-15","","Fog"
"2014-12-22 08:00","2014","12","22","08:00","-8.4","","-9.3","","93","","7","","12","","2.4","","101.47","","","","-14","","Fog"
"2014-12-22 09:00","2014","12","22","09:00","-8.2","","-9.1","","93","","8","","15","","2.4","","101.47","","","","-15","","Fog"
"2014-12-22 10:00","2014","12","22","10:00","-7.7","","-8.6","","93","","6","","14","","4.0","","101.47","","","","-14","","Fog"
"2014-12-22 11:00","2014","12","22","11:00","-7.3","","-8.2","","93","","6","","14","","4.8","","101.45","","","","-13","","Fog"
"2014-12-22 12:00","2014","12","22","12:00","-7.2","","-8.1","","93","","6","","15","","8.1","","101.37","","","","-13","","Fog"
"2014-12-22 13:00","2014","12","22","13:00","-6.9","","-7.7","","94","","6","","18","","9.7","","101.23","","","","-14","","Fog"
"2014-12-22 14:00","2014","12","22","14:00","-6.8","","-7.8","","93","","6","","17","","9.7","","101.15","","","","-13","","Fog"
"2014-12-22 15:00","2014","12","22","15:00","-6.7","","-7.7","","93","","7","","18","","9.7","","101.14","","","","-13","","Fog"
"2014-12-22 16:00","2014","12","22","16:00","-6.7","","-7.7","","93","","7","","14","","9.7","","101.17","","","","-12","","Fog"
"2014-12-22 17:00","2014","12","22","17:00","-6.5","","-7.5","","93","","6","","20","","9.7","","101.11","","","","-13","","Fog"
"2014-12-22 18:00","2014","12","22","18:00","-6.3","","-7.4","","92","","8","","16","","12.9","","101.10","","","","-12","","NA"
"2014-12-22 19:00","2014","12","22","19:00","-6.2","","-7.9","","88","","7","","20","","12.9","","101.08","","","","-13","","Cloudy"
"2014-12-22 20:00","2014","12","22","20:00","-6.2","","-7.9","","88","","7","","15","","12.9","","101.07","","","","-12","","NA"
"2014-12-22 21:00","2014","12","22","21:00","-6.4","","-8.1","","88","","6","","17","","12.9","","101.02","","","","-13","","NA"
"2014-12-22 22:00","2014","12","22","22:00","-6.6","","-8.1","","89","","6","","14","","12.9","","100.97","","","","-12","","Cloudy"
"2014-12-22 23:00","2014","12","22","23:00","-6.7","","-8.1","","90","","7","","20","","12.9","","100.93","","","","-14","","NA"
"2014-12-23 00:00","2014","12","23","00:00","-6.7","","-8.1","","90","","6","","14","","12.9","","100.95","","","","-12","","NA"
"2014-12-23 01:00","2014","12","23","01:00","-6.5","","-8.0","","89","","6","","13","","12.9","","100.92","","","","-12","","Cloudy"
"2014-12-23 02:00","2014","12","23","02:00","-6.5","","-7.7","","91","","5","","18","","6.4","","100.88","","","","-13","","Snow"
"2014-12-23 03:00","2014","12","23","03:00","-6.3","","-7.5","","91","","7","","17","","11.3","","100.87","","","","-13","","Snow"
"2014-12-23 04:00","2014","12","23","04:00","-5.9","","-7.0","","92","","6","","14","","4.8","","100.83","","","","-11","","Snow"
"2014-12-23 05:00","2014","12","23","05:00","-5.5","","-6.6","","92","","6","","12","","2.4","","100.78","","","","-10","","Snow,Fog"
"2014-12-23 06:00","2014","12","23","06:00","-5.1","","-6.1","","93","","5","","16","","6.4","","100.75","","","","-11","","Snow,Fog"
"2014-12-23 07:00","2014","12","23","07:00","-4.6","","-5.4","","94","","6","","14","","6.4","","100.74","","","","-10","","Snow,Fog"
"2014-12-23 08:00","2014","12","23","08:00","-4.0","","-4.7","","95","","7","","15","","4.8","","100.73","","","","-9","","Snow,Fog"
"2014-12-23 09:00","2014","12","23","09:00","-3.4","","-3.8","","97","","5","","14","","4.0","","100.73","","","","-8","","Snow,Fog"
"2014-12-23 10:00","2014","12","23","10:00","-2.4","","-2.8","","97","","6","","17","","3.2","","100.71","","","","-8","","Snow,Fog"
"2014-12-23 11:00","2014","12","23","11:00","-1.8","","-2.2","","97","","7","","16","","3.2","","100.63","","","","-7","","Snow,Fog"
"2014-12-23 12:00","2014","12","23","12:00","-1.2","","-1.8","","96","","7","","14","","1.6","","100.56","","","","-6","","Freezing Drizzle,Fog"
"2014-12-23 13:00","2014","12","23","13:00","-0.7","","-1.1","","97","","6","","16","","3.2","","100.48","","","","-5","","Freezing Drizzle,Fog"
"2014-12-23 14:00","2014","12","23","14:00","-0.3","","-0.7","","97","","7","","16","","3.2","","100.47","","","","-5","","Freezing Drizzle,Fog"
"2014-12-23 15:00","2014","12","23","15:00","-0.1","","-0.4","","98","","6","","16","","2.4","","100.42","","","","-5","","Freezing Drizzle,Fog"
"2014-12-23 16:00","2014","12","23","16:00","0.1","","0.0","","99","","7","","18","","1.6","","100.45","","","","","","Freezing Drizzle,Fog"
"2014-12-23 17:00","2014","12","23","17:00","0.2","","0.1","","99","","7","","20","","2.0","","100.43","","","","","","Drizzle,Fog"
"2014-12-23 18:00","2014","12","23","18:00","0.3","","0.2","","99","","7","","13","","3.2","","100.42","","","","","","Drizzle,Fog"
"2014-12-23 19:00","2014","12","23","19:00","0.5","","0.4","","99","","8","","19","","2.4","","100.35","","","","","","Fog"
"2014-12-23 20:00","2014","12","23","20:00","0.7","","0.6","","99","","8","","18","","2.4","","100.40","","","","","","Drizzle,Fog"
"2014-12-23 21:00","2014","12","23","21:00","0.8","","0.7","","99","","8","","19","","2.0","","100.33","","","","","","Drizzle,Fog"
"2014-12-23 22:00","2014","12","23","22:00","0.8","","0.7","","99","","9","","14","","2.0","","100.28","","","","","","Drizzle,Fog"
"2014-12-23 23:00","2014","12","23","23:00","0.9","","0.8","","99","","8","","19","","2.0","","100.22","","","","","","Drizzle,Fog"
"2014-12-24 00:00","2014","12","24","00:00","1.1","","1.0","","99","","8","","17","","2.4","","100.21","","","","","","Drizzle,Fog"
"2014-12-24 01:00","2014","12","24","01:00","1.1","","1.0","","99","","8","","19","","2.0","","100.14","","","","","","Drizzle,Fog"
"2014-12-24 02:00","2014","12","24","02:00","1.1","","1.0","","99","","7","","19","","2.4","","100.07","","","","","","Fog"
"2014-12-24 03:00","2014","12","24","03:00","1.0","","1.0","","100","","6","","9","","1.2","","100.08","","","","","","Fog"
"2014-12-24 04:00","2014","12","24","04:00","0.9","","0.9","","100","","8","","12","","0.8","","100.01","","","","","","Fog"
"2014-12-24 05:00","2014","12","24","05:00","1.1","","1.1","","100","","7","","17","","1.2","","99.89","","","","","","Rain,Fog"
"2014-12-24 06:00","2014","12","24","06:00","1.2","","1.2","","100","","8","","13","","1.6","","99.79","","","","","","Fog"
"2014-12-24 07:00","2014","12","24","07:00","1.4","","1.4","","100","","9","","14","","4.0","","99.71","","","","","","Rain,Fog"
"2014-12-24 08:00","2014","12","24","08:00","1.6","","1.6","","100","","9","","17","","3.2","","99.63","","","","","","Rain,Fog"
"2014-12-24 09:00","2014","12","24","09:00","1.7","","1.6","","99","","8","","19","","4.0","","99.51","","","","","","Rain,Fog"
"2014-12-24 10:00","2014","12","24","10:00","1.6","","1.5","","99","","5","","12","","2.4","","99.44","","","","","","Rain,Fog"
"2014-12-24 11:00","2014","12","24","11:00","1.7","","1.7","","100","","3","","15","","1.2","","99.38","","","","","","Rain,Fog"
"2014-12-24 12:00","2014","12","24","12:00","1.6","","1.6","","100","","5","","17","","2.4","","99.23","","","","","","Rain,Fog"
"2014-12-24 13:00","2014","12","24","13:00","2.3","","2.3","","100","","5","","16","","4.0","","99.07","","","","","","Rain,Fog"
"2014-12-24 14:00","2014","12","24","14:00","2.5","","2.5","","100","","7","","13","","3.2","","98.98","","","","","","Rain,Fog"
"2014-12-24 15:00","2014","12","24","15:00","2.7","","2.7","","100","","8","","14","","1.6","","98.89","","","","","","Drizzle,Fog"
"2014-12-24 16:00","2014","12","24","16:00","2.7","","2.7","","100","","9","","20","","1.2","","98.73","","","","","","Drizzle,Fog"
"2014-12-24 17:00","2014","12","24","17:00","2.7","","2.7","","100","","7","","11","","1.2","","98.68","","","","","","Drizzle,Fog"
"2014-12-24 18:00","2014","12","24","18:00","2.7","","2.7","","100","","7","","16","","0.4","","98.52","","","","","","Drizzle,Fog"
"2014-12-24 19:00","2014","12","24","19:00","2.8","","2.8","","100","","8","","18","","0.4","","98.38","","","","","","Fog"
"2014-12-24 20:00","2014","12","24","20:00","2.9","","2.9","","100","","7","","10","","0.8","","98.32","","","","","","Drizzle,Fog"
"2014-12-24 21:00","2014","12","24","21:00","2.7","","2.7","","100","","6","","9","","1.2","","98.23","","","","","","Fog"
"2014-12-24 22:00","2014","12","24","22:00","2.6","","2.6","","100","","9","","16","","1.2","","98.07","","","","","","Fog"
"2014-12-24 23:00","2014","12","24","23:00","3.0","","3.0","","100","","10","","22","","0.8","","97.87","","","","","","Fog"
"2014-12-25 00:00","2014","12","25","00:00","2.5","","2.5","","100","","9","","22","","0.4","","97.71","","","","","","Fog"
"2014-12-25 01:00","2014","12","25","01:00","2.5","","2.5","","100","","11","","11","","0.4","","97.62","","","","","","Thunderstorms,Fog"
"2014-12-25 02:00","2014","12","25","02:00","4.4","","4.4","","100","","15","","13","","6.4","","97.58","","","","","","Rain,Fog"
"2014-12-25 03:00","2014","12","25","03:00","7.3","","7.0","","98","","20","","25","","24.1","","97.58","","","","","","Rain"
"2014-12-25 04:00","2014","12","25","04:00","5.9","","2.9","","81","","21","","36","","24.1","","97.67","","","","","","Cloudy"
"2014-12-25 05:00","2014","12","25","05:00","4.5","","1.0","","78","","21","","45","","24.1","","97.72","","","","","","NA"
"2014-12-25 06:00","2014","12","25","06:00","4.3","","0.6","","77","","22","","41","","24.1","","97.82","","","","","","NA"
"2014-12-25 07:00","2014","12","25","07:00","4.5","","0.5","","75","","21","","35","","24.1","","97.81","","","","","","Mostly Cloudy"
"2014-12-25 08:00","2014","12","25","08:00","4.6","","0.2","","73","","22","","40","","24.1","","97.91","","","","","","NA"
"2014-12-25 09:00","2014","12","25","09:00","4.7","","-0.1","","71","","23","","43","","24.1","","98.10","","","","","","NA"
"2014-12-25 10:00","2014","12","25","10:00","5.0","","0.0","","70","","23","","35","","24.1","","98.31","","","","","","Mostly Cloudy"
"2014-12-25 11:00","2014","12","25","11:00","5.5","","0.1","","68","","23","","36","","24.1","","98.38","","","","","","NA"
"2014-12-25 12:00","2014","12","25","12:00","5.3","","-0.1","","68","","24","","35","","24.1","","98.48","","","","","","NA"
"2014-12-25 13:00","2014","12","25","13:00","5.5","","0.9","","72","","24","","34","","24.1","","98.58","","","","","","Mostly Cloudy"
"2014-12-25 14:00","2014","12","25","14:00","4.8","","0.8","","75","","25","","37","","24.1","","98.73","","","","","","Rain Showers"
"2014-12-25 15:00","2014","12","25","15:00","3.4","","1.1","","85","","26","","27","","24.1","","98.96","","","","","","Rain Showers"
"2014-12-25 16:00","2014","12","25","16:00","4.0","","-1.8","","66","","26","","40","","24.1","","99.14","","","","","","Mostly Cloudy"
"2014-12-25 17:00","2014","12","25","17:00","3.4","","-1.9","","68","","26","","26","","24.1","","99.36","","","","","","NA"
"2014-12-25 18:00","2014","12","25","18:00","3.2","","-1.6","","71","","24","","29","","24.1","","99.50","","","","","","NA"
"2014-12-25 19:00","2014","12","25","19:00","3.4","","-2.4","","66","","24","","26","","24.1","","99.64","","","","","","Cloudy"
"2014-12-25 20:00","2014","12","25","20:00","3.0","","-1.4","","73","","22","","25","","24.1","","99.74","","","","","","NA"
"2014-12-25 21:00","2014","12","25","21:00","3.0","","-1.0","","75","","23","","28","","24.1","","99.83","","","","","","NA"
"2014-12-25 22:00","2014","12","25","22:00","3.1","","-0.9","","75","","24","","21","","24.1","","99.89","","","","","","Cloudy"
"2014-12-25 23:00","2014","12","25","23:00","3.0","","-1.0","","75","","22","","31","","24.1","","99.97","","","","","","NA"
"2014-12-26 00:00","2014","12","26","00:00","3.0","","-1.2","","74","","23","","29","","24.1","","100.05","","","","","","NA"
"2014-12-26 01:00","2014","12","26","01:00","2.3","","-1.0","","79","","23","","23","","24.1","","100.10","","","","","","Mainly Clear"
"2014-12-26 02:00","2014","12","26","02:00","2.0","","-0.9","","81","","23","","19","","24.1","","100.20","","","","","","NA"
"2014-12-26 03:00","2014","12","26","03:00","2.3","","-0.6","","81","","23","","18","","24.1","","100.26","","","","","","NA"
"2014-12-26 04:00","2014","12","26","04:00","2.4","","-0.9","","79","","22","","23","","24.1","","100.30","","","","","","Cloudy"
"2014-12-26 05:00","2014","12","26","05:00","2.3","","-0.8","","80","","23","","21","","24.1","","100.33","","","","","","NA"
"2014-12-26 06:00","2014","12","26","06:00","2.4","","-0.7","","80","","22","","19","","24.1","","100.38","","","","","","NA"
"2014-12-26 07:00","2014","12","26","07:00","2.6","","-0.7","","79","","23","","23","","24.1","","100.48","","","","","","Cloudy"
"2014-12-26 08:00","2014","12","26","08:00","2.6","","-0.7","","79","","23","","20","","24.1","","100.56","","","","","","NA"
"2014-12-26 09:00","2014","12","26","09:00","2.8","","-0.7","","78","","23","","18","","24.1","","100.60","","","","","","NA"
"2014-12-26 10:00","2014","12","26","10:00","4.1","","-0.5","","72","","22","","24","","24.1","","100.61","","","","","","Mostly Cloudy"
"2014-12-26 11:00","2014","12","26","11:00","5.2","","-0.4","","67","","23","","25","","24.1","","100.59","","","","","","NA"
"2014-12-26 12:00","2014","12","26","12:00","4.3","","-0.9","","69","","23","","23","","24.1","","100.56","","","","","","NA"
"2014-12-26 13:00","2014","12","26","13:00","4.9","","-0.7","","67","","23","","16","","24.1","","100.48","","","","","","Mostly Cloudy"
"2014-12-26 14:00","2014","12","26","14:00","5.8","","-1.4","","60","","23","","21","","24.1","","100.50","","","","","","NA"
"2014-12-26 15:00","2014","12","26","15:00","5.2","","-1.3","","63","","23","","21","","24.1","","100.48","","","","","","NA"
"2014-12-26 16:00","2014","12","26","16:00","4.3","","-1.1","","68","","22","","10","","24.1","","100.47","","","","","","Mostly Cloudy"
"2014-12-26 17:00","2014","12","26","17:00","3.9","","-0.7","","72","","22","","22","","24.1","","100.51","","","","","","NA"
"2014-12-26 18:00","2014","12","26","18:00","3.7","","-0.3","","75","","23","","17","","24.1","","100.56","","","","","","NA"
"2014-12-26 19:00","2014","12","26","19:00","3.4","","0.1","","79","","21","","12","","24.1","","100.55","","","","","","Cloudy"
"2014-12-26 20:00","2014","12","26","20:00","3.2","","0.4","","82","","23","","12","","24.1","","100.58","","","","","","NA"
"2014-12-26 21:00","2014","12","26","21:00","3.2","","0.6","","83","","24","","10","","24.1","","100.57","","","","","","NA"
"2014-12-26 22:00","2014","12","26","22:00","3.2","","0.8","","84","","23","","13","","24.1","","100.58","","","","","","Cloudy"
"2014-12-26 23:00","2014","12","26","23:00","2.6","","0.7","","87","","22","","16","","24.1","","100.55","","","","","","NA"
"2014-12-27 00:00","2014","12","27","00:00","1.9","","0.3","","89","","23","","12","","24.1","","100.55","","","","","","NA"
"2014-12-27 01:00","2014","12","27","01:00","1.1","","-0.1","","92","","23","","9","","24.1","","100.52","","","","","","Mostly Cloudy"
"2014-12-27 02:00","2014","12","27","02:00","0.1","","-0.6","","95","","33","","3","","24.1","","100.58","","","","","","NA"
"2014-12-27 03:00","2014","12","27","03:00","1.3","","0.3","","93","","25","","5","","24.1","","100.63","","","","","","NA"
"2014-12-27 04:00","2014","12","27","04:00","1.5","","0.5","","93","","24","","6","","24.1","","100.64","","","","","","Mostly Cloudy"
"2014-12-27 05:00","2014","12","27","05:00","1.5","","0.5","","93","","22","","5","","24.1","","100.68","","","","","","NA"
"2014-12-27 06:00","2014","12","27","06:00","1.3","","0.4","","94","","22","","8","","24.1","","100.69","","","","","","NA"
"2014-12-27 07:00","2014","12","27","07:00","1.6","","0.6","","93","","20","","8","","24.1","","100.72","","","","","","Cloudy"
"2014-12-27 08:00","2014","12","27","08:00","1.9","","0.6","","91","","19","","5","","24.1","","100.71","","","","","","NA"
"2014-12-27 09:00","2014","12","27","09:00","2.3","","1.0","","91","","17","","5","","24.1","","100.70","","","","","","NA"
"2014-12-27 10:00","2014","12","27","10:00","2.7","","1.1","","89","","19","","6","","24.1","","100.73","","","","","","Cloudy"
"2014-12-27 11:00","2014","12","27","11:00","3.2","","0.9","","85","","17","","5","","24.1","","100.65","","","","","","NA"
"2014-12-27 12:00","2014","12","27","12:00","4.3","","1.2","","80","","16","","10","","24.1","","100.42","","","","","","NA"
"2014-12-27 13:00","2014","12","27","13:00","4.4","","1.4","","81","","17","","7","","24.1","","100.45","","","","","","Cloudy"
"2014-12-27 14:00","2014","12","27","14:00","4.4","","1.4","","81","","16","","10","","16.1","","100.33","","","","","","NA"
"2014-12-27 15:00","2014","12","27","15:00","4.2","","1.6","","83","","12","","9","","16.1","","100.21","","","","","","NA"
"2014-12-27 16:00","2014","12","27","16:00","4.0","","1.7","","85","","14","","11","","24.1","","100.16","","","","","","Cloudy"
"2014-12-27 17:00","2014","12","27","17:00","3.8","","2.5","","91","","14","","12","","16.1","","100.09","","","","","","Rain"
"2014-12-27 18:00","2014","12","27","18:00","3.5","","3.1","","97","","13","","14","","16.1","","99.98","","","","","","Rain"
"2014-12-27 19:00","2014","12","27","19:00","4.3","","3.6","","95","","14","","13","","8.1","","99.79","","","","","","Fog"
"2014-12-27 20:00","2014","12","27","20:00","4.8","","3.8","","93","","16","","13","","16.1","","99.64","","","","","","NA"
"2014-12-27 21:00","2014","12","27","21:00","6.2","","3.9","","85","","18","","20","","24.1","","99.53","","","","","","NA"
"2014-12-27 22:00","2014","12","27","22:00","6.8","","4.1","","83","","20","","14","","24.1","","99.49","","","","","","Cloudy"
"2014-12-27 23:00","2014","12","27","23:00","8.3","","5.1","","80","","21","","25","","24.1","","99.41","","","","","","NA"
"2014-12-28 00:00","2014","12","28","00:00","7.9","","5.4","","84","","20","","20","","24.1","","99.29","","","","","","NA"
"2014-12-28 01:00","2014","12","28","01:00","7.7","","6.0","","89","","21","","18","","24.1","","99.25","","","","","","Rain"
"2014-12-28 02:00","2014","12","28","02:00","7.9","","6.2","","89","","22","","19","","24.1","","99.17","","","","","","NA"
"2014-12-28 03:00","2014","12","28","03:00","7.8","","5.8","","87","","24","","22","","24.1","","99.17","","","","","","NA"
"2014-12-28 04:00","2014","12","28","04:00","6.5","","1.6","","71","","26","","32","","24.1","","99.21","","","","","","Cloudy"
"2014-12-28 05:00","2014","12","28","05:00","5.7","","0.7","","70","","28","","29","","24.1","","99.25","","","","","","NA"
"2014-12-28 06:00","2014","12","28","06:00","4.4","","-1.2","","67","","26","","27","","24.1","","99.35","","","","","","NA"
"2014-12-28 07:00","2014","12","28","07:00","3.6","","-1.8","","68","","27","","22","","24.1","","99.43","","","","","","Mostly Cloudy"
"2014-12-28 08:00","2014","12","28","08:00","2.7","","-2.2","","70","","27","","23","","24.1","","99.54","","","","","","NA"
"2014-12-28 09:00","2014","12","28","09:00","2.8","","-1.9","","71","","27","","24","","24.1","","99.65","","","","","","NA"
"2014-12-28 10:00","2014","12","28","10:00","2.2","","-2.9","","69","","29","","27","","24.1","","99.76","","","","","","Mostly Cloudy"
"2014-12-28 11:00","2014","12","28","11:00","1.7","","-4.4","","64","","28","","28","","24.1","","99.76","","","","","","NA"
"2014-12-28 12:00","2014","12","28","12:00","1.7","","-4.8","","62","","29","","25","","24.1","","99.78","","","","","","NA"
"2014-12-28 13:00","2014","12","28","13:00","1.0","","-5.5","","62","","28","","29","","24.1","","99.83","","","","","","Mostly Cloudy"
"2014-12-28 14:00","2014","12","28","14:00","1.4","","-5.5","","60","","27","","21","","24.1","","99.87","","","","","","NA"
"2014-12-28 15:00","2014","12","28","15:00","1.5","","-8.4","","48","","29","","21","","24.1","","99.94","","","","","","NA"
"2014-12-28 16:00","2014","12","28","16:00","0.0","","-9.5","","49","","29","","22","","24.1","","100.02","","","","-6","","Mainly Clear"
"2014-12-28 17:00","2014","12","28","17:00","-1.5","","-9.2","","56","","30","","15","","24.1","","100.04","","","","-6","","NA"
"2014-12-28 18:00","2014","12","28","18:00","-2.9","","-9.2","","62","","26","","9","","24.1","","100.14","","","","-6","","NA"
"2014-12-28 19:00","2014","12","28","19:00","-2.0","","-8.6","","61","","23","","7","","24.1","","100.15","","","","-5","","Mainly Clear"
"2014-12-28 20:00","2014","12","28","20:00","-2.6","","-7.9","","67","","19","","7","","24.1","","100.17","","","","-5","","NA"
"2014-12-28 21:00","2014","12","28","21:00","-2.4","","-7.2","","70","","18","","7","","24.1","","100.16","","","","-5","","NA"
"2014-12-28 22:00","2014","12","28","22:00","-1.8","","-7.0","","68","","23","","14","","24.1","","100.13","","","","-6","","Mostly Cloudy"
"2014-12-28 23:00","2014","12","28","23:00","-1.5","","-7.3","","65","","25","","18","","24.1","","100.17","","","","-7","","NA"
"2014-12-29 00:00","2014","12","29","00:00","-1.4","","-6.8","","67","","25","","11","","24.1","","100.18","","","","-5","","NA"
"2014-12-29 01:00","2014","12","29","01:00","-1.1","","-7.5","","62","","30","","26","","24.1","","100.25","","","","-7","","Mostly Cloudy"
"2014-12-29 02:00","2014","12","29","02:00","-2.9","","-8.4","","66","","30","","23","","24.1","","100.39","","","","-9","","NA"
"2014-12-29 03:00","2014","12","29","03:00","-5.1","","-10.7","","65","","31","","24","","24.1","","100.53","","","","-12","","NA"
"2014-12-29 04:00","2014","12","29","04:00","-6.2","","-12.2","","63","","31","","26","","24.1","","100.64","","","","-14","","Mainly Clear"
"2014-12-29 05:00","2014","12","29","05:00","-7.5","","-13.8","","61","","31","","26","","24.1","","100.70","","","","-16","","NA"
"2014-12-29 06:00","2014","12","29","06:00","-8.6","","-15.0","","60","","32","","25","","24.1","","100.80","","","","-17","","NA"
"2014-12-29 07:00","2014","12","29","07:00","-9.6","","-15.6","","62","","31","","22","","24.1","","100.86","","","","-18","","Mainly Clear"
"2014-12-29 08:00","2014","12","29","08:00","-9.8","","-15.8","","62","","30","","17","","24.1","","100.91","","","","-17","","NA"
"2014-12-29 09:00","2014","12","29","09:00","-9.3","","-15.9","","59","","30","","23","","24.1","","101.03","","","","-18","","NA"
"2014-12-29 10:00","2014","12","29","10:00","-8.4","","-15.5","","57","","30","","22","","24.1","","101.04","","","","-16","","Mainly Clear"
"2014-12-29 11:00","2014","12","29","11:00","-8.1","","-15.4","","56","","29","","28","","24.1","","101.02","","","","-17","","NA"
"2014-12-29 12:00","2014","12","29","12:00","-7.5","","-15.5","","53","","27","","25","","24.1","","101.01","","","","-16","","NA"
"2014-12-29 13:00","2014","12","29","13:00","-7.4","","-15.7","","52","","28","","23","","24.1","","100.96","","","","-15","","Mostly Cloudy"
"2014-12-29 14:00","2014","12","29","14:00","-7.4","","-15.7","","52","","28","","22","","24.1","","100.95","","","","-15","","NA"
"2014-12-29 15:00","2014","12","29","15:00","-6.8","","-15.1","","52","","29","","17","","24.1","","100.99","","","","-13","","NA"
"2014-12-29 16:00","2014","12","29","16:00","-7.3","","-15.1","","54","","27","","15","","24.1","","101.01","","","","-13","","Cloudy"
"2014-12-29 17:00","2014","12","29","17:00","-7.8","","-15.1","","56","","28","","14","","24.1","","101.04","","","","-14","","NA"
"2014-12-29 18:00","2014","12","29","18:00","-8.2","","-15.5","","56","","28","","17","","24.1","","101.08","","","","-15","","NA"
"2014-12-29 19:00","2014","12","29","19:00","-8.8","","-15.7","","58","","28","","13","","24.1","","101.12","","","","-15","","Mainly Clear"
"2014-12-29 20:00","2014","12","29","20:00","-8.9","","-15.5","","59","","29","","13","","24.1","","101.16","","","","-15","","NA"
"2014-12-29 21:00","2014","12","29","21:00","-10.1","","-15.7","","64","","31","","16","","24.1","","101.20","","","","-17","","NA"
"2014-12-29 22:00","2014","12","29","22:00","-10.5","","-17.3","","58","","32","","16","","24.1","","101.24","","","","-18","","Clear"
"2014-12-29 23:00","2014","12","29","23:00","-11.2","","-18.6","","55","","33","","16","","24.1","","101.31","","","","-18","","NA"
"2014-12-30 00:00","2014","12","30","00:00","-12.0","","-20.2","","51","","33","","16","","24.1","","101.34","","","","-19","","NA"
"2014-12-30 01:00","2014","12","30","01:00","-12.5","","-21.2","","49","","33","","22","","24.1","","101.36","","","","-21","","Clear"
"2014-12-30 02:00","2014","12","30","02:00","-13.3","","-21.2","","52","","32","","14","","24.1","","101.43","","","","-21","","NA"
"2014-12-30 03:00","2014","12","30","03:00","-13.7","","-20.9","","55","","33","","17","","24.1","","101.47","","","","-22","","NA"
"2014-12-30 04:00","2014","12","30","04:00","-14.3","","-20.5","","60","","32","","13","","24.1","","101.52","","","","-21","","Clear"
"2014-12-30 05:00","2014","12","30","05:00","-15.3","","-20.5","","65","","30","","12","","24.1","","101.55","","","","-22","","NA"
"2014-12-30 06:00","2014","12","30","06:00","-15.9","","-21.4","","63","","30","","14","","24.1","","101.59","","","","-24","","NA"
"2014-12-30 07:00","2014","12","30","07:00","-16.2","","-21.4","","65","","31","","16","","24.1","","101.63","","","","-25","","Clear"
"2014-12-30 08:00","2014","12","30","08:00","-16.3","","-21.5","","65","","31","","12","","24.1","","101.67","","","","-24","","NA"
"2014-12-30 09:00","2014","12","30","09:00","-15.2","","-21.3","","60","","31","","15","","24.1","","101.72","","","","-23","","NA"
"2014-12-30 10:00","2014","12","30","10:00","-14.4","","-21.6","","55","","28","","18","","24.1","","101.78","","","","-23","","Clear"
"2014-12-30 11:00","2014","12","30","11:00","-13.6","","-20.6","","56","","28","","13","","24.1","","101.75","","","","-21","","NA"
"2014-12-30 12:00","2014","12","30","12:00","-12.9","","-21.3","","50","","28","","17","","24.1","","101.64","","","","-21","","NA"
"2014-12-30 13:00","2014","12","30","13:00","-11.9","","-20.4","","50","","27","","16","","24.1","","101.54","","","","-19","","Clear"
"2014-12-30 14:00","2014","12","30","14:00","-11.2","","-21.0","","45","","26","","19","","24.1","","101.50","","","","-19","","NA"
"2014-12-30 15:00","2014","12","30","15:00","-10.5","","-20.8","","43","","27","","17","","24.1","","101.48","","","","-18","","NA"
"2014-12-30 16:00","2014","12","30","16:00","-11.1","","-20.6","","46","","27","","22","","24.1","","101.47","","","","-20","","Clear"
"2014-12-30 17:00","2014","12","30","17:00","-11.8","","-19.8","","52","","28","","16","","24.1","","101.46","","","","-19","","NA"
"2014-12-30 18:00","2014","12","30","18:00","-11.7","","-19.7","","52","","27","","12","","24.1","","101.43","","","","-18","","NA"
"2014-12-30 19:00","2014","12","30","19:00","-12.0","","-18.7","","58","","25","","10","","24.1","","101.43","","","","-18","","Cloudy"
"2014-12-30 20:00","2014","12","30","20:00","-12.7","","-19.6","","57","","27","","12","","24.1","","101.42","","","","-19","","NA"
"2014-12-30 21:00","2014","12","30","21:00","-13.3","","-18.8","","64","","26","","7","","24.1","","101.37","","","","-18","","NA"
"2014-12-30 22:00","2014","12","30","22:00","-13.6","","-18.7","","66","","29","","7","","24.1","","101.32","","","","-18","","Mainly Clear"
"2014-12-30 23:00","2014","12","30","23:00","-14.2","","-18.7","","69","","21","","5","","24.1","","101.26","","","","-18","","NA"
"2014-12-31 00:00","2014","12","31","00:00","-14.4","","-18.1","","74","","22","","6","","24.1","","101.15","","","","-19","","NA"
"2014-12-31 01:00","2014","12","31","01:00","-14.5","","-18.5","","72","","20","","5","","24.1","","101.07","","","","-18","","Mostly Cloudy"
"2014-12-31 02:00","2014","12","31","02:00","-13.7","","-17.7","","72","","25","","3","","24.1","","101.08","","","","-16","","NA"
"2014-12-31 03:00","2014","12","31","03:00","-12.9","","-16.0","","78","","21","","5","","24.1","","101.10","","","","-16","","NA"
"2014-12-31 04:00","2014","12","31","04:00","-12.5","","-14.7","","84","","24","","3","","11.3","","101.05","","","","-14","","Snow"
"2014-12-31 05:00","2014","12","31","05:00","-12.5","","-14.2","","87","","24","","10","","12.9","","100.99","","","","-18","","Snow"
"2014-12-31 06:00","2014","12","31","06:00","-12.1","","-14.1","","85","","27","","12","","4.8","","101.01","","","","-18","","Snow"
"2014-12-31 07:00","2014","12","31","07:00","-14.7","","-16.4","","87","","28","","10","","24.1","","101.03","","","","-21","","Clear"
"2014-12-31 08:00","2014","12","31","08:00","-14.3","","-15.9","","88","","25","","8","","24.1","","101.04","","","","-20","","NA"
"2014-12-31 09:00","2014","12","31","09:00","-12.1","","-15.2","","78","","25","","9","","24.1","","101.06","","","","-17","","NA"
"2014-12-31 10:00","2014","12","31","10:00","-10.7","","-15.2","","70","","23","","17","","24.1","","101.08","","","","-18","","Clear"
"2014-12-31 11:00","2014","12","31","11:00","-9.2","","-15.0","","63","","24","","18","","24.1","","100.99","","","","-16","","NA"
"2014-12-31 12:00","2014","12","31","12:00","-8.0","","-14.9","","58","","23","","15","","24.1","","100.83","","","","-14","","NA"
"2014-12-31 13:00","2014","12","31","13:00","-7.5","","-15.5","","53","","22","","22","","24.1","","100.68","","","","-15","","Mostly Cloudy"
"2014-12-31 14:00","2014","12","31","14:00","-6.9","","-14.3","","56","","21","","22","","24.1","","100.59","","","","-14","","NA"
"2014-12-31 15:00","2014","12","31","15:00","-6.7","","-14.1","","56","","24","","25","","24.1","","100.51","","","","-15","","NA"
"2014-12-31 16:00","2014","12","31","16:00","-7.0","","-13.7","","59","","23","","17","","24.1","","100.40","","","","-13","","Mostly Cloudy"
"2014-12-31 17:00","2014","12","31","17:00","-7.3","","-14.9","","55","","22","","25","","24.1","","100.33","","","","-15","","NA"
"2014-12-31 18:00","2014","12","31","18:00","-7.6","","-16.1","","51","","22","","27","","24.1","","100.28","","","","-16","","NA"
"2014-12-31 19:00","2014","12","31","19:00","-7.8","","-15.4","","55","","22","","21","","24.1","","100.22","","","","-15","","Cloudy"
"2014-12-31 20:00","2014","12","31","20:00","-7.9","","-15.0","","57","","22","","28","","24.1","","100.14","","","","-17","","NA"
"2014-12-31 21:00","2014","12","31","21:00","-8.1","","-15.2","","57","","22","","27","","24.1","","100.07","","","","-17","","NA"
"2014-12-31 22:00","2014","12","31","22:00","-8.0","","-15.6","","55","","22","","30","","24.1","","99.93","","","","-17","","Cloudy"
"2014-12-31 23:00","2014","12","31","23:00","-7.5","","-15.5","","53","","22","","33","","24.1","","99.84","","","","-17","","NA"
