"Station Name","OTTAWA MACDONALD-CARTIER INT'L A"
"Province","ONTARIO"
"Latitude","45.32"
"Longitude","-75.67"
"Elevation","114.00"
"Climate Identifier","6106000"
"WMO Identifier","71628"
"TC Identifier","YOW"
"All times are specified in Local Standard Time (LST). Add 1 hour to adjust for Daylight Saving Time where and when it is observed."

"Legend"
"E","Estimated"
"M","Missing"
"NA","Not Available"

"Date/Time","Year","Month","Day","Time","Temp (°C)","Temp Flag","Dew Point Temp (°C)","Dew Point Temp Flag","Rel Hum (%)","Rel Hum Flag","Wind Dir (10s deg)","Wind Dir Flag","Wind Spd (km/h)","Wind Spd Flag","Visibility (km)","Visibility Flag","Stn Press (kPa)","Stn Press Flag","Hmdx","Hmdx Flag","Wind Chill","Wind Chill Flag","Weather"
"1998-07-01 00:00","1998","07","01","00:00","16.2","","15.2","","94","","30","","13","","9.7","","98.15","","","","","","Rain Showers,Fog"
"1998-07-01 01:00","1998","07","01","01:00","16.2","","15.4","","95","","28","","13","","8.0","","98.12","","","","","","Rain,Fog"
"1998-07-01 02:00","1998","07","01","02:00","15.8","","15.2","","96","","29","","9","","8.0","","98.15","","","","","","Rain,Fog"
"1998-07-01 03:00","1998","07","01","03:00","15.3","","14.9","","97","","26","","11","","16.1","","98.15","","","","","","Rain"
"1998-07-01 04:00","1998","07","01","04:00","15.0","","14.7","","98","","25","","9","","16.1","","98.22","","","","","","Rain"
"1998-07-01 05:00","1998","07","01","05:00","15.1","","14.9","","99","","28","","9","","32.2","","98.28","","","","","","Cloudy"
"1998-07-01 06:00","1998","07","01","06:00","15.5","","15.3","","99","","26","","4","","6.4","","98.35","","","","","","Drizzle,Fog"
"1998-07-01 07:00","1998","07","01","07:00","15.9","","15.3","","96","","3","","13","","12.9","","98.49","","","","","","Rain"
"1998-07-01 08:00","1998","07","01","08:00","15.2","","14.6","","96","","9","","11","","9.7","","98.62","","","","","","Rain,Fog"
"1998-07-01 09:00","1998","07","01","09:00","15.3","","15.1","","99","","5","","11","","6.4","","98.75","","","","","","Rain,Fog"
"1998-07-01 10:00","1998","07","01","10:00","15.5","","15.0","","97","","5","","7","","3.2","","98.85","","","","","","Rain,Drizzle,Fog"
"1998-07-01 11:00","1998","07","01","11:00","15.0","","14.4","","96","","1","","19","","4.8","","98.95","","","","","","Moderate Rain,Fog"
"1998-07-01 12:00","1998","07","01","12:00","15.2","","14.8","","97","","34","","17","","4.8","","99.05","","","","","","Rain,Fog"
"1998-07-01 13:00","1998","07","01","13:00","15.8","","14.6","","93","","33","","17","","24.1","","99.12","","","","","","Rain"
"1998-07-01 14:00","1998","07","01","14:00","16.5","","14.5","","88","","33","","19","","32.2","","99.19","","","","","","Cloudy"
"1998-07-01 15:00","1998","07","01","15:00","17.5","","13.9","","79","","36","","19","","32.2","","99.26","","","","","","Cloudy"
"1998-07-01 16:00","1998","07","01","16:00","17.5","","13.9","","79","","32","","13","","32.2","","99.32","","","","","","Mostly Cloudy"
"1998-07-01 17:00","1998","07","01","17:00","18.7","","13.4","","71","","36","","17","","32.2","","99.42","","","","","","Mostly Cloudy"
"1998-07-01 18:00","1998","07","01","18:00","19.4","","13.2","","67","","36","","13","","40.2","","99.49","","","","","","Mainly Clear"
"1998-07-01 19:00","1998","07","01","19:00","19.3","","13.3","","68","","1","","4","","40.2","","99.56","","","","","","Mainly Clear"
"1998-07-01 20:00","1998","07","01","20:00","18.0","","13.0","","73","","25","","4","","40.2","","99.62","","","","","","Mainly Clear"
"1998-07-01 21:00","1998","07","01","21:00","17.1","","12.7","","75","","21","","6","","25.0","","99.69","","","","","","Mainly Clear"
"1998-07-01 22:00","1998","07","01","22:00","16.0","","13.0","","82","","23","","6","","25.0","","99.69","","","","","","Mainly Clear"
"1998-07-01 23:00","1998","07","01","23:00","15.3","","13.5","","89","","24","","6","","25.0","","99.72","","","","","","Mostly Cloudy"
"1998-07-02 00:00","1998","07","02","00:00","15.6","","13.7","","88","","25","","7","","25.0","","99.72","","","","","","Mostly Cloudy"
"1998-07-02 01:00","1998","07","02","01:00","15.3","","13.4","","88","","26","","7","","25.0","","99.72","","","","","","Mainly Clear"
"1998-07-02 02:00","1998","07","02","02:00","15.0","","13.4","","90","","26","","7","","25.0","","99.72","","","","","","Mainly Clear"
"1998-07-02 03:00","1998","07","02","03:00","13.8","","13.4","","97","","25","","4","","25.0","","99.76","","","","","","Mainly Clear"
"1998-07-02 04:00","1998","07","02","04:00","13.4","","12.8","","96","","24","","7","","32.2","","99.82","","","","","","Mainly Clear"
"1998-07-02 05:00","1998","07","02","05:00","14.2","","13.7","","97","","26","","6","","32.2","","99.89","","","","","","Mainly Clear"
"1998-07-02 06:00","1998","07","02","06:00","15.6","","14.6","","94","","28","","11","","32.2","","99.99","","","","","","Clear"
"1998-07-02 07:00","1998","07","02","07:00","16.8","","14.4","","86","","29","","13","","32.2","","100.06","","","","","","Clear"
"1998-07-02 08:00","1998","07","02","08:00","19.0","","14.8","","77","","28","","9","","32.2","","100.09","","","","","","Clear"
"1998-07-02 09:00","1998","07","02","09:00","21.1","","14.7","","67","","27","","9","","32.2","","100.13","","25","","","","Clear"
"1998-07-02 10:00","1998","07","02","10:00","22.8","","14.5","","59","","30","","9","","32.2","","100.13","","26","","","","Mainly Clear"
"1998-07-02 11:00","1998","07","02","11:00","24.0","","12.4","","48","","27","","13","","32.2","","100.13","","26","","","","Mainly Clear"
"1998-07-02 12:00","1998","07","02","12:00","24.6","","12.6","","47","","25","","6","","32.2","","100.09","","27","","","","Mainly Clear"
"1998-07-02 13:00","1998","07","02","13:00","25.0","","13.3","","48","","33","","6","","32.2","","100.09","","28","","","","Mainly Clear"
"1998-07-02 14:00","1998","07","02","14:00","25.5","","12.4","","44","","29","","6","","32.2","","100.09","","28","","","","Mainly Clear"
"1998-07-02 15:00","1998","07","02","15:00","25.7","","12.5","","44","","26","","13","","32.2","","100.09","","28","","","","Mainly Clear"
"1998-07-02 16:00","1998","07","02","16:00","26.4","","12.4","","42","","29","","11","","32.2","","100.13","","29","","","","Mainly Clear"
"1998-07-02 17:00","1998","07","02","17:00","26.6","","11.2","","38","","25","","13","","32.2","","100.13","","28","","","","Mainly Clear"
"1998-07-02 18:00","1998","07","02","18:00","26.0","","10.4","","38","","26","","13","","40.2","","100.13","","27","","","","Mainly Clear"
"1998-07-02 19:00","1998","07","02","19:00","25.2","","11.1","","41","","26","","4","","40.2","","100.16","","27","","","","Mainly Clear"
"1998-07-02 20:00","1998","07","02","20:00","23.8","","11.1","","45","","22","","4","","32.2","","100.16","","26","","","","Mainly Clear"
"1998-07-02 21:00","1998","07","02","21:00","21.6","","11.9","","54","","18","","6","","25.0","","100.19","","","","","","Mostly Cloudy"
"1998-07-02 22:00","1998","07","02","22:00","20.1","","13.9","","67","","18","","7","","25.0","","100.19","","","","","","Mostly Cloudy"
"1998-07-02 23:00","1998","07","02","23:00","19.0","","14.0","","73","","18","","7","","24.1","","100.23","","","","","","Mostly Cloudy"
"1998-07-03 00:00","1998","07","03","00:00","18.0","","14.0","","77","","18","","6","","24.1","","100.19","","","","","","Mostly Cloudy"
"1998-07-03 01:00","1998","07","03","01:00","17.1","","13.9","","81","","18","","7","","24.1","","100.23","","","","","","Mostly Cloudy"
"1998-07-03 02:00","1998","07","03","02:00","16.3","","13.8","","85","","20","","7","","24.1","","100.23","","","","","","Mostly Cloudy"
"1998-07-03 03:00","1998","07","03","03:00","15.7","","13.7","","88","","19","","7","","24.1","","100.19","","","","","","Mostly Cloudy"
"1998-07-03 04:00","1998","07","03","04:00","15.6","","13.9","","90","","20","","9","","19.3","","100.23","","","","","","Mostly Cloudy"
"1998-07-03 05:00","1998","07","03","05:00","15.7","","13.9","","89","","21","","7","","19.3","","100.26","","","","","","Mostly Cloudy"
"1998-07-03 06:00","1998","07","03","06:00","16.5","","14.6","","89","","21","","4","","19.3","","100.29","","","","","","Mainly Clear"
"1998-07-03 07:00","1998","07","03","07:00","19.4","","15.0","","76","","26","","7","","19.3","","100.29","","","","","","Mainly Clear"
"1998-07-03 08:00","1998","07","03","08:00","21.1","","13.4","","61","","30","","11","","19.3","","100.29","","","","","","Mainly Clear"
"1998-07-03 09:00","1998","07","03","09:00","22.5","","13.5","","57","","22","","6","","24.1","","100.29","","26","","","","Mostly Cloudy"
"1998-07-03 10:00","1998","07","03","10:00","24.2","","13.0","","50","","20","","6","","24.1","","100.26","","27","","","","Mostly Cloudy"
"1998-07-03 11:00","1998","07","03","11:00","24.8","","15.0","","54","","17","","9","","24.1","","100.23","","29","","","","Mostly Cloudy"
"1998-07-03 12:00","1998","07","03","12:00","26.3","","14.0","","47","","22","","11","","24.1","","100.16","","30","","","","Mostly Cloudy"
"1998-07-03 13:00","1998","07","03","13:00","26.1","","13.6","","46","","23","","13","","19.3","","100.16","","29","","","","Cloudy"
"1998-07-03 14:00","1998","07","03","14:00","27.3","","14.4","","45","","24","","13","","19.3","","100.16","","31","","","","Cloudy"
"1998-07-03 15:00","1998","07","03","15:00","27.4","","11.3","","37","","21","","15","","24.1","","100.09","","29","","","","Mostly Cloudy"
"1998-07-03 16:00","1998","07","03","16:00","27.8","","10.4","","34","","21","","9","","24.1","","100.03","","29","","","","Mostly Cloudy"
"1998-07-03 17:00","1998","07","03","17:00","27.4","","14.1","","44","","20","","9","","24.1","","99.99","","31","","","","Mostly Cloudy"
"1998-07-03 18:00","1998","07","03","18:00","25.9","","16.8","","57","","19","","9","","19.3","","100.03","","31","","","","Cloudy"
"1998-07-03 19:00","1998","07","03","19:00","24.7","","16.3","","60","","19","","9","","16.1","","100.03","","30","","","","Mainly Clear"
"1998-07-03 20:00","1998","07","03","20:00","23.1","","15.6","","63","","19","","7","","16.1","","100.03","","27","","","","Mainly Clear"
"1998-07-03 21:00","1998","07","03","21:00","21.9","","14.8","","64","","","","0","","12.9","","100.06","","26","","","","Mostly Cloudy"
"1998-07-03 22:00","1998","07","03","22:00","21.5","","14.1","","63","","19","","6","","16.1","","100.03","","25","","","","Mostly Cloudy"
"1998-07-03 23:00","1998","07","03","23:00","20.4","","14.3","","68","","17","","6","","16.1","","99.99","","","","","","Mostly Cloudy"
"1998-07-04 00:00","1998","07","04","00:00","19.6","","14.2","","71","","21","","6","","19.3","","99.96","","","","","","Mainly Clear"
"1998-07-04 01:00","1998","07","04","01:00","18.8","","14.6","","77","","28","","4","","16.1","","99.89","","","","","","Mostly Cloudy"
"1998-07-04 02:00","1998","07","04","02:00","19.0","","14.8","","77","","22","","6","","16.1","","99.89","","","","","","Cloudy"
"1998-07-04 03:00","1998","07","04","03:00","18.2","","15.4","","84","","26","","7","","12.9","","99.89","","","","","","Rain Showers"
"1998-07-04 04:00","1998","07","04","04:00","17.9","","16.2","","90","","23","","4","","9.7","","99.93","","","","","","Fog"
"1998-07-04 05:00","1998","07","04","05:00","17.9","","16.4","","91","","15","","6","","9.7","","99.89","","","","","","Rain Showers,Fog"
"1998-07-04 06:00","1998","07","04","06:00","17.7","","16.7","","94","","","","0","","9.7","","99.86","","","","","","Fog"
"1998-07-04 07:00","1998","07","04","07:00","18.4","","16.9","","91","","","","0","","4.8","","99.89","","","","","","Rain,Fog"
"1998-07-04 08:00","1998","07","04","08:00","17.8","","16.7","","93","","33","","11","","6.4","","99.96","","","","","","Rain,Fog"
"1998-07-04 09:00","1998","07","04","09:00","17.6","","16.7","","94","","1","","7","","6.4","","99.96","","","","","","Rain,Fog"
"1998-07-04 10:00","1998","07","04","10:00","17.8","","16.8","","94","","1","","9","","8.0","","99.96","","","","","","Rain,Fog"
"1998-07-04 11:00","1998","07","04","11:00","17.2","","16.7","","97","","33","","6","","4.0","","99.99","","","","","","Rain,Fog"
"1998-07-04 12:00","1998","07","04","12:00","18.5","","17.7","","95","","32","","6","","9.7","","99.96","","","","","","Rain,Fog"
"1998-07-04 13:00","1998","07","04","13:00","18.2","","16.7","","91","","32","","13","","9.7","","99.96","","","","","","Rain,Fog"
"1998-07-04 14:00","1998","07","04","14:00","18.0","","16.5","","91","","34","","17","","24.1","","99.96","","","","","","Cloudy"
"1998-07-04 15:00","1998","07","04","15:00","18.3","","16.2","","88","","34","","15","","32.2","","99.96","","","","","","Cloudy"
"1998-07-04 16:00","1998","07","04","16:00","18.6","","15.4","","82","","34","","24","","32.2","","99.99","","","","","","Cloudy"
"1998-07-04 17:00","1998","07","04","17:00","18.9","","15.2","","79","","1","","15","","32.2","","99.96","","","","","","Cloudy"
"1998-07-04 18:00","1998","07","04","18:00","19.3","","14.8","","75","","36","","19","","40.2","","99.99","","","","","","Mostly Cloudy"
"1998-07-04 19:00","1998","07","04","19:00","18.7","","14.7","","78","","1","","6","","40.2","","100.06","","","","","","Mostly Cloudy"
"1998-07-04 20:00","1998","07","04","20:00","17.9","","14.7","","82","","1","","7","","40.2","","100.09","","","","","","Mostly Cloudy"
"1998-07-04 21:00","1998","07","04","21:00","17.6","","12.7","","73","","35","","15","","24.1","","100.09","","","","","","Mainly Clear"
"1998-07-04 22:00","1998","07","04","22:00","16.2","","12.4","","78","","2","","6","","24.1","","100.13","","","","","","Mainly Clear"
"1998-07-04 23:00","1998","07","04","23:00","16.8","","12.3","","75","","35","","9","","24.1","","100.19","","","","","","Mostly Cloudy"
"1998-07-05 00:00","1998","07","05","00:00","16.2","","11.2","","72","","34","","13","","24.1","","100.23","","","","","","Mainly Clear"
"1998-07-05 01:00","1998","07","05","01:00","15.7","","10.7","","72","","35","","13","","24.1","","100.23","","","","","","Clear"
"1998-07-05 02:00","1998","07","05","02:00","15.2","","10.7","","74","","35","","11","","24.1","","100.19","","","","","","Clear"
"1998-07-05 03:00","1998","07","05","03:00","14.7","","11.3","","80","","36","","9","","24.1","","100.19","","","","","","Clear"
"1998-07-05 04:00","1998","07","05","04:00","14.1","","11.2","","83","","33","","9","","40.2","","100.29","","","","","","Clear"
"1998-07-05 05:00","1998","07","05","05:00","14.1","","11.9","","87","","34","","11","","40.2","","100.33","","","","","","Clear"
"1998-07-05 06:00","1998","07","05","06:00","14.7","","11.8","","83","","33","","13","","40.2","","100.43","","","","","","Clear"
"1998-07-05 07:00","1998","07","05","07:00","16.2","","11.2","","72","","34","","17","","40.2","","100.46","","","","","","Clear"
"1998-07-05 08:00","1998","07","05","08:00","17.9","","11.8","","67","","34","","15","","40.2","","100.53","","","","","","Clear"
"1998-07-05 09:00","1998","07","05","09:00","19.8","","11.5","","59","","35","","15","","40.2","","100.53","","","","","","Clear"
"1998-07-05 10:00","1998","07","05","10:00","21.6","","11.3","","52","","32","","15","","40.2","","100.56","","","","","","Mainly Clear"
"1998-07-05 11:00","1998","07","05","11:00","22.1","","9.9","","46","","2","","19","","40.2","","100.56","","","","","","Mainly Clear"
"1998-07-05 12:00","1998","07","05","12:00","22.9","","8.5","","40","","3","","17","","40.2","","100.53","","","","","","Mainly Clear"
"1998-07-05 13:00","1998","07","05","13:00","22.8","","8.3","","39","","3","","15","","40.2","","100.53","","","","","","Mainly Clear"
"1998-07-05 14:00","1998","07","05","14:00","23.6","","8.7","","39","","34","","11","","40.2","","100.53","","","","","","Mainly Clear"
"1998-07-05 15:00","1998","07","05","15:00","24.2","","8.7","","37","","36","","11","","40.2","","100.53","","25","","","","Mainly Clear"
"1998-07-05 16:00","1998","07","05","16:00","23.7","","9.1","","39","","33","","13","","40.2","","100.53","","25","","","","Mainly Clear"
"1998-07-05 17:00","1998","07","05","17:00","23.1","","8.9","","40","","35","","7","","40.2","","100.56","","","","","","Mainly Clear"
"1998-07-05 18:00","1998","07","05","18:00","24.0","","8.4","","37","","31","","6","","40.2","","100.53","","25","","","","Mainly Clear"
"1998-07-05 19:00","1998","07","05","19:00","22.8","","8.9","","41","","1","","7","","40.2","","100.53","","","","","","Clear"
"1998-07-05 20:00","1998","07","05","20:00","21.4","","8.9","","45","","1","","4","","40.2","","100.53","","","","","","Clear"
"1998-07-05 21:00","1998","07","05","21:00","20.6","","9.1","","48","","28","","4","","25.0","","100.60","","","","","","Clear"
"1998-07-05 22:00","1998","07","05","22:00","19.4","","10.2","","55","","","","0","","25.0","","100.60","","","","","","Clear"
"1998-07-05 23:00","1998","07","05","23:00","18.6","","9.7","","56","","","","0","","25.0","","100.60","","","","","","Clear"
"1998-07-06 00:00","1998","07","06","00:00","17.4","","10.8","","65","","","","0","","25.0","","100.60","","","","","","Mainly Clear"
"1998-07-06 01:00","1998","07","06","01:00","16.2","","10.8","","70","","27","","4","","25.0","","100.60","","","","","","Mainly Clear"
"1998-07-06 02:00","1998","07","06","02:00","15.5","","10.6","","73","","24","","6","","25.0","","100.63","","","","","","Mainly Clear"
"1998-07-06 03:00","1998","07","06","03:00","14.4","","10.1","","75","","25","","4","","25.0","","100.63","","","","","","Mostly Cloudy"
"1998-07-06 04:00","1998","07","06","04:00","15.0","","10.9","","76","","24","","4","","40.2","","100.66","","","","","","Mostly Cloudy"
"1998-07-06 05:00","1998","07","06","05:00","14.8","","10.8","","77","","","","0","","40.2","","100.70","","","","","","Mostly Cloudy"
"1998-07-06 06:00","1998","07","06","06:00","16.2","","12.1","","77","","","","0","","40.2","","100.73","","","","","","Mostly Cloudy"
"1998-07-06 07:00","1998","07","06","07:00","18.5","","14.5","","78","","","","0","","40.2","","100.73","","","","","","Mostly Cloudy"
"1998-07-06 08:00","1998","07","06","08:00","20.7","","14.8","","69","","18","","4","","40.2","","100.73","","25","","","","Cloudy"
"1998-07-06 09:00","1998","07","06","09:00","20.9","","13.7","","63","","18","","4","","40.2","","100.73","","","","","","Cloudy"
"1998-07-06 10:00","1998","07","06","10:00","22.2","","13.1","","56","","21","","4","","40.2","","100.70","","25","","","","Cloudy"
"1998-07-06 11:00","1998","07","06","11:00","23.0","","12.4","","51","","21","","9","","40.2","","100.66","","25","","","","Mostly Cloudy"
"1998-07-06 12:00","1998","07","06","12:00","23.4","","11.7","","48","","20","","7","","40.2","","100.66","","26","","","","Cloudy"
"1998-07-06 13:00","1998","07","06","13:00","22.8","","10.9","","47","","23","","7","","40.2","","100.66","","25","","","","Cloudy"
"1998-07-06 14:00","1998","07","06","14:00","22.4","","11.0","","48","","23","","6","","40.2","","100.63","","","","","","Cloudy"
"1998-07-06 15:00","1998","07","06","15:00","21.8","","11.9","","53","","18","","6","","40.2","","100.56","","","","","","Cloudy"
"1998-07-06 16:00","1998","07","06","16:00","21.3","","12.9","","59","","","","0","","40.2","","100.53","","","","","","Cloudy"
"1998-07-06 17:00","1998","07","06","17:00","20.8","","12.9","","61","","","","0","","40.2","","100.56","","","","","","Cloudy"
"1998-07-06 18:00","1998","07","06","18:00","20.8","","12.9","","61","","","","0","","40.2","","100.53","","","","","","Mostly Cloudy"
"1998-07-06 19:00","1998","07","06","19:00","20.8","","12.2","","58","","","","0","","40.2","","100.53","","","","","","Mostly Cloudy"
"1998-07-06 20:00","1998","07","06","20:00","20.3","","12.3","","60","","","","0","","40.2","","100.49","","","","","","Mostly Cloudy"
"1998-07-06 21:00","1998","07","06","21:00","19.5","","11.9","","61","","","","0","","25.0","","100.49","","","","","","Mostly Cloudy"
"1998-07-06 22:00","1998","07","06","22:00","18.9","","11.6","","63","","","","0","","25.0","","100.49","","","","","","Mostly Cloudy"
"1998-07-06 23:00","1998","07","06","23:00","18.7","","11.5","","63","","","","0","","25.0","","100.46","","","","","","Mostly Cloudy"
"1998-07-07 00:00","1998","07","07","00:00","18.1","","10.8","","62","","","","0","","25.0","","100.49","","","","","","Mainly Clear"
"1998-07-07 01:00","1998","07","07","01:00","15.6","","10.6","","72","","","","0","","25.0","","100.46","","","","","","Mainly Clear"
"1998-07-07 02:00","1998","07","07","02:00","15.6","","12.0","","79","","","","0","","25.0","","100.46","","","","","","Mainly Clear"
"1998-07-07 03:00","1998","07","07","03:00","14.5","","11.3","","81","","3","","7","","25.0","","100.43","","","","","","Mainly Clear"
"1998-07-07 04:00","1998","07","07","04:00","13.7","","11.7","","88","","3","","7","","40.2","","100.43","","","","","","Mainly Clear"
"1998-07-07 05:00","1998","07","07","05:00","13.3","","12.4","","94","","4","","7","","40.2","","100.43","","","","","","Clear"
"1998-07-07 06:00","1998","07","07","06:00","15.2","","14.0","","93","","5","","11","","32.2","","100.49","","","","","","Mainly Clear"
"1998-07-07 07:00","1998","07","07","07:00","17.8","","15.6","","87","","","","0","","32.2","","100.49","","","","","","Mostly Cloudy"
"1998-07-07 08:00","1998","07","07","08:00","19.7","","14.4","","71","","7","","6","","32.2","","100.49","","","","","","Mostly Cloudy"
"1998-07-07 09:00","1998","07","07","09:00","21.5","","14.2","","63","","8","","9","","32.2","","100.46","","25","","","","Mostly Cloudy"
"1998-07-07 10:00","1998","07","07","10:00","23.0","","12.9","","53","","10","","13","","32.2","","100.43","","26","","","","Mostly Cloudy"
"1998-07-07 11:00","1998","07","07","11:00","23.7","","13.6","","53","","9","","13","","32.2","","100.39","","27","","","","Mostly Cloudy"
"1998-07-07 12:00","1998","07","07","12:00","24.6","","13.2","","49","","12","","11","","40.2","","100.36","","28","","","","Mainly Clear"
"1998-07-07 13:00","1998","07","07","13:00","25.5","","13.6","","48","","6","","4","","40.2","","100.33","","29","","","","Mainly Clear"
"1998-07-07 14:00","1998","07","07","14:00","24.8","","13.0","","48","","9","","4","","32.2","","100.29","","28","","","","Mainly Clear"
"1998-07-07 15:00","1998","07","07","15:00","25.7","","12.9","","45","","9","","6","","32.2","","100.26","","28","","","","Mainly Clear"
"1998-07-07 16:00","1998","07","07","16:00","25.7","","12.3","","43","","13","","7","","32.2","","100.23","","28","","","","Mostly Cloudy"
"1998-07-07 17:00","1998","07","07","17:00","25.1","","15.0","","53","","16","","6","","32.2","","100.19","","29","","","","Mainly Clear"
"1998-07-07 18:00","1998","07","07","18:00","23.4","","17.1","","68","","19","","15","","24.1","","100.23","","29","","","","Mostly Cloudy"
"1998-07-07 19:00","1998","07","07","19:00","22.2","","16.7","","71","","18","","6","","19.3","","100.26","","27","","","","Mostly Cloudy"
"1998-07-07 20:00","1998","07","07","20:00","20.8","","16.7","","77","","17","","6","","16.1","","100.23","","26","","","","Mainly Clear"
"1998-07-07 21:00","1998","07","07","21:00","20.1","","16.6","","80","","","","0","","16.1","","100.26","","25","","","","Mostly Cloudy"
"1998-07-07 22:00","1998","07","07","22:00","20.1","","16.8","","81","","","","0","","19.3","","100.26","","25","","","","Cloudy"
"1998-07-07 23:00","1998","07","07","23:00","19.8","","16.9","","83","","","","0","","19.3","","100.23","","","","","","Mostly Cloudy"
"1998-07-08 00:00","1998","07","08","00:00","19.8","","17.0","","84","","10","","4","","19.3","","100.23","","","","","","Mostly Cloudy"
"1998-07-08 01:00","1998","07","08","01:00","19.3","","17.1","","87","","","","0","","19.3","","100.16","","","","","","Mostly Cloudy"
"1998-07-08 02:00","1998","07","08","02:00","18.4","","16.7","","90","","","","0","","9.7","","100.09","","","","","","Fog"
"1998-07-08 03:00","1998","07","08","03:00","17.8","","16.1","","90","","6","","7","","4.8","","100.03","","","","","","Fog"
"1998-07-08 04:00","1998","07","08","04:00","17.8","","16.5","","92","","7","","7","","3.2","","99.99","","","","","","Fog"
"1998-07-08 05:00","1998","07","08","05:00","17.3","","16.4","","94","","5","","9","","2.0","","100.03","","","","","","Fog"
"1998-07-08 06:00","1998","07","08","06:00","17.5","","16.5","","94","","6","","9","","2.4","","100.06","","","","","","Fog"
"1998-07-08 07:00","1998","07","08","07:00","18.0","","16.7","","92","","5","","13","","8.0","","100.03","","","","","","Fog"
"1998-07-08 08:00","1998","07","08","08:00","19.1","","17.3","","89","","4","","13","","8.0","","99.99","","","","","","Fog"
"1998-07-08 09:00","1998","07","08","09:00","20.4","","17.5","","83","","6","","15","","9.7","","99.96","","26","","","","Haze"
"1998-07-08 10:00","1998","07","08","10:00","20.2","","17.1","","82","","5","","13","","12.9","","99.96","","26","","","","Cloudy"
"1998-07-08 11:00","1998","07","08","11:00","20.4","","17.4","","83","","5","","15","","12.9","","99.96","","26","","","","Cloudy"
"1998-07-08 12:00","1998","07","08","12:00","21.0","","17.5","","80","","7","","17","","14.5","","99.93","","27","","","","Cloudy"
"1998-07-08 13:00","1998","07","08","13:00","20.5","","17.5","","83","","7","","9","","12.9","","99.89","","26","","","","Cloudy"
"1998-07-08 14:00","1998","07","08","14:00","20.7","","17.6","","82","","7","","15","","9.7","","99.86","","26","","","","Haze"
"1998-07-08 15:00","1998","07","08","15:00","21.4","","17.9","","80","","6","","13","","9.7","","99.82","","27","","","","Haze"
"1998-07-08 16:00","1998","07","08","16:00","22.1","","18.3","","79","","6","","11","","9.7","","99.76","","28","","","","Haze"
"1998-07-08 17:00","1998","07","08","17:00","22.4","","17.9","","76","","9","","7","","8.0","","99.72","","28","","","","Haze"
"1998-07-08 18:00","1998","07","08","18:00","22.3","","17.9","","76","","12","","6","","9.7","","99.72","","28","","","","Haze"
"1998-07-08 19:00","1998","07","08","19:00","21.8","","17.8","","78","","10","","4","","9.7","","99.72","","28","","","","Haze"
"1998-07-08 20:00","1998","07","08","20:00","21.0","","17.9","","82","","6","","4","","8.0","","99.76","","27","","","","Haze"
"1998-07-08 21:00","1998","07","08","21:00","20.5","","18.0","","86","","","","0","","8.0","","99.76","","27","","","","Haze"
"1998-07-08 22:00","1998","07","08","22:00","19.9","","18.1","","89","","","","0","","9.7","","99.76","","","","","","Fog"
"1998-07-08 23:00","1998","07","08","23:00","19.3","","17.6","","90","","","","0","","6.4","","99.76","","","","","","Fog"
"1998-07-09 00:00","1998","07","09","00:00","18.7","","17.5","","93","","","","0","","1.2","","99.76","","","","","","Fog"
"1998-07-09 01:00","1998","07","09","01:00","17.4","","16.9","","97","","20","","6","","0.0","","99.72","","","","","","Fog"
"1998-07-09 02:00","1998","07","09","02:00","17.0","","16.9","","99","","","","0","","0.0","","99.72","","","","","","Fog"
"1998-07-09 03:00","1998","07","09","03:00","16.7","","16.4","","98","","23","","4","","0.2","","99.69","","","","","","Fog"
"1998-07-09 04:00","1998","07","09","04:00","15.8","","15.8","","100","","","","0","","0.2","","99.69","","","","","","Fog"
"1998-07-09 05:00","1998","07","09","05:00","15.5","","15.3","","99","","22","","4","","0.0","","99.76","","","","","","Fog"
"1998-07-09 06:00","1998","07","09","06:00","16.5","","16.2","","98","","20","","4","","0.2","","99.72","","","","","","Fog"
"1998-07-09 07:00","1998","07","09","07:00","18.6","","18.0","","96","","21","","6","","4.0","","99.72","","","","","","Fog"
"1998-07-09 08:00","1998","07","09","08:00","20.8","","19.3","","91","","23","","9","","6.4","","99.69","","28","","","","Fog"
"1998-07-09 09:00","1998","07","09","09:00","23.0","","18.3","","75","","26","","9","","9.7","","99.69","","29","","","","Haze"
"1998-07-09 10:00","1998","07","09","10:00","24.0","","17.2","","66","","27","","9","","12.9","","99.69","","29","","","","Mainly Clear"
"1998-07-09 11:00","1998","07","09","11:00","25.2","","18.0","","64","","26","","7","","16.1","","99.66","","31","","","","Mainly Clear"
"1998-07-09 12:00","1998","07","09","12:00","27.0","","16.6","","53","","25","","11","","19.3","","99.62","","32","","","","Mostly Cloudy"
"1998-07-09 13:00","1998","07","09","13:00","25.7","","15.4","","53","","28","","13","","19.3","","99.59","","30","","","","Mostly Cloudy"
"1998-07-09 14:00","1998","07","09","14:00","26.9","","15.1","","48","","28","","17","","24.1","","99.52","","31","","","","Mainly Clear"
"1998-07-09 15:00","1998","07","09","15:00","27.8","","13.8","","42","","29","","20","","24.1","","99.49","","31","","","","Mostly Cloudy"
"1998-07-09 16:00","1998","07","09","16:00","26.7","","14.7","","48","","26","","13","","24.1","","99.49","","30","","","","Mostly Cloudy"
"1998-07-09 17:00","1998","07","09","17:00","22.4","","11.6","","50","","35","","22","","32.2","","99.49","","","","","","Cloudy"
"1998-07-09 18:00","1998","07","09","18:00","21.5","","13.8","","62","","17","","6","","32.2","","99.56","","25","","","","Mostly Cloudy"
"1998-07-09 19:00","1998","07","09","19:00","20.6","","15.7","","73","","22","","7","","24.1","","99.59","","25","","","","Mostly Cloudy"
"1998-07-09 20:00","1998","07","09","20:00","18.4","","15.4","","83","","24","","6","","19.3","","99.59","","","","","","Mostly Cloudy"
"1998-07-09 21:00","1998","07","09","21:00","18.3","","16.1","","87","","25","","9","","19.3","","99.59","","","","","","Mostly Cloudy"
"1998-07-09 22:00","1998","07","09","22:00","17.2","","16.4","","95","","27","","4","","8.0","","99.62","","","","","","Thunderstorms,Moderate Rain Showers"
"1998-07-09 23:00","1998","07","09","23:00","17.9","","16.2","","90","","33","","24","","12.9","","99.62","","","","","","Moderate Rain Showers"
"1998-07-10 00:00","1998","07","10","00:00","15.9","","14.2","","90","","31","","9","","12.9","","99.62","","","","","","Rain"
"1998-07-10 01:00","1998","07","10","01:00","15.8","","14.3","","91","","29","","7","","24.1","","99.59","","","","","","Rain"
"1998-07-10 02:00","1998","07","10","02:00","15.9","","14.9","","94","","28","","9","","24.1","","99.59","","","","","","Mostly Cloudy"
"1998-07-10 03:00","1998","07","10","03:00","15.4","","14.6","","95","","27","","6","","24.1","","99.59","","","","","","Mainly Clear"
"1998-07-10 04:00","1998","07","10","04:00","15.4","","13.6","","89","","28","","7","","32.2","","99.62","","","","","","Clear"
"1998-07-10 05:00","1998","07","10","05:00","15.0","","13.4","","90","","30","","11","","32.2","","99.69","","","","","","Clear"
"1998-07-10 06:00","1998","07","10","06:00","15.9","","12.9","","82","","31","","19","","40.2","","99.72","","","","","","Clear"
"1998-07-10 07:00","1998","07","10","07:00","16.1","","12.1","","77","","31","","24","","40.2","","99.76","","","","","","Mainly Clear"
"1998-07-10 08:00","1998","07","10","08:00","17.3","","12.1","","71","","30","","22","","40.2","","99.79","","","","","","Mainly Clear"
"1998-07-10 09:00","1998","07","10","09:00","18.5","","11.2","","62","","31","","22","","40.2","","99.82","","","","","","Clear"
"1998-07-10 10:00","1998","07","10","10:00","19.5","","10.1","","55","","33","","30","","40.2","","99.79","","","","","","Mainly Clear"
"1998-07-10 11:00","1998","07","10","11:00","20.1","","10.7","","55","","29","","20","","40.2","","99.79","","","","","","Mostly Cloudy"
"1998-07-10 12:00","1998","07","10","12:00","20.8","","10.7","","52","","29","","26","","40.2","","99.76","","","","","","Mostly Cloudy"
"1998-07-10 13:00","1998","07","10","13:00","18.9","","11.6","","63","","31","","28","","40.2","","99.79","","","","","","Mostly Cloudy"
"1998-07-10 14:00","1998","07","10","14:00","18.1","","10.7","","62","","31","","33","","24.1","","99.82","","","","","","Rain Showers"
"1998-07-10 15:00","1998","07","10","15:00","19.3","","10.2","","56","","33","","32","","40.2","","99.79","","","","","","Mostly Cloudy"
"1998-07-10 16:00","1998","07","10","16:00","20.6","","10.6","","53","","32","","28","","40.2","","99.79","","","","","","Mostly Cloudy"
"1998-07-10 17:00","1998","07","10","17:00","20.6","","10.7","","53","","32","","24","","40.2","","99.79","","","","","","Mostly Cloudy"
"1998-07-10 18:00","1998","07","10","18:00","20.2","","10.6","","54","","31","","19","","32.2","","99.79","","","","","","Mainly Clear"
"1998-07-10 19:00","1998","07","10","19:00","17.4","","9.9","","61","","31","","30","","32.2","","99.86","","","","","","Rain Showers"
"1998-07-10 20:00","1998","07","10","20:00","16.5","","10.7","","69","","31","","13","","40.2","","99.86","","","","","","Mostly Cloudy"
"1998-07-10 21:00","1998","07","10","21:00","16.0","","11.5","","75","","25","","11","","24.1","","99.86","","","","","","Mainly Clear"
"1998-07-10 22:00","1998","07","10","22:00","16.5","","12.1","","75","","30","","17","","24.1","","99.86","","","","","","Clear"
"1998-07-10 23:00","1998","07","10","23:00","15.9","","11.4","","75","","28","","13","","24.1","","99.86","","","","","","Mainly Clear"
"1998-07-11 00:00","1998","07","11","00:00","15.1","","11.5","","79","","27","","11","","24.1","","99.82","","","","","","Mainly Clear"
"1998-07-11 01:00","1998","07","11","01:00","14.9","","11.8","","82","","29","","11","","24.1","","99.79","","","","","","Mainly Clear"
"1998-07-11 02:00","1998","07","11","02:00","15.4","","11.5","","78","","31","","15","","24.1","","99.79","","","","","","Mainly Clear"
"1998-07-11 03:00","1998","07","11","03:00","15.5","","10.8","","74","","29","","19","","24.1","","99.79","","","","","","Mostly Cloudy"
"1998-07-11 04:00","1998","07","11","04:00","15.1","","10.9","","76","","29","","19","","32.2","","99.79","","","","","","Mainly Clear"
"1998-07-11 05:00","1998","07","11","05:00","15.0","","11.1","","77","","29","","20","","32.2","","99.82","","","","","","Mostly Cloudy"
"1998-07-11 06:00","1998","07","11","06:00","15.2","","10.9","","75","","29","","17","","40.2","","99.79","","","","","","Mainly Clear"
"1998-07-11 07:00","1998","07","11","07:00","16.8","","12.0","","73","","29","","19","","40.2","","99.82","","","","","","Mainly Clear"
"1998-07-11 08:00","1998","07","11","08:00","18.9","","12.3","","66","","30","","22","","40.2","","99.79","","","","","","Mainly Clear"
"1998-07-11 09:00","1998","07","11","09:00","19.6","","12.0","","61","","31","","28","","40.2","","99.79","","","","","","Mainly Clear"
"1998-07-11 10:00","1998","07","11","10:00","21.3","","12.4","","57","","31","","22","","40.2","","99.79","","","","","","Mainly Clear"
"1998-07-11 11:00","1998","07","11","11:00","22.8","","12.5","","52","","1","","22","","40.2","","99.82","","25","","","","Mostly Cloudy"
"1998-07-11 12:00","1998","07","11","12:00","21.7","","11.9","","54","","36","","20","","40.2","","99.86","","","","","","Mostly Cloudy"
"1998-07-11 13:00","1998","07","11","13:00","21.9","","12.2","","54","","35","","20","","40.2","","99.86","","","","","","Mostly Cloudy"
"1998-07-11 14:00","1998","07","11","14:00","22.1","","12.5","","54","","34","","15","","40.2","","99.89","","25","","","","Mostly Cloudy"
"1998-07-11 15:00","1998","07","11","15:00","22.2","","12.7","","55","","35","","11","","40.2","","99.93","","25","","","","Mostly Cloudy"
"1998-07-11 16:00","1998","07","11","16:00","22.6","","13.2","","55","","34","","11","","40.2","","99.89","","26","","","","Mostly Cloudy"
"1998-07-11 17:00","1998","07","11","17:00","22.6","","13.2","","55","","34","","9","","40.2","","99.93","","26","","","","Mostly Cloudy"
"1998-07-11 18:00","1998","07","11","18:00","21.0","","13.8","","63","","10","","6","","40.2","","99.96","","","","","","Mostly Cloudy"
"1998-07-11 19:00","1998","07","11","19:00","20.9","","14.5","","67","","","","0","","40.2","","99.96","","25","","","","Mostly Cloudy"
"1998-07-11 20:00","1998","07","11","20:00","20.1","","15.0","","72","","22","","6","","40.2","","99.96","","","","","","Mostly Cloudy"
"1998-07-11 21:00","1998","07","11","21:00","19.5","","14.8","","74","","","","0","","25.0","","99.99","","","","","","Mainly Clear"
"1998-07-11 22:00","1998","07","11","22:00","18.2","","14.4","","78","","24","","7","","25.0","","99.99","","","","","","Mainly Clear"
"1998-07-11 23:00","1998","07","11","23:00","17.4","","14.4","","83","","26","","6","","25.0","","99.96","","","","","","Mostly Cloudy"
"1998-07-12 00:00","1998","07","12","00:00","17.8","","14.5","","81","","29","","7","","25.0","","99.99","","","","","","Mainly Clear"
"1998-07-12 01:00","1998","07","12","01:00","17.0","","14.6","","86","","","","0","","25.0","","99.96","","","","","","Clear"
"1998-07-12 02:00","1998","07","12","02:00","16.0","","14.3","","90","","","","0","","25.0","","99.99","","","","","","Clear"
"1998-07-12 03:00","1998","07","12","03:00","15.9","","14.2","","90","","","","0","","25.0","","99.99","","","","","","Mainly Clear"
"1998-07-12 04:00","1998","07","12","04:00","15.6","","14.3","","92","","25","","4","","32.2","","99.99","","","","","","Mainly Clear"
"1998-07-12 05:00","1998","07","12","05:00","15.0","","14.0","","94","","","","0","","32.2","","100.06","","","","","","Mainly Clear"
"1998-07-12 06:00","1998","07","12","06:00","16.5","","15.2","","92","","31","","4","","32.2","","100.13","","","","","","Mainly Clear"
"1998-07-12 07:00","1998","07","12","07:00","18.4","","15.2","","82","","28","","4","","40.2","","100.16","","","","","","Mainly Clear"
"1998-07-12 08:00","1998","07","12","08:00","19.2","","13.9","","71","","","","0","","40.2","","100.16","","","","","","Mainly Clear"
"1998-07-12 09:00","1998","07","12","09:00","21.4","","15.2","","68","","","","0","","40.2","","100.16","","25","","","","Mainly Clear"
"1998-07-12 10:00","1998","07","12","10:00","22.7","","15.3","","63","","","","0","","40.2","","100.09","","27","","","","Clear"
"1998-07-12 11:00","1998","07","12","11:00","24.3","","14.5","","54","","29","","4","","40.2","","100.09","","28","","","","Clear"
"1998-07-12 12:00","1998","07","12","12:00","25.8","","11.4","","41","","22","","6","","40.2","","100.03","","28","","","","Mainly Clear"
"1998-07-12 13:00","1998","07","12","13:00","26.6","","11.6","","39","","26","","13","","40.2","","99.99","","29","","","","Mainly Clear"
"1998-07-12 14:00","1998","07","12","14:00","27.3","","10.2","","34","","29","","9","","40.2","","99.96","","29","","","","Mainly Clear"
"1998-07-12 15:00","1998","07","12","15:00","27.3","","10.4","","35","","29","","17","","40.2","","99.93","","29","","","","Mainly Clear"
"1998-07-12 16:00","1998","07","12","16:00","27.7","","11.5","","37","","22","","7","","40.2","","99.89","","30","","","","Mainly Clear"
"1998-07-12 17:00","1998","07","12","17:00","27.0","","12.5","","41","","22","","4","","40.2","","99.89","","30","","","","Mostly Cloudy"
"1998-07-12 18:00","1998","07","12","18:00","27.0","","12.8","","41","","18","","4","","40.2","","99.86","","30","","","","Mostly Cloudy"
"1998-07-12 19:00","1998","07","12","19:00","25.2","","13.6","","49","","18","","7","","40.2","","99.86","","28","","","","Mostly Cloudy"
"1998-07-12 20:00","1998","07","12","20:00","23.0","","15.2","","61","","18","","7","","40.2","","99.89","","27","","","","Mostly Cloudy"
"1998-07-12 21:00","1998","07","12","21:00","21.8","","14.2","","62","","20","","7","","25.0","","99.96","","25","","","","Mostly Cloudy"
"1998-07-12 22:00","1998","07","12","22:00","20.8","","14.1","","65","","20","","7","","25.0","","99.96","","","","","","Mainly Clear"
"1998-07-12 23:00","1998","07","12","23:00","20.5","","14.0","","66","","24","","9","","25.0","","99.96","","","","","","Mainly Clear"
"1998-07-13 00:00","1998","07","13","00:00","19.5","","14.1","","71","","22","","9","","25.0","","99.96","","","","","","Mostly Cloudy"
"1998-07-13 01:00","1998","07","13","01:00","19.2","","14.2","","73","","21","","6","","25.0","","99.96","","","","","","Mostly Cloudy"
"1998-07-13 02:00","1998","07","13","02:00","18.2","","13.7","","75","","23","","6","","25.0","","99.96","","","","","","Mostly Cloudy"
"1998-07-13 03:00","1998","07","13","03:00","18.2","","13.7","","75","","20","","6","","25.0","","99.93","","","","","","Mostly Cloudy"
"1998-07-13 04:00","1998","07","13","04:00","18.1","","13.5","","74","","26","","6","","19.3","","99.96","","","","","","Rain Showers"
"1998-07-13 05:00","1998","07","13","05:00","18.4","","14.7","","79","","","","0","","32.2","","99.96","","","","","","Cloudy"
"1998-07-13 06:00","1998","07","13","06:00","17.5","","13.9","","79","","18","","7","","24.1","","99.99","","","","","","Rain"
"1998-07-13 07:00","1998","07","13","07:00","17.3","","14.5","","84","","19","","17","","24.1","","99.99","","","","","","Rain"
"1998-07-13 08:00","1998","07","13","08:00","18.3","","15.8","","85","","20","","11","","24.1","","100.03","","","","","","Cloudy"
"1998-07-13 09:00","1998","07","13","09:00","18.5","","16.1","","86","","21","","17","","19.3","","100.03","","","","","","Cloudy"
"1998-07-13 10:00","1998","07","13","10:00","18.6","","17.2","","92","","20","","7","","24.1","","100.03","","","","","","Cloudy"
"1998-07-13 11:00","1998","07","13","11:00","20.6","","18.5","","88","","22","","15","","32.2","","99.96","","27","","","","Cloudy"
"1998-07-13 12:00","1998","07","13","12:00","23.2","","18.0","","73","","21","","20","","32.2","","99.96","","29","","","","Mainly Clear"
"1998-07-13 13:00","1998","07","13","13:00","25.3","","18.6","","66","","21","","19","","40.2","","99.93","","32","","","","Mainly Clear"
"1998-07-13 14:00","1998","07","13","14:00","26.4","","18.7","","63","","22","","17","","40.2","","99.89","","33","","","","Mainly Clear"
"1998-07-13 15:00","1998","07","13","15:00","27.2","","18.5","","59","","22","","17","","40.2","","99.86","","34","","","","Mainly Clear"
"1998-07-13 16:00","1998","07","13","16:00","27.8","","19.8","","62","","20","","19","","40.2","","99.89","","35","","","","Mainly Clear"
"1998-07-13 17:00","1998","07","13","17:00","27.4","","19.1","","61","","19","","20","","24.1","","99.86","","34","","","","Clear"
"1998-07-13 18:00","1998","07","13","18:00","27.0","","18.4","","59","","20","","17","","24.1","","99.69","","33","","","","Clear"
"1998-07-13 19:00","1998","07","13","19:00","25.9","","18.2","","63","","20","","13","","24.1","","99.72","","32","","","","Clear"
"1998-07-13 20:00","1998","07","13","20:00","24.4","","16.4","","61","","22","","15","","24.1","","99.76","","29","","","","Clear"
"1998-07-13 21:00","1998","07","13","21:00","22.9","","16.3","","66","","22","","15","","24.1","","99.82","","28","","","","Clear"
"1998-07-13 22:00","1998","07","13","22:00","22.2","","15.5","","66","","21","","13","","24.1","","99.86","","26","","","","Clear"
"1998-07-13 23:00","1998","07","13","23:00","21.1","","15.1","","69","","21","","13","","24.1","","99.86","","25","","","","Clear"
"1998-07-14 00:00","1998","07","14","00:00","20.4","","15.1","","72","","21","","13","","24.1","","99.89","","","","","","Clear"
"1998-07-14 01:00","1998","07","14","01:00","19.8","","15.3","","75","","20","","7","","24.1","","99.93","","","","","","Clear"
"1998-07-14 02:00","1998","07","14","02:00","19.0","","15.3","","79","","20","","7","","24.1","","99.93","","","","","","Clear"
"1998-07-14 03:00","1998","07","14","03:00","18.6","","14.9","","79","","20","","9","","24.1","","99.89","","","","","","Clear"
"1998-07-14 04:00","1998","07","14","04:00","18.6","","14.8","","79","","23","","6","","24.1","","99.93","","","","","","Mainly Clear"
"1998-07-14 05:00","1998","07","14","05:00","18.1","","14.8","","81","","20","","7","","19.3","","99.93","","","","","","Mainly Clear"
"1998-07-14 06:00","1998","07","14","06:00","18.6","","15.8","","84","","21","","7","","24.1","","99.96","","","","","","Mainly Clear"
"1998-07-14 07:00","1998","07","14","07:00","20.9","","16.5","","76","","21","","7","","40.2","","99.99","","26","","","","Mostly Cloudy"
"1998-07-14 08:00","1998","07","14","08:00","23.2","","16.8","","67","","23","","9","","40.2","","99.99","","28","","","","Mostly Cloudy"
"1998-07-14 09:00","1998","07","14","09:00","24.8","","17.5","","64","","23","","13","","40.2","","99.96","","30","","","","Mostly Cloudy"
"1998-07-14 10:00","1998","07","14","10:00","26.7","","18.1","","59","","22","","15","","40.2","","99.96","","33","","","","Mostly Cloudy"
"1998-07-14 11:00","1998","07","14","11:00","28.4","","17.5","","52","","23","","13","","40.2","","99.96","","34","","","","Mostly Cloudy"
"1998-07-14 12:00","1998","07","14","12:00","30.3","","18.2","","48","","22","","19","","24.1","","99.93","","36","","","","Mainly Clear"
"1998-07-14 13:00","1998","07","14","13:00","30.5","","18.3","","48","","21","","20","","40.2","","99.89","","37","","","","Mainly Clear"
"1998-07-14 14:00","1998","07","14","14:00","30.6","","18.6","","49","","21","","19","","19.3","","99.89","","37","","","","Mainly Clear"
"1998-07-14 15:00","1998","07","14","15:00","30.8","","19.4","","51","","22","","22","","16.1","","99.86","","38","","","","Mainly Clear"
"1998-07-14 16:00","1998","07","14","16:00","31.8","","19.6","","48","","21","","19","","16.1","","99.82","","39","","","","Mainly Clear"
"1998-07-14 17:00","1998","07","14","17:00","30.7","","18.3","","48","","22","","19","","16.1","","99.82","","37","","","","Mainly Clear"
"1998-07-14 18:00","1998","07","14","18:00","29.3","","17.6","","49","","21","","19","","16.1","","99.82","","35","","","","Clear"
"1998-07-14 19:00","1998","07","14","19:00","28.1","","17.1","","51","","21","","15","","12.9","","99.86","","33","","","","Clear"
"1998-07-14 20:00","1998","07","14","20:00","26.3","","16.4","","54","","21","","13","","12.9","","99.86","","31","","","","Mainly Clear"
"1998-07-14 21:00","1998","07","14","21:00","24.8","","16.5","","60","","21","","13","","16.1","","99.86","","30","","","","Clear"
"1998-07-14 22:00","1998","07","14","22:00","23.9","","16.5","","63","","21","","9","","16.1","","99.93","","29","","","","Clear"
"1998-07-14 23:00","1998","07","14","23:00","23.2","","16.8","","67","","","","0","","12.9","","99.96","","28","","","","Clear"
"1998-07-15 00:00","1998","07","15","00:00","22.1","","16.9","","72","","24","","7","","11.3","","99.96","","27","","","","Clear"
"1998-07-15 01:00","1998","07","15","01:00","21.6","","16.9","","75","","20","","7","","9.7","","99.96","","27","","","","Haze"
"1998-07-15 02:00","1998","07","15","02:00","20.8","","16.7","","77","","21","","6","","9.7","","99.99","","26","","","","Haze"
"1998-07-15 03:00","1998","07","15","03:00","20.1","","16.9","","82","","21","","9","","9.7","","99.99","","25","","","","Haze"
"1998-07-15 04:00","1998","07","15","04:00","20.1","","16.7","","81","","21","","11","","8.0","","100.03","","25","","","","Haze"
"1998-07-15 05:00","1998","07","15","05:00","19.4","","16.5","","83","","21","","9","","6.4","","100.03","","","","","","Haze"
"1998-07-15 06:00","1998","07","15","06:00","20.3","","17.4","","83","","21","","11","","6.4","","100.06","","26","","","","Haze"
"1998-07-15 07:00","1998","07","15","07:00","21.8","","18.2","","80","","21","","11","","8.0","","100.09","","28","","","","Haze"
"1998-07-15 08:00","1998","07","15","08:00","23.7","","19.2","","76","","23","","11","","8.0","","100.09","","31","","","","Haze"
"1998-07-15 09:00","1998","07","15","09:00","25.6","","20.2","","72","","22","","11","","9.7","","100.09","","33","","","","Haze"
"1998-07-15 10:00","1998","07","15","10:00","27.7","","20.8","","66","","22","","7","","9.7","","100.13","","36","","","","Haze"
"1998-07-15 11:00","1998","07","15","11:00","28.8","","21.4","","64","","21","","11","","9.7","","100.09","","38","","","","Haze"
"1998-07-15 12:00","1998","07","15","12:00","29.8","","21.6","","61","","18","","15","","9.7","","100.06","","39","","","","Haze"
"1998-07-15 13:00","1998","07","15","13:00","30.6","","21.3","","58","","22","","17","","9.7","","99.99","","39","","","","Haze"
"1998-07-15 14:00","1998","07","15","14:00","31.0","","21.3","","56","","22","","19","","9.7","","99.99","","40","","","","Haze"
"1998-07-15 15:00","1998","07","15","15:00","31.6","","20.9","","53","","23","","9","","9.7","","99.99","","40","","","","Haze"
"1998-07-15 16:00","1998","07","15","16:00","31.5","","21.0","","54","","21","","17","","8.0","","99.96","","40","","","","Haze"
"1998-07-15 17:00","1998","07","15","17:00","30.6","","21.1","","57","","20","","17","","8.0","","99.93","","39","","","","Haze"
"1998-07-15 18:00","1998","07","15","18:00","29.2","","20.7","","60","","20","","15","","8.0","","99.89","","37","","","","Haze"
"1998-07-15 19:00","1998","07","15","19:00","27.9","","20.3","","63","","19","","13","","6.4","","99.89","","36","","","","Haze"
"1998-07-15 20:00","1998","07","15","20:00","26.2","","19.5","","67","","19","","7","","6.4","","99.89","","33","","","","Haze"
"1998-07-15 21:00","1998","07","15","21:00","25.1","","18.6","","67","","19","","7","","8.0","","99.93","","32","","","","Haze"
"1998-07-15 22:00","1998","07","15","22:00","24.5","","19.0","","71","","21","","7","","8.0","","99.96","","31","","","","Haze"
"1998-07-15 23:00","1998","07","15","23:00","23.9","","19.0","","74","","21","","9","","6.4","","99.89","","31","","","","Haze"
"1998-07-16 00:00","1998","07","16","00:00","23.4","","18.9","","76","","20","","6","","6.4","","99.86","","30","","","","Haze"
"1998-07-16 01:00","1998","07","16","01:00","22.6","","18.6","","78","","21","","7","","6.4","","99.82","","29","","","","Haze"
"1998-07-16 02:00","1998","07","16","02:00","21.8","","18.6","","82","","20","","4","","6.4","","99.82","","28","","","","Haze"
"1998-07-16 03:00","1998","07","16","03:00","21.3","","18.6","","85","","21","","6","","4.8","","99.79","","28","","","","Haze"
"1998-07-16 04:00","1998","07","16","04:00","21.3","","18.7","","85","","22","","11","","4.8","","99.82","","28","","","","Haze"
"1998-07-16 05:00","1998","07","16","05:00","20.7","","18.8","","89","","22","","7","","3.2","","99.86","","27","","","","Haze"
"1998-07-16 06:00","1998","07","16","06:00","21.6","","20.0","","91","","20","","9","","3.2","","99.86","","29","","","","Fog"
"1998-07-16 07:00","1998","07","16","07:00","22.8","","20.4","","86","","23","","9","","3.2","","99.86","","31","","","","Haze"
"1998-07-16 08:00","1998","07","16","08:00","25.4","","21.6","","80","","21","","6","","4.0","","99.86","","34","","","","Haze"
"1998-07-16 09:00","1998","07","16","09:00","26.8","","21.7","","74","","22","","6","","6.4","","99.82","","36","","","","Haze"
"1998-07-16 10:00","1998","07","16","10:00","28.8","","21.8","","66","","21","","13","","8.0","","99.79","","38","","","","Haze"
"1998-07-16 11:00","1998","07","16","11:00","30.1","","22.2","","63","","22","","11","","9.7","","99.76","","40","","","","Haze"
"1998-07-16 12:00","1998","07","16","12:00","31.5","","20.3","","52","","20","","13","","9.7","","99.69","","39","","","","Haze"
"1998-07-16 13:00","1998","07","16","13:00","30.5","","20.3","","55","","26","","13","","12.9","","99.62","","38","","","","Thunderstorms"
"1998-07-16 14:00","1998","07","16","14:00","29.0","","18.5","","53","","","","0","","16.1","","99.56","","35","","","","Thunderstorms"
"1998-07-16 15:00","1998","07","16","15:00","23.6","","18.4","","73","","19","","7","","12.9","","99.59","","30","","","","Thunderstorms,Rain Showers"
"1998-07-16 16:00","1998","07","16","16:00","21.2","","18.5","","85","","19","","19","","12.9","","99.69","","28","","","","Thunderstorms,Rain Showers"
"1998-07-16 17:00","1998","07","16","17:00","20.9","","19.0","","89","","","","0","","9.7","","99.72","","28","","","","Thunderstorms,Rain Showers"
"1998-07-16 18:00","1998","07","16","18:00","22.7","","20.2","","86","","34","","4","","11.3","","99.66","","30","","","","Mostly Cloudy"
"1998-07-16 19:00","1998","07","16","19:00"
"1998-07-16 20:00","1998","07","16","20:00","21.8","","19.9","","89","","6","","7","","9.7","","99.66","","29","","","","Haze"
"1998-07-16 21:00","1998","07","16","21:00","20.8","","19.3","","91","","14","","6","","9.7","","99.66","","28","","","","Haze"
"1998-07-16 22:00","1998","07","16","22:00","20.6","","19.4","","93","","","","0","","8.0","","99.69","","28","","","","Fog"
"1998-07-16 23:00","1998","07","16","23:00","20.1","","18.8","","92","","","","0","","4.8","","99.62","","27","","","","Thunderstorms,Moderate Rain Showers,Fog"
"1998-07-17 00:00","1998","07","17","00:00","20.0","","18.8","","93","","4","","4","","8.0","","99.56","","27","","","","Fog"
"1998-07-17 01:00","1998","07","17","01:00","19.7","","18.7","","94","","3","","6","","6.4","","99.49","","","","","","Fog"
"1998-07-17 02:00","1998","07","17","02:00","20.0","","19.2","","95","","1","","4","","4.8","","99.49","","27","","","","Fog"
"1998-07-17 03:00","1998","07","17","03:00","20.2","","19.8","","98","","","","0","","2.8","","99.49","","28","","","","Fog"
"1998-07-17 04:00","1998","07","17","04:00","20.1","","19.8","","98","","","","0","","2.4","","99.49","","28","","","","Fog"
"1998-07-17 05:00","1998","07","17","05:00","19.4","","18.9","","97","","","","0","","0.4","","99.49","","","","","","Fog"
"1998-07-17 06:00","1998","07","17","06:00","20.2","","19.7","","97","","","","0","","1.6","","99.49","","28","","","","Fog"
"1998-07-17 07:00","1998","07","17","07:00","20.6","","20.0","","96","","","","0","","2.4","","99.49","","28","","","","Fog"
"1998-07-17 08:00","1998","07","17","08:00","21.7","","20.6","","93","","20","","4","","4.8","","99.49","","30","","","","Fog"
"1998-07-17 09:00","1998","07","17","09:00","23.0","","21.6","","92","","20","","6","","6.4","","99.49","","32","","","","Fog"
"1998-07-17 10:00","1998","07","17","10:00","20.7","","19.4","","92","","","","0","","4.8","","99.49","","28","","","","Thunderstorms,Rain Showers,Fog"
"1998-07-17 11:00","1998","07","17","11:00","22.9","","20.4","","86","","29","","9","","24.1","","99.46","","31","","","","Mostly Cloudy"
"1998-07-17 12:00","1998","07","17","12:00","25.2","","19.5","","71","","26","","13","","32.2","","99.39","","32","","","","Mainly Clear"
"1998-07-17 13:00","1998","07","17","13:00","25.9","","19.7","","69","","25","","19","","32.2","","99.36","","33","","","","Mainly Clear"
"1998-07-17 14:00","1998","07","17","14:00","26.5","","18.2","","60","","27","","20","","32.2","","99.32","","33","","","","Mostly Cloudy"
"1998-07-17 15:00","1998","07","17","15:00","25.8","","17.1","","59","","28","","15","","32.2","","99.32","","31","","","","Rain Showers"
"1998-07-17 16:00","1998","07","17","16:00","24.4","","16.7","","62","","30","","20","","32.2","","99.32","","29","","","","Mostly Cloudy"
"1998-07-17 17:00","1998","07","17","17:00","23.0","","17.3","","70","","32","","15","","32.2","","99.39","","28","","","","Rain Showers"
"1998-07-17 18:00","1998","07","17","18:00","22.9","","16.7","","68","","33","","17","","32.2","","99.46","","28","","","","Mostly Cloudy"
"1998-07-17 19:00","1998","07","17","19:00","22.1","","15.6","","67","","32","","15","","32.2","","99.49","","26","","","","Rain Showers"
"1998-07-17 20:00","1998","07","17","20:00","21.5","","15.2","","67","","30","","13","","32.2","","99.49","","26","","","","Mostly Cloudy"
"1998-07-17 21:00","1998","07","17","21:00","20.5","","15.1","","71","","31","","11","","25.0","","99.56","","25","","","","Mostly Cloudy"
"1998-07-17 22:00","1998","07","17","22:00","20.1","","15.3","","74","","31","","9","","25.0","","99.59","","","","","","Mostly Cloudy"
"1998-07-17 23:00","1998","07","17","23:00","19.5","","15.6","","78","","31","","9","","25.0","","99.59","","","","","","Mainly Clear"
"1998-07-18 00:00","1998","07","18","00:00","18.6","","15.1","","80","","28","","9","","25.0","","99.59","","","","","","Mainly Clear"
"1998-07-18 01:00","1998","07","18","01:00","17.3","","14.9","","86","","26","","6","","25.0","","99.59","","","","","","Mainly Clear"
"1998-07-18 02:00","1998","07","18","02:00","16.9","","15.1","","89","","28","","7","","25.0","","99.62","","","","","","Clear"
"1998-07-18 03:00","1998","07","18","03:00","16.0","","14.3","","90","","27","","9","","25.0","","99.62","","","","","","Clear"
"1998-07-18 04:00","1998","07","18","04:00","15.9","","14.2","","90","","28","","11","","40.2","","99.66","","","","","","Mainly Clear"
"1998-07-18 05:00","1998","07","18","05:00","15.5","","14.6","","94","","27","","11","","40.2","","99.76","","","","","","Mainly Clear"
"1998-07-18 06:00","1998","07","18","06:00","16.1","","14.7","","91","","28","","9","","40.2","","99.79","","","","","","Clear"
"1998-07-18 07:00","1998","07","18","07:00","17.9","","15.5","","86","","25","","7","","40.2","","99.82","","","","","","Clear"
"1998-07-18 08:00","1998","07","18","08:00","19.6","","13.8","","69","","27","","15","","40.2","","99.86","","","","","","Clear"
"1998-07-18 09:00","1998","07","18","09:00","20.7","","14.2","","66","","29","","15","","40.2","","99.89","","","","","","Clear"
"1998-07-18 10:00","1998","07","18","10:00","22.4","","12.7","","54","","29","","15","","40.2","","99.89","","25","","","","Clear"
"1998-07-18 11:00","1998","07","18","11:00","23.3","","11.9","","49","","28","","15","","40.2","","99.86","","26","","","","Mainly Clear"
"1998-07-18 12:00","1998","07","18","12:00","24.5","","11.5","","44","","28","","15","","40.2","","99.86","","27","","","","Mainly Clear"
"1998-07-18 13:00","1998","07","18","13:00","25.0","","11.2","","42","","28","","15","","40.2","","99.86","","27","","","","Clear"
"1998-07-18 14:00","1998","07","18","14:00","25.4","","10.5","","39","","28","","17","","40.2","","99.86","","27","","","","Clear"
"1998-07-18 15:00","1998","07","18","15:00","25.8","","10.1","","37","","26","","13","","40.2","","99.86","","27","","","","Clear"
"1998-07-18 16:00","1998","07","18","16:00","25.9","","10.2","","37","","29","","15","","40.2","","99.86","","27","","","","Clear"
"1998-07-18 17:00","1998","07","18","17:00","26.4","","10.7","","37","","27","","7","","40.2","","99.86","","28","","","","Clear"
"1998-07-18 18:00","1998","07","18","18:00","26.0","","11.4","","40","","","","0","","40.2","","99.82","","28","","","","Clear"
"1998-07-18 19:00","1998","07","18","19:00","25.0","","12.1","","45","","21","","4","","40.2","","99.89","","27","","","","Clear"
"1998-07-18 20:00","1998","07","18","20:00","23.3","","12.2","","50","","19","","7","","40.2","","99.93","","26","","","","Clear"
"1998-07-18 21:00","1998","07","18","21:00","21.3","","14.8","","66","","20","","7","","25.0","","99.99","","25","","","","Clear"
"1998-07-18 22:00","1998","07","18","22:00","20.4","","15.0","","71","","20","","7","","25.0","","99.99","","","","","","Clear"
"1998-07-18 23:00","1998","07","18","23:00","19.3","","14.3","","73","","19","","7","","25.0","","100.03","","","","","","Clear"
"1998-07-19 00:00","1998","07","19","00:00","18.4","","14.2","","77","","21","","6","","25.0","","100.03","","","","","","Clear"
"1998-07-19 01:00","1998","07","19","01:00","17.5","","13.8","","79","","24","","4","","25.0","","100.03","","","","","","Clear"
"1998-07-19 02:00","1998","07","19","02:00","16.9","","13.4","","80","","21","","6","","25.0","","100.03","","","","","","Clear"
"1998-07-19 03:00","1998","07","19","03:00","16.2","","13.2","","82","","23","","7","","25.0","","100.03","","","","","","Clear"
"1998-07-19 04:00","1998","07","19","04:00","15.0","","12.7","","86","","22","","7","","40.2","","100.06","","","","","","Clear"
"1998-07-19 05:00","1998","07","19","05:00","15.0","","12.7","","86","","21","","9","","40.2","","100.09","","","","","","Mainly Clear"
"1998-07-19 06:00","1998","07","19","06:00","15.9","","13.2","","84","","20","","7","","40.2","","100.16","","","","","","Mainly Clear"
"1998-07-19 07:00","1998","07","19","07:00","18.2","","15.1","","82","","22","","7","","40.2","","100.23","","","","","","Mainly Clear"
"1998-07-19 08:00","1998","07","19","08:00","20.0","","16.0","","78","","23","","6","","40.2","","100.23","","25","","","","Mainly Clear"
"1998-07-19 09:00","1998","07","19","09:00","23.1","","16.7","","67","","20","","13","","40.2","","100.19","","28","","","","Mostly Cloudy"
"1998-07-19 10:00","1998","07","19","10:00","24.1","","16.7","","63","","20","","13","","40.2","","100.16","","29","","","","Mostly Cloudy"
"1998-07-19 11:00","1998","07","19","11:00","25.5","","16.6","","58","","20","","13","","40.2","","100.13","","31","","","","Mostly Cloudy"
"1998-07-19 12:00","1998","07","19","12:00","26.3","","14.5","","48","","20","","19","","40.2","","100.06","","30","","","","Mainly Clear"
"1998-07-19 13:00","1998","07","19","13:00","27.1","","14.2","","45","","19","","17","","40.2","","99.99","","31","","","","Mostly Cloudy"
"1998-07-19 14:00","1998","07","19","14:00","26.5","","12.9","","43","","21","","19","","40.2","","99.93","","29","","","","Mostly Cloudy"
"1998-07-19 15:00","1998","07","19","15:00","27.7","","13.5","","42","","20","","15","","40.2","","99.89","","31","","","","Mostly Cloudy"
"1998-07-19 16:00","1998","07","19","16:00","26.2","","12.7","","43","","22","","15","","40.2","","99.82","","29","","","","Cloudy"
"1998-07-19 17:00","1998","07","19","17:00","25.0","","12.5","","46","","21","","13","","40.2","","99.76","","28","","","","Rain"
"1998-07-19 18:00","1998","07","19","18:00","24.5","","13.5","","50","","20","","9","","40.2","","99.69","","28","","","","Cloudy"
"1998-07-19 19:00","1998","07","19","19:00","24.2","","13.7","","52","","21","","7","","40.2","","99.69","","27","","","","Mostly Cloudy"
"1998-07-19 20:00","1998","07","19","20:00","23.0","","12.8","","53","","20","","4","","40.2","","99.66","","26","","","","Cloudy"
"1998-07-19 21:00","1998","07","19","21:00","21.5","","13.2","","59","","16","","6","","25.0","","99.62","","","","","","Mostly Cloudy"
"1998-07-19 22:00","1998","07","19","22:00","21.3","","13.3","","60","","18","","4","","25.0","","99.56","","","","","","Mostly Cloudy"
"1998-07-19 23:00","1998","07","19","23:00","20.8","","13.9","","65","","17","","4","","25.0","","99.52","","","","","","Mainly Clear"
"1998-07-20 00:00","1998","07","20","00:00","20.9","","14.3","","66","","","","0","","24.1","","99.49","","","","","","Cloudy"
"1998-07-20 01:00","1998","07","20","01:00","20.6","","14.7","","69","","21","","6","","24.1","","99.46","","","","","","Cloudy"
"1998-07-20 02:00","1998","07","20","02:00","20.4","","15.4","","73","","","","0","","24.1","","99.36","","25","","","","Cloudy"
"1998-07-20 03:00","1998","07","20","03:00","20.8","","16.2","","75","","18","","7","","19.3","","99.29","","26","","","","Cloudy"
"1998-07-20 04:00","1998","07","20","04:00","20.0","","16.1","","78","","16","","7","","19.3","","99.32","","25","","","","Mostly Cloudy"
"1998-07-20 05:00","1998","07","20","05:00","20.0","","16.6","","81","","","","0","","8.0","","99.32","","25","","","","Haze"
"1998-07-20 06:00","1998","07","20","06:00","20.1","","17.1","","83","","","","0","","9.7","","99.39","","25","","","","Haze"
"1998-07-20 07:00","1998","07","20","07:00","20.9","","17.3","","80","","22","","6","","12.9","","99.39","","26","","","","Mainly Clear"
"1998-07-20 08:00","1998","07","20","08:00","23.0","","17.7","","72","","26","","9","","24.1","","99.36","","29","","","","Mainly Clear"
"1998-07-20 09:00","1998","07","20","09:00","24.1","","17.8","","68","","27","","15","","24.1","","99.39","","30","","","","Mainly Clear"
"1998-07-20 10:00","1998","07","20","10:00","25.0","","18.0","","65","","28","","15","","24.1","","99.42","","31","","","","Mainly Clear"
"1998-07-20 11:00","1998","07","20","11:00","25.6","","17.6","","61","","29","","20","","24.1","","99.49","","31","","","","Mostly Cloudy"
"1998-07-20 12:00","1998","07","20","12:00","25.8","","17.4","","60","","29","","24","","40.2","","99.52","","31","","","","Mainly Clear"
"1998-07-20 13:00","1998","07","20","13:00","26.8","","17.2","","56","","29","","20","","40.2","","99.56","","32","","","","Mainly Clear"
"1998-07-20 14:00","1998","07","20","14:00","27.4","","16.8","","52","","29","","20","","40.2","","99.56","","33","","","","Mainly Clear"
"1998-07-20 15:00","1998","07","20","15:00","28.3","","14.5","","43","","28","","24","","40.2","","99.56","","32","","","","Mainly Clear"
"1998-07-20 16:00","1998","07","20","16:00","28.2","","14.1","","42","","28","","26","","40.2","","99.59","","32","","","","Mainly Clear"
"1998-07-20 17:00","1998","07","20","17:00","28.3","","13.0","","39","","26","","22","","40.2","","99.59","","31","","","","Mainly Clear"
"1998-07-20 18:00","1998","07","20","18:00","27.4","","12.5","","40","","29","","22","","40.2","","99.62","","30","","","","Clear"
"1998-07-20 19:00","1998","07","20","19:00","26.7","","12.8","","42","","31","","11","","40.2","","99.69","","29","","","","Clear"
"1998-07-20 20:00","1998","07","20","20:00","25.4","","12.4","","44","","34","","9","","40.2","","99.72","","28","","","","Clear"
"1998-07-20 21:00","1998","07","20","21:00","24.2","","12.0","","46","","2","","6","","25.0","","99.79","","26","","","","Clear"
"1998-07-20 22:00","1998","07","20","22:00","23.3","","12.0","","49","","1","","6","","25.0","","99.86","","26","","","","Clear"
"1998-07-20 23:00","1998","07","20","23:00","21.6","","12.2","","55","","6","","6","","25.0","","99.89","","","","","","Clear"
"1998-07-21 00:00","1998","07","21","00:00","20.5","","12.0","","58","","8","","4","","25.0","","99.89","","","","","","Clear"
"1998-07-21 01:00","1998","07","21","01:00","19.8","","11.7","","60","","11","","6","","25.0","","99.89","","","","","","Clear"
"1998-07-21 02:00","1998","07","21","02:00","18.2","","11.9","","67","","13","","7","","25.0","","99.86","","","","","","Clear"
"1998-07-21 03:00","1998","07","21","03:00","18.2","","12.2","","68","","11","","7","","25.0","","99.89","","","","","","Clear"
"1998-07-21 04:00","1998","07","21","04:00","18.1","","12.7","","71","","12","","9","","40.2","","99.96","","","","","","Mainly Clear"
"1998-07-21 05:00","1998","07","21","05:00","18.6","","12.9","","69","","11","","7","","40.2","","99.93","","","","","","Mostly Cloudy"
"1998-07-21 06:00","1998","07","21","06:00","17.9","","12.8","","72","","8","","7","","24.1","","99.89","","","","","","Mostly Cloudy"
"1998-07-21 07:00","1998","07","21","07:00","19.0","","14.3","","74","","8","","6","","32.2","","99.89","","","","","","Mostly Cloudy"
"1998-07-21 08:00","1998","07","21","08:00","21.3","","16.4","","74","","11","","13","","32.2","","99.76","","26","","","","Mainly Clear"
"1998-07-21 09:00","1998","07","21","09:00","23.7","","18.3","","72","","12","","9","","32.2","","99.72","","30","","","","Mainly Clear"
"1998-07-21 10:00","1998","07","21","10:00","25.0","","20.0","","74","","15","","11","","24.1","","99.72","","33","","","","Mainly Clear"
"1998-07-21 11:00","1998","07","21","11:00","27.9","","20.4","","64","","16","","13","","24.1","","99.62","","36","","","","Mainly Clear"
"1998-07-21 12:00","1998","07","21","12:00","28.9","","19.9","","58","","17","","15","","24.1","","99.56","","36","","","","Mostly Cloudy"
"1998-07-21 13:00","1998","07","21","13:00","29.6","","19.8","","56","","18","","17","","24.1","","99.49","","37","","","","Mostly Cloudy"
"1998-07-21 14:00","1998","07","21","14:00","31.2","","20.2","","52","","19","","22","","24.1","","99.36","","39","","","","Mostly Cloudy"
"1998-07-21 15:00","1998","07","21","15:00","30.4","","20.5","","56","","19","","24","","24.1","","99.39","","38","","","","Mostly Cloudy"
"1998-07-21 16:00","1998","07","21","16:00","30.5","","20.7","","56","","20","","28","","19.3","","99.39","","39","","","","Mainly Clear"
"1998-07-21 17:00","1998","07","21","17:00","29.4","","20.9","","60","","20","","22","","19.3","","99.26","","38","","","","Mainly Clear"
"1998-07-21 18:00","1998","07","21","18:00","28.9","","20.6","","61","","20","","15","","12.9","","99.19","","37","","","","Mainly Clear"
"1998-07-21 19:00","1998","07","21","19:00","27.5","","20.8","","67","","20","","19","","12.9","","99.22","","36","","","","Clear"
"1998-07-21 20:00","1998","07","21","20:00","26.5","","21.4","","74","","20","","19","","6.4","","99.19","","35","","","","Haze"
"1998-07-21 21:00","1998","07","21","21:00","25.7","","21.4","","77","","19","","17","","9.7","","99.15","","34","","","","Haze"
"1998-07-21 22:00","1998","07","21","22:00","25.2","","21.1","","78","","19","","19","","16.1","","99.15","","34","","","","Mostly Cloudy"
"1998-07-21 23:00","1998","07","21","23:00","25.0","","19.3","","71","","20","","20","","19.3","","99.12","","32","","","","Mostly Cloudy"
"1998-07-22 00:00","1998","07","22","00:00","24.7","","19.3","","72","","20","","20","","24.1","","99.12","","32","","","","Cloudy"
"1998-07-22 01:00","1998","07","22","01:00","24.8","","19.6","","73","","21","","19","","19.3","","99.05","","32","","","","Mostly Cloudy"
"1998-07-22 02:00","1998","07","22","02:00","24.4","","19.6","","75","","21","","22","","19.3","","99.12","","32","","","","Mostly Cloudy"
"1998-07-22 03:00","1998","07","22","03:00","23.3","","19.5","","79","","21","","15","","19.3","","99.12","","30","","","","Mainly Clear"
"1998-07-22 04:00","1998","07","22","04:00","22.4","","19.2","","82","","21","","9","","19.3","","99.15","","29","","","","Mostly Cloudy"
"1998-07-22 05:00","1998","07","22","05:00","21.6","","18.9","","85","","23","","9","","24.1","","99.22","","28","","","","Mostly Cloudy"
"1998-07-22 06:00","1998","07","22","06:00","21.9","","19.1","","84","","23","","9","","24.1","","99.36","","29","","","","Mostly Cloudy"
"1998-07-22 07:00","1998","07","22","07:00","24.0","","17.8","","68","","25","","15","","32.2","","99.42","","30","","","","Mostly Cloudy"
"1998-07-22 08:00","1998","07","22","08:00","23.6","","16.5","","64","","27","","24","","40.2","","99.46","","29","","","","Mainly Clear"
"1998-07-22 09:00","1998","07","22","09:00","24.5","","16.4","","61","","26","","24","","40.2","","99.52","","29","","","","Cloudy"
"1998-07-22 10:00","1998","07","22","10:00","25.0","","15.9","","57","","28","","22","","40.2","","99.56","","30","","","","Mostly Cloudy"
"1998-07-22 11:00","1998","07","22","11:00","25.8","","15.0","","51","","27","","20","","40.2","","99.59","","30","","","","Mostly Cloudy"
"1998-07-22 12:00","1998","07","22","12:00","25.9","","14.8","","50","","25","","24","","40.2","","99.62","","30","","","","Mostly Cloudy"
"1998-07-22 13:00","1998","07","22","13:00","26.3","","14.0","","47","","29","","22","","40.2","","99.62","","30","","","","Mainly Clear"
"1998-07-22 14:00","1998","07","22","14:00","26.9","","13.7","","44","","29","","19","","40.2","","99.62","","30","","","","Mainly Clear"
"1998-07-22 15:00","1998","07","22","15:00","27.3","","13.1","","42","","29","","15","","40.2","","99.56","","30","","","","Mainly Clear"
"1998-07-22 16:00","1998","07","22","16:00","27.7","","13.4","","41","","29","","13","","40.2","","99.52","","31","","","","Mainly Clear"
"1998-07-22 17:00","1998","07","22","17:00","27.6","","12.7","","40","","27","","17","","40.2","","99.49","","30","","","","Mainly Clear"
"1998-07-22 18:00","1998","07","22","18:00","26.4","","12.6","","42","","29","","7","","40.2","","99.52","","29","","","","Mostly Cloudy"
"1998-07-22 19:00","1998","07","22","19:00","25.4","","12.4","","44","","32","","6","","40.2","","99.52","","28","","","","Mostly Cloudy"
"1998-07-22 20:00","1998","07","22","20:00","24.8","","11.7","","44","","33","","4","","32.2","","99.56","","27","","","","Mostly Cloudy"
"1998-07-22 21:00","1998","07","22","21:00","23.9","","12.5","","49","","","","0","","25.0","","99.59","","26","","","","Mostly Cloudy"
"1998-07-22 22:00","1998","07","22","22:00","23.1","","14.2","","57","","23","","4","","25.0","","99.59","","27","","","","Mostly Cloudy"
"1998-07-22 23:00","1998","07","22","23:00","21.1","","14.1","","64","","25","","6","","25.0","","99.56","","25","","","","Mainly Clear"
"1998-07-23 00:00","1998","07","23","00:00","20.0","","12.8","","63","","25","","6","","25.0","","99.52","","","","","","Mainly Clear"
"1998-07-23 01:00","1998","07","23","01:00","20.8","","12.6","","59","","29","","11","","25.0","","99.56","","","","","","Mostly Cloudy"
"1998-07-23 02:00","1998","07","23","02:00","20.8","","13.8","","64","","24","","4","","25.0","","99.56","","","","","","Mostly Cloudy"
"1998-07-23 03:00","1998","07","23","03:00","19.9","","14.7","","72","","21","","7","","25.0","","99.52","","","","","","Rain Showers"
"1998-07-23 04:00","1998","07","23","04:00","18.5","","13.8","","74","","21","","4","","32.2","","99.52","","","","","","Rain Showers"
"1998-07-23 05:00","1998","07","23","05:00","18.3","","14.1","","76","","24","","6","","40.2","","99.52","","","","","","Mostly Cloudy"
"1998-07-23 06:00","1998","07","23","06:00","18.3","","14.6","","79","","19","","4","","40.2","","99.49","","","","","","Mostly Cloudy"
"1998-07-23 07:00","1998","07","23","07:00","18.6","","14.5","","77","","18","","4","","40.2","","99.46","","","","","","Mostly Cloudy"
"1998-07-23 08:00","1998","07","23","08:00","19.1","","15.4","","79","","","","0","","40.2","","99.49","","","","","","Cloudy"
"1998-07-23 09:00","1998","07","23","09:00","19.9","","15.3","","75","","","","0","","32.2","","99.49","","","","","","Rain Showers"
"1998-07-23 10:00","1998","07","23","10:00","22.0","","15.4","","66","","17","","7","","40.2","","99.46","","26","","","","Mainly Clear"
"1998-07-23 11:00","1998","07","23","11:00","23.2","","14.5","","58","","19","","11","","40.2","","99.39","","27","","","","Mostly Cloudy"
"1998-07-23 12:00","1998","07","23","12:00","24.7","","14.9","","54","","14","","15","","40.2","","99.32","","29","","","","Mainly Clear"
"1998-07-23 13:00","1998","07","23","13:00","25.9","","16.5","","56","","15","","13","","40.2","","99.19","","31","","","","Mostly Cloudy"
"1998-07-23 14:00","1998","07","23","14:00","22.8","","16.3","","67","","16","","15","","32.2","","99.12","","28","","","","Thunderstorms,Rain Showers"
"1998-07-23 15:00","1998","07","23","15:00","19.6","","17.5","","88","","17","","13","","12.9","","99.09","","","","","","Thunderstorms,Rain Showers"
"1998-07-23 16:00","1998","07","23","16:00","19.0","","16.9","","88","","18","","17","","24.1","","99.05","","","","","","Rain Showers"
"1998-07-23 17:00","1998","07","23","17:00","19.9","","17.5","","86","","20","","9","","24.1","","99.09","","","","","","Mostly Cloudy"
"1998-07-23 18:00","1998","07","23","18:00","20.0","","17.5","","86","","22","","9","","24.1","","99.15","","26","","","","Rain Showers"
"1998-07-23 19:00","1998","07","23","19:00","19.8","","17.7","","88","","22","","7","","24.1","","99.15","","","","","","Mainly Clear"
"1998-07-23 20:00","1998","07","23","20:00","19.1","","17.8","","92","","25","","7","","24.1","","99.22","","","","","","Mostly Cloudy"
"1998-07-23 21:00","1998","07","23","21:00","16.8","","14.6","","87","","27","","7","","24.1","","99.29","","","","","","Mainly Clear"
"1998-07-23 22:00","1998","07","23","22:00","16.2","","14.9","","92","","22","","6","","24.1","","99.29","","","","","","Clear"
"1998-07-23 23:00","1998","07","23","23:00","16.7","","15.1","","90","","26","","9","","24.1","","99.29","","","","","","Mainly Clear"
"1998-07-24 00:00","1998","07","24","00:00","16.4","","12.6","","78","","27","","13","","24.1","","99.39","","","","","","Mainly Clear"
"1998-07-24 01:00","1998","07","24","01:00","15.4","","11.3","","77","","27","","9","","24.1","","99.42","","","","","","Clear"
"1998-07-24 02:00","1998","07","24","02:00","14.6","","10.8","","78","","26","","9","","24.1","","99.46","","","","","","Clear"
"1998-07-24 03:00","1998","07","24","03:00","13.0","","10.0","","82","","26","","6","","24.1","","99.52","","","","","","Clear"
"1998-07-24 04:00","1998","07","24","04:00","12.4","","9.8","","84","","","","0","","32.2","","99.59","","","","","","Clear"
"1998-07-24 05:00","1998","07","24","05:00","12.0","","9.5","","85","","23","","6","","32.2","","99.66","","","","","","Clear"
"1998-07-24 06:00","1998","07","24","06:00","13.4","","10.4","","82","","26","","7","","40.2","","99.72","","","","","","Clear"
"1998-07-24 07:00","1998","07","24","07:00","14.8","","10.1","","73","","27","","11","","40.2","","99.76","","","","","","Mainly Clear"
"1998-07-24 08:00","1998","07","24","08:00","15.6","","8.5","","63","","28","","26","","40.2","","99.82","","","","","","Mainly Clear"
"1998-07-24 09:00","1998","07","24","09:00","16.4","","7.6","","56","","28","","26","","40.2","","99.89","","","","","","Mainly Clear"
"1998-07-24 10:00","1998","07","24","10:00","17.0","","7.9","","55","","29","","24","","40.2","","99.96","","","","","","Mainly Clear"
"1998-07-24 11:00","1998","07","24","11:00","18.2","","8.2","","52","","29","","22","","40.2","","99.99","","","","","","Mostly Cloudy"
"1998-07-24 12:00","1998","07","24","12:00","18.2","","7.9","","51","","29","","22","","40.2","","100.03","","","","","","Mainly Clear"
"1998-07-24 13:00","1998","07","24","13:00","18.7","","7.8","","49","","29","","17","","40.2","","100.06","","","","","","Mostly Cloudy"
"1998-07-24 14:00","1998","07","24","14:00","19.9","","8.4","","47","","26","","20","","40.2","","100.06","","","","","","Mainly Clear"
"1998-07-24 15:00","1998","07","24","15:00","20.9","","8.5","","45","","30","","22","","40.2","","100.13","","","","","","Mainly Clear"
"1998-07-24 16:00","1998","07","24","16:00","20.5","","8.2","","45","","29","","17","","40.2","","100.16","","","","","","Mainly Clear"
"1998-07-24 17:00","1998","07","24","17:00","20.7","","7.9","","44","","28","","19","","40.2","","100.16","","","","","","Mainly Clear"
"1998-07-24 18:00","1998","07","24","18:00","20.0","","7.7","","45","","28","","15","","40.2","","100.19","","","","","","Mainly Clear"
"1998-07-24 19:00","1998","07","24","19:00","19.0","","7.4","","47","","29","","11","","40.2","","100.19","","","","","","Mainly Clear"
"1998-07-24 20:00","1998","07","24","20:00","17.3","","7.3","","52","","32","","9","","32.2","","100.26","","","","","","Clear"
"1998-07-24 21:00","1998","07","24","21:00","16.5","","7.8","","56","","32","","6","","24.1","","100.29","","","","","","Clear"
"1998-07-24 22:00","1998","07","24","22:00","16.4","","7.8","","57","","32","","4","","24.1","","100.29","","","","","","Clear"
"1998-07-24 23:00","1998","07","24","23:00","15.3","","8.5","","64","","","","0","","24.1","","100.36","","","","","","Clear"
"1998-07-25 00:00","1998","07","25","00:00","13.6","","8.3","","70","","21","","6","","24.1","","100.36","","","","","","Clear"
"1998-07-25 01:00","1998","07","25","01:00","12.8","","9.4","","80","","24","","4","","24.1","","100.39","","","","","","Clear"
"1998-07-25 02:00","1998","07","25","02:00","12.9","","9.1","","78","","26","","4","","24.1","","100.43","","","","","","Clear"
"1998-07-25 03:00","1998","07","25","03:00","12.9","","9.0","","77","","23","","6","","24.1","","100.43","","","","","","Clear"
"1998-07-25 04:00","1998","07","25","04:00","11.3","","8.5","","83","","24","","4","","32.2","","100.46","","","","","","Clear"
"1998-07-25 05:00","1998","07","25","05:00","12.4","","9.7","","84","","27","","7","","40.2","","100.53","","","","","","Clear"
"1998-07-25 06:00","1998","07","25","06:00","13.2","","10.5","","84","","29","","11","","40.2","","100.60","","","","","","Clear"
"1998-07-25 07:00","1998","07","25","07:00","14.7","","10.9","","78","","27","","9","","40.2","","100.63","","","","","","Clear"
"1998-07-25 08:00","1998","07","25","08:00","16.5","","11.7","","73","","29","","11","","40.2","","100.66","","","","","","Clear"
"1998-07-25 09:00","1998","07","25","09:00","18.2","","11.8","","66","","30","","11","","40.2","","100.63","","","","","","Clear"
"1998-07-25 10:00","1998","07","25","10:00","20.2","","10.1","","52","","27","","15","","40.2","","100.63","","","","","","Mainly Clear"
"1998-07-25 11:00","1998","07","25","11:00","21.2","","9.2","","46","","28","","15","","40.2","","100.60","","","","","","Mainly Clear"
"1998-07-25 12:00","1998","07","25","12:00","21.8","","8.7","","43","","28","","15","","40.2","","100.56","","","","","","Mainly Clear"
"1998-07-25 13:00","1998","07","25","13:00","22.3","","9.2","","43","","29","","15","","40.2","","100.56","","","","","","Mainly Clear"
"1998-07-25 14:00","1998","07","25","14:00","23.3","","9.2","","41","","28","","13","","40.2","","100.56","","","","","","Mainly Clear"
"1998-07-25 15:00","1998","07","25","15:00","22.6","","8.7","","41","","31","","15","","40.2","","100.56","","","","","","Mostly Cloudy"
"1998-07-25 16:00","1998","07","25","16:00","22.8","","8.6","","40","","31","","15","","40.2","","100.56","","","","","","Mostly Cloudy"
"1998-07-25 17:00","1998","07","25","17:00","22.8","","9.0","","41","","26","","9","","40.2","","100.56","","","","","","Mostly Cloudy"
"1998-07-25 18:00","1998","07","25","18:00","23.1","","9.3","","41","","30","","9","","40.2","","100.56","","","","","","Mainly Clear"
"1998-07-25 19:00","1998","07","25","19:00","21.6","","9.0","","44","","33","","6","","40.2","","100.56","","","","","","Mainly Clear"
"1998-07-25 20:00","1998","07","25","20:00","20.8","","9.9","","50","","21","","4","","40.2","","100.56","","","","","","Mainly Clear"
"1998-07-25 21:00","1998","07","25","21:00","18.8","","10.9","","60","","22","","4","","25.0","","100.60","","","","","","Mostly Cloudy"
"1998-07-25 22:00","1998","07","25","22:00","17.7","","11.2","","66","","20","","6","","25.0","","100.63","","","","","","Mostly Cloudy"
"1998-07-25 23:00","1998","07","25","23:00","17.3","","11.7","","70","","","","0","","25.0","","100.63","","","","","","Mostly Cloudy"
"1998-07-26 00:00","1998","07","26","00:00","16.8","","11.7","","72","","","","0","","25.0","","100.60","","","","","","Mainly Clear"
"1998-07-26 01:00","1998","07","26","01:00","15.8","","11.5","","76","","","","0","","25.0","","100.60","","","","","","Mostly Cloudy"
"1998-07-26 02:00","1998","07","26","02:00","16.0","","12.3","","79","","","","0","","24.1","","100.60","","","","","","Mostly Cloudy"
"1998-07-26 03:00","1998","07","26","03:00","16.1","","12.8","","81","","22","","4","","24.1","","100.60","","","","","","Mostly Cloudy"
"1998-07-26 04:00","1998","07","26","04:00","15.6","","12.5","","82","","","","0","","32.2","","100.63","","","","","","Mostly Cloudy"
"1998-07-26 05:00","1998","07","26","05:00","15.6","","12.6","","82","","23","","6","","40.2","","100.66","","","","","","Mostly Cloudy"
"1998-07-26 06:00","1998","07","26","06:00","16.0","","13.4","","85","","25","","4","","40.2","","100.66","","","","","","Mostly Cloudy"
"1998-07-26 07:00","1998","07","26","07:00","17.2","","14.4","","84","","","","0","","40.2","","100.70","","","","","","Mainly Clear"
"1998-07-26 08:00","1998","07","26","08:00","19.5","","12.3","","63","","33","","7","","40.2","","100.66","","","","","","Mainly Clear"
"1998-07-26 09:00","1998","07","26","09:00","20.9","","12.2","","57","","","","0","","40.2","","100.63","","","","","","Clear"
"1998-07-26 10:00","1998","07","26","10:00","22.2","","11.5","","51","","2","","4","","40.2","","100.60","","","","","","Mainly Clear"
"1998-07-26 11:00","1998","07","26","11:00","22.7","","10.9","","47","","30","","6","","40.2","","100.56","","","","","","Mostly Cloudy"
"1998-07-26 12:00","1998","07","26","12:00","23.6","","10.3","","43","","28","","13","","40.2","","100.49","","25","","","","Mostly Cloudy"
"1998-07-26 13:00","1998","07","26","13:00","24.0","","9.5","","40","","26","","11","","40.2","","100.46","","25","","","","Mostly Cloudy"
"1998-07-26 14:00","1998","07","26","14:00","25.0","","9.6","","38","","28","","9","","40.2","","100.43","","26","","","","Mainly Clear"
"1998-07-26 15:00","1998","07","26","15:00","24.7","","9.0","","37","","27","","13","","40.2","","100.39","","26","","","","Mainly Clear"
"1998-07-26 16:00","1998","07","26","16:00","24.8","","9.0","","37","","26","","7","","40.2","","100.36","","26","","","","Mainly Clear"
"1998-07-26 17:00","1998","07","26","17:00","23.9","","9.4","","40","","23","","4","","40.2","","100.33","","25","","","","Mainly Clear"
"1998-07-26 18:00","1998","07","26","18:00","23.7","","9.5","","41","","","","0","","40.2","","100.29","","25","","","","Mainly Clear"
"1998-07-26 19:00","1998","07","26","19:00","23.2","","10.7","","45","","","","0","","40.2","","100.26","","25","","","","Mainly Clear"
"1998-07-26 20:00","1998","07","26","20:00","21.4","","12.5","","57","","","","0","","40.2","","100.26","","","","","","Mainly Clear"
"1998-07-26 21:00","1998","07","26","21:00","20.1","","13.1","","64","","16","","6","","25.0","","100.26","","","","","","Mostly Cloudy"
"1998-07-26 22:00","1998","07","26","22:00","19.3","","13.7","","70","","18","","6","","25.0","","100.23","","","","","","Mostly Cloudy"
"1998-07-26 23:00","1998","07","26","23:00","17.8","","13.7","","77","","20","","6","","25.0","","100.23","","","","","","Mainly Clear"
"1998-07-27 00:00","1998","07","27","00:00","16.9","","13.6","","81","","18","","6","","25.0","","100.19","","","","","","Mainly Clear"
"1998-07-27 01:00","1998","07","27","01:00","16.4","","13.4","","82","","19","","4","","25.0","","100.16","","","","","","Mainly Clear"
"1998-07-27 02:00","1998","07","27","02:00","15.8","","12.6","","81","","","","0","","25.0","","100.16","","","","","","Clear"
"1998-07-27 03:00","1998","07","27","03:00","15.2","","12.2","","82","","18","","7","","25.0","","100.09","","","","","","Clear"
"1998-07-27 04:00","1998","07","27","04:00","14.8","","12.3","","85","","17","","6","","25.0","","100.13","","","","","","Clear"
"1998-07-27 05:00","1998","07","27","05:00","14.8","","12.6","","87","","18","","4","","40.2","","100.09","","","","","","Mainly Clear"
"1998-07-27 06:00","1998","07","27","06:00","15.4","","13.2","","87","","18","","4","","40.2","","100.09","","","","","","Mainly Clear"
"1998-07-27 07:00","1998","07","27","07:00","17.7","","15.5","","87","","18","","13","","40.2","","100.06","","","","","","Mainly Clear"
"1998-07-27 08:00","1998","07","27","08:00","19.5","","16.2","","81","","18","","13","","40.2","","99.99","","","","","","Mainly Clear"
"1998-07-27 09:00","1998","07","27","09:00","23.0","","16.1","","65","","20","","19","","40.2","","99.89","","28","","","","Mostly Cloudy"
"1998-07-27 10:00","1998","07","27","10:00","22.4","","15.6","","65","","20","","13","","40.2","","99.86","","27","","","","Mostly Cloudy"
"1998-07-27 11:00","1998","07","27","11:00","23.9","","15.0","","57","","20","","19","","40.2","","99.76","","28","","","","Cloudy"
"1998-07-27 12:00","1998","07","27","12:00","24.7","","14.3","","52","","19","","22","","40.2","","99.69","","28","","","","Cloudy"
"1998-07-27 13:00","1998","07","27","13:00","24.1","","13.2","","51","","18","","22","","40.2","","99.59","","27","","","","Cloudy"
"1998-07-27 14:00","1998","07","27","14:00","23.5","","13.4","","53","","18","","19","","40.2","","99.49","","27","","","","Rain"
"1998-07-27 15:00","1998","07","27","15:00","22.4","","15.6","","65","","19","","17","","16.1","","99.49","","27","","","","Rain"
"1998-07-27 16:00","1998","07","27","16:00","22.1","","15.9","","68","","21","","19","","16.1","","99.46","","27","","","","Rain"
"1998-07-27 17:00","1998","07","27","17:00","22.4","","14.5","","61","","21","","24","","24.1","","99.49","","26","","","","Cloudy"
"1998-07-27 18:00","1998","07","27","18:00","22.2","","15.5","","66","","22","","26","","19.3","","99.39","","26","","","","Cloudy"
"1998-07-27 19:00","1998","07","27","19:00","18.7","","16.2","","85","","22","","6","","16.1","","99.39","","","","","","Rain Showers"
"1998-07-27 20:00","1998","07","27","20:00","19.2","","17.1","","88","","19","","4","","16.1","","99.36","","","","","","Mostly Cloudy"
"1998-07-27 21:00","1998","07","27","21:00","19.5","","16.2","","81","","19","","13","","16.1","","99.32","","","","","","Mostly Cloudy"
"1998-07-27 22:00","1998","07","27","22:00","19.2","","16.1","","82","","24","","9","","19.3","","99.29","","","","","","Rain Showers"
"1998-07-27 23:00","1998","07","27","23:00","19.0","","16.0","","83","","22","","19","","19.3","","99.29","","","","","","Mainly Clear"
"1998-07-28 00:00","1998","07","28","00:00","18.6","","16.0","","85","","23","","13","","19.3","","99.29","","","","","","Clear"
"1998-07-28 01:00","1998","07","28","01:00","18.1","","16.0","","88","","22","","15","","19.3","","99.32","","","","","","Clear"
"1998-07-28 02:00","1998","07","28","02:00","17.8","","15.6","","87","","24","","11","","19.3","","99.32","","","","","","Clear"
"1998-07-28 03:00","1998","07","28","03:00","16.9","","15.2","","90","","24","","15","","24.1","","99.39","","","","","","Clear"
"1998-07-28 04:00","1998","07","28","04:00","16.1","","14.9","","93","","23","","9","","19.3","","99.42","","","","","","Clear"
"1998-07-28 05:00","1998","07","28","05:00","15.4","","14.3","","93","","24","","11","","24.1","","99.49","","","","","","Clear"
"1998-07-28 06:00","1998","07","28","06:00","16.5","","15.1","","91","","24","","9","","32.2","","99.56","","","","","","Clear"
"1998-07-28 07:00","1998","07","28","07:00","18.3","","15.2","","82","","24","","11","","40.2","","99.59","","","","","","Mainly Clear"
"1998-07-28 08:00","1998","07","28","08:00","20.2","","14.3","","69","","25","","15","","40.2","","99.59","","","","","","Clear"
"1998-07-28 09:00","1998","07","28","09:00","21.8","","14.3","","62","","21","","11","","40.2","","99.59","","25","","","","Clear"
"1998-07-28 10:00","1998","07","28","10:00","23.4","","14.5","","57","","21","","17","","40.2","","99.59","","27","","","","Mainly Clear"
"1998-07-28 11:00","1998","07","28","11:00","24.9","","13.2","","48","","21","","17","","40.2","","99.59","","28","","","","Mainly Clear"
"1998-07-28 12:00","1998","07","28","12:00","25.2","","12.8","","46","","21","","20","","40.2","","99.56","","28","","","","Mainly Clear"
"1998-07-28 13:00","1998","07","28","13:00","25.7","","12.3","","43","","22","","19","","40.2","","99.52","","28","","","","Mostly Cloudy"
"1998-07-28 14:00","1998","07","28","14:00","27.5","","11.6","","37","","21","","19","","40.2","","99.46","","30","","","","Mostly Cloudy"
"1998-07-28 15:00","1998","07","28","15:00","26.7","","10.5","","36","","19","","17","","40.2","","99.42","","28","","","","Mostly Cloudy"
"1998-07-28 16:00","1998","07","28","16:00","26.4","","12.1","","41","","20","","19","","40.2","","99.39","","29","","","","Mostly Cloudy"
"1998-07-28 17:00","1998","07","28","17:00","25.5","","14.1","","49","","18","","17","","40.2","","99.32","","29","","","","Mostly Cloudy"
"1998-07-28 18:00","1998","07","28","18:00","24.4","","14.8","","55","","17","","17","","40.2","","99.26","","28","","","","Mostly Cloudy"
"1998-07-28 19:00","1998","07","28","19:00","19.7","","15.5","","77","","31","","24","","24.1","","99.32","","","","","","Rain Showers"
"1998-07-28 20:00","1998","07","28","20:00","18.7","","16.9","","89","","5","","4","","19.3","","99.22","","","","","","Rain"
"1998-07-28 21:00","1998","07","28","21:00","18.5","","17.0","","91","","12","","7","","25.0","","99.12","","","","","","Mostly Cloudy"
"1998-07-28 22:00","1998","07","28","22:00","18.5","","17.2","","92","","12","","9","","25.0","","98.95","","","","","","Cloudy"
"1998-07-28 23:00","1998","07","28","23:00","19.5","","17.3","","87","","16","","9","","16.1","","98.85","","","","","","Cloudy"
"1998-07-29 00:00","1998","07","29","00:00","17.6","","15.8","","89","","34","","22","","6.4","","98.89","","","","","","Thunderstorms,Moderate Rain Showers"
"1998-07-29 01:00","1998","07","29","01:00","17.4","","16.7","","96","","","","0","","16.1","","98.79","","","","","","Rain Showers"
"1998-07-29 02:00","1998","07","29","02:00","17.2","","16.6","","96","","20","","6","","16.1","","98.89","","","","","","Mostly Cloudy"
"1998-07-29 03:00","1998","07","29","03:00","16.6","","16.2","","97","","20","","9","","16.1","","98.95","","","","","","Mostly Cloudy"
"1998-07-29 04:00","1998","07","29","04:00","16.6","","16.0","","96","","23","","9","","16.1","","98.99","","","","","","Mostly Cloudy"
"1998-07-29 05:00","1998","07","29","05:00","16.1","","15.7","","97","","25","","9","","24.1","","99.05","","","","","","Clear"
"1998-07-29 06:00","1998","07","29","06:00","16.2","","15.4","","95","","26","","9","","12.9","","99.12","","","","","","Clear"
"1998-07-29 07:00","1998","07","29","07:00","18.0","","16.2","","89","","25","","19","","19.3","","99.15","","","","","","Mainly Clear"
"1998-07-29 08:00","1998","07","29","08:00","18.8","","15.5","","81","","27","","17","","24.1","","99.22","","","","","","Mostly Cloudy"
"1998-07-29 09:00","1998","07","29","09:00","20.1","","14.8","","72","","27","","20","","32.2","","99.26","","","","","","Mostly Cloudy"
"1998-07-29 10:00","1998","07","29","10:00","21.4","","14.4","","64","","27","","19","","32.2","","99.29","","25","","","","Mainly Clear"
"1998-07-29 11:00","1998","07","29","11:00","22.2","","14.9","","63","","26","","17","","32.2","","99.29","","26","","","","Mostly Cloudy"
"1998-07-29 12:00","1998","07","29","12:00","22.4","","14.0","","59","","27","","15","","32.2","","99.29","","26","","","","Mostly Cloudy"
"1998-07-29 13:00","1998","07","29","13:00","22.1","","13.9","","60","","30","","19","","32.2","","99.29","","25","","","","Mostly Cloudy"
"1998-07-29 14:00","1998","07","29","14:00","23.0","","13.0","","53","","30","","20","","32.2","","99.32","","26","","","","Mostly Cloudy"
"1998-07-29 15:00","1998","07","29","15:00","24.0","","11.8","","46","","29","","24","","32.2","","99.36","","26","","","","Mainly Clear"
"1998-07-29 16:00","1998","07","29","16:00","24.7","","12.7","","47","","27","","24","","32.2","","99.39","","27","","","","Mainly Clear"
"1998-07-29 17:00","1998","07","29","17:00","24.0","","12.5","","49","","27","","19","","32.2","","99.42","","27","","","","Mainly Clear"
"1998-07-29 18:00","1998","07","29","18:00","23.6","","12.5","","50","","27","","15","","32.2","","99.46","","26","","","","Mainly Clear"
"1998-07-29 19:00","1998","07","29","19:00","22.7","","12.3","","52","","28","","13","","40.2","","99.52","","25","","","","Mainly Clear"
"1998-07-29 20:00","1998","07","29","20:00","21.2","","12.6","","58","","27","","6","","40.2","","99.59","","","","","","Mainly Clear"
"1998-07-29 21:00","1998","07","29","21:00","20.1","","12.7","","62","","25","","6","","25.0","","99.66","","","","","","Mostly Cloudy"
"1998-07-29 22:00","1998","07","29","22:00","18.6","","12.6","","68","","22","","7","","25.0","","99.69","","","","","","Mostly Cloudy"
"1998-07-29 23:00","1998","07","29","23:00","17.9","","12.3","","70","","21","","6","","25.0","","99.72","","","","","","Mainly Clear"
"1998-07-30 00:00","1998","07","30","00:00","17.5","","12.4","","72","","22","","4","","25.0","","99.69","","","","","","Mainly Clear"
"1998-07-30 01:00","1998","07","30","01:00","16.8","","12.6","","76","","23","","6","","25.0","","99.72","","","","","","Mainly Clear"
"1998-07-30 02:00","1998","07","30","02:00","15.5","","12.4","","82","","21","","6","","25.0","","99.72","","","","","","Mainly Clear"
"1998-07-30 03:00","1998","07","30","03:00","15.5","","12.6","","83","","21","","6","","24.1","","99.76","","","","","","Mostly Cloudy"
"1998-07-30 04:00","1998","07","30","04:00","15.1","","12.8","","86","","25","","4","","24.1","","99.79","","","","","","Mainly Clear"
"1998-07-30 05:00","1998","07","30","05:00","14.6","","12.3","","86","","22","","4","","24.1","","99.82","","","","","","Mainly Clear"
"1998-07-30 06:00","1998","07","30","06:00","15.2","","13.4","","89","","","","0","","24.1","","99.86","","","","","","Mainly Clear"
"1998-07-30 07:00","1998","07","30","07:00","16.5","","14.2","","86","","23","","6","","24.1","","99.89","","","","","","Mainly Clear"
"1998-07-30 08:00","1998","07","30","08:00","18.6","","14.8","","79","","25","","9","","32.2","","99.89","","","","","","Mostly Cloudy"
"1998-07-30 09:00","1998","07","30","09:00","19.9","","14.8","","72","","26","","9","","32.2","","99.93","","","","","","Mostly Cloudy"
"1998-07-30 10:00","1998","07","30","10:00","20.5","","14.9","","70","","24","","9","","32.2","","99.93","","","","","","Mostly Cloudy"
"1998-07-30 11:00","1998","07","30","11:00","21.0","","15.3","","70","","24","","9","","32.2","","99.96","","25","","","","Cloudy"
"1998-07-30 12:00","1998","07","30","12:00","21.2","","15.7","","71","","22","","11","","32.2","","99.93","","26","","","","Cloudy"
"1998-07-30 13:00","1998","07","30","13:00","20.6","","15.5","","73","","23","","11","","32.2","","99.93","","25","","","","Cloudy"
"1998-07-30 14:00","1998","07","30","14:00","20.4","","15.4","","73","","22","","13","","24.1","","99.93","","25","","","","Rain Showers"
"1998-07-30 15:00","1998","07","30","15:00","15.4","","13.7","","90","","21","","9","","12.9","","99.96","","","","","","Moderate Rain Showers"
"1998-07-30 16:00","1998","07","30","16:00","15.5","","14.2","","92","","27","","7","","32.2","","100.03","","","","","","Mostly Cloudy"
"1998-07-30 17:00","1998","07","30","17:00","18.0","","16.2","","89","","23","","7","","24.1","","99.99","","","","","","Mainly Clear"
"1998-07-30 18:00","1998","07","30","18:00","19.1","","15.0","","77","","25","","7","","32.2","","100.03","","","","","","Mainly Clear"
"1998-07-30 19:00","1998","07","30","19:00","17.3","","12.9","","75","","30","","7","","40.2","","100.09","","","","","","Mainly Clear"
"1998-07-30 20:00","1998","07","30","20:00","15.9","","11.6","","76","","33","","11","","40.2","","100.16","","","","","","Mainly Clear"
"1998-07-30 21:00","1998","07","30","21:00","15.2","","12.1","","82","","30","","6","","25.0","","100.26","","","","","","Mainly Clear"
"1998-07-30 22:00","1998","07","30","22:00","14.9","","12.1","","83","","31","","6","","25.0","","100.26","","","","","","Clear"
"1998-07-30 23:00","1998","07","30","23:00","14.6","","12.4","","87","","27","","4","","25.0","","100.29","","","","","","Mainly Clear"
"1998-07-31 00:00","1998","07","31","00:00","14.5","","12.4","","87","","29","","9","","25.0","","100.29","","","","","","Mainly Clear"
"1998-07-31 01:00","1998","07","31","01:00","14.2","","12.6","","90","","24","","6","","25.0","","100.33","","","","","","Mainly Clear"
"1998-07-31 02:00","1998","07","31","02:00","13.1","","11.8","","92","","29","","7","","25.0","","100.33","","","","","","Mainly Clear"
"1998-07-31 03:00","1998","07","31","03:00","13.5","","12.3","","92","","32","","9","","25.0","","100.36","","","","","","Clear"
"1998-07-31 04:00","1998","07","31","04:00","13.3","","11.8","","91","","33","","7","","25.0","","100.39","","","","","","Clear"
"1998-07-31 05:00","1998","07","31","05:00","12.6","","11.0","","90","","32","","7","","40.2","","100.46","","","","","","Mainly Clear"
"1998-07-31 06:00","1998","07","31","06:00","13.6","","11.2","","85","","33","","9","","32.2","","100.49","","","","","","Clear"
"1998-07-31 07:00","1998","07","31","07:00","15.2","","11.3","","78","","36","","11","","32.2","","100.60","","","","","","Clear"
"1998-07-31 08:00","1998","07","31","08:00","16.7","","11.3","","70","","34","","9","","40.2","","100.63","","","","","","Clear"
"1998-07-31 09:00","1998","07","31","09:00","18.0","","11.1","","64","","33","","13","","40.2","","100.66","","","","","","Clear"
"1998-07-31 10:00","1998","07","31","10:00","19.1","","10.3","","57","","32","","13","","40.2","","100.70","","","","","","Mainly Clear"
"1998-07-31 11:00","1998","07","31","11:00","20.2","","9.5","","50","","30","","17","","40.2","","100.70","","","","","","Mainly Clear"
"1998-07-31 12:00","1998","07","31","12:00","19.8","","7.6","","45","","29","","17","","40.2","","100.73","","","","","","Mainly Clear"
"1998-07-31 13:00","1998","07","31","13:00","21.0","","8.1","","43","","33","","19","","40.2","","100.73","","","","","","Mainly Clear"
"1998-07-31 14:00","1998","07","31","14:00","21.6","","6.9","","39","","33","","20","","40.2","","100.73","","","","","","Mainly Clear"
"1998-07-31 15:00","1998","07","31","15:00","22.0","","7.2","","38","","34","","19","","40.2","","100.73","","","","","","Mainly Clear"
"1998-07-31 16:00","1998","07","31","16:00","22.1","","6.6","","37","","32","","20","","40.2","","100.76","","","","","","Mainly Clear"
"1998-07-31 17:00","1998","07","31","17:00","21.8","","6.4","","37","","32","","20","","40.2","","100.80","","","","","","Mainly Clear"
"1998-07-31 18:00","1998","07","31","18:00","21.6","","6.4","","37","","34","","13","","40.2","","100.80","","","","","","Mainly Clear"
"1998-07-31 19:00","1998","07","31","19:00","20.8","","6.7","","40","","32","","9","","40.2","","100.86","","","","","","Mainly Clear"
"1998-07-31 20:00","1998","07","31","20:00","19.1","","7.1","","46","","32","","6","","40.2","","100.90","","","","","","Mainly Clear"
"1998-07-31 21:00","1998","07","31","21:00","18.3","","7.5","","49","","31","","4","","25.0","","100.93","","","","","","Mainly Clear"
"1998-07-31 22:00","1998","07","31","22:00","17.6","","8.6","","56","","29","","6","","25.0","","100.93","","","","","","Mainly Clear"
"1998-07-31 23:00","1998","07","31","23:00","15.6","","9.2","","66","","25","","4","","25.0","","101.00","","","","","","Mainly Clear"
