"Station Name","OTTAWA MACDONALD-CARTIER INT'L A"
"Province","ONTARIO"
"Latitude","45.32"
"Longitude","-75.67"
"Elevation","114.00"
"Climate Identifier","6106000"
"WMO Identifier","71628"
"TC Identifier","YOW"
"All times are specified in Local Standard Time (LST). Add 1 hour to adjust for Daylight Saving Time where and when it is observed."

"Legend"
"E","Estimated"
"M","Missing"
"NA","Not Available"

"Date/Time","Year","Month","Day","Time","Temp (°C)","Temp Flag","Dew Point Temp (°C)","Dew Point Temp Flag","Rel Hum (%)","Rel Hum Flag","Wind Dir (10s deg)","Wind Dir Flag","Wind Spd (km/h)","Wind Spd Flag","Visibility (km)","Visibility Flag","Stn Press (kPa)","Stn Press Flag","Hmdx","Hmdx Flag","Wind Chill","Wind Chill Flag","Weather"
"1998-06-01 00:00","1998","06","01","00:00","12.5","","5.4","","62","","32","","15","","25.0","","98.65","","","","","","Mainly Clear"
"1998-06-01 01:00","1998","06","01","01:00","12.0","","4.9","","62","","30","","9","","25.0","","98.79","","","","","","Clear"
"1998-06-01 02:00","1998","06","01","02:00","11.7","","4.4","","61","","30","","11","","25.0","","98.82","","","","","","Mostly Cloudy"
"1998-06-01 03:00","1998","06","01","03:00","11.0","","4.0","","62","","30","","24","","25.0","","98.85","","","","","","Mostly Cloudy"
"1998-06-01 04:00","1998","06","01","04:00","9.2","","2.9","","65","","34","","28","","25.0","","98.92","","","","","","Mostly Cloudy"
"1998-06-01 05:00","1998","06","01","05:00","7.9","","-0.3","","56","","35","","22","","40.2","","99.09","","","","","","Mostly Cloudy"
"1998-06-01 06:00","1998","06","01","06:00","7.2","","-0.5","","58","","34","","22","","40.2","","99.19","","","","","","Mostly Cloudy"
"1998-06-01 07:00","1998","06","01","07:00","7.4","","-3.2","","47","","33","","33","","40.2","","99.26","","","","","","Mainly Clear"
"1998-06-01 08:00","1998","06","01","08:00","8.1","","-3.2","","45","","32","","26","","40.2","","99.29","","","","","","Clear"
"1998-06-01 09:00","1998","06","01","09:00","9.8","","-3.0","","40","","32","","20","","40.2","","99.32","","","","","","Clear"
"1998-06-01 10:00","1998","06","01","10:00","11.0","","-2.8","","38","","30","","26","","40.2","","99.32","","","","","","Mainly Clear"
"1998-06-01 11:00","1998","06","01","11:00","11.2","","-1.8","","40","","29","","22","","40.2","","99.39","","","","","","Mostly Cloudy"
"1998-06-01 12:00","1998","06","01","12:00","12.2","","-1.6","","38","","28","","24","","40.2","","99.36","","","","","","Mostly Cloudy"
"1998-06-01 13:00","1998","06","01","13:00","13.4","","-1.2","","36","","29","","28","","40.2","","99.32","","","","","","Mostly Cloudy"
"1998-06-01 14:00","1998","06","01","14:00","14.3","","-1.1","","35","","26","","13","","40.2","","99.29","","","","","","Mainly Clear"
"1998-06-01 15:00","1998","06","01","15:00","15.6","","-0.6","","33","","26","","19","","40.2","","99.29","","","","","","Mainly Clear"
"1998-06-01 16:00","1998","06","01","16:00","15.9","","0.3","","35","","25","","15","","40.2","","99.19","","","","","","Mainly Clear"
"1998-06-01 17:00","1998","06","01","17:00","16.0","","0.5","","35","","26","","11","","40.2","","99.19","","","","","","Clear"
"1998-06-01 18:00","1998","06","01","18:00","16.1","","-0.1","","33","","22","","19","","40.2","","99.19","","","","","","Mainly Clear"
"1998-06-01 19:00","1998","06","01","19:00","15.7","","0.5","","36","","22","","9","","40.2","","99.19","","","","","","Mainly Clear"
"1998-06-01 20:00","1998","06","01","20:00","12.9","","2.4","","49","","19","","17","","40.2","","99.19","","","","","","Mainly Clear"
"1998-06-01 21:00","1998","06","01","21:00","12.5","","3.9","","56","","20","","19","","25.0","","99.19","","","","","","Cloudy"
"1998-06-01 22:00","1998","06","01","22:00","12.0","","4.1","","58","","20","","15","","25.0","","99.22","","","","","","Cloudy"
"1998-06-01 23:00","1998","06","01","23:00","11.5","","3.9","","60","","20","","15","","25.0","","99.19","","","","","","Cloudy"
"1998-06-02 00:00","1998","06","02","00:00","11.2","","3.1","","57","","21","","13","","24.1","","99.19","","","","","","Cloudy"
"1998-06-02 01:00","1998","06","02","01:00","10.9","","2.8","","57","","20","","13","","25.0","","99.12","","","","","","Cloudy"
"1998-06-02 02:00","1998","06","02","02:00","10.5","","3.1","","60","","20","","15","","19.3","","99.12","","","","","","Rain"
"1998-06-02 03:00","1998","06","02","03:00","10.1","","3.5","","64","","19","","11","","19.3","","99.05","","","","","","Rain"
"1998-06-02 04:00","1998","06","02","04:00","9.6","","2.8","","63","","18","","9","","32.2","","98.99","","","","","","Cloudy"
"1998-06-02 05:00","1998","06","02","05:00","10.1","","1.6","","55","","18","","17","","32.2","","98.95","","","","","","Cloudy"
"1998-06-02 06:00","1998","06","02","06:00","10.4","","2.0","","56","","19","","17","","32.2","","98.92","","","","","","Mostly Cloudy"
"1998-06-02 07:00","1998","06","02","07:00","10.6","","2.6","","58","","20","","20","","32.2","","98.85","","","","","","Mostly Cloudy"
"1998-06-02 08:00","1998","06","02","08:00","14.0","","4.4","","52","","20","","24","","32.2","","98.79","","","","","","Mainly Clear"
"1998-06-02 09:00","1998","06","02","09:00","16.8","","6.2","","50","","21","","19","","32.2","","98.72","","","","","","Mainly Clear"
"1998-06-02 10:00","1998","06","02","10:00","19.1","","8.2","","49","","22","","24","","32.2","","98.65","","","","","","Mostly Cloudy"
"1998-06-02 11:00","1998","06","02","11:00","20.5","","9.2","","48","","19","","22","","32.2","","98.55","","","","","","Mostly Cloudy"
"1998-06-02 12:00","1998","06","02","12:00","20.3","","9.6","","50","","20","","30","","24.1","","98.49","","","","","","Cloudy"
"1998-06-02 13:00","1998","06","02","13:00","16.9","","9.7","","63","","19","","17","","12.9","","98.45","","","","","","Rain Showers"
"1998-06-02 14:00","1998","06","02","14:00","16.9","","10.7","","67","","19","","17","","19.3","","98.38","","","","","","Cloudy"
"1998-06-02 15:00","1998","06","02","15:00","18.7","","10.8","","60","","19","","24","","24.1","","98.28","","","","","","Mostly Cloudy"
"1998-06-02 16:00","1998","06","02","16:00","18.2","","10.4","","60","","19","","22","","24.1","","98.15","","","","","","Mostly Cloudy"
"1998-06-02 17:00","1998","06","02","17:00","18.6","","11.3","","62","","16","","19","","19.3","","97.95","","","","","","Mainly Clear"
"1998-06-02 18:00","1998","06","02","18:00","19.2","","11.6","","61","","16","","15","","19.3","","97.88","","","","","","Cloudy"
"1998-06-02 19:00","1998","06","02","19:00","18.3","","12.3","","68","","20","","4","","19.3","","97.75","","","","","","Thunderstorms,Rain Showers"
"1998-06-02 20:00","1998","06","02","20:00","15.2","","11.1","","76","","22","","15","","11.3","","97.75","","","","","","Thunderstorms,Rain Showers"
"1998-06-02 21:00","1998","06","02","21:00","14.8","","11.2","","79","","22","","15","","24.1","","97.78","","","","","","Cloudy"
"1998-06-02 22:00","1998","06","02","22:00","14.7","","11.2","","80","","24","","13","","24.1","","97.78","","","","","","Cloudy"
"1998-06-02 23:00","1998","06","02","23:00","10.2","","6.9","","80","","29","","44","","24.1","","97.95","","","","","","Cloudy"
"1998-06-03 00:00","1998","06","03","00:00","9.2","","5.2","","76","","29","","44","","24.1","","98.05","","","","","","Cloudy"
"1998-06-03 01:00","1998","06","03","01:00","8.5","","3.8","","72","","29","","33","","24.1","","98.18","","","","","","Cloudy"
"1998-06-03 02:00","1998","06","03","02:00","7.8","","2.6","","70","","29","","46","","24.1","","98.32","","","","","","Cloudy"
"1998-06-03 03:00","1998","06","03","03:00","7.8","","2.1","","67","","30","","37","","24.1","","98.45","","","","","","Cloudy"
"1998-06-03 04:00","1998","06","03","04:00","7.9","","1.6","","64","","30","","33","","24.1","","98.59","","","","","","Cloudy"
"1998-06-03 05:00","1998","06","03","05:00","7.7","","1.2","","63","","29","","30","","40.2","","98.69","","","","","","Mostly Cloudy"
"1998-06-03 06:00","1998","06","03","06:00","7.4","","1.2","","65","","28","","32","","40.2","","98.79","","","","","","Mainly Clear"
"1998-06-03 07:00","1998","06","03","07:00","7.8","","1.5","","64","","30","","28","","40.2","","98.85","","","","","","Mainly Clear"
"1998-06-03 08:00","1998","06","03","08:00","9.2","","1.6","","59","","29","","22","","40.2","","98.85","","","","","","Clear"
"1998-06-03 09:00","1998","06","03","09:00","11.0","","1.9","","53","","29","","32","","40.2","","98.85","","","","","","Mainly Clear"
"1998-06-03 10:00","1998","06","03","10:00","12.1","","0.5","","45","","28","","26","","40.2","","98.85","","","","","","Mostly Cloudy"
"1998-06-03 11:00","1998","06","03","11:00","12.1","","-0.3","","42","","30","","24","","32.2","","98.85","","","","","","Mostly Cloudy"
"1998-06-03 12:00","1998","06","03","12:00","6.8","","1.0","","66","","28","","13","","19.3","","98.95","","","","","","Rain Showers"
"1998-06-03 13:00","1998","06","03","13:00","10.2","","5.1","","71","","30","","32","","32.2","","98.92","","","","","","Mostly Cloudy"
"1998-06-03 14:00","1998","06","03","14:00","11.5","","3.0","","56","","29","","37","","32.2","","98.92","","","","","","Mainly Clear"
"1998-06-03 15:00","1998","06","03","15:00","12.4","","1.6","","48","","29","","41","","40.2","","98.89","","","","","","Mainly Clear"
"1998-06-03 16:00","1998","06","03","16:00","13.0","","1.2","","45","","28","","26","","40.2","","98.92","","","","","","Mainly Clear"
"1998-06-03 17:00","1998","06","03","17:00","13.0","","0.5","","42","","29","","46","","40.2","","98.92","","","","","","Mainly Clear"
"1998-06-03 18:00","1998","06","03","18:00","10.9","","-1.1","","43","","29","","28","","40.2","","98.99","","","","","","Mostly Cloudy"
"1998-06-03 19:00","1998","06","03","19:00","9.5","","1.3","","57","","35","","9","","40.2","","99.05","","","","","","Mainly Clear"
"1998-06-03 20:00","1998","06","03","20:00","10.5","","0.1","","48","","25","","19","","40.2","","99.09","","","","","","Mostly Cloudy"
"1998-06-03 21:00","1998","06","03","21:00","10.1","","0.3","","51","","28","","19","","25.0","","99.12","","","","","","Mostly Cloudy"
"1998-06-03 22:00","1998","06","03","22:00","8.8","","0.9","","58","","25","","11","","25.0","","99.12","","","","","","Mostly Cloudy"
"1998-06-03 23:00","1998","06","03","23:00","9.1","","1.7","","60","","25","","11","","25.0","","99.12","","","","","","Mostly Cloudy"
"1998-06-04 00:00","1998","06","04","00:00","8.9","","1.5","","60","","26","","7","","25.0","","99.12","","","","","","Mostly Cloudy"
"1998-06-04 01:00","1998","06","04","01:00","8.7","","0.9","","58","","25","","4","","25.0","","99.09","","","","","","Mostly Cloudy"
"1998-06-04 02:00","1998","06","04","02:00","8.5","","0.6","","58","","26","","11","","25.0","","99.05","","","","","","Mostly Cloudy"
"1998-06-04 03:00","1998","06","04","03:00","8.2","","0.8","","60","","25","","13","","25.0","","99.02","","","","","","Mostly Cloudy"
"1998-06-04 04:00","1998","06","04","04:00","6.1","","-0.5","","63","","25","","11","","40.2","","99.05","","","","","","Mainly Clear"
"1998-06-04 05:00","1998","06","04","05:00","6.4","","0.5","","66","","25","","4","","40.2","","99.05","","","","","","Mainly Clear"
"1998-06-04 06:00","1998","06","04","06:00","8.9","","2.6","","65","","26","","6","","40.2","","99.09","","","","","","Mainly Clear"
"1998-06-04 07:00","1998","06","04","07:00","9.7","","2.3","","60","","28","","19","","40.2","","99.09","","","","","","Mainly Clear"
"1998-06-04 08:00","1998","06","04","08:00","11.3","","2.1","","53","","29","","30","","40.2","","99.09","","","","","","Clear"
"1998-06-04 09:00","1998","06","04","09:00","11.8","","2.7","","54","","29","","20","","40.2","","99.02","","","","","","Mainly Clear"
"1998-06-04 10:00","1998","06","04","10:00","13.4","","2.7","","48","","27","","20","","40.2","","98.99","","","","","","Mainly Clear"
"1998-06-04 11:00","1998","06","04","11:00","13.4","","2.0","","46","","26","","28","","40.2","","98.99","","","","","","Mostly Cloudy"
"1998-06-04 12:00","1998","06","04","12:00","13.8","","0.7","","41","","29","","35","","40.2","","98.99","","","","","","Mostly Cloudy"
"1998-06-04 13:00","1998","06","04","13:00","14.6","","0.9","","39","","27","","32","","40.2","","98.92","","","","","","Mainly Clear"
"1998-06-04 14:00","1998","06","04","14:00","15.4","","1.2","","38","","29","","28","","40.2","","98.89","","","","","","Mainly Clear"
"1998-06-04 15:00","1998","06","04","15:00","15.4","","0.6","","36","","28","","32","","40.2","","98.89","","","","","","Mainly Clear"
"1998-06-04 16:00","1998","06","04","16:00","15.5","","-0.2","","34","","30","","28","","40.2","","98.92","","","","","","Mainly Clear"
"1998-06-04 17:00","1998","06","04","17:00","15.2","","-0.6","","34","","30","","30","","32.2","","98.92","","","","","","Mostly Cloudy"
"1998-06-04 18:00","1998","06","04","18:00","14.7","","0.6","","38","","29","","30","","40.2","","98.99","","","","","","Mainly Clear"
"1998-06-04 19:00","1998","06","04","19:00","13.6","","1.6","","44","","29","","9","","40.2","","99.02","","","","","","Mostly Cloudy"
"1998-06-04 20:00","1998","06","04","20:00","12.2","","0.1","","43","","27","","22","","40.2","","99.09","","","","","","Mainly Clear"
"1998-06-04 21:00","1998","06","04","21:00","10.0","","1.5","","55","","25","","19","","25.0","","99.15","","","","","","Mainly Clear"
"1998-06-04 22:00","1998","06","04","22:00","9.4","","1.6","","58","","25","","17","","25.0","","99.19","","","","","","Mainly Clear"
"1998-06-04 23:00","1998","06","04","23:00","8.4","","2.1","","64","","26","","19","","25.0","","99.19","","","","","","Clear"
"1998-06-05 00:00","1998","06","05","00:00","8.2","","2.0","","65","","24","","20","","25.0","","99.15","","","","","","Clear"
"1998-06-05 01:00","1998","06","05","01:00","8.0","","1.4","","63","","27","","22","","25.0","","99.15","","","","","","Clear"
"1998-06-05 02:00","1998","06","05","02:00","7.3","","1.1","","65","","27","","20","","25.0","","99.15","","","","","","Clear"
"1998-06-05 03:00","1998","06","05","03:00","6.8","","1.1","","67","","26","","17","","25.0","","99.15","","","","","","Mainly Clear"
"1998-06-05 04:00","1998","06","05","04:00","6.1","","0.6","","68","","27","","24","","40.2","","99.15","","","","","","Mainly Clear"
"1998-06-05 05:00","1998","06","05","05:00","6.6","","1.1","","68","","27","","20","","40.2","","99.22","","","","","","Clear"
"1998-06-05 06:00","1998","06","05","06:00","7.5","","1.4","","65","","28","","30","","40.2","","99.29","","","","","","Clear"
"1998-06-05 07:00","1998","06","05","07:00","8.5","","1.1","","60","","30","","24","","40.2","","99.26","","","","","","Clear"
"1998-06-05 08:00","1998","06","05","08:00","9.7","","1.4","","56","","29","","22","","40.2","","99.32","","","","","","Clear"
"1998-06-05 09:00","1998","06","05","09:00","11.6","","1.3","","49","","29","","28","","40.2","","99.29","","","","","","Clear"
"1998-06-05 10:00","1998","06","05","10:00","12.8","","0.0","","41","","28","","33","","40.2","","99.26","","","","","","Mainly Clear"
"1998-06-05 11:00","1998","06","05","11:00","14.0","","0.2","","39","","28","","35","","40.2","","99.26","","","","","","Mainly Clear"
"1998-06-05 12:00","1998","06","05","12:00","14.5","","0.5","","38","","27","","37","","40.2","","99.19","","","","","","Mainly Clear"
"1998-06-05 13:00","1998","06","05","13:00","16.0","","1.3","","37","","27","","30","","40.2","","99.12","","","","","","Mainly Clear"
"1998-06-05 14:00","1998","06","05","14:00","16.7","","1.8","","37","","27","","41","","40.2","","99.12","","","","","","Mainly Clear"
"1998-06-05 15:00","1998","06","05","15:00","16.6","","2.2","","38","","25","","37","","40.2","","99.12","","","","","","Mostly Cloudy"
"1998-06-05 16:00","1998","06","05","16:00","17.1","","2.4","","37","","27","","37","","40.2","","99.09","","","","","","Mostly Cloudy"
"1998-06-05 17:00","1998","06","05","17:00","16.7","","2.3","","38","","27","","28","","40.2","","99.12","","","","","","Mostly Cloudy"
"1998-06-05 18:00","1998","06","05","18:00","15.4","","1.4","","39","","31","","33","","40.2","","99.15","","","","","","Mostly Cloudy"
"1998-06-05 19:00","1998","06","05","19:00","14.7","","1.7","","41","","29","","33","","40.2","","99.26","","","","","","Mostly Cloudy"
"1998-06-05 20:00","1998","06","05","20:00","13.8","","1.4","","43","","29","","30","","40.2","","99.29","","","","","","Mostly Cloudy"
"1998-06-05 21:00","1998","06","05","21:00","13.2","","1.6","","45","","30","","32","","25.0","","99.39","","","","","","Mostly Cloudy"
"1998-06-05 22:00","1998","06","05","22:00","12.7","","1.6","","47","","28","","32","","25.0","","99.36","","","","","","Cloudy"
"1998-06-05 23:00","1998","06","05","23:00","11.9","","1.4","","49","","29","","24","","25.0","","99.36","","","","","","Mostly Cloudy"
"1998-06-06 00:00","1998","06","06","00:00","11.4","","1.5","","51","","29","","28","","25.0","","99.32","","","","","","Mostly Cloudy"
"1998-06-06 01:00","1998","06","06","01:00","11.0","","1.5","","52","","28","","24","","25.0","","99.32","","","","","","Mostly Cloudy"
"1998-06-06 02:00","1998","06","06","02:00","10.4","","2.0","","56","","26","","22","","25.0","","99.29","","","","","","Mostly Cloudy"
"1998-06-06 03:00","1998","06","06","03:00","10.1","","2.2","","58","","27","","30","","25.0","","99.26","","","","","","Mostly Cloudy"
"1998-06-06 04:00","1998","06","06","04:00","9.7","","2.1","","59","","28","","26","","40.2","","99.26","","","","","","Mostly Cloudy"
"1998-06-06 05:00","1998","06","06","05:00","9.6","","2.5","","61","","27","","24","","40.2","","99.29","","","","","","Mostly Cloudy"
"1998-06-06 06:00","1998","06","06","06:00","9.7","","2.7","","62","","27","","26","","40.2","","99.36","","","","","","Mostly Cloudy"
"1998-06-06 07:00","1998","06","06","07:00","10.1","","3.0","","61","","27","","26","","40.2","","99.42","","","","","","Mostly Cloudy"
"1998-06-06 08:00","1998","06","06","08:00","10.5","","3.3","","61","","27","","22","","40.2","","99.49","","","","","","Mostly Cloudy"
"1998-06-06 09:00","1998","06","06","09:00","11.1","","3.8","","61","","27","","24","","40.2","","99.52","","","","","","Cloudy"
"1998-06-06 10:00","1998","06","06","10:00","12.4","","4.5","","59","","27","","24","","40.2","","99.56","","","","","","Cloudy"
"1998-06-06 11:00","1998","06","06","11:00","12.9","","4.5","","57","","27","","24","","40.2","","99.59","","","","","","Cloudy"
"1998-06-06 12:00","1998","06","06","12:00","13.7","","4.9","","55","","27","","26","","40.2","","99.59","","","","","","Cloudy"
"1998-06-06 13:00","1998","06","06","13:00","16.1","","6.0","","51","","29","","24","","40.2","","99.59","","","","","","Mostly Cloudy"
"1998-06-06 14:00","1998","06","06","14:00","15.5","","6.0","","53","","29","","26","","40.2","","99.59","","","","","","Mostly Cloudy"
"1998-06-06 15:00","1998","06","06","15:00","15.5","","6.0","","53","","28","","22","","40.2","","99.62","","","","","","Mostly Cloudy"
"1998-06-06 16:00","1998","06","06","16:00","14.8","","5.7","","54","","28","","24","","40.2","","99.66","","","","","","Cloudy"
"1998-06-06 17:00","1998","06","06","17:00","14.2","","5.4","","55","","29","","24","","40.2","","99.69","","","","","","Cloudy"
"1998-06-06 18:00","1998","06","06","18:00","13.7","","5.5","","58","","30","","22","","40.2","","99.76","","","","","","Cloudy"
"1998-06-06 19:00","1998","06","06","19:00","13.2","","5.3","","59","","29","","20","","40.2","","99.76","","","","","","Cloudy"
"1998-06-06 20:00","1998","06","06","20:00","12.7","","5.0","","59","","32","","15","","40.2","","99.82","","","","","","Cloudy"
"1998-06-06 21:00","1998","06","06","21:00","12.0","","5.0","","62","","30","","19","","25.0","","99.82","","","","","","Cloudy"
"1998-06-06 22:00","1998","06","06","22:00","11.4","","4.8","","64","","29","","17","","25.0","","99.86","","","","","","Cloudy"
"1998-06-06 23:00","1998","06","06","23:00","11.2","","5.2","","67","","31","","15","","25.0","","99.86","","","","","","Cloudy"
"1998-06-07 00:00","1998","06","07","00:00","10.7","","4.8","","67","","32","","9","","25.0","","99.86","","","","","","Cloudy"
"1998-06-07 01:00","1998","06","07","01:00","10.4","","4.6","","67","","30","","7","","25.0","","99.86","","","","","","Cloudy"
"1998-06-07 02:00","1998","06","07","02:00","10.2","","4.6","","68","","33","","13","","25.0","","99.86","","","","","","Cloudy"
"1998-06-07 03:00","1998","06","07","03:00","9.9","","4.7","","70","","29","","11","","25.0","","99.79","","","","","","Cloudy"
"1998-06-07 04:00","1998","06","07","04:00","9.7","","4.4","","70","","29","","9","","32.2","","99.82","","","","","","Cloudy"
"1998-06-07 05:00","1998","06","07","05:00","9.6","","4.7","","71","","25","","11","","40.2","","99.82","","","","","","Mostly Cloudy"
"1998-06-07 06:00","1998","06","07","06:00","9.6","","4.9","","72","","27","","13","","40.2","","99.86","","","","","","Cloudy"
"1998-06-07 07:00","1998","06","07","07:00","10.3","","5.6","","73","","26","","15","","40.2","","99.89","","","","","","Mostly Cloudy"
"1998-06-07 08:00","1998","06","07","08:00","10.8","","5.2","","68","","27","","15","","40.2","","99.89","","","","","","Cloudy"
"1998-06-07 09:00","1998","06","07","09:00","11.2","","5.2","","67","","27","","13","","40.2","","99.93","","","","","","Cloudy"
"1998-06-07 10:00","1998","06","07","10:00","11.7","","5.1","","64","","26","","15","","40.2","","99.93","","","","","","Cloudy"
"1998-06-07 11:00","1998","06","07","11:00","12.4","","5.6","","63","","27","","17","","40.2","","99.93","","","","","","Cloudy"
"1998-06-07 12:00","1998","06","07","12:00","12.8","","5.6","","62","","26","","22","","40.2","","99.93","","","","","","Cloudy"
"1998-06-07 13:00","1998","06","07","13:00","13.1","","5.9","","62","","26","","19","","40.2","","99.93","","","","","","Cloudy"
"1998-06-07 14:00","1998","06","07","14:00","13.4","","6.2","","62","","27","","19","","40.2","","99.93","","","","","","Cloudy"
"1998-06-07 15:00","1998","06","07","15:00","13.6","","6.3","","61","","28","","20","","40.2","","99.93","","","","","","Cloudy"
"1998-06-07 16:00","1998","06","07","16:00","13.6","","6.6","","63","","27","","20","","40.2","","99.96","","","","","","Cloudy"
"1998-06-07 17:00","1998","06","07","17:00","12.6","","6.4","","66","","28","","20","","40.2","","99.96","","","","","","Cloudy"
"1998-06-07 18:00","1998","06","07","18:00","11.7","","7.3","","74","","29","","17","","24.1","","99.96","","","","","","Rain Showers"
"1998-06-07 19:00","1998","06","07","19:00","11.3","","7.7","","78","","26","","15","","32.2","","99.96","","","","","","Rain Showers"
"1998-06-07 20:00","1998","06","07","20:00","11.3","","7.6","","78","","25","","15","","40.2","","99.99","","","","","","Cloudy"
"1998-06-07 21:00","1998","06","07","21:00","11.3","","7.8","","79","","27","","11","","25.0","","99.99","","","","","","Cloudy"
"1998-06-07 22:00","1998","06","07","22:00","11.0","","7.9","","81","","26","","15","","24.1","","99.99","","","","","","Cloudy"
"1998-06-07 23:00","1998","06","07","23:00","11.0","","8.0","","82","","27","","13","","19.3","","99.99","","","","","","Rain"
"1998-06-08 00:00","1998","06","08","00:00","10.5","","7.8","","83","","28","","15","","19.3","","99.96","","","","","","Rain"
"1998-06-08 01:00","1998","06","08","01:00","10.6","","8.0","","84","","28","","17","","19.3","","99.96","","","","","","Rain"
"1998-06-08 02:00","1998","06","08","02:00","10.4","","7.9","","84","","28","","13","","24.1","","99.96","","","","","","Mostly Cloudy"
"1998-06-08 03:00","1998","06","08","03:00","10.2","","7.7","","84","","28","","15","","25.0","","99.96","","","","","","Mostly Cloudy"
"1998-06-08 04:00","1998","06","08","04:00","10.2","","7.6","","84","","29","","13","","19.3","","99.96","","","","","","Rain"
"1998-06-08 05:00","1998","06","08","05:00","10.2","","7.7","","84","","28","","15","","32.2","","99.99","","","","","","Mostly Cloudy"
"1998-06-08 06:00","1998","06","08","06:00","10.4","","7.9","","84","","27","","17","","40.2","","100.06","","","","","","Cloudy"
"1998-06-08 07:00","1998","06","08","07:00","10.6","","7.8","","83","","28","","20","","40.2","","100.13","","","","","","Cloudy"
"1998-06-08 08:00","1998","06","08","08:00","11.4","","8.6","","83","","27","","19","","40.2","","100.16","","","","","","Cloudy"
"1998-06-08 09:00","1998","06","08","09:00","12.9","","9.4","","79","","28","","17","","40.2","","100.19","","","","","","Mostly Cloudy"
"1998-06-08 10:00","1998","06","08","10:00","14.5","","9.9","","74","","27","","11","","40.2","","100.19","","","","","","Mainly Clear"
"1998-06-08 11:00","1998","06","08","11:00","17.0","","10.2","","64","","28","","11","","40.2","","100.19","","","","","","Mainly Clear"
"1998-06-08 12:00","1998","06","08","12:00","19.2","","10.3","","56","","26","","15","","40.2","","100.19","","","","","","Mainly Clear"
"1998-06-08 13:00","1998","06","08","13:00","20.8","","10.7","","52","","27","","15","","40.2","","100.13","","","","","","Mainly Clear"
"1998-06-08 14:00","1998","06","08","14:00","22.0","","10.9","","49","","28","","6","","40.2","","100.13","","","","","","Mostly Cloudy"
"1998-06-08 15:00","1998","06","08","15:00","22.1","","10.4","","47","","20","","13","","40.2","","100.09","","","","","","Mostly Cloudy"
"1998-06-08 16:00","1998","06","08","16:00","15.0","","8.9","","67","","8","","19","","32.2","","100.19","","","","","","Thunderstorms,Rain Showers"
"1998-06-08 17:00","1998","06","08","17:00","16.0","","10.8","","71","","10","","15","","40.2","","100.26","","","","","","Mostly Cloudy"
"1998-06-08 18:00","1998","06","08","18:00","15.8","","10.6","","71","","22","","7","","40.2","","100.36","","","","","","Mainly Clear"
"1998-06-08 19:00","1998","06","08","19:00","15.9","","10.9","","72","","","","0","","40.2","","100.46","","","","","","Mainly Clear"
"1998-06-08 20:00","1998","06","08","20:00","14.7","","10.1","","74","","10","","4","","40.2","","100.49","","","","","","Mainly Clear"
"1998-06-08 21:00","1998","06","08","21:00","13.9","","9.8","","76","","","","0","","25.0","","100.56","","","","","","Mainly Clear"
"1998-06-08 22:00","1998","06","08","22:00","13.4","","9.3","","76","","21","","6","","25.0","","100.56","","","","","","Clear"
"1998-06-08 23:00","1998","06","08","23:00","12.0","","9.3","","84","","22","","4","","24.1","","100.53","","","","","","Clear"
"1998-06-09 00:00","1998","06","09","00:00","11.5","","9.0","","85","","32","","4","","24.1","","100.56","","","","","","Clear"
"1998-06-09 01:00","1998","06","09","01:00","11.2","","8.9","","86","","","","0","","24.1","","100.56","","","","","","Clear"
"1998-06-09 02:00","1998","06","09","02:00","11.2","","8.7","","85","","32","","4","","24.1","","100.56","","","","","","Clear"
"1998-06-09 03:00","1998","06","09","03:00","11.8","","8.8","","82","","","","0","","24.1","","100.63","","","","","","Mainly Clear"
"1998-06-09 04:00","1998","06","09","04:00","10.6","","7.9","","83","","","","0","","32.2","","100.66","","","","","","Mainly Clear"
"1998-06-09 05:00","1998","06","09","05:00","8.2","","5.5","","83","","17","","7","","0.6","","100.73","","","","","","Fog"
"1998-06-09 06:00","1998","06","09","06:00","10.2","","8.1","","87","","","","0","","1.0","","100.80","","","","","","Fog"
"1998-06-09 07:00","1998","06","09","07:00","12.7","","10.0","","84","","19","","4","","24.1","","100.83","","","","","","Clear"
"1998-06-09 08:00","1998","06","09","08:00","16.2","","12.3","","78","","19","","7","","32.2","","100.83","","","","","","Clear"
"1998-06-09 09:00","1998","06","09","09:00","18.1","","11.0","","63","","22","","9","","32.2","","100.76","","","","","","Clear"
"1998-06-09 10:00","1998","06","09","10:00","20.5","","11.3","","56","","20","","7","","32.2","","100.76","","","","","","Clear"
"1998-06-09 11:00","1998","06","09","11:00","21.7","","11.1","","51","","24","","9","","32.2","","100.76","","","","","","Clear"
"1998-06-09 12:00","1998","06","09","12:00","23.2","","11.7","","48","","17","","11","","32.2","","100.66","","25","","","","Clear"
"1998-06-09 13:00","1998","06","09","13:00","24.0","","10.6","","43","","23","","11","","32.2","","100.63","","26","","","","Mainly Clear"
"1998-06-09 14:00","1998","06","09","14:00","25.3","","9.3","","36","","18","","9","","32.2","","100.56","","26","","","","Mainly Clear"
"1998-06-09 15:00","1998","06","09","15:00","25.1","","7.9","","33","","24","","9","","32.2","","100.53","","25","","","","Mainly Clear"
"1998-06-09 16:00","1998","06","09","16:00","25.0","","7.4","","32","","24","","7","","32.2","","100.53","","25","","","","Mainly Clear"
"1998-06-09 17:00","1998","06","09","17:00","25.0","","6.3","","30","","15","","13","","32.2","","100.49","","25","","","","Mainly Clear"
"1998-06-09 18:00","1998","06","09","18:00","24.8","","6.1","","30","","19","","11","","32.2","","100.49","","","","","","Mainly Clear"
"1998-06-09 19:00","1998","06","09","19:00","23.7","","6.1","","32","","19","","6","","32.2","","100.46","","","","","","Mainly Clear"
"1998-06-09 20:00","1998","06","09","20:00","21.4","","6.8","","39","","20","","4","","32.2","","100.49","","","","","","Mainly Clear"
"1998-06-09 21:00","1998","06","09","21:00","20.4","","6.7","","41","","20","","6","","25.0","","100.53","","","","","","Mainly Clear"
"1998-06-09 22:00","1998","06","09","22:00","18.4","","6.6","","46","","22","","9","","25.0","","100.49","","","","","","Clear"
"1998-06-09 23:00","1998","06","09","23:00","17.8","","6.4","","47","","22","","7","","25.0","","100.53","","","","","","Mainly Clear"
"1998-06-10 00:00","1998","06","10","00:00","15.5","","5.6","","52","","26","","6","","25.0","","100.53","","","","","","Mainly Clear"
"1998-06-10 01:00","1998","06","10","01:00","14.7","","5.6","","54","","26","","7","","25.0","","100.53","","","","","","Mainly Clear"
"1998-06-10 02:00","1998","06","10","02:00","14.2","","5.4","","55","","24","","6","","25.0","","100.53","","","","","","Clear"
"1998-06-10 03:00","1998","06","10","03:00","14.6","","6.2","","57","","29","","9","","25.0","","100.49","","","","","","Clear"
"1998-06-10 04:00","1998","06","10","04:00","12.8","","5.5","","61","","25","","6","","40.2","","100.49","","","","","","Mainly Clear"
"1998-06-10 05:00","1998","06","10","05:00","13.2","","6.4","","63","","26","","4","","40.2","","100.53","","","","","","Mainly Clear"
"1998-06-10 06:00","1998","06","10","06:00","14.7","","8.2","","65","","","","0","","40.2","","100.56","","","","","","Mainly Clear"
"1998-06-10 07:00","1998","06","10","07:00","17.8","","9.7","","59","","","","0","","40.2","","100.63","","","","","","Mainly Clear"
"1998-06-10 08:00","1998","06","10","08:00","20.8","","10.0","","50","","","","0","","40.2","","100.63","","","","","","Mainly Clear"
"1998-06-10 09:00","1998","06","10","09:00","22.8","","8.9","","41","","21","","6","","40.2","","100.63","","","","","","Mainly Clear"
"1998-06-10 10:00","1998","06","10","10:00","24.4","","6.9","","33","","16","","4","","40.2","","100.63","","","","","","Mainly Clear"
"1998-06-10 11:00","1998","06","10","11:00","25.5","","6.9","","30","","6","","6","","40.2","","100.56","","25","","","","Mainly Clear"
"1998-06-10 12:00","1998","06","10","12:00","26.7","","7.7","","30","","18","","11","","40.2","","100.53","","27","","","","Mainly Clear"
"1998-06-10 13:00","1998","06","10","13:00","26.3","","7.6","","30","","16","","6","","40.2","","100.43","","27","","","","Mainly Clear"
"1998-06-10 14:00","1998","06","10","14:00","27.7","","8.5","","30","","15","","13","","40.2","","100.36","","28","","","","Mainly Clear"
"1998-06-10 15:00","1998","06","10","15:00","26.5","","7.0","","29","","12","","4","","40.2","","100.33","","27","","","","Mainly Clear"
"1998-06-10 16:00","1998","06","10","16:00","26.7","","7.7","","30","","","","0","","40.2","","100.29","","27","","","","Mostly Cloudy"
"1998-06-10 17:00","1998","06","10","17:00","26.6","","6.2","","27","","18","","9","","32.2","","100.26","","26","","","","Mostly Cloudy"
"1998-06-10 18:00","1998","06","10","18:00","25.8","","6.9","","30","","14","","4","","32.2","","100.26","","26","","","","Mostly Cloudy"
"1998-06-10 19:00","1998","06","10","19:00","24.8","","8.6","","36","","","","0","","32.2","","100.26","","25","","","","Mostly Cloudy"
"1998-06-10 20:00","1998","06","10","20:00","20.0","","10.5","","54","","34","","7","","24.1","","100.33","","","","","","Thunderstorms,Rain Showers"
"1998-06-10 21:00","1998","06","10","21:00","18.3","","11.5","","65","","34","","13","","24.1","","100.36","","","","","","Thunderstorms"
"1998-06-10 22:00","1998","06","10","22:00","18.0","","11.8","","67","","28","","11","","24.1","","100.39","","","","","","Cloudy"
"1998-06-10 23:00","1998","06","10","23:00","17.1","","11.8","","71","","36","","7","","24.1","","100.43","","","","","","Cloudy"
"1998-06-11 00:00","1998","06","11","00:00","16.6","","11.8","","73","","5","","13","","24.1","","100.43","","","","","","Mostly Cloudy"
"1998-06-11 01:00","1998","06","11","01:00","15.5","","11.5","","77","","2","","4","","24.1","","100.43","","","","","","Mainly Clear"
"1998-06-11 02:00","1998","06","11","02:00","15.6","","12.0","","79","","35","","4","","24.1","","100.43","","","","","","Mainly Clear"
"1998-06-11 03:00","1998","06","11","03:00","15.3","","11.5","","78","","","","0","","24.1","","100.43","","","","","","Mainly Clear"
"1998-06-11 04:00","1998","06","11","04:00","13.6","","10.1","","79","","21","","6","","32.2","","100.46","","","","","","Mainly Clear"
"1998-06-11 05:00","1998","06","11","05:00","14.4","","11.3","","82","","","","0","","24.1","","100.46","","","","","","Mainly Clear"
"1998-06-11 06:00","1998","06","11","06:00","15.4","","11.6","","78","","5","","7","","24.1","","100.53","","","","","","Mostly Cloudy"
"1998-06-11 07:00","1998","06","11","07:00","17.1","","13.1","","77","","15","","6","","24.1","","100.53","","","","","","Mostly Cloudy"
"1998-06-11 08:00","1998","06","11","08:00","19.2","","13.4","","69","","21","","4","","24.1","","100.53","","","","","","Mainly Clear"
"1998-06-11 09:00","1998","06","11","09:00","20.7","","11.2","","54","","19","","9","","24.1","","100.53","","","","","","Mainly Clear"
"1998-06-11 10:00","1998","06","11","10:00","21.9","","12.3","","54","","18","","11","","24.1","","100.46","","","","","","Mainly Clear"
"1998-06-11 11:00","1998","06","11","11:00","23.4","","12.7","","51","","18","","4","","24.1","","100.49","","26","","","","Mainly Clear"
"1998-06-11 12:00","1998","06","11","12:00","24.9","","11.5","","43","","15","","19","","24.1","","100.46","","27","","","","Mainly Clear"
"1998-06-11 13:00","1998","06","11","13:00","26.1","","11.3","","40","","11","","24","","32.2","","100.39","","28","","","","Mainly Clear"
"1998-06-11 14:00","1998","06","11","14:00","26.5","","10.3","","36","","12","","26","","32.2","","100.36","","28","","","","Mostly Cloudy"
"1998-06-11 15:00","1998","06","11","15:00","25.5","","9.5","","36","","20","","22","","32.2","","100.36","","27","","","","Mostly Cloudy"
"1998-06-11 16:00","1998","06","11","16:00","22.9","","8.0","","38","","16","","22","","32.2","","100.36","","","","","","Mostly Cloudy"
"1998-06-11 17:00","1998","06","11","17:00","22.1","","6.8","","37","","16","","20","","32.2","","100.33","","","","","","Mostly Cloudy"
"1998-06-11 18:00","1998","06","11","18:00","20.6","","7.2","","42","","16","","9","","32.2","","100.29","","","","","","Mainly Clear"
"1998-06-11 19:00","1998","06","11","19:00","20.0","","9.8","","52","","17","","13","","32.2","","100.29","","","","","","Mostly Cloudy"
"1998-06-11 20:00","1998","06","11","20:00","18.1","","10.3","","60","","16","","7","","32.2","","100.26","","","","","","Mainly Clear"
"1998-06-11 21:00","1998","06","11","21:00","17.7","","10.5","","63","","16","","6","","24.1","","100.26","","","","","","Mostly Cloudy"
"1998-06-11 22:00","1998","06","11","22:00","18.0","","10.8","","63","","15","","7","","24.1","","100.23","","","","","","Cloudy"
"1998-06-11 23:00","1998","06","11","23:00","17.9","","10.7","","63","","12","","9","","24.1","","100.19","","","","","","Cloudy"
"1998-06-12 00:00","1998","06","12","00:00","17.4","","10.8","","65","","15","","9","","19.3","","100.13","","","","","","Cloudy"
"1998-06-12 01:00","1998","06","12","01:00","17.2","","10.3","","64","","10","","9","","19.3","","100.03","","","","","","Cloudy"
"1998-06-12 02:00","1998","06","12","02:00","17.1","","10.3","","64","","11","","11","","19.3","","99.99","","","","","","Cloudy"
"1998-06-12 03:00","1998","06","12","03:00","17.1","","10.4","","65","","11","","13","","19.3","","99.93","","","","","","Cloudy"
"1998-06-12 04:00","1998","06","12","04:00","16.9","","10.3","","65","","11","","17","","16.1","","99.86","","","","","","Cloudy"
"1998-06-12 05:00","1998","06","12","05:00","16.9","","10.9","","68","","12","","20","","16.1","","99.82","","","","","","Cloudy"
"1998-06-12 06:00","1998","06","12","06:00","16.7","","12.0","","74","","11","","15","","12.9","","99.76","","","","","","Rain"
"1998-06-12 07:00","1998","06","12","07:00","16.7","","12.2","","75","","11","","17","","14.5","","99.69","","","","","","Rain"
"1998-06-12 08:00","1998","06","12","08:00","17.5","","12.9","","74","","11","","20","","12.9","","99.66","","","","","","Rain"
"1998-06-12 09:00","1998","06","12","09:00","17.0","","13.4","","79","","12","","20","","12.9","","99.62","","","","","","Rain"
"1998-06-12 10:00","1998","06","12","10:00","16.8","","13.4","","80","","11","","24","","12.9","","99.56","","","","","","Rain"
"1998-06-12 11:00","1998","06","12","11:00","16.7","","13.8","","83","","11","","20","","8.0","","99.49","","","","","","Rain,Fog"
"1998-06-12 12:00","1998","06","12","12:00","17.2","","14.5","","84","","12","","30","","6.4","","99.39","","","","","","Rain,Fog"
"1998-06-12 13:00","1998","06","12","13:00","17.1","","14.4","","84","","13","","22","","8.0","","99.32","","","","","","Rain,Fog"
"1998-06-12 14:00","1998","06","12","14:00","17.3","","14.5","","84","","12","","19","","4.0","","99.26","","","","","","Moderate Rain Showers,Fog"
"1998-06-12 15:00","1998","06","12","15:00","17.7","","15.0","","84","","14","","19","","24.1","","99.22","","","","","","Cloudy"
"1998-06-12 16:00","1998","06","12","16:00","18.4","","15.3","","82","","15","","20","","32.2","","99.19","","","","","","Cloudy"
"1998-06-12 17:00","1998","06","12","17:00","19.0","","15.7","","81","","14","","11","","40.2","","99.12","","","","","","Cloudy"
"1998-06-12 18:00","1998","06","12","18:00","20.1","","16.4","","79","","14","","11","","24.1","","99.12","","25","","","","Mostly Cloudy"
"1998-06-12 19:00","1998","06","12","19:00","20.1","","16.0","","77","","16","","13","","24.1","","99.12","","25","","","","Mostly Cloudy"
"1998-06-12 20:00","1998","06","12","20:00","19.7","","15.9","","79","","17","","15","","19.3","","99.15","","","","","","Mostly Cloudy"
"1998-06-12 21:00","1998","06","12","21:00","19.2","","15.3","","78","","17","","13","","19.3","","99.15","","","","","","Mainly Clear"
"1998-06-12 22:00","1998","06","12","22:00","18.8","","15.0","","79","","17","","17","","16.1","","99.19","","","","","","Mainly Clear"
"1998-06-12 23:00","1998","06","12","23:00","18.4","","14.6","","79","","18","","17","","19.3","","99.15","","","","","","Mostly Cloudy"
"1998-06-13 00:00","1998","06","13","00:00","18.2","","15.0","","82","","18","","9","","19.3","","99.09","","","","","","Mostly Cloudy"
"1998-06-13 01:00","1998","06","13","01:00","18.0","","14.9","","82","","17","","9","","16.1","","99.02","","","","","","Cloudy"
"1998-06-13 02:00","1998","06","13","02:00","18.2","","15.3","","83","","15","","4","","16.1","","98.99","","","","","","Rain Showers"
"1998-06-13 03:00","1998","06","13","03:00","18.3","","15.3","","83","","12","","6","","16.1","","98.99","","","","","","Cloudy"
"1998-06-13 04:00","1998","06","13","04:00","17.5","","14.9","","85","","","","0","","16.1","","99.05","","","","","","Rain Showers"
"1998-06-13 05:00","1998","06","13","05:00","17.2","","14.9","","86","","17","","7","","2.8","","99.05","","","","","","Thunderstorms,Moderate Rain Showers,Fog"
"1998-06-13 06:00","1998","06","13","06:00","17.3","","14.7","","85","","16","","13","","2.8","","99.05","","","","","","Rain Showers,Fog"
"1998-06-13 07:00","1998","06","13","07:00","17.4","","14.7","","84","","14","","17","","4.0","","99.02","","","","","","Rain Showers,Fog"
"1998-06-13 08:00","1998","06","13","08:00","17.4","","15.1","","86","","15","","13","","8.0","","98.99","","","","","","Rain Showers,Fog"
"1998-06-13 09:00","1998","06","13","09:00","17.8","","15.4","","86","","14","","15","","12.9","","98.95","","","","","","Rain Showers"
"1998-06-13 10:00","1998","06","13","10:00","18.5","","16.4","","88","","15","","15","","16.1","","98.95","","","","","","Rain Showers"
"1998-06-13 11:00","1998","06","13","11:00","18.5","","16.2","","86","","15","","13","","24.1","","98.99","","","","","","Cloudy"
"1998-06-13 12:00","1998","06","13","12:00","18.8","","16.5","","86","","16","","13","","32.2","","98.99","","","","","","Cloudy"
"1998-06-13 13:00","1998","06","13","13:00","19.9","","17.2","","84","","14","","9","","32.2","","98.92","","","","","","Cloudy"
"1998-06-13 14:00","1998","06","13","14:00","20.4","","16.7","","79","","9","","9","","24.1","","98.85","","25","","","","Cloudy"
"1998-06-13 15:00","1998","06","13","15:00","20.1","","16.4","","79","","9","","15","","40.2","","98.85","","25","","","","Cloudy"
"1998-06-13 16:00","1998","06","13","16:00","19.5","","15.7","","79","","9","","19","","32.2","","98.85","","","","","","Cloudy"
"1998-06-13 17:00","1998","06","13","17:00","20.2","","16.0","","77","","8","","13","","32.2","","98.82","","25","","","","Cloudy"
"1998-06-13 18:00","1998","06","13","18:00","20.5","","16.0","","75","","6","","15","","32.2","","98.82","","25","","","","Mostly Cloudy"
"1998-06-13 19:00","1998","06","13","19:00","19.9","","15.5","","76","","5","","15","","32.2","","98.82","","","","","","Mainly Clear"
"1998-06-13 20:00","1998","06","13","20:00","18.2","","14.4","","78","","5","","7","","32.2","","98.85","","","","","","Mainly Clear"
"1998-06-13 21:00","1998","06","13","21:00","17.4","","14.1","","81","","5","","13","","25.0","","98.85","","","","","","Mainly Clear"
"1998-06-13 22:00","1998","06","13","22:00","16.7","","14.1","","85","","","","0","","24.1","","98.89","","","","","","Mainly Clear"
"1998-06-13 23:00","1998","06","13","23:00","16.8","","14.4","","86","","5","","4","","24.1","","98.85","","","","","","Cloudy"
"1998-06-14 00:00","1998","06","14","00:00","16.9","","14.5","","86","","36","","6","","24.1","","98.82","","","","","","Cloudy"
"1998-06-14 01:00","1998","06","14","01:00","16.9","","15.0","","89","","","","0","","16.1","","98.79","","","","","","Cloudy"
"1998-06-14 02:00","1998","06","14","02:00","17.0","","14.9","","87","","","","0","","12.9","","98.82","","","","","","Cloudy"
"1998-06-14 03:00","1998","06","14","03:00","16.9","","14.5","","86","","","","0","","12.9","","98.79","","","","","","Cloudy"
"1998-06-14 04:00","1998","06","14","04:00","16.7","","14.1","","85","","36","","6","","8.0","","98.79","","","","","","Fog"
"1998-06-14 05:00","1998","06","14","05:00","16.6","","14.3","","86","","6","","4","","4.8","","98.82","","","","","","Fog"
"1998-06-14 06:00","1998","06","14","06:00","17.0","","14.6","","86","","5","","6","","4.8","","98.85","","","","","","Drizzle,Fog"
"1998-06-14 07:00","1998","06","14","07:00","17.2","","14.6","","85","","5","","7","","16.1","","98.85","","","","","","Drizzle"
"1998-06-14 08:00","1998","06","14","08:00","18.8","","15.3","","80","","1","","11","","40.2","","98.79","","","","","","Cloudy"
"1998-06-14 09:00","1998","06","14","09:00","19.4","","14.9","","75","","2","","13","","40.2","","98.82","","","","","","Cloudy"
"1998-06-14 10:00","1998","06","14","10:00","19.2","","14.5","","74","","3","","15","","40.2","","98.79","","","","","","Cloudy"
"1998-06-14 11:00","1998","06","14","11:00","19.1","","14.5","","75","","4","","11","","40.2","","98.82","","","","","","Cloudy"
"1998-06-14 12:00","1998","06","14","12:00","19.2","","14.8","","76","","3","","11","","40.2","","98.79","","","","","","Cloudy"
"1998-06-14 13:00","1998","06","14","13:00","19.5","","15.0","","75","","3","","15","","40.2","","98.72","","","","","","Cloudy"
"1998-06-14 14:00","1998","06","14","14:00","18.6","","15.2","","81","","3","","17","","19.3","","98.65","","","","","","Rain"
"1998-06-14 15:00","1998","06","14","15:00","18.5","","15.5","","83","","35","","13","","9.7","","98.62","","","","","","Rain,Fog"
"1998-06-14 16:00","1998","06","14","16:00","18.3","","15.4","","83","","36","","13","","6.4","","98.55","","","","","","Rain,Fog"
"1998-06-14 17:00","1998","06","14","17:00","17.8","","15.2","","85","","36","","15","","2.0","","98.52","","","","","","Rain,Fog"
"1998-06-14 18:00","1998","06","14","18:00","17.6","","15.4","","87","","34","","13","","2.8","","98.45","","","","","","Rain,Fog"
"1998-06-14 19:00","1998","06","14","19:00","17.6","","15.6","","88","","36","","11","","3.2","","98.42","","","","","","Rain,Fog"
"1998-06-14 20:00","1998","06","14","20:00","17.9","","15.6","","86","","4","","11","","9.7","","98.42","","","","","","Drizzle,Fog"
"1998-06-14 21:00","1998","06","14","21:00","17.9","","15.7","","87","","3","","7","","11.3","","98.38","","","","","","Rain"
"1998-06-14 22:00","1998","06","14","22:00","17.9","","15.6","","86","","6","","11","","8.0","","98.35","","","","","","Drizzle,Fog"
"1998-06-14 23:00","1998","06","14","23:00","17.9","","15.6","","86","","7","","13","","12.9","","98.35","","","","","","Drizzle"
"1998-06-15 00:00","1998","06","15","00:00","17.4","","15.1","","86","","8","","19","","4.0","","98.35","","","","","","Moderate Rain,Fog"
"1998-06-15 01:00","1998","06","15","01:00","17.0","","14.8","","87","","8","","17","","4.8","","98.32","","","","","","Rain,Fog"
"1998-06-15 02:00","1998","06","15","02:00","16.8","","14.5","","86","","8","","17","","4.8","","98.28","","","","","","Rain,Fog"
"1998-06-15 03:00","1998","06","15","03:00","16.7","","14.2","","85","","8","","20","","8.0","","98.25","","","","","","Rain,Fog"
"1998-06-15 04:00","1998","06","15","04:00","16.5","","13.8","","84","","8","","17","","4.8","","98.25","","","","","","Rain,Fog"
"1998-06-15 05:00","1998","06","15","05:00","16.3","","13.7","","85","","8","","15","","3.2","","98.25","","","","","","Rain,Fog"
"1998-06-15 06:00","1998","06","15","06:00","16.3","","13.9","","86","","9","","9","","3.2","","98.32","","","","","","Rain,Fog"
"1998-06-15 07:00","1998","06","15","07:00","16.8","","14.5","","86","","16","","4","","4.0","","98.35","","","","","","Rain,Fog"
"1998-06-15 08:00","1998","06","15","08:00","17.6","","15.3","","86","","19","","7","","4.8","","98.38","","","","","","Rain,Fog"
"1998-06-15 09:00","1998","06","15","09:00","18.0","","15.8","","87","","17","","15","","12.9","","98.38","","","","","","Drizzle"
"1998-06-15 10:00","1998","06","15","10:00","18.0","","15.4","","85","","17","","20","","16.1","","98.49","","","","","","Cloudy"
"1998-06-15 11:00","1998","06","15","11:00","19.1","","16.1","","83","","18","","20","","16.1","","98.52","","","","","","Cloudy"
"1998-06-15 12:00","1998","06","15","12:00","21.6","","16.7","","74","","18","","20","","19.3","","98.52","","27","","","","Cloudy"
"1998-06-15 13:00","1998","06","15","13:00","23.0","","15.8","","64","","18","","24","","19.3","","98.52","","27","","","","Cloudy"
"1998-06-15 14:00","1998","06","15","14:00","24.0","","15.7","","60","","19","","15","","19.3","","98.52","","28","","","","Mostly Cloudy"
"1998-06-15 15:00","1998","06","15","15:00","25.2","","15.8","","56","","17","","15","","19.3","","98.52","","30","","","","Mostly Cloudy"
"1998-06-15 16:00","1998","06","15","16:00","24.6","","15.8","","58","","15","","13","","19.3","","98.52","","29","","","","Rain Showers"
"1998-06-15 17:00","1998","06","15","17:00","24.1","","15.4","","58","","18","","13","","19.3","","98.52","","28","","","","Mostly Cloudy"
"1998-06-15 18:00","1998","06","15","18:00","24.1","","15.9","","60","","17","","7","","19.3","","98.52","","29","","","","Mostly Cloudy"
"1998-06-15 19:00","1998","06","15","19:00","23.4","","16.3","","64","","15","","4","","19.3","","98.62","","28","","","","Mainly Clear"
"1998-06-15 20:00","1998","06","15","20:00","22.4","","15.8","","66","","13","","4","","16.1","","98.62","","27","","","","Mostly Cloudy"
"1998-06-15 21:00","1998","06","15","21:00","21.6","","15.1","","67","","17","","6","","19.3","","98.69","","26","","","","Mostly Cloudy"
"1998-06-15 22:00","1998","06","15","22:00","20.3","","14.7","","70","","15","","7","","19.3","","98.69","","","","","","Mostly Cloudy"
"1998-06-15 23:00","1998","06","15","23:00","19.3","","14.0","","71","","11","","6","","19.3","","98.69","","","","","","Mainly Clear"
"1998-06-16 00:00","1998","06","16","00:00","18.8","","13.9","","73","","10","","7","","19.3","","98.69","","","","","","Mainly Clear"
"1998-06-16 01:00","1998","06","16","01:00","18.2","","14.1","","77","","8","","4","","19.3","","98.72","","","","","","Mostly Cloudy"
"1998-06-16 02:00","1998","06","16","02:00","17.9","","14.6","","81","","7","","9","","16.1","","98.72","","","","","","Cloudy"
"1998-06-16 03:00","1998","06","16","03:00","17.0","","14.5","","85","","4","","9","","8.0","","98.72","","","","","","Fog"
"1998-06-16 04:00","1998","06","16","04:00","17.2","","14.5","","84","","3","","11","","6.4","","98.72","","","","","","Fog"
"1998-06-16 05:00","1998","06","16","05:00","17.5","","14.8","","84","","6","","7","","2.8","","98.75","","","","","","Fog"
"1998-06-16 06:00","1998","06","16","06:00","17.9","","15.2","","84","","6","","9","","3.2","","98.79","","","","","","Fog"
"1998-06-16 07:00","1998","06","16","07:00","18.4","","15.8","","85","","6","","11","","4.8","","98.79","","","","","","Fog"
"1998-06-16 08:00","1998","06","16","08:00","19.1","","16.0","","82","","5","","9","","9.7","","98.82","","","","","","Fog"
"1998-06-16 09:00","1998","06","16","09:00","19.2","","15.9","","81","","2","","9","","9.7","","98.82","","","","","","Fog"
"1998-06-16 10:00","1998","06","16","10:00","19.5","","15.7","","79","","3","","11","","12.9","","98.85","","","","","","Cloudy"
"1998-06-16 11:00","1998","06","16","11:00","20.2","","16.0","","77","","2","","7","","12.9","","98.89","","25","","","","Cloudy"
"1998-06-16 12:00","1998","06","16","12:00","19.9","","16.3","","80","","3","","11","","12.9","","98.89","","","","","","Rain"
"1998-06-16 13:00","1998","06","16","13:00","20.3","","16.7","","80","","4","","13","","16.1","","98.92","","25","","","","Cloudy"
"1998-06-16 14:00","1998","06","16","14:00","20.2","","16.5","","79","","4","","13","","16.1","","98.92","","25","","","","Drizzle"
"1998-06-16 15:00","1998","06","16","15:00","20.9","","16.9","","78","","4","","15","","19.3","","98.92","","26","","","","Mostly Cloudy"
"1998-06-16 16:00","1998","06","16","16:00","20.9","","16.8","","77","","7","","11","","24.1","","98.95","","26","","","","Mostly Cloudy"
"1998-06-16 17:00","1998","06","16","17:00","21.0","","17.2","","79","","5","","13","","24.1","","98.99","","26","","","","Mostly Cloudy"
"1998-06-16 18:00","1998","06","16","18:00","21.0","","17.0","","78","","7","","11","","19.3","","99.02","","26","","","","Mostly Cloudy"
"1998-06-16 19:00","1998","06","16","19:00","20.1","","16.6","","80","","5","","7","","16.1","","99.09","","25","","","","Mainly Clear"
"1998-06-16 20:00","1998","06","16","20:00","19.2","","16.2","","83","","5","","7","","6.4","","99.12","","","","","","Thunderstorms,Haze"
"1998-06-16 21:00","1998","06","16","21:00","18.8","","16.2","","85","","6","","9","","4.0","","99.12","","","","","","Rain Showers,Fog"
"1998-06-16 22:00","1998","06","16","22:00","18.3","","16.1","","87","","7","","13","","4.8","","99.09","","","","","","Fog"
"1998-06-16 23:00","1998","06","16","23:00","18.4","","16.4","","88","","10","","4","","6.4","","99.19","","","","","","Fog"
"1998-06-17 00:00","1998","06","17","00:00","18.5","","16.5","","88","","9","","7","","4.8","","99.15","","","","","","Fog"
"1998-06-17 01:00","1998","06","17","01:00","18.3","","16.4","","89","","6","","6","","3.2","","99.19","","","","","","Fog"
"1998-06-17 02:00","1998","06","17","02:00","18.2","","16.5","","90","","9","","7","","0.4","","99.19","","","","","","Fog"
"1998-06-17 03:00","1998","06","17","03:00","18.2","","16.5","","90","","11","","4","","0.4","","99.19","","","","","","Fog"
"1998-06-17 04:00","1998","06","17","04:00","18.1","","16.6","","91","","","","0","","0.0","","99.26","","","","","","Fog"
"1998-06-17 05:00","1998","06","17","05:00","17.9","","15.9","","88","","","","0","","0.0","","99.29","","","","","","Fog"
"1998-06-17 06:00","1998","06","17","06:00","18.1","","16.3","","89","","17","","4","","0.2","","99.36","","","","","","Fog"
"1998-06-17 07:00","1998","06","17","07:00","18.6","","16.6","","88","","12","","4","","1.6","","99.39","","","","","","Fog"
"1998-06-17 08:00","1998","06","17","08:00","19.1","","16.9","","87","","","","0","","3.2","","99.39","","","","","","Fog"
"1998-06-17 09:00","1998","06","17","09:00","19.9","","17.0","","83","","15","","4","","4.8","","99.42","","","","","","Haze"
"1998-06-17 10:00","1998","06","17","10:00","20.5","","17.3","","82","","15","","4","","4.8","","99.46","","26","","","","Haze"
"1998-06-17 11:00","1998","06","17","11:00","21.6","","17.1","","76","","","","0","","6.4","","99.46","","27","","","","Haze"
"1998-06-17 12:00","1998","06","17","12:00","22.3","","17.1","","72","","17","","4","","6.4","","99.42","","28","","","","Haze"
"1998-06-17 13:00","1998","06","17","13:00","23.5","","17.4","","69","","17","","6","","6.4","","99.46","","29","","","","Haze"
"1998-06-17 14:00","1998","06","17","14:00","23.7","","17.4","","68","","17","","6","","6.4","","99.46","","29","","","","Haze"
"1998-06-17 15:00","1998","06","17","15:00","23.9","","16.9","","65","","18","","11","","6.4","","99.46","","29","","","","Thunderstorms,Haze"
"1998-06-17 16:00","1998","06","17","16:00","21.2","","16.7","","76","","21","","4","","8.0","","99.49","","26","","","","Thunderstorms,Rain Showers,Haze"
"1998-06-17 17:00","1998","06","17","17:00","21.0","","16.5","","75","","24","","6","","9.7","","99.49","","26","","","","Haze"
"1998-06-17 18:00","1998","06","17","18:00","21.5","","17.2","","77","","21","","6","","8.0","","99.56","","27","","","","Haze"
"1998-06-17 19:00","1998","06","17","19:00","21.1","","16.9","","77","","26","","9","","9.7","","99.56","","26","","","","Haze"
"1998-06-17 20:00","1998","06","17","20:00","20.1","","16.8","","81","","22","","6","","12.9","","99.56","","25","","","","Mostly Cloudy"
"1998-06-17 21:00","1998","06","17","21:00","19.0","","16.2","","84","","25","","6","","16.1","","99.59","","","","","","Mostly Cloudy"
"1998-06-17 22:00","1998","06","17","22:00","19.1","","16.4","","84","","24","","4","","8.0","","99.59","","","","","","Fog"
"1998-06-17 23:00","1998","06","17","23:00","18.6","","16.1","","85","","25","","6","","8.0","","99.59","","","","","","Fog"
"1998-06-18 00:00","1998","06","18","00:00","18.8","","16.4","","86","","28","","6","","12.9","","99.59","","","","","","Mostly Cloudy"
"1998-06-18 01:00","1998","06","18","01:00","18.9","","16.3","","85","","29","","13","","12.9","","99.59","","","","","","Mostly Cloudy"
"1998-06-18 02:00","1998","06","18","02:00","18.9","","16.2","","84","","29","","13","","12.9","","99.59","","","","","","Mostly Cloudy"
"1998-06-18 03:00","1998","06","18","03:00","19.0","","16.3","","84","","29","","11","","11.3","","99.62","","","","","","Cloudy"
"1998-06-18 04:00","1998","06","18","04:00","18.5","","16.1","","86","","28","","7","","6.4","","99.62","","","","","","Rain Showers,Fog"
"1998-06-18 05:00","1998","06","18","05:00","18.5","","16.1","","86","","29","","4","","4.8","","99.69","","","","","","Moderate Rain Showers,Fog"
"1998-06-18 06:00","1998","06","18","06:00","18.6","","16.4","","87","","29","","7","","4.8","","99.72","","","","","","Fog"
"1998-06-18 07:00","1998","06","18","07:00","18.8","","16.2","","85","","28","","9","","6.4","","99.76","","","","","","Fog"
"1998-06-18 08:00","1998","06","18","08:00","19.6","","16.9","","84","","28","","13","","12.9","","99.76","","","","","","Mostly Cloudy"
"1998-06-18 09:00","1998","06","18","09:00","20.1","","17.2","","83","","29","","17","","19.3","","99.79","","26","","","","Cloudy"
"1998-06-18 10:00","1998","06","18","10:00","20.9","","16.7","","77","","28","","22","","32.2","","99.79","","26","","","","Mostly Cloudy"
"1998-06-18 11:00","1998","06","18","11:00","22.4","","17.3","","73","","29","","22","","32.2","","99.76","","28","","","","Mostly Cloudy"
"1998-06-18 12:00","1998","06","18","12:00","23.0","","17.2","","70","","29","","22","","32.2","","99.76","","28","","","","Mostly Cloudy"
"1998-06-18 13:00","1998","06","18","13:00","24.0","","17.2","","66","","27","","22","","32.2","","99.69","","29","","","","Mostly Cloudy"
"1998-06-18 14:00","1998","06","18","14:00","24.7","","16.8","","61","","29","","19","","32.2","","99.69","","30","","","","Mainly Clear"
"1998-06-18 15:00","1998","06","18","15:00","23.6","","16.2","","63","","29","","20","","24.1","","99.69","","28","","","","Rain Showers"
"1998-06-18 16:00","1998","06","18","16:00","22.5","","16.5","","69","","30","","13","","32.2","","99.72","","27","","","","Mostly Cloudy"
"1998-06-18 17:00","1998","06","18","17:00","21.8","","16.1","","70","","28","","19","","40.2","","99.76","","26","","","","Mostly Cloudy"
"1998-06-18 18:00","1998","06","18","18:00","21.8","","16.2","","70","","28","","13","","40.2","","99.72","","27","","","","Mostly Cloudy"
"1998-06-18 19:00","1998","06","18","19:00","21.8","","16.3","","71","","29","","11","","40.2","","99.76","","27","","","","Mostly Cloudy"
"1998-06-18 20:00","1998","06","18","20:00","21.4","","16.4","","73","","26","","11","","40.2","","99.76","","26","","","","Mostly Cloudy"
"1998-06-18 21:00","1998","06","18","21:00","21.0","","16.9","","77","","28","","9","","25.0","","99.76","","26","","","","Mainly Clear"
"1998-06-18 22:00","1998","06","18","22:00","21.1","","17.0","","77","","29","","7","","25.0","","99.79","","26","","","","Mostly Cloudy"
"1998-06-18 23:00","1998","06","18","23:00","20.6","","16.6","","78","","29","","7","","25.0","","99.79","","26","","","","Mainly Clear"
"1998-06-19 00:00","1998","06","19","00:00","19.7","","16.0","","79","","29","","9","","25.0","","99.72","","","","","","Mainly Clear"
"1998-06-19 01:00","1998","06","19","01:00","18.8","","15.5","","81","","28","","9","","25.0","","99.69","","","","","","Mainly Clear"
"1998-06-19 02:00","1998","06","19","02:00","18.2","","15.1","","82","","30","","11","","24.1","","99.69","","","","","","Mainly Clear"
"1998-06-19 03:00","1998","06","19","03:00","17.9","","15.0","","83","","29","","7","","24.1","","99.66","","","","","","Mainly Clear"
"1998-06-19 04:00","1998","06","19","04:00","17.5","","14.8","","84","","25","","6","","40.2","","99.69","","","","","","Mainly Clear"
"1998-06-19 05:00","1998","06","19","05:00","17.5","","15.0","","85","","","","0","","40.2","","99.69","","","","","","Mainly Clear"
"1998-06-19 06:00","1998","06","19","06:00","18.5","","16.0","","85","","","","0","","40.2","","99.72","","","","","","Clear"
"1998-06-19 07:00","1998","06","19","07:00","20.1","","16.5","","80","","32","","4","","40.2","","99.72","","25","","","","Clear"
"1998-06-19 08:00","1998","06","19","08:00","21.6","","17.1","","76","","","","0","","40.2","","99.72","","27","","","","Mainly Clear"
"1998-06-19 09:00","1998","06","19","09:00","22.3","","17.2","","73","","","","0","","32.2","","99.72","","28","","","","Mostly Cloudy"
"1998-06-19 10:00","1998","06","19","10:00","22.0","","17.2","","74","","26","","6","","32.2","","99.69","","27","","","","Mostly Cloudy"
"1998-06-19 11:00","1998","06","19","11:00","23.8","","18.0","","70","","","","0","","32.2","","99.66","","30","","","","Mainly Clear"
"1998-06-19 12:00","1998","06","19","12:00","21.5","","17.5","","78","","7","","4","","32.2","","99.62","","27","","","","Mainly Clear"
"1998-06-19 13:00","1998","06","19","13:00","25.0","","17.2","","62","","7","","4","","32.2","","99.56","","30","","","","Mostly Cloudy"
"1998-06-19 14:00","1998","06","19","14:00","24.9","","17.2","","62","","9","","6","","32.2","","99.49","","30","","","","Mainly Clear"
"1998-06-19 15:00","1998","06","19","15:00","27.3","","17.3","","54","","","","0","","32.2","","99.46","","33","","","","Mainly Clear"
"1998-06-19 16:00","1998","06","19","16:00","27.2","","17.5","","55","","24","","6","","32.2","","99.42","","33","","","","Mainly Clear"
"1998-06-19 17:00","1998","06","19","17:00","27.6","","17.6","","54","","","","0","","32.2","","99.42","","33","","","","Mainly Clear"
"1998-06-19 18:00","1998","06","19","18:00","27.1","","17.5","","56","","6","","4","","40.2","","99.39","","33","","","","Mainly Clear"
"1998-06-19 19:00","1998","06","19","19:00","26.5","","17.7","","58","","","","0","","40.2","","99.42","","32","","","","Mainly Clear"
"1998-06-19 20:00","1998","06","19","20:00","24.5","","17.4","","65","","12","","4","","40.2","","99.46","","30","","","","Mainly Clear"
"1998-06-19 21:00","1998","06","19","21:00","23.7","","17.7","","69","","13","","4","","25.0","","99.49","","29","","","","Mainly Clear"
"1998-06-19 22:00","1998","06","19","22:00","23.1","","17.2","","69","","17","","6","","25.0","","99.49","","29","","","","Mainly Clear"
"1998-06-19 23:00","1998","06","19","23:00","21.8","","16.9","","74","","25","","4","","25.0","","99.52","","27","","","","Mainly Clear"
"1998-06-20 00:00","1998","06","20","00:00","22.1","","17.0","","73","","","","0","","25.0","","99.49","","27","","","","Mainly Clear"
"1998-06-20 01:00","1998","06","20","01:00","20.9","","16.4","","75","","","","0","","25.0","","99.49","","26","","","","Mainly Clear"
"1998-06-20 02:00","1998","06","20","02:00","20.1","","16.1","","78","","3","","7","","25.0","","99.49","","25","","","","Mainly Clear"
"1998-06-20 03:00","1998","06","20","03:00","19.8","","16.8","","83","","","","0","","25.0","","99.49","","","","","","Mainly Clear"
"1998-06-20 04:00","1998","06","20","04:00","18.8","","16.6","","87","","","","0","","19.3","","99.52","","","","","","Mainly Clear"
"1998-06-20 05:00","1998","06","20","05:00","18.9","","15.9","","83","","","","0","","19.3","","99.56","","","","","","Clear"
"1998-06-20 06:00","1998","06","20","06:00","20.5","","17.4","","82","","30","","7","","24.1","","99.62","","26","","","","Clear"
"1998-06-20 07:00","1998","06","20","07:00","23.4","","19.3","","78","","","","0","","32.2","","99.66","","30","","","","Clear"
"1998-06-20 08:00","1998","06","20","08:00","25.2","","18.4","","66","","4","","6","","40.2","","99.62","","32","","","","Clear"
"1998-06-20 09:00","1998","06","20","09:00","26.7","","18.0","","59","","35","","4","","40.2","","99.69","","33","","","","Clear"
"1998-06-20 10:00","1998","06","20","10:00","28.1","","18.3","","55","","","","0","","40.2","","99.69","","34","","","","Mainly Clear"
"1998-06-20 11:00","1998","06","20","11:00","27.7","","16.8","","51","","20","","4","","40.2","","99.69","","33","","","","Mainly Clear"
"1998-06-20 12:00","1998","06","20","12:00","28.0","","17.4","","53","","","","0","","40.2","","99.66","","34","","","","Mostly Cloudy"
"1998-06-20 13:00","1998","06","20","13:00","29.2","","17.0","","48","","26","","7","","40.2","","99.62","","34","","","","Mainly Clear"
"1998-06-20 14:00","1998","06","20","14:00","30.1","","17.0","","45","","31","","6","","40.2","","99.62","","35","","","","Mainly Clear"
"1998-06-20 15:00","1998","06","20","15:00","30.5","","16.6","","43","","","","0","","40.2","","99.62","","36","","","","Mainly Clear"
"1998-06-20 16:00","1998","06","20","16:00","30.4","","16.7","","44","","27","","4","","40.2","","99.62","","35","","","","Mainly Clear"
"1998-06-20 17:00","1998","06","20","17:00","30.8","","17.0","","44","","","","0","","40.2","","99.62","","36","","","","Mainly Clear"
"1998-06-20 18:00","1998","06","20","18:00","30.4","","16.8","","44","","","","0","","40.2","","99.62","","36","","","","Mainly Clear"
"1998-06-20 19:00","1998","06","20","19:00","29.2","","17.6","","50","","18","","4","","40.2","","99.66","","35","","","","Mainly Clear"
"1998-06-20 20:00","1998","06","20","20:00","27.5","","17.2","","53","","15","","6","","40.2","","99.72","","33","","","","Clear"
"1998-06-20 21:00","1998","06","20","21:00","25.7","","17.9","","62","","20","","4","","25.0","","99.76","","32","","","","Clear"
"1998-06-20 22:00","1998","06","20","22:00","24.6","","18.0","","67","","19","","6","","25.0","","99.79","","31","","","","Clear"
"1998-06-20 23:00","1998","06","20","23:00","23.7","","18.2","","71","","22","","6","","25.0","","99.82","","30","","","","Clear"
"1998-06-21 00:00","1998","06","21","00:00","23.0","","18.2","","74","","23","","6","","25.0","","99.86","","29","","","","Clear"
"1998-06-21 01:00","1998","06","21","01:00","21.9","","17.6","","77","","20","","6","","25.0","","99.89","","28","","","","Clear"
"1998-06-21 02:00","1998","06","21","02:00","21.5","","17.8","","79","","21","","6","","25.0","","99.93","","27","","","","Clear"
"1998-06-21 03:00","1998","06","21","03:00","20.4","","17.1","","81","","","","0","","25.0","","99.89","","26","","","","Clear"
"1998-06-21 04:00","1998","06","21","04:00","19.9","","16.8","","82","","","","0","","12.9","","99.96","","","","","","Clear"
"1998-06-21 05:00","1998","06","21","05:00","20.0","","17.2","","84","","","","0","","8.0","","100.09","","25","","","","Fog"
"1998-06-21 06:00","1998","06","21","06:00","20.5","","17.5","","83","","","","0","","8.0","","100.13","","26","","","","Fog"
"1998-06-21 07:00","1998","06","21","07:00","21.7","","18.2","","81","","","","0","","12.9","","100.19","","28","","","","Clear"
"1998-06-21 08:00","1998","06","21","08:00","23.8","","18.8","","74","","5","","7","","24.1","","100.19","","30","","","","Mainly Clear"
"1998-06-21 09:00","1998","06","21","09:00","26.1","","19.6","","67","","13","","7","","32.2","","100.23","","33","","","","Mainly Clear"
"1998-06-21 10:00","1998","06","21","10:00","27.8","","20.5","","65","","16","","6","","40.2","","100.19","","36","","","","Mainly Clear"
"1998-06-21 11:00","1998","06","21","11:00","28.9","","19.8","","58","","20","","6","","40.2","","100.19","","36","","","","Mainly Clear"
"1998-06-21 12:00","1998","06","21","12:00","29.3","","19.3","","55","","13","","11","","40.2","","100.16","","36","","","","Mainly Clear"
"1998-06-21 13:00","1998","06","21","13:00","28.6","","18.4","","54","","28","","13","","40.2","","100.16","","35","","","","Mostly Cloudy"
"1998-06-21 14:00","1998","06","21","14:00","29.3","","18.8","","53","","","","0","","40.2","","100.13","","36","","","","Mostly Cloudy"
"1998-06-21 15:00","1998","06","21","15:00","31.2","","18.3","","46","","19","","7","","40.2","","100.09","","37","","","","Mainly Clear"
"1998-06-21 16:00","1998","06","21","16:00","31.8","","18.3","","45","","17","","9","","40.2","","100.09","","38","","","","Mainly Clear"
"1998-06-21 17:00","1998","06","21","17:00","30.9","","17.7","","45","","18","","6","","40.2","","100.06","","37","","","","Mainly Clear"
"1998-06-21 18:00","1998","06","21","18:00","30.5","","18.1","","48","","21","","2","","40.2","","100.06","","37","","","","Mainly Clear"
"1998-06-21 19:00","1998","06","21","19:00","29.5","","18.0","","50","","20","","4","","40.2","","100.09","","36","","","","Mainly Clear"
"1998-06-21 20:00","1998","06","21","20:00","27.6","","17.2","","53","","17","","6","","40.2","","100.06","","33","","","","Mainly Clear"
"1998-06-21 21:00","1998","06","21","21:00","26.5","","17.1","","56","","17","","4","","25.0","","100.13","","32","","","","Mainly Clear"
"1998-06-21 22:00","1998","06","21","22:00","25.4","","16.9","","59","","17","","4","","25.0","","100.13","","31","","","","Clear"
"1998-06-21 23:00","1998","06","21","23:00","23.8","","16.7","","64","","21","","6","","25.0","","100.16","","29","","","","Clear"
"1998-06-22 00:00","1998","06","22","00:00","22.7","","16.2","","67","","21","","4","","25.0","","100.19","","27","","","","Mainly Clear"
"1998-06-22 01:00","1998","06","22","01:00","21.8","","16.0","","70","","20","","4","","25.0","","100.23","","26","","","","Mainly Clear"
"1998-06-22 02:00","1998","06","22","02:00","21.5","","15.9","","70","","19","","7","","25.0","","100.19","","26","","","","Clear"
"1998-06-22 03:00","1998","06","22","03:00","21.0","","15.9","","73","","19","","7","","24.1","","100.19","","26","","","","Clear"
"1998-06-22 04:00","1998","06","22","04:00","20.8","","16.2","","75","","19","","6","","32.2","","100.19","","26","","","","Clear"
"1998-06-22 05:00","1998","06","22","05:00","20.9","","16.5","","76","","19","","4","","32.2","","100.23","","26","","","","Mainly Clear"
"1998-06-22 06:00","1998","06","22","06:00","21.9","","17.6","","77","","","","0","","32.2","","100.26","","28","","","","Mainly Clear"
"1998-06-22 07:00","1998","06","22","07:00","23.3","","18.1","","73","","17","","6","","40.2","","100.26","","29","","","","Mostly Cloudy"
"1998-06-22 08:00","1998","06","22","08:00","25.8","","18.9","","66","","20","","9","","40.2","","100.26","","32","","","","Mostly Cloudy"
"1998-06-22 09:00","1998","06","22","09:00","26.7","","19.5","","65","","19","","9","","40.2","","100.23","","34","","","","Mostly Cloudy"
"1998-06-22 10:00","1998","06","22","10:00","28.0","","20.2","","63","","20","","9","","40.2","","100.19","","36","","","","Mostly Cloudy"
"1998-06-22 11:00","1998","06","22","11:00","29.0","","20.9","","62","","18","","9","","40.2","","100.16","","37","","","","Mostly Cloudy"
"1998-06-22 12:00","1998","06","22","12:00","28.7","","20.8","","62","","18","","15","","40.2","","100.16","","37","","","","Cloudy"
"1998-06-22 13:00","1998","06","22","13:00","29.8","","20.5","","57","","19","","17","","40.2","","100.09","","38","","","","Cloudy"
"1998-06-22 14:00","1998","06","22","14:00","29.6","","19.9","","56","","20","","19","","40.2","","100.09","","37","","","","Mostly Cloudy"
"1998-06-22 15:00","1998","06","22","15:00","30.4","","20.0","","54","","22","","19","","40.2","","100.06","","38","","","","Mostly Cloudy"
"1998-06-22 16:00","1998","06","22","16:00","30.2","","21.0","","58","","22","","20","","40.2","","99.96","","39","","","","Mainly Clear"
"1998-06-22 17:00","1998","06","22","17:00","29.9","","20.1","","56","","22","","17","","40.2","","99.96","","38","","","","Mainly Clear"
"1998-06-22 18:00","1998","06","22","18:00","29.2","","19.2","","55","","20","","13","","24.1","","99.89","","36","","","","Mainly Clear"
"1998-06-22 19:00","1998","06","22","19:00","27.7","","19.7","","62","","20","","13","","24.1","","99.89","","35","","","","Clear"
"1998-06-22 20:00","1998","06","22","20:00","26.0","","19.5","","67","","20","","17","","19.3","","99.93","","33","","","","Clear"
"1998-06-22 21:00","1998","06","22","21:00","25.0","","19.3","","71","","22","","17","","19.3","","99.99","","32","","","","Mainly Clear"
"1998-06-22 22:00","1998","06","22","22:00","24.2","","19.5","","75","","22","","19","","19.3","","100.03","","31","","","","Clear"
"1998-06-22 23:00","1998","06","22","23:00","23.4","","19.6","","79","","22","","19","","19.3","","100.06","","31","","","","Clear"
"1998-06-23 00:00","1998","06","23","00:00","22.5","","19.7","","84","","23","","15","","19.3","","100.09","","30","","","","Clear"
"1998-06-23 01:00","1998","06","23","01:00","21.5","","19.7","","89","","23","","9","","16.1","","100.13","","29","","","","Mainly Clear"
"1998-06-23 02:00","1998","06","23","02:00","20.7","","19.4","","92","","22","","6","","8.0","","100.09","","28","","","","Fog"
"1998-06-23 03:00","1998","06","23","03:00","19.9","","19.3","","96","","19","","6","","6.4","","100.13","","","","","","Fog"
"1998-06-23 04:00","1998","06","23","04:00","19.2","","18.8","","98","","20","","6","","2.8","","100.13","","","","","","Fog"
"1998-06-23 05:00","1998","06","23","05:00","19.1","","18.9","","99","","20","","6","","0.6","","100.13","","","","","","Fog"
"1998-06-23 06:00","1998","06","23","06:00","19.6","","19.5","","99","","21","","6","","1.2","","100.23","","","","","","Fog"
"1998-06-23 07:00","1998","06","23","07:00","21.4","","20.6","","95","","23","","7","","6.4","","100.26","","29","","","","Fog"
"1998-06-23 08:00","1998","06","23","08:00","23.7","","19.0","","75","","23","","6","","19.3","","100.26","","30","","","","Mostly Cloudy"
"1998-06-23 09:00","1998","06","23","09:00","25.2","","17.4","","62","","18","","4","","32.2","","100.26","","31","","","","Mostly Cloudy"
"1998-06-23 10:00","1998","06","23","10:00","26.0","","17.1","","58","","19","","9","","32.2","","100.26","","31","","","","Mostly Cloudy"
"1998-06-23 11:00","1998","06","23","11:00","27.1","","17.6","","56","","19","","11","","32.2","","100.26","","33","","","","Mostly Cloudy"
"1998-06-23 12:00","1998","06","23","12:00","27.6","","17.3","","53","","20","","7","","32.2","","100.19","","33","","","","Mostly Cloudy"
"1998-06-23 13:00","1998","06","23","13:00","26.9","","18.1","","59","","19","","13","","32.2","","100.16","","33","","","","Mostly Cloudy"
"1998-06-23 14:00","1998","06","23","14:00","26.6","","19.3","","64","","18","","11","","24.1","","100.16","","34","","","","Mostly Cloudy"
"1998-06-23 15:00","1998","06","23","15:00","28.0","","19.2","","59","","23","","7","","24.1","","100.16","","35","","","","Mostly Cloudy"
"1998-06-23 16:00","1998","06","23","16:00","28.7","","18.2","","53","","21","","15","","19.3","","100.09","","35","","","","Mostly Cloudy"
"1998-06-23 17:00","1998","06","23","17:00","28.4","","17.9","","53","","21","","13","","19.3","","99.99","","34","","","","Mainly Clear"
"1998-06-23 18:00","1998","06","23","18:00","27.5","","18.7","","59","","21","","11","","24.1","","99.96","","34","","","","Mainly Clear"
"1998-06-23 19:00","1998","06","23","19:00","26.5","","18.2","","60","","22","","6","","19.3","","100.03","","33","","","","Mostly Cloudy"
"1998-06-23 20:00","1998","06","23","20:00","25.0","","19.8","","73","","","","0","","16.1","","100.06","","32","","","","Mainly Clear"
"1998-06-23 21:00","1998","06","23","21:00","23.6","","20.5","","83","","15","","4","","9.7","","100.13","","32","","","","Haze"
"1998-06-23 22:00","1998","06","23","22:00","22.8","","20.7","","88","","14","","4","","8.0","","100.09","","31","","","","Fog"
"1998-06-23 23:00","1998","06","23","23:00","22.4","","20.5","","89","","20","","6","","9.7","","100.13","","30","","","","Fog"
"1998-06-24 00:00","1998","06","24","00:00","21.1","","19.8","","92","","20","","6","","12.9","","100.16","","29","","","","Mainly Clear"
"1998-06-24 01:00","1998","06","24","01:00","20.9","","19.6","","92","","21","","4","","12.9","","100.13","","28","","","","Mostly Cloudy"
"1998-06-24 02:00","1998","06","24","02:00","20.4","","19.5","","95","","23","","7","","3.2","","100.16","","28","","","","Fog"
"1998-06-24 03:00","1998","06","24","03:00","19.8","","19.7","","99","","25","","6","","6.4","","100.13","","","","","","Fog"
"1998-06-24 04:00","1998","06","24","04:00","19.8","","19.2","","96","","28","","7","","4.8","","100.16","","","","","","Fog"
"1998-06-24 05:00","1998","06","24","05:00","19.6","","19.1","","97","","21","","6","","8.0","","100.16","","","","","","Fog"
"1998-06-24 06:00","1998","06","24","06:00","19.9","","19.6","","98","","","","0","","6.4","","100.26","","","","","","Fog"
"1998-06-24 07:00","1998","06","24","07:00","21.4","","20.4","","94","","","","0","","4.0","","100.33","","29","","","","Fog"
"1998-06-24 08:00","1998","06","24","08:00","22.8","","20.8","","88","","","","0","","9.7","","100.33","","31","","","","Fog"
"1998-06-24 09:00","1998","06","24","09:00","24.2","","21.0","","82","","21","","4","","9.7","","100.36","","33","","","","Haze"
"1998-06-24 10:00","1998","06","24","10:00","24.8","","20.1","","75","","17","","4","","12.9","","100.36","","32","","","","Mainly Clear"
"1998-06-24 11:00","1998","06","24","11:00","25.9","","20.1","","70","","","","0","","12.9","","100.33","","34","","","","Mostly Cloudy"
"1998-06-24 12:00","1998","06","24","12:00","27.7","","19.4","","61","","25","","4","","16.1","","100.29","","35","","","","Mostly Cloudy"
"1998-06-24 13:00","1998","06","24","13:00","27.9","","18.6","","57","","16","","9","","19.3","","100.26","","34","","","","Mostly Cloudy"
"1998-06-24 14:00","1998","06","24","14:00","28.7","","18.4","","54","","10","","7","","24.1","","100.23","","35","","","","Mainly Clear"
"1998-06-24 15:00","1998","06","24","15:00","29.7","","16.8","","46","","29","","6","","32.2","","100.16","","35","","","","Mainly Clear"
"1998-06-24 16:00","1998","06","24","16:00","29.3","","15.5","","43","","26","","4","","32.2","","100.13","","34","","","","Mostly Cloudy"
"1998-06-24 17:00","1998","06","24","17:00","29.2","","17.3","","49","","22","","7","","32.2","","100.13","","35","","","","Mostly Cloudy"
"1998-06-24 18:00","1998","06","24","18:00","29.0","","15.6","","44","","26","","6","","32.2","","100.09","","33","","","","Mostly Cloudy"
"1998-06-24 19:00","1998","06","24","19:00","28.1","","16.0","","48","","","","0","","32.2","","100.13","","33","","","","Mainly Clear"
"1998-06-24 20:00","1998","06","24","20:00","26.6","","13.3","","44","","","","0","","32.2","","100.19","","30","","","","Mainly Clear"
"1998-06-24 21:00","1998","06","24","21:00","25.5","","19.2","","68","","18","","4","","24.1","","100.23","","32","","","","Mainly Clear"
"1998-06-24 22:00","1998","06","24","22:00","24.0","","18.4","","71","","20","","4","","24.1","","100.23","","30","","","","Mainly Clear"
"1998-06-24 23:00","1998","06","24","23:00","23.1","","18.4","","75","","18","","6","","24.1","","100.23","","29","","","","Mainly Clear"
"1998-06-25 00:00","1998","06","25","00:00","22.2","","18.5","","80","","17","","6","","24.1","","100.23","","29","","","","Mostly Cloudy"
"1998-06-25 01:00","1998","06","25","01:00","21.7","","18.5","","82","","19","","6","","24.1","","100.19","","28","","","","Cloudy"
"1998-06-25 02:00","1998","06","25","02:00","21.0","","18.4","","85","","18","","6","","24.1","","100.16","","27","","","","Cloudy"
"1998-06-25 03:00","1998","06","25","03:00","20.6","","18.4","","87","","19","","11","","24.1","","100.09","","27","","","","Cloudy"
"1998-06-25 04:00","1998","06","25","04:00","21.2","","18.5","","85","","21","","11","","19.3","","100.16","","28","","","","Thunderstorms"
"1998-06-25 05:00","1998","06","25","05:00","20.8","","19.5","","92","","18","","6","","14.5","","100.09","","28","","","","Cloudy"
"1998-06-25 06:00","1998","06","25","06:00","20.8","","19.5","","92","","20","","9","","19.3","","100.16","","28","","","","Cloudy"
"1998-06-25 07:00","1998","06","25","07:00","21.5","","19.8","","90","","20","","9","","24.1","","100.09","","29","","","","Mostly Cloudy"
"1998-06-25 08:00","1998","06","25","08:00","23.3","","19.6","","80","","22","","11","","32.2","","100.13","","31","","","","Mostly Cloudy"
"1998-06-25 09:00","1998","06","25","09:00","24.0","","19.2","","75","","21","","13","","40.2","","100.16","","31","","","","Mostly Cloudy"
"1998-06-25 10:00","1998","06","25","10:00","24.1","","18.8","","72","","21","","13","","40.2","","100.19","","31","","","","Cloudy"
"1998-06-25 11:00","1998","06","25","11:00","21.8","","19.7","","88","","26","","9","","24.1","","100.26","","29","","","","Rain Showers"
"1998-06-25 12:00","1998","06","25","12:00","22.3","","20.1","","87","","33","","9","","24.1","","100.16","","30","","","","Cloudy"
"1998-06-25 13:00","1998","06","25","13:00","22.3","","20.2","","88","","18","","7","","24.1","","100.16","","30","","","","Rain Showers"
"1998-06-25 14:00","1998","06","25","14:00","21.8","","20.6","","93","","18","","4","","8.0","","100.09","","30","","","","Rain Showers,Fog"
"1998-06-25 15:00","1998","06","25","15:00","22.4","","21.0","","92","","15","","9","","8.0","","99.93","","31","","","","Fog"
"1998-06-25 16:00","1998","06","25","16:00","22.2","","20.7","","91","","16","","4","","8.0","","99.89","","30","","","","Fog"
"1998-06-25 17:00","1998","06","25","17:00","23.0","","21.7","","92","","13","","9","","8.0","","99.79","","32","","","","Fog"
"1998-06-25 18:00","1998","06","25","18:00","23.0","","21.6","","92","","13","","9","","8.0","","99.72","","32","","","","Fog"
"1998-06-25 19:00","1998","06","25","19:00","23.1","","21.6","","91","","13","","4","","6.4","","99.69","","32","","","","Fog"
"1998-06-25 20:00","1998","06","25","20:00","22.7","","21.5","","93","","11","","4","","4.8","","99.69","","32","","","","Fog"
"1998-06-25 21:00","1998","06","25","21:00","21.8","","21.1","","96","","6","","9","","4.8","","99.66","","30","","","","Fog"
"1998-06-25 22:00","1998","06","25","22:00","21.1","","20.7","","98","","10","","9","","4.8","","99.59","","29","","","","Fog"
"1998-06-25 23:00","1998","06","25","23:00","20.6","","20.2","","98","","12","","7","","6.4","","99.59","","28","","","","Fog"
"1998-06-26 00:00","1998","06","26","00:00","20.1","","20.0","","99","","9","","6","","6.4","","99.56","","28","","","","Fog"
"1998-06-26 01:00","1998","06","26","01:00","20.3","","20.2","","99","","18","","4","","6.4","","99.59","","28","","","","Fog"
"1998-06-26 02:00","1998","06","26","02:00","20.3","","20.2","","99","","","","0","","6.4","","99.49","","28","","","","Thunderstorms,Fog"
"1998-06-26 03:00","1998","06","26","03:00","20.2","","20.2","","100","","","","0","","6.4","","99.42","","28","","","","Fog"
"1998-06-26 04:00","1998","06","26","04:00","20.2","","19.9","","98","","5","","4","","2.4","","99.36","","28","","","","Fog"
"1998-06-26 05:00","1998","06","26","05:00","20.2","","20.2","","100","","","","0","","2.4","","99.39","","28","","","","Rain Showers,Fog"
"1998-06-26 06:00","1998","06","26","06:00","20.9","","20.8","","99","","","","0","","2.8","","99.42","","29","","","","Rain Showers,Fog"
"1998-06-26 07:00","1998","06","26","07:00","21.2","","21.1","","99","","","","0","","3.2","","99.36","","30","","","","Fog"
"1998-06-26 08:00","1998","06","26","08:00","22.4","","21.2","","93","","24","","9","","12.9","","99.29","","31","","","","Mostly Cloudy"
"1998-06-26 09:00","1998","06","26","09:00","21.4","","19.6","","89","","23","","15","","12.9","","99.32","","29","","","","Rain Showers"
"1998-06-26 10:00","1998","06","26","10:00","21.6","","20.0","","91","","24","","19","","32.2","","99.32","","29","","","","Cloudy"
"1998-06-26 11:00","1998","06","26","11:00","23.0","","20.1","","84","","22","","11","","32.2","","99.26","","31","","","","Cloudy"
"1998-06-26 12:00","1998","06","26","12:00","24.2","","20.1","","78","","20","","20","","32.2","","99.19","","32","","","","Mostly Cloudy"
"1998-06-26 13:00","1998","06","26","13:00","23.4","","19.5","","79","","19","","17","","32.2","","99.15","","31","","","","Cloudy"
"1998-06-26 14:00","1998","06","26","14:00","24.4","","20.4","","78","","20","","7","","32.2","","99.09","","32","","","","Mostly Cloudy"
"1998-06-26 15:00","1998","06","26","15:00","24.4","","20.8","","80","","15","","11","","32.2","","98.95","","33","","","","Mostly Cloudy"
"1998-06-26 16:00","1998","06","26","16:00","24.8","","20.8","","78","","13","","11","","32.2","","98.92","","33","","","","Cloudy"
"1998-06-26 17:00","1998","06","26","17:00","24.1","","21.0","","83","","14","","15","","32.2","","98.92","","33","","","","Cloudy"
"1998-06-26 18:00","1998","06","26","18:00","23.0","","20.5","","86","","15","","11","","32.2","","98.89","","31","","","","Rain Showers"
"1998-06-26 19:00","1998","06","26","19:00","22.1","","21.1","","94","","","","0","","14.5","","98.82","","31","","","","Rain Showers"
"1998-06-26 20:00","1998","06","26","20:00","21.7","","21.1","","96","","","","0","","24.1","","98.79","","30","","","","Rain Showers"
"1998-06-26 21:00","1998","06","26","21:00","21.3","","20.4","","95","","33","","11","","25.0","","98.82","","29","","","","Rain"
"1998-06-26 22:00","1998","06","26","22:00","20.9","","20.3","","96","","31","","17","","25.0","","98.75","","29","","","","Cloudy"
"1998-06-26 23:00","1998","06","26","23:00","20.3","","19.7","","96","","3","","17","","25.0","","98.75","","28","","","","Rain Showers"
"1998-06-27 00:00","1998","06","27","00:00","19.9","","19.5","","98","","3","","19","","11.3","","98.82","","","","","","Rain Showers"
"1998-06-27 01:00","1998","06","27","01:00","19.6","","19.4","","99","","3","","19","","6.4","","98.85","","","","","","Moderate Rain Showers"
"1998-06-27 02:00","1998","06","27","02:00","19.6","","19.6","","100","","36","","19","","6.4","","98.92","","","","","","Rain Showers"
"1998-06-27 03:00","1998","06","27","03:00","19.8","","19.6","","99","","36","","19","","11.3","","98.95","","","","","","Rain Showers"
"1998-06-27 04:00","1998","06","27","04:00","19.6","","19.6","","100","","1","","19","","16.1","","99.05","","","","","","Mostly Cloudy"
"1998-06-27 05:00","1998","06","27","05:00","19.4","","19.4","","100","","2","","13","","24.1","","99.09","","","","","","Mostly Cloudy"
"1998-06-27 06:00","1998","06","27","06:00","19.5","","19.1","","98","","2","","15","","24.1","","99.26","","","","","","Cloudy"
"1998-06-27 07:00","1998","06","27","07:00","20.1","","19.2","","95","","3","","17","","40.2","","99.32","","27","","","","Mostly Cloudy"
"1998-06-27 08:00","1998","06","27","08:00","20.9","","18.1","","84","","20","","11","","40.2","","99.39","","27","","","","Mostly Cloudy"
"1998-06-27 09:00","1998","06","27","09:00","22.1","","18.2","","79","","2","","13","","40.2","","99.42","","28","","","","Mostly Cloudy"
"1998-06-27 10:00","1998","06","27","10:00","23.1","","17.9","","73","","6","","15","","32.2","","99.52","","29","","","","Mostly Cloudy"
"1998-06-27 11:00","1998","06","27","11:00","23.5","","17.8","","70","","5","","15","","32.2","","99.56","","29","","","","Mostly Cloudy"
"1998-06-27 12:00","1998","06","27","12:00","25.6","","17.8","","62","","7","","19","","32.2","","99.56","","31","","","","Mostly Cloudy"
"1998-06-27 13:00","1998","06","27","13:00","25.8","","17.4","","60","","6","","17","","32.2","","99.59","","31","","","","Mainly Clear"
"1998-06-27 14:00","1998","06","27","14:00","26.5","","17.3","","57","","7","","13","","32.2","","99.66","","32","","","","Mainly Clear"
"1998-06-27 15:00","1998","06","27","15:00","26.7","","17.4","","57","","10","","11","","24.1","","99.66","","32","","","","Mainly Clear"
"1998-06-27 16:00","1998","06","27","16:00","26.4","","17.2","","57","","15","","9","","24.1","","99.66","","32","","","","Mainly Clear"
"1998-06-27 17:00","1998","06","27","17:00","26.3","","17.3","","58","","14","","9","","24.1","","99.69","","32","","","","Mainly Clear"
"1998-06-27 18:00","1998","06","27","18:00","25.3","","15.8","","56","","15","","7","","32.2","","99.72","","30","","","","Mainly Clear"
"1998-06-27 19:00","1998","06","27","19:00","24.1","","16.8","","64","","14","","7","","32.2","","99.76","","29","","","","Mostly Cloudy"
"1998-06-27 20:00","1998","06","27","20:00","22.6","","17.6","","73","","14","","13","","24.1","","99.76","","28","","","","Thunderstorms"
"1998-06-27 21:00","1998","06","27","21:00","19.4","","18.1","","92","","4","","6","","19.3","","99.93","","","","","","Mostly Cloudy"
"1998-06-27 22:00","1998","06","27","22:00","19.3","","18.1","","93","","8","","6","","19.3","","99.89","","","","","","Thunderstorms,Rain Showers"
"1998-06-27 23:00","1998","06","27","23:00","18.8","","18.2","","96","","5","","7","","24.1","","99.96","","","","","","Mainly Clear"
"1998-06-28 00:00","1998","06","28","00:00","18.1","","17.4","","96","","8","","15","","19.3","","99.96","","","","","","Mainly Clear"
"1998-06-28 01:00","1998","06","28","01:00","17.4","","16.8","","96","","6","","13","","19.3","","100.03","","","","","","Mainly Clear"
"1998-06-28 02:00","1998","06","28","02:00","17.2","","16.6","","96","","7","","11","","19.3","","100.09","","","","","","Mostly Cloudy"
"1998-06-28 03:00","1998","06","28","03:00","16.9","","16.4","","97","","6","","6","","19.3","","100.16","","","","","","Mostly Cloudy"
"1998-06-28 04:00","1998","06","28","04:00","16.4","","15.8","","96","","5","","15","","16.1","","100.16","","","","","","Mainly Clear"
"1998-06-28 05:00","1998","06","28","05:00","15.3","","15.0","","98","","7","","19","","24.1","","100.16","","","","","","Mainly Clear"
"1998-06-28 06:00","1998","06","28","06:00","15.1","","14.4","","96","","5","","17","","32.2","","100.29","","","","","","Mainly Clear"
"1998-06-28 07:00","1998","06","28","07:00","16.2","","14.3","","89","","6","","19","","40.2","","100.33","","","","","","Mostly Cloudy"
"1998-06-28 08:00","1998","06","28","08:00","16.9","","13.3","","79","","7","","20","","40.2","","100.36","","","","","","Mostly Cloudy"
"1998-06-28 09:00","1998","06","28","09:00","18.1","","13.5","","74","","7","","13","","40.2","","100.36","","","","","","Cloudy"
"1998-06-28 10:00","1998","06","28","10:00","18.6","","14.0","","75","","8","","13","","40.2","","100.36","","","","","","Cloudy"
"1998-06-28 11:00","1998","06","28","11:00","20.4","","13.6","","65","","7","","19","","40.2","","100.36","","","","","","Mostly Cloudy"
"1998-06-28 12:00","1998","06","28","12:00","22.1","","13.4","","58","","8","","20","","40.2","","100.29","","25","","","","Mostly Cloudy"
"1998-06-28 13:00","1998","06","28","13:00","22.1","","13.2","","57","","10","","17","","40.2","","100.26","","25","","","","Mostly Cloudy"
"1998-06-28 14:00","1998","06","28","14:00","23.4","","13.3","","53","","9","","15","","40.2","","100.16","","26","","","","Mostly Cloudy"
"1998-06-28 15:00","1998","06","28","15:00","23.9","","13.2","","51","","8","","17","","40.2","","100.13","","27","","","","Mainly Clear"
"1998-06-28 16:00","1998","06","28","16:00","24.4","","13.7","","51","","10","","13","","40.2","","100.13","","28","","","","Mostly Cloudy"
"1998-06-28 17:00","1998","06","28","17:00","23.8","","14.2","","55","","8","","11","","40.2","","100.06","","27","","","","Mostly Cloudy"
"1998-06-28 18:00","1998","06","28","18:00","22.9","","14.6","","59","","9","","9","","40.2","","100.06","","27","","","","Mostly Cloudy"
"1998-06-28 19:00","1998","06","28","19:00","22.1","","14.5","","62","","9","","7","","40.2","","100.06","","26","","","","Cloudy"
"1998-06-28 20:00","1998","06","28","20:00","20.8","","14.2","","66","","8","","11","","40.2","","100.03","","","","","","Cloudy"
"1998-06-28 21:00","1998","06","28","21:00","20.1","","14.0","","68","","7","","9","","25.0","","100.06","","","","","","Cloudy"
"1998-06-28 22:00","1998","06","28","22:00","19.2","","13.8","","71","","8","","11","","25.0","","99.96","","","","","","Mostly Cloudy"
"1998-06-28 23:00","1998","06","28","23:00","18.8","","13.2","","70","","7","","11","","25.0","","99.89","","","","","","Cloudy"
"1998-06-29 00:00","1998","06","29","00:00","18.4","","12.9","","70","","7","","11","","25.0","","99.86","","","","","","Cloudy"
"1998-06-29 01:00","1998","06","29","01:00","18.0","","12.4","","70","","6","","4","","25.0","","99.82","","","","","","Cloudy"
"1998-06-29 02:00","1998","06","29","02:00","17.3","","12.0","","71","","6","","11","","25.0","","99.76","","","","","","Mostly Cloudy"
"1998-06-29 03:00","1998","06","29","03:00","17.0","","12.9","","77","","7","","9","","25.0","","99.69","","","","","","Cloudy"
"1998-06-29 04:00","1998","06","29","04:00","16.2","","12.4","","78","","3","","6","","40.2","","99.62","","","","","","Mostly Cloudy"
"1998-06-29 05:00","1998","06","29","05:00","16.1","","12.8","","81","","4","","7","","40.2","","99.62","","","","","","Mostly Cloudy"
"1998-06-29 06:00","1998","06","29","06:00","17.2","","13.4","","78","","9","","7","","40.2","","99.59","","","","","","Mostly Cloudy"
"1998-06-29 07:00","1998","06","29","07:00","20.1","","16.6","","80","","16","","6","","40.2","","99.52","","25","","","","Mostly Cloudy"
"1998-06-29 08:00","1998","06","29","08:00","21.1","","18.3","","84","","17","","6","","32.2","","99.46","","27","","","","Mainly Clear"
"1998-06-29 09:00","1998","06","29","09:00","22.8","","19.4","","81","","18","","9","","24.1","","99.39","","30","","","","Cloudy"
"1998-06-29 10:00","1998","06","29","10:00","23.8","","19.5","","77","","20","","13","","16.1","","99.39","","31","","","","Mostly Cloudy"
"1998-06-29 11:00","1998","06","29","11:00","24.7","","19.6","","73","","22","","17","","12.9","","99.26","","32","","","","Mostly Cloudy"
"1998-06-29 12:00","1998","06","29","12:00","23.8","","19.4","","76","","21","","15","","9.7","","99.22","","31","","","","Haze"
"1998-06-29 13:00","1998","06","29","13:00","24.0","","20.0","","78","","21","","19","","8.0","","99.15","","32","","","","Rain Showers,Haze"
"1998-06-29 14:00","1998","06","29","14:00","25.0","","21.7","","82","","22","","24","","6.4","","99.05","","34","","","","Haze"
"1998-06-29 15:00","1998","06","29","15:00","26.9","","20.8","","69","","25","","15","","9.7","","98.95","","35","","","","Haze"
"1998-06-29 16:00","1998","06","29","16:00","28.6","","20.4","","61","","22","","13","","9.7","","98.85","","37","","","","Haze"
"1998-06-29 17:00","1998","06","29","17:00","21.5","","15.8","","70","","6","","11","","19.3","","98.82","","26","","","","Mostly Cloudy"
"1998-06-29 18:00","1998","06","29","18:00","23.3","","17.2","","69","","9","","6","","16.1","","98.79","","29","","","","Mostly Cloudy"
"1998-06-29 19:00","1998","06","29","19:00","23.5","","17.6","","69","","16","","4","","19.3","","98.82","","29","","","","Mostly Cloudy"
"1998-06-29 20:00","1998","06","29","20:00","23.1","","18.0","","73","","24","","6","","40.2","","98.92","","29","","","","Mostly Cloudy"
"1998-06-29 21:00","1998","06","29","21:00","23.1","","15.1","","61","","25","","9","","24.1","","98.82","","27","","","","Mostly Cloudy"
"1998-06-29 22:00","1998","06","29","22:00","22.4","","15.4","","65","","23","","9","","25.0","","98.82","","27","","","","Mainly Clear"
"1998-06-29 23:00","1998","06","29","23:00","21.0","","14.6","","67","","20","","6","","25.0","","98.75","","25","","","","Mainly Clear"
"1998-06-30 00:00","1998","06","30","00:00","20.5","","15.8","","74","","25","","7","","19.3","","98.75","","25","","","","Rain Showers"
"1998-06-30 01:00","1998","06","30","01:00","19.3","","16.0","","81","","23","","6","","19.3","","98.69","","","","","","Rain Showers"
"1998-06-30 02:00","1998","06","30","02:00","18.5","","16.3","","87","","25","","6","","25.0","","98.65","","","","","","Mostly Cloudy"
"1998-06-30 03:00","1998","06","30","03:00","18.3","","16.3","","88","","18","","11","","25.0","","98.62","","","","","","Mostly Cloudy"
"1998-06-30 04:00","1998","06","30","04:00","17.4","","16.1","","92","","22","","7","","40.2","","98.59","","","","","","Mainly Clear"
"1998-06-30 05:00","1998","06","30","05:00","17.3","","16.2","","93","","21","","6","","40.2","","98.55","","","","","","Mainly Clear"
"1998-06-30 06:00","1998","06","30","06:00","19.2","","17.2","","88","","29","","6","","40.2","","98.42","","","","","","Mainly Clear"
"1998-06-30 07:00","1998","06","30","07:00","20.1","","16.6","","80","","30","","6","","40.2","","98.42","","25","","","","Mostly Cloudy"
"1998-06-30 08:00","1998","06","30","08:00","20.8","","16.3","","75","","21","","7","","40.2","","98.42","","26","","","","Mostly Cloudy"
"1998-06-30 09:00","1998","06","30","09:00","21.4","","16.7","","75","","21","","11","","40.2","","98.42","","26","","","","Mostly Cloudy"
"1998-06-30 10:00","1998","06","30","10:00","21.2","","15.4","","69","","23","","9","","40.2","","98.35","","25","","","","Mostly Cloudy"
"1998-06-30 11:00","1998","06","30","11:00","21.1","","15.6","","71","","25","","6","","40.2","","98.32","","25","","","","Mostly Cloudy"
"1998-06-30 12:00","1998","06","30","12:00","22.2","","16.9","","72","","22","","7","","40.2","","98.25","","27","","","","Cloudy"
"1998-06-30 13:00","1998","06","30","13:00","22.2","","17.2","","73","","21","","11","","40.2","","98.28","","28","","","","Cloudy"
"1998-06-30 14:00","1998","06","30","14:00","20.8","","16.7","","77","","20","","15","","32.2","","98.25","","26","","","","Cloudy"
"1998-06-30 15:00","1998","06","30","15:00","20.1","","16.3","","79","","18","","9","","32.2","","98.22","","25","","","","Rain"
"1998-06-30 16:00","1998","06","30","16:00","21.0","","17.2","","79","","21","","15","","32.2","","98.15","","26","","","","Mostly Cloudy"
"1998-06-30 17:00","1998","06","30","17:00","21.2","","16.7","","76","","19","","6","","32.2","","98.15","","26","","","","Mostly Cloudy"
"1998-06-30 18:00","1998","06","30","18:00","20.7","","17.3","","81","","23","","7","","24.1","","98.12","","26","","","","Rain Showers"
"1998-06-30 19:00","1998","06","30","19:00","20.1","","17.4","","84","","23","","4","","32.2","","98.12","","26","","","","Mostly Cloudy"
"1998-06-30 20:00","1998","06","30","20:00","19.1","","16.3","","84","","26","","6","","32.2","","98.12","","","","","","Mostly Cloudy"
"1998-06-30 21:00","1998","06","30","21:00","18.4","","16.3","","88","","28","","7","","25.0","","98.12","","","","","","Cloudy"
"1998-06-30 22:00","1998","06","30","22:00","18.3","","16.6","","90","","29","","11","","25.0","","98.15","","","","","","Rain Showers"
"1998-06-30 23:00","1998","06","30","23:00","16.9","","15.3","","90","","29","","15","","19.3","","98.15","","","","","","Rain Showers"
