"Station Name","OTTAWA MACDONALD-CARTIER INT'L A"
"Province","ONTARIO"
"Latitude","45.32"
"Longitude","-75.67"
"Elevation","114.00"
"Climate Identifier","6106000"
"WMO Identifier","71628"
"TC Identifier","YOW"
"All times are specified in Local Standard Time (LST). Add 1 hour to adjust for Daylight Saving Time where and when it is observed."

"Legend"
"E","Estimated"
"M","Missing"
"NA","Not Available"

"Date/Time","Year","Month","Day","Time","Temp (°C)","Temp Flag","Dew Point Temp (°C)","Dew Point Temp Flag","Rel Hum (%)","Rel Hum Flag","Wind Dir (10s deg)","Wind Dir Flag","Wind Spd (km/h)","Wind Spd Flag","Visibility (km)","Visibility Flag","Stn Press (kPa)","Stn Press Flag","Hmdx","Hmdx Flag","Wind Chill","Wind Chill Flag","Weather"
"1996-05-01 00:00","1996","05","01","00:00","4.4","","0.0","","73","","20","","15","","24.1","","99.19","","","","","","Clear"
"1996-05-01 01:00","1996","05","01","01:00","4.6","","-0.1","","72","","20","","15","","24.1","","99.19","","","","","","Clear"
"1996-05-01 02:00","1996","05","01","02:00","4.8","","0.1","","72","","20","","13","","24.1","","99.19","","","","","","Mostly Cloudy"
"1996-05-01 03:00","1996","05","01","03:00","5.0","","0.5","","73","","18","","13","","24.1","","99.19","","","","","","Cloudy"
"1996-05-01 04:00","1996","05","01","04:00","5.8","","0.7","","70","","20","","17","","24.1","","99.19","","","","","","Cloudy"
"1996-05-01 05:00","1996","05","01","05:00","6.1","","0.7","","68","","20","","17","","32.2","","99.26","","","","","","Cloudy"
"1996-05-01 06:00","1996","05","01","06:00","5.8","","0.0","","66","","21","","22","","32.2","","99.39","","","","","","Mainly Clear"
"1996-05-01 07:00","1996","05","01","07:00","6.9","","0.1","","62","","21","","26","","32.2","","99.42","","","","","","Mainly Clear"
"1996-05-01 08:00","1996","05","01","08:00","7.4","","0.7","","62","","21","","19","","32.2","","99.49","","","","","","Mostly Cloudy"
"1996-05-01 09:00","1996","05","01","09:00","8.3","","2.3","","66","","20","","30","","32.2","","99.49","","","","","","Mainly Clear"
"1996-05-01 10:00","1996","05","01","10:00","10.2","","2.5","","59","","22","","26","","32.2","","99.49","","","","","","Mostly Cloudy"
"1996-05-01 11:00","1996","05","01","11:00","11.8","","2.4","","52","","21","","28","","32.2","","99.49","","","","","","Mostly Cloudy"
"1996-05-01 12:00","1996","05","01","12:00","12.6","","2.3","","49","","20","","28","","32.2","","99.42","","","","","","Mainly Clear"
"1996-05-01 13:00","1996","05","01","13:00","13.5","","2.2","","46","","20","","30","","32.2","","99.39","","","","","","Mostly Cloudy"
"1996-05-01 14:00","1996","05","01","14:00","13.9","","2.7","","47","","20","","33","","32.2","","99.29","","","","","","Mostly Cloudy"
"1996-05-01 15:00","1996","05","01","15:00","14.6","","1.5","","41","","22","","37","","32.2","","99.26","","","","","","Mostly Cloudy"
"1996-05-01 16:00","1996","05","01","16:00","13.6","","2.6","","47","","21","","39","","32.2","","99.29","","","","","","Mostly Cloudy"
"1996-05-01 17:00","1996","05","01","17:00","12.6","","3.8","","55","","21","","35","","32.2","","99.36","","","","","","Mostly Cloudy"
"1996-05-01 18:00","1996","05","01","18:00","10.9","","4.2","","63","","21","","24","","24.1","","99.39","","","","","","Mainly Clear"
"1996-05-01 19:00","1996","05","01","19:00","9.8","","4.7","","71","","21","","22","","24.1","","99.42","","","","","","Mostly Cloudy"
"1996-05-01 20:00","1996","05","01","20:00","9.7","","5.4","","75","","20","","19","","24.1","","99.46","","","","","","Mostly Cloudy"
"1996-05-01 21:00","1996","05","01","21:00","6.9","","4.5","","85","","24","","13","","16.1","","99.52","","","","","","Rain Showers"
"1996-05-01 22:00","1996","05","01","22:00","6.9","","4.9","","87","","21","","9","","24.1","","99.52","","","","","","Rain Showers"
"1996-05-01 23:00","1996","05","01","23:00","7.1","","5.0","","86","","22","","11","","12.9","","99.56","","","","","","Rain Showers"
"1996-05-02 00:00","1996","05","02","00:00","7.0","","5.4","","90","","22","","9","","12.9","","99.49","","","","","","Rain Showers"
"1996-05-02 01:00","1996","05","02","01:00","6.8","","5.3","","90","","20","","13","","19.3","","99.49","","","","","","Cloudy"
"1996-05-02 02:00","1996","05","02","02:00"
"1996-05-02 03:00","1996","05","02","03:00","4.0","","1.4","","83","","30","","15","","24.1","","99.66","","","","","","Mainly Clear"
"1996-05-02 04:00","1996","05","02","04:00","2.7","","-3.0","","66","","27","","17","","24.1","","99.76","","","","","","Mainly Clear"
"1996-05-02 05:00","1996","05","02","05:00","1.3","","-2.3","","77","","25","","11","","40.2","","99.86","","","","","","Mostly Cloudy"
"1996-05-02 06:00","1996","05","02","06:00","1.9","","-2.4","","73","","24","","11","","40.2","","99.96","","","","","","Mostly Cloudy"
"1996-05-02 07:00","1996","05","02","07:00","3.3","","-1.7","","70","","27","","20","","40.2","","100.03","","","","","","Mostly Cloudy"
"1996-05-02 08:00","1996","05","02","08:00","4.9","","-2.1","","60","","25","","24","","40.2","","100.09","","","","","","Mostly Cloudy"
"1996-05-02 09:00","1996","05","02","09:00","5.8","","-2.8","","54","","24","","26","","40.2","","100.09","","","","","","Mostly Cloudy"
"1996-05-02 10:00","1996","05","02","10:00","6.8","","-2.1","","53","","24","","20","","40.2","","100.13","","","","","","Mostly Cloudy"
"1996-05-02 11:00","1996","05","02","11:00","7.5","","-1.3","","54","","25","","24","","40.2","","100.13","","","","","","Mostly Cloudy"
"1996-05-02 12:00","1996","05","02","12:00","9.0","","-3.0","","43","","27","","19","","40.2","","100.13","","","","","","Mostly Cloudy"
"1996-05-02 13:00","1996","05","02","13:00","10.9","","-2.6","","39","","25","","22","","40.2","","100.13","","","","","","Mostly Cloudy"
"1996-05-02 14:00","1996","05","02","14:00","11.7","","-2.9","","36","","27","","22","","40.2","","100.13","","","","","","Mostly Cloudy"
"1996-05-02 15:00","1996","05","02","15:00","11.0","","-2.2","","40","","27","","22","","40.2","","100.09","","","","","","Rain Showers"
"1996-05-02 16:00","1996","05","02","16:00","11.7","","-2.1","","38","","26","","22","","40.2","","100.06","","","","","","Mostly Cloudy"
"1996-05-02 17:00","1996","05","02","17:00","11.9","","-0.7","","42","","25","","24","","40.2","","100.09","","","","","","Mostly Cloudy"
"1996-05-02 18:00","1996","05","02","18:00","11.4","","-0.7","","43","","23","","15","","40.2","","100.06","","","","","","Mainly Clear"
"1996-05-02 19:00","1996","05","02","19:00","10.5","","-0.3","","47","","20","","13","","40.2","","100.06","","","","","","Mainly Clear"
"1996-05-02 20:00","1996","05","02","20:00","9.4","","0.0","","52","","18","","9","","24.1","","100.09","","","","","","Mainly Clear"
"1996-05-02 21:00","1996","05","02","21:00","8.7","","-0.4","","53","","21","","15","","24.1","","100.09","","","","","","Mainly Clear"
"1996-05-02 22:00","1996","05","02","22:00","7.9","","-0.6","","55","","21","","15","","24.1","","100.09","","","","","","Mainly Clear"
"1996-05-02 23:00","1996","05","02","23:00","6.7","","-0.5","","60","","21","","9","","24.1","","100.09","","","","","","Mainly Clear"
"1996-05-03 00:00","1996","05","03","00:00","6.3","","-0.8","","60","","21","","9","","24.1","","100.09","","","","","","Mainly Clear"
"1996-05-03 01:00","1996","05","03","01:00","5.9","","-1.1","","61","","","","0","","24.1","","100.09","","","","","","Mainly Clear"
"1996-05-03 02:00","1996","05","03","02:00","4.7","","-1.2","","66","","27","","4","","24.1","","100.09","","","","","","Clear"
"1996-05-03 03:00","1996","05","03","03:00","5.7","","-1.0","","62","","20","","7","","24.1","","100.16","","","","","","Clear"
"1996-05-03 04:00","1996","05","03","04:00","5.0","","-1.2","","64","","24","","4","","24.1","","100.19","","","","","","Mainly Clear"
"1996-05-03 05:00","1996","05","03","05:00","3.7","","-1.4","","69","","22","","6","","32.2","","100.23","","","","","","Mainly Clear"
"1996-05-03 06:00","1996","05","03","06:00","4.6","","-0.5","","69","","25","","4","","32.2","","100.29","","","","","","Mostly Cloudy"
"1996-05-03 07:00","1996","05","03","07:00","7.0","","0.5","","63","","28","","6","","32.2","","100.29","","","","","","Cloudy"
"1996-05-03 08:00","1996","05","03","08:00","9.3","","-0.1","","52","","","","0","","32.2","","100.33","","","","","","Cloudy"
"1996-05-03 09:00","1996","05","03","09:00","11.1","","-3.3","","36","","","","0","","40.2","","100.33","","","","","","Cloudy"
"1996-05-03 10:00","1996","05","03","10:00","12.0","","-8.7","","23","","31","","4","","40.2","","100.36","","","","","","Cloudy"
"1996-05-03 11:00","1996","05","03","11:00","13.1","","-8.9","","21","","34","","9","","40.2","","100.33","","","","","","Mostly Cloudy"
"1996-05-03 12:00","1996","05","03","12:00","13.7","","-7.9","","22","","31","","7","","40.2","","100.29","","","","","","Mostly Cloudy"
"1996-05-03 13:00","1996","05","03","13:00","15.5","","-4.2","","25","","","","0","","40.2","","100.23","","","","","","Mostly Cloudy"
"1996-05-03 14:00","1996","05","03","14:00","15.6","","-7.0","","20","","28","","9","","40.2","","100.19","","","","","","Mostly Cloudy"
"1996-05-03 15:00","1996","05","03","15:00","16.2","","-6.8","","20","","34","","7","","40.2","","100.13","","","","","","Cloudy"
"1996-05-03 16:00","1996","05","03","16:00","15.9","","-5.2","","23","","","","0","","40.2","","100.09","","","","","","Mostly Cloudy"
"1996-05-03 17:00","1996","05","03","17:00","15.9","","-6.2","","21","","31","","6","","40.2","","100.09","","","","","","Cloudy"
"1996-05-03 18:00","1996","05","03","18:00","15.4","","-6.0","","22","","30","","4","","40.2","","100.06","","","","","","Cloudy"
"1996-05-03 19:00","1996","05","03","19:00","14.7","","-4.5","","26","","28","","4","","40.2","","100.09","","","","","","Cloudy"
"1996-05-03 20:00","1996","05","03","20:00","12.9","","-1.1","","38","","25","","6","","24.1","","100.13","","","","","","Cloudy"
"1996-05-03 21:00","1996","05","03","21:00","13.0","","-1.2","","37","","","","0","","24.1","","100.23","","","","","","Mostly Cloudy"
"1996-05-03 22:00","1996","05","03","22:00","12.0","","0.5","","45","","23","","4","","24.1","","100.29","","","","","","Mostly Cloudy"
"1996-05-03 23:00","1996","05","03","23:00","10.4","","1.6","","54","","21","","6","","24.1","","100.33","","","","","","Mostly Cloudy"
"1996-05-04 00:00","1996","05","04","00:00","9.5","","1.6","","58","","22","","4","","24.1","","100.26","","","","","","Mainly Clear"
"1996-05-04 01:00","1996","05","04","01:00","8.0","","1.9","","65","","21","","4","","24.1","","100.26","","","","","","Mainly Clear"
"1996-05-04 02:00","1996","05","04","02:00","7.1","","2.2","","71","","","","0","","24.1","","100.26","","","","","","Mainly Clear"
"1996-05-04 03:00","1996","05","04","03:00","6.7","","2.0","","72","","","","0","","24.1","","100.29","","","","","","Mostly Cloudy"
"1996-05-04 04:00","1996","05","04","04:00","6.5","","-1.2","","58","","1","","7","","24.1","","100.23","","","","","","Mostly Cloudy"
"1996-05-04 05:00","1996","05","04","05:00","6.4","","-2.3","","54","","","","0","","40.2","","100.26","","","","","","Mostly Cloudy"
"1996-05-04 06:00","1996","05","04","06:00","6.6","","-2.3","","53","","36","","6","","40.2","","100.29","","","","","","Mostly Cloudy"
"1996-05-04 07:00","1996","05","04","07:00","8.1","","-1.6","","50","","5","","6","","40.2","","100.33","","","","","","Mainly Clear"
"1996-05-04 08:00","1996","05","04","08:00","9.6","","-1.6","","45","","4","","9","","40.2","","100.29","","","","","","Mainly Clear"
"1996-05-04 09:00","1996","05","04","09:00","11.6","","-0.7","","43","","","","0","","40.2","","100.33","","","","","","Mostly Cloudy"
"1996-05-04 10:00","1996","05","04","10:00","13.0","","1.0","","44","","4","","7","","40.2","","100.29","","","","","","Mostly Cloudy"
"1996-05-04 11:00","1996","05","04","11:00","14.5","","1.3","","41","","","","0","","40.2","","100.26","","","","","","Mostly Cloudy"
"1996-05-04 12:00","1996","05","04","12:00","15.0","","2.1","","42","","1","","7","","40.2","","100.19","","","","","","Cloudy"
"1996-05-04 13:00","1996","05","04","13:00","15.9","","1.3","","37","","6","","7","","40.2","","100.13","","","","","","Cloudy"
"1996-05-04 14:00","1996","05","04","14:00"
"1996-05-04 15:00","1996","05","04","15:00","16.3","","-0.8","","31","","","","0","","40.2","","100.03","","","","","","Cloudy"
"1996-05-04 16:00","1996","05","04","16:00","16.0","","-1.1","","31","","33","","7","","40.2","","100.03","","","","","","Cloudy"
"1996-05-04 17:00","1996","05","04","17:00","15.8","","-0.9","","32","","30","","11","","40.2","","100.06","","","","","","Cloudy"
"1996-05-04 18:00","1996","05","04","18:00","15.1","","-1.2","","33","","32","","15","","40.2","","100.13","","","","","","Cloudy"
"1996-05-04 19:00","1996","05","04","19:00","14.5","","-1.7","","33","","2","","13","","40.2","","100.13","","","","","","Mostly Cloudy"
"1996-05-04 20:00","1996","05","04","20:00","13.8","","-1.1","","36","","35","","22","","25.0","","100.23","","","","","","Mostly Cloudy"
"1996-05-04 21:00","1996","05","04","21:00","12.7","","1.0","","45","","34","","13","","25.0","","100.29","","","","","","Cloudy"
"1996-05-04 22:00","1996","05","04","22:00","12.3","","-0.9","","40","","35","","11","","25.0","","100.33","","","","","","Mostly Cloudy"
"1996-05-04 23:00","1996","05","04","23:00","11.0","","-2.1","","40","","36","","15","","25.0","","100.39","","","","","","Mostly Cloudy"
"1996-05-05 00:00","1996","05","05","00:00","9.9","","-2.5","","42","","36","","17","","25.0","","100.43","","","","","","Mainly Clear"
"1996-05-05 01:00","1996","05","05","01:00","8.7","","-2.4","","46","","1","","15","","25.0","","100.46","","","","","","Mostly Cloudy"
"1996-05-05 02:00","1996","05","05","02:00","7.3","","-3.2","","47","","35","","19","","25.0","","100.49","","","","","","Mainly Clear"
"1996-05-05 03:00","1996","05","05","03:00","5.2","","-3.6","","53","","34","","17","","25.0","","100.63","","","","","","Mainly Clear"
"1996-05-05 04:00","1996","05","05","04:00","4.1","","-3.7","","57","","34","","17","","25.0","","100.73","","","","","","Mainly Clear"
"1996-05-05 05:00","1996","05","05","05:00","2.6","","-4.0","","62","","33","","19","","40.2","","100.83","","","","","","Clear"
"1996-05-05 06:00","1996","05","05","06:00","2.8","","-3.8","","62","","33","","13","","40.2","","100.96","","","","","","Clear"
"1996-05-05 07:00","1996","05","05","07:00","3.6","","-4.0","","58","","33","","13","","40.2","","101.03","","","","","","Mainly Clear"
"1996-05-05 08:00","1996","05","05","08:00","4.4","","-3.9","","55","","32","","15","","40.2","","101.06","","","","","","Mainly Clear"
"1996-05-05 09:00","1996","05","05","09:00","6.4","","-3.3","","50","","31","","15","","40.2","","101.06","","","","","","Mainly Clear"
"1996-05-05 10:00","1996","05","05","10:00","6.2","","-4.6","","46","","31","","13","","40.2","","101.06","","","","","","Mostly Cloudy"
"1996-05-05 11:00","1996","05","05","11:00","8.9","","-3.9","","40","","32","","11","","40.2","","101.06","","","","","","Mainly Clear"
"1996-05-05 12:00","1996","05","05","12:00","10.3","","-3.4","","38","","29","","13","","40.2","","101.06","","","","","","Mainly Clear"
"1996-05-05 13:00","1996","05","05","13:00","10.8","","-5.0","","33","","34","","15","","40.2","","100.96","","","","","","Clear"
"1996-05-05 14:00","1996","05","05","14:00","11.6","","-5.7","","29","","33","","19","","40.2","","100.93","","","","","","Mainly Clear"
"1996-05-05 15:00","1996","05","05","15:00","12.1","","-6.4","","27","","35","","17","","40.2","","100.93","","","","","","Mainly Clear"
"1996-05-05 16:00","1996","05","05","16:00","12.4","","-6.7","","26","","33","","15","","40.2","","100.90","","","","","","Mainly Clear"
"1996-05-05 17:00","1996","05","05","17:00","12.2","","-7.4","","25","","35","","15","","40.2","","100.90","","","","","","Mainly Clear"
"1996-05-05 18:00","1996","05","05","18:00","11.5","","-8.4","","24","","36","","15","","40.2","","100.83","","","","","","Mostly Cloudy"
"1996-05-05 19:00","1996","05","05","19:00","10.7","","-8.4","","25","","1","","15","","40.2","","100.83","","","","","","Mainly Clear"
"1996-05-05 20:00","1996","05","05","20:00","9.1","","-7.7","","30","","2","","15","","32.2","","100.86","","","","","","Mainly Clear"
"1996-05-05 21:00","1996","05","05","21:00","8.6","","-7.1","","32","","3","","13","","25.0","","100.86","","","","","","Mostly Cloudy"
"1996-05-05 22:00","1996","05","05","22:00","7.5","","-7.0","","35","","3","","11","","25.0","","100.86","","","","","","Mostly Cloudy"
"1996-05-05 23:00","1996","05","05","23:00","6.1","","-6.5","","40","","4","","7","","25.0","","100.93","","","","","","Mostly Cloudy"
"1996-05-06 00:00","1996","05","06","00:00","6.1","","-7.0","","38","","5","","9","","25.0","","100.93","","","","","","Mostly Cloudy"
"1996-05-06 01:00","1996","05","06","01:00","5.3","","-6.9","","41","","5","","7","","25.0","","100.93","","","","","","Mostly Cloudy"
"1996-05-06 02:00","1996","05","06","02:00","4.9","","-6.6","","43","","6","","6","","25.0","","100.90","","","","","","Mostly Cloudy"
"1996-05-06 03:00","1996","05","06","03:00","3.8","","-5.9","","49","","5","","7","","25.0","","100.93","","","","","","Mostly Cloudy"
"1996-05-06 04:00","1996","05","06","04:00","3.3","","-5.9","","51","","4","","7","","25.0","","100.96","","","","","","Mostly Cloudy"
"1996-05-06 05:00","1996","05","06","05:00","3.9","","-5.9","","49","","6","","6","","40.2","","101.06","","","","","","Mostly Cloudy"
"1996-05-06 06:00","1996","05","06","06:00","4.0","","-5.0","","52","","5","","7","","40.2","","101.13","","","","","","Mostly Cloudy"
"1996-05-06 07:00","1996","05","06","07:00","5.4","","-5.1","","47","","5","","7","","40.2","","101.16","","","","","","Mostly Cloudy"
"1996-05-06 08:00","1996","05","06","08:00","6.9","","-5.8","","40","","9","","6","","40.2","","101.23","","","","","","Mostly Cloudy"
"1996-05-06 09:00","1996","05","06","09:00","8.9","","-5.5","","36","","5","","6","","40.2","","101.23","","","","","","Mainly Clear"
"1996-05-06 10:00","1996","05","06","10:00","9.5","","-5.8","","33","","1","","6","","40.2","","101.23","","","","","","Mainly Clear"
"1996-05-06 11:00","1996","05","06","11:00","10.6","","-4.7","","34","","36","","9","","40.2","","101.20","","","","","","Clear"
"1996-05-06 12:00","1996","05","06","12:00","11.3","","-4.5","","33","","36","","7","","40.2","","101.16","","","","","","Clear"
"1996-05-06 13:00","1996","05","06","13:00","12.4","","-3.8","","32","","34","","6","","40.2","","101.13","","","","","","Clear"
"1996-05-06 14:00","1996","05","06","14:00","13.7","","-3.5","","30","","30","","6","","40.2","","101.13","","","","","","Clear"
"1996-05-06 15:00","1996","05","06","15:00","14.2","","-4.9","","26","","30","","11","","40.2","","101.13","","","","","","Clear"
"1996-05-06 16:00","1996","05","06","16:00","14.8","","-4.2","","27","","29","","11","","40.2","","101.13","","","","","","Clear"
"1996-05-06 17:00","1996","05","06","17:00","14.4","","-5.2","","25","","28","","15","","40.2","","101.13","","","","","","Clear"
"1996-05-06 18:00","1996","05","06","18:00","14.8","","-4.9","","25","","25","","17","","40.2","","101.10","","","","","","Clear"
"1996-05-06 19:00","1996","05","06","19:00","14.2","","-5.8","","25","","22","","11","","40.2","","101.13","","","","","","Clear"
"1996-05-06 20:00","1996","05","06","20:00","11.4","","-4.3","","33","","25","","6","","25.0","","101.16","","","","","","Clear"
"1996-05-06 21:00","1996","05","06","21:00","10.6","","-4.4","","35","","","","0","","25.0","","101.23","","","","","","Clear"
"1996-05-06 22:00","1996","05","06","22:00","9.4","","-4.3","","38","","24","","6","","25.0","","101.30","","","","","","Clear"
"1996-05-06 23:00","1996","05","06","23:00","8.5","","-4.6","","39","","","","0","","25.0","","101.33","","","","","","Clear"
"1996-05-07 00:00","1996","05","07","00:00","6.9","","-3.9","","46","","22","","9","","25.0","","101.37","","","","","","Clear"
"1996-05-07 01:00","1996","05","07","01:00","6.0","","-3.3","","51","","22","","7","","25.0","","101.40","","","","","","Clear"
"1996-05-07 02:00","1996","05","07","02:00","5.0","","-2.6","","58","","22","","7","","25.0","","101.43","","","","","","Clear"
"1996-05-07 03:00","1996","05","07","03:00","4.5","","-2.1","","62","","22","","6","","25.0","","101.47","","","","","","Clear"
"1996-05-07 04:00","1996","05","07","04:00","3.3","","-2.2","","67","","20","","6","","25.0","","101.53","","","","","","Clear"
"1996-05-07 05:00","1996","05","07","05:00","3.1","","-2.1","","69","","","","0","","40.2","","101.57","","","","","","Clear"
"1996-05-07 06:00","1996","05","07","06:00","3.6","","-1.8","","68","","","","0","","40.2","","101.63","","","","","","Clear"
"1996-05-07 07:00","1996","05","07","07:00","6.6","","-1.6","","56","","25","","6","","40.2","","101.67","","","","","","Clear"
"1996-05-07 08:00","1996","05","07","08:00","10.0","","-2.3","","42","","27","","7","","40.2","","101.67","","","","","","Mainly Clear"
"1996-05-07 09:00","1996","05","07","09:00","12.2","","-0.6","","41","","25","","6","","40.2","","101.63","","","","","","Mostly Cloudy"
"1996-05-07 10:00","1996","05","07","10:00","14.4","","-2.4","","31","","26","","7","","40.2","","101.57","","","","","","Mostly Cloudy"
"1996-05-07 11:00","1996","05","07","11:00","16.1","","-2.3","","28","","","","0","","40.2","","101.53","","","","","","Mostly Cloudy"
"1996-05-07 12:00","1996","05","07","12:00","16.7","","-5.4","","22","","22","","11","","40.2","","101.47","","","","","","Mostly Cloudy"
"1996-05-07 13:00","1996","05","07","13:00","17.0","","-5.4","","21","","27","","9","","32.2","","101.37","","","","","","Cloudy"
"1996-05-07 14:00","1996","05","07","14:00","17.6","","-4.5","","22","","19","","9","","32.2","","101.33","","","","","","Cloudy"
"1996-05-07 15:00","1996","05","07","15:00","17.8","","-3.9","","22","","18","","13","","40.2","","101.23","","","","","","Mostly Cloudy"
"1996-05-07 16:00","1996","05","07","16:00","17.9","","-3.6","","23","","20","","15","","40.2","","101.16","","","","","","Mostly Cloudy"
"1996-05-07 17:00","1996","05","07","17:00","16.5","","-4.9","","23","","20","","13","","40.2","","101.10","","","","","","Cloudy"
"1996-05-07 18:00","1996","05","07","18:00","15.5","","-7.9","","19","","23","","11","","40.2","","101.06","","","","","","Cloudy"
"1996-05-07 19:00","1996","05","07","19:00","14.6","","-5.9","","24","","24","","4","","40.2","","101.03","","","","","","Mostly Cloudy"
"1996-05-07 20:00","1996","05","07","20:00","13.2","","-5.2","","27","","","","0","","25.0","","101.00","","","","","","Mostly Cloudy"
"1996-05-07 21:00","1996","05","07","21:00","13.0","","-6.4","","25","","","","0","","25.0","","101.00","","","","","","Cloudy"
"1996-05-07 22:00","1996","05","07","22:00","11.5","","-6.2","","28","","","","0","","25.0","","101.00","","","","","","Mostly Cloudy"
"1996-05-07 23:00","1996","05","07","23:00","10.5","","-4.7","","34","","","","0","","25.0","","101.00","","","","","","Mainly Clear"
"1996-05-08 00:00","1996","05","08","00:00","9.6","","-3.7","","39","","21","","7","","25.0","","101.03","","","","","","Mainly Clear"
"1996-05-08 01:00","1996","05","08","01:00","7.9","","-2.3","","48","","21","","4","","25.0","","101.03","","","","","","Mainly Clear"
"1996-05-08 02:00","1996","05","08","02:00","7.4","","0.7","","62","","21","","4","","25.0","","101.03","","","","","","Clear"
"1996-05-08 03:00","1996","05","08","03:00","6.5","","1.1","","68","","","","0","","25.0","","101.03","","","","","","Clear"
"1996-05-08 04:00","1996","05","08","04:00","6.7","","1.7","","70","","","","0","","25.0","","101.03","","","","","","Clear"
"1996-05-08 05:00","1996","05","08","05:00","6.3","","1.8","","73","","22","","4","","24.1","","101.03","","","","","","Clear"
"1996-05-08 06:00","1996","05","08","06:00","6.9","","2.6","","74","","23","","4","","32.2","","101.06","","","","","","Clear"
"1996-05-08 07:00","1996","05","08","07:00","9.0","","3.5","","68","","23","","9","","24.1","","101.13","","","","","","Clear"
"1996-05-08 08:00","1996","05","08","08:00","10.7","","4.6","","66","","21","","7","","24.1","","101.10","","","","","","Mainly Clear"
"1996-05-08 09:00","1996","05","08","09:00","13.0","","5.4","","60","","20","","6","","24.1","","101.06","","","","","","Mainly Clear"
"1996-05-08 10:00","1996","05","08","10:00","14.5","","4.5","","51","","","","0","","32.2","","101.03","","","","","","Clear"
"1996-05-08 11:00","1996","05","08","11:00","16.2","","4.4","","45","","18","","4","","32.2","","100.96","","","","","","Mainly Clear"
"1996-05-08 12:00","1996","05","08","12:00","17.2","","2.4","","37","","19","","4","","32.2","","101.00","","","","","","Mainly Clear"
"1996-05-08 13:00","1996","05","08","13:00","18.0","","1.1","","32","","","","0","","32.2","","100.96","","","","","","Mainly Clear"
"1996-05-08 14:00","1996","05","08","14:00","18.9","","0.9","","30","","35","","6","","32.2","","100.93","","","","","","Mostly Cloudy"
"1996-05-08 15:00","1996","05","08","15:00","19.0","","0.5","","29","","","","0","","32.2","","100.90","","","","","","Cloudy"
"1996-05-08 16:00","1996","05","08","16:00","18.9","","-1.0","","26","","7","","11","","32.2","","100.83","","","","","","Cloudy"
"1996-05-08 17:00","1996","05","08","17:00","18.6","","-1.2","","26","","11","","4","","32.2","","100.83","","","","","","Cloudy"
"1996-05-08 18:00","1996","05","08","18:00","17.6","","0.3","","31","","15","","4","","32.2","","100.80","","","","","","Cloudy"
"1996-05-08 19:00","1996","05","08","19:00","17.0","","0.4","","32","","","","0","","32.2","","100.80","","","","","","Cloudy"
"1996-05-08 20:00","1996","05","08","20:00","16.9","","-0.2","","31","","","","0","","25.0","","100.86","","","","","","Cloudy"
"1996-05-08 21:00","1996","05","08","21:00","15.8","","0.9","","36","","22","","2","","25.0","","100.90","","","","","","Cloudy"
"1996-05-08 22:00","1996","05","08","22:00","15.0","","1.2","","39","","17","","4","","25.0","","100.90","","","","","","Cloudy"
"1996-05-08 23:00","1996","05","08","23:00","15.3","","1.1","","38","","18","","6","","25.0","","100.86","","","","","","Cloudy"
"1996-05-09 00:00","1996","05","09","00:00","15.3","","2.1","","41","","19","","6","","25.0","","100.86","","","","","","Cloudy"
"1996-05-09 01:00","1996","05","09","01:00","14.3","","2.1","","44","","","","0","","25.0","","100.86","","","","","","Cloudy"
"1996-05-09 02:00","1996","05","09","02:00","13.2","","1.8","","46","","6","","6","","25.0","","100.83","","","","","","Cloudy"
"1996-05-09 03:00","1996","05","09","03:00","12.8","","1.9","","47","","8","","4","","25.0","","100.83","","","","","","Cloudy"
"1996-05-09 04:00","1996","05","09","04:00","12.2","","2.1","","50","","8","","13","","25.0","","100.86","","","","","","Cloudy"
"1996-05-09 05:00","1996","05","09","05:00","12.4","","1.8","","48","","9","","7","","40.2","","100.86","","","","","","Cloudy"
"1996-05-09 06:00","1996","05","09","06:00","11.8","","2.8","","54","","","","0","","32.2","","100.96","","","","","","Cloudy"
"1996-05-09 07:00","1996","05","09","07:00","12.0","","2.7","","53","","8","","9","","32.2","","101.00","","","","","","Cloudy"
"1996-05-09 08:00","1996","05","09","08:00","12.4","","3.3","","54","","12","","9","","32.2","","101.03","","","","","","Cloudy"
"1996-05-09 09:00","1996","05","09","09:00","11.1","","6.3","","72","","8","","6","","4.8","","101.06","","","","","","Rain Showers,Haze"
"1996-05-09 10:00","1996","05","09","10:00","11.3","","8.0","","80","","4","","6","","12.9","","101.03","","","","","","Rain Showers"
"1996-05-09 11:00","1996","05","09","11:00","13.2","","8.9","","75","","10","","7","","14.5","","100.93","","","","","","Cloudy"
"1996-05-09 12:00","1996","05","09","12:00","15.4","","7.4","","59","","12","","13","","16.1","","100.90","","","","","","Cloudy"
"1996-05-09 13:00","1996","05","09","13:00","15.8","","6.4","","54","","18","","15","","24.1","","100.86","","","","","","Cloudy"
"1996-05-09 14:00","1996","05","09","14:00","15.1","","6.2","","55","","19","","13","","32.2","","100.90","","","","","","Cloudy"
"1996-05-09 15:00","1996","05","09","15:00","15.0","","6.7","","58","","17","","7","","32.2","","100.83","","","","","","Cloudy"
"1996-05-09 16:00","1996","05","09","16:00","15.7","","5.9","","52","","19","","13","","32.2","","100.73","","","","","","Cloudy"
"1996-05-09 17:00","1996","05","09","17:00","15.7","","5.8","","52","","20","","13","","32.2","","100.76","","","","","","Cloudy"
"1996-05-09 18:00","1996","05","09","18:00","14.4","","7.9","","65","","23","","9","","32.2","","100.83","","","","","","Cloudy"
"1996-05-09 19:00","1996","05","09","19:00","13.7","","7.3","","65","","20","","4","","24.1","","100.76","","","","","","Cloudy"
"1996-05-09 20:00","1996","05","09","20:00","13.3","","7.2","","67","","","","0","","24.1","","100.73","","","","","","Cloudy"
"1996-05-09 21:00","1996","05","09","21:00","13.2","","7.9","","70","","20","","13","","19.3","","100.73","","","","","","Cloudy"
"1996-05-09 22:00","1996","05","09","22:00","12.6","","8.4","","76","","19","","13","","12.9","","100.66","","","","","","Cloudy"
"1996-05-09 23:00","1996","05","09","23:00","12.5","","8.3","","76","","","","0","","12.9","","100.63","","","","","","Cloudy"
"1996-05-10 00:00","1996","05","10","00:00","12.4","","8.5","","77","","16","","6","","16.1","","100.60","","","","","","Rain Showers"
"1996-05-10 01:00","1996","05","10","01:00","11.8","","8.7","","81","","16","","7","","12.9","","100.56","","","","","","Rain Showers"
"1996-05-10 02:00","1996","05","10","02:00","11.2","","9.3","","88","","14","","4","","8.0","","100.49","","","","","","Drizzle,Fog"
"1996-05-10 03:00","1996","05","10","03:00","11.0","","9.3","","89","","9","","4","","4.0","","100.43","","","","","","Drizzle,Fog"
"1996-05-10 04:00","1996","05","10","04:00","10.6","","9.3","","92","","12","","7","","2.0","","100.36","","","","","","Drizzle,Fog"
"1996-05-10 05:00","1996","05","10","05:00","10.7","","9.5","","92","","13","","6","","2.0","","100.36","","","","","","Rain,Fog"
"1996-05-10 06:00","1996","05","10","06:00","11.0","","9.8","","92","","13","","6","","3.6","","100.43","","","","","","Rain,Fog"
"1996-05-10 07:00","1996","05","10","07:00","11.0","","9.8","","92","","10","","6","","3.2","","100.43","","","","","","Drizzle,Fog"
"1996-05-10 08:00","1996","05","10","08:00","11.0","","9.9","","93","","11","","11","","3.2","","100.36","","","","","","Drizzle,Fog"
"1996-05-10 09:00","1996","05","10","09:00","11.3","","10.2","","93","","11","","7","","4.0","","100.33","","","","","","Drizzle,Fog"
"1996-05-10 10:00","1996","05","10","10:00","12.0","","10.7","","92","","12","","9","","2.8","","100.23","","","","","","Drizzle,Fog"
"1996-05-10 11:00","1996","05","10","11:00","12.9","","11.6","","92","","13","","11","","6.4","","100.16","","","","","","Fog"
"1996-05-10 12:00","1996","05","10","12:00","13.3","","11.6","","89","","8","","7","","9.7","","100.13","","","","","","Rain,Fog"
"1996-05-10 13:00","1996","05","10","13:00","13.5","","12.0","","91","","12","","7","","9.7","","100.06","","","","","","Drizzle,Fog"
"1996-05-10 14:00","1996","05","10","14:00","13.4","","12.2","","92","","11","","4","","4.0","","99.96","","","","","","Rain,Fog"
"1996-05-10 15:00","1996","05","10","15:00","13.6","","12.6","","94","","11","","6","","4.8","","99.82","","","","","","Rain,Fog"
"1996-05-10 16:00","1996","05","10","16:00","13.5","","12.2","","92","","9","","6","","4.8","","99.72","","","","","","Rain,Fog"
"1996-05-10 17:00","1996","05","10","17:00","12.6","","11.3","","92","","3","","13","","4.8","","99.72","","","","","","Rain,Fog"
"1996-05-10 18:00","1996","05","10","18:00","11.6","","10.2","","91","","4","","19","","4.8","","99.69","","","","","","Rain,Fog"
"1996-05-10 19:00","1996","05","10","19:00","11.5","","10.1","","91","","4","","17","","4.8","","99.69","","","","","","Rain,Fog"
"1996-05-10 20:00","1996","05","10","20:00","11.7","","10.6","","93","","3","","15","","6.4","","99.72","","","","","","Rain,Fog"
"1996-05-10 21:00","1996","05","10","21:00","11.6","","10.6","","94","","3","","17","","4.0","","99.72","","","","","","Drizzle,Fog"
"1996-05-10 22:00","1996","05","10","22:00","11.3","","10.3","","94","","3","","17","","6.4","","99.69","","","","","","Rain,Fog"
"1996-05-10 23:00","1996","05","10","23:00","11.3","","10.3","","94","","3","","13","","9.7","","99.66","","","","","","Rain,Fog"
"1996-05-11 00:00","1996","05","11","00:00","11.1","","9.8","","92","","35","","15","","6.4","","99.66","","","","","","Rain,Fog"
"1996-05-11 01:00","1996","05","11","01:00","10.2","","8.8","","91","","1","","19","","12.9","","99.62","","","","","","Rain"
"1996-05-11 02:00","1996","05","11","02:00","9.5","","8.2","","92","","35","","15","","19.3","","99.62","","","","","","Rain"
"1996-05-11 03:00","1996","05","11","03:00","8.5","","6.9","","90","","35","","20","","16.1","","99.69","","","","","","Rain"
"1996-05-11 04:00","1996","05","11","04:00","7.6","","5.7","","88","","36","","20","","16.1","","99.72","","","","","","Rain"
"1996-05-11 05:00","1996","05","11","05:00","7.0","","5.1","","88","","36","","17","","24.1","","99.76","","","","","","Rain"
"1996-05-11 06:00","1996","05","11","06:00","6.5","","4.7","","88","","35","","19","","24.1","","99.79","","","","","","Rain"
"1996-05-11 07:00","1996","05","11","07:00","6.3","","4.2","","86","","36","","20","","19.3","","99.79","","","","","","Rain"
"1996-05-11 08:00","1996","05","11","08:00","5.9","","3.7","","86","","36","","20","","8.0","","99.89","","","","","","Rain,Fog"
"1996-05-11 09:00","1996","05","11","09:00","5.7","","3.1","","83","","36","","20","","16.1","","99.86","","","","","","Rain"
"1996-05-11 10:00","1996","05","11","10:00","5.0","","2.6","","84","","35","","19","","16.1","","99.89","","","","","","Rain"
"1996-05-11 11:00","1996","05","11","11:00","4.9","","2.5","","84","","35","","19","","6.4","","99.89","","","","","","Rain,Fog"
"1996-05-11 12:00","1996","05","11","12:00","4.9","","2.7","","86","","35","","19","","8.0","","99.82","","","","","","Rain,Fog"
"1996-05-11 13:00","1996","05","11","13:00","5.3","","3.0","","85","","36","","19","","12.9","","99.76","","","","","","Rain"
"1996-05-11 14:00","1996","05","11","14:00","5.8","","3.7","","86","","34","","15","","12.9","","99.72","","","","","","Rain"
"1996-05-11 15:00","1996","05","11","15:00","6.7","","4.5","","86","","2","","17","","12.9","","99.62","","","","","","Rain"
"1996-05-11 16:00","1996","05","11","16:00","6.9","","4.3","","83","","36","","15","","19.3","","99.59","","","","","","Rain"
"1996-05-11 17:00","1996","05","11","17:00","6.8","","4.2","","83","","1","","13","","19.3","","99.59","","","","","","Rain"
"1996-05-11 18:00","1996","05","11","18:00","7.0","","4.1","","82","","36","","11","","19.3","","99.49","","","","","","Rain"
"1996-05-11 19:00","1996","05","11","19:00","6.6","","4.4","","86","","33","","11","","16.1","","99.49","","","","","","Rain"
"1996-05-11 20:00","1996","05","11","20:00","7.1","","3.0","","75","","1","","19","","19.3","","99.49","","","","","","Rain"
"1996-05-11 21:00","1996","05","11","21:00","7.0","","1.1","","66","","1","","15","","24.1","","99.49","","","","","","Rain"
"1996-05-11 22:00","1996","05","11","22:00","5.8","","0.8","","70","","1","","22","","24.1","","99.46","","","","","","Rain"
"1996-05-11 23:00","1996","05","11","23:00","4.7","","1.2","","78","","36","","19","","24.1","","99.46","","","","","","Rain"
"1996-05-12 00:00","1996","05","12","00:00","3.3","","0.4","","81","","32","","22","","24.1","","99.42","","","","","","Rain"
"1996-05-12 01:00","1996","05","12","01:00","1.9","","-0.2","","86","","1","","17","","19.3","","99.29","","","","","","Rain"
"1996-05-12 02:00","1996","05","12","02:00","1.9","","-0.2","","86","","1","","17","","19.3","","99.22","","","","","","Rain"
"1996-05-12 03:00","1996","05","12","03:00","1.6","","-0.5","","86","","2","","19","","16.1","","99.15","","","","","","Rain,Snow"
"1996-05-12 04:00","1996","05","12","04:00","2.3","","0.2","","86","","36","","9","","19.3","","99.12","","","","","","Rain"
"1996-05-12 05:00","1996","05","12","05:00","2.9","","-0.8","","77","","34","","26","","19.3","","99.12","","","","","","Rain"
"1996-05-12 06:00","1996","05","12","06:00","2.9","","-2.5","","68","","34","","22","","4.0","","99.19","","","","","","Snow"
"1996-05-12 07:00","1996","05","12","07:00","1.3","","-2.9","","74","","35","","24","","0.8","","99.19","","","","","","Moderate Snow"
"1996-05-12 08:00","1996","05","12","08:00","1.1","","-2.2","","79","","34","","19","","2.0","","99.19","","","","","","Snow Showers"
"1996-05-12 09:00","1996","05","12","09:00","0.5","","-2.2","","82","","33","","20","","1.0","","99.19","","","","","","Snow Showers"
"1996-05-12 10:00","1996","05","12","10:00","-0.1","","-1.9","","88","","32","","20","","0.8","","99.22","","","","-5","","Moderate Snow Showers"
"1996-05-12 11:00","1996","05","12","11:00","0.8","","-1.4","","85","","34","","24","","2.0","","99.26","","","","","","Snow Showers"
"1996-05-12 12:00","1996","05","12","12:00","2.9","","-0.2","","80","","33","","26","","24.1","","99.26","","","","","","Cloudy"
"1996-05-12 13:00","1996","05","12","13:00","4.7","","1.2","","78","","35","","26","","24.1","","99.26","","","","","","Cloudy"
"1996-05-12 14:00","1996","05","12","14:00","7.0","","-1.3","","55","","33","","22","","40.2","","99.26","","","","","","Cloudy"
"1996-05-12 15:00","1996","05","12","15:00","8.0","","-2.3","","48","","34","","22","","40.2","","99.26","","","","","","Cloudy"
"1996-05-12 16:00","1996","05","12","16:00","9.0","","-3.3","","42","","32","","26","","40.2","","99.29","","","","","","Cloudy"
"1996-05-12 17:00","1996","05","12","17:00","8.6","","-3.9","","41","","33","","20","","40.2","","99.36","","","","","","Cloudy"
"1996-05-12 18:00","1996","05","12","18:00","8.4","","-5.1","","38","","33","","20","","40.2","","99.42","","","","","","Cloudy"
"1996-05-12 19:00","1996","05","12","19:00","8.0","","-5.6","","38","","33","","20","","40.2","","99.46","","","","","","Cloudy"
"1996-05-12 20:00","1996","05","12","20:00","7.3","","-5.5","","40","","32","","19","","25.0","","99.56","","","","","","Cloudy"
"1996-05-12 21:00","1996","05","12","21:00","6.7","","-6.2","","39","","32","","13","","25.0","","99.59","","","","","","Mostly Cloudy"
"1996-05-12 22:00","1996","05","12","22:00","5.8","","-6.5","","41","","31","","11","","25.0","","99.62","","","","","","Mostly Cloudy"
"1996-05-12 23:00","1996","05","12","23:00","5.0","","-5.7","","46","","29","","9","","25.0","","99.66","","","","","","Mostly Cloudy"
"1996-05-13 00:00","1996","05","13","00:00","4.6","","-5.6","","47","","29","","13","","25.0","","99.69","","","","","","Mostly Cloudy"
"1996-05-13 01:00","1996","05","13","01:00","4.2","","-6.7","","45","","30","","17","","25.0","","99.72","","","","","","Mostly Cloudy"
"1996-05-13 02:00","1996","05","13","02:00","3.8","","-7.1","","45","","31","","15","","25.0","","99.72","","","","","","Mainly Clear"
"1996-05-13 03:00","1996","05","13","03:00","3.4","","-7.0","","46","","29","","17","","25.0","","99.79","","","","","","Mainly Clear"
"1996-05-13 04:00","1996","05","13","04:00","2.8","","-6.3","","51","","27","","9","","25.0","","99.82","","","","","","Mainly Clear"
"1996-05-13 05:00","1996","05","13","05:00","1.7","","-6.5","","54","","28","","15","","32.2","","99.93","","","","","","Mainly Clear"
"1996-05-13 06:00","1996","05","13","06:00","2.3","","-5.9","","55","","28","","13","","32.2","","99.99","","","","","","Mostly Cloudy"
"1996-05-13 07:00","1996","05","13","07:00","3.5","","-5.5","","52","","29","","22","","40.2","","100.09","","","","","","Mostly Cloudy"
"1996-05-13 08:00","1996","05","13","08:00","4.7","","-5.7","","47","","29","","19","","40.2","","100.13","","","","","","Mostly Cloudy"
"1996-05-13 09:00","1996","05","13","09:00","6.0","","-5.6","","43","","28","","20","","40.2","","100.16","","","","","","Mostly Cloudy"
"1996-05-13 10:00","1996","05","13","10:00","6.8","","-6.3","","39","","31","","24","","40.2","","100.19","","","","","","Mostly Cloudy"
"1996-05-13 11:00","1996","05","13","11:00","8.1","","-5.4","","38","","29","","26","","40.2","","100.19","","","","","","Mostly Cloudy"
"1996-05-13 12:00","1996","05","13","12:00","8.6","","-5.8","","36","","29","","24","","40.2","","100.19","","","","","","Cloudy"
"1996-05-13 13:00","1996","05","13","13:00","8.7","","-6.4","","34","","29","","24","","40.2","","100.23","","","","","","Cloudy"
"1996-05-13 14:00","1996","05","13","14:00","9.6","","-6.6","","31","","29","","20","","40.2","","100.23","","","","","","Mostly Cloudy"
"1996-05-13 15:00","1996","05","13","15:00","10.6","","-5.9","","31","","29","","24","","40.2","","100.23","","","","","","Mostly Cloudy"
"1996-05-13 16:00","1996","05","13","16:00","10.4","","-6.9","","29","","29","","24","","32.2","","100.23","","","","","","Mostly Cloudy"
"1996-05-13 17:00","1996","05","13","17:00","10.1","","-7.4","","28","","29","","22","","40.2","","100.23","","","","","","Mostly Cloudy"
"1996-05-13 18:00","1996","05","13","18:00","10.2","","-7.2","","29","","27","","17","","40.2","","100.29","","","","","","Mostly Cloudy"
"1996-05-13 19:00","1996","05","13","19:00","9.5","","-7.1","","30","","28","","9","","40.2","","100.33","","","","","","Mostly Cloudy"
"1996-05-13 20:00","1996","05","13","20:00","7.6","","-6.2","","37","","25","","6","","25.0","","100.39","","","","","","Mostly Cloudy"
"1996-05-13 21:00","1996","05","13","21:00","6.7","","-5.4","","42","","22","","4","","25.0","","100.43","","","","","","Mainly Clear"
"1996-05-13 22:00","1996","05","13","22:00","5.9","","-5.0","","45","","22","","6","","25.0","","100.49","","","","","","Mainly Clear"
"1996-05-13 23:00","1996","05","13","23:00","5.6","","-4.6","","48","","22","","6","","25.0","","100.53","","","","","","Mainly Clear"
"1996-05-14 00:00","1996","05","14","00:00","4.6","","-4.1","","53","","26","","7","","25.0","","100.53","","","","","","Mainly Clear"
"1996-05-14 01:00","1996","05","14","01:00","5.3","","-4.2","","50","","27","","11","","25.0","","100.60","","","","","","Mainly Clear"
"1996-05-14 02:00","1996","05","14","02:00","3.7","","-3.8","","58","","24","","4","","25.0","","100.63","","","","","","Mainly Clear"
"1996-05-14 03:00","1996","05","14","03:00","3.5","","-4.1","","57","","23","","4","","25.0","","100.70","","","","","","Mainly Clear"
"1996-05-14 04:00","1996","05","14","04:00","3.4","","-4.0","","58","","20","","6","","25.0","","100.73","","","","","","Mostly Cloudy"
"1996-05-14 05:00","1996","05","14","05:00","3.8","","-3.2","","60","","18","","6","","32.2","","100.80","","","","","","Mostly Cloudy"
"1996-05-14 06:00","1996","05","14","06:00","5.0","","-2.0","","61","","21","","6","","32.2","","100.80","","","","","","Mostly Cloudy"
"1996-05-14 07:00","1996","05","14","07:00","7.5","","-1.9","","51","","20","","13","","32.2","","100.86","","","","","","Mostly Cloudy"
"1996-05-14 08:00","1996","05","14","08:00","8.3","","-1.8","","49","","22","","11","","32.2","","100.90","","","","","","Mostly Cloudy"
"1996-05-14 09:00","1996","05","14","09:00","9.7","","-0.4","","49","","24","","17","","32.2","","100.93","","","","","","Mainly Clear"
"1996-05-14 10:00","1996","05","14","10:00","11.7","","0.2","","45","","23","","17","","32.2","","100.90","","","","","","Mainly Clear"
"1996-05-14 11:00","1996","05","14","11:00","12.8","","0.0","","41","","23","","20","","32.2","","100.90","","","","","","Mostly Cloudy"
"1996-05-14 12:00","1996","05","14","12:00","10.6","","1.9","","55","","26","","20","","32.2","","100.86","","","","","","Rain Showers"
"1996-05-14 13:00","1996","05","14","13:00","13.2","","1.9","","46","","22","","19","","32.2","","100.83","","","","","","Mostly Cloudy"
"1996-05-14 14:00","1996","05","14","14:00","14.7","","0.0","","37","","24","","26","","32.2","","100.73","","","","","","Mostly Cloudy"
"1996-05-14 15:00","1996","05","14","15:00","15.0","","0.0","","36","","22","","24","","32.2","","100.66","","","","","","Mostly Cloudy"
"1996-05-14 16:00","1996","05","14","16:00","13.4","","0.4","","41","","23","","19","","32.2","","100.66","","","","","","Mainly Clear"
"1996-05-14 17:00","1996","05","14","17:00","15.3","","0.1","","35","","24","","19","","24.1","","100.63","","","","","","Mainly Clear"
"1996-05-14 18:00","1996","05","14","18:00","14.8","","-1.3","","33","","22","","17","","24.1","","100.63","","","","","","Mostly Cloudy"
"1996-05-14 19:00","1996","05","14","19:00","12.3","","1.3","","47","","27","","17","","24.1","","100.73","","","","","","Mostly Cloudy"
"1996-05-14 20:00","1996","05","14","20:00","12.0","","0.8","","46","","23","","6","","24.1","","100.73","","","","","","Mostly Cloudy"
"1996-05-14 21:00","1996","05","14","21:00","12.4","","0.1","","43","","22","","13","","24.1","","100.83","","","","","","Cloudy"
"1996-05-14 22:00","1996","05","14","22:00","11.7","","0.2","","45","","23","","6","","25.0","","100.93","","","","","","Mostly Cloudy"
"1996-05-14 23:00","1996","05","14","23:00","11.6","","-0.3","","44","","25","","6","","25.0","","100.96","","","","","","Mostly Cloudy"
"1996-05-15 00:00","1996","05","15","00:00","10.0","","-0.3","","49","","23","","6","","25.0","","100.96","","","","","","Mainly Clear"
"1996-05-15 01:00","1996","05","15","01:00","8.5","","-0.1","","55","","20","","6","","25.0","","101.00","","","","","","Clear"
"1996-05-15 02:00","1996","05","15","02:00","6.4","","0.0","","64","","21","","6","","25.0","","101.03","","","","","","Clear"
"1996-05-15 03:00","1996","05","15","03:00","5.9","","-0.3","","64","","21","","6","","25.0","","101.06","","","","","","Clear"
"1996-05-15 04:00","1996","05","15","04:00","6.1","","-0.4","","63","","19","","7","","32.2","","101.10","","","","","","Clear"
"1996-05-15 05:00","1996","05","15","05:00","5.3","","-0.5","","66","","20","","6","","32.2","","101.13","","","","","","Mainly Clear"
"1996-05-15 06:00","1996","05","15","06:00","6.1","","0.3","","66","","19","","6","","32.2","","101.23","","","","","","Mainly Clear"
"1996-05-15 07:00","1996","05","15","07:00","8.9","","2.0","","62","","20","","6","","24.1","","101.30","","","","","","Mainly Clear"
"1996-05-15 08:00","1996","05","15","08:00","11.7","","2.0","","51","","21","","2","","24.1","","101.33","","","","","","Mainly Clear"
"1996-05-15 09:00","1996","05","15","09:00","14.0","","1.0","","41","","","","0","","24.1","","101.33","","","","","","Mainly Clear"
"1996-05-15 10:00","1996","05","15","10:00","15.2","","1.7","","40","","18","","4","","24.1","","101.27","","","","","","Mainly Clear"
"1996-05-15 11:00","1996","05","15","11:00","16.5","","1.5","","36","","16","","7","","24.1","","101.23","","","","","","Mostly Cloudy"
"1996-05-15 12:00","1996","05","15","12:00","17.2","","1.0","","33","","22","","9","","24.1","","101.16","","","","","","Mainly Clear"
"1996-05-15 13:00","1996","05","15","13:00","17.8","","0.9","","32","","20","","15","","32.2","","101.10","","","","","","Mainly Clear"
"1996-05-15 14:00","1996","05","15","14:00","18.2","","-0.4","","28","","23","","7","","32.2","","101.06","","","","","","Mostly Cloudy"
"1996-05-15 15:00","1996","05","15","15:00","18.4","","0.3","","30","","21","","11","","24.1","","101.03","","","","","","Cloudy"
"1996-05-15 16:00","1996","05","15","16:00","18.8","","-2.1","","24","","18","","13","","24.1","","100.96","","","","","","Cloudy"
"1996-05-15 17:00","1996","05","15","17:00","18.7","","-4.1","","21","","17","","7","","24.1","","100.93","","","","","","Mostly Cloudy"
"1996-05-15 18:00","1996","05","15","18:00","18.1","","-3.0","","24","","21","","4","","32.2","","100.90","","","","","","Mostly Cloudy"
"1996-05-15 19:00","1996","05","15","19:00","17.1","","-4.4","","23","","","","0","","32.2","","100.86","","","","","","Mostly Cloudy"
"1996-05-15 20:00","1996","05","15","20:00","15.7","","-4.2","","25","","11","","4","","32.2","","100.86","","","","","","Mostly Cloudy"
"1996-05-15 21:00","1996","05","15","21:00","14.8","","-4.3","","26","","10","","7","","24.1","","100.86","","","","","","Mostly Cloudy"
"1996-05-15 22:00","1996","05","15","22:00","13.8","","-2.4","","32","","11","","13","","24.1","","100.83","","","","","","Mainly Clear"
"1996-05-15 23:00","1996","05","15","23:00","12.9","","-0.4","","40","","10","","11","","24.1","","100.83","","","","","","Mainly Clear"
"1996-05-16 00:00","1996","05","16","00:00","11.6","","0.2","","45","","11","","11","","24.1","","100.80","","","","","","Mainly Clear"
"1996-05-16 01:00","1996","05","16","01:00","10.6","","0.4","","49","","16","","9","","24.1","","100.83","","","","","","Mainly Clear"
"1996-05-16 02:00","1996","05","16","02:00","9.7","","0.6","","53","","15","","6","","24.1","","100.83","","","","","","Mostly Cloudy"
"1996-05-16 03:00","1996","05","16","03:00","9.7","","0.4","","52","","17","","4","","24.1","","100.83","","","","","","Mostly Cloudy"
"1996-05-16 04:00","1996","05","16","04:00","9.8","","0.1","","51","","17","","7","","24.1","","100.80","","","","","","Mostly Cloudy"
"1996-05-16 05:00","1996","05","16","05:00","9.8","","-0.2","","50","","15","","7","","24.1","","100.80","","","","","","Cloudy"
"1996-05-16 06:00","1996","05","16","06:00","9.6","","0.7","","54","","15","","6","","24.1","","100.86","","","","","","Cloudy"
"1996-05-16 07:00","1996","05","16","07:00","10.5","","1.5","","54","","13","","7","","24.1","","100.83","","","","","","Cloudy"
"1996-05-16 08:00","1996","05","16","08:00","12.3","","2.2","","50","","15","","4","","24.1","","100.83","","","","","","Cloudy"
"1996-05-16 09:00","1996","05","16","09:00","12.7","","1.6","","47","","16","","9","","24.1","","100.80","","","","","","Cloudy"
"1996-05-16 10:00","1996","05","16","10:00","12.8","","1.2","","45","","15","","15","","24.1","","100.76","","","","","","Cloudy"
"1996-05-16 11:00","1996","05","16","11:00","12.8","","2.4","","49","","19","","9","","32.2","","100.73","","","","","","Cloudy"
"1996-05-16 12:00","1996","05","16","12:00","12.7","","2.9","","51","","18","","11","","32.2","","100.66","","","","","","Cloudy"
"1996-05-16 13:00","1996","05","16","13:00","12.8","","3.5","","53","","17","","13","","32.2","","100.60","","","","","","Cloudy"
"1996-05-16 14:00","1996","05","16","14:00","12.7","","4.0","","55","","17","","11","","40.2","","100.53","","","","","","Cloudy"
"1996-05-16 15:00","1996","05","16","15:00","13.2","","4.8","","57","","17","","4","","32.2","","100.49","","","","","","Cloudy"
"1996-05-16 16:00","1996","05","16","16:00","13.0","","5.5","","60","","","","0","","32.2","","100.43","","","","","","Cloudy"
"1996-05-16 17:00","1996","05","16","17:00","12.7","","5.7","","62","","17","","4","","24.1","","100.43","","","","","","Cloudy"
"1996-05-16 18:00","1996","05","16","18:00","12.4","","5.8","","64","","","","0","","24.1","","100.39","","","","","","Cloudy"
"1996-05-16 19:00","1996","05","16","19:00","11.9","","5.9","","67","","22","","4","","24.1","","100.39","","","","","","Cloudy"
"1996-05-16 20:00","1996","05","16","20:00","11.3","","5.9","","69","","","","0","","24.1","","100.39","","","","","","Cloudy"
"1996-05-16 21:00","1996","05","16","21:00","10.6","","6.2","","74","","","","0","","24.1","","100.39","","","","","","Mostly Cloudy"
"1996-05-16 22:00","1996","05","16","22:00","10.0","","6.0","","76","","","","0","","24.1","","100.33","","","","","","Mostly Cloudy"
"1996-05-16 23:00","1996","05","16","23:00","9.1","","5.8","","80","","","","0","","24.1","","100.33","","","","","","Mostly Cloudy"
"1996-05-17 00:00","1996","05","17","00:00","8.6","","5.8","","83","","","","0","","24.1","","100.33","","","","","","Mainly Clear"
"1996-05-17 01:00","1996","05","17","01:00","8.0","","5.7","","85","","","","0","","19.3","","100.29","","","","","","Clear"
"1996-05-17 02:00","1996","05","17","02:00","7.0","","5.0","","87","","23","","4","","16.1","","100.23","","","","","","Clear"
"1996-05-17 03:00","1996","05","17","03:00","6.9","","5.3","","90","","22","","4","","16.1","","100.23","","","","","","Mainly Clear"
"1996-05-17 04:00","1996","05","17","04:00","6.6","","5.2","","91","","","","0","","8.0","","100.26","","","","","","Fog"
"1996-05-17 05:00","1996","05","17","05:00","6.7","","5.4","","91","","","","0","","2.8","","100.29","","","","","","Fog"
"1996-05-17 06:00","1996","05","17","06:00","7.0","","5.7","","91","","","","0","","3.2","","100.33","","","","","","Fog"
"1996-05-17 07:00","1996","05","17","07:00","9.5","","7.6","","88","","20","","2","","8.0","","100.29","","","","","","Fog"
"1996-05-17 08:00","1996","05","17","08:00","11.9","","8.3","","79","","","","0","","12.9","","100.33","","","","","","Mainly Clear"
"1996-05-17 09:00","1996","05","17","09:00","13.8","","8.7","","71","","","","0","","16.1","","100.33","","","","","","Mainly Clear"
"1996-05-17 10:00","1996","05","17","10:00","14.5","","8.1","","65","","","","0","","19.3","","100.33","","","","","","Mostly Cloudy"
"1996-05-17 11:00","1996","05","17","11:00","16.5","","8.3","","58","","","","0","","19.3","","100.29","","","","","","Mainly Clear"
"1996-05-17 12:00","1996","05","17","12:00","17.5","","8.1","","54","","16","","4","","24.1","","100.23","","","","","","Mainly Clear"
"1996-05-17 13:00","1996","05","17","13:00","19.0","","8.4","","50","","34","","6","","24.1","","100.16","","","","","","Mostly Cloudy"
"1996-05-17 14:00","1996","05","17","14:00","19.4","","8.1","","48","","","","0","","24.1","","100.13","","","","","","Cloudy"
"1996-05-17 15:00","1996","05","17","15:00","20.2","","7.6","","44","","16","","4","","24.1","","100.09","","","","","","Cloudy"
"1996-05-17 16:00","1996","05","17","16:00","20.8","","7.2","","41","","","","0","","24.1","","100.06","","","","","","Cloudy"
"1996-05-17 17:00","1996","05","17","17:00","20.3","","7.1","","42","","","","0","","24.1","","100.09","","","","","","Cloudy"
"1996-05-17 18:00","1996","05","17","18:00","19.8","","7.1","","44","","","","0","","24.1","","100.09","","","","","","Cloudy"
"1996-05-17 19:00","1996","05","17","19:00","18.9","","7.7","","48","","15","","6","","32.2","","100.09","","","","","","Cloudy"
"1996-05-17 20:00","1996","05","17","20:00","18.0","","8.2","","53","","","","0","","24.1","","100.13","","","","","","Rain Showers"
"1996-05-17 21:00","1996","05","17","21:00","17.7","","7.8","","52","","","","0","","24.1","","100.16","","","","","","Cloudy"
"1996-05-17 22:00","1996","05","17","22:00","16.2","","10.1","","67","","8","","4","","24.1","","100.23","","","","","","Cloudy"
"1996-05-17 23:00","1996","05","17","23:00","16.3","","8.5","","60","","8","","6","","24.1","","100.13","","","","","","Cloudy"
"1996-05-18 00:00","1996","05","18","00:00","15.1","","9.4","","69","","5","","6","","24.1","","100.19","","","","","","Cloudy"
"1996-05-18 01:00","1996","05","18","01:00","14.3","","9.9","","75","","8","","4","","19.3","","100.19","","","","","","Rain Showers"
"1996-05-18 02:00","1996","05","18","02:00","12.9","","10.6","","86","","8","","7","","19.3","","100.09","","","","","","Rain Showers"
"1996-05-18 03:00","1996","05","18","03:00","13.3","","10.4","","83","","16","","4","","24.1","","100.09","","","","","","Cloudy"
"1996-05-18 04:00","1996","05","18","04:00","12.9","","10.5","","85","","","","0","","24.1","","100.06","","","","","","Mostly Cloudy"
"1996-05-18 05:00","1996","05","18","05:00","12.4","","10.6","","89","","6","","6","","19.3","","100.09","","","","","","Mostly Cloudy"
"1996-05-18 06:00","1996","05","18","06:00","12.9","","10.7","","86","","7","","13","","19.3","","100.06","","","","","","Cloudy"
"1996-05-18 07:00","1996","05","18","07:00","13.6","","10.9","","84","","7","","9","","19.3","","100.03","","","","","","Cloudy"
"1996-05-18 08:00","1996","05","18","08:00","14.6","","11.1","","80","","10","","6","","19.3","","100.06","","","","","","Cloudy"
"1996-05-18 09:00","1996","05","18","09:00","15.4","","11.1","","76","","9","","13","","24.1","","99.93","","","","","","Cloudy"
"1996-05-18 10:00","1996","05","18","10:00","16.1","","11.0","","72","","10","","13","","24.1","","99.93","","","","","","Cloudy"
"1996-05-18 11:00","1996","05","18","11:00","18.7","","11.7","","64","","12","","17","","24.1","","99.82","","","","","","Cloudy"
"1996-05-18 12:00","1996","05","18","12:00","19.9","","11.8","","60","","14","","15","","32.2","","99.82","","","","","","Cloudy"
"1996-05-18 13:00","1996","05","18","13:00","21.4","","12.1","","55","","14","","17","","40.2","","99.66","","","","","","Mostly Cloudy"
"1996-05-18 14:00","1996","05","18","14:00","22.1","","12.7","","55","","12","","20","","40.2","","99.52","","25","","","","Cloudy"
"1996-05-18 15:00","1996","05","18","15:00","22.1","","13.4","","58","","14","","15","","40.2","","99.49","","25","","","","Cloudy"
"1996-05-18 16:00","1996","05","18","16:00","21.9","","14.7","","64","","19","","15","","40.2","","99.42","","26","","","","Cloudy"
"1996-05-18 17:00","1996","05","18","17:00","21.4","","14.9","","66","","17","","9","","24.1","","99.26","","25","","","","Rain Showers"
"1996-05-18 18:00","1996","05","18","18:00","19.7","","16.5","","82","","29","","7","","16.1","","99.49","","","","","","Thunderstorms,Rain Showers"
"1996-05-18 19:00","1996","05","18","19:00","17.9","","16.6","","92","","","","0","","16.1","","99.22","","","","","","Thunderstorms"
"1996-05-18 20:00","1996","05","18","20:00","17.8","","16.6","","93","","","","0","","6.4","","99.19","","","","","","Fog"
"1996-05-18 21:00","1996","05","18","21:00","17.3","","16.3","","94","","","","0","","8.0","","99.26","","","","","","Fog"
"1996-05-18 22:00","1996","05","18","22:00","17.5","","16.5","","94","","","","0","","8.0","","99.26","","","","","","Fog"
"1996-05-18 23:00","1996","05","18","23:00","17.6","","16.5","","93","","","","0","","6.4","","99.26","","","","","","Fog"
"1996-05-19 00:00","1996","05","19","00:00","17.0","","16.4","","96","","22","","6","","2.4","","99.29","","","","","","Fog"
"1996-05-19 01:00","1996","05","19","01:00","16.3","","15.7","","96","","23","","6","","1.6","","99.29","","","","","","Fog"
"1996-05-19 02:00","1996","05","19","02:00","15.7","","15.0","","96","","24","","11","","4.0","","99.29","","","","","","Fog"
"1996-05-19 03:00","1996","05","19","03:00","15.4","","14.8","","96","","24","","7","","2.4","","99.29","","","","","","Fog"
"1996-05-19 04:00","1996","05","19","04:00","14.9","","14.1","","95","","","","0","","1.6","","99.29","","","","","","Fog"
"1996-05-19 05:00","1996","05","19","05:00","14.5","","14.1","","97","","","","0","","0.0","","99.29","","","","","","Fog"
"1996-05-19 06:00","1996","05","19","06:00","14.8","","14.3","","97","","","","0","","0.0","","99.36","","","","","","Fog"
"1996-05-19 07:00","1996","05","19","07:00","16.1","","15.8","","98","","","","0","","2.4","","99.39","","","","","","Fog"
"1996-05-19 08:00","1996","05","19","08:00","18.6","","17.2","","92","","21","","11","","9.7","","99.39","","","","","","Fog"
"1996-05-19 09:00","1996","05","19","09:00","21.9","","17.5","","76","","20","","13","","24.1","","99.29","","28","","","","Mostly Cloudy"
"1996-05-19 10:00","1996","05","19","10:00","23.3","","17.7","","71","","21","","13","","19.3","","99.32","","29","","","","Mostly Cloudy"
"1996-05-19 11:00","1996","05","19","11:00","25.1","","17.1","","61","","20","","19","","32.2","","99.15","","30","","","","Mostly Cloudy"
"1996-05-19 12:00","1996","05","19","12:00","26.4","","17.7","","59","","19","","15","","40.2","","98.95","","32","","","","Cloudy"
"1996-05-19 13:00","1996","05","19","13:00","25.9","","17.5","","60","","18","","13","","40.2","","98.92","","32","","","","Cloudy"
"1996-05-19 14:00","1996","05","19","14:00","25.9","","17.1","","58","","19","","19","","40.2","","98.89","","31","","","","Cloudy"
"1996-05-19 15:00","1996","05","19","15:00","25.7","","17.5","","61","","19","","22","","40.2","","98.75","","31","","","","Mostly Cloudy"
"1996-05-19 16:00","1996","05","19","16:00","26.1","","19.6","","67","","20","","22","","24.1","","98.69","","33","","","","Cloudy"
"1996-05-19 17:00","1996","05","19","17:00","25.9","","19.8","","69","","20","","17","","32.2","","98.59","","33","","","","Mostly Cloudy"
"1996-05-19 18:00","1996","05","19","18:00","26.9","","17.3","","56","","23","","22","","24.1","","98.52","","32","","","","Mainly Clear"
"1996-05-19 19:00","1996","05","19","19:00","25.5","","16.8","","59","","22","","24","","32.2","","98.49","","31","","","","Mainly Clear"
"1996-05-19 20:00","1996","05","19","20:00","24.4","","16.7","","62","","23","","17","","25.0","","98.49","","29","","","","Mostly Cloudy"
"1996-05-19 21:00","1996","05","19","21:00","24.1","","16.7","","63","","23","","13","","25.0","","98.55","","29","","","","Mostly Cloudy"
"1996-05-19 22:00","1996","05","19","22:00","23.8","","16.9","","65","","22","","9","","25.0","","98.52","","29","","","","Cloudy"
"1996-05-19 23:00","1996","05","19","23:00","23.2","","17.1","","69","","22","","11","","25.0","","98.38","","29","","","","Cloudy"
"1996-05-20 00:00","1996","05","20","00:00","22.9","","17.2","","70","","21","","9","","25.0","","98.35","","28","","","","Cloudy"
"1996-05-20 01:00","1996","05","20","01:00","22.1","","18.0","","78","","24","","32","","6.4","","98.35","","28","","","","Thunderstorms,Heavy Rain Showers"
"1996-05-20 02:00","1996","05","20","02:00","19.8","","17.8","","88","","24","","26","","12.9","","98.18","","","","","","Moderate Rain Showers"
"1996-05-20 03:00","1996","05","20","03:00","19.4","","16.5","","83","","25","","32","","25.0","","98.35","","","","","","Mostly Cloudy"
"1996-05-20 04:00","1996","05","20","04:00","19.0","","16.2","","84","","29","","11","","25.0","","98.42","","","","","","Mostly Cloudy"
"1996-05-20 05:00","1996","05","20","05:00","18.2","","16.1","","88","","25","","6","","32.2","","98.49","","","","","","Mostly Cloudy"
"1996-05-20 06:00","1996","05","20","06:00","18.3","","16.6","","90","","24","","7","","32.2","","98.55","","","","","","Cloudy"
"1996-05-20 07:00","1996","05","20","07:00","18.5","","16.5","","88","","25","","9","","32.2","","98.55","","","","","","Cloudy"
"1996-05-20 08:00","1996","05","20","08:00","20.1","","17.1","","83","","28","","11","","32.2","","98.59","","25","","","","Cloudy"
"1996-05-20 09:00","1996","05","20","09:00","20.2","","17.3","","83","","28","","15","","32.2","","98.65","","26","","","","Cloudy"
"1996-05-20 10:00","1996","05","20","10:00","21.2","","17.6","","80","","27","","17","","32.2","","98.65","","27","","","","Cloudy"
"1996-05-20 11:00","1996","05","20","11:00","21.3","","18.2","","82","","21","","9","","32.2","","98.69","","27","","","","Mostly Cloudy"
"1996-05-20 12:00","1996","05","20","12:00","22.9","","18.7","","77","","24","","11","","32.2","","98.65","","29","","","","Cloudy"
"1996-05-20 13:00","1996","05","20","13:00","23.1","","18.6","","76","","23","","15","","32.2","","98.65","","30","","","","Cloudy"
"1996-05-20 14:00","1996","05","20","14:00","25.4","","19.3","","69","","28","","19","","24.1","","98.59","","32","","","","Mostly Cloudy"
"1996-05-20 15:00","1996","05","20","15:00","24.8","","18.7","","69","","29","","17","","24.1","","98.55","","31","","","","Rain Showers"
"1996-05-20 16:00","1996","05","20","16:00","23.6","","19.2","","76","","24","","9","","19.3","","98.55","","31","","","","Cloudy"
"1996-05-20 17:00","1996","05","20","17:00","25.2","","17.8","","64","","27","","15","","24.1","","98.49","","31","","","","Cloudy"
"1996-05-20 18:00","1996","05","20","18:00","23.3","","17.8","","71","","26","","11","","32.2","","98.49","","29","","","","Cloudy"
"1996-05-20 19:00","1996","05","20","19:00","22.2","","17.8","","76","","23","","7","","32.2","","98.49","","28","","","","Cloudy"
"1996-05-20 20:00","1996","05","20","20:00","21.2","","17.8","","81","","22","","9","","24.1","","98.55","","27","","","","Cloudy"
"1996-05-20 21:00","1996","05","20","21:00","20.7","","16.7","","78","","23","","11","","24.1","","98.59","","26","","","","Cloudy"
"1996-05-20 22:00","1996","05","20","22:00","20.5","","17.5","","83","","24","","7","","24.1","","98.52","","26","","","","Rain Showers"
"1996-05-20 23:00","1996","05","20","23:00","19.2","","17.3","","89","","24","","6","","19.3","","98.52","","","","","","Rain Showers"
"1996-05-21 00:00","1996","05","21","00:00","18.6","","14.5","","77","","24","","13","","24.1","","98.55","","","","","","Rain Showers"
"1996-05-21 01:00","1996","05","21","01:00","17.9","","14.0","","78","","24","","13","","24.1","","98.52","","","","","","Cloudy"
"1996-05-21 02:00","1996","05","21","02:00","17.1","","15.0","","87","","25","","9","","24.1","","98.49","","","","","","Rain Showers"
"1996-05-21 03:00","1996","05","21","03:00","16.5","","14.9","","90","","24","","13","","24.1","","98.42","","","","","","Cloudy"
"1996-05-21 04:00","1996","05","21","04:00","15.7","","14.1","","90","","23","","9","","24.1","","98.45","","","","","","Cloudy"
"1996-05-21 05:00","1996","05","21","05:00","15.7","","14.4","","92","","25","","13","","32.2","","98.49","","","","","","Cloudy"
"1996-05-21 06:00","1996","05","21","06:00","16.3","","14.1","","87","","27","","15","","32.2","","98.49","","","","","","Cloudy"
"1996-05-21 07:00","1996","05","21","07:00","17.1","","12.1","","72","","28","","13","","32.2","","98.52","","","","","","Mostly Cloudy"
"1996-05-21 08:00","1996","05","21","08:00","17.5","","10.4","","63","","28","","19","","32.2","","98.55","","","","","","Mostly Cloudy"
"1996-05-21 09:00","1996","05","21","09:00","18.8","","11.0","","60","","28","","17","","40.2","","98.55","","","","","","Mainly Clear"
"1996-05-21 10:00","1996","05","21","10:00","19.3","","11.4","","60","","29","","19","","40.2","","98.55","","","","","","Mainly Clear"
"1996-05-21 11:00","1996","05","21","11:00","21.4","","11.0","","51","","28","","20","","40.2","","98.59","","","","","","Mainly Clear"
"1996-05-21 12:00","1996","05","21","12:00","22.0","","9.8","","46","","29","","32","","40.2","","98.59","","","","","","Mainly Clear"
"1996-05-21 13:00","1996","05","21","13:00","22.2","","6.3","","36","","30","","28","","40.2","","98.62","","","","","","Mainly Clear"
"1996-05-21 14:00","1996","05","21","14:00","22.8","","8.6","","40","","29","","28","","40.2","","98.62","","","","","","Mainly Clear"
"1996-05-21 15:00","1996","05","21","15:00","22.4","","9.3","","43","","30","","24","","40.2","","98.62","","","","","","Mainly Clear"
"1996-05-21 16:00","1996","05","21","16:00","22.9","","7.1","","36","","29","","28","","40.2","","98.69","","","","","","Clear"
"1996-05-21 17:00","1996","05","21","17:00","22.7","","6.7","","36","","30","","22","","40.2","","98.69","","","","","","Clear"
"1996-05-21 18:00","1996","05","21","18:00","22.4","","6.1","","35","","30","","19","","40.2","","98.72","","","","","","Clear"
"1996-05-21 19:00","1996","05","21","19:00","21.7","","6.4","","37","","28","","7","","40.2","","98.75","","","","","","Clear"
"1996-05-21 20:00","1996","05","21","20:00","19.8","","6.3","","41","","27","","4","","40.2","","98.75","","","","","","Clear"
"1996-05-21 21:00","1996","05","21","21:00","18.3","","7.6","","50","","25","","6","","25.0","","98.79","","","","","","Clear"
"1996-05-21 22:00","1996","05","21","22:00","16.5","","8.6","","60","","27","","9","","25.0","","98.85","","","","","","Mostly Cloudy"
"1996-05-21 23:00","1996","05","21","23:00","17.9","","7.0","","49","","29","","17","","25.0","","98.89","","","","","","Mostly Cloudy"
"1996-05-22 00:00","1996","05","22","00:00","16.7","","7.1","","53","","32","","11","","25.0","","98.95","","","","","","Mainly Clear"
"1996-05-22 01:00","1996","05","22","01:00","14.8","","7.1","","60","","27","","6","","25.0","","98.95","","","","","","Mostly Cloudy"
"1996-05-22 02:00","1996","05","22","02:00","14.4","","7.7","","64","","26","","4","","25.0","","98.95","","","","","","Mostly Cloudy"
"1996-05-22 03:00","1996","05","22","03:00","12.1","","7.5","","73","","26","","7","","25.0","","99.02","","","","","","Mostly Cloudy"
"1996-05-22 04:00","1996","05","22","04:00","12.6","","7.6","","72","","26","","4","","40.2","","99.09","","","","","","Mostly Cloudy"
"1996-05-22 05:00","1996","05","22","05:00","11.8","","7.2","","73","","24","","7","","40.2","","99.09","","","","","","Mostly Cloudy"
"1996-05-22 06:00","1996","05","22","06:00","12.1","","7.7","","74","","25","","7","","32.2","","99.12","","","","","","Mainly Clear"
"1996-05-22 07:00","1996","05","22","07:00","14.1","","8.4","","69","","26","","9","","32.2","","99.15","","","","","","Mainly Clear"
"1996-05-22 08:00","1996","05","22","08:00","16.5","","8.0","","57","","28","","17","","32.2","","99.15","","","","","","Mainly Clear"
"1996-05-22 09:00","1996","05","22","09:00","18.1","","4.7","","41","","28","","24","","32.2","","99.12","","","","","","Mainly Clear"
"1996-05-22 10:00","1996","05","22","10:00","17.7","","7.0","","49","","30","","26","","32.2","","99.15","","","","","","Mainly Clear"
"1996-05-22 11:00","1996","05","22","11:00","18.2","","7.8","","51","","31","","24","","32.2","","99.19","","","","","","Mainly Clear"
"1996-05-22 12:00","1996","05","22","12:00","18.1","","5.7","","44","","30","","30","","32.2","","99.19","","","","","","Mostly Cloudy"
"1996-05-22 13:00","1996","05","22","13:00","19.4","","7.1","","45","","29","","28","","32.2","","99.22","","","","","","Mainly Clear"
"1996-05-22 14:00","1996","05","22","14:00","19.1","","6.0","","42","","31","","30","","32.2","","99.26","","","","","","Mainly Clear"
"1996-05-22 15:00","1996","05","22","15:00","19.0","","5.5","","41","","31","","28","","32.2","","99.29","","","","","","Mostly Cloudy"
"1996-05-22 16:00","1996","05","22","16:00","19.2","","5.3","","40","","31","","28","","32.2","","99.36","","","","","","Mostly Cloudy"
"1996-05-22 17:00","1996","05","22","17:00","18.5","","5.1","","41","","30","","24","","32.2","","99.36","","","","","","Mostly Cloudy"
"1996-05-22 18:00","1996","05","22","18:00","17.8","","5.3","","44","","32","","19","","32.2","","99.39","","","","","","Mostly Cloudy"
"1996-05-22 19:00","1996","05","22","19:00","17.0","","6.4","","50","","34","","15","","32.2","","99.46","","","","","","Mostly Cloudy"
"1996-05-22 20:00","1996","05","22","20:00","16.6","","6.1","","50","","35","","11","","24.1","","99.46","","","","","","Mostly Cloudy"
"1996-05-22 21:00","1996","05","22","21:00","16.0","","6.0","","51","","34","","15","","24.1","","99.56","","","","","","Mostly Cloudy"
"1996-05-22 22:00","1996","05","22","22:00","15.0","","5.6","","53","","32","","11","","24.1","","99.62","","","","","","Mainly Clear"
"1996-05-22 23:00","1996","05","22","23:00","14.4","","6.1","","57","","35","","9","","24.1","","99.62","","","","","","Mostly Cloudy"
"1996-05-23 00:00","1996","05","23","00:00","13.0","","6.4","","64","","31","","7","","24.1","","99.72","","","","","","Mostly Cloudy"
"1996-05-23 01:00","1996","05","23","01:00","12.8","","7.6","","71","","35","","7","","24.1","","99.69","","","","","","Mostly Cloudy"
"1996-05-23 02:00","1996","05","23","02:00"
"1996-05-23 03:00","1996","05","23","03:00","11.6","","6.6","","71","","32","","9","","24.1","","99.69","","","","","","Mostly Cloudy"
"1996-05-23 04:00","1996","05","23","04:00","11.0","","5.9","","71","","","","0","","24.1","","99.76","","","","","","Cloudy"
"1996-05-23 05:00","1996","05","23","05:00","11.3","","6.4","","72","","","","0","","40.2","","99.82","","","","","","Mostly Cloudy"
"1996-05-23 06:00","1996","05","23","06:00","11.4","","6.2","","70","","36","","6","","40.2","","99.93","","","","","","Mostly Cloudy"
"1996-05-23 07:00","1996","05","23","07:00","12.2","","5.7","","64","","1","","11","","40.2","","99.99","","","","","","Mainly Clear"
"1996-05-23 08:00","1996","05","23","08:00"
"1996-05-23 09:00","1996","05","23","09:00","14.0","","6.0","","59","","32","","6","","40.2","","100.03","","","","","","Mainly Clear"
"1996-05-23 10:00","1996","05","23","10:00","15.5","","6.1","","53","","30","","7","","40.2","","99.99","","","","","","Mostly Cloudy"
"1996-05-23 11:00","1996","05","23","11:00","16.5","","6.2","","51","","24","","9","","40.2","","99.99","","","","","","Mainly Clear"
"1996-05-23 12:00","1996","05","23","12:00","16.9","","6.1","","49","","31","","17","","40.2","","99.96","","","","","","Mostly Cloudy"
"1996-05-23 13:00","1996","05","23","13:00","18.3","","7.4","","49","","29","","13","","40.2","","99.93","","","","","","Mostly Cloudy"
"1996-05-23 14:00","1996","05","23","14:00"
"1996-05-23 15:00","1996","05","23","15:00","18.3","","4.7","","41","","30","","15","","40.2","","99.89","","","","","","Cloudy"
"1996-05-23 16:00","1996","05","23","16:00","18.2","","5.3","","43","","29","","13","","40.2","","99.89","","","","","","Cloudy"
"1996-05-23 17:00","1996","05","23","17:00","17.8","","5.2","","43","","31","","15","","40.2","","99.89","","","","","","Cloudy"
"1996-05-23 18:00","1996","05","23","18:00","17.4","","5.3","","45","","31","","15","","40.2","","99.89","","","","","","Cloudy"
"1996-05-23 19:00","1996","05","23","19:00","16.8","","5.8","","48","","29","","13","","40.2","","99.93","","","","","","Cloudy"
"1996-05-23 20:00","1996","05","23","20:00","15.9","","6.1","","52","","36","","22","","25.0","","99.99","","","","","","Cloudy"
"1996-05-23 21:00","1996","05","23","21:00","14.4","","0.2","","38","","2","","28","","25.0","","100.09","","","","","","Cloudy"
"1996-05-23 22:00","1996","05","23","22:00","13.1","","-2.7","","33","","36","","19","","24.1","","100.19","","","","","","Rain"
"1996-05-23 23:00","1996","05","23","23:00","12.3","","-3.8","","32","","36","","19","","25.0","","100.23","","","","","","Cloudy"
"1996-05-24 00:00","1996","05","24","00:00","11.8","","-4.0","","33","","1","","20","","25.0","","100.33","","","","","","Cloudy"
"1996-05-24 01:00","1996","05","24","01:00","10.7","","-5.0","","33","","2","","26","","25.0","","100.43","","","","","","Cloudy"
"1996-05-24 02:00","1996","05","24","02:00","8.7","","-6.6","","33","","3","","30","","25.0","","100.49","","","","","","Clear"
"1996-05-24 03:00","1996","05","24","03:00","7.1","","-6.4","","38","","4","","20","","25.0","","100.63","","","","","","Clear"
"1996-05-24 04:00","1996","05","24","04:00","6.0","","-6.3","","41","","3","","15","","25.0","","100.73","","","","","","Mainly Clear"
"1996-05-24 05:00","1996","05","24","05:00","5.2","","-6.1","","44","","3","","17","","40.2","","100.80","","","","","","Mainly Clear"
"1996-05-24 06:00","1996","05","24","06:00","5.8","","-6.2","","42","","2","","17","","40.2","","100.83","","","","","","Clear"
"1996-05-24 07:00","1996","05","24","07:00","6.5","","-5.8","","41","","1","","17","","40.2","","100.90","","","","","","Clear"
"1996-05-24 08:00","1996","05","24","08:00","7.5","","-5.7","","39","","36","","19","","40.2","","100.93","","","","","","Clear"
"1996-05-24 09:00","1996","05","24","09:00","8.9","","-5.1","","37","","34","","11","","40.2","","100.90","","","","","","Clear"
"1996-05-24 10:00","1996","05","24","10:00","10.4","","-4.5","","35","","34","","15","","40.2","","100.90","","","","","","Clear"
"1996-05-24 11:00","1996","05","24","11:00","10.9","","-2.5","","39","","30","","13","","40.2","","100.86","","","","","","Mainly Clear"
"1996-05-24 12:00","1996","05","24","12:00","12.3","","-2.0","","37","","25","","20","","40.2","","100.80","","","","","","Clear"
"1996-05-24 13:00","1996","05","24","13:00","13.0","","-2.6","","34","","29","","20","","40.2","","100.73","","","","","","Clear"
"1996-05-24 14:00","1996","05","24","14:00","14.4","","-1.4","","34","","27","","19","","40.2","","100.66","","","","","","Clear"
"1996-05-24 15:00","1996","05","24","15:00","15.0","","-1.2","","33","","27","","26","","40.2","","100.66","","","","","","Mainly Clear"
"1996-05-24 16:00","1996","05","24","16:00","15.5","","-1.5","","31","","28","","20","","40.2","","100.60","","","","","","Mainly Clear"
"1996-05-24 17:00","1996","05","24","17:00","15.9","","-2.1","","29","","28","","22","","40.2","","100.60","","","","","","Mainly Clear"
"1996-05-24 18:00","1996","05","24","18:00","15.6","","-2.7","","28","","29","","22","","40.2","","100.56","","","","","","Mainly Clear"
"1996-05-24 19:00","1996","05","24","19:00","14.9","","-3.1","","29","","31","","11","","40.2","","100.63","","","","","","Mainly Clear"
"1996-05-24 20:00","1996","05","24","20:00","13.3","","-3.2","","32","","34","","13","","25.0","","100.66","","","","","","Mainly Clear"
"1996-05-24 21:00","1996","05","24","21:00","12.4","","-3.3","","33","","27","","4","","25.0","","100.70","","","","","","Mainly Clear"
"1996-05-24 22:00","1996","05","24","22:00","11.8","","-3.0","","35","","36","","13","","25.0","","100.73","","","","","","Clear"
"1996-05-24 23:00","1996","05","24","23:00","11.3","","-3.8","","34","","36","","15","","25.0","","100.80","","","","","","Clear"
"1996-05-25 00:00","1996","05","25","00:00","10.4","","-4.0","","36","","36","","17","","25.0","","100.86","","","","","","Clear"
"1996-05-25 01:00","1996","05","25","01:00","9.0","","-3.3","","42","","36","","6","","25.0","","100.93","","","","","","Clear"
"1996-05-25 02:00","1996","05","25","02:00","7.6","","-3.1","","47","","35","","6","","25.0","","100.93","","","","","","Clear"
"1996-05-25 03:00","1996","05","25","03:00","6.6","","-4.3","","46","","","","0","","25.0","","100.96","","","","","","Clear"
"1996-05-25 04:00","1996","05","25","04:00","5.7","","-5.0","","46","","33","","4","","25.0","","100.96","","","","","","Clear"
"1996-05-25 05:00","1996","05","25","05:00","5.3","","-4.4","","50","","30","","6","","40.2","","101.03","","","","","","Clear"
"1996-05-25 06:00","1996","05","25","06:00","6.1","","-3.7","","49","","32","","13","","40.2","","101.06","","","","","","Clear"
"1996-05-25 07:00","1996","05","25","07:00","7.5","","-4.3","","43","","35","","15","","40.2","","101.06","","","","","","Clear"
"1996-05-25 08:00","1996","05","25","08:00","8.4","","-3.3","","43","","29","","15","","40.2","","101.03","","","","","","Mainly Clear"
"1996-05-25 09:00","1996","05","25","09:00","9.5","","-2.5","","43","","26","","19","","40.2","","101.03","","","","","","Mostly Cloudy"
"1996-05-25 10:00","1996","05","25","10:00","10.5","","-2.5","","40","","27","","22","","40.2","","101.03","","","","","","Mainly Clear"
"1996-05-25 11:00","1996","05","25","11:00","11.4","","-1.7","","40","","30","","20","","40.2","","100.96","","","","","","Mainly Clear"
"1996-05-25 12:00","1996","05","25","12:00","12.8","","-1.1","","38","","28","","19","","40.2","","100.86","","","","","","Mainly Clear"
"1996-05-25 13:00","1996","05","25","13:00","14.4","","-0.7","","35","","28","","22","","40.2","","100.83","","","","","","Mainly Clear"
"1996-05-25 14:00","1996","05","25","14:00","15.3","","-1.0","","33","","26","","24","","40.2","","100.73","","","","","","Mainly Clear"
"1996-05-25 15:00","1996","05","25","15:00","15.8","","-1.4","","31","","28","","22","","40.2","","100.73","","","","","","Mainly Clear"
"1996-05-25 16:00","1996","05","25","16:00","16.4","","0.4","","34","","27","","22","","40.2","","100.66","","","","","","Mainly Clear"
"1996-05-25 17:00","1996","05","25","17:00","16.5","","-0.7","","31","","28","","19","","40.2","","100.63","","","","","","Mainly Clear"
"1996-05-25 18:00","1996","05","25","18:00","16.0","","-1.8","","29","","28","","13","","40.2","","100.60","","","","","","Mainly Clear"
"1996-05-25 19:00","1996","05","25","19:00","15.2","","-3.2","","28","","32","","13","","40.2","","100.60","","","","","","Mainly Clear"
"1996-05-25 20:00","1996","05","25","20:00","13.6","","-1.1","","36","","27","","6","","40.2","","100.60","","","","","","Mainly Clear"
"1996-05-25 21:00","1996","05","25","21:00","12.7","","-0.5","","40","","","","0","","25.0","","100.60","","","","","","Mainly Clear"
"1996-05-25 22:00","1996","05","25","22:00","12.1","","-0.3","","42","","31","","4","","25.0","","100.60","","","","","","Mainly Clear"
"1996-05-25 23:00","1996","05","25","23:00","11.3","","0.7","","48","","30","","6","","25.0","","100.60","","","","","","Mainly Clear"
"1996-05-26 00:00","1996","05","26","00:00","10.2","","0.1","","49","","35","","6","","25.0","","100.60","","","","","","Clear"
"1996-05-26 01:00","1996","05","26","01:00","9.1","","-1.8","","46","","","","0","","25.0","","100.60","","","","","","Clear"
"1996-05-26 02:00","1996","05","26","02:00","7.5","","0.7","","62","","","","0","","25.0","","100.60","","","","","","Clear"
"1996-05-26 03:00","1996","05","26","03:00","6.4","","-0.5","","61","","23","","6","","25.0","","100.60","","","","","","Clear"
"1996-05-26 04:00","1996","05","26","04:00","6.6","","-0.4","","61","","25","","4","","24.1","","100.70","","","","","","Mainly Clear"
"1996-05-26 05:00","1996","05","26","05:00","5.6","","0.7","","71","","27","","4","","40.2","","100.70","","","","","","Mostly Cloudy"
"1996-05-26 06:00","1996","05","26","06:00","8.1","","1.9","","65","","28","","6","","40.2","","100.73","","","","","","Mainly Clear"
"1996-05-26 07:00","1996","05","26","07:00","10.3","","2.6","","59","","30","","13","","40.2","","100.70","","","","","","Mainly Clear"
"1996-05-26 08:00","1996","05","26","08:00","12.4","","0.9","","45","","29","","13","","40.2","","100.70","","","","","","Mainly Clear"
"1996-05-26 09:00","1996","05","26","09:00","14.3","","-0.2","","37","","30","","19","","40.2","","100.70","","","","","","Mostly Cloudy"
"1996-05-26 10:00","1996","05","26","10:00","16.0","","-0.3","","33","","30","","19","","40.2","","100.70","","","","","","Mostly Cloudy"
"1996-05-26 11:00","1996","05","26","11:00","16.8","","-0.6","","31","","28","","15","","40.2","","100.60","","","","","","Mostly Cloudy"
"1996-05-26 12:00","1996","05","26","12:00","18.1","","0.3","","30","","28","","11","","40.2","","100.49","","","","","","Mostly Cloudy"
"1996-05-26 13:00","1996","05","26","13:00","18.0","","-0.8","","28","","31","","15","","40.2","","100.43","","","","","","Mostly Cloudy"
"1996-05-26 14:00","1996","05","26","14:00","19.0","","-0.9","","26","","34","","6","","40.2","","100.39","","","","","","Mostly Cloudy"
"1996-05-26 15:00","1996","05","26","15:00","18.4","","-1.4","","26","","31","","15","","40.2","","100.39","","","","","","Cloudy"
"1996-05-26 16:00","1996","05","26","16:00","18.6","","-1.1","","26","","29","","17","","40.2","","100.39","","","","","","Cloudy"
"1996-05-26 17:00","1996","05","26","17:00","18.5","","-1.6","","26","","30","","13","","40.2","","100.33","","","","","","Mostly Cloudy"
"1996-05-26 18:00","1996","05","26","18:00","17.8","","-2.2","","26","","29","","9","","40.2","","100.33","","","","","","Cloudy"
"1996-05-26 19:00","1996","05","26","19:00","17.1","","-1.3","","28","","30","","6","","40.2","","100.33","","","","","","Cloudy"
"1996-05-26 20:00","1996","05","26","20:00","16.1","","-0.3","","33","","28","","4","","25.0","","100.33","","","","","","Mostly Cloudy"
"1996-05-26 21:00","1996","05","26","21:00","15.2","","0.9","","38","","","","0","","25.0","","100.36","","","","","","Mainly Clear"
"1996-05-26 22:00","1996","05","26","22:00","14.3","","1.3","","41","","26","","4","","25.0","","100.36","","","","","","Mainly Clear"
"1996-05-26 23:00","1996","05","26","23:00","12.0","","2.6","","53","","","","0","","25.0","","100.36","","","","","","Mainly Clear"
"1996-05-27 00:00","1996","05","27","00:00","11.8","","1.7","","50","","","","0","","25.0","","100.36","","","","","","Mainly Clear"
"1996-05-27 01:00","1996","05","27","01:00","10.9","","2.6","","57","","","","0","","25.0","","100.33","","","","","","Mainly Clear"
"1996-05-27 02:00","1996","05","27","02:00","9.7","","2.7","","62","","","","0","","25.0","","100.29","","","","","","Clear"
"1996-05-27 03:00","1996","05","27","03:00","9.0","","4.0","","71","","32","","4","","24.1","","100.29","","","","","","Clear"
"1996-05-27 04:00","1996","05","27","04:00","7.8","","4.6","","80","","","","0","","24.1","","100.39","","","","","","Mainly Clear"
"1996-05-27 05:00","1996","05","27","05:00","8.1","","2.7","","69","","35","","7","","24.1","","100.39","","","","","","Mainly Clear"
"1996-05-27 06:00","1996","05","27","06:00","9.1","","2.6","","64","","","","0","","32.2","","100.49","","","","","","Clear"
"1996-05-27 07:00","1996","05","27","07:00","11.4","","1.7","","51","","2","","6","","32.2","","100.49","","","","","","Clear"
"1996-05-27 08:00","1996","05","27","08:00","13.3","","2.4","","48","","","","0","","32.2","","100.49","","","","","","Clear"
"1996-05-27 09:00","1996","05","27","09:00","15.6","","2.6","","42","","","","0","","32.2","","100.49","","","","","","Clear"
"1996-05-27 10:00","1996","05","27","10:00","17.7","","-0.3","","30","","4","","6","","32.2","","100.46","","","","","","Clear"
"1996-05-27 11:00","1996","05","27","11:00","18.5","","-1.8","","25","","9","","6","","32.2","","100.43","","","","","","Mainly Clear"
"1996-05-27 12:00","1996","05","27","12:00","19.8","","-0.6","","25","","29","","15","","32.2","","100.39","","","","","","Mainly Clear"
"1996-05-27 13:00","1996","05","27","13:00","20.1","","0.1","","26","","27","","7","","32.2","","100.36","","","","","","Mainly Clear"
"1996-05-27 14:00","1996","05","27","14:00","20.7","","1.0","","27","","12","","6","","32.2","","100.33","","","","","","Mostly Cloudy"
"1996-05-27 15:00","1996","05","27","15:00","20.1","","-1.0","","24","","36","","7","","32.2","","100.29","","","","","","Mostly Cloudy"
"1996-05-27 16:00","1996","05","27","16:00","21.1","","-1.4","","22","","29","","15","","32.2","","100.23","","","","","","Mainly Clear"
"1996-05-27 17:00","1996","05","27","17:00","19.8","","-1.1","","24","","32","","7","","32.2","","100.23","","","","","","Mainly Clear"
"1996-05-27 18:00","1996","05","27","18:00","19.8","","-0.3","","26","","29","","6","","32.2","","100.23","","","","","","Mainly Clear"
"1996-05-27 19:00","1996","05","27","19:00","19.0","","-0.7","","26","","","","0","","32.2","","100.23","","","","","","Mainly Clear"
"1996-05-27 20:00","1996","05","27","20:00","17.7","","0.4","","31","","","","0","","25.0","","100.23","","","","","","Mainly Clear"
"1996-05-27 21:00","1996","05","27","21:00","16.5","","1.4","","36","","","","0","","25.0","","100.29","","","","","","Mainly Clear"
"1996-05-27 22:00","1996","05","27","22:00","15.2","","2.5","","42","","","","0","","25.0","","100.33","","","","","","Mainly Clear"
"1996-05-27 23:00","1996","05","27","23:00","13.8","","2.6","","47","","24","","4","","25.0","","100.33","","","","","","Mainly Clear"
"1996-05-28 00:00","1996","05","28","00:00","13.4","","2.5","","48","","22","","4","","25.0","","100.26","","","","","","Mainly Clear"
"1996-05-28 01:00","1996","05","28","01:00","13.3","","2.9","","49","","29","","7","","25.0","","100.26","","","","","","Mainly Clear"
"1996-05-28 02:00","1996","05","28","02:00","12.7","","3.5","","53","","28","","7","","25.0","","100.26","","","","","","Mainly Clear"
"1996-05-28 03:00","1996","05","28","03:00","12.3","","3.6","","55","","","","0","","25.0","","100.26","","","","","","Mainly Clear"
"1996-05-28 04:00","1996","05","28","04:00","12.5","","3.5","","54","","31","","7","","24.1","","100.23","","","","","","Mostly Cloudy"
"1996-05-28 05:00","1996","05","28","05:00","12.0","","4.1","","58","","32","","6","","40.2","","100.19","","","","","","Mostly Cloudy"
"1996-05-28 06:00","1996","05","28","06:00","12.9","","2.6","","50","","5","","6","","40.2","","100.19","","","","","","Mostly Cloudy"
"1996-05-28 07:00","1996","05","28","07:00","13.2","","3.9","","53","","17","","4","","40.2","","100.29","","","","","","Mostly Cloudy"
"1996-05-28 08:00","1996","05","28","08:00","14.0","","2.4","","45","","","","0","","40.2","","100.33","","","","","","Mostly Cloudy"
"1996-05-28 09:00","1996","05","28","09:00","15.5","","3.2","","44","","35","","4","","32.2","","100.29","","","","","","Mostly Cloudy"
"1996-05-28 10:00","1996","05","28","10:00","17.0","","3.3","","40","","34","","6","","32.2","","100.23","","","","","","Mainly Clear"
"1996-05-28 11:00","1996","05","28","11:00","18.6","","-1.0","","27","","","","0","","32.2","","100.23","","","","","","Mainly Clear"
"1996-05-28 12:00","1996","05","28","12:00","19.3","","-0.7","","26","","32","","9","","32.2","","100.13","","","","","","Mainly Clear"
"1996-05-28 13:00","1996","05","28","13:00","20.5","","1.6","","28","","23","","6","","32.2","","100.06","","","","","","Mainly Clear"
"1996-05-28 14:00","1996","05","28","14:00","21.6","","0.7","","25","","30","","15","","24.1","","99.96","","","","","","Mainly Clear"
"1996-05-28 15:00","1996","05","28","15:00","21.5","","1.2","","26","","31","","19","","19.3","","99.93","","","","","","Mostly Cloudy"
"1996-05-28 16:00","1996","05","28","16:00","20.7","","1.1","","27","","29","","11","","19.3","","99.86","","","","","","Mostly Cloudy"
"1996-05-28 17:00","1996","05","28","17:00","20.5","","1.6","","28","","27","","9","","19.3","","99.82","","","","","","Mostly Cloudy"
"1996-05-28 18:00","1996","05","28","18:00","18.9","","3.8","","37","","","","0","","24.1","","99.79","","","","","","Mostly Cloudy"
"1996-05-28 19:00","1996","05","28","19:00","17.4","","4.2","","42","","36","","15","","19.3","","99.89","","","","","","Rain Showers"
"1996-05-28 20:00","1996","05","28","20:00","15.3","","-2.0","","30","","2","","24","","25.0","","99.99","","","","","","Mostly Cloudy"
"1996-05-28 21:00","1996","05","28","21:00","12.4","","-6.0","","27","","35","","28","","25.0","","100.09","","","","","","Mainly Clear"
"1996-05-28 22:00","1996","05","28","22:00","11.0","","-6.8","","28","","1","","22","","24.1","","100.23","","","","","","Mostly Cloudy"
"1996-05-28 23:00","1996","05","28","23:00","9.2","","-6.8","","32","","36","","24","","24.1","","100.29","","","","","","Mostly Cloudy"
"1996-05-29 00:00","1996","05","29","00:00","7.0","","-6.6","","37","","36","","24","","24.1","","100.36","","","","","","Mostly Cloudy"
"1996-05-29 01:00","1996","05","29","01:00","6.1","","-8.0","","36","","1","","26","","24.1","","100.43","","","","","","Mostly Cloudy"
"1996-05-29 02:00","1996","05","29","02:00","5.4","","-8.1","","37","","2","","20","","24.1","","100.43","","","","","","Mostly Cloudy"
"1996-05-29 03:00","1996","05","29","03:00","4.3","","-7.4","","42","","36","","11","","24.1","","100.43","","","","","","Mainly Clear"
"1996-05-29 04:00","1996","05","29","04:00","3.2","","-6.6","","49","","33","","11","","40.2","","100.43","","","","","","Clear"
"1996-05-29 05:00","1996","05","29","05:00","2.6","","-6.0","","53","","32","","11","","40.2","","100.43","","","","","","Mainly Clear"
"1996-05-29 06:00","1996","05","29","06:00","4.0","","-5.6","","50","","31","","6","","40.2","","100.43","","","","","","Mainly Clear"
"1996-05-29 07:00","1996","05","29","07:00","4.9","","-4.6","","50","","32","","13","","40.2","","100.39","","","","","","Mainly Clear"
"1996-05-29 08:00","1996","05","29","08:00","6.4","","-3.9","","48","","29","","9","","40.2","","100.29","","","","","","Mainly Clear"
"1996-05-29 09:00","1996","05","29","09:00","8.3","","-1.9","","49","","29","","7","","40.2","","100.26","","","","","","Mainly Clear"
"1996-05-29 10:00","1996","05","29","10:00","9.3","","-1.7","","46","","29","","15","","40.2","","100.19","","","","","","Mainly Clear"
"1996-05-29 11:00","1996","05","29","11:00","10.3","","-0.4","","47","","28","","22","","40.2","","100.13","","","","","","Mainly Clear"
"1996-05-29 12:00","1996","05","29","12:00","12.1","","0.9","","46","","28","","24","","40.2","","100.09","","","","","","Mostly Cloudy"
"1996-05-29 13:00","1996","05","29","13:00","12.5","","1.1","","46","","34","","24","","40.2","","100.09","","","","","","Mostly Cloudy"
"1996-05-29 14:00","1996","05","29","14:00","13.2","","1.1","","44","","32","","22","","40.2","","100.09","","","","","","Mostly Cloudy"
"1996-05-29 15:00","1996","05","29","15:00","13.9","","1.0","","41","","33","","22","","40.2","","100.03","","","","","","Mostly Cloudy"
"1996-05-29 16:00","1996","05","29","16:00","8.4","","2.3","","65","","7","","22","","32.2","","100.09","","","","","","Mostly Cloudy"
"1996-05-29 17:00","1996","05","29","17:00","8.8","","2.2","","63","","3","","22","","40.2","","100.16","","","","","","Mostly Cloudy"
"1996-05-29 18:00","1996","05","29","18:00","7.9","","2.2","","67","","34","","19","","32.2","","100.13","","","","","","Mostly Cloudy"
"1996-05-29 19:00","1996","05","29","19:00","8.3","","0.7","","59","","35","","15","","32.2","","100.16","","","","","","Mostly Cloudy"
"1996-05-29 20:00","1996","05","29","20:00","7.5","","-0.2","","58","","34","","9","","32.2","","100.23","","","","","","Mainly Clear"
"1996-05-29 21:00","1996","05","29","21:00","7.1","","-0.1","","60","","36","","13","","24.1","","100.29","","","","","","Mainly Clear"
"1996-05-29 22:00","1996","05","29","22:00","6.6","","0.2","","64","","35","","17","","24.1","","100.29","","","","","","Clear"
"1996-05-29 23:00","1996","05","29","23:00","6.4","","0.3","","65","","35","","13","","24.1","","100.36","","","","","","Mainly Clear"
"1996-05-30 00:00","1996","05","30","00:00","5.4","","1.0","","73","","33","","9","","24.1","","100.36","","","","","","Mainly Clear"
"1996-05-30 01:00","1996","05","30","01:00","5.4","","0.9","","73","","34","","15","","24.1","","100.36","","","","","","Mainly Clear"
"1996-05-30 02:00","1996","05","30","02:00","5.0","","1.2","","76","","34","","13","","24.1","","100.36","","","","","","Clear"
"1996-05-30 03:00","1996","05","30","03:00","4.4","","1.0","","79","","34","","11","","24.1","","100.39","","","","","","Clear"
"1996-05-30 04:00","1996","05","30","04:00","4.0","","0.9","","80","","33","","9","","32.2","","100.39","","","","","","Clear"
"1996-05-30 05:00","1996","05","30","05:00","3.8","","1.2","","83","","34","","15","","32.2","","100.46","","","","","","Clear"
"1996-05-30 06:00","1996","05","30","06:00","5.2","","1.8","","79","","34","","15","","40.2","","100.53","","","","","","Mainly Clear"
"1996-05-30 07:00","1996","05","30","07:00","7.1","","2.1","","70","","35","","17","","40.2","","100.56","","","","","","Mainly Clear"
"1996-05-30 08:00","1996","05","30","08:00","9.1","","2.8","","65","","35","","11","","40.2","","100.63","","","","","","Mainly Clear"
"1996-05-30 09:00","1996","05","30","09:00","11.0","","3.4","","59","","34","","9","","40.2","","100.63","","","","","","Mainly Clear"
"1996-05-30 10:00","1996","05","30","10:00","12.7","","4.1","","56","","32","","13","","40.2","","100.63","","","","","","Mainly Clear"
"1996-05-30 11:00","1996","05","30","11:00","15.1","","4.7","","50","","7","","9","","40.2","","100.63","","","","","","Mainly Clear"
"1996-05-30 12:00","1996","05","30","12:00","15.4","","4.8","","49","","33","","11","","40.2","","100.63","","","","","","Mainly Clear"
"1996-05-30 13:00","1996","05","30","13:00","17.9","","5.3","","43","","32","","6","","40.2","","100.56","","","","","","Mostly Cloudy"
"1996-05-30 14:00","1996","05","30","14:00","18.8","","5.3","","41","","","","0","","40.2","","100.53","","","","","","Mostly Cloudy"
"1996-05-30 15:00","1996","05","30","15:00","17.9","","4.1","","40","","29","","6","","40.2","","100.49","","","","","","Mostly Cloudy"
"1996-05-30 16:00","1996","05","30","16:00","18.3","","3.7","","38","","26","","9","","40.2","","100.46","","","","","","Mostly Cloudy"
"1996-05-30 17:00","1996","05","30","17:00","18.8","","3.6","","36","","28","","20","","40.2","","100.43","","","","","","Mainly Clear"
"1996-05-30 18:00","1996","05","30","18:00","19.3","","3.6","","35","","28","","15","","32.2","","100.43","","","","","","Mainly Clear"
"1996-05-30 19:00","1996","05","30","19:00","18.3","","3.9","","38","","28","","7","","32.2","","100.43","","","","","","Mainly Clear"
"1996-05-30 20:00","1996","05","30","20:00","15.7","","4.4","","47","","26","","7","","32.2","","100.46","","","","","","Clear"
"1996-05-30 21:00","1996","05","30","21:00","15.1","","4.7","","50","","25","","4","","24.1","","100.53","","","","","","Clear"
"1996-05-30 22:00","1996","05","30","22:00","13.8","","3.9","","51","","25","","6","","24.1","","100.53","","","","","","Clear"
"1996-05-30 23:00","1996","05","30","23:00","11.7","","4.2","","60","","24","","6","","24.1","","100.53","","","","","","Clear"
"1996-05-31 00:00","1996","05","31","00:00","10.8","","4.6","","65","","26","","6","","24.1","","100.53","","","","","","Clear"
"1996-05-31 01:00","1996","05","31","01:00","10.3","","4.8","","69","","27","","7","","24.1","","100.53","","","","","","Clear"
"1996-05-31 02:00","1996","05","31","02:00","10.1","","5.0","","71","","25","","4","","24.1","","100.53","","","","","","Clear"
"1996-05-31 03:00","1996","05","31","03:00","9.0","","5.0","","76","","26","","4","","24.1","","100.53","","","","","","Clear"
"1996-05-31 04:00","1996","05","31","04:00","9.3","","4.8","","73","","27","","6","","32.2","","100.53","","","","","","Clear"
"1996-05-31 05:00","1996","05","31","05:00"
"1996-05-31 06:00","1996","05","31","06:00","10.2","","4.3","","67","","28","","7","","32.2","","100.63","","","","","","Clear"
"1996-05-31 07:00","1996","05","31","07:00","12.3","","4.6","","59","","29","","13","","32.2","","100.66","","","","","","Mainly Clear"
"1996-05-31 08:00","1996","05","31","08:00","14.8","","4.7","","51","","28","","13","","32.2","","100.70","","","","","","Mainly Clear"
"1996-05-31 09:00","1996","05","31","09:00"
"1996-05-31 10:00","1996","05","31","10:00","19.4","","4.6","","38","","27","","9","","32.2","","100.66","","","","","","Mainly Clear"
"1996-05-31 11:00","1996","05","31","11:00","21.5","","3.8","","31","","29","","20","","32.2","","100.63","","","","","","Mainly Clear"
"1996-05-31 12:00","1996","05","31","12:00","22.4","","-1.0","","21","","29","","20","","32.2","","100.60","","","","","","Mainly Clear"
"1996-05-31 13:00","1996","05","31","13:00","23.3","","-1.5","","19","","32","","24","","32.2","","100.56","","","","","","Mostly Cloudy"
"1996-05-31 14:00","1996","05","31","14:00","24.1","","-1.0","","19","","31","","24","","32.2","","100.53","","","","","","Mostly Cloudy"
"1996-05-31 15:00","1996","05","31","15:00","24.0","","-2.3","","17","","30","","26","","32.2","","100.49","","","","","","Mainly Clear"
"1996-05-31 16:00","1996","05","31","16:00","24.5","","-1.3","","18","","29","","19","","32.2","","100.46","","","","","","Mainly Clear"
"1996-05-31 17:00","1996","05","31","17:00","24.1","","-1.2","","19","","29","","15","","32.2","","100.43","","","","","","Mainly Clear"
"1996-05-31 18:00","1996","05","31","18:00","23.6","","-0.3","","21","","28","","13","","32.2","","100.46","","","","","","Clear"
"1996-05-31 19:00","1996","05","31","19:00","22.2","","1.2","","25","","26","","6","","32.2","","100.46","","","","","","Clear"
"1996-05-31 20:00","1996","05","31","20:00","19.2","","5.6","","41","","19","","17","","32.2","","100.56","","","","","","Clear"
"1996-05-31 21:00","1996","05","31","21:00","16.9","","4.9","","45","","22","","9","","24.1","","100.66","","","","","","Clear"
"1996-05-31 22:00","1996","05","31","22:00","15.0","","4.9","","51","","21","","7","","24.1","","100.66","","","","","","Clear"
"1996-05-31 23:00","1996","05","31","23:00","14.3","","5.1","","54","","22","","7","","24.1","","100.73","","","","","","Clear"
