"Station Name","OTTAWA MACDONALD-CARTIER INT'L A"
"Province","ONTARIO"
"Latitude","45.32"
"Longitude","-75.67"
"Elevation","114.00"
"Climate Identifier","6106000"
"WMO Identifier","71628"
"TC Identifier","YOW"
"All times are specified in Local Standard Time (LST). Add 1 hour to adjust for Daylight Saving Time where and when it is observed."

"Legend"
"E","Estimated"
"M","Missing"
"NA","Not Available"

"Date/Time","Year","Month","Day","Time","Temp (°C)","Temp Flag","Dew Point Temp (°C)","Dew Point Temp Flag","Rel Hum (%)","Rel Hum Flag","Wind Dir (10s deg)","Wind Dir Flag","Wind Spd (km/h)","Wind Spd Flag","Visibility (km)","Visibility Flag","Stn Press (kPa)","Stn Press Flag","Hmdx","Hmdx Flag","Wind Chill","Wind Chill Flag","Weather"
"2004-04-01 00:00","2004","04","01","00:00","5.8","","2.4","","79","","2","","13","","25.0","","100.16","","","","","","Cloudy"
"2004-04-01 01:00","2004","04","01","01:00","5.6","","2.0","","78","","3","","17","","25.0","","100.10","","","","","","Rain"
"2004-04-01 02:00","2004","04","01","02:00","5.0","","1.7","","79","","3","","17","","25.0","","100.03","","","","","","Cloudy"
"2004-04-01 03:00","2004","04","01","03:00","4.8","","0.8","","75","","2","","15","","25.0","","100.01","","","","","","Cloudy"
"2004-04-01 04:00","2004","04","01","04:00","4.3","","0.7","","77","","2","","15","","19.3","","100.02","","","","","","Rain"
"2004-04-01 05:00","2004","04","01","05:00","4.2","","0.5","","77","","3","","22","","25.0","","100.00","","","","","","Cloudy"
"2004-04-01 06:00","2004","04","01","06:00","3.7","","2.0","","89","","2","","22","","9.7","","100.00","","","","","","Rain,Fog"
"2004-04-01 07:00","2004","04","01","07:00","4.1","","1.2","","81","","3","","22","","24.1","","100.03","","","","","","Cloudy"
"2004-04-01 08:00","2004","04","01","08:00","4.3","","1.4","","81","","2","","17","","16.1","","100.04","","","","","","Rain"
"2004-04-01 09:00","2004","04","01","09:00","5.6","","0.4","","69","","3","","28","","32.2","","99.96","","","","","","Cloudy"
"2004-04-01 10:00","2004","04","01","10:00","7.2","","1.2","","66","","6","","26","","32.2","","99.96","","","","","","Cloudy"
"2004-04-01 11:00","2004","04","01","11:00","8.1","","1.8","","64","","6","","24","","32.2","","99.98","","","","","","Cloudy"
"2004-04-01 12:00","2004","04","01","12:00","7.5","","3.1","","74","","6","","30","","32.2","","100.01","","","","","","Rain"
"2004-04-01 13:00","2004","04","01","13:00","6.0","","3.7","","85","","6","","33","","19.3","","99.99","","","","","","Rain Showers"
"2004-04-01 14:00","2004","04","01","14:00","5.5","","4.8","","95","","6","","26","","4.8","","99.93","","","","","","Rain Showers,Fog"
"2004-04-01 15:00","2004","04","01","15:00","5.7","","5.4","","98","","5","","28","","11.3","","99.89","","","","","","Rain"
"2004-04-01 16:00","2004","04","01","16:00","5.8","","5.5","","98","","5","","24","","6.4","","99.90","","","","","","Rain,Fog"
"2004-04-01 17:00","2004","04","01","17:00","5.8","","5.4","","97","","5","","22","","9.7","","99.91","","","","","","Rain Showers,Fog"
"2004-04-01 18:00","2004","04","01","18:00","5.7","","5.3","","97","","5","","24","","12.9","","99.95","","","","","","Rain Showers"
"2004-04-01 19:00","2004","04","01","19:00","5.5","","4.8","","95","","5","","24","","24.1","","99.97","","","","","","Cloudy"
"2004-04-01 20:00","2004","04","01","20:00","5.1","","4.2","","94","","5","","24","","25.0","","99.97","","","","","","Cloudy"
"2004-04-01 21:00","2004","04","01","21:00","4.9","","3.9","","93","","5","","15","","25.0","","99.97","","","","","","Rain Showers"
"2004-04-01 22:00","2004","04","01","22:00","4.8","","3.4","","91","","5","","17","","25.0","","99.96","","","","","","Cloudy"
"2004-04-01 23:00","2004","04","01","23:00","4.6","","2.6","","87","","5","","20","","25.0","","99.93","","","","","","Cloudy"
"2004-04-02 00:00","2004","04","02","00:00","4.4","","2.3","","86","","5","","17","","25.0","","99.88","","","","","","Rain"
"2004-04-02 01:00","2004","04","02","01:00","4.5","","1.9","","83","","6","","11","","25.0","","99.94","","","","","","Rain"
"2004-04-02 02:00","2004","04","02","02:00","4.7","","1.2","","78","","4","","17","","25.0","","99.87","","","","","","Rain"
"2004-04-02 03:00","2004","04","02","03:00","4.3","","1.3","","81","","6","","19","","25.0","","99.87","","","","","","Rain"
"2004-04-02 04:00","2004","04","02","04:00","4.2","","0.9","","79","","6","","28","","25.0","","99.88","","","","","","Rain"
"2004-04-02 05:00","2004","04","02","05:00","3.7","","1.2","","84","","6","","20","","25.0","","99.90","","","","","","Rain"
"2004-04-02 06:00","2004","04","02","06:00","3.1","","0.9","","85","","6","","22","","24.1","","99.94","","","","","","Rain"
"2004-04-02 07:00","2004","04","02","07:00","3.1","","1.2","","87","","6","","22","","24.1","","99.94","","","","","","Rain"
"2004-04-02 08:00","2004","04","02","08:00","3.8","","1.2","","83","","6","","24","","24.1","","99.93","","","","","","Rain Showers"
"2004-04-02 09:00","2004","04","02","09:00","4.3","","0.7","","77","","6","","33","","32.2","","99.92","","","","","","Mostly Cloudy"
"2004-04-02 10:00","2004","04","02","10:00","5.5","","0.5","","70","","7","","30","","32.2","","99.96","","","","","","Mostly Cloudy"
"2004-04-02 11:00","2004","04","02","11:00","6.5","","1.1","","68","","7","","30","","32.2","","99.94","","","","","","Cloudy"
"2004-04-02 12:00","2004","04","02","12:00","7.0","","1.0","","66","","7","","26","","32.2","","99.93","","","","","","Cloudy"
"2004-04-02 13:00","2004","04","02","13:00","6.7","","1.0","","67","","7","","26","","32.2","","99.91","","","","","","Cloudy"
"2004-04-02 14:00","2004","04","02","14:00","5.5","","2.7","","82","","11","","13","","24.1","","99.88","","","","","","Rain"
"2004-04-02 15:00","2004","04","02","15:00","4.4","","2.6","","88","","9","","19","","16.1","","99.89","","","","","","Rain"
"2004-04-02 16:00","2004","04","02","16:00","4.2","","3.3","","94","","10","","22","","16.1","","99.86","","","","","","Rain"
"2004-04-02 17:00","2004","04","02","17:00","4.0","","3.0","","93","","9","","17","","16.1","","99.81","","","","","","Rain"
"2004-04-02 18:00","2004","04","02","18:00","3.8","","2.4","","91","","7","","9","","12.9","","99.83","","","","","","Rain"
"2004-04-02 19:00","2004","04","02","19:00","3.4","","2.3","","92","","6","","11","","12.9","","99.83","","","","","","Rain"
"2004-04-02 20:00","2004","04","02","20:00","3.1","","2.5","","96","","6","","9","","4.8","","99.83","","","","","","Rain,Fog"
"2004-04-02 21:00","2004","04","02","21:00","2.9","","2.8","","99","","4","","9","","3.2","","99.76","","","","","","Drizzle,Fog"
"2004-04-02 22:00","2004","04","02","22:00","3.1","","3.0","","99","","5","","11","","3.2","","99.70","","","","","","Rain,Fog"
"2004-04-02 23:00","2004","04","02","23:00","3.1","","3.0","","99","","6","","7","","6.4","","99.63","","","","","","Drizzle,Fog"
"2004-04-03 00:00","2004","04","03","00:00","3.1","","3.0","","99","","36","","7","","6.4","","99.55","","","","","","Drizzle,Fog"
"2004-04-03 01:00","2004","04","03","01:00","3.1","","2.9","","99","","4","","7","","8.0","","99.49","","","","","","Fog"
"2004-04-03 02:00","2004","04","03","02:00","2.9","","2.9","","100","","4","","6","","4.8","","99.41","","","","","","Rain,Fog"
"2004-04-03 03:00","2004","04","03","03:00","2.7","","2.7","","100","","8","","9","","3.2","","99.33","","","","","","Drizzle,Fog"
"2004-04-03 04:00","2004","04","03","04:00","2.5","","2.5","","100","","7","","13","","3.2","","99.31","","","","","","Drizzle,Fog"
"2004-04-03 05:00","2004","04","03","05:00","2.0","","2.0","","100","","9","","11","","4.8","","99.23","","","","","","Fog"
"2004-04-03 06:00","2004","04","03","06:00","1.7","","1.7","","100","","9","","6","","8.0","","99.23","","","","","","Fog"
"2004-04-03 07:00","2004","04","03","07:00","2.0","","1.9","","99","","6","","9","","6.4","","99.23","","","","","","Fog"
"2004-04-03 08:00","2004","04","03","08:00","2.3","","2.1","","99","","10","","7","","11.3","","99.21","","","","","","Cloudy"
"2004-04-03 09:00","2004","04","03","09:00","2.4","","2.0","","97","","9","","13","","11.3","","99.17","","","","","","Rain"
"2004-04-03 10:00","2004","04","03","10:00","2.7","","2.3","","97","","11","","9","","11.3","","99.13","","","","","","Cloudy"
"2004-04-03 11:00","2004","04","03","11:00","3.3","","2.3","","93","","11","","6","","12.9","","99.07","","","","","","Cloudy"
"2004-04-03 12:00","2004","04","03","12:00","3.7","","2.4","","91","","","","0","","12.9","","99.04","","","","","","Cloudy"
"2004-04-03 13:00","2004","04","03","13:00","4.0","","2.5","","90","","","","0","","12.9","","98.95","","","","","","Rain"
"2004-04-03 14:00","2004","04","03","14:00","4.4","","2.7","","89","","","","0","","12.9","","98.88","","","","","","Cloudy"
"2004-04-03 15:00","2004","04","03","15:00","4.6","","3.1","","90","","7","","4","","12.9","","98.83","","","","","","Cloudy"
"2004-04-03 16:00","2004","04","03","16:00","4.4","","3.1","","91","","7","","6","","12.9","","98.79","","","","","","Cloudy"
"2004-04-03 17:00","2004","04","03","17:00","4.3","","3.2","","93","","","","0","","8.0","","98.78","","","","","","Rain,Fog"
"2004-04-03 18:00","2004","04","03","18:00","3.9","","3.6","","98","","","","0","","4.8","","98.76","","","","","","Rain,Fog"
"2004-04-03 19:00","2004","04","03","19:00","3.7","","3.7","","100","","","","0","","2.8","","98.74","","","","","","Rain,Fog"
"2004-04-03 20:00","2004","04","03","20:00","3.4","","3.4","","100","","","","0","","2.8","","98.73","","","","","","Drizzle,Fog"
"2004-04-03 21:00","2004","04","03","21:00","3.2","","3.2","","100","","10","","4","","2.8","","98.68","","","","","","Rain,Fog"
"2004-04-03 22:00","2004","04","03","22:00","3.1","","3.1","","100","","15","","4","","2.4","","98.63","","","","","","Rain,Fog"
"2004-04-03 23:00","2004","04","03","23:00","3.0","","3.0","","100","","19","","4","","2.4","","98.59","","","","","","Rain,Fog"
"2004-04-04 00:00","2004","04","04","00:00","2.7","","2.7","","100","","19","","4","","2.4","","98.54","","","","","","Rain,Fog"
"2004-04-04 01:00","2004","04","04","01:00","2.4","","2.4","","100","","","","0","","4.8","","98.49","","","","","","Rain,Fog"
"2004-04-04 02:00","2004","04","04","02:00","1.9","","1.8","","99","","16","","4","","9.7","","98.45","","","","","","Rain,Fog"
"2004-04-04 03:00","2004","04","04","03:00","1.0","","1.0","","100","","","","0","","9.7","","98.41","","","","","","Rain,Fog"
"2004-04-04 04:00","2004","04","04","04:00","0.5","","0.5","","100","","1","","4","","4.0","","98.38","","","","","","Rain,Snow,Fog"
"2004-04-04 05:00","2004","04","04","05:00","0.4","","0.4","","100","","36","","7","","4.0","","98.38","","","","","","Rain,Snow,Fog"
"2004-04-04 06:00","2004","04","04","06:00","0.3","","0.3","","100","","33","","6","","2.0","","98.41","","","","","","Snow"
"2004-04-04 07:00","2004","04","04","07:00","0.3","","0.3","","100","","33","","9","","1.6","","98.46","","","","","","Snow"
"2004-04-04 08:00","2004","04","04","08:00","0.3","","0.3","","100","","33","","15","","1.6","","98.49","","","","","","Snow"
"2004-04-04 09:00","2004","04","04","09:00","-0.6","","-0.8","","99","","32","","28","","3.2","","98.55","","","","-7","","Snow"
"2004-04-04 10:00","2004","04","04","10:00","-1.9","","-3.1","","91","","32","","33","","3.2","","98.60","","","","-9","","Snow"
"2004-04-04 11:00","2004","04","04","11:00","-2.3","","-3.4","","92","","34","","32","","4.0","","98.67","","","","-10","","Snow"
"2004-04-04 12:00","2004","04","04","12:00","-2.9","","-4.3","","90","","32","","30","","1.2","","98.68","","","","-10","","Snow"
"2004-04-04 13:00","2004","04","04","13:00","-3.2","","-4.9","","88","","32","","30","","2.4","","98.73","","","","-11","","Snow"
"2004-04-04 14:00","2004","04","04","14:00","-3.6","","-5.4","","87","","32","","35","","2.0","","98.74","","","","-12","","Snow"
"2004-04-04 15:00","2004","04","04","15:00","-4.0","","-5.9","","87","","33","","30","","1.2","","98.78","","","","-12","","Snow"
"2004-04-04 16:00","2004","04","04","16:00","-4.3","","-5.8","","89","","32","","32","","2.0","","98.82","","","","-12","","Snow"
"2004-04-04 17:00","2004","04","04","17:00","-4.1","","-6.0","","87","","32","","32","","4.0","","98.89","","","","-12","","Snow"
"2004-04-04 18:00","2004","04","04","18:00","-4.3","","-5.7","","90","","32","","30","","2.0","","98.97","","","","-12","","Snow"
"2004-04-04 19:00","2004","04","04","19:00","-4.8","","-6.6","","87","","32","","35","","2.4","","99.08","","","","-13","","Snow"
"2004-04-04 20:00","2004","04","04","20:00","-5.4","","-7.2","","87","","32","","32","","2.4","","99.18","","","","-14","","Snow"
"2004-04-04 21:00","2004","04","04","21:00","-5.7","","-8.2","","82","","33","","28","","2.4","","99.22","","","","-14","","Snow"
"2004-04-04 22:00","2004","04","04","22:00","-6.0","","-8.9","","80","","34","","35","","3.2","","99.25","","","","-15","","Snow"
"2004-04-04 23:00","2004","04","04","23:00","-6.4","","-10.4","","73","","33","","30","","8.0","","99.29","","","","-15","","Snow"
"2004-04-05 00:00","2004","04","05","00:00","-7.3","","-11.2","","74","","33","","28","","6.4","","99.33","","","","-16","","Snow"
"2004-04-05 01:00","2004","04","05","01:00","-7.8","","-11.7","","74","","33","","33","","12.9","","99.38","","","","-17","","Snow"
"2004-04-05 02:00","2004","04","05","02:00","-8.8","","-12.2","","76","","32","","28","","4.8","","99.40","","","","-18","","Snow"
"2004-04-05 03:00","2004","04","05","03:00","-9.5","","-13.3","","74","","33","","32","","9.7","","99.42","","","","-19","","Snow"
"2004-04-05 04:00","2004","04","05","04:00","-10.5","","-14.5","","72","","33","","35","","24.1","","99.42","","","","-21","","Cloudy"
"2004-04-05 05:00","2004","04","05","05:00","-11.1","","-14.9","","73","","33","","30","","24.1","","99.44","","","","-21","","Cloudy"
"2004-04-05 06:00","2004","04","05","06:00","-11.3","","-15.2","","73","","32","","39","","32.2","","99.51","","","","-22","","Cloudy"
"2004-04-05 07:00","2004","04","05","07:00","-11.4","","-15.3","","73","","31","","35","","32.2","","99.57","","","","-22","","Mostly Cloudy"
"2004-04-05 08:00","2004","04","05","08:00","-11.1","","-15.2","","72","","32","","33","","32.2","","99.60","","","","-21","","Mostly Cloudy"
"2004-04-05 09:00","2004","04","05","09:00","-9.7","","-14.2","","70","","32","","28","","32.2","","99.61","","","","-19","","Mostly Cloudy"
"2004-04-05 10:00","2004","04","05","10:00","-8.0","","-13.4","","65","","30","","28","","32.2","","99.63","","","","-17","","Mostly Cloudy"
"2004-04-05 11:00","2004","04","05","11:00","-6.1","","-12.1","","62","","32","","30","","32.2","","99.64","","","","-14","","Mostly Cloudy"
"2004-04-05 12:00","2004","04","05","12:00","-4.7","","-11.0","","61","","29","","26","","32.2","","99.63","","","","-12","","Mostly Cloudy"
"2004-04-05 13:00","2004","04","05","13:00","-3.8","","-10.8","","58","","29","","28","","32.2","","99.61","","","","-11","","Mostly Cloudy"
"2004-04-05 14:00","2004","04","05","14:00","-2.5","","-10.4","","55","","29","","30","","32.2","","99.54","","","","-10","","Mostly Cloudy"
"2004-04-05 15:00","2004","04","05","15:00","-1.6","","-10.2","","52","","29","","33","","32.2","","99.50","","","","-9","","Mainly Clear"
"2004-04-05 16:00","2004","04","05","16:00","-1.2","","-10.8","","48","","29","","37","","32.2","","99.49","","","","-9","","Mainly Clear"
"2004-04-05 17:00","2004","04","05","17:00","-1.4","","-11.9","","45","","30","","41","","32.2","","99.52","","","","-9","","Mainly Clear"
"2004-04-05 18:00","2004","04","05","18:00","-1.8","","-11.7","","47","","31","","33","","32.2","","99.59","","","","-9","","Mainly Clear"
"2004-04-05 19:00","2004","04","05","19:00","-2.2","","-13.1","","43","","30","","26","","32.2","","99.63","","","","-9","","Clear"
"2004-04-05 20:00","2004","04","05","20:00","-2.7","","-13.6","","43","","31","","32","","25.0","","99.68","","","","-10","","Clear"
"2004-04-05 21:00","2004","04","05","21:00","-3.6","","-13.4","","47","","32","","35","","25.0","","99.71","","","","-12","","Clear"
"2004-04-05 22:00","2004","04","05","22:00","-4.3","","-13.6","","48","","31","","32","","25.0","","99.72","","","","-12","","Clear"
"2004-04-05 23:00","2004","04","05","23:00","-4.8","","-13.9","","49","","31","","22","","25.0","","99.74","","","","-12","","Clear"
"2004-04-06 00:00","2004","04","06","00:00","-5.0","","-14.3","","48","","30","","26","","25.0","","99.70","","","","-12","","Clear"
"2004-04-06 01:00","2004","04","06","01:00","-5.6","","-14.1","","51","","30","","37","","25.0","","99.69","","","","-15","","Clear"
"2004-04-06 02:00","2004","04","06","02:00","-5.9","","-14.7","","50","","30","","37","","25.0","","99.70","","","","-15","","Clear"
"2004-04-06 03:00","2004","04","06","03:00","-6.1","","-14.9","","50","","29","","30","","25.0","","99.70","","","","-14","","Clear"
"2004-04-06 04:00","2004","04","06","04:00","-6.8","","-14.2","","56","","29","","20","","25.0","","99.70","","","","-14","","Clear"
"2004-04-06 05:00","2004","04","06","05:00","-7.2","","-15.5","","51","","30","","19","","25.0","","99.75","","","","-14","","Clear"
"2004-04-06 06:00","2004","04","06","06:00","-7.4","","-15.0","","55","","29","","20","","24.1","","99.78","","","","-15","","Clear"
"2004-04-06 07:00","2004","04","06","07:00","-6.8","","-14.7","","53","","29","","26","","24.1","","99.83","","","","-15","","Mainly Clear"
"2004-04-06 08:00","2004","04","06","08:00","-6.1","","-13.5","","56","","29","","24","","24.1","","99.87","","","","-14","","Mainly Clear"
"2004-04-06 09:00","2004","04","06","09:00","-4.6","","-12.9","","52","","29","","32","","24.1","","99.86","","","","-13","","Clear"
"2004-04-06 10:00","2004","04","06","10:00","-2.5","","-11.4","","50","","28","","26","","24.1","","99.82","","","","-9","","Mainly Clear"
"2004-04-06 11:00","2004","04","06","11:00","-1.0","","-11.4","","45","","29","","22","","24.1","","99.78","","","","-7","","Mainly Clear"
"2004-04-06 12:00","2004","04","06","12:00","1.4","","-9.9","","43","","27","","26","","24.1","","99.75","","","","","","Mainly Clear"
"2004-04-06 13:00","2004","04","06","13:00","2.4","","-9.7","","40","","28","","28","","24.1","","99.70","","","","","","Mainly Clear"
"2004-04-06 14:00","2004","04","06","14:00","3.8","","-9.6","","37","","25","","28","","24.1","","99.65","","","","","","Mainly Clear"
"2004-04-06 15:00","2004","04","06","15:00","5.0","","-11.0","","30","","27","","24","","24.1","","99.57","","","","","","Clear"
"2004-04-06 16:00","2004","04","06","16:00","4.8","","-11.7","","29","","26","","19","","24.1","","99.54","","","","","","Mostly Cloudy"
"2004-04-06 17:00","2004","04","06","17:00","5.1","","-12.6","","26","","27","","22","","24.1","","99.52","","","","","","Mostly Cloudy"
"2004-04-06 18:00","2004","04","06","18:00","5.1","","-11.6","","29","","27","","15","","24.1","","99.50","","","","","","Mostly Cloudy"
"2004-04-06 19:00","2004","04","06","19:00","4.5","","-12.5","","28","","28","","19","","24.1","","99.48","","","","","","Cloudy"
"2004-04-06 20:00","2004","04","06","20:00","3.9","","-12.1","","30","","28","","9","","25.0","","99.52","","","","","","Cloudy"
"2004-04-06 21:00","2004","04","06","21:00","3.7","","-11.4","","32","","23","","6","","25.0","","99.53","","","","","","Cloudy"
"2004-04-06 22:00","2004","04","06","22:00","3.1","","-11.4","","34","","29","","9","","25.0","","99.48","","","","","","Cloudy"
"2004-04-06 23:00","2004","04","06","23:00","2.7","","-12.4","","32","","31","","7","","25.0","","99.43","","","","","","Mostly Cloudy"
"2004-04-07 00:00","2004","04","07","00:00","2.3","","-12.9","","31","","29","","6","","25.0","","99.39","","","","","","Mostly Cloudy"
"2004-04-07 01:00","2004","04","07","01:00","0.9","","-11.4","","39","","29","","7","","25.0","","99.35","","","","","","Mostly Cloudy"
"2004-04-07 02:00","2004","04","07","02:00","0.5","","-10.9","","42","","29","","4","","25.0","","99.30","","","","","","Mainly Clear"
"2004-04-07 03:00","2004","04","07","03:00","0.2","","-10.1","","46","","22","","4","","25.0","","99.28","","","","","","Cloudy"
"2004-04-07 04:00","2004","04","07","04:00","-0.7","","-9.4","","52","","30","","4","","25.0","","99.26","","","","-2","","Mostly Cloudy"
"2004-04-07 05:00","2004","04","07","05:00","-0.8","","-10.1","","49","","30","","9","","25.0","","99.25","","","","-4","","Mostly Cloudy"
"2004-04-07 06:00","2004","04","07","06:00","-0.5","","-9.1","","52","","28","","7","","24.1","","99.30","","","","-3","","Mostly Cloudy"
"2004-04-07 07:00","2004","04","07","07:00","1.0","","-10.0","","44","","29","","7","","24.1","","99.33","","","","","","Mostly Cloudy"
"2004-04-07 08:00","2004","04","07","08:00","2.7","","-10.9","","36","","30","","11","","24.1","","99.31","","","","","","Mostly Cloudy"
"2004-04-07 09:00","2004","04","07","09:00","3.5","","-10.9","","34","","29","","15","","24.1","","99.31","","","","","","Mostly Cloudy"
"2004-04-07 10:00","2004","04","07","10:00","4.6","","-9.4","","35","","29","","17","","24.1","","99.29","","","","","","Mostly Cloudy"
"2004-04-07 11:00","2004","04","07","11:00","5.5","","-10.6","","30","","27","","19","","24.1","","99.26","","","","","","Mostly Cloudy"
"2004-04-07 12:00","2004","04","07","12:00","7.1","","-11.5","","25","","28","","20","","24.1","","99.22","","","","","","Mostly Cloudy"
"2004-04-07 13:00","2004","04","07","13:00","7.0","","-11.0","","26","","30","","24","","24.1","","99.22","","","","","","Mostly Cloudy"
"2004-04-07 14:00","2004","04","07","14:00","8.4","","-8.1","","30","","25","","30","","24.1","","99.20","","","","","","Clear"
"2004-04-07 15:00","2004","04","07","15:00","8.3","","-6.9","","33","","24","","22","","24.1","","99.17","","","","","","Clear"
"2004-04-07 16:00","2004","04","07","16:00","8.2","","-6.8","","34","","26","","22","","24.1","","99.16","","","","","","Clear"
"2004-04-07 17:00","2004","04","07","17:00","8.1","","-5.5","","38","","26","","24","","24.1","","99.16","","","","","","Clear"
"2004-04-07 18:00","2004","04","07","18:00","7.0","","-5.0","","42","","26","","19","","24.1","","99.16","","","","","","Clear"
"2004-04-07 19:00","2004","04","07","19:00","4.9","","-4.9","","49","","26","","11","","24.1","","99.17","","","","","","Clear"
"2004-04-07 20:00","2004","04","07","20:00","3.8","","-5.0","","53","","26","","11","","25.0","","99.19","","","","","","Clear"
"2004-04-07 21:00","2004","04","07","21:00","2.7","","-5.3","","56","","26","","11","","25.0","","99.21","","","","","","Clear"
"2004-04-07 22:00","2004","04","07","22:00","3.1","","-5.3","","54","","29","","17","","25.0","","99.18","","","","","","Mainly Clear"
"2004-04-07 23:00","2004","04","07","23:00","2.4","","-5.1","","58","","28","","22","","25.0","","99.21","","","","","","Clear"
"2004-04-08 00:00","2004","04","08","00:00","1.4","","-5.1","","62","","28","","15","","25.0","","99.22","","","","","","Mainly Clear"
"2004-04-08 01:00","2004","04","08","01:00","1.4","","-4.5","","65","","29","","13","","25.0","","99.22","","","","","","Mostly Cloudy"
"2004-04-08 02:00","2004","04","08","02:00","0.3","","-4.1","","72","","28","","17","","25.0","","99.21","","","","","","Clear"
"2004-04-08 03:00","2004","04","08","03:00","0.0","","-3.7","","76","","28","","15","","25.0","","99.21","","","","-4","","Clear"
"2004-04-08 04:00","2004","04","08","04:00","-0.9","","-3.7","","81","","28","","13","","25.0","","99.20","","","","-5","","Clear"
"2004-04-08 05:00","2004","04","08","05:00","-1.1","","-3.6","","83","","29","","13","","25.0","","99.17","","","","-5","","Mainly Clear"
"2004-04-08 06:00","2004","04","08","06:00","-1.4","","-3.6","","85","","30","","11","","24.1","","99.18","","","","-5","","Clear"
"2004-04-08 07:00","2004","04","08","07:00","0.3","","-2.8","","80","","27","","13","","24.1","","99.22","","","","","","Clear"
"2004-04-08 08:00","2004","04","08","08:00","2.3","","-2.8","","69","","29","","9","","24.1","","99.19","","","","","","Clear"
"2004-04-08 09:00","2004","04","08","09:00","3.9","","-2.7","","62","","24","","9","","24.1","","99.20","","","","","","Clear"
"2004-04-08 10:00","2004","04","08","10:00","4.9","","-2.8","","57","","27","","17","","24.1","","99.18","","","","","","Mainly Clear"
"2004-04-08 11:00","2004","04","08","11:00","6.2","","-3.3","","51","","28","","17","","24.1","","99.13","","","","","","Mainly Clear"
"2004-04-08 12:00","2004","04","08","12:00","6.4","","-3.4","","49","","31","","17","","24.1","","99.06","","","","","","Mostly Cloudy"
"2004-04-08 13:00","2004","04","08","13:00","7.6","","-3.0","","47","","31","","20","","24.1","","99.02","","","","","","Mainly Clear"
"2004-04-08 14:00","2004","04","08","14:00","8.1","","-2.4","","47","","29","","17","","24.1","","99.00","","","","","","Mostly Cloudy"
"2004-04-08 15:00","2004","04","08","15:00","8.0","","-2.7","","47","","25","","19","","24.1","","98.98","","","","","","Mostly Cloudy"
"2004-04-08 16:00","2004","04","08","16:00","9.3","","-1.7","","46","","27","","19","","24.1","","98.96","","","","","","Mainly Clear"
"2004-04-08 17:00","2004","04","08","17:00","8.1","","-1.4","","51","","25","","11","","24.1","","98.95","","","","","","Mostly Cloudy"
"2004-04-08 18:00","2004","04","08","18:00","7.6","","-0.8","","55","","22","","11","","32.2","","98.98","","","","","","Mostly Cloudy"
"2004-04-08 19:00","2004","04","08","19:00","6.6","","-0.6","","60","","22","","9","","32.2","","99.02","","","","","","Mostly Cloudy"
"2004-04-08 20:00","2004","04","08","20:00","5.7","","0.9","","71","","21","","6","","25.0","","99.08","","","","","","Mostly Cloudy"
"2004-04-08 21:00","2004","04","08","21:00","4.4","","0.8","","77","","22","","7","","25.0","","99.12","","","","","","Mostly Cloudy"
"2004-04-08 22:00","2004","04","08","22:00","3.0","","-4.8","","56","","34","","15","","25.0","","99.15","","","","","","Mainly Clear"
"2004-04-08 23:00","2004","04","08","23:00","3.2","","-11.4","","33","","36","","22","","25.0","","99.21","","","","","","Mainly Clear"
"2004-04-09 00:00","2004","04","09","00:00","2.1","","-12.4","","33","","36","","22","","25.0","","99.24","","","","","","Mainly Clear"
"2004-04-09 01:00","2004","04","09","01:00","1.0","","-11.4","","39","","36","","13","","25.0","","99.31","","","","","","Mostly Cloudy"
"2004-04-09 02:00","2004","04","09","02:00","-0.6","","-9.9","","49","","33","","13","","25.0","","99.33","","","","-5","","Mostly Cloudy"
"2004-04-09 03:00","2004","04","09","03:00","-2.2","","-9.7","","56","","31","","11","","25.0","","99.38","","","","-6","","Mainly Clear"
"2004-04-09 04:00","2004","04","09","04:00","-2.9","","-8.8","","64","","32","","15","","25.0","","99.45","","","","-8","","Mainly Clear"
"2004-04-09 05:00","2004","04","09","05:00","-2.6","","-8.3","","65","","31","","13","","24.1","","99.51","","","","-7","","Mostly Cloudy"
"2004-04-09 06:00","2004","04","09","06:00","-2.8","","-8.6","","64","","32","","13","","24.1","","99.58","","","","-7","","Mostly Cloudy"
"2004-04-09 07:00","2004","04","09","07:00","-1.1","","-9.0","","55","","32","","15","","24.1","","99.66","","","","-6","","Mostly Cloudy"
"2004-04-09 08:00","2004","04","09","08:00","0.2","","-9.4","","48","","32","","11","","24.1","","99.66","","","","","","Mostly Cloudy"
"2004-04-09 09:00","2004","04","09","09:00","0.6","","-8.9","","49","","29","","17","","24.1","","99.68","","","","","","Mainly Clear"
"2004-04-09 10:00","2004","04","09","10:00","2.2","","-8.3","","46","","29","","15","","24.1","","99.67","","","","","","Mainly Clear"
"2004-04-09 11:00","2004","04","09","11:00","2.7","","-7.7","","46","","28","","19","","24.1","","99.68","","","","","","Mainly Clear"
"2004-04-09 12:00","2004","04","09","12:00","4.0","","-7.1","","44","","27","","15","","24.1","","99.66","","","","","","Mainly Clear"
"2004-04-09 13:00","2004","04","09","13:00","6.2","","-5.9","","42","","31","","17","","24.1","","99.63","","","","","","Mainly Clear"
"2004-04-09 14:00","2004","04","09","14:00","6.8","","-5.3","","42","","28","","13","","32.2","","99.63","","","","","","Mainly Clear"
"2004-04-09 15:00","2004","04","09","15:00","7.4","","-5.3","","40","","29","","22","","32.2","","99.63","","","","","","Mostly Cloudy"
"2004-04-09 16:00","2004","04","09","16:00","8.1","","-5.8","","37","","29","","24","","32.2","","99.58","","","","","","Mostly Cloudy"
"2004-04-09 17:00","2004","04","09","17:00","8.2","","-6.0","","36","","30","","22","","32.2","","99.56","","","","","","Mostly Cloudy"
"2004-04-09 18:00","2004","04","09","18:00","7.5","","-6.0","","38","","30","","19","","32.2","","99.58","","","","","","Mainly Clear"
"2004-04-09 19:00","2004","04","09","19:00","5.9","","-6.8","","40","","29","","20","","32.2","","99.64","","","","","","Mainly Clear"
"2004-04-09 20:00","2004","04","09","20:00","4.2","","-6.6","","45","","29","","19","","25.0","","99.74","","","","","","Mainly Clear"
"2004-04-09 21:00","2004","04","09","21:00","3.4","","-6.7","","48","","30","","24","","25.0","","99.79","","","","","","Mainly Clear"
"2004-04-09 22:00","2004","04","09","22:00","1.9","","-7.2","","51","","31","","19","","25.0","","99.80","","","","","","Mainly Clear"
"2004-04-09 23:00","2004","04","09","23:00","0.9","","-7.0","","55","","30","","17","","25.0","","99.88","","","","","","Mainly Clear"
"2004-04-10 00:00","2004","04","10","00:00","-0.5","","-7.2","","60","","30","","11","","25.0","","99.93","","","","-4","","Mainly Clear"
"2004-04-10 01:00","2004","04","10","01:00","-1.4","","-7.1","","65","","31","","11","","25.0","","99.93","","","","-5","","Mainly Clear"
"2004-04-10 02:00","2004","04","10","02:00","-1.5","","-6.6","","68","","27","","9","","25.0","","99.94","","","","-5","","Mostly Cloudy"
"2004-04-10 03:00","2004","04","10","03:00","-2.8","","-6.9","","73","","29","","11","","25.0","","99.92","","","","-7","","Mainly Clear"
"2004-04-10 04:00","2004","04","10","04:00","-3.3","","-7.1","","75","","32","","9","","25.0","","99.95","","","","-7","","Mainly Clear"
"2004-04-10 05:00","2004","04","10","05:00","-3.9","","-7.2","","78","","32","","9","","25.0","","99.97","","","","-8","","Mainly Clear"
"2004-04-10 06:00","2004","04","10","06:00","-3.4","","-6.2","","81","","32","","9","","32.2","","100.04","","","","-7","","Mainly Clear"
"2004-04-10 07:00","2004","04","10","07:00","-1.9","","-5.8","","75","","32","","11","","32.2","","100.12","","","","-6","","Mostly Cloudy"
"2004-04-10 08:00","2004","04","10","08:00","-0.9","","-6.3","","67","","32","","13","","32.2","","100.15","","","","-5","","Mostly Cloudy"
"2004-04-10 09:00","2004","04","10","09:00","0.3","","-7.3","","57","","27","","20","","32.2","","100.14","","","","","","Mostly Cloudy"
"2004-04-10 10:00","2004","04","10","10:00","0.6","","-8.4","","51","","29","","19","","32.2","","100.14","","","","","","Mainly Clear"
"2004-04-10 11:00","2004","04","10","11:00","2.0","","-8.0","","47","","29","","22","","32.2","","100.13","","","","","","Mostly Cloudy"
"2004-04-10 12:00","2004","04","10","12:00","2.3","","-7.9","","47","","30","","28","","32.2","","100.14","","","","","","Mostly Cloudy"
"2004-04-10 13:00","2004","04","10","13:00","3.6","","-7.3","","45","","31","","20","","32.2","","100.15","","","","","","Mostly Cloudy"
"2004-04-10 14:00","2004","04","10","14:00","3.6","","-7.7","","43","","29","","28","","32.2","","100.14","","","","","","Mostly Cloudy"
"2004-04-10 15:00","2004","04","10","15:00","3.9","","-8.1","","41","","31","","30","","32.2","","100.13","","","","","","Mainly Clear"
"2004-04-10 16:00","2004","04","10","16:00","4.6","","-8.2","","39","","31","","32","","32.2","","100.11","","","","","","Mainly Clear"
"2004-04-10 17:00","2004","04","10","17:00","4.4","","-8.3","","39","","32","","22","","32.2","","100.14","","","","","","Mainly Clear"
"2004-04-10 18:00","2004","04","10","18:00","3.7","","-8.5","","40","","31","","17","","32.2","","100.20","","","","","","Mostly Cloudy"
"2004-04-10 19:00","2004","04","10","19:00","2.3","","-8.7","","44","","34","","13","","25.0","","100.25","","","","","","Mainly Clear"
"2004-04-10 20:00","2004","04","10","20:00","1.2","","-8.5","","48","","35","","7","","25.0","","100.32","","","","","","Mainly Clear"
"2004-04-10 21:00","2004","04","10","21:00","1.3","","-8.4","","48","","6","","9","","25.0","","100.33","","","","","","Clear"
"2004-04-10 22:00","2004","04","10","22:00","0.4","","-8.4","","52","","2","","9","","25.0","","100.38","","","","","","Mainly Clear"
"2004-04-10 23:00","2004","04","10","23:00","0.3","","-8.0","","54","","36","","4","","25.0","","100.41","","","","","","Mostly Cloudy"
"2004-04-11 00:00","2004","04","11","00:00","0.4","","-7.9","","54","","35","","7","","25.0","","100.43","","","","","","Cloudy"
"2004-04-11 01:00","2004","04","11","01:00","-0.7","","-8.2","","57","","1","","11","","25.0","","100.42","","","","-4","","Mainly Clear"
"2004-04-11 02:00","2004","04","11","02:00","-0.6","","-7.8","","58","","1","","7","","25.0","","100.46","","","","-3","","Mostly Cloudy"
"2004-04-11 03:00","2004","04","11","03:00","-1.4","","-8.1","","60","","1","","6","","25.0","","100.51","","","","-4","","Mainly Clear"
"2004-04-11 04:00","2004","04","11","04:00","-2.3","","-8.0","","65","","32","","4","","25.0","","100.55","","","","-4","","Mostly Cloudy"
"2004-04-11 05:00","2004","04","11","05:00","-2.0","","-7.3","","67","","31","","7","","25.0","","100.60","","","","-5","","Mostly Cloudy"
"2004-04-11 06:00","2004","04","11","06:00","-2.1","","-7.9","","64","","30","","6","","32.2","","100.70","","","","-4","","Mainly Clear"
"2004-04-11 07:00","2004","04","11","07:00","-0.5","","-6.9","","62","","31","","9","","32.2","","100.76","","","","-4","","Mainly Clear"
"2004-04-11 08:00","2004","04","11","08:00","0.5","","-8.7","","50","","32","","11","","32.2","","100.79","","","","","","Clear"
"2004-04-11 09:00","2004","04","11","09:00","1.8","","-8.0","","48","","29","","9","","32.2","","100.83","","","","","","Mainly Clear"
"2004-04-11 10:00","2004","04","11","10:00","2.5","","-8.1","","45","","25","","6","","32.2","","100.83","","","","","","Mainly Clear"
"2004-04-11 11:00","2004","04","11","11:00","3.6","","-7.5","","44","","29","","9","","32.2","","100.83","","","","","","Mainly Clear"
"2004-04-11 12:00","2004","04","11","12:00","4.7","","-7.4","","41","","27","","17","","32.2","","100.82","","","","","","Mainly Clear"
"2004-04-11 13:00","2004","04","11","13:00","5.5","","-7.5","","39","","28","","13","","32.2","","100.80","","","","","","Mostly Cloudy"
"2004-04-11 14:00","2004","04","11","14:00","4.7","","-7.2","","42","","25","","11","","32.2","","100.79","","","","","","Mostly Cloudy"
"2004-04-11 15:00","2004","04","11","15:00","4.9","","-7.6","","40","","29","","19","","32.2","","100.78","","","","","","Mostly Cloudy"
"2004-04-11 16:00","2004","04","11","16:00","5.8","","-7.6","","37","","27","","17","","32.2","","100.81","","","","","","Mostly Cloudy"
"2004-04-11 17:00","2004","04","11","17:00","4.7","","-8.2","","39","","36","","6","","32.2","","100.84","","","","","","Mostly Cloudy"
"2004-04-11 18:00","2004","04","11","18:00","4.6","","-8.7","","37","","35","","13","","32.2","","100.86","","","","","","Mostly Cloudy"
"2004-04-11 19:00","2004","04","11","19:00","3.6","","-8.6","","40","","1","","6","","32.2","","100.91","","","","","","Mainly Clear"
"2004-04-11 20:00","2004","04","11","20:00","2.0","","-8.5","","46","","7","","4","","25.0","","100.98","","","","","","Mainly Clear"
"2004-04-11 21:00","2004","04","11","21:00","1.4","","-8.4","","48","","11","","4","","25.0","","101.02","","","","","","Mainly Clear"
"2004-04-11 22:00","2004","04","11","22:00","0.6","","-7.8","","53","","14","","6","","25.0","","101.00","","","","","","Clear"
"2004-04-11 23:00","2004","04","11","23:00","1.0","","-7.7","","52","","16","","7","","25.0","","101.04","","","","","","Mainly Clear"
"2004-04-12 00:00","2004","04","12","00:00","0.3","","-7.7","","55","","","","0","","25.0","","101.04","","","","","","Clear"
"2004-04-12 01:00","2004","04","12","01:00","-0.7","","-7.4","","60","","","","0","","25.0","","101.08","","","","","","Mainly Clear"
"2004-04-12 02:00","2004","04","12","02:00","0.6","","-7.2","","56","","6","","6","","25.0","","101.08","","","","","","Mostly Cloudy"
"2004-04-12 03:00","2004","04","12","03:00","0.1","","-7.1","","58","","5","","6","","25.0","","101.10","","","","","","Mostly Cloudy"
"2004-04-12 04:00","2004","04","12","04:00","-0.7","","-6.1","","67","","4","","11","","25.0","","101.12","","","","-4","","Mostly Cloudy"
"2004-04-12 05:00","2004","04","12","05:00","-1.6","","-6.5","","69","","7","","4","","25.0","","101.16","","","","-3","","Mostly Cloudy"
"2004-04-12 06:00","2004","04","12","06:00","-0.6","","-6.8","","63","","5","","6","","32.2","","101.22","","","","-3","","Mainly Clear"
"2004-04-12 07:00","2004","04","12","07:00","1.1","","-6.2","","58","","4","","6","","32.2","","101.33","","","","","","Mainly Clear"
"2004-04-12 08:00","2004","04","12","08:00","3.7","","-6.1","","49","","","","0","","32.2","","101.37","","","","","","Mainly Clear"
"2004-04-12 09:00","2004","04","12","09:00","5.5","","-5.5","","45","","14","","9","","32.2","","101.38","","","","","","Mainly Clear"
"2004-04-12 10:00","2004","04","12","10:00","6.2","","-5.8","","42","","18","","7","","32.2","","101.36","","","","","","Clear"
"2004-04-12 11:00","2004","04","12","11:00","5.9","","-5.9","","42","","15","","6","","32.2","","101.32","","","","","","Mainly Clear"
"2004-04-12 12:00","2004","04","12","12:00","6.2","","-6.6","","39","","11","","6","","32.2","","101.28","","","","","","Mostly Cloudy"
"2004-04-12 13:00","2004","04","12","13:00","8.2","","-6.8","","34","","9","","7","","32.2","","101.18","","","","","","Mostly Cloudy"
"2004-04-12 14:00","2004","04","12","14:00","8.6","","-5.9","","35","","8","","13","","32.2","","101.19","","","","","","Mostly Cloudy"
"2004-04-12 15:00","2004","04","12","15:00","8.9","","-5.8","","35","","10","","6","","32.2","","101.21","","","","","","Mostly Cloudy"
"2004-04-12 16:00","2004","04","12","16:00","8.3","","-6.5","","34","","8","","9","","32.2","","101.11","","","","","","Mostly Cloudy"
"2004-04-12 17:00","2004","04","12","17:00","8.4","","-6.0","","35","","10","","17","","32.2","","101.13","","","","","","Mostly Cloudy"
"2004-04-12 18:00","2004","04","12","18:00","7.6","","-6.6","","36","","11","","9","","32.2","","101.12","","","","","","Cloudy"
"2004-04-12 19:00","2004","04","12","19:00","6.2","","-5.6","","42","","7","","9","","32.2","","101.07","","","","","","Cloudy"
"2004-04-12 20:00","2004","04","12","20:00","4.8","","-4.6","","51","","9","","15","","25.0","","101.10","","","","","","Cloudy"
"2004-04-12 21:00","2004","04","12","21:00","4.8","","-4.9","","49","","9","","17","","25.0","","101.13","","","","","","Cloudy"
"2004-04-12 22:00","2004","04","12","22:00","4.8","","-5.4","","48","","7","","20","","25.0","","101.04","","","","","","Cloudy"
"2004-04-12 23:00","2004","04","12","23:00","4.7","","-5.7","","47","","7","","26","","25.0","","100.96","","","","","","Cloudy"
"2004-04-13 00:00","2004","04","13","00:00","4.0","","-5.2","","51","","9","","19","","25.0","","100.92","","","","","","Cloudy"
"2004-04-13 01:00","2004","04","13","01:00","3.7","","-4.6","","55","","9","","13","","25.0","","100.86","","","","","","Cloudy"
"2004-04-13 02:00","2004","04","13","02:00","2.4","","-1.9","","73","","11","","22","","9.7","","100.84","","","","","","Snow"
"2004-04-13 03:00","2004","04","13","03:00","0.6","","0.1","","96","","7","","19","","8.0","","100.79","","","","","","Snow"
"2004-04-13 04:00","2004","04","13","04:00","0.3","","0.0","","98","","6","","22","","4.0","","100.66","","","","","","Snow"
"2004-04-13 05:00","2004","04","13","05:00","0.3","","0.1","","99","","4","","22","","12.9","","100.60","","","","","","Snow"
"2004-04-13 06:00","2004","04","13","06:00","0.6","","0.2","","97","","7","","24","","4.0","","100.54","","","","","","Snow"
"2004-04-13 07:00","2004","04","13","07:00","0.8","","0.5","","98","","6","","19","","4.0","","100.46","","","","","","Snow,Fog"
"2004-04-13 08:00","2004","04","13","08:00","1.3","","1.0","","98","","7","","28","","4.8","","100.40","","","","","","Rain,Fog"
"2004-04-13 09:00","2004","04","13","09:00","1.9","","1.6","","98","","9","","28","","4.0","","100.35","","","","","","Rain,Fog"
"2004-04-13 10:00","2004","04","13","10:00","2.3","","2.1","","99","","8","","22","","3.2","","100.34","","","","","","Rain,Fog"
"2004-04-13 11:00","2004","04","13","11:00","2.8","","2.6","","99","","8","","24","","6.4","","100.23","","","","","","Rain,Fog"
"2004-04-13 12:00","2004","04","13","12:00","3.8","","3.6","","99","","8","","24","","12.9","","100.06","","","","","","Rain"
"2004-04-13 13:00","2004","04","13","13:00","4.2","","3.9","","98","","9","","20","","12.9","","99.98","","","","","","Cloudy"
"2004-04-13 14:00","2004","04","13","14:00","4.2","","4.0","","99","","7","","19","","4.0","","99.88","","","","","","Fog"
"2004-04-13 15:00","2004","04","13","15:00","4.0","","3.9","","99","","6","","19","","3.2","","99.73","","","","","","Rain,Fog"
"2004-04-13 16:00","2004","04","13","16:00","4.0","","3.9","","99","","5","","17","","4.0","","99.67","","","","","","Rain,Fog"
"2004-04-13 17:00","2004","04","13","17:00","3.8","","3.8","","100","","4","","19","","4.8","","99.60","","","","","","Rain,Fog"
"2004-04-13 18:00","2004","04","13","18:00","3.8","","3.7","","99","","4","","19","","6.4","","99.49","","","","","","Rain,Fog"
"2004-04-13 19:00","2004","04","13","19:00","3.9","","3.8","","99","","2","","13","","6.4","","99.45","","","","","","Rain,Fog"
"2004-04-13 20:00","2004","04","13","20:00","3.6","","3.4","","99","","36","","15","","9.7","","99.42","","","","","","Rain"
"2004-04-13 21:00","2004","04","13","21:00","2.9","","2.7","","99","","36","","19","","12.9","","99.39","","","","","","Rain"
"2004-04-13 22:00","2004","04","13","22:00","2.5","","2.3","","99","","36","","17","","12.9","","99.26","","","","","","Rain"
"2004-04-13 23:00","2004","04","13","23:00","2.5","","2.2","","98","","36","","15","","16.1","","99.24","","","","","","Rain"
"2004-04-14 00:00","2004","04","14","00:00","2.4","","2.0","","97","","36","","17","","25.0","","99.13","","","","","","Rain"
"2004-04-14 01:00","2004","04","14","01:00","2.1","","1.8","","98","","32","","15","","25.0","","99.17","","","","","","Rain"
"2004-04-14 02:00","2004","04","14","02:00","2.1","","1.4","","95","","32","","17","","25.0","","99.18","","","","","","Cloudy"
"2004-04-14 03:00","2004","04","14","03:00","1.9","","1.2","","95","","32","","24","","25.0","","99.23","","","","","","Cloudy"
"2004-04-14 04:00","2004","04","14","04:00","2.1","","1.3","","94","","31","","19","","12.9","","99.38","","","","","","Rain"
"2004-04-14 05:00","2004","04","14","05:00","2.0","","1.0","","93","","32","","19","","24.1","","99.45","","","","","","Rain"
"2004-04-14 06:00","2004","04","14","06:00","2.1","","1.3","","94","","32","","13","","24.1","","99.49","","","","","","Cloudy"
"2004-04-14 07:00","2004","04","14","07:00","2.5","","1.4","","92","","32","","13","","24.1","","99.63","","","","","","Mostly Cloudy"
"2004-04-14 08:00","2004","04","14","08:00","3.2","","1.5","","89","","32","","19","","24.1","","99.75","","","","","","Mostly Cloudy"
"2004-04-14 09:00","2004","04","14","09:00","3.9","","1.2","","83","","32","","17","","24.1","","99.82","","","","","","Mostly Cloudy"
"2004-04-14 10:00","2004","04","14","10:00","5.0","","1.5","","78","","34","","19","","24.1","","99.81","","","","","","Mostly Cloudy"
"2004-04-14 11:00","2004","04","14","11:00","5.8","","0.5","","69","","34","","19","","24.1","","99.86","","","","","","Mostly Cloudy"
"2004-04-14 12:00","2004","04","14","12:00","8.6","","-0.6","","52","","35","","19","","24.1","","99.87","","","","","","Mostly Cloudy"
"2004-04-14 13:00","2004","04","14","13:00","9.2","","-2.0","","45","","36","","15","","24.1","","99.87","","","","","","Mainly Clear"
"2004-04-14 14:00","2004","04","14","14:00","9.9","","-3.3","","39","","36","","32","","24.1","","99.82","","","","","","Mainly Clear"
"2004-04-14 15:00","2004","04","14","15:00","10.1","","-3.3","","39","","36","","24","","24.1","","99.87","","","","","","Mostly Cloudy"
"2004-04-14 16:00","2004","04","14","16:00","10.3","","-2.4","","41","","2","","15","","24.1","","99.86","","","","","","Mainly Clear"
"2004-04-14 17:00","2004","04","14","17:00","10.7","","-1.6","","42","","36","","11","","24.1","","99.86","","","","","","Mainly Clear"
"2004-04-14 18:00","2004","04","14","18:00","9.4","","-2.1","","44","","7","","11","","24.1","","99.90","","","","","","Mainly Clear"
"2004-04-14 19:00","2004","04","14","19:00","6.5","","-2.2","","54","","10","","7","","24.1","","99.96","","","","","","Mainly Clear"
"2004-04-14 20:00","2004","04","14","20:00","6.4","","-2.3","","54","","13","","4","","25.0","","100.05","","","","","","Mainly Clear"
"2004-04-14 21:00","2004","04","14","21:00","3.8","","-2.3","","64","","31","","4","","25.0","","100.17","","","","","","Mainly Clear"
"2004-04-14 22:00","2004","04","14","22:00","5.8","","-5.4","","44","","36","","13","","25.0","","100.22","","","","","","Mainly Clear"
"2004-04-14 23:00","2004","04","14","23:00","5.5","","-7.0","","40","","36","","19","","25.0","","100.28","","","","","","Mostly Cloudy"
"2004-04-15 00:00","2004","04","15","00:00","4.5","","-7.2","","42","","36","","15","","25.0","","100.33","","","","","","Mainly Clear"
"2004-04-15 01:00","2004","04","15","01:00","3.7","","-8.0","","42","","36","","15","","25.0","","100.36","","","","","","Mainly Clear"
"2004-04-15 02:00","2004","04","15","02:00","2.7","","-8.3","","44","","36","","15","","25.0","","100.40","","","","","","Clear"
"2004-04-15 03:00","2004","04","15","03:00","1.7","","-8.4","","47","","36","","15","","25.0","","100.48","","","","","","Clear"
"2004-04-15 04:00","2004","04","15","04:00","0.3","","-8.6","","51","","36","","13","","25.0","","100.52","","","","","","Clear"
"2004-04-15 05:00","2004","04","15","05:00","-0.6","","-8.5","","55","","35","","9","","24.1","","100.59","","","","-4","","Clear"
"2004-04-15 06:00","2004","04","15","06:00","-0.6","","-7.4","","60","","33","","13","","24.1","","100.71","","","","-5","","Clear"
"2004-04-15 07:00","2004","04","15","07:00","2.0","","-8.7","","45","","36","","17","","24.1","","100.84","","","","","","Clear"
"2004-04-15 08:00","2004","04","15","08:00","3.5","","-9.5","","38","","1","","19","","24.1","","100.94","","","","","","Clear"
"2004-04-15 09:00","2004","04","15","09:00","4.8","","-9.4","","35","","3","","20","","24.1","","100.98","","","","","","Clear"
"2004-04-15 10:00","2004","04","15","10:00","6.3","","-9.6","","31","","2","","24","","24.1","","101.00","","","","","","Clear"
"2004-04-15 11:00","2004","04","15","11:00","7.8","","-9.2","","29","","35","","30","","24.1","","100.99","","","","","","Clear"
"2004-04-15 12:00","2004","04","15","12:00","8.2","","-9.4","","28","","33","","26","","24.1","","100.97","","","","","","Clear"
"2004-04-15 13:00","2004","04","15","13:00","8.9","","-9.0","","27","","33","","20","","24.1","","100.95","","","","","","Clear"
"2004-04-15 14:00","2004","04","15","14:00","9.3","","-9.1","","26","","28","","19","","24.1","","100.94","","","","","","Clear"
"2004-04-15 15:00","2004","04","15","15:00","10.0","","-9.6","","24","","36","","19","","24.1","","100.93","","","","","","Clear"
"2004-04-15 16:00","2004","04","15","16:00","10.0","","-9.7","","24","","2","","17","","24.1","","100.94","","","","","","Clear"
"2004-04-15 17:00","2004","04","15","17:00","10.0","","-9.4","","24","","3","","17","","24.1","","100.98","","","","","","Clear"
"2004-04-15 18:00","2004","04","15","18:00","8.9","","-9.7","","26","","5","","13","","24.1","","101.02","","","","","","Clear"
"2004-04-15 19:00","2004","04","15","19:00","7.5","","-9.9","","28","","6","","9","","24.1","","101.04","","","","","","Clear"
"2004-04-15 20:00","2004","04","15","20:00","5.5","","-9.8","","32","","11","","6","","25.0","","101.10","","","","","","Clear"
"2004-04-15 21:00","2004","04","15","21:00","5.6","","-9.9","","32","","7","","6","","25.0","","101.16","","","","","","Clear"
"2004-04-15 22:00","2004","04","15","22:00","4.4","","-10.1","","34","","8","","6","","25.0","","101.17","","","","","","Clear"
"2004-04-15 23:00","2004","04","15","23:00","4.4","","-10.1","","34","","6","","11","","25.0","","101.19","","","","","","Clear"
"2004-04-16 00:00","2004","04","16","00:00","3.9","","-9.8","","36","","4","","9","","25.0","","101.21","","","","","","Clear"
"2004-04-16 01:00","2004","04","16","01:00","3.1","","-9.5","","39","","4","","9","","25.0","","101.22","","","","","","Clear"
"2004-04-16 02:00","2004","04","16","02:00","2.7","","-9.6","","40","","3","","4","","25.0","","101.27","","","","","","Clear"
"2004-04-16 03:00","2004","04","16","03:00","1.8","","-8.8","","45","","6","","7","","25.0","","101.31","","","","","","Clear"
"2004-04-16 04:00","2004","04","16","04:00","0.2","","-8.8","","51","","3","","7","","25.0","","101.35","","","","","","Clear"
"2004-04-16 05:00","2004","04","16","05:00","-0.2","","-8.1","","55","","5","","9","","25.0","","101.39","","","","-3","","Clear"
"2004-04-16 06:00","2004","04","16","06:00","0.6","","-8.5","","50","","6","","9","","32.2","","101.45","","","","","","Clear"
"2004-04-16 07:00","2004","04","16","07:00","2.3","","-7.3","","49","","9","","9","","32.2","","101.49","","","","","","Mainly Clear"
"2004-04-16 08:00","2004","04","16","08:00","4.9","","-8.3","","38","","12","","15","","32.2","","101.50","","","","","","Mainly Clear"
"2004-04-16 09:00","2004","04","16","09:00","6.4","","-8.8","","33","","10","","17","","32.2","","101.50","","","","","","Mainly Clear"
"2004-04-16 10:00","2004","04","16","10:00","8.5","","-8.1","","30","","11","","13","","32.2","","101.46","","","","","","Mainly Clear"
"2004-04-16 11:00","2004","04","16","11:00","9.7","","-7.7","","28","","19","","9","","32.2","","101.40","","","","","","Mainly Clear"
"2004-04-16 12:00","2004","04","16","12:00","10.3","","-7.5","","28","","17","","13","","32.2","","101.31","","","","","","Mainly Clear"
"2004-04-16 13:00","2004","04","16","13:00","10.8","","-7.5","","27","","17","","7","","32.2","","101.22","","","","","","Mostly Cloudy"
"2004-04-16 14:00","2004","04","16","14:00","11.6","","-6.3","","28","","15","","7","","32.2","","101.12","","","","","","Mostly Cloudy"
"2004-04-16 15:00","2004","04","16","15:00","12.5","","-6.2","","27","","14","","4","","32.2","","100.96","","","","","","Mainly Clear"
"2004-04-16 16:00","2004","04","16","16:00","12.4","","-6.0","","27","","13","","7","","32.2","","100.93","","","","","","Mostly Cloudy"
"2004-04-16 17:00","2004","04","16","17:00","12.1","","-6.1","","27","","15","","7","","32.2","","100.93","","","","","","Mostly Cloudy"
"2004-04-16 18:00","2004","04","16","18:00","10.6","","-5.1","","33","","12","","7","","32.2","","100.91","","","","","","Mostly Cloudy"
"2004-04-16 19:00","2004","04","16","19:00","9.7","","-3.9","","38","","11","","9","","32.2","","100.83","","","","","","Cloudy"
"2004-04-16 20:00","2004","04","16","20:00","8.8","","-0.7","","51","","10","","19","","19.3","","100.83","","","","","","Rain"
"2004-04-16 21:00","2004","04","16","21:00","8.3","","-3.1","","44","","13","","13","","24.1","","100.81","","","","","","Cloudy"
"2004-04-16 22:00","2004","04","16","22:00","7.9","","-3.1","","46","","10","","13","","25.0","","100.77","","","","","","Cloudy"
"2004-04-16 23:00","2004","04","16","23:00","7.5","","-3.0","","47","","11","","11","","25.0","","100.74","","","","","","Cloudy"
"2004-04-17 00:00","2004","04","17","00:00","7.2","","-2.4","","50","","9","","9","","25.0","","100.75","","","","","","Cloudy"
"2004-04-17 01:00","2004","04","17","01:00","5.8","","-1.8","","58","","7","","7","","25.0","","100.69","","","","","","Mostly Cloudy"
"2004-04-17 02:00","2004","04","17","02:00","6.4","","-2.9","","51","","7","","11","","25.0","","100.63","","","","","","Cloudy"
"2004-04-17 03:00","2004","04","17","03:00","5.1","","-3.1","","55","","7","","13","","25.0","","100.53","","","","","","Mostly Cloudy"
"2004-04-17 04:00","2004","04","17","04:00","4.8","","-2.9","","57","","6","","11","","25.0","","100.48","","","","","","Mostly Cloudy"
"2004-04-17 05:00","2004","04","17","05:00","4.5","","-2.4","","61","","8","","15","","24.1","","100.39","","","","","","Cloudy"
"2004-04-17 06:00","2004","04","17","06:00","4.6","","-2.0","","62","","5","","13","","24.1","","100.47","","","","","","Mostly Cloudy"
"2004-04-17 07:00","2004","04","17","07:00","5.4","","-1.6","","61","","8","","15","","24.1","","100.41","","","","","","Mostly Cloudy"
"2004-04-17 08:00","2004","04","17","08:00","7.2","","-1.4","","54","","7","","15","","24.1","","100.35","","","","","","Cloudy"
"2004-04-17 09:00","2004","04","17","09:00","8.5","","-0.6","","53","","5","","9","","19.3","","100.32","","","","","","Cloudy"
"2004-04-17 10:00","2004","04","17","10:00","8.5","","-1.0","","51","","5","","11","","24.1","","100.28","","","","","","Thunderstorms"
"2004-04-17 11:00","2004","04","17","11:00","6.7","","3.8","","82","","33","","9","","12.9","","100.46","","","","","","Rain Showers"
"2004-04-17 12:00","2004","04","17","12:00","6.7","","5.1","","90","","9","","9","","12.9","","100.30","","","","","","Rain Showers"
"2004-04-17 13:00","2004","04","17","13:00","8.2","","5.7","","84","","27","","6","","16.1","","100.39","","","","","","Mostly Cloudy"
"2004-04-17 14:00","2004","04","17","14:00","8.7","","5.9","","83","","22","","6","","24.1","","100.40","","","","","","Cloudy"
"2004-04-17 15:00","2004","04","17","15:00","10.1","","6.6","","79","","27","","7","","19.3","","100.37","","","","","","Mostly Cloudy"
"2004-04-17 16:00","2004","04","17","16:00","9.3","","5.5","","77","","30","","17","","19.3","","100.47","","","","","","Mostly Cloudy"
"2004-04-17 17:00","2004","04","17","17:00","9.3","","4.4","","71","","31","","20","","19.3","","100.62","","","","","","Mostly Cloudy"
"2004-04-17 18:00","2004","04","17","18:00","9.7","","4.9","","72","","27","","11","","19.3","","100.64","","","","","","Mostly Cloudy"
"2004-04-17 19:00","2004","04","17","19:00","6.8","","3.9","","82","","30","","11","","19.3","","100.75","","","","","","Mainly Clear"
"2004-04-17 20:00","2004","04","17","20:00","6.3","","4.6","","89","","33","","11","","19.3","","100.89","","","","","","Mainly Clear"
"2004-04-17 21:00","2004","04","17","21:00","6.6","","5.2","","91","","","","0","","19.3","","100.99","","","","","","Mostly Cloudy"
"2004-04-17 22:00","2004","04","17","22:00","6.4","","5.4","","93","","","","0","","19.3","","101.02","","","","","","Mostly Cloudy"
"2004-04-17 23:00","2004","04","17","23:00","5.9","","5.4","","97","","","","0","","16.1","","101.08","","","","","","Mostly Cloudy"
"2004-04-18 00:00","2004","04","18","00:00","5.2","","5.2","","100","","32","","6","","16.1","","101.12","","","","","","Mainly Clear"
"2004-04-18 01:00","2004","04","18","01:00","3.8","","3.8","","100","","18","","7","","0.8","","101.17","","","","","","Fog"
"2004-04-18 02:00","2004","04","18","02:00","4.1","","4.1","","100","","18","","6","","0.8","","101.20","","","","","","Fog"
"2004-04-18 03:00","2004","04","18","03:00","3.3","","3.3","","100","","","","0","","4.8","","101.26","","","","","","Fog"
"2004-04-18 04:00","2004","04","18","04:00","3.7","","3.7","","100","","","","0","","4.8","","101.25","","","","","","Fog"
"2004-04-18 05:00","2004","04","18","05:00","3.0","","3.0","","100","","4","","13","","1.2","","101.27","","","","","","Fog"
"2004-04-18 06:00","2004","04","18","06:00","2.2","","2.2","","100","","4","","11","","0.2","","101.37","","","","","","Fog"
"2004-04-18 07:00","2004","04","18","07:00","4.0","","4.0","","100","","4","","17","","4.0","","101.46","","","","","","Fog"
"2004-04-18 08:00","2004","04","18","08:00","5.9","","5.0","","94","","6","","15","","16.1","","101.43","","","","","","Cloudy"
"2004-04-18 09:00","2004","04","18","09:00","7.5","","5.7","","88","","9","","11","","16.1","","101.52","","","","","","Cloudy"
"2004-04-18 10:00","2004","04","18","10:00","8.7","","5.4","","80","","9","","17","","19.3","","101.51","","","","","","Cloudy"
"2004-04-18 11:00","2004","04","18","11:00","10.0","","5.6","","74","","8","","20","","24.1","","101.48","","","","","","Cloudy"
"2004-04-18 12:00","2004","04","18","12:00","10.3","","5.3","","71","","9","","17","","24.1","","101.42","","","","","","Cloudy"
"2004-04-18 13:00","2004","04","18","13:00","10.5","","4.8","","68","","11","","19","","24.1","","101.33","","","","","","Cloudy"
"2004-04-18 14:00","2004","04","18","14:00","9.7","","4.3","","69","","8","","15","","24.1","","101.27","","","","","","Cloudy"
"2004-04-18 15:00","2004","04","18","15:00","9.9","","4.7","","70","","8","","19","","24.1","","101.10","","","","","","Cloudy"
"2004-04-18 16:00","2004","04","18","16:00","11.5","","5.1","","65","","8","","24","","24.1","","100.93","","","","","","Mostly Cloudy"
"2004-04-18 17:00","2004","04","18","17:00","11.3","","5.0","","65","","9","","28","","24.1","","100.82","","","","","","Mostly Cloudy"
"2004-04-18 18:00","2004","04","18","18:00","10.5","","4.6","","67","","9","","22","","24.1","","100.67","","","","","","Cloudy"
"2004-04-18 19:00","2004","04","18","19:00","10.3","","5.1","","70","","9","","19","","24.1","","100.49","","","","","","Cloudy"
"2004-04-18 20:00","2004","04","18","20:00","10.2","","5.8","","74","","9","","22","","24.1","","100.39","","","","","","Cloudy"
"2004-04-18 21:00","2004","04","18","21:00","10.0","","5.7","","75","","9","","26","","24.1","","100.18","","","","","","Cloudy"
"2004-04-18 22:00","2004","04","18","22:00","9.8","","6.0","","77","","8","","19","","24.1","","100.08","","","","","","Cloudy"
"2004-04-18 23:00","2004","04","18","23:00","9.4","","6.0","","79","","10","","11","","24.1","","99.91","","","","","","Mostly Cloudy"
"2004-04-19 00:00","2004","04","19","00:00","9.0","","6.4","","84","","11","","11","","19.3","","99.75","","","","","","Cloudy"
"2004-04-19 01:00","2004","04","19","01:00","10.9","","8.4","","85","","15","","11","","19.3","","99.77","","","","","","Cloudy"
"2004-04-19 02:00","2004","04","19","02:00","10.7","","8.7","","87","","17","","13","","19.3","","99.61","","","","","","Cloudy"
"2004-04-19 03:00","2004","04","19","03:00","11.9","","10.0","","88","","20","","13","","19.3","","99.51","","","","","","Cloudy"
"2004-04-19 04:00","2004","04","19","04:00","15.6","","10.6","","72","","22","","17","","19.3","","99.43","","","","","","Cloudy"
"2004-04-19 05:00","2004","04","19","05:00","17.6","","9.6","","59","","21","","26","","19.3","","99.37","","","","","","Mostly Cloudy"
"2004-04-19 06:00","2004","04","19","06:00","17.3","","8.9","","58","","23","","22","","24.1","","99.37","","","","","","Mostly Cloudy"
"2004-04-19 07:00","2004","04","19","07:00","18.0","","8.7","","55","","22","","26","","19.3","","99.33","","","","","","Mostly Cloudy"
"2004-04-19 08:00","2004","04","19","08:00","17.9","","8.6","","54","","21","","30","","24.1","","99.27","","","","","","Mostly Cloudy"
"2004-04-19 09:00","2004","04","19","09:00","18.3","","8.9","","54","","21","","28","","24.1","","99.19","","","","","","Mostly Cloudy"
"2004-04-19 10:00","2004","04","19","10:00","20.5","","9.2","","48","","21","","32","","24.1","","99.03","","","","","","Mostly Cloudy"
"2004-04-19 11:00","2004","04","19","11:00","18.7","","10.7","","60","","20","","35","","19.3","","98.91","","","","","","Rain Showers"
"2004-04-19 12:00","2004","04","19","12:00","17.4","","12.1","","71","","22","","28","","16.1","","99.04","","","","","","Thunderstorms,Rain Showers"
"2004-04-19 13:00","2004","04","19","13:00","16.2","","12.9","","81","","22","","32","","24.1","","99.01","","","","","","Thunderstorms,Rain Showers"
"2004-04-19 14:00","2004","04","19","14:00","16.6","","12.8","","78","","21","","33","","24.1","","98.91","","","","","","Cloudy"
"2004-04-19 15:00","2004","04","19","15:00","18.1","","12.9","","72","","22","","30","","24.1","","98.80","","","","","","Mostly Cloudy"
"2004-04-19 16:00","2004","04","19","16:00","20.5","","13.0","","62","","22","","33","","24.1","","98.66","","","","","","Mostly Cloudy"
"2004-04-19 17:00","2004","04","19","17:00","16.6","","14.6","","88","","24","","19","","19.3","","98.81","","","","","","Rain Showers"
"2004-04-19 18:00","2004","04","19","18:00","17.5","","14.0","","80","","24","","28","","16.1","","98.83","","","","","","Mostly Cloudy"
"2004-04-19 19:00","2004","04","19","19:00","16.9","","13.5","","80","","27","","26","","19.3","","98.96","","","","","","Rain Showers"
"2004-04-19 20:00","2004","04","19","20:00","11.8","","7.8","","76","","29","","39","","25.0","","99.29","","","","","","Cloudy"
"2004-04-19 21:00","2004","04","19","21:00","9.4","","4.8","","73","","30","","37","","25.0","","99.56","","","","","","Cloudy"
"2004-04-19 22:00","2004","04","19","22:00","7.2","","0.7","","63","","33","","41","","25.0","","99.80","","","","","","Mainly Clear"
"2004-04-19 23:00","2004","04","19","23:00","6.1","","0.6","","68","","31","","35","","25.0","","100.00","","","","","","Mostly Cloudy"
"2004-04-20 00:00","2004","04","20","00:00","4.9","","0.3","","72","","30","","28","","25.0","","100.13","","","","","","Mostly Cloudy"
"2004-04-20 01:00","2004","04","20","01:00","4.0","","-0.9","","70","","31","","32","","25.0","","100.29","","","","","","Mostly Cloudy"
"2004-04-20 02:00","2004","04","20","02:00","3.7","","-1.4","","69","","31","","28","","25.0","","100.38","","","","","","Mostly Cloudy"
"2004-04-20 03:00","2004","04","20","03:00","3.1","","-2.4","","67","","33","","22","","25.0","","100.49","","","","","","Mostly Cloudy"
"2004-04-20 04:00","2004","04","20","04:00","2.7","","-1.9","","72","","32","","19","","25.0","","100.58","","","","","","Mostly Cloudy"
"2004-04-20 05:00","2004","04","20","05:00","1.9","","-2.3","","74","","33","","19","","32.2","","100.70","","","","","","Mostly Cloudy"
"2004-04-20 06:00","2004","04","20","06:00","2.5","","-3.4","","65","","32","","20","","32.2","","100.83","","","","","","Mostly Cloudy"
"2004-04-20 07:00","2004","04","20","07:00","2.6","","-3.8","","63","","34","","22","","24.1","","100.88","","","","","","Mostly Cloudy"
"2004-04-20 08:00","2004","04","20","08:00","3.7","","-3.3","","60","","35","","15","","24.1","","100.87","","","","","","Mainly Clear"
"2004-04-20 09:00","2004","04","20","09:00","5.1","","-2.2","","59","","23","","11","","24.1","","100.91","","","","","","Mainly Clear"
"2004-04-20 10:00","2004","04","20","10:00","5.3","","-2.6","","57","","35","","6","","24.1","","100.87","","","","","","Clear"
"2004-04-20 11:00","2004","04","20","11:00","5.9","","-3.0","","53","","29","","7","","24.1","","100.87","","","","","","Clear"
"2004-04-20 12:00","2004","04","20","12:00","7.7","","-2.2","","49","","23","","9","","24.1","","100.88","","","","","","Clear"
"2004-04-20 13:00","2004","04","20","13:00","8.9","","-2.0","","46","","34","","9","","24.1","","100.84","","","","","","Clear"
"2004-04-20 14:00","2004","04","20","14:00","8.9","","-2.7","","44","","10","","4","","24.1","","100.76","","","","","","Mainly Clear"
"2004-04-20 15:00","2004","04","20","15:00","10.3","","-2.7","","40","","23","","4","","24.1","","100.71","","","","","","Mostly Cloudy"
"2004-04-20 16:00","2004","04","20","16:00","10.8","","-2.6","","39","","14","","4","","24.1","","100.64","","","","","","Mostly Cloudy"
"2004-04-20 17:00","2004","04","20","17:00","10.5","","-2.3","","41","","21","","6","","24.1","","100.65","","","","","","Mostly Cloudy"
"2004-04-20 18:00","2004","04","20","18:00","10.0","","-2.7","","41","","16","","6","","24.1","","100.66","","","","","","Cloudy"
"2004-04-20 19:00","2004","04","20","19:00","7.2","","-2.3","","51","","13","","7","","24.1","","100.64","","","","","","Mostly Cloudy"
"2004-04-20 20:00","2004","04","20","20:00","5.7","","-2.4","","56","","11","","9","","25.0","","100.66","","","","","","Mostly Cloudy"
"2004-04-20 21:00","2004","04","20","21:00","5.0","","-2.1","","60","","10","","9","","25.0","","100.62","","","","","","Mostly Cloudy"
"2004-04-20 22:00","2004","04","20","22:00","4.8","","-1.8","","62","","13","","7","","25.0","","100.63","","","","","","Cloudy"
"2004-04-20 23:00","2004","04","20","23:00","4.7","","-1.4","","65","","8","","7","","25.0","","100.55","","","","","","Cloudy"
"2004-04-21 00:00","2004","04","21","00:00","4.8","","-0.9","","67","","11","","15","","25.0","","100.51","","","","","","Mostly Cloudy"
"2004-04-21 01:00","2004","04","21","01:00","4.5","","-0.7","","69","","9","","20","","25.0","","100.38","","","","","","Mostly Cloudy"
"2004-04-21 02:00","2004","04","21","02:00","4.0","","-0.2","","74","","9","","19","","25.0","","100.31","","","","","","Cloudy"
"2004-04-21 03:00","2004","04","21","03:00","4.4","","0.0","","73","","9","","17","","25.0","","100.27","","","","","","Cloudy"
"2004-04-21 04:00","2004","04","21","04:00","4.5","","-0.5","","70","","9","","19","","25.0","","100.20","","","","","","Cloudy"
"2004-04-21 05:00","2004","04","21","05:00","4.3","","-0.3","","72","","9","","20","","24.1","","100.11","","","","","","Cloudy"
"2004-04-21 06:00","2004","04","21","06:00","4.8","","-0.6","","68","","8","","22","","24.1","","100.04","","","","","","Cloudy"
"2004-04-21 07:00","2004","04","21","07:00","5.4","","-0.1","","68","","8","","19","","24.1","","100.05","","","","","","Cloudy"
"2004-04-21 08:00","2004","04","21","08:00","6.2","","0.6","","67","","9","","24","","24.1","","99.91","","","","","","Cloudy"
"2004-04-21 09:00","2004","04","21","09:00","7.2","","1.4","","67","","9","","15","","24.1","","99.86","","","","","","Rain"
"2004-04-21 10:00","2004","04","21","10:00","8.6","","2.3","","65","","9","","17","","19.3","","99.76","","","","","","Rain"
"2004-04-21 11:00","2004","04","21","11:00","13.2","","4.8","","57","","12","","19","","24.1","","99.63","","","","","","Cloudy"
"2004-04-21 12:00","2004","04","21","12:00","18.6","","8.4","","51","","17","","22","","24.1","","99.53","","","","","","Mostly Cloudy"
"2004-04-21 13:00","2004","04","21","13:00","20.1","","9.2","","49","","18","","20","","24.1","","99.34","","","","","","Mostly Cloudy"
"2004-04-21 14:00","2004","04","21","14:00","21.6","","9.4","","46","","19","","28","","24.1","","99.27","","","","","","Mostly Cloudy"
"2004-04-21 15:00","2004","04","21","15:00","20.5","","9.2","","48","","19","","24","","24.1","","99.29","","","","","","Cloudy"
"2004-04-21 16:00","2004","04","21","16:00","16.7","","12.5","","76","","18","","13","","16.1","","99.31","","","","","","Rain Showers"
"2004-04-21 17:00","2004","04","21","17:00","17.2","","12.5","","74","","18","","17","","19.3","","99.24","","","","","","Cloudy"
"2004-04-21 18:00","2004","04","21","18:00","16.7","","12.9","","78","","20","","11","","19.3","","99.32","","","","","","Rain Showers"
"2004-04-21 19:00","2004","04","21","19:00","15.6","","12.5","","82","","20","","9","","16.1","","99.26","","","","","","Rain"
"2004-04-21 20:00","2004","04","21","20:00","14.9","","12.7","","87","","21","","6","","12.9","","99.37","","","","","","Rain"
"2004-04-21 21:00","2004","04","21","21:00","13.6","","13.3","","98","","14","","11","","6.4","","99.35","","","","","","Rain,Fog"
"2004-04-21 22:00","2004","04","21","22:00","13.8","","13.4","","97","","18","","15","","6.4","","99.41","","","","","","Moderate Rain,Fog"
"2004-04-21 23:00","2004","04","21","23:00","14.0","","13.9","","99","","18","","19","","9.7","","99.39","","","","","","Rain,Fog"
"2004-04-22 00:00","2004","04","22","00:00","14.6","","14.3","","98","","19","","19","","16.1","","99.37","","","","","","Rain"
"2004-04-22 01:00","2004","04","22","01:00","14.3","","13.9","","97","","18","","17","","19.3","","99.33","","","","","","Cloudy"
"2004-04-22 02:00","2004","04","22","02:00","14.1","","13.5","","96","","20","","17","","19.3","","99.37","","","","","","Rain"
"2004-04-22 03:00","2004","04","22","03:00","13.4","","12.9","","97","","22","","17","","19.3","","99.43","","","","","","Cloudy"
"2004-04-22 04:00","2004","04","22","04:00","13.6","","13.2","","97","","21","","15","","19.3","","99.44","","","","","","Cloudy"
"2004-04-22 05:00","2004","04","22","05:00","13.7","","13.0","","96","","21","","20","","16.1","","99.43","","","","","","Cloudy"
"2004-04-22 06:00","2004","04","22","06:00","13.4","","12.6","","95","","22","","17","","19.3","","99.52","","","","","","Mostly Cloudy"
"2004-04-22 07:00","2004","04","22","07:00","14.0","","12.5","","91","","22","","22","","24.1","","99.59","","","","","","Mainly Clear"
"2004-04-22 08:00","2004","04","22","08:00","15.0","","11.4","","79","","25","","22","","24.1","","99.68","","","","","","Mostly Cloudy"
"2004-04-22 09:00","2004","04","22","09:00","14.6","","8.2","","65","","26","","33","","24.1","","99.83","","","","","","Mostly Cloudy"
"2004-04-22 10:00","2004","04","22","10:00","12.7","","6.7","","67","","29","","39","","24.1","","100.00","","","","","","Mostly Cloudy"
"2004-04-22 11:00","2004","04","22","11:00","11.1","","6.7","","74","","31","","39","","24.1","","100.20","","","","","","Mostly Cloudy"
"2004-04-22 12:00","2004","04","22","12:00","11.4","","5.0","","65","","30","","30","","24.1","","100.31","","","","","","Mostly Cloudy"
"2004-04-22 13:00","2004","04","22","13:00","12.1","","4.4","","59","","30","","26","","24.1","","100.43","","","","","","Mainly Clear"
"2004-04-22 14:00","2004","04","22","14:00","12.6","","3.8","","55","","29","","22","","24.1","","100.48","","","","","","Mainly Clear"
"2004-04-22 15:00","2004","04","22","15:00","13.2","","3.0","","50","","30","","20","","24.1","","100.51","","","","","","Mainly Clear"
"2004-04-22 16:00","2004","04","22","16:00","13.4","","2.8","","49","","28","","24","","24.1","","100.55","","","","","","Mainly Clear"
"2004-04-22 17:00","2004","04","22","17:00","13.1","","2.7","","49","","29","","20","","24.1","","100.63","","","","","","Mainly Clear"
"2004-04-22 18:00","2004","04","22","18:00","11.6","","1.9","","51","","29","","20","","24.1","","100.70","","","","","","Mostly Cloudy"
"2004-04-22 19:00","2004","04","22","19:00","10.8","","0.7","","50","","33","","22","","24.1","","100.80","","","","","","Mostly Cloudy"
"2004-04-22 20:00","2004","04","22","20:00","9.7","","0.2","","52","","33","","13","","25.0","","100.88","","","","","","Mostly Cloudy"
"2004-04-22 21:00","2004","04","22","21:00","8.7","","0.7","","57","","1","","22","","25.0","","100.93","","","","","","Mostly Cloudy"
"2004-04-22 22:00","2004","04","22","22:00","6.4","","-1.0","","59","","1","","22","","25.0","","100.99","","","","","","Cloudy"
"2004-04-22 23:00","2004","04","22","23:00","4.5","","-1.7","","64","","3","","26","","25.0","","101.01","","","","","","Mainly Clear"
"2004-04-23 00:00","2004","04","23","00:00","3.0","","-3.0","","65","","1","","24","","25.0","","101.04","","","","","","Clear"
"2004-04-23 01:00","2004","04","23","01:00","1.9","","-3.9","","65","","36","","20","","25.0","","101.03","","","","","","Mostly Cloudy"
"2004-04-23 02:00","2004","04","23","02:00","0.9","","-4.2","","69","","2","","15","","25.0","","100.97","","","","","","Mostly Cloudy"
"2004-04-23 03:00","2004","04","23","03:00","0.3","","-4.3","","71","","3","","13","","25.0","","101.03","","","","","","Mostly Cloudy"
"2004-04-23 04:00","2004","04","23","04:00","-0.1","","-4.6","","72","","2","","11","","25.0","","101.05","","","","-4","","Mostly Cloudy"
"2004-04-23 05:00","2004","04","23","05:00","-0.5","","-5.1","","71","","3","","17","","24.1","","101.07","","","","-5","","Mostly Cloudy"
"2004-04-23 06:00","2004","04","23","06:00","-0.5","","-5.3","","70","","4","","15","","24.1","","101.16","","","","-5","","Mostly Cloudy"
"2004-04-23 07:00","2004","04","23","07:00","0.9","","-4.7","","66","","7","","26","","24.1","","101.17","","","","","","Mostly Cloudy"
"2004-04-23 08:00","2004","04","23","08:00","2.1","","-5.2","","58","","7","","26","","24.1","","101.15","","","","","","Mainly Clear"
"2004-04-23 09:00","2004","04","23","09:00","2.7","","-6.2","","52","","6","","20","","24.1","","101.14","","","","","","Mainly Clear"
"2004-04-23 10:00","2004","04","23","10:00","4.0","","-5.5","","50","","9","","19","","24.1","","101.11","","","","","","Mainly Clear"
"2004-04-23 11:00","2004","04","23","11:00","5.8","","-4.6","","47","","9","","13","","24.1","","101.03","","","","","","Mainly Clear"
"2004-04-23 12:00","2004","04","23","12:00","7.0","","-4.5","","44","","10","","11","","24.1","","100.92","","","","","","Mainly Clear"
"2004-04-23 13:00","2004","04","23","13:00","8.2","","-6.5","","35","","5","","13","","24.1","","100.86","","","","","","Mainly Clear"
"2004-04-23 14:00","2004","04","23","14:00","9.4","","-5.6","","34","","9","","11","","32.2","","100.72","","","","","","Mostly Cloudy"
"2004-04-23 15:00","2004","04","23","15:00","10.0","","-7.2","","29","","14","","6","","32.2","","100.65","","","","","","Mostly Cloudy"
"2004-04-23 16:00","2004","04","23","16:00","10.5","","-6.0","","31","","9","","7","","32.2","","100.56","","","","","","Mostly Cloudy"
"2004-04-23 17:00","2004","04","23","17:00","10.6","","-5.7","","31","","10","","9","","32.2","","100.54","","","","","","Cloudy"
"2004-04-23 18:00","2004","04","23","18:00","9.9","","-5.1","","34","","8","","7","","32.2","","100.45","","","","","","Cloudy"
"2004-04-23 19:00","2004","04","23","19:00","8.1","","-5.0","","39","","9","","7","","32.2","","100.36","","","","","","Mostly Cloudy"
"2004-04-23 20:00","2004","04","23","20:00","6.2","","-4.7","","45","","13","","11","","25.0","","100.39","","","","","","Mostly Cloudy"
"2004-04-23 21:00","2004","04","23","21:00","6.1","","-3.2","","51","","12","","9","","25.0","","100.42","","","","","","Mostly Cloudy"
"2004-04-23 22:00","2004","04","23","22:00","5.8","","-2.0","","57","","11","","9","","25.0","","100.30","","","","","","Mostly Cloudy"
"2004-04-23 23:00","2004","04","23","23:00","5.5","","-2.0","","58","","13","","6","","25.0","","100.20","","","","","","Mostly Cloudy"
"2004-04-24 00:00","2004","04","24","00:00","5.9","","-1.4","","59","","","","0","","25.0","","100.18","","","","","","Cloudy"
"2004-04-24 01:00","2004","04","24","01:00","6.4","","0.9","","68","","21","","6","","16.1","","100.13","","","","","","Rain Showers"
"2004-04-24 02:00","2004","04","24","02:00","6.0","","3.5","","84","","28","","13","","25.0","","100.17","","","","","","Mostly Cloudy"
"2004-04-24 03:00","2004","04","24","03:00","5.9","","0.6","","69","","28","","22","","25.0","","100.20","","","","","","Mostly Cloudy"
"2004-04-24 04:00","2004","04","24","04:00","5.5","","0.2","","69","","29","","19","","25.0","","100.28","","","","","","Mainly Clear"
"2004-04-24 05:00","2004","04","24","05:00","5.5","","0.8","","72","","29","","24","","25.0","","100.37","","","","","","Mainly Clear"
"2004-04-24 06:00","2004","04","24","06:00","5.8","","1.6","","74","","29","","22","","32.2","","100.51","","","","","","Mainly Clear"
"2004-04-24 07:00","2004","04","24","07:00","6.6","","1.3","","69","","29","","32","","32.2","","100.61","","","","","","Mainly Clear"
"2004-04-24 08:00","2004","04","24","08:00","7.1","","1.6","","68","","30","","22","","32.2","","100.68","","","","","","Mostly Cloudy"
"2004-04-24 09:00","2004","04","24","09:00","7.6","","0.1","","59","","31","","26","","32.2","","100.77","","","","","","Mostly Cloudy"
"2004-04-24 10:00","2004","04","24","10:00","7.0","","-3.1","","49","","33","","35","","32.2","","100.89","","","","","","Mainly Clear"
"2004-04-24 11:00","2004","04","24","11:00","6.9","","-7.4","","35","","35","","28","","32.2","","101.07","","","","","","Mainly Clear"
"2004-04-24 12:00","2004","04","24","12:00","7.2","","-8.9","","31","","29","","33","","32.2","","101.14","","","","","","Clear"
"2004-04-24 13:00","2004","04","24","13:00","7.6","","-8.9","","30","","32","","28","","32.2","","101.19","","","","","","Clear"
"2004-04-24 14:00","2004","04","24","14:00","8.3","","-9.3","","28","","28","","32","","32.2","","101.19","","","","","","Mainly Clear"
"2004-04-24 15:00","2004","04","24","15:00","8.7","","-12.1","","22","","33","","30","","32.2","","101.14","","","","","","Mainly Clear"
"2004-04-24 16:00","2004","04","24","16:00","8.9","","-12.5","","21","","35","","26","","32.2","","101.19","","","","","","Mainly Clear"
"2004-04-24 17:00","2004","04","24","17:00","8.2","","-13.1","","21","","34","","28","","32.2","","101.27","","","","","","Mainly Clear"
"2004-04-24 18:00","2004","04","24","18:00","6.5","","-14.2","","21","","35","","19","","32.2","","101.33","","","","","","Mostly Cloudy"
"2004-04-24 19:00","2004","04","24","19:00","5.4","","-14.8","","22","","33","","20","","32.2","","101.42","","","","","","Mostly Cloudy"
"2004-04-24 20:00","2004","04","24","20:00","4.7","","-13.5","","25","","1","","15","","25.0","","101.51","","","","","","Mostly Cloudy"
"2004-04-24 21:00","2004","04","24","21:00","3.7","","-13.0","","28","","3","","17","","25.0","","101.57","","","","","","Mostly Cloudy"
"2004-04-24 22:00","2004","04","24","22:00","3.0","","-13.0","","30","","3","","17","","25.0","","101.57","","","","","","Mostly Cloudy"
"2004-04-24 23:00","2004","04","24","23:00","2.3","","-13.0","","31","","2","","13","","25.0","","101.60","","","","","","Mostly Cloudy"
"2004-04-25 00:00","2004","04","25","00:00","2.0","","-13.1","","32","","4","","7","","25.0","","101.58","","","","","","Mostly Cloudy"
"2004-04-25 01:00","2004","04","25","01:00","1.3","","-12.2","","36","","3","","13","","25.0","","101.57","","","","","","Mostly Cloudy"
"2004-04-25 02:00","2004","04","25","02:00","0.6","","-11.7","","39","","3","","9","","25.0","","101.57","","","","","","Mostly Cloudy"
"2004-04-25 03:00","2004","04","25","03:00","0.7","","-11.9","","38","","5","","9","","25.0","","101.62","","","","","","Mostly Cloudy"
"2004-04-25 04:00","2004","04","25","04:00","-0.1","","-11.0","","44","","5","","9","","25.0","","101.61","","","","-3","","Mostly Cloudy"
"2004-04-25 05:00","2004","04","25","05:00","-0.9","","-10.6","","48","","8","","11","","25.0","","101.60","","","","-5","","Cloudy"
"2004-04-25 06:00","2004","04","25","06:00","-0.6","","-10.1","","49","","7","","13","","32.2","","101.59","","","","-5","","Cloudy"
"2004-04-25 07:00","2004","04","25","07:00","0.4","","-10.4","","44","","9","","19","","32.2","","101.61","","","","","","Cloudy"
"2004-04-25 08:00","2004","04","25","08:00","1.5","","-9.9","","42","","10","","26","","32.2","","101.55","","","","","","Cloudy"
"2004-04-25 09:00","2004","04","25","09:00","2.5","","-9.8","","40","","9","","26","","32.2","","101.50","","","","","","Cloudy"
"2004-04-25 10:00","2004","04","25","10:00","3.4","","-9.4","","39","","9","","24","","32.2","","101.42","","","","","","Cloudy"
"2004-04-25 11:00","2004","04","25","11:00","4.1","","-9.0","","38","","10","","24","","32.2","","101.32","","","","","","Cloudy"
"2004-04-25 12:00","2004","04","25","12:00","4.1","","-10.4","","34","","9","","32","","32.2","","101.17","","","","","","Cloudy"
"2004-04-25 13:00","2004","04","25","13:00","4.4","","-10.1","","34","","10","","26","","32.2","","100.99","","","","","","Cloudy"
"2004-04-25 14:00","2004","04","25","14:00","4.1","","-10.2","","34","","8","","32","","32.2","","100.80","","","","","","Cloudy"
"2004-04-25 15:00","2004","04","25","15:00","2.7","","-5.6","","54","","8","","24","","32.2","","100.66","","","","","","Cloudy"
"2004-04-25 16:00","2004","04","25","16:00","1.6","","-3.6","","68","","8","","26","","19.3","","100.41","","","","","","Rain"
"2004-04-25 17:00","2004","04","25","17:00","1.7","","-2.8","","72","","9","","30","","19.3","","100.32","","","","","","Rain"
"2004-04-25 18:00","2004","04","25","18:00","1.7","","-1.6","","79","","9","","26","","16.1","","100.18","","","","","","Rain"
"2004-04-25 19:00","2004","04","25","19:00","1.2","","0.0","","92","","9","","19","","4.8","","100.19","","","","","","Rain,Fog"
"2004-04-25 20:00","2004","04","25","20:00","1.4","","0.7","","95","","8","","28","","9.7","","100.12","","","","","","Rain,Fog"
"2004-04-25 21:00","2004","04","25","21:00","1.4","","1.3","","99","","8","","20","","4.8","","100.05","","","","","","Rain,Drizzle,Fog"
"2004-04-25 22:00","2004","04","25","22:00","1.9","","1.9","","100","","8","","19","","3.2","","99.93","","","","","","Drizzle,Fog"
"2004-04-25 23:00","2004","04","25","23:00","2.5","","2.5","","100","","9","","15","","3.2","","99.82","","","","","","Drizzle,Fog"
"2004-04-26 00:00","2004","04","26","00:00","3.1","","3.1","","100","","10","","13","","2.8","","99.72","","","","","","Fog"
"2004-04-26 01:00","2004","04","26","01:00","3.7","","3.7","","100","","9","","11","","3.2","","99.61","","","","","","Fog"
"2004-04-26 02:00","2004","04","26","02:00","3.9","","3.9","","100","","5","","6","","3.2","","99.61","","","","","","Rain Showers,Fog"
"2004-04-26 03:00","2004","04","26","03:00","4.0","","4.0","","100","","9","","9","","3.2","","99.50","","","","","","Drizzle,Fog"
"2004-04-26 04:00","2004","04","26","04:00","4.4","","4.4","","100","","9","","13","","2.8","","99.43","","","","","","Drizzle,Fog"
"2004-04-26 05:00","2004","04","26","05:00","4.8","","4.8","","100","","12","","7","","3.2","","99.43","","","","","","Fog"
"2004-04-26 06:00","2004","04","26","06:00","6.1","","6.1","","100","","","","0","","2.4","","99.45","","","","","","Fog"
"2004-04-26 07:00","2004","04","26","07:00","7.8","","7.8","","100","","18","","7","","4.0","","99.41","","","","","","Fog"
"2004-04-26 08:00","2004","04","26","08:00","9.4","","9.2","","99","","21","","11","","6.4","","99.44","","","","","","Fog"
"2004-04-26 09:00","2004","04","26","09:00","10.5","","9.9","","96","","20","","11","","9.7","","99.43","","","","","","Fog"
"2004-04-26 10:00","2004","04","26","10:00","12.1","","10.4","","89","","23","","20","","19.3","","99.43","","","","","","Cloudy"
"2004-04-26 11:00","2004","04","26","11:00","11.6","","7.2","","74","","26","","26","","32.2","","99.47","","","","","","Cloudy"
"2004-04-26 12:00","2004","04","26","12:00","11.5","","6.9","","73","","29","","22","","32.2","","99.49","","","","","","Mostly Cloudy"
"2004-04-26 13:00","2004","04","26","13:00","12.2","","5.6","","64","","27","","22","","32.2","","99.50","","","","","","Mostly Cloudy"
"2004-04-26 14:00","2004","04","26","14:00","12.6","","4.7","","59","","27","","17","","32.2","","99.47","","","","","","Mostly Cloudy"
"2004-04-26 15:00","2004","04","26","15:00","12.1","","4.7","","61","","29","","19","","32.2","","99.46","","","","","","Mostly Cloudy"
"2004-04-26 16:00","2004","04","26","16:00","12.2","","4.2","","58","","31","","17","","32.2","","99.47","","","","","","Mostly Cloudy"
"2004-04-26 17:00","2004","04","26","17:00","13.2","","3.9","","53","","30","","11","","32.2","","99.46","","","","","","Mostly Cloudy"
"2004-04-26 18:00","2004","04","26","18:00","11.9","","3.6","","57","","31","","15","","32.2","","99.44","","","","","","Mainly Clear"
"2004-04-26 19:00","2004","04","26","19:00","9.0","","3.0","","66","","31","","11","","32.2","","99.47","","","","","","Mainly Clear"
"2004-04-26 20:00","2004","04","26","20:00","8.6","","3.0","","68","","","","0","","25.0","","99.49","","","","","","Mostly Cloudy"
"2004-04-26 21:00","2004","04","26","21:00","8.3","","3.0","","69","","","","0","","25.0","","99.46","","","","","","Mostly Cloudy"
"2004-04-26 22:00","2004","04","26","22:00","7.6","","3.6","","76","","20","","9","","25.0","","99.45","","","","","","Mostly Cloudy"
"2004-04-26 23:00","2004","04","26","23:00","6.5","","4.5","","87","","16","","6","","25.0","","99.38","","","","","","Mostly Cloudy"
"2004-04-27 00:00","2004","04","27","00:00","6.7","","5.1","","90","","16","","7","","24.1","","99.30","","","","","","Cloudy"
"2004-04-27 01:00","2004","04","27","01:00","6.4","","5.1","","91","","18","","4","","24.1","","99.23","","","","","","Rain Showers"
"2004-04-27 02:00","2004","04","27","02:00","5.8","","4.3","","90","","18","","9","","19.3","","99.15","","","","","","Mainly Clear"
"2004-04-27 03:00","2004","04","27","03:00","5.9","","4.5","","91","","22","","4","","16.1","","99.12","","","","","","Rain Showers"
"2004-04-27 04:00","2004","04","27","04:00","5.2","","4.9","","98","","","","0","","12.9","","99.05","","","","","","Rain Showers"
"2004-04-27 05:00","2004","04","27","05:00","5.1","","5.0","","99","","16","","9","","8.0","","98.96","","","","","","Fog"
"2004-04-27 06:00","2004","04","27","06:00","5.3","","5.1","","99","","17","","4","","6.4","","98.93","","","","","","Fog"
"2004-04-27 07:00","2004","04","27","07:00","5.9","","5.6","","98","","22","","9","","8.0","","98.95","","","","","","Fog"
"2004-04-27 08:00","2004","04","27","08:00","7.0","","6.2","","95","","23","","11","","9.7","","98.92","","","","","","Fog"
"2004-04-27 09:00","2004","04","27","09:00","8.2","","6.2","","87","","27","","15","","19.3","","98.89","","","","","","Cloudy"
"2004-04-27 10:00","2004","04","27","10:00","7.5","","3.8","","77","","30","","33","","24.1","","98.92","","","","","","Rain Showers"
"2004-04-27 11:00","2004","04","27","11:00","7.7","","2.8","","71","","29","","26","","24.1","","98.97","","","","","","Rain Showers"
"2004-04-27 12:00","2004","04","27","12:00","8.7","","3.0","","67","","29","","30","","24.1","","98.99","","","","","","Mostly Cloudy"
"2004-04-27 13:00","2004","04","27","13:00","9.3","","-0.1","","52","","27","","20","","24.1","","99.01","","","","","","Mostly Cloudy"
"2004-04-27 14:00","2004","04","27","14:00","10.6","","-1.1","","44","","27","","20","","24.1","","99.01","","","","","","Mainly Clear"
"2004-04-27 15:00","2004","04","27","15:00","10.7","","-1.6","","42","","27","","20","","24.1","","99.01","","","","","","Mainly Clear"
"2004-04-27 16:00","2004","04","27","16:00","10.3","","-1.3","","44","","26","","19","","24.1","","99.05","","","","","","Mostly Cloudy"
"2004-04-27 17:00","2004","04","27","17:00","7.6","","1.0","","63","","30","","33","","24.1","","99.16","","","","","","Mostly Cloudy"
"2004-04-27 18:00","2004","04","27","18:00","7.6","","0.6","","61","","30","","11","","24.1","","99.20","","","","","","Mostly Cloudy"
"2004-04-27 19:00","2004","04","27","19:00","6.9","","1.2","","67","","30","","26","","24.1","","99.29","","","","","","Rain Showers"
"2004-04-27 20:00","2004","04","27","20:00","5.5","","1.5","","75","","29","","17","","25.0","","99.39","","","","","","Mostly Cloudy"
"2004-04-27 21:00","2004","04","27","21:00","5.0","","1.4","","78","","28","","13","","25.0","","99.45","","","","","","Cloudy"
"2004-04-27 22:00","2004","04","27","22:00","4.3","","-0.3","","72","","29","","15","","25.0","","99.50","","","","","","Mostly Cloudy"
"2004-04-27 23:00","2004","04","27","23:00","4.0","","-2.3","","63","","32","","17","","25.0","","99.58","","","","","","Cloudy"
"2004-04-28 00:00","2004","04","28","00:00","3.0","","-3.5","","62","","32","","24","","25.0","","99.67","","","","","","Cloudy"
"2004-04-28 01:00","2004","04","28","01:00","2.3","","-3.5","","65","","32","","26","","25.0","","99.75","","","","","","Cloudy"
"2004-04-28 02:00","2004","04","28","02:00","1.7","","-4.6","","63","","31","","17","","25.0","","99.82","","","","","","Cloudy"
"2004-04-28 03:00","2004","04","28","03:00","0.9","","-6.4","","58","","31","","19","","25.0","","99.92","","","","","","Cloudy"
"2004-04-28 04:00","2004","04","28","04:00","-0.1","","-7.0","","60","","30","","17","","25.0","","100.02","","","","-5","","Mostly Cloudy"
"2004-04-28 05:00","2004","04","28","05:00","-1.1","","-7.1","","64","","31","","11","","24.1","","100.14","","","","-5","","Mainly Clear"
"2004-04-28 06:00","2004","04","28","06:00","-0.1","","-6.2","","63","","31","","20","","24.1","","100.27","","","","-5","","Mainly Clear"
"2004-04-28 07:00","2004","04","28","07:00","1.2","","-6.2","","58","","31","","20","","24.1","","100.38","","","","","","Mainly Clear"
"2004-04-28 08:00","2004","04","28","08:00","2.2","","-6.4","","53","","30","","15","","24.1","","100.42","","","","","","Mainly Clear"
"2004-04-28 09:00","2004","04","28","09:00","3.1","","-6.1","","51","","30","","19","","24.1","","100.48","","","","","","Mainly Clear"
"2004-04-28 10:00","2004","04","28","10:00","4.3","","-6.0","","47","","29","","17","","24.1","","100.51","","","","","","Mainly Clear"
"2004-04-28 11:00","2004","04","28","11:00","5.2","","-7.1","","41","","26","","11","","24.1","","100.53","","","","","","Clear"
"2004-04-28 12:00","2004","04","28","12:00","6.9","","-5.7","","40","","26","","15","","24.1","","100.52","","","","","","Clear"
"2004-04-28 13:00","2004","04","28","13:00","8.5","","-7.1","","32","","29","","15","","24.1","","100.51","","","","","","Clear"
"2004-04-28 14:00","2004","04","28","14:00","8.9","","-8.8","","28","","30","","17","","24.1","","100.50","","","","","","Clear"
"2004-04-28 15:00","2004","04","28","15:00","10.5","","-9.5","","23","","23","","20","","24.1","","100.47","","","","","","Mainly Clear"
"2004-04-28 16:00","2004","04","28","16:00","10.8","","-8.5","","25","","25","","13","","24.1","","100.45","","","","","","Mostly Cloudy"
"2004-04-28 17:00","2004","04","28","17:00","10.7","","-7.3","","27","","23","","19","","24.1","","100.43","","","","","","Mostly Cloudy"
"2004-04-28 18:00","2004","04","28","18:00","9.8","","-3.0","","40","","20","","15","","24.1","","100.45","","","","","","Mostly Cloudy"
"2004-04-28 19:00","2004","04","28","19:00","8.0","","-3.1","","45","","19","","19","","24.1","","100.52","","","","","","Mostly Cloudy"
"2004-04-28 20:00","2004","04","28","20:00","7.7","","-3.5","","45","","19","","17","","25.0","","100.53","","","","","","Cloudy"
"2004-04-28 21:00","2004","04","28","21:00","7.2","","-3.7","","46","","18","","20","","25.0","","100.56","","","","","","Cloudy"
"2004-04-28 22:00","2004","04","28","22:00","7.2","","-3.7","","46","","20","","11","","25.0","","100.67","","","","","","Cloudy"
"2004-04-28 23:00","2004","04","28","23:00","4.9","","0.7","","74","","17","","9","","25.0","","100.62","","","","","","Rain"
"2004-04-29 00:00","2004","04","29","00:00","5.1","","-0.4","","68","","15","","9","","25.0","","100.52","","","","","","Rain"
"2004-04-29 01:00","2004","04","29","01:00","4.5","","0.7","","76","","14","","13","","25.0","","100.45","","","","","","Rain"
"2004-04-29 02:00","2004","04","29","02:00","4.8","","1.0","","76","","14","","13","","25.0","","100.31","","","","","","Cloudy"
"2004-04-29 03:00","2004","04","29","03:00","5.4","","1.7","","77","","13","","9","","25.0","","100.23","","","","","","Mostly Cloudy"
"2004-04-29 04:00","2004","04","29","04:00","5.5","","2.4","","80","","9","","9","","25.0","","100.17","","","","","","Mostly Cloudy"
"2004-04-29 05:00","2004","04","29","05:00","4.5","","2.3","","86","","13","","9","","24.1","","100.09","","","","","","Mostly Cloudy"
"2004-04-29 06:00","2004","04","29","06:00","9.6","","2.4","","61","","20","","7","","24.1","","100.09","","","","","","Mostly Cloudy"
"2004-04-29 07:00","2004","04","29","07:00","11.0","","3.8","","61","","20","","9","","24.1","","100.10","","","","","","Mostly Cloudy"
"2004-04-29 08:00","2004","04","29","08:00","14.6","","4.6","","51","","22","","22","","24.1","","100.09","","","","","","Mostly Cloudy"
"2004-04-29 09:00","2004","04","29","09:00","16.0","","5.3","","49","","22","","32","","24.1","","100.05","","","","","","Cloudy"
"2004-04-29 10:00","2004","04","29","10:00","17.9","","6.6","","48","","22","","26","","24.1","","100.01","","","","","","Mostly Cloudy"
"2004-04-29 11:00","2004","04","29","11:00","20.2","","7.6","","44","","21","","35","","24.1","","99.98","","","","","","Mostly Cloudy"
"2004-04-29 12:00","2004","04","29","12:00","22.8","","8.9","","41","","21","","30","","24.1","","99.91","","","","","","Mostly Cloudy"
"2004-04-29 13:00","2004","04","29","13:00","25.2","","10.1","","39","","21","","28","","24.1","","99.87","","27","","","","Mostly Cloudy"
"2004-04-29 14:00","2004","04","29","14:00","25.3","","9.8","","38","","20","","33","","24.1","","99.88","","26","","","","Mainly Clear"
"2004-04-29 15:00","2004","04","29","15:00","25.3","","9.9","","38","","21","","33","","24.1","","99.87","","27","","","","Mainly Clear"
"2004-04-29 16:00","2004","04","29","16:00","25.2","","9.4","","37","","21","","26","","24.1","","99.87","","26","","","","Clear"
"2004-04-29 17:00","2004","04","29","17:00","24.8","","8.1","","34","","21","","33","","24.1","","99.89","","25","","","","Clear"
"2004-04-29 18:00","2004","04","29","18:00","23.9","","8.3","","37","","22","","32","","24.1","","99.98","","","","","","Cloudy"
"2004-04-29 19:00","2004","04","29","19:00","22.7","","7.8","","38","","23","","32","","24.1","","100.06","","","","","","Cloudy"
"2004-04-29 20:00","2004","04","29","20:00","21.9","","5.1","","33","","22","","37","","25.0","","100.13","","","","","","Mostly Cloudy"
"2004-04-29 21:00","2004","04","29","21:00","21.1","","6.0","","37","","22","","28","","25.0","","100.20","","","","","","Mainly Clear"
"2004-04-29 22:00","2004","04","29","22:00","20.5","","6.7","","41","","22","","22","","25.0","","100.24","","","","","","Mainly Clear"
"2004-04-29 23:00","2004","04","29","23:00","19.9","","6.7","","42","","22","","15","","25.0","","100.25","","","","","","Mainly Clear"
"2004-04-30 00:00","2004","04","30","00:00","18.3","","6.3","","45","","21","","17","","25.0","","100.23","","","","","","Mainly Clear"
"2004-04-30 01:00","2004","04","30","01:00","18.1","","6.4","","46","","22","","19","","25.0","","100.21","","","","","","Mostly Cloudy"
"2004-04-30 02:00","2004","04","30","02:00","16.2","","6.3","","52","","20","","6","","25.0","","100.22","","","","","","Mostly Cloudy"
"2004-04-30 03:00","2004","04","30","03:00","15.6","","6.8","","56","","19","","15","","25.0","","100.24","","","","","","Mainly Clear"
"2004-04-30 04:00","2004","04","30","04:00","14.8","","7.0","","60","","18","","15","","25.0","","100.24","","","","","","Mostly Cloudy"
"2004-04-30 05:00","2004","04","30","05:00","13.1","","6.6","","65","","18","","11","","24.1","","100.27","","","","","","Mostly Cloudy"
"2004-04-30 06:00","2004","04","30","06:00","14.1","","6.8","","61","","20","","11","","24.1","","100.32","","","","","","Mostly Cloudy"
"2004-04-30 07:00","2004","04","30","07:00","15.9","","7.3","","57","","20","","13","","24.1","","100.40","","","","","","Mostly Cloudy"
"2004-04-30 08:00","2004","04","30","08:00","17.5","","8.1","","54","","21","","15","","24.1","","100.44","","","","","","Mostly Cloudy"
"2004-04-30 09:00","2004","04","30","09:00","19.1","","9.0","","52","","21","","13","","24.1","","100.42","","","","","","Mostly Cloudy"
"2004-04-30 10:00","2004","04","30","10:00","20.4","","9.7","","50","","21","","15","","24.1","","100.45","","","","","","Mostly Cloudy"
"2004-04-30 11:00","2004","04","30","11:00","22.5","","10.6","","47","","18","","15","","24.1","","100.42","","","","","","Mostly Cloudy"
"2004-04-30 12:00","2004","04","30","12:00","24.7","","11.3","","43","","22","","15","","24.1","","100.37","","27","","","","Mainly Clear"
"2004-04-30 13:00","2004","04","30","13:00","25.6","","10.8","","39","","20","","19","","24.1","","100.31","","27","","","","Mostly Cloudy"
"2004-04-30 14:00","2004","04","30","14:00","24.9","","10.3","","40","","24","","11","","19.3","","100.22","","26","","","","Mostly Cloudy"
"2004-04-30 15:00","2004","04","30","15:00","25.2","","9.0","","36","","20","","32","","16.1","","100.20","","26","","","","Mostly Cloudy"
"2004-04-30 16:00","2004","04","30","16:00","25.0","","8.6","","35","","22","","24","","12.9","","100.20","","26","","","","Mostly Cloudy"
"2004-04-30 17:00","2004","04","30","17:00","20.6","","12.7","","61","","34","","13","","12.9","","100.29","","","","","","Mostly Cloudy"
"2004-04-30 18:00","2004","04","30","18:00","19.3","","12.8","","66","","2","","9","","16.1","","100.26","","","","","","Cloudy"
"2004-04-30 19:00","2004","04","30","19:00","19.1","","12.4","","65","","2","","7","","16.1","","100.25","","","","","","Cloudy"
"2004-04-30 20:00","2004","04","30","20:00","18.4","","13.0","","71","","1","","4","","16.1","","100.32","","","","","","Cloudy"
"2004-04-30 21:00","2004","04","30","21:00","18.6","","12.8","","69","","25","","4","","12.9","","100.34","","","","","","Rain Showers"
"2004-04-30 22:00","2004","04","30","22:00","16.5","","13.0","","80","","11","","7","","25.0","","100.26","","","","","","Cloudy"
"2004-04-30 23:00","2004","04","30","23:00","16.2","","12.9","","81","","13","","7","","25.0","","100.22","","","","","","Cloudy"
