"Station Name","OTTAWA MACDONALD-CARTIER INT'L A"
"Province","ONTARIO"
"Latitude","45.32"
"Longitude","-75.67"
"Elevation","114.00"
"Climate Identifier","6106000"
"WMO Identifier","71628"
"TC Identifier","YOW"
"All times are specified in Local Standard Time (LST). Add 1 hour to adjust for Daylight Saving Time where and when it is observed."

"Legend"
"E","Estimated"
"M","Missing"
"NA","Not Available"

"Date/Time","Year","Month","Day","Time","Temp (°C)","Temp Flag","Dew Point Temp (°C)","Dew Point Temp Flag","Rel Hum (%)","Rel Hum Flag","Wind Dir (10s deg)","Wind Dir Flag","Wind Spd (km/h)","Wind Spd Flag","Visibility (km)","Visibility Flag","Stn Press (kPa)","Stn Press Flag","Hmdx","Hmdx Flag","Wind Chill","Wind Chill Flag","Weather"
"2006-08-01 00:00","2006","08","01","00:00","22.8","","21.9","","95","","7","","9","","16.1","","99.55","","32","","","","Heavy Thunderstorms,Rain Showers"
"2006-08-01 01:00","2006","08","01","01:00","22.8","","22.0","","95","","9","","7","E","8.0","","99.49","","32","","","","Thunderstorms,Rain Showers"
"2006-08-01 02:00","2006","08","01","02:00","23.2","","22.1","","94","","","","0","","12.9","","99.48","","33","","","","Thunderstorms,Rain Showers"
"2006-08-01 03:00","2006","08","01","03:00","22.8","","21.1","","90","","","","0","","19.3","","99.41","","31","","","","Cloudy"
"2006-08-01 04:00","2006","08","01","04:00","22.8","","21.7","","94","","18","","4","","19.3","","99.39","","32","","","","Mainly Clear"
"2006-08-01 05:00","2006","08","01","05:00","23.3","","22.1","","93","","18","","4","","4.8","","99.43","","33","","","","Fog"
"2006-08-01 06:00","2006","08","01","06:00","23.4","","22.3","","94","","18","","4","E","4.8","","99.43","","33","","","","Fog"
"2006-08-01 07:00","2006","08","01","07:00","24.7","","22.9","","90","","18","","11","E","4.8","","99.43","","35","","","","Fog"
"2006-08-01 08:00","2006","08","01","08:00","27.2","","24.5","","85","","18","","15","","12.9","","99.44","","39","","","","Mainly Clear"
"2006-08-01 09:00","2006","08","01","09:00","29.2","","24.9","","78","","18","","9","E","16.1","","99.41","","41","","","","Mainly Clear"
"2006-08-01 10:00","2006","08","01","10:00","31.3","","25.5","","71","","18","","15","E","19.3","","99.37","","44","","","","Mainly Clear"
"2006-08-01 11:00","2006","08","01","11:00","32.5","","25.4","","66","","18","","15","E","19.3","","99.37","","45","","","","Mainly Clear"
"2006-08-01 12:00","2006","08","01","12:00","33.8","","25.0","","60","","18","","22","E","24.1","","99.26","","46","","","","Mainly Clear"
"2006-08-01 13:00","2006","08","01","13:00","34.5","","25.0","","58","","18","","22","E","24.1","","99.22","","47","","","","Mainly Clear"
"2006-08-01 14:00","2006","08","01","14:00","35.1","","24.6","","55","","18","","22","E","24.1","","99.19","","47","","","","Mainly Clear"
"2006-08-01 15:00","2006","08","01","15:00","35.8","","23.7","","50","","25","","24","","24.1","","99.15","","47","","","","Clear"
"2006-08-01 16:00","2006","08","01","16:00","36.0","","23.1","","48","","26","","22","","24.1","","99.06","","46","","","","Mainly Clear"
"2006-08-01 17:00","2006","08","01","17:00","35.7","","22.6","","47","","25","","24","","24.1","","99.06","","46","","","","Mainly Clear"
"2006-08-01 18:00","2006","08","01","18:00","33.6","","21.6","","50","","24","","22","","24.1","","99.10","","43","","","","Mostly Cloudy"
"2006-08-01 19:00","2006","08","01","19:00","31.9","","21.7","","55","","26","","15","","24.1","","99.18","","41","","","","Mostly Cloudy"
"2006-08-01 20:00","2006","08","01","20:00","32.0","","21.1","","53","","27","","19","","25.0","","99.24","","41","","","","Cloudy"
"2006-08-01 21:00","2006","08","01","21:00","31.6","","21.5","","55","","28","","17","","25.0","","99.32","","40","","","","Cloudy"
"2006-08-01 22:00","2006","08","01","22:00","30.4","","22.0","","61","","26","","13","","25.0","","99.31","","40","","","","Cloudy"
"2006-08-01 23:00","2006","08","01","23:00","29.5","","22.4","","66","","23","","11","","25.0","","99.34","","39","","","","Mostly Cloudy"
"2006-08-02 00:00","2006","08","02","00:00","28.8","","22.3","","68","","26","","11","","25.0","","99.33","","38","","","","Cloudy"
"2006-08-02 01:00","2006","08","02","01:00","27.2","","22.6","","76","","23","","6","","25.0","","99.34","","37","","","","Mostly Cloudy"
"2006-08-02 02:00","2006","08","02","02:00","26.7","","22.9","","80","","25","","9","","25.0","","99.34","","37","","","","Cloudy"
"2006-08-02 03:00","2006","08","02","03:00","26.4","","21.1","","73","","28","","13","","25.0","","99.36","","35","","","","Mainly Clear"
"2006-08-02 04:00","2006","08","02","04:00","25.4","","20.9","","76","","28","","11","","25.0","","99.34","","34","","","","Mainly Clear"
"2006-08-02 05:00","2006","08","02","05:00","24.8","","21.0","","79","","28","","13","","24.1","","99.40","","33","","","","Mostly Cloudy"
"2006-08-02 06:00","2006","08","02","06:00","25.2","","21.4","","79","","28","","15","","24.1","","99.42","","34","","","","Mainly Clear"
"2006-08-02 07:00","2006","08","02","07:00","26.1","","21.4","","75","","30","","11","","24.1","","99.42","","35","","","","Mainly Clear"
"2006-08-02 08:00","2006","08","02","08:00","26.8","","22.0","","75","","26","","11","","24.1","","99.42","","36","","","","Mostly Cloudy"
"2006-08-02 09:00","2006","08","02","09:00","26.7","","22.3","","77","","27","","9","","24.1","","99.42","","36","","","","Cloudy"
"2006-08-02 10:00","2006","08","02","10:00","26.8","","22.6","","78","","25","","7","","24.1","","99.42","","37","","","","Cloudy"
"2006-08-02 11:00","2006","08","02","11:00","29.2","","23.0","","69","","23","","24","","24.1","","99.34","","39","","","","Cloudy"
"2006-08-02 12:00","2006","08","02","12:00","28.2","","22.7","","72","","25","","17","","24.1","","99.29","","38","","","","Cloudy"
"2006-08-02 13:00","2006","08","02","13:00","29.9","","22.5","","65","","24","","24","","24.1","","99.13","","40","","","","Mostly Cloudy"
"2006-08-02 14:00","2006","08","02","14:00","27.7","","20.4","","65","","25","","28","","24.1","","99.08","","36","","","","Cloudy"
"2006-08-02 15:00","2006","08","02","15:00","28.1","","22.1","","70","","31","","30","","24.1","","99.08","","38","","","","Cloudy"
"2006-08-02 16:00","2006","08","02","16:00","27.4","","22.7","","76","","31","","17","","24.1","","99.23","","37","","","","Mostly Cloudy"
"2006-08-02 17:00","2006","08","02","17:00","27.2","","22.6","","76","","32","","9","","24.1","","99.16","","37","","","","Mostly Cloudy"
"2006-08-02 18:00","2006","08","02","18:00","27.1","","22.6","","76","","9","","6","","24.1","","99.06","","37","","","","Cloudy"
"2006-08-02 19:00","2006","08","02","19:00","24.9","","22.9","","89","","7","","13","","24.1","","98.96","","35","","","","Mostly Cloudy"
"2006-08-02 20:00","2006","08","02","20:00","23.8","","22.7","","94","","7","","20","","4.8","","98.87","","34","","","","Thunderstorms,Heavy Rain Showers,Fog"
"2006-08-02 21:00","2006","08","02","21:00","23.6","","22.7","","95","","6","","7","","12.9","","98.79","","34","","","","Thunderstorms,Moderate Rain Showers"
"2006-08-02 22:00","2006","08","02","22:00","23.3","","21.5","","90","","30","","20","","11.3","","98.85","","32","","","","Thunderstorms,Moderate Rain Showers"
"2006-08-02 23:00","2006","08","02","23:00","22.5","","21.4","","94","","","","0","","25.0","","98.95","","31","","","","Rain"
"2006-08-03 00:00","2006","08","03","00:00","22.0","","21.1","","95","","35","","4","","16.1","","98.93","","31","","","","Rain"
"2006-08-03 01:00","2006","08","03","01:00","19.7","","18.7","","94","","5","","22","","4.0","","98.96","","","","","","Heavy Rain Showers,Fog"
"2006-08-03 02:00","2006","08","03","02:00","18.8","","17.6","","93","","5","","24","","12.9","","99.10","","","","","","Rain"
"2006-08-03 03:00","2006","08","03","03:00","18.8","","17.4","","92","","5","","19","","25.0","","99.18","","","","","","Cloudy"
"2006-08-03 04:00","2006","08","03","04:00","18.3","","17.3","","94","","7","","15","","19.3","","99.20","","","","","","Cloudy"
"2006-08-03 05:00","2006","08","03","05:00","18.4","","17.4","","94","","6","","7","","24.1","","99.29","","","","","","Cloudy"
"2006-08-03 06:00","2006","08","03","06:00","18.6","","17.4","","93","","11","","4","","24.1","","99.40","","","","","","Cloudy"
"2006-08-03 07:00","2006","08","03","07:00","19.0","","17.5","","91","","1","","7","","24.1","","99.51","","","","","","Cloudy"
"2006-08-03 08:00","2006","08","03","08:00","19.8","","17.3","","86","","","","0","","24.1","","99.52","","","","","","Cloudy"
"2006-08-03 09:00","2006","08","03","09:00","21.1","","18.9","","87","","35","","9","","24.1","","99.58","","28","","","","Cloudy"
"2006-08-03 10:00","2006","08","03","10:00","22.0","","18.6","","81","","31","","7","","24.1","","99.59","","28","","","","Mostly Cloudy"
"2006-08-03 11:00","2006","08","03","11:00","23.5","","18.1","","72","","","","0","","24.1","","99.62","","30","","","","Mainly Clear"
"2006-08-03 12:00","2006","08","03","12:00","24.7","","16.8","","61","","26","","6","","24.1","","99.61","","30","","","","Mainly Clear"
"2006-08-03 13:00","2006","08","03","13:00","26.2","","16.7","","56","","27","","6","","24.1","","99.62","","31","","","","Mainly Clear"
"2006-08-03 14:00","2006","08","03","14:00","27.2","","15.8","","50","","8","","9","","24.1","","99.58","","32","","","","Mainly Clear"
"2006-08-03 15:00","2006","08","03","15:00","26.5","","15.3","","50","","20","","7","","24.1","","99.58","","31","","","","Mostly Cloudy"
"2006-08-03 16:00","2006","08","03","16:00","26.5","","16.3","","54","","26","","4","","24.1","","99.59","","31","","","","Mostly Cloudy"
"2006-08-03 17:00","2006","08","03","17:00","26.1","","16.6","","56","","16","","4","","24.1","","99.52","","31","","","","Cloudy"
"2006-08-03 18:00","2006","08","03","18:00","24.9","","19.1","","70","","18","","6","","24.1","","99.49","","32","","","","Mostly Cloudy"
"2006-08-03 19:00","2006","08","03","19:00","24.7","","16.9","","62","","20","","4","","24.1","","99.55","","30","","","","Cloudy"
"2006-08-03 20:00","2006","08","03","20:00","24.3","","17.2","","65","","22","","6","","24.1","","99.56","","30","","","","Mostly Cloudy"
"2006-08-03 21:00","2006","08","03","21:00","23.5","","17.8","","70","","23","","6","","25.0","","99.60","","29","","","","Cloudy"
"2006-08-03 22:00","2006","08","03","22:00","22.0","","18.6","","81","","31","","6","","25.0","","99.63","","28","","","","Cloudy"
"2006-08-03 23:00","2006","08","03","23:00","22.9","","18.0","","74","","","","0","","25.0","","99.61","","29","","","","Mainly Clear"
"2006-08-04 00:00","2006","08","04","00:00","20.6","","18.1","","86","","20","","6","","25.0","","99.60","","27","","","","Mainly Clear"
"2006-08-04 01:00","2006","08","04","01:00","21.0","","19.0","","88","","25","","6","","25.0","","99.59","","28","","","","Mainly Clear"
"2006-08-04 02:00","2006","08","04","02:00","20.0","","17.9","","88","","27","","6","","25.0","","99.56","","26","","","","Mainly Clear"
"2006-08-04 03:00","2006","08","04","03:00","18.4","","17.0","","92","","30","","9","","25.0","","99.56","","","","","","Mainly Clear"
"2006-08-04 04:00","2006","08","04","04:00","18.4","","17.2","","93","","29","","6","","25.0","","99.57","","","","","","Mainly Clear"
"2006-08-04 05:00","2006","08","04","05:00","18.4","","17.6","","95","","29","","9","","24.1","","99.61","","","","","","Mainly Clear"
"2006-08-04 06:00","2006","08","04","06:00","19.6","","18.3","","92","","29","","7","","24.1","","99.64","","","","","","Clear"
"2006-08-04 07:00","2006","08","04","07:00","21.3","","19.0","","87","","28","","7","","24.1","","99.69","","28","","","","Clear"
"2006-08-04 08:00","2006","08","04","08:00","23.0","","18.4","","75","","26","","7","","24.1","","99.72","","29","","","","Clear"
"2006-08-04 09:00","2006","08","04","09:00","24.9","","19.6","","72","","28","","11","","24.1","","99.74","","32","","","","Clear"
"2006-08-04 10:00","2006","08","04","10:00","25.6","","18.4","","64","","27","","11","","24.1","","99.77","","32","","","","Clear"
"2006-08-04 11:00","2006","08","04","11:00","26.8","","17.7","","57","","26","","13","","24.1","","99.77","","33","","","","Clear"
"2006-08-04 12:00","2006","08","04","12:00","27.8","","16.6","","51","","29","","17","","24.1","","99.75","","33","","","","Mainly Clear"
"2006-08-04 13:00","2006","08","04","13:00","28.8","","17.6","","51","","26","","17","","24.1","","99.72","","35","","","","Mainly Clear"
"2006-08-04 14:00","2006","08","04","14:00","28.7","","15.6","","45","","27","","20","","32.2","","99.68","","33","","","","Mainly Clear"
"2006-08-04 15:00","2006","08","04","15:00","28.8","","14.3","","41","","28","","26","","32.2","","99.69","","32","","","","Mainly Clear"
"2006-08-04 16:00","2006","08","04","16:00","28.1","","15.5","","46","","30","","24","","32.2","","99.72","","32","","","","Mainly Clear"
"2006-08-04 17:00","2006","08","04","17:00","27.9","","13.4","","41","","28","","28","","32.2","","99.73","","31","","","","Mainly Clear"
"2006-08-04 18:00","2006","08","04","18:00","27.2","","14.3","","45","","29","","17","","32.2","","99.76","","31","","","","Mainly Clear"
"2006-08-04 19:00","2006","08","04","19:00","24.8","","13.9","","51","","32","","17","","32.2","","99.89","","28","","","","Clear"
"2006-08-04 20:00","2006","08","04","20:00","22.8","","14.9","","61","","34","","19","","32.2","","99.99","","27","","","","Clear"
"2006-08-04 21:00","2006","08","04","21:00","22.4","","14.6","","61","","33","","17","","25.0","","100.09","","26","","","","Mainly Clear"
"2006-08-04 22:00","2006","08","04","22:00","21.2","","13.9","","63","","34","","15","","25.0","","100.18","","25","","","","Mainly Clear"
"2006-08-04 23:00","2006","08","04","23:00","20.7","","11.7","","56","","36","","17","","25.0","","100.24","","","","","","Clear"
"2006-08-05 00:00","2006","08","05","00:00","18.6","","10.8","","60","","35","","13","","25.0","","100.31","","","","","","Clear"
"2006-08-05 01:00","2006","08","05","01:00","16.5","","11.0","","70","","32","","13","","25.0","","100.37","","","","","","Clear"
"2006-08-05 02:00","2006","08","05","02:00","15.5","","11.0","","75","","32","","6","","25.0","","100.40","","","","","","Clear"
"2006-08-05 03:00","2006","08","05","03:00","14.6","","10.8","","78","","32","","9","","25.0","","100.45","","","","","","Clear"
"2006-08-05 04:00","2006","08","05","04:00","15.4","","11.0","","75","","1","","7","","25.0","","100.49","","","","","","Mainly Clear"
"2006-08-05 05:00","2006","08","05","05:00","14.6","","10.4","","76","","","","0","","24.1","","100.57","","","","","","Mainly Clear"
"2006-08-05 06:00","2006","08","05","06:00","15.3","","12.3","","82","","33","","6","","32.2","","100.66","","","","","","Mainly Clear"
"2006-08-05 07:00","2006","08","05","07:00","17.2","","11.2","","68","","1","","7","","32.2","","100.71","","","","","","Mainly Clear"
"2006-08-05 08:00","2006","08","05","08:00","18.3","","9.2","","55","","2","","7","","32.2","","100.77","","","","","","Mainly Clear"
"2006-08-05 09:00","2006","08","05","09:00","19.6","","10.4","","55","","36","","7","","32.2","","100.79","","","","","","Mainly Clear"
"2006-08-05 10:00","2006","08","05","10:00","20.4","","10.4","","53","","28","","11","","32.2","","100.79","","","","","","Mainly Clear"
"2006-08-05 11:00","2006","08","05","11:00","21.2","","11.3","","53","","31","","9","","32.2","","100.75","","","","","","Mainly Clear"
"2006-08-05 12:00","2006","08","05","12:00","22.2","","10.9","","49","","29","","17","","32.2","","100.75","","","","","","Mostly Cloudy"
"2006-08-05 13:00","2006","08","05","13:00","21.8","","10.7","","49","","30","","13","","32.2","","100.77","","","","","","Mostly Cloudy"
"2006-08-05 14:00","2006","08","05","14:00","23.1","","10.8","","46","","27","","15","","32.2","","100.78","","25","","","","Mostly Cloudy"
"2006-08-05 15:00","2006","08","05","15:00","23.7","","10.8","","44","","29","","13","","32.2","","100.74","","25","","","","Mainly Clear"
"2006-08-05 16:00","2006","08","05","16:00","23.6","","10.7","","44","","27","","11","","32.2","","100.74","","25","","","","Mainly Clear"
"2006-08-05 17:00","2006","08","05","17:00","23.3","","11.1","","46","","27","","13","","32.2","","100.76","","25","","","","Mainly Clear"
"2006-08-05 18:00","2006","08","05","18:00","23.0","","11.6","","49","","28","","9","","32.2","","100.74","","25","","","","Mainly Clear"
"2006-08-05 19:00","2006","08","05","19:00","21.6","","11.5","","53","","26","","7","","32.2","","100.78","","","","","","Mainly Clear"
"2006-08-05 20:00","2006","08","05","20:00","21.0","","10.7","","52","","27","","4","","32.2","","100.79","","","","","","Mainly Clear"
"2006-08-05 21:00","2006","08","05","21:00","20.7","","10.7","","53","","26","","4","","25.0","","100.82","","","","","","Clear"
"2006-08-05 22:00","2006","08","05","22:00","18.1","","12.1","","68","","19","","6","","25.0","","100.81","","","","","","Clear"
"2006-08-05 23:00","2006","08","05","23:00","17.1","","12.2","","73","","19","","4","","25.0","","100.83","","","","","","Clear"
"2006-08-06 00:00","2006","08","06","00:00","16.9","","11.5","","70","","19","","7","","25.0","","100.80","","","","","","Clear"
"2006-08-06 01:00","2006","08","06","01:00","15.8","","11.7","","77","","20","","7","","25.0","","100.83","","","","","","Clear"
"2006-08-06 02:00","2006","08","06","02:00","15.5","","11.3","","76","","19","","7","","25.0","","100.87","","","","","","Clear"
"2006-08-06 03:00","2006","08","06","03:00","15.3","","11.5","","78","","19","","7","","25.0","","100.86","","","","","","Clear"
"2006-08-06 04:00","2006","08","06","04:00","15.3","","11.4","","78","","20","","4","","25.0","","100.87","","","","","","Mainly Clear"
"2006-08-06 05:00","2006","08","06","05:00","15.1","","11.3","","78","","19","","4","","32.2","","100.94","","","","","","Mainly Clear"
"2006-08-06 06:00","2006","08","06","06:00","15.7","","12.3","","80","","16","","7","","32.2","","100.94","","","","","","Mostly Cloudy"
"2006-08-06 07:00","2006","08","06","07:00","17.7","","13.6","","77","","18","","9","","32.2","","100.94","","","","","","Mostly Cloudy"
"2006-08-06 08:00","2006","08","06","08:00","20.2","","15.3","","73","","19","","9","","32.2","","100.94","","","","","","Mainly Clear"
"2006-08-06 09:00","2006","08","06","09:00","21.9","","16.4","","71","","18","","13","","32.2","","100.91","","27","","","","Mainly Clear"
"2006-08-06 10:00","2006","08","06","10:00","24.1","","16.7","","63","","19","","13","","32.2","","100.84","","29","","","","Mainly Clear"
"2006-08-06 11:00","2006","08","06","11:00","25.1","","14.8","","53","","18","","15","","32.2","","100.81","","29","","","","Mainly Clear"
"2006-08-06 12:00","2006","08","06","12:00","25.5","","13.9","","49","","22","","20","","32.2","","100.78","","29","","","","Mainly Clear"
"2006-08-06 13:00","2006","08","06","13:00","26.8","","14.0","","45","","21","","15","","32.2","","100.70","","30","","","","Mostly Cloudy"
"2006-08-06 14:00","2006","08","06","14:00","27.0","","14.7","","47","","19","","20","","32.2","","100.65","","31","","","","Mostly Cloudy"
"2006-08-06 15:00","2006","08","06","15:00","27.2","","14.2","","45","","20","","17","","32.2","","100.57","","31","","","","Mostly Cloudy"
"2006-08-06 16:00","2006","08","06","16:00","26.9","","13.6","","44","","18","","20","","32.2","","100.49","","30","","","","Mostly Cloudy"
"2006-08-06 17:00","2006","08","06","17:00","25.7","","14.7","","51","","17","","13","","32.2","","100.42","","29","","","","Mostly Cloudy"
"2006-08-06 18:00","2006","08","06","18:00","24.0","","15.9","","61","","17","","7","","32.2","","100.32","","29","","","","Mostly Cloudy"
"2006-08-06 19:00","2006","08","06","19:00","22.8","","14.7","","60","","18","","4","","32.2","","100.26","","27","","","","Mostly Cloudy"
"2006-08-06 20:00","2006","08","06","20:00","22.0","","15.4","","66","","17","","7","","25.0","","100.23","","26","","","","Mostly Cloudy"
"2006-08-06 21:00","2006","08","06","21:00","21.6","","15.3","","67","","18","","9","","25.0","","100.17","","26","","","","Mostly Cloudy"
"2006-08-06 22:00","2006","08","06","22:00","21.1","","15.4","","70","","18","","9","","25.0","","100.06","","25","","","","Mostly Cloudy"
"2006-08-06 23:00","2006","08","06","23:00","20.9","","15.6","","72","","19","","9","","25.0","","100.00","","25","","","","Mostly Cloudy"
"2006-08-07 00:00","2006","08","07","00:00","20.8","","15.7","","73","","18","","9","","25.0","","99.92","","25","","","","Mostly Cloudy"
"2006-08-07 01:00","2006","08","07","01:00","20.2","","15.9","","76","","22","","9","","25.0","","99.87","","25","","","","Mainly Clear"
"2006-08-07 02:00","2006","08","07","02:00","19.7","","16.1","","80","","22","","9","","25.0","","99.84","","","","","","Mostly Cloudy"
"2006-08-07 03:00","2006","08","07","03:00","19.8","","17.0","","84","","21","","7","","25.0","","99.80","","","","","","Mostly Cloudy"
"2006-08-07 04:00","2006","08","07","04:00","21.1","","18.0","","82","","22","","9","","25.0","","99.76","","27","","","","Mostly Cloudy"
"2006-08-07 05:00","2006","08","07","05:00","21.8","","18.2","","80","","22","","13","","19.3","","99.76","","28","","","","Mostly Cloudy"
"2006-08-07 06:00","2006","08","07","06:00","22.1","","18.3","","79","","22","","15","","16.1","","99.78","","28","","","","Mainly Clear"
"2006-08-07 07:00","2006","08","07","07:00","23.0","","18.4","","75","","23","","15","","16.1","","99.80","","29","","","","Mainly Clear"
"2006-08-07 08:00","2006","08","07","08:00","24.0","","18.7","","72","","25","","17","","16.1","","99.81","","31","","","","Mainly Clear"
"2006-08-07 09:00","2006","08","07","09:00","24.8","","19.3","","72","","24","","11","","16.1","","99.79","","32","","","","Mainly Clear"
"2006-08-07 10:00","2006","08","07","10:00","25.7","","19.1","","67","","26","","13","","19.3","","99.78","","33","","","","Mainly Clear"
"2006-08-07 11:00","2006","08","07","11:00","27.1","","19.0","","61","","26","","15","","19.3","","99.78","","34","","","","Mostly Cloudy"
"2006-08-07 12:00","2006","08","07","12:00","27.1","","17.1","","54","","26","","19","","24.1","","99.77","","32","","","","Mostly Cloudy"
"2006-08-07 13:00","2006","08","07","13:00","28.8","","15.8","","45","","32","","22","","24.1","","99.72","","33","","","","Mostly Cloudy"
"2006-08-07 14:00","2006","08","07","14:00","28.3","","15.2","","45","","31","","22","","24.1","","99.72","","32","","","","Mostly Cloudy"
"2006-08-07 15:00","2006","08","07","15:00","28.7","","15.6","","45","","30","","20","","24.1","","99.71","","33","","","","Mostly Cloudy"
"2006-08-07 16:00","2006","08","07","16:00","28.5","","15.0","","44","","32","","24","","24.1","","99.71","","32","","","","Mostly Cloudy"
"2006-08-07 17:00","2006","08","07","17:00","26.4","","14.5","","48","","31","","24","","24.1","","99.74","","30","","","","Mainly Clear"
"2006-08-07 18:00","2006","08","07","18:00","26.4","","14.3","","47","","31","","22","","24.1","","99.79","","30","","","","Mainly Clear"
"2006-08-07 19:00","2006","08","07","19:00","24.7","","13.6","","50","","31","","19","","24.1","","99.84","","28","","","","Mainly Clear"
"2006-08-07 20:00","2006","08","07","20:00","23.5","","13.4","","53","","31","","19","","24.1","","99.93","","27","","","","Mainly Clear"
"2006-08-07 21:00","2006","08","07","21:00","21.9","","13.4","","58","","34","","28","","24.1","","100.05","","25","","","","Mainly Clear"
"2006-08-07 22:00","2006","08","07","22:00","20.7","","11.9","","57","","33","","35","","24.1","","100.14","","","","","","Mostly Cloudy"
"2006-08-07 23:00","2006","08","07","23:00","19.2","","13.1","","68","","34","","17","","25.0","","100.19","","","","","","Mainly Clear"
"2006-08-08 00:00","2006","08","08","00:00","18.0","","13.4","","74","","32","","19","","25.0","","100.25","","","","","","Clear"
"2006-08-08 01:00","2006","08","08","01:00","17.3","","13.1","","76","","34","","19","","25.0","","100.29","","","","","","Clear"
"2006-08-08 02:00","2006","08","08","02:00","16.2","","12.0","","76","","33","","15","","25.0","","100.37","","","","","","Clear"
"2006-08-08 03:00","2006","08","08","03:00","14.9","","11.0","","77","","31","","13","","25.0","","100.43","","","","","","Clear"
"2006-08-08 04:00","2006","08","08","04:00","14.3","","10.5","","78","","32","","15","","25.0","","100.46","","","","","","Clear"
"2006-08-08 05:00","2006","08","08","05:00","14.5","","10.1","","75","","34","","22","","32.2","","100.50","","","","","","Mainly Clear"
"2006-08-08 06:00","2006","08","08","06:00","14.8","","10.2","","74","","33","","20","","24.1","","100.56","","","","","","Clear"
"2006-08-08 07:00","2006","08","08","07:00","15.9","","10.2","","69","","34","","17","","24.1","","100.63","","","","","","Clear"
"2006-08-08 08:00","2006","08","08","08:00","17.0","","10.7","","66","","36","","20","","24.1","","100.69","","","","","","Clear"
"2006-08-08 09:00","2006","08","08","09:00","18.1","","11.3","","64","","34","","17","","24.1","","100.69","","","","","","Clear"
"2006-08-08 10:00","2006","08","08","10:00","19.7","","12.1","","62","","34","","13","","24.1","","100.71","","","","","","Clear"
"2006-08-08 11:00","2006","08","08","11:00","21.6","","12.5","","56","","31","","13","","24.1","","100.69","","","","","","Mainly Clear"
"2006-08-08 12:00","2006","08","08","12:00","22.6","","11.7","","50","","4","","4","","24.1","","100.68","","25","","","","Mainly Clear"
"2006-08-08 13:00","2006","08","08","13:00","23.3","","11.3","","47","","32","","13","","24.1","","100.70","","25","","","","Mainly Clear"
"2006-08-08 14:00","2006","08","08","14:00","22.4","","10.4","","47","","29","","9","","24.1","","100.70","","","","","","Mainly Clear"
"2006-08-08 15:00","2006","08","08","15:00","23.0","","9.4","","42","","34","","19","","24.1","","100.69","","","","","","Mainly Clear"
"2006-08-08 16:00","2006","08","08","16:00","23.3","","9.8","","42","","34","","11","","24.1","","100.69","","","","","","Clear"
"2006-08-08 17:00","2006","08","08","17:00","23.1","","8.2","","38","","33","","20","","24.1","","100.69","","","","","","Clear"
"2006-08-08 18:00","2006","08","08","18:00","22.6","","8.3","","40","","32","","17","","24.1","","100.66","","","","","","Clear"
"2006-08-08 19:00","2006","08","08","19:00","20.5","","9.1","","48","","32","","15","","24.1","","100.66","","","","","","Clear"
"2006-08-08 20:00","2006","08","08","20:00","18.8","","9.0","","53","","34","","6","","25.0","","100.70","","","","","","Mainly Clear"
"2006-08-08 21:00","2006","08","08","21:00","18.4","","11.0","","62","","27","","7","","25.0","","100.73","","","","","","Clear"
"2006-08-08 22:00","2006","08","08","22:00","16.8","","11.1","","69","","32","","9","","25.0","","100.74","","","","","","Clear"
"2006-08-08 23:00","2006","08","08","23:00","16.1","","11.3","","73","","22","","6","","25.0","","100.72","","","","","","Clear"
"2006-08-09 00:00","2006","08","09","00:00","15.4","","9.8","","69","","25","","6","","25.0","","100.75","","","","","","Clear"
"2006-08-09 01:00","2006","08","09","01:00","14.9","","9.9","","72","","27","","4","","25.0","","100.77","","","","","","Mainly Clear"
"2006-08-09 02:00","2006","08","09","02:00","14.6","","10.7","","77","","25","","6","","25.0","","100.74","","","","","","Mainly Clear"
"2006-08-09 03:00","2006","08","09","03:00","13.1","","10.0","","81","","30","","4","","25.0","","100.70","","","","","","Mostly Cloudy"
"2006-08-09 04:00","2006","08","09","04:00","12.7","","9.8","","82","","25","","7","","25.0","","100.71","","","","","","Mainly Clear"
"2006-08-09 05:00","2006","08","09","05:00","12.4","","10.0","","85","","24","","6","","24.1","","100.74","","","","","","Mainly Clear"
"2006-08-09 06:00","2006","08","09","06:00","12.9","","10.6","","86","","24","","6","","24.1","","100.74","","","","","","Clear"
"2006-08-09 07:00","2006","08","09","07:00","15.5","","12.6","","83","","25","","4","","24.1","","100.73","","","","","","Clear"
"2006-08-09 08:00","2006","08","09","08:00","19.3","","12.5","","65","","28","","7","","24.1","","100.73","","","","","","Clear"
"2006-08-09 09:00","2006","08","09","09:00","21.0","","11.7","","55","","26","","7","","24.1","","100.68","","","","","","Clear"
"2006-08-09 10:00","2006","08","09","10:00","22.9","","10.5","","45","","26","","13","","24.1","","100.62","","","","","","Clear"
"2006-08-09 11:00","2006","08","09","11:00","23.8","","10.7","","44","","26","","15","","24.1","","100.55","","25","","","","Clear"
"2006-08-09 12:00","2006","08","09","12:00","24.9","","11.2","","42","","26","","15","","24.1","","100.47","","27","","","","Mainly Clear"
"2006-08-09 13:00","2006","08","09","13:00","25.4","","11.1","","41","","24","","15","","24.1","","100.39","","27","","","","Mainly Clear"
"2006-08-09 14:00","2006","08","09","14:00","25.3","","10.6","","40","","26","","17","","24.1","","100.31","","27","","","","Mainly Clear"
"2006-08-09 15:00","2006","08","09","15:00","26.0","","10.1","","37","","23","","13","","24.1","","100.23","","27","","","","Mainly Clear"
"2006-08-09 16:00","2006","08","09","16:00","26.1","","10.1","","37","","23","","20","","24.1","","100.13","","27","","","","Mainly Clear"
"2006-08-09 17:00","2006","08","09","17:00","25.9","","9.7","","36","","23","","19","","24.1","","100.06","","27","","","","Mostly Cloudy"
"2006-08-09 18:00","2006","08","09","18:00","25.1","","9.4","","37","","23","","11","","24.1","","100.03","","26","","","","Cloudy"
"2006-08-09 19:00","2006","08","09","19:00","23.0","","13.3","","54","","20","","11","","24.1","","100.01","","26","","","","Cloudy"
"2006-08-09 20:00","2006","08","09","20:00","21.8","","10.6","","49","","20","","15","","24.1","","99.95","","","","","","Cloudy"
"2006-08-09 21:00","2006","08","09","21:00","20.2","","9.2","","49","","21","","13","","25.0","","99.96","","","","","","Mostly Cloudy"
"2006-08-09 22:00","2006","08","09","22:00","19.3","","9.6","","53","","23","","15","","25.0","","99.93","","","","","","Mostly Cloudy"
"2006-08-09 23:00","2006","08","09","23:00","18.5","","10.6","","60","","23","","11","","25.0","","99.91","","","","","","Mostly Cloudy"
"2006-08-10 00:00","2006","08","10","00:00","17.6","","11.2","","66","","23","","11","","25.0","","99.89","","","","","","Mostly Cloudy"
"2006-08-10 01:00","2006","08","10","01:00","16.4","","11.5","","73","","24","","7","","25.0","","99.86","","","","","","Mostly Cloudy"
"2006-08-10 02:00","2006","08","10","02:00","15.9","","11.7","","76","","22","","7","","25.0","","99.83","","","","","","Cloudy"
"2006-08-10 03:00","2006","08","10","03:00","16.3","","11.7","","74","","23","","7","","25.0","","99.79","","","","","","Cloudy"
"2006-08-10 04:00","2006","08","10","04:00","15.8","","11.9","","78","","26","","6","","25.0","","99.77","","","","","","Cloudy"
"2006-08-10 05:00","2006","08","10","05:00","15.9","","11.8","","77","","24","","9","","24.1","","99.82","","","","","","Cloudy"
"2006-08-10 06:00","2006","08","10","06:00","17.5","","12.3","","72","","27","","9","","24.1","","99.85","","","","","","Cloudy"
"2006-08-10 07:00","2006","08","10","07:00","18.5","","12.9","","70","","31","","11","","24.1","","99.84","","","","","","Cloudy"
"2006-08-10 08:00","2006","08","10","08:00","19.1","","13.5","","70","","32","","11","","24.1","","99.79","","","","","","Cloudy"
"2006-08-10 09:00","2006","08","10","09:00","18.8","","14.1","","74","","31","","15","","24.1","","99.81","","","","","","Cloudy"
"2006-08-10 10:00","2006","08","10","10:00","20.2","","15.0","","72","","33","","15","","24.1","","99.83","","","","","","Cloudy"
"2006-08-10 11:00","2006","08","10","11:00","18.9","","15.2","","79","","33","","20","","24.1","","99.84","","","","","","Rain"
"2006-08-10 12:00","2006","08","10","12:00","19.8","","14.3","","71","","36","","13","","32.2","","99.89","","","","","","Mostly Cloudy"
"2006-08-10 13:00","2006","08","10","13:00","21.8","","14.3","","62","","35","","15","","32.2","","99.85","","25","","","","Mostly Cloudy"
"2006-08-10 14:00","2006","08","10","14:00","22.5","","12.5","","53","","34","","9","","32.2","","99.82","","25","","","","Mainly Clear"
"2006-08-10 15:00","2006","08","10","15:00","23.3","","10.7","","45","","1","","19","","32.2","","99.81","","25","","","","Mainly Clear"
"2006-08-10 16:00","2006","08","10","16:00","23.7","","9.7","","41","","1","","17","","32.2","","99.82","","25","","","","Mainly Clear"
"2006-08-10 17:00","2006","08","10","17:00","22.7","","9.3","","42","","35","","22","","32.2","","99.90","","","","","","Mainly Clear"
"2006-08-10 18:00","2006","08","10","18:00","21.5","","8.1","","42","","1","","19","","32.2","","99.90","","","","","","Mainly Clear"
"2006-08-10 19:00","2006","08","10","19:00","19.8","","8.3","","47","","36","","19","","32.2","","99.94","","","","","","Mainly Clear"
"2006-08-10 20:00","2006","08","10","20:00","18.7","","8.2","","50","","35","","17","","24.1","","100.03","","","","","","Mainly Clear"
"2006-08-10 21:00","2006","08","10","21:00","18.1","","7.0","","48","","36","","17","","25.0","","100.08","","","","","","Mainly Clear"
"2006-08-10 22:00","2006","08","10","22:00","17.1","","7.0","","51","","36","","22","","25.0","","100.12","","","","","","Clear"
"2006-08-10 23:00","2006","08","10","23:00","16.2","","7.4","","56","","36","","19","","25.0","","100.16","","","","","","Clear"
"2006-08-11 00:00","2006","08","11","00:00","15.0","","7.7","","62","","1","","15","","25.0","","100.20","","","","","","Clear"
"2006-08-11 01:00","2006","08","11","01:00","14.6","","7.6","","63","","1","","19","","25.0","","100.22","","","","","","Clear"
"2006-08-11 02:00","2006","08","11","02:00","13.5","","7.8","","68","","36","","15","","25.0","","100.25","","","","","","Clear"
"2006-08-11 03:00","2006","08","11","03:00","12.1","","7.7","","74","","34","","19","","25.0","","100.28","","","","","","Clear"
"2006-08-11 04:00","2006","08","11","04:00","11.7","","7.3","","74","","34","","17","","25.0","","100.31","","","","","","Clear"
"2006-08-11 05:00","2006","08","11","05:00","10.9","","6.9","","76","","34","","19","","24.1","","100.34","","","","","","Clear"
"2006-08-11 06:00","2006","08","11","06:00","11.8","","7.2","","73","","34","","19","","32.2","","100.38","","","","","","Mainly Clear"
"2006-08-11 07:00","2006","08","11","07:00","12.7","","7.4","","70","","35","","19","","32.2","","100.39","","","","","","Mainly Clear"
"2006-08-11 08:00","2006","08","11","08:00","14.4","","8.1","","66","","36","","15","","32.2","","100.39","","","","","","Mainly Clear"
"2006-08-11 09:00","2006","08","11","09:00","15.8","","8.4","","61","","34","","13","","32.2","","100.41","","","","","","Mainly Clear"
"2006-08-11 10:00","2006","08","11","10:00","18.4","","7.8","","50","","34","","19","","32.2","","100.41","","","","","","Mainly Clear"
"2006-08-11 11:00","2006","08","11","11:00","18.7","","7.2","","47","","33","","20","","32.2","","100.40","","","","","","Mainly Clear"
"2006-08-11 12:00","2006","08","11","12:00","18.3","","7.8","","50","","33","","24","","32.2","","100.39","","","","","","Mostly Cloudy"
"2006-08-11 13:00","2006","08","11","13:00","19.8","","7.4","","45","","33","","13","","32.2","","100.38","","","","","","Mostly Cloudy"
"2006-08-11 14:00","2006","08","11","14:00","20.5","","6.9","","41","","33","","15","","32.2","","100.34","","","","","","Mainly Clear"
"2006-08-11 15:00","2006","08","11","15:00","19.7","","7.0","","44","","34","","13","","32.2","","100.30","","","","","","Mainly Clear"
"2006-08-11 16:00","2006","08","11","16:00","20.7","","5.7","","38","","33","","24","","32.2","","100.29","","","","","","Mainly Clear"
"2006-08-11 17:00","2006","08","11","17:00","20.0","","6.2","","41","","32","","15","","32.2","","100.32","","","","","","Mainly Clear"
"2006-08-11 18:00","2006","08","11","18:00","19.6","","6.0","","41","","33","","15","","32.2","","100.34","","","","","","Mainly Clear"
"2006-08-11 19:00","2006","08","11","19:00","17.6","","6.5","","48","","31","","11","","32.2","","100.37","","","","","","Clear"
"2006-08-11 20:00","2006","08","11","20:00","15.8","","6.1","","52","","34","","11","","32.2","","100.40","","","","","","Clear"
"2006-08-11 21:00","2006","08","11","21:00","14.0","","6.3","","60","","32","","7","","25.0","","100.43","","","","","","Clear"
"2006-08-11 22:00","2006","08","11","22:00","13.4","","6.7","","64","","34","","11","","25.0","","100.45","","","","","","Clear"
"2006-08-11 23:00","2006","08","11","23:00","13.9","","5.4","","56","","36","","11","","25.0","","100.48","","","","","","Clear"
"2006-08-12 00:00","2006","08","12","00:00","13.0","","5.3","","59","","34","","7","","25.0","","100.48","","","","","","Clear"
"2006-08-12 01:00","2006","08","12","01:00","12.1","","6.3","","68","","32","","6","","25.0","","100.46","","","","","","Clear"
"2006-08-12 02:00","2006","08","12","02:00","10.1","","6.6","","79","","26","","9","","25.0","","100.45","","","","","","Clear"
"2006-08-12 03:00","2006","08","12","03:00","10.1","","6.4","","78","","27","","9","","25.0","","100.49","","","","","","Clear"
"2006-08-12 04:00","2006","08","12","04:00","9.6","","6.8","","83","","29","","7","","25.0","","100.50","","","","","","Clear"
"2006-08-12 05:00","2006","08","12","05:00","8.9","","6.7","","86","","28","","4","","32.2","","100.53","","","","","","Mainly Clear"
"2006-08-12 06:00","2006","08","12","06:00","10.0","","7.6","","85","","31","","7","","32.2","","100.58","","","","","","Mainly Clear"
"2006-08-12 07:00","2006","08","12","07:00","12.4","","8.4","","77","","30","","11","","32.2","","100.63","","","","","","Mainly Clear"
"2006-08-12 08:00","2006","08","12","08:00","15.2","","9.0","","66","","31","","17","","32.2","","100.63","","","","","","Mainly Clear"
"2006-08-12 09:00","2006","08","12","09:00","16.8","","7.8","","55","","33","","17","","32.2","","100.64","","","","","","Mainly Clear"
"2006-08-12 10:00","2006","08","12","10:00","17.9","","7.7","","51","","34","","20","","32.2","","100.61","","","","","","Mainly Clear"
"2006-08-12 11:00","2006","08","12","11:00","19.6","","7.6","","46","","31","","17","","32.2","","100.53","","","","","","Mainly Clear"
"2006-08-12 12:00","2006","08","12","12:00","20.6","","7.5","","43","","33","","15","","32.2","","100.48","","","","","","Mostly Cloudy"
"2006-08-12 13:00","2006","08","12","13:00","20.0","","6.3","","41","","32","","19","","32.2","","100.50","","","","","","Mostly Cloudy"
"2006-08-12 14:00","2006","08","12","14:00","21.0","","7.3","","41","","34","","20","","32.2","","100.49","","","","","","Mainly Clear"
"2006-08-12 15:00","2006","08","12","15:00","21.7","","6.4","","37","","35","","19","","32.2","","100.43","","","","","","Mainly Clear"
"2006-08-12 16:00","2006","08","12","16:00","21.1","","5.0","","35","","30","","20","","32.2","","100.41","","","","","","Mainly Clear"
"2006-08-12 17:00","2006","08","12","17:00","20.9","","4.6","","34","","35","","22","","32.2","","100.40","","","","","","Mainly Clear"
"2006-08-12 18:00","2006","08","12","18:00","20.1","","5.1","","37","","34","","15","","32.2","","100.40","","","","","","Mainly Clear"
"2006-08-12 19:00","2006","08","12","19:00","18.1","","5.5","","43","","32","","9","","32.2","","100.42","","","","","","Mainly Clear"
"2006-08-12 20:00","2006","08","12","20:00","17.8","","5.6","","45","","32","","4","","25.0","","100.44","","","","","","Mostly Cloudy"
"2006-08-12 21:00","2006","08","12","21:00","16.5","","6.8","","53","","25","","6","","25.0","","100.45","","","","","","Mostly Cloudy"
"2006-08-12 22:00","2006","08","12","22:00","14.6","","8.2","","65","","29","","6","","25.0","","100.46","","","","","","Mostly Cloudy"
"2006-08-12 23:00","2006","08","12","23:00","14.1","","8.9","","71","","32","","6","","25.0","","100.45","","","","","","Mainly Clear"
"2006-08-13 00:00","2006","08","13","00:00","13.4","","8.5","","72","","32","","4","","25.0","","100.43","","","","","","Mainly Clear"
"2006-08-13 01:00","2006","08","13","01:00","11.6","","7.8","","77","","29","","6","","25.0","","100.43","","","","","","Mainly Clear"
"2006-08-13 02:00","2006","08","13","02:00","10.7","","7.6","","81","","32","","9","","25.0","","100.45","","","","","","Mainly Clear"
"2006-08-13 03:00","2006","08","13","03:00","10.1","","7.9","","86","","27","","7","","25.0","","100.50","","","","","","Mainly Clear"
"2006-08-13 04:00","2006","08","13","04:00","10.6","","8.1","","85","","30","","4","","25.0","","100.49","","","","","","Mostly Cloudy"
"2006-08-13 05:00","2006","08","13","05:00","9.7","","8.2","","90","","27","","9","","32.2","","100.53","","","","","","Mostly Cloudy"
"2006-08-13 06:00","2006","08","13","06:00","11.4","","10.0","","91","","28","","7","","32.2","","100.56","","","","","","Mostly Cloudy"
"2006-08-13 07:00","2006","08","13","07:00","12.6","","11.2","","91","","25","","4","","32.2","","100.53","","","","","","Mainly Clear"
"2006-08-13 08:00","2006","08","13","08:00","15.4","","11.0","","75","","30","","9","","32.2","","100.53","","","","","","Mainly Clear"
"2006-08-13 09:00","2006","08","13","09:00","18.1","","10.8","","62","","31","","7","","32.2","","100.49","","","","","","Mainly Clear"
"2006-08-13 10:00","2006","08","13","10:00","20.8","","11.1","","54","","27","","13","","32.2","","100.46","","","","","","Mainly Clear"
"2006-08-13 11:00","2006","08","13","11:00","21.7","","11.1","","51","","29","","13","","32.2","","100.43","","","","","","Mostly Cloudy"
"2006-08-13 12:00","2006","08","13","12:00","22.6","","9.1","","42","","29","","19","","32.2","","100.37","","","","","","Mostly Cloudy"
"2006-08-13 13:00","2006","08","13","13:00","23.0","","9.9","","43","","28","","19","","32.2","","100.31","","","","","","Mostly Cloudy"
"2006-08-13 14:00","2006","08","13","14:00","23.3","","9.3","","41","","30","","22","","32.2","","100.27","","","","","","Mostly Cloudy"
"2006-08-13 15:00","2006","08","13","15:00","24.3","","9.4","","39","","31","","17","","32.2","","100.23","","25","","","","Mostly Cloudy"
"2006-08-13 16:00","2006","08","13","16:00","24.1","","9.3","","39","","32","","17","","32.2","","100.19","","25","","","","Mostly Cloudy"
"2006-08-13 17:00","2006","08","13","17:00","23.8","","10.4","","43","","29","","13","","32.2","","100.14","","25","","","","Mostly Cloudy"
"2006-08-13 18:00","2006","08","13","18:00","23.7","","11.0","","45","","30","","9","","32.2","","100.10","","25","","","","Mostly Cloudy"
"2006-08-13 19:00","2006","08","13","19:00","23.0","","10.8","","46","","25","","4","","32.2","","100.08","","25","","","","Mainly Clear"
"2006-08-13 20:00","2006","08","13","20:00","19.7","","11.4","","59","","17","","7","","32.2","","100.08","","","","","","Mainly Clear"
"2006-08-13 21:00","2006","08","13","21:00","18.1","","11.8","","67","","17","","9","","25.0","","100.09","","","","","","Mainly Clear"
"2006-08-13 22:00","2006","08","13","22:00","17.5","","12.2","","71","","18","","7","","25.0","","100.05","","","","","","Mainly Clear"
"2006-08-13 23:00","2006","08","13","23:00","17.0","","12.1","","73","","20","","7","","25.0","","100.02","","","","","","Mainly Clear"
"2006-08-14 00:00","2006","08","14","00:00","16.3","","11.8","","75","","22","","9","","25.0","","100.02","","","","","","Mainly Clear"
"2006-08-14 01:00","2006","08","14","01:00","15.9","","11.7","","76","","22","","9","","25.0","","100.00","","","","","","Mainly Clear"
"2006-08-14 02:00","2006","08","14","02:00","15.8","","11.3","","75","","26","","6","","25.0","","99.98","","","","","","Mostly Cloudy"
"2006-08-14 03:00","2006","08","14","03:00","14.4","","11.3","","82","","20","","9","","25.0","","99.95","","","","","","Mostly Cloudy"
"2006-08-14 04:00","2006","08","14","04:00","13.8","","11.3","","85","","20","","9","","25.0","","99.91","","","","","","Mostly Cloudy"
"2006-08-14 05:00","2006","08","14","05:00","13.6","","11.1","","85","","20","","7","","24.1","","99.90","","","","","","Mostly Cloudy"
"2006-08-14 06:00","2006","08","14","06:00","14.1","","11.4","","84","","20","","7","","32.2","","99.84","","","","","","Mostly Cloudy"
"2006-08-14 07:00","2006","08","14","07:00","16.6","","12.3","","76","","20","","7","","32.2","","99.83","","","","","","Mainly Clear"
"2006-08-14 08:00","2006","08","14","08:00","19.1","","12.5","","66","","22","","11","","32.2","","99.78","","","","","","Mainly Clear"
"2006-08-14 09:00","2006","08","14","09:00","20.8","","12.9","","61","","22","","11","","24.1","","99.73","","","","","","Mostly Cloudy"
"2006-08-14 10:00","2006","08","14","10:00","22.7","","12.6","","53","","22","","11","","24.1","","99.63","","25","","","","Mostly Cloudy"
"2006-08-14 11:00","2006","08","14","11:00","24.3","","11.8","","46","","23","","19","","24.1","","99.56","","26","","","","Mostly Cloudy"
"2006-08-14 12:00","2006","08","14","12:00","23.9","","11.4","","45","","23","","19","","24.1","","99.47","","26","","","","Mostly Cloudy"
"2006-08-14 13:00","2006","08","14","13:00","24.8","","11.2","","42","","23","","17","","24.1","","99.37","","27","","","","Mostly Cloudy"
"2006-08-14 14:00","2006","08","14","14:00","25.4","","11.3","","41","","23","","20","","24.1","","99.30","","27","","","","Cloudy"
"2006-08-14 15:00","2006","08","14","15:00","23.4","","15.0","","59","","19","","22","","24.1","","99.23","","27","","","","Cloudy"
"2006-08-14 16:00","2006","08","14","16:00","21.7","","13.9","","61","","20","","17","","24.1","","99.17","","25","","","","Rain Showers"
"2006-08-14 17:00","2006","08","14","17:00","21.7","","13.9","","61","","20","","20","","24.1","","99.09","","25","","","","Cloudy"
"2006-08-14 18:00","2006","08","14","18:00","21.8","","14.0","","61","","20","","17","","24.1","","99.04","","25","","","","Cloudy"
"2006-08-14 19:00","2006","08","14","19:00","21.4","","14.5","","65","","18","","11","","24.1","","98.97","","25","","","","Cloudy"
"2006-08-14 20:00","2006","08","14","20:00","21.5","","15.8","","70","","20","","13","","19.3","","98.92","","26","","","","Cloudy"
"2006-08-14 21:00","2006","08","14","21:00","22.3","","16.5","","70","","22","","15","","19.3","","98.92","","27","","","","Cloudy"
"2006-08-14 22:00","2006","08","14","22:00","20.4","","17.3","","82","","22","","17","","19.3","","98.90","","26","","","","Mainly Clear"
"2006-08-14 23:00","2006","08","14","23:00","19.6","","17.5","","88","","22","","17","","16.1","","98.93","","","","","","Mostly Cloudy"
"2006-08-15 00:00","2006","08","15","00:00","18.6","","17.2","","92","","25","","11","","16.1","","98.98","","","","","","Mainly Clear"
"2006-08-15 01:00","2006","08","15","01:00","17.7","","15.7","","88","","27","","13","","24.1","","98.99","","","","","","Mainly Clear"
"2006-08-15 02:00","2006","08","15","02:00","17.3","","14.1","","81","","27","","9","","24.1","","99.04","","","","","","Mainly Clear"
"2006-08-15 03:00","2006","08","15","03:00","16.2","","13.4","","83","","27","","7","","24.1","","99.11","","","","","","Clear"
"2006-08-15 04:00","2006","08","15","04:00","14.7","","12.4","","86","","27","","6","","24.1","","99.16","","","","","","Clear"
"2006-08-15 05:00","2006","08","15","05:00","15.3","","12.1","","81","","26","","15","","32.2","","99.20","","","","","","Clear"
"2006-08-15 06:00","2006","08","15","06:00","15.9","","12.5","","80","","20","","4","","24.1","","99.27","","","","","","Clear"
"2006-08-15 07:00","2006","08","15","07:00","17.1","","13.2","","78","","24","","11","","24.1","","99.30","","","","","","Clear"
"2006-08-15 08:00","2006","08","15","08:00","20.4","","14.3","","68","","25","","13","","24.1","","99.33","","","","","","Clear"
"2006-08-15 09:00","2006","08","15","09:00","21.6","","13.3","","59","","28","","24","","24.1","","99.32","","25","","","","Mainly Clear"
"2006-08-15 10:00","2006","08","15","10:00","23.4","","13.2","","53","","27","","22","","24.1","","99.35","","26","","","","Mainly Clear"
"2006-08-15 11:00","2006","08","15","11:00","23.8","","12.9","","50","","28","","22","","24.1","","99.37","","27","","","","Mostly Cloudy"
"2006-08-15 12:00","2006","08","15","12:00","21.8","","13.4","","59","","27","","13","","24.1","","99.39","","25","","","","Mostly Cloudy"
"2006-08-15 13:00","2006","08","15","13:00","23.3","","12.0","","49","","26","","24","","24.1","","99.41","","26","","","","Mostly Cloudy"
"2006-08-15 14:00","2006","08","15","14:00","23.1","","13.1","","53","","30","","22","","24.1","","99.49","","26","","","","Mostly Cloudy"
"2006-08-15 15:00","2006","08","15","15:00","23.0","","13.1","","54","","29","","20","","24.1","","99.55","","26","","","","Mostly Cloudy"
"2006-08-15 16:00","2006","08","15","16:00","22.8","","13.0","","54","","29","","15","","24.1","","99.63","","26","","","","Mostly Cloudy"
"2006-08-15 17:00","2006","08","15","17:00","22.1","","12.3","","54","","28","","17","","24.1","","99.74","","25","","","","Mostly Cloudy"
"2006-08-15 18:00","2006","08","15","18:00","21.2","","12.5","","58","","29","","13","","32.2","","99.81","","","","","","Mostly Cloudy"
"2006-08-15 19:00","2006","08","15","19:00","20.9","","12.3","","58","","28","","13","","32.2","","99.89","","","","","","Mostly Cloudy"
"2006-08-15 20:00","2006","08","15","20:00","19.9","","12.7","","63","","27","","9","","25.0","","99.98","","","","","","Mostly Cloudy"
"2006-08-15 21:00","2006","08","15","21:00","19.4","","13.3","","68","","27","","9","","25.0","","100.04","","","","","","Cloudy"
"2006-08-15 22:00","2006","08","15","22:00","18.8","","13.6","","72","","27","","13","","25.0","","100.07","","","","","","Cloudy"
"2006-08-15 23:00","2006","08","15","23:00","18.5","","13.9","","75","","25","","7","","25.0","","100.11","","","","","","Cloudy"
"2006-08-16 00:00","2006","08","16","00:00","18.2","","13.9","","76","","26","","11","","25.0","","100.17","","","","","","Cloudy"
"2006-08-16 01:00","2006","08","16","01:00","17.9","","14.0","","78","","27","","9","","25.0","","100.19","","","","","","Cloudy"
"2006-08-16 02:00","2006","08","16","02:00","18.1","","13.6","","75","","28","","13","","25.0","","100.21","","","","","","Mostly Cloudy"
"2006-08-16 03:00","2006","08","16","03:00","16.7","","13.6","","82","","27","","11","","25.0","","100.26","","","","","","Mostly Cloudy"
"2006-08-16 04:00","2006","08","16","04:00","15.5","","13.2","","86","","26","","11","","25.0","","100.31","","","","","","Mainly Clear"
"2006-08-16 05:00","2006","08","16","05:00","15.3","","13.4","","88","","29","","11","","24.1","","100.40","","","","","","Mainly Clear"
"2006-08-16 06:00","2006","08","16","06:00","16.2","","14.2","","88","","30","","13","","24.1","","100.47","","","","","","Clear"
"2006-08-16 07:00","2006","08","16","07:00","17.5","","14.6","","83","","30","","9","","24.1","","100.55","","","","","","Clear"
"2006-08-16 08:00","2006","08","16","08:00","19.2","","14.6","","75","","31","","13","","24.1","","100.65","","","","","","Mainly Clear"
"2006-08-16 09:00","2006","08","16","09:00","20.3","","14.9","","71","","31","","11","","24.1","","100.69","","","","","","Mainly Clear"
"2006-08-16 10:00","2006","08","16","10:00","21.2","","14.8","","67","","29","","15","","24.1","","100.72","","25","","","","Mainly Clear"
"2006-08-16 11:00","2006","08","16","11:00","21.6","","13.8","","61","","29","","15","","24.1","","100.72","","25","","","","Mostly Cloudy"
"2006-08-16 12:00","2006","08","16","12:00","23.7","","14.3","","56","","28","","15","","24.1","","100.73","","27","","","","Mostly Cloudy"
"2006-08-16 13:00","2006","08","16","13:00","24.8","","14.3","","52","","27","","19","","24.1","","100.74","","28","","","","Mostly Cloudy"
"2006-08-16 14:00","2006","08","16","14:00","23.9","","13.2","","51","","31","","22","","24.1","","100.74","","27","","","","Mainly Clear"
"2006-08-16 15:00","2006","08","16","15:00","24.8","","13.0","","48","","28","","17","","24.1","","100.74","","28","","","","Mainly Clear"
"2006-08-16 16:00","2006","08","16","16:00","24.6","","12.5","","47","","33","","17","","24.1","","100.76","","27","","","","Mainly Clear"
"2006-08-16 17:00","2006","08","16","17:00","24.4","","12.4","","47","","30","","22","","24.1","","100.79","","27","","","","Mainly Clear"
"2006-08-16 18:00","2006","08","16","18:00","23.3","","12.4","","50","","31","","15","","24.1","","100.82","","26","","","","Mainly Clear"
"2006-08-16 19:00","2006","08","16","19:00","21.0","","12.7","","59","","31","","9","","24.1","","100.86","","","","","","Clear"
"2006-08-16 20:00","2006","08","16","20:00","19.9","","12.8","","64","","31","","7","","25.0","","100.90","","","","","","Clear"
"2006-08-16 21:00","2006","08","16","21:00","19.5","","13.2","","67","","27","","6","","25.0","","100.93","","","","","","Clear"
"2006-08-16 22:00","2006","08","16","22:00","17.8","","13.0","","73","","31","","7","","25.0","","100.96","","","","","","Clear"
"2006-08-16 23:00","2006","08","16","23:00","17.4","","12.9","","75","","28","","4","","25.0","","100.97","","","","","","Clear"
"2006-08-17 00:00","2006","08","17","00:00","16.2","","13.0","","81","","","","0","","25.0","","100.99","","","","","","Clear"
"2006-08-17 01:00","2006","08","17","01:00","15.5","","12.9","","84","","27","","4","","25.0","","101.00","","","","","","Clear"
"2006-08-17 02:00","2006","08","17","02:00","15.0","","12.9","","87","","31","","6","","25.0","","101.05","","","","","","Clear"
"2006-08-17 03:00","2006","08","17","03:00","14.7","","12.6","","87","","31","","4","","25.0","","101.06","","","","","","Clear"
"2006-08-17 04:00","2006","08","17","04:00","14.4","","12.6","","89","","","","0","","25.0","","101.07","","","","","","Clear"
"2006-08-17 05:00","2006","08","17","05:00","13.3","","12.3","","94","","34","","6","","24.1","","101.12","","","","","","Clear"
"2006-08-17 06:00","2006","08","17","06:00","13.9","","13.0","","94","","30","","6","","24.1","","101.19","","","","","","Clear"
"2006-08-17 07:00","2006","08","17","07:00","17.1","","14.1","","83","","3","","4","","24.1","","101.23","","","","","","Clear"
"2006-08-17 08:00","2006","08","17","08:00","20.2","","14.4","","69","","","","0","","24.1","","101.24","","","","","","Clear"
"2006-08-17 09:00","2006","08","17","09:00","21.2","","14.0","","63","","16","","6","","24.1","","101.20","","25","","","","Clear"
"2006-08-17 10:00","2006","08","17","10:00","23.2","","13.6","","55","","16","","6","","24.1","","101.19","","26","","","","Clear"
"2006-08-17 11:00","2006","08","17","11:00","24.0","","13.2","","51","","25","","6","","24.1","","101.13","","27","","","","Mainly Clear"
"2006-08-17 12:00","2006","08","17","12:00","24.9","","12.6","","46","","19","","11","","24.1","","101.05","","27","","","","Mainly Clear"
"2006-08-17 13:00","2006","08","17","13:00","25.2","","12.6","","45","","31","","6","","24.1","","101.00","","28","","","","Mainly Clear"
"2006-08-17 14:00","2006","08","17","14:00","26.3","","12.5","","42","","","","0","","24.1","","100.93","","29","","","","Mostly Cloudy"
"2006-08-17 15:00","2006","08","17","15:00","26.3","","12.5","","42","","18","","6","","24.1","","100.89","","29","","","","Mostly Cloudy"
"2006-08-17 16:00","2006","08","17","16:00","26.1","","12.6","","43","","15","","7","","24.1","","100.87","","29","","","","Mostly Cloudy"
"2006-08-17 17:00","2006","08","17","17:00","26.1","","13.2","","45","","13","","7","","24.1","","100.86","","29","","","","Mostly Cloudy"
"2006-08-17 18:00","2006","08","17","18:00","25.0","","14.5","","52","","10","","9","","24.1","","100.84","","29","","","","Cloudy"
"2006-08-17 19:00","2006","08","17","19:00","22.6","","14.8","","61","","10","","7","","24.1","","100.83","","26","","","","Cloudy"
"2006-08-17 20:00","2006","08","17","20:00","20.9","","14.8","","68","","10","","7","","25.0","","100.85","","25","","","","Cloudy"
"2006-08-17 21:00","2006","08","17","21:00","19.7","","14.1","","70","","13","","9","","25.0","","100.87","","","","","","Cloudy"
"2006-08-17 22:00","2006","08","17","22:00","20.4","","13.9","","66","","15","","7","","25.0","","100.86","","","","","","Cloudy"
"2006-08-17 23:00","2006","08","17","23:00","19.8","","14.3","","71","","17","","7","","25.0","","100.86","","","","","","Cloudy"
"2006-08-18 00:00","2006","08","18","00:00","19.1","","14.6","","75","","15","","9","","25.0","","100.86","","","","","","Cloudy"
"2006-08-18 01:00","2006","08","18","01:00","19.1","","14.4","","74","","15","","7","","25.0","","100.79","","","","","","Cloudy"
"2006-08-18 02:00","2006","08","18","02:00","18.7","","14.4","","76","","15","","7","","25.0","","100.72","","","","","","Cloudy"
"2006-08-18 03:00","2006","08","18","03:00","18.4","","14.3","","77","","17","","6","","25.0","","100.73","","","","","","Cloudy"
"2006-08-18 04:00","2006","08","18","04:00","17.8","","14.3","","80","","18","","6","","25.0","","100.70","","","","","","Mostly Cloudy"
"2006-08-18 05:00","2006","08","18","05:00","17.6","","14.4","","82","","8","","4","","24.1","","100.73","","","","","","Mostly Cloudy"
"2006-08-18 06:00","2006","08","18","06:00","17.1","","14.3","","84","","","","0","","32.2","","100.75","","","","","","Mostly Cloudy"
"2006-08-18 07:00","2006","08","18","07:00","17.7","","15.0","","84","","10","","6","","32.2","","100.72","","","","","","Mainly Clear"
"2006-08-18 08:00","2006","08","18","08:00","21.4","","15.4","","69","","8","","4","","32.2","","100.71","","26","","","","Mainly Clear"
"2006-08-18 09:00","2006","08","18","09:00","23.3","","15.1","","60","","8","","6","","24.1","","100.69","","27","","","","Mainly Clear"
"2006-08-18 10:00","2006","08","18","10:00","25.2","","14.6","","52","","11","","6","","24.1","","100.62","","29","","","","Mainly Clear"
"2006-08-18 11:00","2006","08","18","11:00","26.2","","15.5","","52","","17","","7","","24.1","","100.57","","30","","","","Mainly Clear"
"2006-08-18 12:00","2006","08","18","12:00","27.3","","16.2","","51","","15","","7","","24.1","","100.49","","32","","","","Mainly Clear"
"2006-08-18 13:00","2006","08","18","13:00","28.0","","16.3","","49","","15","","15","","24.1","","100.40","","33","","","","Mainly Clear"
"2006-08-18 14:00","2006","08","18","14:00","29.2","","16.8","","47","","19","","13","","24.1","","100.34","","34","","","","Mostly Cloudy"
"2006-08-18 15:00","2006","08","18","15:00","29.8","","16.9","","46","","24","","7","","19.3","","100.31","","35","","","","Mostly Cloudy"
"2006-08-18 16:00","2006","08","18","16:00","30.0","","16.4","","44","","23","","13","","19.3","","100.28","","35","","","","Mostly Cloudy"
"2006-08-18 17:00","2006","08","18","17:00","28.9","","16.7","","48","","21","","11","","19.3","","100.21","","34","","","","Mostly Cloudy"
"2006-08-18 18:00","2006","08","18","18:00","27.3","","16.5","","52","","21","","9","","19.3","","100.18","","32","","","","Mostly Cloudy"
"2006-08-18 19:00","2006","08","18","19:00","26.1","","16.4","","55","","19","","7","","19.3","","100.18","","31","","","","Mostly Cloudy"
"2006-08-18 20:00","2006","08","18","20:00","25.1","","16.5","","59","","22","","6","","19.3","","100.20","","30","","","","Cloudy"
"2006-08-18 21:00","2006","08","18","21:00","24.3","","16.8","","63","","20","","4","","19.3","","100.20","","29","","","","Cloudy"
"2006-08-18 22:00","2006","08","18","22:00","23.2","","17.2","","69","","19","","11","","19.3","","100.15","","29","","","","Mostly Cloudy"
"2006-08-18 23:00","2006","08","18","23:00","22.7","","17.3","","72","","22","","6","","25.0","","100.15","","28","","","","Cloudy"
"2006-08-19 00:00","2006","08","19","00:00","22.4","","17.5","","74","","21","","4","","25.0","","100.14","","28","","","","Mostly Cloudy"
"2006-08-19 01:00","2006","08","19","01:00","21.2","","17.6","","80","","20","","6","","25.0","","100.10","","27","","","","Mostly Cloudy"
"2006-08-19 02:00","2006","08","19","02:00","20.4","","17.5","","83","","25","","6","","25.0","","100.08","","26","","","","Cloudy"
"2006-08-19 03:00","2006","08","19","03:00","20.0","","17.5","","86","","29","","4","","25.0","","100.04","","26","","","","Mostly Cloudy"
"2006-08-19 04:00","2006","08","19","04:00","19.7","","17.5","","87","","29","","4","","25.0","","100.05","","","","","","Cloudy"
"2006-08-19 05:00","2006","08","19","05:00","19.5","","17.7","","89","","28","","4","","24.1","","100.08","","","","","","Mostly Cloudy"
"2006-08-19 06:00","2006","08","19","06:00","19.8","","18.6","","93","","29","","4","","19.3","","100.11","","","","","","Mostly Cloudy"
"2006-08-19 07:00","2006","08","19","07:00","20.9","","18.8","","88","","28","","4","","19.3","","100.12","","28","","","","Mostly Cloudy"
"2006-08-19 08:00","2006","08","19","08:00","22.8","","17.7","","73","","33","","7","","19.3","","100.12","","29","","","","Mostly Cloudy"
"2006-08-19 09:00","2006","08","19","09:00","24.8","","16.5","","60","","1","","4","","19.3","","100.09","","30","","","","Mostly Cloudy"
"2006-08-19 10:00","2006","08","19","10:00","26.7","","15.3","","50","","16","","7","","19.3","","100.04","","31","","","","Mostly Cloudy"
"2006-08-19 11:00","2006","08","19","11:00","27.7","","16.7","","51","","14","","9","","19.3","","100.00","","33","","","","Mostly Cloudy"
"2006-08-19 12:00","2006","08","19","12:00","26.8","","17.7","","57","","14","","7","","24.1","","99.95","","33","","","","Mostly Cloudy"
"2006-08-19 13:00","2006","08","19","13:00","27.2","","16.6","","52","","19","","11","","24.1","","99.89","","32","","","","Mostly Cloudy"
"2006-08-19 14:00","2006","08","19","14:00","27.5","","16.3","","50","","30","","4","","24.1","","99.82","","32","","","","Mostly Cloudy"
"2006-08-19 15:00","2006","08","19","15:00","26.8","","17.0","","55","","5","","7","","24.1","","99.77","","32","","","","Mostly Cloudy"
"2006-08-19 16:00","2006","08","19","16:00","24.4","","19.6","","75","","17","","11","","19.3","","99.76","","32","","","","Rain Showers"
"2006-08-19 17:00","2006","08","19","17:00","21.7","","19.3","","86","","23","","7","","8.0","","99.74","","29","","","","Rain Showers"
"2006-08-19 18:00","2006","08","19","18:00","22.6","","19.4","","82","","18","","13","","16.1","","99.71","","30","","","","Cloudy"
"2006-08-19 19:00","2006","08","19","19:00","21.6","","18.7","","84","","18","","13","","16.1","","99.69","","28","","","","Cloudy"
"2006-08-19 20:00","2006","08","19","20:00","20.4","","18.1","","87","","18","","6","","16.1","","99.68","","26","","","","Mostly Cloudy"
"2006-08-19 21:00","2006","08","19","21:00","19.8","","18.2","","90","","","","0","","16.1","","99.70","","","","","","Cloudy"
"2006-08-19 22:00","2006","08","19","22:00","20.0","","18.3","","90","","","","0","","16.1","","99.63","","26","","","","Cloudy"
"2006-08-19 23:00","2006","08","19","23:00","19.9","","18.2","","90","","7","","7","","16.1","","99.59","","","","","","Cloudy"
"2006-08-20 00:00","2006","08","20","00:00","19.5","","18.3","","93","","9","","7","","9.7","","99.55","","","","","","Fog"
"2006-08-20 01:00","2006","08","20","01:00","19.6","","18.3","","92","","5","","9","","8.0","","99.48","","","","","","Fog"
"2006-08-20 02:00","2006","08","20","02:00","18.7","","17.3","","92","","6","","19","","9.7","","99.42","","","","","","Fog"
"2006-08-20 03:00","2006","08","20","03:00","18.8","","17.3","","91","","7","","13","","8.0","","99.39","","","","","","Fog"
"2006-08-20 04:00","2006","08","20","04:00","18.6","","17.6","","94","","8","","9","","8.0","","99.41","","","","","","Fog"
"2006-08-20 05:00","2006","08","20","05:00","18.8","","18.0","","95","","1","","6","","4.8","","99.41","","","","","","Drizzle,Fog"
"2006-08-20 06:00","2006","08","20","06:00","18.2","","17.5","","96","","1","","20","","6.4","","99.44","","","","","","Rain,Fog"
"2006-08-20 07:00","2006","08","20","07:00","16.8","","15.8","","94","","2","","24","","9.7","","99.48","","","","","","Rain,Fog"
"2006-08-20 08:00","2006","08","20","08:00","16.3","","15.1","","93","","4","","19","","6.4","","99.51","","","","","","Rain,Fog"
"2006-08-20 09:00","2006","08","20","09:00","16.4","","15.1","","92","","4","","15","","19.3","","99.54","","","","","","Rain"
"2006-08-20 10:00","2006","08","20","10:00","17.0","","15.2","","89","","5","","24","","19.3","","99.60","","","","","","Cloudy"
"2006-08-20 11:00","2006","08","20","11:00","17.0","","14.7","","86","","3","","17","","19.3","","99.64","","","","","","Cloudy"
"2006-08-20 12:00","2006","08","20","12:00","17.0","","14.7","","86","","1","","13","","11.3","","99.71","","","","","","Drizzle"
"2006-08-20 13:00","2006","08","20","13:00","17.1","","15.2","","89","","1","","17","","19.3","","99.73","","","","","","Drizzle"
"2006-08-20 14:00","2006","08","20","14:00","17.0","","15.5","","91","","1","","15","","6.4","","99.72","","","","","","Drizzle,Fog"
"2006-08-20 15:00","2006","08","20","15:00","16.6","","15.4","","93","","1","","13","","2.4","","99.76","","","","","","Drizzle,Fog"
"2006-08-20 16:00","2006","08","20","16:00","16.4","","15.3","","93","","2","","11","","16.1","","99.81","","","","","","Drizzle"
"2006-08-20 17:00","2006","08","20","17:00","16.7","","14.8","","89","","35","","15","","19.3","","99.84","","","","","","Drizzle"
"2006-08-20 18:00","2006","08","20","18:00","16.7","","14.9","","89","","34","","9","","24.1","","99.89","","","","","","Cloudy"
"2006-08-20 19:00","2006","08","20","19:00","16.0","","14.6","","91","","34","","13","","4.8","","99.95","","","","","","Rain,Fog"
"2006-08-20 20:00","2006","08","20","20:00","16.1","","14.1","","88","","34","","20","","25.0","","100.00","","","","","","Cloudy"
"2006-08-20 21:00","2006","08","20","21:00","14.9","","13.6","","92","","36","","11","","19.3","","100.07","","","","","","Rain"
"2006-08-20 22:00","2006","08","20","22:00","15.3","","14.0","","92","","31","","11","","25.0","","100.08","","","","","","Mostly Cloudy"
"2006-08-20 23:00","2006","08","20","23:00","14.9","","13.0","","88","","33","","17","","25.0","","100.09","","","","","","Mostly Cloudy"
"2006-08-21 00:00","2006","08","21","00:00","15.0","","12.5","","85","","33","","17","","25.0","","100.10","","","","","","Mostly Cloudy"
"2006-08-21 01:00","2006","08","21","01:00","15.1","","12.3","","83","","33","","19","","25.0","","100.11","","","","","","Mostly Cloudy"
"2006-08-21 02:00","2006","08","21","02:00","15.0","","12.0","","82","","33","","17","","25.0","","100.16","","","","","","Mostly Cloudy"
"2006-08-21 03:00","2006","08","21","03:00","13.7","","11.4","","86","","32","","11","","25.0","","100.17","","","","","","Mainly Clear"
"2006-08-21 04:00","2006","08","21","04:00","12.9","","11.5","","91","","28","","13","","25.0","","100.25","","","","","","Mainly Clear"
"2006-08-21 05:00","2006","08","21","05:00","11.8","","10.5","","92","","30","","9","","32.2","","100.28","","","","","","Clear"
"2006-08-21 06:00","2006","08","21","06:00","12.1","","10.8","","92","","30","","11","","32.2","","100.33","","","","","","Mainly Clear"
"2006-08-21 07:00","2006","08","21","07:00","14.0","","11.7","","86","","28","","9","","32.2","","100.36","","","","","","Mainly Clear"
"2006-08-21 08:00","2006","08","21","08:00","16.3","","12.4","","78","","29","","11","","32.2","","100.36","","","","","","Mainly Clear"
"2006-08-21 09:00","2006","08","21","09:00","18.4","","12.5","","68","","30","","11","","32.2","","100.39","","","","","","Mainly Clear"
"2006-08-21 10:00","2006","08","21","10:00","20.0","","12.6","","62","","31","","9","","32.2","","100.39","","","","","","Mainly Clear"
"2006-08-21 11:00","2006","08","21","11:00","21.5","","12.2","","55","","30","","7","","32.2","","100.39","","","","","","Mainly Clear"
"2006-08-21 12:00","2006","08","21","12:00","22.3","","11.7","","51","","26","","19","","32.2","","100.37","","","","","","Mainly Clear"
"2006-08-21 13:00","2006","08","21","13:00","23.8","","10.3","","42","","28","","15","","32.2","","100.33","","25","","","","Mainly Clear"
"2006-08-21 14:00","2006","08","21","14:00","24.4","","11.2","","44","","27","","15","","32.2","","100.29","","26","","","","Mainly Clear"
"2006-08-21 15:00","2006","08","21","15:00","24.4","","9.6","","39","","31","","13","","32.2","","100.29","","25","","","","Mostly Cloudy"
"2006-08-21 16:00","2006","08","21","16:00","23.7","","11.1","","45","","31","","13","","32.2","","100.25","","26","","","","Mostly Cloudy"
"2006-08-21 17:00","2006","08","21","17:00","24.1","","11.5","","45","","31","","7","","32.2","","100.21","","26","","","","Mostly Cloudy"
"2006-08-21 18:00","2006","08","21","18:00","23.0","","11.7","","49","","","","0","","32.2","","100.18","","25","","","","Mostly Cloudy"
"2006-08-21 19:00","2006","08","21","19:00","22.4","","10.7","","47","","28","","4","","32.2","","100.14","","","","","","Mainly Clear"
"2006-08-21 20:00","2006","08","21","20:00","19.3","","12.4","","64","","18","","4","","25.0","","100.15","","","","","","Mostly Cloudy"
"2006-08-21 21:00","2006","08","21","21:00","17.9","","11.9","","68","","17","","7","","25.0","","100.17","","","","","","Mainly Clear"
"2006-08-21 22:00","2006","08","21","22:00","17.7","","13.5","","76","","20","","7","","25.0","","100.17","","","","","","Mainly Clear"
"2006-08-21 23:00","2006","08","21","23:00","16.9","","13.1","","78","","20","","6","","25.0","","100.18","","","","","","Mainly Clear"
"2006-08-22 00:00","2006","08","22","00:00","16.0","","13.0","","82","","21","","9","","25.0","","100.23","","","","","","Mainly Clear"
"2006-08-22 01:00","2006","08","22","01:00","16.6","","12.5","","77","","22","","7","","25.0","","100.21","","","","","","Mostly Cloudy"
"2006-08-22 02:00","2006","08","22","02:00","15.3","","12.4","","83","","21","","9","","25.0","","100.22","","","","","","Mostly Cloudy"
"2006-08-22 03:00","2006","08","22","03:00","15.7","","12.8","","83","","22","","9","","25.0","","100.17","","","","","","Mostly Cloudy"
"2006-08-22 04:00","2006","08","22","04:00","16.1","","12.6","","80","","21","","7","","25.0","","100.15","","","","","","Mostly Cloudy"
"2006-08-22 05:00","2006","08","22","05:00","14.9","","12.5","","86","","21","","9","","24.1","","100.14","","","","","","Mainly Clear"
"2006-08-22 06:00","2006","08","22","06:00","16.2","","12.8","","80","","23","","9","","24.1","","100.18","","","","","","Mainly Clear"
"2006-08-22 07:00","2006","08","22","07:00","16.9","","13.6","","81","","27","","7","","24.1","","100.20","","","","","","Mainly Clear"
"2006-08-22 08:00","2006","08","22","08:00","19.7","","14.1","","70","","26","","13","","24.1","","100.21","","","","","","Clear"
"2006-08-22 09:00","2006","08","22","09:00","21.2","","15.0","","68","","28","","13","","24.1","","100.22","","25","","","","Mostly Cloudy"
"2006-08-22 10:00","2006","08","22","10:00","21.3","","15.0","","67","","29","","17","","24.1","","100.24","","25","","","","Mostly Cloudy"
"2006-08-22 11:00","2006","08","22","11:00","21.9","","14.8","","64","","34","","13","","24.1","","100.26","","26","","","","Mainly Clear"
"2006-08-22 12:00","2006","08","22","12:00","23.5","","13.7","","54","","35","","11","","24.1","","100.24","","27","","","","Mainly Clear"
"2006-08-22 13:00","2006","08","22","13:00","24.0","","13.6","","52","","27","","19","","24.1","","100.20","","27","","","","Mostly Cloudy"
"2006-08-22 14:00","2006","08","22","14:00","24.7","","12.6","","47","","30","","17","","24.1","","100.19","","27","","","","Mainly Clear"
"2006-08-22 15:00","2006","08","22","15:00","24.6","","12.1","","46","","32","","15","","24.1","","100.16","","27","","","","Mainly Clear"
"2006-08-22 16:00","2006","08","22","16:00","23.6","","10.9","","45","","33","","20","","24.1","","100.17","","25","","","","Mainly Clear"
"2006-08-22 17:00","2006","08","22","17:00","23.0","","10.9","","46","","34","","17","","24.1","","100.18","","25","","","","Mainly Clear"
"2006-08-22 18:00","2006","08","22","18:00","21.6","","11.0","","51","","34","","9","","24.1","","100.18","","","","","","Mainly Clear"
"2006-08-22 19:00","2006","08","22","19:00","20.3","","10.0","","52","","34","","11","","24.1","","100.21","","","","","","Mostly Cloudy"
"2006-08-22 20:00","2006","08","22","20:00","19.2","","10.7","","58","","36","","9","","25.0","","100.28","","","","","","Mostly Cloudy"
"2006-08-22 21:00","2006","08","22","21:00","18.3","","10.4","","60","","36","","11","","25.0","","100.29","","","","","","Mostly Cloudy"
"2006-08-22 22:00","2006","08","22","22:00","17.1","","10.8","","66","","35","","9","","25.0","","100.31","","","","","","Mostly Cloudy"
"2006-08-22 23:00","2006","08","22","23:00","16.3","","10.5","","69","","","","0","","25.0","","100.33","","","","","","Mainly Clear"
"2006-08-23 00:00","2006","08","23","00:00","15.6","","10.7","","73","","20","","6","","25.0","","100.34","","","","","","Mostly Cloudy"
"2006-08-23 01:00","2006","08","23","01:00","15.2","","11.2","","77","","27","","6","","25.0","","100.34","","","","","","Mostly Cloudy"
"2006-08-23 02:00","2006","08","23","02:00","15.0","","11.2","","78","","32","","6","","25.0","","100.35","","","","","","Mostly Cloudy"
"2006-08-23 03:00","2006","08","23","03:00","14.0","","10.3","","78","","35","","9","","25.0","","100.34","","","","","","Mostly Cloudy"
"2006-08-23 04:00","2006","08","23","04:00","13.8","","10.5","","80","","34","","6","","25.0","","100.34","","","","","","Mostly Cloudy"
"2006-08-23 05:00","2006","08","23","05:00","13.6","","10.6","","82","","","","0","","24.1","","100.33","","","","","","Mainly Clear"
"2006-08-23 06:00","2006","08","23","06:00","13.2","","11.0","","87","","34","","6","","24.1","","100.36","","","","","","Mainly Clear"
"2006-08-23 07:00","2006","08","23","07:00","14.6","","12.1","","85","","25","","6","","24.1","","100.42","","","","","","Mostly Cloudy"
"2006-08-23 08:00","2006","08","23","08:00","15.8","","10.6","","71","","33","","13","","24.1","","100.47","","","","","","Mostly Cloudy"
"2006-08-23 09:00","2006","08","23","09:00","16.0","","8.2","","60","","31","","9","","24.1","","100.48","","","","","","Mostly Cloudy"
"2006-08-23 10:00","2006","08","23","10:00","17.3","","7.4","","52","","34","","9","","24.1","","100.49","","","","","","Mostly Cloudy"
"2006-08-23 11:00","2006","08","23","11:00","17.6","","5.9","","46","","34","","15","","24.1","","100.47","","","","","","Mostly Cloudy"
"2006-08-23 12:00","2006","08","23","12:00","18.5","","8.8","","53","","26","","19","","24.1","","100.42","","","","","","Mainly Clear"
"2006-08-23 13:00","2006","08","23","13:00","19.8","","7.1","","44","","27","","15","","24.1","","100.39","","","","","","Mostly Cloudy"
"2006-08-23 14:00","2006","08","23","14:00","19.9","","6.6","","42","","29","","17","","24.1","","100.34","","","","","","Mostly Cloudy"
"2006-08-23 15:00","2006","08","23","15:00","18.8","","6.1","","43","","29","","22","","24.1","","100.33","","","","","","Cloudy"
"2006-08-23 16:00","2006","08","23","16:00","19.5","","6.6","","43","","27","","15","","24.1","","100.30","","","","","","Mostly Cloudy"
"2006-08-23 17:00","2006","08","23","17:00","19.1","","5.6","","41","","28","","20","","24.1","","100.27","","","","","","Mainly Clear"
"2006-08-23 18:00","2006","08","23","18:00","17.1","","6.8","","51","","27","","7","","24.1","","100.25","","","","","","Cloudy"
"2006-08-23 19:00","2006","08","23","19:00","16.3","","6.9","","54","","29","","6","","24.1","","100.24","","","","","","Mostly Cloudy"
"2006-08-23 20:00","2006","08","23","20:00","15.6","","7.1","","57","","27","","4","","25.0","","100.27","","","","","","Mostly Cloudy"
"2006-08-23 21:00","2006","08","23","21:00","14.6","","6.7","","59","","","","0","","25.0","","100.29","","","","","","Mainly Clear"
"2006-08-23 22:00","2006","08","23","22:00","14.3","","7.5","","64","","","","0","","25.0","","100.28","","","","","","Mostly Cloudy"
"2006-08-23 23:00","2006","08","23","23:00","14.5","","8.2","","66","","4","","11","","25.0","","100.27","","","","","","Mostly Cloudy"
"2006-08-24 00:00","2006","08","24","00:00","12.9","","7.9","","72","","20","","7","","25.0","","100.29","","","","","","Cloudy"
"2006-08-24 01:00","2006","08","24","01:00","12.7","","8.1","","74","","18","","6","","25.0","","100.25","","","","","","Cloudy"
"2006-08-24 02:00","2006","08","24","02:00","13.6","","8.1","","69","","","","0","","25.0","","100.26","","","","","","Mostly Cloudy"
"2006-08-24 03:00","2006","08","24","03:00","13.3","","9.2","","76","","23","","4","","25.0","","100.26","","","","","","Mostly Cloudy"
"2006-08-24 04:00","2006","08","24","04:00","13.5","","8.2","","70","","26","","4","","25.0","","100.30","","","","","","Cloudy"
"2006-08-24 05:00","2006","08","24","05:00","13.4","","9.3","","76","","5","","6","","24.1","","100.31","","","","","","Mostly Cloudy"
"2006-08-24 06:00","2006","08","24","06:00","13.0","","10.1","","83","","14","","6","","24.1","","100.34","","","","","","Rain"
"2006-08-24 07:00","2006","08","24","07:00","13.4","","9.3","","76","","18","","6","","24.1","","100.40","","","","","","Mostly Cloudy"
"2006-08-24 08:00","2006","08","24","08:00","14.2","","10.8","","80","","18","","7","","24.1","","100.38","","","","","","Cloudy"
"2006-08-24 09:00","2006","08","24","09:00","15.6","","10.1","","70","","26","","6","","24.1","","100.38","","","","","","Cloudy"
"2006-08-24 10:00","2006","08","24","10:00","17.2","","11.2","","68","","27","","4","","24.1","","100.39","","","","","","Mostly Cloudy"
"2006-08-24 11:00","2006","08","24","11:00","17.1","","10.8","","66","","6","","4","","24.1","","100.37","","","","","","Mostly Cloudy"
"2006-08-24 12:00","2006","08","24","12:00","18.5","","11.3","","63","","26","","7","","24.1","","100.34","","","","","","Mostly Cloudy"
"2006-08-24 13:00","2006","08","24","13:00","19.8","","10.3","","54","","34","","4","","24.1","","100.32","","","","","","Mostly Cloudy"
"2006-08-24 14:00","2006","08","24","14:00","20.7","","8.5","","45","","3","","4","","24.1","","100.28","","","","","","Mostly Cloudy"
"2006-08-24 15:00","2006","08","24","15:00","19.9","","8.2","","47","","34","","6","","24.1","","100.25","","","","","","Mainly Clear"
"2006-08-24 16:00","2006","08","24","16:00","18.7","","9.3","","54","","1","","19","","24.1","","100.25","","","","","","Mostly Cloudy"
"2006-08-24 17:00","2006","08","24","17:00","19.5","","8.9","","50","","5","","6","","24.1","","100.27","","","","","","Mainly Clear"
"2006-08-24 18:00","2006","08","24","18:00","18.1","","9.3","","56","","7","","11","","24.1","","100.25","","","","","","Mainly Clear"
"2006-08-24 19:00","2006","08","24","19:00","16.4","","9.6","","64","","10","","6","","24.1","","100.30","","","","","","Clear"
"2006-08-24 20:00","2006","08","24","20:00","15.6","","10.0","","69","","","","0","","25.0","","100.39","","","","","","Mainly Clear"
"2006-08-24 21:00","2006","08","24","21:00","15.0","","8.0","","63","","5","","9","","25.0","","100.42","","","","","","Mainly Clear"
"2006-08-24 22:00","2006","08","24","22:00","14.3","","7.4","","63","","5","","13","","25.0","","100.44","","","","","","Mainly Clear"
"2006-08-24 23:00","2006","08","24","23:00","12.5","","7.5","","72","","6","","9","","25.0","","100.43","","","","","","Mainly Clear"
"2006-08-25 00:00","2006","08","25","00:00","13.0","","7.9","","71","","4","","13","","25.0","","100.43","","","","","","Mostly Cloudy"
"2006-08-25 01:00","2006","08","25","01:00","12.9","","7.9","","72","","3","","9","","25.0","","100.48","","","","","","Cloudy"
"2006-08-25 02:00","2006","08","25","02:00","13.0","","7.8","","71","","4","","13","","25.0","","100.48","","","","","","Mostly Cloudy"
"2006-08-25 03:00","2006","08","25","03:00","11.9","","7.7","","75","","5","","9","","25.0","","100.47","","","","","","Mainly Clear"
"2006-08-25 04:00","2006","08","25","04:00","11.4","","7.8","","79","","3","","13","","25.0","","100.50","","","","","","Mostly Cloudy"
"2006-08-25 05:00","2006","08","25","05:00","11.4","","6.7","","73","","5","","19","","24.1","","100.52","","","","","","Mostly Cloudy"
"2006-08-25 06:00","2006","08","25","06:00","11.5","","6.8","","73","","5","","13","","32.2","","100.57","","","","","","Mostly Cloudy"
"2006-08-25 07:00","2006","08","25","07:00","13.0","","6.3","","64","","6","","13","","32.2","","100.61","","","","","","Mostly Cloudy"
"2006-08-25 08:00","2006","08","25","08:00","13.8","","6.2","","60","","7","","19","","32.2","","100.60","","","","","","Mostly Cloudy"
"2006-08-25 09:00","2006","08","25","09:00","16.0","","6.8","","54","","6","","15","","32.2","","100.62","","","","","","Mainly Clear"
"2006-08-25 10:00","2006","08","25","10:00","17.1","","7.8","","54","","7","","15","","32.2","","100.64","","","","","","Mainly Clear"
"2006-08-25 11:00","2006","08","25","11:00","18.4","","7.3","","48","","7","","15","","32.2","","100.64","","","","","","Mainly Clear"
"2006-08-25 12:00","2006","08","25","12:00","19.3","","7.8","","47","","7","","22","","32.2","","100.59","","","","","","Mainly Clear"
"2006-08-25 13:00","2006","08","25","13:00","19.3","","7.7","","47","","11","","11","","32.2","","100.55","","","","","","Mostly Cloudy"
"2006-08-25 14:00","2006","08","25","14:00","20.1","","8.5","","47","","7","","7","","32.2","","100.52","","","","","","Mostly Cloudy"
"2006-08-25 15:00","2006","08","25","15:00","20.5","","8.8","","47","","9","","13","","32.2","","100.49","","","","","","Mostly Cloudy"
"2006-08-25 16:00","2006","08","25","16:00","20.0","","8.0","","46","","5","","9","","32.2","","100.49","","","","","","Mostly Cloudy"
"2006-08-25 17:00","2006","08","25","17:00","19.2","","8.1","","49","","7","","9","","32.2","","100.52","","","","","","Mostly Cloudy"
"2006-08-25 18:00","2006","08","25","18:00","18.4","","9.1","","55","","8","","7","","32.2","","100.53","","","","","","Mostly Cloudy"
"2006-08-25 19:00","2006","08","25","19:00","17.0","","10.0","","63","","8","","6","","25.0","","100.60","","","","","","Mainly Clear"
"2006-08-25 20:00","2006","08","25","20:00","15.6","","10.1","","70","","7","","6","","25.0","","100.68","","","","","","Mainly Clear"
"2006-08-25 21:00","2006","08","25","21:00","15.1","","9.7","","70","","5","","9","","25.0","","100.73","","","","","","Clear"
"2006-08-25 22:00","2006","08","25","22:00","14.2","","9.1","","71","","5","","7","","25.0","","100.78","","","","","","Clear"
"2006-08-25 23:00","2006","08","25","23:00","13.1","","8.7","","75","","5","","9","","25.0","","100.77","","","","","","Clear"
"2006-08-26 00:00","2006","08","26","00:00","12.1","","8.4","","78","","5","","11","","25.0","","100.79","","","","","","Clear"
"2006-08-26 01:00","2006","08","26","01:00","11.4","","7.9","","79","","4","","13","","25.0","","100.78","","","","","","Clear"
"2006-08-26 02:00","2006","08","26","02:00","10.7","","7.9","","83","","5","","11","","25.0","","100.78","","","","","","Clear"
"2006-08-26 03:00","2006","08","26","03:00","10.6","","7.8","","83","","4","","11","","25.0","","100.80","","","","","","Clear"
"2006-08-26 04:00","2006","08","26","04:00","10.1","","6.9","","80","","4","","13","","25.0","","100.83","","","","","","Clear"
"2006-08-26 05:00","2006","08","26","05:00","10.0","","6.4","","78","","4","","9","","24.1","","100.88","","","","","","Mainly Clear"
"2006-08-26 06:00","2006","08","26","06:00","10.4","","6.6","","77","","4","","11","","32.2","","100.95","","","","","","Mainly Clear"
"2006-08-26 07:00","2006","08","26","07:00","12.0","","7.1","","72","","5","","13","","32.2","","101.00","","","","","","Mainly Clear"
"2006-08-26 08:00","2006","08","26","08:00","14.3","","7.3","","63","","8","","20","","32.2","","101.01","","","","","","Mainly Clear"
"2006-08-26 09:00","2006","08","26","09:00","16.0","","7.6","","57","","8","","17","","32.2","","101.02","","","","","","Mainly Clear"
"2006-08-26 10:00","2006","08","26","10:00","18.1","","7.8","","51","","8","","19","","32.2","","100.97","","","","","","Mainly Clear"
"2006-08-26 11:00","2006","08","26","11:00","19.6","","7.5","","45","","7","","15","","32.2","","100.97","","","","","","Mainly Clear"
"2006-08-26 12:00","2006","08","26","12:00","21.3","","7.4","","41","","9","","17","","32.2","","100.96","","","","","","Mainly Clear"
"2006-08-26 13:00","2006","08","26","13:00","21.7","","7.7","","40","","10","","17","","32.2","","100.95","","","","","","Mostly Cloudy"
"2006-08-26 14:00","2006","08","26","14:00","21.5","","8.4","","43","","8","","17","","32.2","","100.87","","","","","","Mostly Cloudy"
"2006-08-26 15:00","2006","08","26","15:00","21.3","","9.5","","47","","8","","11","","32.2","","100.81","","","","","","Mostly Cloudy"
"2006-08-26 16:00","2006","08","26","16:00","21.8","","9.3","","45","","11","","19","","32.2","","100.79","","","","","","Mostly Cloudy"
"2006-08-26 17:00","2006","08","26","17:00","20.9","","8.7","","46","","9","","13","","32.2","","100.78","","","","","","Mainly Clear"
"2006-08-26 18:00","2006","08","26","18:00","19.3","","9.3","","52","","9","","15","","32.2","","100.78","","","","","","Mostly Cloudy"
"2006-08-26 19:00","2006","08","26","19:00","17.5","","9.4","","59","","7","","9","","32.2","","100.75","","","","","","Mostly Cloudy"
"2006-08-26 20:00","2006","08","26","20:00","16.7","","9.1","","61","","7","","15","","24.1","","100.74","","","","","","Mostly Cloudy"
"2006-08-26 21:00","2006","08","26","21:00","16.5","","9.3","","62","","7","","15","","24.1","","100.75","","","","","","Cloudy"
"2006-08-26 22:00","2006","08","26","22:00","16.1","","9.9","","67","","10","","13","","24.1","","100.71","","","","","","Cloudy"
"2006-08-26 23:00","2006","08","26","23:00","15.5","","11.0","","75","","9","","9","","24.1","","100.69","","","","","","Cloudy"
"2006-08-27 00:00","2006","08","27","00:00","15.2","","11.7","","80","","10","","11","","24.1","","100.66","","","","","","Cloudy"
"2006-08-27 01:00","2006","08","27","01:00","15.4","","12.5","","83","","10","","11","","24.1","","100.60","","","","","","Cloudy"
"2006-08-27 02:00","2006","08","27","02:00","16.0","","13.3","","84","","10","","13","","24.1","","100.54","","","","","","Cloudy"
"2006-08-27 03:00","2006","08","27","03:00","16.3","","13.7","","85","","10","","13","","19.3","","100.49","","","","","","Rain"
"2006-08-27 04:00","2006","08","27","04:00","15.6","","14.3","","92","","11","","17","","16.1","","100.40","","","","","","Rain"
"2006-08-27 05:00","2006","08","27","05:00","15.9","","14.8","","93","","11","","11","","16.1","","100.37","","","","","","Rain"
"2006-08-27 06:00","2006","08","27","06:00","16.2","","15.2","","94","","15","","13","","12.9","","100.34","","","","","","Cloudy"
"2006-08-27 07:00","2006","08","27","07:00","16.6","","15.4","","93","","16","","11","","9.7","","100.34","","","","","","Rain,Fog"
"2006-08-27 08:00","2006","08","27","08:00","16.3","","15.3","","94","","15","","6","","8.0","","100.24","","","","","","Rain,Fog"
"2006-08-27 09:00","2006","08","27","09:00","16.5","","15.4","","93","","16","","9","","8.0","","100.20","","","","","","Rain,Fog"
"2006-08-27 10:00","2006","08","27","10:00","16.5","","15.5","","94","","16","","11","","9.7","","100.17","","","","","","Rain,Fog"
"2006-08-27 11:00","2006","08","27","11:00","16.8","","15.8","","94","","14","","6","","8.0","","100.11","","","","","","Rain,Fog"
"2006-08-27 12:00","2006","08","27","12:00","17.6","","16.5","","93","","16","","9","","9.7","","100.07","","","","","","Fog"
"2006-08-27 13:00","2006","08","27","13:00","18.0","","16.6","","92","","19","","11","","9.7","","100.03","","","","","","Rain,Fog"
"2006-08-27 14:00","2006","08","27","14:00","18.8","","16.9","","89","","19","","11","","16.1","","99.96","","","","","","Cloudy"
"2006-08-27 15:00","2006","08","27","15:00","19.3","","17.3","","88","","20","","13","","12.9","","99.91","","","","","","Cloudy"
"2006-08-27 16:00","2006","08","27","16:00","20.1","","18.3","","89","","19","","9","","16.1","","99.89","","26","","","","Cloudy"
"2006-08-27 17:00","2006","08","27","17:00","20.8","","18.6","","87","","20","","11","","16.1","","99.88","","27","","","","Cloudy"
"2006-08-27 18:00","2006","08","27","18:00","19.6","","18.3","","92","","10","","4","","16.1","","99.91","","","","","","Cloudy"
"2006-08-27 19:00","2006","08","27","19:00","19.6","","18.4","","93","","14","","7","","16.1","","99.92","","","","","","Cloudy"
"2006-08-27 20:00","2006","08","27","20:00","19.2","","17.4","","89","","18","","6","","16.1","","99.96","","","","","","Cloudy"
"2006-08-27 21:00","2006","08","27","21:00","19.0","","17.4","","90","","33","","9","","16.1","","100.04","","","","","","Cloudy"
"2006-08-27 22:00","2006","08","27","22:00","19.3","","18.2","","93","","30","","6","","19.3","","100.04","","","","","","Cloudy"
"2006-08-27 23:00","2006","08","27","23:00","18.5","","17.7","","95","","34","","7","","19.3","","100.07","","","","","","Mostly Cloudy"
"2006-08-28 00:00","2006","08","28","00:00","18.4","","16.8","","90","","35","","13","","19.3","","100.08","","","","","","Mostly Cloudy"
"2006-08-28 01:00","2006","08","28","01:00","16.7","","15.7","","94","","34","","11","","24.1","","100.08","","","","","","Clear"
"2006-08-28 02:00","2006","08","28","02:00","16.3","","14.8","","91","","35","","17","","19.3","","100.05","","","","","","Clear"
"2006-08-28 03:00","2006","08","28","03:00","15.2","","14.0","","93","","35","","11","","24.1","","100.11","","","","","","Clear"
"2006-08-28 04:00","2006","08","28","04:00","14.6","","13.7","","94","","1","","7","","24.1","","100.13","","","","","","Clear"
"2006-08-28 05:00","2006","08","28","05:00","14.3","","13.4","","94","","36","","11","","24.1","","100.16","","","","","","Clear"
"2006-08-28 06:00","2006","08","28","06:00","14.1","","13.2","","94","","1","","9","","24.1","","100.17","","","","","","Mainly Clear"
"2006-08-28 07:00","2006","08","28","07:00","15.7","","14.1","","90","","36","","11","","19.3","","100.25","","","","","","Mainly Clear"
"2006-08-28 08:00","2006","08","28","08:00","17.8","","14.4","","80","","36","","13","","24.1","","100.20","","","","","","Mainly Clear"
"2006-08-28 09:00","2006","08","28","09:00","19.1","","14.9","","77","","2","","9","","24.1","","100.20","","","","","","Mainly Clear"
"2006-08-28 10:00","2006","08","28","10:00","19.6","","14.7","","73","","34","","7","","24.1","","100.21","","","","","","Mainly Clear"
"2006-08-28 11:00","2006","08","28","11:00","21.5","","13.4","","60","","1","","6","","24.1","","100.18","","25","","","","Mainly Clear"
"2006-08-28 12:00","2006","08","28","12:00","22.6","","11.9","","51","","5","","9","","24.1","","100.15","","25","","","","Mostly Cloudy"
"2006-08-28 13:00","2006","08","28","13:00","23.5","","13.2","","52","","2","","9","","24.1","","100.10","","26","","","","Mostly Cloudy"
"2006-08-28 14:00","2006","08","28","14:00","22.9","","13.0","","54","","1","","9","","24.1","","100.09","","26","","","","Mostly Cloudy"
"2006-08-28 15:00","2006","08","28","15:00","22.1","","13.2","","57","","32","","9","","24.1","","100.05","","25","","","","Mostly Cloudy"
"2006-08-28 16:00","2006","08","28","16:00","22.4","","12.2","","52","","27","","6","","24.1","","100.05","","25","","","","Mostly Cloudy"
"2006-08-28 17:00","2006","08","28","17:00","22.6","","12.8","","54","","33","","4","","24.1","","100.01","","25","","","","Mainly Clear"
"2006-08-28 18:00","2006","08","28","18:00","21.8","","12.5","","55","","29","","6","","24.1","","100.01","","","","","","Mostly Cloudy"
"2006-08-28 19:00","2006","08","28","19:00","19.6","","12.6","","64","","33","","9","","24.1","","100.00","","","","","","Mostly Cloudy"
"2006-08-28 20:00","2006","08","28","20:00","19.4","","12.4","","64","","36","","6","","24.1","","100.04","","","","","","Mostly Cloudy"
"2006-08-28 21:00","2006","08","28","21:00","19.5","","12.5","","64","","","","0","","24.1","","99.98","","","","","","Mostly Cloudy"
"2006-08-28 22:00","2006","08","28","22:00","17.7","","12.4","","71","","3","","4","","24.1","","99.97","","","","","","Mostly Cloudy"
"2006-08-28 23:00","2006","08","28","23:00","16.8","","13.6","","81","","","","0","","24.1","","99.93","","","","","","Cloudy"
"2006-08-29 00:00","2006","08","29","00:00","16.6","","13.8","","84","","","","0","","24.1","","99.93","","","","","","Cloudy"
"2006-08-29 01:00","2006","08","29","01:00","16.4","","14.6","","89","","2","","6","","19.3","","99.96","","","","","","Cloudy"
"2006-08-29 02:00","2006","08","29","02:00","16.3","","14.7","","90","","5","","6","","16.1","","99.92","","","","","","Cloudy"
"2006-08-29 03:00","2006","08","29","03:00","16.5","","14.8","","90","","4","","6","","16.1","","99.91","","","","","","Cloudy"
"2006-08-29 04:00","2006","08","29","04:00","16.3","","14.7","","90","","4","","9","","24.1","","99.90","","","","","","Cloudy"
"2006-08-29 05:00","2006","08","29","05:00","16.3","","14.7","","90","","3","","7","","16.1","","99.92","","","","","","Mostly Cloudy"
"2006-08-29 06:00","2006","08","29","06:00","16.3","","14.7","","90","","5","","7","","19.3","","99.90","","","","","","Cloudy"
"2006-08-29 07:00","2006","08","29","07:00","16.5","","14.6","","89","","1","","11","","19.3","","99.93","","","","","","Cloudy"
"2006-08-29 08:00","2006","08","29","08:00","17.5","","15.0","","85","","8","","7","","19.3","","99.91","","","","","","Mostly Cloudy"
"2006-08-29 09:00","2006","08","29","09:00","19.5","","15.2","","76","","7","","11","","19.3","","99.92","","","","","","Mostly Cloudy"
"2006-08-29 10:00","2006","08","29","10:00","21.1","","15.2","","69","","8","","9","","19.3","","99.90","","25","","","","Mostly Cloudy"
"2006-08-29 11:00","2006","08","29","11:00","22.1","","14.8","","63","","5","","6","","24.1","","99.86","","26","","","","Mainly Clear"
"2006-08-29 12:00","2006","08","29","12:00","24.1","","15.4","","58","","4","","11","","24.1","","99.85","","28","","","","Mainly Clear"
"2006-08-29 13:00","2006","08","29","13:00","23.7","","13.6","","53","","5","","15","","24.1","","99.84","","27","","","","Mostly Cloudy"
"2006-08-29 14:00","2006","08","29","14:00","24.5","","13.5","","50","","6","","6","","24.1","","99.81","","28","","","","Mostly Cloudy"
"2006-08-29 15:00","2006","08","29","15:00","25.2","","13.7","","49","","4","","7","","24.1","","99.78","","28","","","","Mostly Cloudy"
"2006-08-29 16:00","2006","08","29","16:00","24.8","","14.1","","51","","5","","6","","24.1","","99.78","","28","","","","Mostly Cloudy"
"2006-08-29 17:00","2006","08","29","17:00","24.7","","14.4","","53","","10","","4","","24.1","","99.81","","28","","","","Mostly Cloudy"
"2006-08-29 18:00","2006","08","29","18:00","24.1","","14.8","","56","","18","","4","","24.1","","99.82","","28","","","","Mostly Cloudy"
"2006-08-29 19:00","2006","08","29","19:00","22.6","","14.8","","61","","","","0","","24.1","","99.84","","26","","","","Mostly Cloudy"
"2006-08-29 20:00","2006","08","29","20:00","21.6","","14.4","","64","","1","","7","","25.0","","99.93","","25","","","","Mostly Cloudy"
"2006-08-29 21:00","2006","08","29","21:00","20.9","","14.7","","68","","1","","20","","25.0","","99.99","","25","","","","Mostly Cloudy"
"2006-08-29 22:00","2006","08","29","22:00","20.3","","13.8","","66","","3","","19","","25.0","","100.03","","","","","","Mostly Cloudy"
"2006-08-29 23:00","2006","08","29","23:00","19.4","","11.9","","62","","2","","17","","25.0","","100.09","","","","","","Mainly Clear"
"2006-08-30 00:00","2006","08","30","00:00","17.8","","11.0","","64","","2","","32","","25.0","","100.14","","","","","","Mainly Clear"
"2006-08-30 01:00","2006","08","30","01:00","15.9","","9.4","","65","","1","","17","","25.0","","100.19","","","","","","Mainly Clear"
"2006-08-30 02:00","2006","08","30","02:00","14.9","","7.8","","62","","36","","24","","25.0","","100.25","","","","","","Mostly Cloudy"
"2006-08-30 03:00","2006","08","30","03:00","13.7","","7.3","","65","","36","","24","","25.0","","100.30","","","","","","Mostly Cloudy"
"2006-08-30 04:00","2006","08","30","04:00","12.6","","7.0","","69","","36","","20","","25.0","","100.40","","","","","","Mainly Clear"
"2006-08-30 05:00","2006","08","30","05:00","11.6","","5.8","","68","","1","","15","","25.0","","100.46","","","","","","Mainly Clear"
"2006-08-30 06:00","2006","08","30","06:00","11.1","","5.0","","66","","1","","17","","24.1","","100.55","","","","","","Clear"
"2006-08-30 07:00","2006","08","30","07:00","11.9","","5.2","","63","","2","","17","","24.1","","100.59","","","","","","Clear"
"2006-08-30 08:00","2006","08","30","08:00","12.8","","5.1","","59","","2","","24","","24.1","","100.62","","","","","","Clear"
"2006-08-30 09:00","2006","08","30","09:00","13.5","","5.2","","57","","1","","11","","24.1","","100.67","","","","","","Clear"
"2006-08-30 10:00","2006","08","30","10:00","15.5","","5.4","","51","","35","","15","","24.1","","100.68","","","","","","Clear"
"2006-08-30 11:00","2006","08","30","11:00","16.3","","5.4","","48","","35","","19","","24.1","","100.66","","","","","","Clear"
"2006-08-30 12:00","2006","08","30","12:00","17.4","","6.3","","48","","1","","17","","24.1","","100.61","","","","","","Clear"
"2006-08-30 13:00","2006","08","30","13:00","18.8","","6.7","","45","","31","","15","","24.1","","100.61","","","","","","Clear"
"2006-08-30 14:00","2006","08","30","14:00","18.9","","6.7","","45","","34","","7","","24.1","","100.60","","","","","","Clear"
"2006-08-30 15:00","2006","08","30","15:00","20.0","","6.4","","41","","34","","22","","24.1","","100.59","","","","","","Clear"
"2006-08-30 16:00","2006","08","30","16:00","19.8","","5.5","","39","","1","","17","","24.1","","100.60","","","","","","Clear"
"2006-08-30 17:00","2006","08","30","17:00","18.7","","5.6","","42","","36","","20","","24.1","","100.63","","","","","","Clear"
"2006-08-30 18:00","2006","08","30","18:00","17.5","","4.8","","43","","36","","19","","24.1","","100.65","","","","","","Clear"
"2006-08-30 19:00","2006","08","30","19:00","16.0","","4.6","","47","","36","","15","","24.1","","100.69","","","","","","Clear"
"2006-08-30 20:00","2006","08","30","20:00","14.9","","4.8","","51","","36","","20","","25.0","","100.74","","","","","","Clear"
"2006-08-30 21:00","2006","08","30","21:00","13.9","","5.3","","56","","36","","13","","25.0","","100.76","","","","","","Clear"
"2006-08-30 22:00","2006","08","30","22:00","11.6","","6.0","","68","","34","","9","","25.0","","100.83","","","","","","Clear"
"2006-08-30 23:00","2006","08","30","23:00","9.8","","5.7","","76","","32","","11","","25.0","","100.92","","","","","","Clear"
"2006-08-31 00:00","2006","08","31","00:00","11.2","","6.7","","74","","36","","15","","25.0","","100.94","","","","","","Clear"
"2006-08-31 01:00","2006","08","31","01:00","10.5","","6.5","","76","","35","","7","","25.0","","100.95","","","","","","Clear"
"2006-08-31 02:00","2006","08","31","02:00","10.3","","6.5","","77","","35","","9","","25.0","","100.98","","","","","","Clear"
"2006-08-31 03:00","2006","08","31","03:00","9.9","","6.5","","79","","36","","11","","25.0","","100.99","","","","","","Clear"
"2006-08-31 04:00","2006","08","31","04:00","9.2","","6.5","","83","","36","","11","","25.0","","101.03","","","","","","Clear"
"2006-08-31 05:00","2006","08","31","05:00","9.0","","6.5","","84","","36","","11","","24.1","","101.05","","","","","","Mainly Clear"
"2006-08-31 06:00","2006","08","31","06:00","9.9","","7.1","","83","","36","","11","","24.1","","101.11","","","","","","Mainly Clear"
"2006-08-31 07:00","2006","08","31","07:00","11.8","","7.7","","76","","36","","11","","24.1","","101.17","","","","","","Mainly Clear"
"2006-08-31 08:00","2006","08","31","08:00","13.8","","7.8","","67","","35","","9","","24.1","","101.21","","","","","","Mainly Clear"
"2006-08-31 09:00","2006","08","31","09:00","15.2","","7.9","","62","","35","","11","","24.1","","101.23","","","","","","Mainly Clear"
"2006-08-31 10:00","2006","08","31","10:00","16.7","","8.9","","60","","35","","11","","24.1","","101.24","","","","","","Mainly Clear"
"2006-08-31 11:00","2006","08","31","11:00","18.4","","8.5","","52","","35","","15","","24.1","","101.21","","","","","","Mainly Clear"
"2006-08-31 12:00","2006","08","31","12:00","19.5","","8.7","","50","","34","","13","","24.1","","101.20","","","","","","Mainly Clear"
"2006-08-31 13:00","2006","08","31","13:00","20.8","","8.9","","46","","35","","13","","24.1","","101.20","","","","","","Mainly Clear"
"2006-08-31 14:00","2006","08","31","14:00","21.5","","9.1","","45","","30","","6","","24.1","","101.19","","","","","","Mainly Clear"
"2006-08-31 15:00","2006","08","31","15:00","21.9","","9.3","","45","","","","0","","24.1","","101.17","","","","","","Mainly Clear"
"2006-08-31 16:00","2006","08","31","16:00","21.6","","9.6","","46","","9","","7","","24.1","","101.17","","","","","","Mainly Clear"
"2006-08-31 17:00","2006","08","31","17:00","21.5","","10.2","","49","","10","","7","","24.1","","101.19","","","","","","Mainly Clear"
"2006-08-31 18:00","2006","08","31","18:00","20.8","","10.7","","52","","","","0","","24.1","","101.22","","","","","","Mainly Clear"
"2006-08-31 19:00","2006","08","31","19:00","18.8","","10.8","","60","","29","","6","","24.1","","101.25","","","","","","Mostly Cloudy"
"2006-08-31 20:00","2006","08","31","20:00","16.6","","10.6","","68","","33","","11","","25.0","","101.29","","","","","","Mainly Clear"
"2006-08-31 21:00","2006","08","31","21:00","16.2","","11.0","","71","","33","","9","","25.0","","101.31","","","","","","Clear"
"2006-08-31 22:00","2006","08","31","22:00","16.0","","11.0","","72","","36","","9","","25.0","","101.32","","","","","","Clear"
"2006-08-31 23:00","2006","08","31","23:00","14.0","","10.7","","80","","","","0","","25.0","","101.40","","","","","","Clear"
