"Station Name","OTTAWA MACDONALD-CARTIER INT'L A"
"Province","ONTARIO"
"Latitude","45.32"
"Longitude","-75.67"
"Elevation","114.00"
"Climate Identifier","6106000"
"WMO Identifier","71628"
"TC Identifier","YOW"
"All times are specified in Local Standard Time (LST). Add 1 hour to adjust for Daylight Saving Time where and when it is observed."

"Legend"
"E","Estimated"
"M","Missing"
"NA","Not Available"

"Date/Time","Year","Month","Day","Time","Temp (°C)","Temp Flag","Dew Point Temp (°C)","Dew Point Temp Flag","Rel Hum (%)","Rel Hum Flag","Wind Dir (10s deg)","Wind Dir Flag","Wind Spd (km/h)","Wind Spd Flag","Visibility (km)","Visibility Flag","Stn Press (kPa)","Stn Press Flag","Hmdx","Hmdx Flag","Wind Chill","Wind Chill Flag","Weather"
"2006-09-01 00:00","2006","09","01","00:00","14.6","","10.8","","78","","11","","4","","25.0","","101.40","","","","","","Clear"
"2006-09-01 01:00","2006","09","01","01:00","13.9","","10.5","","80","","2","","9","","25.0","","101.40","","","","","","Clear"
"2006-09-01 02:00","2006","09","01","02:00","12.1","","10.2","","88","","5","","9","","25.0","","101.40","","","","","","Clear"
"2006-09-01 03:00","2006","09","01","03:00","11.6","","10.1","","91","","2","","6","","25.0","","101.40","","","","","","Clear"
"2006-09-01 04:00","2006","09","01","04:00","11.6","","10.4","","92","","2","","7","","25.0","","101.39","","","","","","Clear"
"2006-09-01 05:00","2006","09","01","05:00","12.3","","10.7","","90","","5","","6","","24.1","","101.47","","","","","","Mainly Clear"
"2006-09-01 06:00","2006","09","01","06:00","11.8","","10.5","","92","","3","","7","","24.1","","101.53","","","","","","Mainly Clear"
"2006-09-01 07:00","2006","09","01","07:00","13.7","","11.5","","87","","4","","6","","24.1","","101.55","","","","","","Mainly Clear"
"2006-09-01 08:00","2006","09","01","08:00","16.5","","12.2","","76","","2","","6","","24.1","","101.52","","","","","","Mainly Clear"
"2006-09-01 09:00","2006","09","01","09:00","18.4","","12.3","","68","","5","","9","","24.1","","101.54","","","","","","Mainly Clear"
"2006-09-01 10:00","2006","09","01","10:00","20.2","","12.3","","60","","7","","11","","24.1","","101.53","","","","","","Mostly Cloudy"
"2006-09-01 11:00","2006","09","01","11:00","21.2","","11.5","","54","","10","","13","","24.1","","101.49","","","","","","Mostly Cloudy"
"2006-09-01 12:00","2006","09","01","12:00","22.9","","10.2","","45","","6","","20","","24.1","","101.42","","","","","","Mainly Clear"
"2006-09-01 13:00","2006","09","01","13:00","23.3","","11.3","","47","","6","","15","","24.1","","101.40","","25","","","","Mainly Clear"
"2006-09-01 14:00","2006","09","01","14:00","22.7","","11.4","","49","","9","","15","","32.2","","101.34","","25","","","","Mainly Clear"
"2006-09-01 15:00","2006","09","01","15:00","23.3","","10.8","","45","","7","","19","","32.2","","101.34","","25","","","","Mostly Cloudy"
"2006-09-01 16:00","2006","09","01","16:00","23.0","","10.5","","45","","9","","17","","32.2","","101.32","","25","","","","Mostly Cloudy"
"2006-09-01 17:00","2006","09","01","17:00","22.1","","11.0","","49","","10","","17","","32.2","","101.32","","","","","","Mainly Clear"
"2006-09-01 18:00","2006","09","01","18:00","19.8","","11.3","","58","","9","","9","","32.2","","101.36","","","","","","Mostly Cloudy"
"2006-09-01 19:00","2006","09","01","19:00","18.5","","11.2","","62","","8","","11","","32.2","","101.35","","","","","","Mostly Cloudy"
"2006-09-01 20:00","2006","09","01","20:00","17.6","","11.6","","68","","6","","7","","24.1","","101.40","","","","","","Mostly Cloudy"
"2006-09-01 21:00","2006","09","01","21:00","16.9","","11.1","","69","","8","","15","","24.1","","101.40","","","","","","Mostly Cloudy"
"2006-09-01 22:00","2006","09","01","22:00","15.9","","13.4","","85","","7","","11","","24.1","","101.40","","","","","","Mostly Cloudy"
"2006-09-01 23:00","2006","09","01","23:00","15.4","","10.1","","71","","6","","17","","24.1","","101.41","","","","","","Mostly Cloudy"
"2006-09-02 00:00","2006","09","02","00:00","15.2","","10.3","","73","","7","","19","","24.1","","101.41","","","","","","Mostly Cloudy"
"2006-09-02 01:00","2006","09","02","01:00","14.9","","10.4","","74","","7","","17","","24.1","","101.38","","","","","","Mostly Cloudy"
"2006-09-02 02:00","2006","09","02","02:00","14.2","","9.8","","75","","7","","17","","24.1","","101.36","","","","","","Mostly Cloudy"
"2006-09-02 03:00","2006","09","02","03:00","13.9","","9.7","","76","","7","","19","","24.1","","101.35","","","","","","Mostly Cloudy"
"2006-09-02 04:00","2006","09","02","04:00","13.5","","9.7","","78","","8","","19","","24.1","","101.39","","","","","","Mostly Cloudy"
"2006-09-02 05:00","2006","09","02","05:00","13.2","","9.8","","80","","7","","15","","24.1","","101.42","","","","","","Mostly Cloudy"
"2006-09-02 06:00","2006","09","02","06:00","12.9","","10.0","","83","","7","","15","","24.1","","101.46","","","","","","Mostly Cloudy"
"2006-09-02 07:00","2006","09","02","07:00","13.3","","10.3","","82","","7","","17","","24.1","","101.51","","","","","","Cloudy"
"2006-09-02 08:00","2006","09","02","08:00","14.6","","10.8","","78","","8","","17","","24.1","","101.54","","","","","","Cloudy"
"2006-09-02 09:00","2006","09","02","09:00","16.3","","11.5","","73","","8","","22","","24.1","","101.55","","","","","","Cloudy"
"2006-09-02 10:00","2006","09","02","10:00","18.0","","12.2","","69","","6","","17","","24.1","","101.51","","","","","","Cloudy"
"2006-09-02 11:00","2006","09","02","11:00","19.5","","12.5","","64","","6","","17","","24.1","","101.49","","","","","","Cloudy"
"2006-09-02 12:00","2006","09","02","12:00","21.1","","12.2","","57","","7","","19","","24.1","","101.44","","","","","","Cloudy"
"2006-09-02 13:00","2006","09","02","13:00","20.0","","11.6","","58","","9","","19","","24.1","","101.41","","","","","","Cloudy"
"2006-09-02 14:00","2006","09","02","14:00","19.8","","11.7","","60","","8","","20","","24.1","","101.39","","","","","","Cloudy"
"2006-09-02 15:00","2006","09","02","15:00","19.1","","11.9","","63","","9","","20","","24.1","","101.34","","","","","","Cloudy"
"2006-09-02 16:00","2006","09","02","16:00","18.7","","12.1","","65","","6","","15","","24.1","","101.28","","","","","","Cloudy"
"2006-09-02 17:00","2006","09","02","17:00","17.0","","13.2","","78","","6","","17","","24.1","","101.21","","","","","","Rain"
"2006-09-02 18:00","2006","09","02","18:00","16.3","","13.5","","83","","6","","9","","24.1","","101.21","","","","","","Cloudy"
"2006-09-02 19:00","2006","09","02","19:00","16.3","","13.1","","81","","5","","17","","19.3","","101.11","","","","","","Cloudy"
"2006-09-02 20:00","2006","09","02","20:00","16.1","","12.2","","78","","6","","17","","24.1","","101.06","","","","","","Cloudy"
"2006-09-02 21:00","2006","09","02","21:00","16.3","","11.4","","73","","7","","22","","24.1","","100.99","","","","","","Rain"
"2006-09-02 22:00","2006","09","02","22:00","14.6","","11.3","","81","","8","","24","","16.1","","100.96","","","","","","Rain"
"2006-09-02 23:00","2006","09","02","23:00","14.2","","12.2","","88","","6","","17","","9.7","","100.96","","","","","","Heavy Rain,Fog"
"2006-09-03 00:00","2006","09","03","00:00","13.6","","11.7","","88","","5","","17","","9.7","","100.92","","","","","","Heavy Rain,Fog"
"2006-09-03 01:00","2006","09","03","01:00","12.7","","11.2","","91","","8","","26","","6.4","","100.88","","","","","","Heavy Rain,Fog"
"2006-09-03 02:00","2006","09","03","02:00","12.4","","11.3","","93","","6","","17","","8.0","","100.80","","","","","","Moderate Rain,Fog"
"2006-09-03 03:00","2006","09","03","03:00","11.8","","10.9","","94","","7","","20","","8.0","","100.74","","","","","","Rain,Fog"
"2006-09-03 04:00","2006","09","03","04:00","11.8","","10.8","","94","","6","","24","","6.4","","100.65","","","","","","Rain,Fog"
"2006-09-03 05:00","2006","09","03","05:00","11.6","","10.8","","95","","6","","22","","4.8","","100.60","","","","","","Rain,Fog"
"2006-09-03 06:00","2006","09","03","06:00","11.6","","10.6","","94","","7","","24","","2.8","","100.56","","","","","","Rain,Fog"
"2006-09-03 07:00","2006","09","03","07:00","11.6","","10.8","","95","","7","","26","","4.0","","100.56","","","","","","Rain,Fog"
"2006-09-03 08:00","2006","09","03","08:00","11.8","","10.9","","94","","7","","24","","3.2","","100.53","","","","","","Rain,Fog"
"2006-09-03 09:00","2006","09","03","09:00","12.1","","11.3","","95","","8","","20","","3.2","","100.49","","","","","","Rain,Fog"
"2006-09-03 10:00","2006","09","03","10:00","12.4","","11.6","","95","","8","","22","","4.0","","100.44","","","","","","Rain,Fog"
"2006-09-03 11:00","2006","09","03","11:00","13.1","","12.2","","94","","8","","20","","4.8","","100.41","","","","","","Rain,Fog"
"2006-09-03 12:00","2006","09","03","12:00","13.4","","12.5","","94","","7","","15","","11.3","","100.34","","","","","","Rain"
"2006-09-03 13:00","2006","09","03","13:00","13.8","","12.7","","93","","8","","20","","4.8","","100.31","","","","","","Rain"
"2006-09-03 14:00","2006","09","03","14:00","14.3","","13.6","","96","","8","","20","","2.4","","100.25","","","","","","Drizzle,Fog"
"2006-09-03 15:00","2006","09","03","15:00","14.4","","13.7","","96","","7","","20","","2.4","","100.21","","","","","","Drizzle,Fog"
"2006-09-03 16:00","2006","09","03","16:00","14.5","","13.8","","96","","7","","7","","2.4","","100.21","","","","","","Drizzle,Fog"
"2006-09-03 17:00","2006","09","03","17:00","14.5","","13.7","","95","","8","","7","","4.8","","100.20","","","","","","Drizzle,Fog"
"2006-09-03 18:00","2006","09","03","18:00","14.4","","13.7","","96","","7","","9","","4.8","","100.18","","","","","","Drizzle,Fog"
"2006-09-03 19:00","2006","09","03","19:00","14.3","","13.6","","96","","9","","11","","8.0","","100.15","","","","","","Drizzle,Fog"
"2006-09-03 20:00","2006","09","03","20:00","14.2","","13.6","","96","","9","","11","","9.7","","100.18","","","","","","Fog"
"2006-09-03 21:00","2006","09","03","21:00","14.1","","13.6","","97","","9","","7","","4.8","","100.15","","","","","","Drizzle,Fog"
"2006-09-03 22:00","2006","09","03","22:00","14.2","","13.8","","97","","7","","4","","2.4","","100.13","","","","","","Drizzle,Fog"
"2006-09-03 23:00","2006","09","03","23:00","14.3","","13.9","","97","","9","","4","","3.2","","100.11","","","","","","Drizzle,Fog"
"2006-09-04 00:00","2006","09","04","00:00","14.2","","13.7","","97","","30","","9","","3.2","","100.11","","","","","","Drizzle,Fog"
"2006-09-04 01:00","2006","09","04","01:00","14.2","","13.6","","96","","29","","13","","4.8","","100.10","","","","","","Drizzle,Fog"
"2006-09-04 02:00","2006","09","04","02:00","13.9","","13.4","","97","","27","","15","","16.1","","100.10","","","","","","Cloudy"
"2006-09-04 03:00","2006","09","04","03:00","13.7","","13.2","","97","","24","","11","","16.1","","100.11","","","","","","Cloudy"
"2006-09-04 04:00","2006","09","04","04:00","13.7","","13.0","","96","","25","","11","","24.1","","100.09","","","","","","Cloudy"
"2006-09-04 05:00","2006","09","04","05:00","13.5","","13.0","","97","","26","","11","","9.7","","100.09","","","","","","Fog"
"2006-09-04 06:00","2006","09","04","06:00","13.7","","13.3","","97","","26","","9","","2.8","","100.11","","","","","","Drizzle,Fog"
"2006-09-04 07:00","2006","09","04","07:00","14.0","","13.7","","98","","27","","11","","3.2","","100.16","","","","","","Drizzle,Fog"
"2006-09-04 08:00","2006","09","04","08:00","14.3","","13.6","","96","","27","","13","","6.4","","100.21","","","","","","Drizzle,Fog"
"2006-09-04 09:00","2006","09","04","09:00","14.7","","14.1","","96","","28","","17","","11.3","","100.23","","","","","","Cloudy"
"2006-09-04 10:00","2006","09","04","10:00","15.8","","14.8","","94","","28","","15","","11.3","","100.24","","","","","","Cloudy"
"2006-09-04 11:00","2006","09","04","11:00","17.1","","14.9","","87","","27","","13","","19.3","","100.24","","","","","","Cloudy"
"2006-09-04 12:00","2006","09","04","12:00","17.4","","14.8","","85","","30","","15","","16.1","","100.25","","","","","","Cloudy"
"2006-09-04 13:00","2006","09","04","13:00","17.0","","15.0","","88","","30","","11","","19.3","","100.26","","","","","","Rain"
"2006-09-04 14:00","2006","09","04","14:00","18.1","","14.5","","79","","29","","11","","32.2","","100.26","","","","","","Mostly Cloudy"
"2006-09-04 15:00","2006","09","04","15:00","18.8","","14.6","","77","","31","","13","","32.2","","100.25","","","","","","Mostly Cloudy"
"2006-09-04 16:00","2006","09","04","16:00","18.1","","14.3","","78","","28","","15","","32.2","","100.28","","","","","","Cloudy"
"2006-09-04 17:00","2006","09","04","17:00","17.8","","14.1","","79","","30","","17","","32.2","","100.31","","","","","","Cloudy"
"2006-09-04 18:00","2006","09","04","18:00","17.5","","14.1","","80","","28","","9","","32.2","","100.35","","","","","","Cloudy"
"2006-09-04 19:00","2006","09","04","19:00","16.9","","14.1","","84","","28","","7","","24.1","","100.40","","","","","","Cloudy"
"2006-09-04 20:00","2006","09","04","20:00","16.4","","14.4","","88","","27","","6","","24.1","","100.45","","","","","","Cloudy"
"2006-09-04 21:00","2006","09","04","21:00","16.4","","14.2","","87","","29","","7","","25.0","","100.47","","","","","","Mostly Cloudy"
"2006-09-04 22:00","2006","09","04","22:00","15.3","","13.7","","90","","28","","9","","25.0","","100.47","","","","","","Mainly Clear"
"2006-09-04 23:00","2006","09","04","23:00","14.2","","13.2","","94","","30","","9","","25.0","","100.47","","","","","","Mainly Clear"
"2006-09-05 00:00","2006","09","05","00:00","14.1","","13.4","","96","","23","","6","","25.0","","100.47","","","","","","Mainly Clear"
"2006-09-05 01:00","2006","09","05","01:00","13.5","","13.2","","98","","25","","4","","3.2","","100.49","","","","","","Fog"
"2006-09-05 02:00","2006","09","05","02:00","12.9","","12.8","","99","","26","","6","","1.6","","100.47","","","","","","Fog"
"2006-09-05 03:00","2006","09","05","03:00","13.5","","13.1","","97","","26","","7","","0.2","","100.50","","","","","","Fog"
"2006-09-05 04:00","2006","09","05","04:00","13.8","","13.5","","98","","31","","6","","0.2","","100.46","","","","","","Fog"
"2006-09-05 05:00","2006","09","05","05:00","13.6","","13.5","","99","","27","","6","","0.2","","100.46","","","","","","Fog"
"2006-09-05 06:00","2006","09","05","06:00","13.6","","13.5","","99","","26","","4","","0.2","","100.51","","","","","","Fog"
"2006-09-05 07:00","2006","09","05","07:00","13.5","","13.2","","98","","25","","6","","0.2","","100.51","","","","","","Fog"
"2006-09-05 08:00","2006","09","05","08:00","14.0","","13.8","","99","","24","","6","","4.8","","100.50","","","","","","Fog"
"2006-09-05 09:00","2006","09","05","09:00","14.9","","14.6","","98","","26","","7","","16.1","","100.52","","","","","","Cloudy"
"2006-09-05 10:00","2006","09","05","10:00","18.3","","15.7","","85","","25","","4","","24.1","","100.47","","","","","","Mostly Cloudy"
"2006-09-05 11:00","2006","09","05","11:00","19.4","","14.3","","72","","28","","4","","24.1","","100.41","","","","","","Mostly Cloudy"
"2006-09-05 12:00","2006","09","05","12:00","20.9","","13.5","","63","","27","","7","","24.1","","100.36","","","","","","Mostly Cloudy"
"2006-09-05 13:00","2006","09","05","13:00","21.6","","14.2","","63","","20","","6","","24.1","","100.27","","25","","","","Mostly Cloudy"
"2006-09-05 14:00","2006","09","05","14:00","22.0","","13.6","","59","","18","","7","","24.1","","100.20","","25","","","","Cloudy"
"2006-09-05 15:00","2006","09","05","15:00","20.5","","14.8","","70","","19","","7","","24.1","","100.15","","","","","","Cloudy"
"2006-09-05 16:00","2006","09","05","16:00","21.0","","14.7","","67","","19","","9","","24.1","","100.09","","25","","","","Mostly Cloudy"
"2006-09-05 17:00","2006","09","05","17:00","20.0","","14.7","","72","","18","","9","","24.1","","100.05","","","","","","Mostly Cloudy"
"2006-09-05 18:00","2006","09","05","18:00","19.4","","14.5","","73","","20","","6","","24.1","","100.04","","","","","","Cloudy"
"2006-09-05 19:00","2006","09","05","19:00","18.1","","13.6","","75","","20","","6","","24.1","","100.02","","","","","","Cloudy"
"2006-09-05 20:00","2006","09","05","20:00","16.9","","13.9","","82","","20","","7","","25.0","","100.04","","","","","","Mainly Clear"
"2006-09-05 21:00","2006","09","05","21:00","16.1","","14.1","","88","","20","","7","","25.0","","100.06","","","","","","Mainly Clear"
"2006-09-05 22:00","2006","09","05","22:00","15.3","","13.8","","91","","22","","6","","25.0","","100.02","","","","","","Mainly Clear"
"2006-09-05 23:00","2006","09","05","23:00","14.7","","13.5","","93","","22","","7","","25.0","","100.02","","","","","","Mainly Clear"
"2006-09-06 00:00","2006","09","06","00:00","14.5","","13.4","","93","","22","","7","","25.0","","99.99","","","","","","Clear"
"2006-09-06 01:00","2006","09","06","01:00","13.9","","13.1","","95","","22","","6","","25.0","","99.97","","","","","","Mostly Cloudy"
"2006-09-06 02:00","2006","09","06","02:00","13.0","","12.5","","97","","21","","7","","25.0","","99.95","","","","","","Mainly Clear"
"2006-09-06 03:00","2006","09","06","03:00","13.0","","12.7","","98","","24","","4","","25.0","","99.91","","","","","","Mainly Clear"
"2006-09-06 04:00","2006","09","06","04:00","12.5","","12.2","","98","","20","","6","","0.8","","99.89","","","","","","Fog"
"2006-09-06 05:00","2006","09","06","05:00","12.4","","12.2","","99","","24","","4","","25.0","","99.93","","","","","","Mostly Cloudy"
"2006-09-06 06:00","2006","09","06","06:00","12.5","","12.0","","97","","27","","4","","24.1","","99.96","","","","","","Mainly Clear"
"2006-09-06 07:00","2006","09","06","07:00","14.8","","13.7","","93","","31","","6","","24.1","","100.04","","","","","","Mainly Clear"
"2006-09-06 08:00","2006","09","06","08:00","17.2","","14.3","","83","","1","","17","","24.1","","100.07","","","","","","Mainly Clear"
"2006-09-06 09:00","2006","09","06","09:00","18.4","","14.1","","76","","2","","22","","24.1","","100.15","","","","","","Mostly Cloudy"
"2006-09-06 10:00","2006","09","06","10:00","17.2","","13.0","","76","","36","","17","","24.1","","100.22","","","","","","Cloudy"
"2006-09-06 11:00","2006","09","06","11:00","16.7","","12.1","","74","","36","","17","","24.1","","100.29","","","","","","Cloudy"
"2006-09-06 12:00","2006","09","06","12:00","16.3","","12.4","","78","","2","","11","","24.1","","100.31","","","","","","Cloudy"
"2006-09-06 13:00","2006","09","06","13:00","16.3","","12.5","","78","","35","","13","","24.1","","100.32","","","","","","Rain"
"2006-09-06 14:00","2006","09","06","14:00","16.6","","11.9","","74","","34","","20","","24.1","","100.32","","","","","","Cloudy"
"2006-09-06 15:00","2006","09","06","15:00","16.5","","11.7","","73","","35","","13","","24.1","","100.33","","","","","","Cloudy"
"2006-09-06 16:00","2006","09","06","16:00","17.1","","11.5","","70","","33","","17","","24.1","","100.33","","","","","","Mostly Cloudy"
"2006-09-06 17:00","2006","09","06","17:00","16.4","","10.9","","70","","34","","11","","24.1","","100.34","","","","","","Mostly Cloudy"
"2006-09-06 18:00","2006","09","06","18:00","16.0","","10.5","","70","","2","","7","","24.1","","100.36","","","","","","Cloudy"
"2006-09-06 19:00","2006","09","06","19:00","14.0","","9.8","","76","","36","","6","","24.1","","100.39","","","","","","Mostly Cloudy"
"2006-09-06 20:00","2006","09","06","20:00","13.2","","10.0","","81","","31","","7","","25.0","","100.45","","","","","","Mainly Clear"
"2006-09-06 21:00","2006","09","06","21:00","11.8","","9.7","","87","","31","","6","","25.0","","100.48","","","","","","Mainly Clear"
"2006-09-06 22:00","2006","09","06","22:00","11.7","","9.8","","88","","31","","7","","25.0","","100.48","","","","","","Mainly Clear"
"2006-09-06 23:00","2006","09","06","23:00","10.9","","9.7","","92","","28","","4","","25.0","","100.48","","","","","","Mainly Clear"
"2006-09-07 00:00","2006","09","07","00:00","10.1","","9.2","","94","","30","","4","","25.0","","100.53","","","","","","Mostly Cloudy"
"2006-09-07 01:00","2006","09","07","01:00","10.5","","9.7","","95","","30","","4","","25.0","","100.49","","","","","","Mainly Clear"
"2006-09-07 02:00","2006","09","07","02:00","9.6","","8.9","","95","","31","","7","","25.0","","100.47","","","","","","Mostly Cloudy"
"2006-09-07 03:00","2006","09","07","03:00","10.1","","9.6","","97","","27","","4","","25.0","","100.47","","","","","","Mostly Cloudy"
"2006-09-07 04:00","2006","09","07","04:00","9.7","","9.3","","97","","28","","4","","25.0","","100.49","","","","","","Mostly Cloudy"
"2006-09-07 05:00","2006","09","07","05:00","9.3","","8.7","","96","","30","","7","","0.2","","100.50","","","","","","Fog"
"2006-09-07 06:00","2006","09","07","06:00","9.6","","9.3","","98","","25","","4","","0.2","","100.54","","","","","","Fog"
"2006-09-07 07:00","2006","09","07","07:00","9.8","","9.4","","97","","","","0","","0.4","","100.57","","","","","","Fog"
"2006-09-07 08:00","2006","09","07","08:00","10.0","","9.9","","99","","21","","4","","1.2","","100.60","","","","","","Fog"
"2006-09-07 09:00","2006","09","07","09:00","13.2","","10.9","","86","","","","0","","24.1","","100.61","","","","","","Clear"
"2006-09-07 10:00","2006","09","07","10:00","16.6","","10.3","","66","","24","","7","","24.1","","100.63","","","","","","Clear"
"2006-09-07 11:00","2006","09","07","11:00","18.2","","10.0","","59","","26","","11","","24.1","","100.59","","","","","","Mainly Clear"
"2006-09-07 12:00","2006","09","07","12:00","19.4","","11.1","","59","","18","","11","","24.1","","100.50","","","","","","Mainly Clear"
"2006-09-07 13:00","2006","09","07","13:00","20.1","","11.6","","58","","25","","6","","24.1","","100.45","","","","","","Mainly Clear"
"2006-09-07 14:00","2006","09","07","14:00","21.7","","11.0","","51","","25","","11","","24.1","","100.37","","","","","","Mainly Clear"
"2006-09-07 15:00","2006","09","07","15:00","21.8","","11.8","","53","","25","","13","","24.1","","100.30","","","","","","Mainly Clear"
"2006-09-07 16:00","2006","09","07","16:00","22.4","","11.1","","49","","24","","9","","24.1","","100.26","","","","","","Mainly Clear"
"2006-09-07 17:00","2006","09","07","17:00","21.8","","11.0","","50","","23","","13","","24.1","","100.21","","","","","","Mainly Clear"
"2006-09-07 18:00","2006","09","07","18:00","20.1","","11.9","","59","","19","","7","","24.1","","100.18","","","","","","Cloudy"
"2006-09-07 19:00","2006","09","07","19:00","18.3","","12.6","","69","","20","","7","","24.1","","100.18","","","","","","Mostly Cloudy"
"2006-09-07 20:00","2006","09","07","20:00","17.1","","13.0","","77","","21","","9","","25.0","","100.21","","","","","","Mostly Cloudy"
"2006-09-07 21:00","2006","09","07","21:00","16.2","","13.4","","83","","20","","9","","25.0","","100.20","","","","","","Clear"
"2006-09-07 22:00","2006","09","07","22:00","15.3","","13.5","","89","","19","","9","","12.9","","100.19","","","","","","Mainly Clear"
"2006-09-07 23:00","2006","09","07","23:00","15.0","","13.6","","91","","20","","7","","11.3","","100.20","","","","","","Mainly Clear"
"2006-09-08 00:00","2006","09","08","00:00","14.5","","13.2","","92","","19","","7","","11.3","","100.21","","","","","","Mainly Clear"
"2006-09-08 01:00","2006","09","08","01:00","14.0","","13.1","","94","","18","","6","","11.3","","100.19","","","","","","Mainly Clear"
"2006-09-08 02:00","2006","09","08","02:00","14.0","","12.9","","93","","20","","6","","11.3","","100.18","","","","","","Mainly Clear"
"2006-09-08 03:00","2006","09","08","03:00","13.8","","12.4","","91","","21","","6","","12.9","","100.18","","","","","","Mainly Clear"
"2006-09-08 04:00","2006","09","08","04:00","13.4","","12.2","","92","","20","","7","","8.0","","100.15","","","","","","Fog"
"2006-09-08 05:00","2006","09","08","05:00","13.4","","12.6","","95","","21","","6","","4.8","","100.17","","","","","","Fog"
"2006-09-08 06:00","2006","09","08","06:00","15.0","","14.0","","94","","20","","11","","3.2","","100.15","","","","","","Fog"
"2006-09-08 07:00","2006","09","08","07:00","16.1","","14.7","","91","","21","","13","","9.7","","100.18","","","","","","Fog"
"2006-09-08 08:00","2006","09","08","08:00","17.7","","15.4","","86","","23","","13","","19.3","","100.20","","","","","","Mostly Cloudy"
"2006-09-08 09:00","2006","09","08","09:00","19.8","","16.1","","79","","24","","11","","19.3","","100.21","","","","","","Mostly Cloudy"
"2006-09-08 10:00","2006","09","08","10:00","22.5","","15.6","","65","","22","","26","","24.1","","100.18","","27","","","","Clear"
"2006-09-08 11:00","2006","09","08","11:00","24.3","","15.7","","59","","23","","20","","24.1","","100.14","","29","","","","Clear"
"2006-09-08 12:00","2006","09","08","12:00","25.2","","15.6","","55","","23","","24","","24.1","","100.10","","30","","","","Mainly Clear"
"2006-09-08 13:00","2006","09","08","13:00","25.9","","15.4","","52","","23","","26","","24.1","","100.02","","30","","","","Mainly Clear"
"2006-09-08 14:00","2006","09","08","14:00","25.9","","15.7","","53","","19","","20","","19.3","","99.93","","30","","","","Mainly Clear"
"2006-09-08 15:00","2006","09","08","15:00","26.5","","16.1","","53","","20","","22","","19.3","","99.88","","31","","","","Mainly Clear"
"2006-09-08 16:00","2006","09","08","16:00","24.8","","15.8","","57","","21","","15","","19.3","","99.83","","29","","","","Mostly Cloudy"
"2006-09-08 17:00","2006","09","08","17:00","17.2","","14.0","","81","","23","","17","","19.3","","99.92","","","","","","Thunderstorms,Rain Showers"
"2006-09-08 18:00","2006","09","08","18:00","17.9","","15.4","","85","","21","","6","","19.3","","99.91","","","","","","Mostly Cloudy"
"2006-09-08 19:00","2006","09","08","19:00","17.7","","15.6","","88","","","","0","","19.3","","100.00","","","","","","Mostly Cloudy"
"2006-09-08 20:00","2006","09","08","20:00","17.5","","15.8","","90","","31","","7","","19.3","","100.05","","","","","","Cloudy"
"2006-09-08 21:00","2006","09","08","21:00","17.1","","15.5","","90","","18","","9","","19.3","","100.03","","","","","","Cloudy"
"2006-09-08 22:00","2006","09","08","22:00","16.4","","15.4","","94","","19","","11","","19.3","","99.98","","","","","","Mostly Cloudy"
"2006-09-08 23:00","2006","09","08","23:00","15.9","","14.9","","94","","29","","6","","19.3","","100.00","","","","","","Thunderstorms"
"2006-09-09 00:00","2006","09","09","00:00","16.2","","15.2","","94","","21","","7","","16.1","","100.01","","","","","","Cloudy"
"2006-09-09 01:00","2006","09","09","01:00","15.8","","15.0","","95","","19","","7","","16.1","","99.94","","","","","","Mostly Cloudy"
"2006-09-09 02:00","2006","09","09","02:00","15.5","","14.9","","96","","28","","4","","16.1","","99.92","","","","","","Cloudy"
"2006-09-09 03:00","2006","09","09","03:00","15.6","","14.9","","96","","25","","4","","16.1","","99.95","","","","","","Cloudy"
"2006-09-09 04:00","2006","09","09","04:00","15.2","","14.7","","97","","","","0","","9.7","","99.91","","","","","","Fog"
"2006-09-09 05:00","2006","09","09","05:00","15.3","","14.9","","97","","19","","4","","3.2","","99.96","","","","","","Fog"
"2006-09-09 06:00","2006","09","09","06:00","13.8","","12.9","","94","","34","","11","","19.3","","100.05","","","","","","Cloudy"
"2006-09-09 07:00","2006","09","09","07:00","12.0","","11.1","","94","","34","","13","","2.4","","100.15","","","","","","Drizzle,Fog"
"2006-09-09 08:00","2006","09","09","08:00","11.4","","10.3","","93","","33","","19","","19.3","","100.20","","","","","","Cloudy"
"2006-09-09 09:00","2006","09","09","09:00","11.8","","10.6","","92","","30","","15","","19.3","","100.28","","","","","","Cloudy"
"2006-09-09 10:00","2006","09","09","10:00","11.6","","9.7","","88","","32","","19","","19.3","","100.36","","","","","","Cloudy"
"2006-09-09 11:00","2006","09","09","11:00","12.5","","10.1","","85","","33","","20","","24.1","","100.34","","","","","","Cloudy"
"2006-09-09 12:00","2006","09","09","12:00","13.2","","10.2","","82","","33","","19","","24.1","","100.37","","","","","","Cloudy"
"2006-09-09 13:00","2006","09","09","13:00","14.4","","10.0","","75","","34","","19","","24.1","","100.40","","","","","","Mostly Cloudy"
"2006-09-09 14:00","2006","09","09","14:00","16.7","","9.7","","63","","35","","20","","32.2","","100.39","","","","","","Mostly Cloudy"
"2006-09-09 15:00","2006","09","09","15:00","16.4","","8.2","","58","","35","","17","","32.2","","100.42","","","","","","Mostly Cloudy"
"2006-09-09 16:00","2006","09","09","16:00","16.1","","6.8","","54","","1","","17","","32.2","","100.45","","","","","","Mostly Cloudy"
"2006-09-09 17:00","2006","09","09","17:00","15.5","","6.2","","54","","35","","17","","32.2","","100.48","","","","","","Mostly Cloudy"
"2006-09-09 18:00","2006","09","09","18:00","14.4","","5.4","","55","","36","","13","","32.2","","100.58","","","","","","Mostly Cloudy"
"2006-09-09 19:00","2006","09","09","19:00","13.4","","5.1","","57","","1","","15","","32.2","","100.66","","","","","","Mostly Cloudy"
"2006-09-09 20:00","2006","09","09","20:00","12.5","","5.4","","62","","35","","17","","25.0","","100.73","","","","","","Mostly Cloudy"
"2006-09-09 21:00","2006","09","09","21:00","12.0","","5.2","","63","","36","","13","","25.0","","100.78","","","","","","Mostly Cloudy"
"2006-09-09 22:00","2006","09","09","22:00","11.8","","4.9","","63","","36","","13","","25.0","","100.84","","","","","","Mostly Cloudy"
"2006-09-09 23:00","2006","09","09","23:00","11.1","","5.1","","66","","36","","11","","25.0","","100.87","","","","","","Mostly Cloudy"
"2006-09-10 00:00","2006","09","10","00:00","10.8","","4.7","","66","","1","","13","","25.0","","100.90","","","","","","Mostly Cloudy"
"2006-09-10 01:00","2006","09","10","01:00","10.7","","4.5","","65","","36","","13","","25.0","","100.91","","","","","","Mostly Cloudy"
"2006-09-10 02:00","2006","09","10","02:00","10.0","","4.7","","70","","36","","13","","25.0","","100.94","","","","","","Mostly Cloudy"
"2006-09-10 03:00","2006","09","10","03:00","8.8","","4.7","","75","","1","","15","","25.0","","100.99","","","","","","Mostly Cloudy"
"2006-09-10 04:00","2006","09","10","04:00","8.3","","4.5","","77","","1","","17","","25.0","","101.03","","","","","","Mostly Cloudy"
"2006-09-10 05:00","2006","09","10","05:00","7.6","","4.0","","78","","1","","15","","25.0","","101.06","","","","","","Mainly Clear"
"2006-09-10 06:00","2006","09","10","06:00","7.5","","4.3","","80","","1","","15","","32.2","","101.15","","","","","","Mostly Cloudy"
"2006-09-10 07:00","2006","09","10","07:00","8.6","","4.6","","76","","2","","13","","32.2","","101.24","","","","","","Mainly Clear"
"2006-09-10 08:00","2006","09","10","08:00","10.7","","4.5","","65","","3","","13","","32.2","","101.27","","","","","","Mainly Clear"
"2006-09-10 09:00","2006","09","10","09:00","12.6","","4.2","","57","","3","","11","","32.2","","101.37","","","","","","Mostly Cloudy"
"2006-09-10 10:00","2006","09","10","10:00","14.6","","3.2","","46","","5","","13","","32.2","","101.35","","","","","","Mainly Clear"
"2006-09-10 11:00","2006","09","10","11:00","14.5","","2.0","","43","","4","","13","","32.2","","101.36","","","","","","Mostly Cloudy"
"2006-09-10 12:00","2006","09","10","12:00","14.8","","2.7","","44","","3","","15","","32.2","","101.35","","","","","","Mostly Cloudy"
"2006-09-10 13:00","2006","09","10","13:00","15.0","","2.0","","41","","34","","6","","32.2","","101.34","","","","","","Mostly Cloudy"
"2006-09-10 14:00","2006","09","10","14:00","16.3","","2.0","","38","","2","","7","","32.2","","101.33","","","","","","Mostly Cloudy"
"2006-09-10 15:00","2006","09","10","15:00","15.6","","2.1","","40","","2","","6","","32.2","","101.30","","","","","","Mostly Cloudy"
"2006-09-10 16:00","2006","09","10","16:00","15.3","","2.3","","41","","4","","9","","32.2","","101.31","","","","","","Mostly Cloudy"
"2006-09-10 17:00","2006","09","10","17:00","15.2","","2.2","","41","","7","","9","","32.2","","101.34","","","","","","Mostly Cloudy"
"2006-09-10 18:00","2006","09","10","18:00","14.8","","2.4","","43","","6","","9","","32.2","","101.36","","","","","","Mostly Cloudy"
"2006-09-10 19:00","2006","09","10","19:00","13.1","","3.2","","51","","2","","13","","32.2","","101.41","","","","","","Mostly Cloudy"
"2006-09-10 20:00","2006","09","10","20:00","11.9","","4.0","","58","","2","","11","","25.0","","101.49","","","","","","Mainly Clear"
"2006-09-10 21:00","2006","09","10","21:00","10.6","","4.0","","64","","1","","11","","25.0","","101.51","","","","","","Mainly Clear"
"2006-09-10 22:00","2006","09","10","22:00","10.3","","3.8","","64","","2","","13","","25.0","","101.52","","","","","","Mainly Clear"
"2006-09-10 23:00","2006","09","10","23:00","9.6","","3.5","","66","","2","","13","","25.0","","101.57","","","","","","Mainly Clear"
"2006-09-11 00:00","2006","09","11","00:00","9.6","","3.4","","65","","3","","11","","25.0","","101.61","","","","","","Mostly Cloudy"
"2006-09-11 01:00","2006","09","11","01:00","8.9","","3.3","","68","","3","","11","","25.0","","101.60","","","","","","Mainly Clear"
"2006-09-11 02:00","2006","09","11","02:00","8.2","","3.4","","72","","4","","11","","25.0","","101.62","","","","","","Mainly Clear"
"2006-09-11 03:00","2006","09","11","03:00","7.5","","3.2","","74","","4","","11","","25.0","","101.65","","","","","","Mainly Clear"
"2006-09-11 04:00","2006","09","11","04:00","7.1","","3.2","","76","","4","","7","","25.0","","101.68","","","","","","Mainly Clear"
"2006-09-11 05:00","2006","09","11","05:00","7.4","","3.4","","76","","3","","9","","25.0","","101.74","","","","","","Mostly Cloudy"
"2006-09-11 06:00","2006","09","11","06:00","7.6","","3.3","","74","","4","","11","","32.2","","101.78","","","","","","Mainly Clear"
"2006-09-11 07:00","2006","09","11","07:00","8.5","","3.3","","70","","5","","11","","32.2","","101.80","","","","","","Mostly Cloudy"
"2006-09-11 08:00","2006","09","11","08:00","10.8","","4.4","","65","","6","","13","","32.2","","101.84","","","","","","Mostly Cloudy"
"2006-09-11 09:00","2006","09","11","09:00","12.5","","5.0","","60","","9","","11","","32.2","","101.87","","","","","","Mostly Cloudy"
"2006-09-11 10:00","2006","09","11","10:00","14.3","","4.8","","53","","9","","13","","32.2","","101.85","","","","","","Mostly Cloudy"
"2006-09-11 11:00","2006","09","11","11:00","14.3","","3.4","","48","","7","","13","","32.2","","101.83","","","","","","Mainly Clear"
"2006-09-11 12:00","2006","09","11","12:00","15.6","","2.7","","42","","5","","15","","32.2","","101.79","","","","","","Mainly Clear"
"2006-09-11 13:00","2006","09","11","13:00","16.1","","3.0","","41","","5","","11","","32.2","","101.71","","","","","","Mainly Clear"
"2006-09-11 14:00","2006","09","11","14:00","16.5","","3.5","","42","","5","","4","","32.2","","101.67","","","","","","Mainly Clear"
"2006-09-11 15:00","2006","09","11","15:00","16.4","","3.6","","42","","7","","11","","32.2","","101.61","","","","","","Mainly Clear"
"2006-09-11 16:00","2006","09","11","16:00","16.8","","4.0","","43","","7","","13","","32.2","","101.59","","","","","","Mainly Clear"
"2006-09-11 17:00","2006","09","11","17:00","16.0","","3.7","","44","","10","","7","","32.2","","101.54","","","","","","Mainly Clear"
"2006-09-11 18:00","2006","09","11","18:00","14.3","","4.0","","50","","7","","6","","32.2","","101.51","","","","","","Mainly Clear"
"2006-09-11 19:00","2006","09","11","19:00","13.0","","4.0","","54","","7","","9","","25.0","","101.50","","","","","","Mainly Clear"
"2006-09-11 20:00","2006","09","11","20:00","12.1","","3.9","","57","","7","","9","","25.0","","101.53","","","","","","Mainly Clear"
"2006-09-11 21:00","2006","09","11","21:00","10.9","","3.9","","62","","7","","11","","25.0","","101.49","","","","","","Clear"
"2006-09-11 22:00","2006","09","11","22:00","11.2","","3.6","","59","","6","","9","","25.0","","101.48","","","","","","Clear"
"2006-09-11 23:00","2006","09","11","23:00","10.0","","3.8","","65","","5","","13","","25.0","","101.47","","","","","","Clear"
"2006-09-12 00:00","2006","09","12","00:00","9.5","","3.8","","68","","6","","13","","25.0","","101.45","","","","","","Clear"
"2006-09-12 01:00","2006","09","12","01:00","8.6","","4.8","","77","","6","","13","","25.0","","101.42","","","","","","Clear"
"2006-09-12 02:00","2006","09","12","02:00","7.8","","4.7","","81","","7","","11","","25.0","","101.38","","","","","","Clear"
"2006-09-12 03:00","2006","09","12","03:00","7.2","","4.3","","82","","6","","15","","25.0","","101.37","","","","","","Clear"
"2006-09-12 04:00","2006","09","12","04:00","6.9","","4.3","","83","","6","","13","","25.0","","101.38","","","","","","Clear"
"2006-09-12 05:00","2006","09","12","05:00","6.2","","4.0","","86","","5","","11","","25.0","","101.37","","","","","","Mainly Clear"
"2006-09-12 06:00","2006","09","12","06:00","6.6","","4.0","","83","","5","","11","","24.1","","101.39","","","","","","Mainly Clear"
"2006-09-12 07:00","2006","09","12","07:00","8.6","","4.7","","76","","7","","13","","24.1","","101.40","","","","","","Mainly Clear"
"2006-09-12 08:00","2006","09","12","08:00","10.6","","5.7","","72","","9","","11","","24.1","","101.39","","","","","","Mainly Clear"
"2006-09-12 09:00","2006","09","12","09:00","12.7","","6.6","","66","","9","","13","","24.1","","101.39","","","","","","Mainly Clear"
"2006-09-12 10:00","2006","09","12","10:00","15.5","","7.6","","59","","9","","11","","24.1","","101.31","","","","","","Mainly Clear"
"2006-09-12 11:00","2006","09","12","11:00","16.8","","7.0","","52","","6","","11","","24.1","","101.23","","","","","","Mainly Clear"
"2006-09-12 12:00","2006","09","12","12:00","19.0","","7.4","","47","","10","","9","","24.1","","101.14","","","","","","Mainly Clear"
"2006-09-12 13:00","2006","09","12","13:00","18.3","","6.8","","47","","7","","11","","24.1","","101.06","","","","","","Mainly Clear"
"2006-09-12 14:00","2006","09","12","14:00","19.0","","6.8","","45","","10","","11","","24.1","","100.98","","","","","","Mainly Clear"
"2006-09-12 15:00","2006","09","12","15:00","19.1","","6.4","","43","","10","","11","","24.1","","100.89","","","","","","Mostly Cloudy"
"2006-09-12 16:00","2006","09","12","16:00","18.9","","6.2","","43","","7","","17","","24.1","","100.83","","","","","","Mostly Cloudy"
"2006-09-12 17:00","2006","09","12","17:00","17.9","","6.2","","46","","9","","11","","24.1","","100.79","","","","","","Mainly Clear"
"2006-09-12 18:00","2006","09","12","18:00","16.2","","6.7","","53","","7","","9","","24.1","","100.74","","","","","","Mostly Cloudy"
"2006-09-12 19:00","2006","09","12","19:00","14.9","","6.8","","58","","7","","11","","25.0","","100.71","","","","","","Mostly Cloudy"
"2006-09-12 20:00","2006","09","12","20:00","12.9","","7.3","","69","","7","","13","","25.0","","100.69","","","","","","Mostly Cloudy"
"2006-09-12 21:00","2006","09","12","21:00","11.6","","7.0","","73","","9","","11","","25.0","","100.67","","","","","","Mostly Cloudy"
"2006-09-12 22:00","2006","09","12","22:00","11.9","","6.6","","70","","8","","11","","25.0","","100.62","","","","","","Cloudy"
"2006-09-12 23:00","2006","09","12","23:00","11.2","","6.5","","73","","8","","11","","25.0","","100.55","","","","","","Cloudy"
"2006-09-13 00:00","2006","09","13","00:00","11.0","","6.7","","75","","8","","13","","25.0","","100.48","","","","","","Cloudy"
"2006-09-13 01:00","2006","09","13","01:00","10.7","","7.1","","78","","9","","11","","25.0","","100.44","","","","","","Cloudy"
"2006-09-13 02:00","2006","09","13","02:00","10.0","","7.4","","84","","9","","7","","25.0","","100.42","","","","","","Cloudy"
"2006-09-13 03:00","2006","09","13","03:00","10.3","","7.8","","84","","12","","9","","25.0","","100.38","","","","","","Cloudy"
"2006-09-13 04:00","2006","09","13","04:00","10.6","","7.9","","83","","11","","9","","25.0","","100.35","","","","","","Cloudy"
"2006-09-13 05:00","2006","09","13","05:00","10.4","","7.9","","84","","5","","6","","25.0","","100.31","","","","","","Mostly Cloudy"
"2006-09-13 06:00","2006","09","13","06:00","10.5","","8.2","","86","","9","","9","","24.1","","100.28","","","","","","Rain"
"2006-09-13 07:00","2006","09","13","07:00","10.9","","9.1","","89","","8","","13","","24.1","","100.26","","","","","","Rain"
"2006-09-13 08:00","2006","09","13","08:00","11.1","","9.7","","91","","9","","13","","19.3","","100.22","","","","","","Rain"
"2006-09-13 09:00","2006","09","13","09:00","11.7","","10.6","","93","","10","","15","","16.1","","100.19","","","","","","Rain"
"2006-09-13 10:00","2006","09","13","10:00","12.1","","11.0","","93","","10","","13","","16.1","","100.14","","","","","","Rain"
"2006-09-13 11:00","2006","09","13","11:00","12.3","","11.3","","94","","11","","15","","16.1","","100.07","","","","","","Rain"
"2006-09-13 12:00","2006","09","13","12:00","12.6","","11.7","","94","","11","","15","","16.1","","100.01","","","","","","Rain"
"2006-09-13 13:00","2006","09","13","13:00","12.5","","11.7","","95","","11","","13","","9.7","","99.97","","","","","","Rain,Fog"
"2006-09-13 14:00","2006","09","13","14:00","12.6","","11.9","","95","","10","","13","","4.8","","99.93","","","","","","Rain,Fog"
"2006-09-13 15:00","2006","09","13","15:00","12.8","","12.0","","95","","10","","15","","4.8","","99.88","","","","","","Rain,Fog"
"2006-09-13 16:00","2006","09","13","16:00","12.9","","12.1","","95","","10","","13","","4.8","","99.88","","","","","","Rain,Fog"
"2006-09-13 17:00","2006","09","13","17:00","13.0","","12.3","","96","","9","","11","","4.8","","99.88","","","","","","Rain,Fog"
"2006-09-13 18:00","2006","09","13","18:00","12.9","","12.3","","96","","10","","13","","6.4","","99.86","","","","","","Rain,Fog"
"2006-09-13 19:00","2006","09","13","19:00","12.9","","12.3","","96","","10","","11","","6.4","","99.85","","","","","","Rain,Fog"
"2006-09-13 20:00","2006","09","13","20:00","13.2","","12.6","","96","","10","","13","","4.8","","99.86","","","","","","Drizzle"
"2006-09-13 21:00","2006","09","13","21:00","13.4","","12.9","","97","","11","","9","","2.4","","99.86","","","","","","Drizzle,Fog"
"2006-09-13 22:00","2006","09","13","22:00","13.8","","13.4","","97","","11","","7","","8.0","","99.85","","","","","","Fog"
"2006-09-13 23:00","2006","09","13","23:00","14.1","","13.6","","97","","13","","7","","8.0","","99.84","","","","","","Fog"
"2006-09-14 00:00","2006","09","14","00:00","14.4","","13.8","","96","","14","","7","","8.0","","99.84","","","","","","Fog"
"2006-09-14 01:00","2006","09","14","01:00","14.4","","13.9","","97","","14","","6","","8.0","","99.84","","","","","","Fog"
"2006-09-14 02:00","2006","09","14","02:00","14.4","","13.9","","97","","14","","6","","8.0","","99.84","","","","","","Fog"
"2006-09-14 03:00","2006","09","14","03:00","14.5","","13.9","","96","","14","","6","","6.4","","99.84","","","","","","Fog"
"2006-09-14 04:00","2006","09","14","04:00","14.5","","13.9","","96","","11","","6","","6.4","","99.88","","","","","","Fog"
"2006-09-14 05:00","2006","09","14","05:00","14.4","","13.8","","96","","12","","7","","6.4","","99.92","","","","","","Fog"
"2006-09-14 06:00","2006","09","14","06:00","14.4","","13.8","","96","","10","","6","","6.4","","99.97","","","","","","Fog"
"2006-09-14 07:00","2006","09","14","07:00","14.5","","13.8","","96","","12","","6","","6.4","","100.03","","","","","","Fog"
"2006-09-14 08:00","2006","09","14","08:00","14.6","","14.0","","96","","11","","7","","4.8","","100.07","","","","","","Fog"
"2006-09-14 09:00","2006","09","14","09:00","14.7","","14.1","","96","","13","","7","","3.2","","100.12","","","","","","Rain,Fog"
"2006-09-14 10:00","2006","09","14","10:00","15.3","","14.7","","96","","14","","11","","6.4","","100.16","","","","","","Rain,Fog"
"2006-09-14 11:00","2006","09","14","11:00","15.4","","14.7","","96","","15","","6","","9.7","","100.17","","","","","","Rain,Fog"
"2006-09-14 12:00","2006","09","14","12:00","15.7","","14.9","","95","","16","","7","","12.9","","100.17","","","","","","Rain"
"2006-09-14 13:00","2006","09","14","13:00","16.1","","15.1","","94","","","","0","","16.1","","100.18","","","","","","Rain"
"2006-09-14 14:00","2006","09","14","14:00","16.5","","15.1","","91","","10","","6","","19.3","","100.18","","","","","","Cloudy"
"2006-09-14 15:00","2006","09","14","15:00","16.5","","15.2","","92","","5","","7","","19.3","","100.23","","","","","","Cloudy"
"2006-09-14 16:00","2006","09","14","16:00","16.6","","15.1","","91","","4","","11","","19.3","","100.26","","","","","","Rain"
"2006-09-14 17:00","2006","09","14","17:00","16.4","","15.2","","93","","6","","9","","19.3","","100.26","","","","","","Rain"
"2006-09-14 18:00","2006","09","14","18:00","16.0","","15.0","","94","","6","","11","","19.3","","100.29","","","","","","Mostly Cloudy"
"2006-09-14 19:00","2006","09","14","19:00","15.8","","14.9","","94","","3","","7","","8.0","","100.34","","","","","","Fog"
"2006-09-14 20:00","2006","09","14","20:00","15.8","","14.8","","94","","3","","11","","8.0","","100.38","","","","","","Fog"
"2006-09-14 21:00","2006","09","14","21:00","15.3","","14.6","","96","","7","","7","","8.0","","100.41","","","","","","Fog"
"2006-09-14 22:00","2006","09","14","22:00","15.5","","14.6","","94","","5","","9","","6.4","","100.42","","","","","","Fog"
"2006-09-14 23:00","2006","09","14","23:00","15.4","","14.6","","95","","4","","9","","4.8","","100.47","","","","","","Fog"
"2006-09-15 00:00","2006","09","15","00:00","15.4","","14.5","","94","","3","","11","","6.4","","100.49","","","","","","Fog"
"2006-09-15 01:00","2006","09","15","01:00","15.3","","14.4","","94","","2","","15","","6.4","","100.48","","","","","","Fog"
"2006-09-15 02:00","2006","09","15","02:00","15.4","","14.4","","94","","6","","9","","8.0","","100.50","","","","","","Fog"
"2006-09-15 03:00","2006","09","15","03:00","15.5","","14.4","","93","","4","","7","","8.0","","100.50","","","","","","Fog"
"2006-09-15 04:00","2006","09","15","04:00","15.6","","14.4","","93","","7","","6","","8.0","","100.49","","","","","","Fog"
"2006-09-15 05:00","2006","09","15","05:00","15.4","","14.4","","94","","1","","9","","12.9","","100.55","","","","","","Cloudy"
"2006-09-15 06:00","2006","09","15","06:00","15.6","","14.4","","93","","2","","9","","16.1","","100.63","","","","","","Cloudy"
"2006-09-15 07:00","2006","09","15","07:00","15.6","","14.5","","93","","2","","7","","19.3","","100.71","","","","","","Cloudy"
"2006-09-15 08:00","2006","09","15","08:00","16.3","","14.6","","90","","2","","7","","19.3","","100.74","","","","","","Cloudy"
"2006-09-15 09:00","2006","09","15","09:00","16.6","","14.4","","87","","1","","9","","19.3","","100.78","","","","","","Cloudy"
"2006-09-15 10:00","2006","09","15","10:00","16.8","","14.5","","86","","3","","13","","19.3","","100.82","","","","","","Cloudy"
"2006-09-15 11:00","2006","09","15","11:00","17.5","","15.0","","85","","4","","9","","19.3","","100.80","","","","","","Cloudy"
"2006-09-15 12:00","2006","09","15","12:00","18.6","","15.3","","81","","5","","7","","19.3","","100.78","","","","","","Cloudy"
"2006-09-15 13:00","2006","09","15","13:00","18.6","","15.0","","80","","7","","6","","24.1","","100.77","","","","","","Cloudy"
"2006-09-15 14:00","2006","09","15","14:00","18.9","","15.1","","79","","4","","7","","24.1","","100.74","","","","","","Cloudy"
"2006-09-15 15:00","2006","09","15","15:00","18.8","","14.8","","78","","5","","6","","24.1","","100.77","","","","","","Cloudy"
"2006-09-15 16:00","2006","09","15","16:00","19.0","","14.7","","76","","","","0","","24.1","","100.75","","","","","","Cloudy"
"2006-09-15 17:00","2006","09","15","17:00","18.7","","14.6","","77","","30","","7","","24.1","","100.72","","","","","","Cloudy"
"2006-09-15 18:00","2006","09","15","18:00","18.1","","14.3","","78","","34","","7","","24.1","","100.73","","","","","","Mostly Cloudy"
"2006-09-15 19:00","2006","09","15","19:00","17.8","","14.4","","80","","31","","6","","24.1","","100.74","","","","","","Mostly Cloudy"
"2006-09-15 20:00","2006","09","15","20:00","16.3","","13.9","","86","","27","","7","","24.1","","100.78","","","","","","Mostly Cloudy"
"2006-09-15 21:00","2006","09","15","21:00","15.6","","14.0","","90","","31","","7","","24.1","","100.79","","","","","","Mainly Clear"
"2006-09-15 22:00","2006","09","15","22:00","14.6","","13.7","","94","","30","","7","","25.0","","100.79","","","","","","Clear"
"2006-09-15 23:00","2006","09","15","23:00","14.6","","13.8","","95","","27","","4","","25.0","","100.79","","","","","","Clear"
"2006-09-16 00:00","2006","09","16","00:00","13.7","","13.4","","98","","27","","6","","16.1","","100.80","","","","","","Clear"
"2006-09-16 01:00","2006","09","16","01:00","13.6","","13.2","","97","","29","","4","","16.1","","100.79","","","","","","Clear"
"2006-09-16 02:00","2006","09","16","02:00","13.5","","13.4","","99","","","","0","","0.8","","100.77","","","","","","Fog"
"2006-09-16 03:00","2006","09","16","03:00","12.4","","12.3","","99","","26","","4","","1.6","","100.77","","","","","","Fog"
"2006-09-16 04:00","2006","09","16","04:00","12.7","","12.6","","99","","27","","4","","12.9","","100.78","","","","","","Mainly Clear"
"2006-09-16 05:00","2006","09","16","05:00","12.6","","12.3","","98","","27","","4","","25.0","","100.80","","","","","","Mainly Clear"
"2006-09-16 06:00","2006","09","16","06:00","12.5","","12.5","","100","","27","","6","","19.3","","100.82","","","","","","Mainly Clear"
"2006-09-16 07:00","2006","09","16","07:00","13.3","","13.0","","98","","27","","4","","19.3","","100.87","","","","","","Mainly Clear"
"2006-09-16 08:00","2006","09","16","08:00","14.8","","14.3","","97","","28","","9","","19.3","","100.89","","","","","","Mostly Cloudy"
"2006-09-16 09:00","2006","09","16","09:00","16.7","","14.8","","89","","","","0","","19.3","","100.87","","","","","","Mainly Clear"
"2006-09-16 10:00","2006","09","16","10:00","17.6","","14.4","","82","","30","","6","","19.3","","100.83","","","","","","Mainly Clear"
"2006-09-16 11:00","2006","09","16","11:00","20.3","","15.3","","73","","31","","4","","24.1","","100.77","","","","","","Mainly Clear"
"2006-09-16 12:00","2006","09","16","12:00","21.2","","15.0","","68","","","","0","","24.1","","100.73","","25","","","","Mainly Clear"
"2006-09-16 13:00","2006","09","16","13:00","22.2","","15.5","","66","","23","","4","","24.1","","100.67","","26","","","","Mainly Clear"
"2006-09-16 14:00","2006","09","16","14:00","22.2","","15.5","","66","","23","","4","","24.1","","100.62","","26","","","","Mainly Clear"
"2006-09-16 15:00","2006","09","16","15:00","22.5","","15.8","","66","","18","","9","","24.1","","100.55","","27","","","","Mainly Clear"
"2006-09-16 16:00","2006","09","16","16:00","22.3","","16.2","","68","","18","","9","","24.1","","100.50","","27","","","","Mainly Clear"
"2006-09-16 17:00","2006","09","16","17:00","20.9","","16.1","","74","","16","","9","","24.1","","100.48","","26","","","","Mainly Clear"
"2006-09-16 18:00","2006","09","16","18:00","18.7","","15.5","","82","","16","","7","","24.1","","100.44","","","","","","Mainly Clear"
"2006-09-16 19:00","2006","09","16","19:00","17.7","","15.0","","84","","16","","4","","24.1","","100.43","","","","","","Mainly Clear"
"2006-09-16 20:00","2006","09","16","20:00","17.0","","14.8","","87","","19","","4","","24.1","","100.44","","","","","","Mainly Clear"
"2006-09-16 21:00","2006","09","16","21:00","16.2","","14.6","","90","","18","","7","","24.1","","100.41","","","","","","Mainly Clear"
"2006-09-16 22:00","2006","09","16","22:00","15.9","","14.8","","93","","21","","7","","16.1","","100.41","","","","","","Mainly Clear"
"2006-09-16 23:00","2006","09","16","23:00","15.5","","14.7","","95","","21","","9","","16.1","","100.36","","","","","","Clear"
"2006-09-17 00:00","2006","09","17","00:00","15.3","","14.6","","96","","21","","9","","16.1","","100.32","","","","","","Mainly Clear"
"2006-09-17 01:00","2006","09","17","01:00","15.1","","14.3","","95","","24","","7","","19.3","","100.27","","","","","","Mainly Clear"
"2006-09-17 02:00","2006","09","17","02:00","14.4","","13.6","","95","","18","","6","","16.1","","100.21","","","","","","Mainly Clear"
"2006-09-17 03:00","2006","09","17","03:00","14.1","","13.5","","96","","22","","6","","9.7","","100.18","","","","","","Fog"
"2006-09-17 04:00","2006","09","17","04:00","13.5","","13.1","","97","","26","","7","","9.7","","100.19","","","","","","Fog"
"2006-09-17 05:00","2006","09","17","05:00","13.7","","13.1","","96","","23","","7","","8.0","","100.24","","","","","","Fog"
"2006-09-17 06:00","2006","09","17","06:00","13.6","","13.2","","97","","21","","7","","1.2","","100.24","","","","","","Fog"
"2006-09-17 07:00","2006","09","17","07:00","14.3","","13.7","","96","","20","","7","","4.8","","100.24","","","","","","Fog"
"2006-09-17 08:00","2006","09","17","08:00","15.6","","14.4","","93","","20","","9","","6.4","","100.21","","","","","","Fog"
"2006-09-17 09:00","2006","09","17","09:00","16.7","","14.9","","89","","22","","9","","6.4","","100.21","","","","","","Fog"
"2006-09-17 10:00","2006","09","17","10:00","18.8","","15.4","","81","","20","","9","","9.7","","100.11","","","","","","Haze"
"2006-09-17 11:00","2006","09","17","11:00","20.0","","15.3","","74","","19","","17","","16.1","","100.05","","","","","","Mostly Cloudy"
"2006-09-17 12:00","2006","09","17","12:00","20.7","","15.5","","72","","21","","15","","16.1","","99.96","","25","","","","Mostly Cloudy"
"2006-09-17 13:00","2006","09","17","13:00","23.0","","15.8","","64","","21","","20","","19.3","","99.82","","27","","","","Mostly Cloudy"
"2006-09-17 14:00","2006","09","17","14:00","22.9","","15.7","","64","","22","","20","","19.3","","99.73","","27","","","","Mostly Cloudy"
"2006-09-17 15:00","2006","09","17","15:00","23.3","","15.6","","62","","21","","22","","19.3","","99.63","","28","","","","Mainly Clear"
"2006-09-17 16:00","2006","09","17","16:00","22.5","","15.1","","63","","22","","19","","19.3","","99.57","","27","","","","Mainly Clear"
"2006-09-17 17:00","2006","09","17","17:00","21.7","","15.9","","70","","20","","15","","19.3","","99.57","","26","","","","Mostly Cloudy"
"2006-09-17 18:00","2006","09","17","18:00","20.4","","15.6","","74","","20","","15","","19.3","","99.51","","25","","","","Mostly Cloudy"
"2006-09-17 19:00","2006","09","17","19:00","19.2","","15.3","","78","","21","","9","","19.3","","99.62","","","","","","Mostly Cloudy"
"2006-09-17 20:00","2006","09","17","20:00","18.3","","15.3","","83","","20","","9","","16.1","","99.69","","","","","","Mainly Clear"
"2006-09-17 21:00","2006","09","17","21:00","17.0","","15.0","","88","","19","","7","","16.1","","99.63","","","","","","Mainly Clear"
"2006-09-17 22:00","2006","09","17","22:00","16.9","","15.1","","89","","20","","13","","16.1","","99.61","","","","","","Mainly Clear"
"2006-09-17 23:00","2006","09","17","23:00","16.8","","15.0","","89","","22","","7","","16.1","","99.65","","","","","","Clear"
"2006-09-18 00:00","2006","09","18","00:00","15.3","","14.3","","94","","16","","4","","12.9","","99.60","","","","","","Clear"
"2006-09-18 01:00","2006","09","18","01:00","15.1","","14.2","","94","","15","","7","","12.9","","99.53","","","","","","Mainly Clear"
"2006-09-18 02:00","2006","09","18","02:00","14.9","","13.9","","94","","18","","6","","12.9","","99.49","","","","","","Clear"
"2006-09-18 03:00","2006","09","18","03:00","15.4","","14.2","","93","","18","","7","","12.9","","99.49","","","","","","Mostly Cloudy"
"2006-09-18 04:00","2006","09","18","04:00","16.0","","14.3","","90","","19","","7","","16.1","","99.46","","","","","","Mostly Cloudy"
"2006-09-18 05:00","2006","09","18","05:00","16.0","","14.7","","92","","16","","4","","16.1","","99.44","","","","","","Cloudy"
"2006-09-18 06:00","2006","09","18","06:00","16.4","","15.4","","94","","18","","15","","6.4","","99.47","","","","","","Fog"
"2006-09-18 07:00","2006","09","18","07:00","18.0","","15.8","","87","","20","","11","","8.0","","99.44","","","","","","Haze"
"2006-09-18 08:00","2006","09","18","08:00","18.6","","16.0","","85","","21","","11","","9.7","","99.41","","","","","","Haze"
"2006-09-18 09:00","2006","09","18","09:00","20.4","","16.6","","79","","20","","15","","9.7","","99.39","","25","","","","Haze"
"2006-09-18 10:00","2006","09","18","10:00","22.8","","17.2","","71","","21","","19","","9.7","","99.32","","28","","","","Haze"
"2006-09-18 11:00","2006","09","18","11:00","24.4","","17.2","","64","","22","","19","","9.7","","99.31","","30","","","","Haze"
"2006-09-18 12:00","2006","09","18","12:00","24.8","","17.1","","62","","22","","17","","16.1","","99.25","","30","","","","Mostly Cloudy"
"2006-09-18 13:00","2006","09","18","13:00","25.3","","16.2","","57","","20","","20","","16.1","","99.18","","30","","","","Mostly Cloudy"
"2006-09-18 14:00","2006","09","18","14:00","25.0","","16.5","","59","","20","","22","","16.1","","99.15","","30","","","","Mostly Cloudy"
"2006-09-18 15:00","2006","09","18","15:00","25.8","","16.3","","56","","19","","24","","16.1","","99.09","","31","","","","Mostly Cloudy"
"2006-09-18 16:00","2006","09","18","16:00","25.2","","14.2","","51","","19","","26","","16.1","","99.06","","29","","","","Cloudy"
"2006-09-18 17:00","2006","09","18","17:00","24.4","","14.6","","54","","20","","17","","19.3","","99.08","","28","","","","Cloudy"
"2006-09-18 18:00","2006","09","18","18:00","23.3","","14.9","","59","","19","","13","","19.3","","99.09","","27","","","","Cloudy"
"2006-09-18 19:00","2006","09","18","19:00","22.8","","15.0","","61","","19","","6","","19.3","","99.06","","27","","","","Cloudy"
"2006-09-18 20:00","2006","09","18","20:00","22.1","","15.2","","65","","20","","6","","16.1","","99.05","","26","","","","Cloudy"
"2006-09-18 21:00","2006","09","18","21:00","21.3","","15.4","","69","","18","","9","","16.1","","99.05","","26","","","","Rain"
"2006-09-18 22:00","2006","09","18","22:00","21.0","","16.0","","73","","20","","6","","16.1","","99.02","","26","","","","Rain"
"2006-09-18 23:00","2006","09","18","23:00","19.1","","16.9","","87","","18","","7","","9.7","","98.99","","","","","","Rain,Fog"
"2006-09-19 00:00","2006","09","19","00:00","18.9","","17.5","","92","","18","","7","","8.0","","98.93","","","","","","Rain,Fog"
"2006-09-19 01:00","2006","09","19","01:00","18.7","","17.2","","91","","19","","11","","9.7","","98.88","","","","","","Rain,Fog"
"2006-09-19 02:00","2006","09","19","02:00","18.5","","17.5","","94","","20","","11","","3.2","","98.85","","","","","","Rain,Fog"
"2006-09-19 03:00","2006","09","19","03:00","18.7","","17.9","","95","","20","","11","","2.8","","98.81","","","","","","Moderate Rain,Fog"
"2006-09-19 04:00","2006","09","19","04:00","16.6","","15.5","","93","","29","","15","","9.7","","98.89","","","","","","Rain,Fog"
"2006-09-19 05:00","2006","09","19","05:00","14.1","","13.5","","96","","27","","17","","16.1","","98.88","","","","","","Rain"
"2006-09-19 06:00","2006","09","19","06:00","13.2","","12.4","","95","","28","","15","","16.1","","98.91","","","","","","Rain"
"2006-09-19 07:00","2006","09","19","07:00","13.2","","12.3","","94","","28","","19","","16.1","","98.99","","","","","","Rain"
"2006-09-19 08:00","2006","09","19","08:00","13.4","","12.6","","95","","29","","13","","16.1","","99.02","","","","","","Rain"
"2006-09-19 09:00","2006","09","19","09:00","13.5","","13.0","","97","","27","","7","","4.0","","99.03","","","","","","Rain,Fog"
"2006-09-19 10:00","2006","09","19","10:00","14.2","","13.6","","96","","27","","9","","16.1","","99.06","","","","","","Cloudy"
"2006-09-19 11:00","2006","09","19","11:00","15.4","","13.9","","91","","23","","11","","24.1","","99.10","","","","","","Mostly Cloudy"
"2006-09-19 12:00","2006","09","19","12:00","18.1","","13.2","","73","","21","","7","","24.1","","99.06","","","","","","Mainly Clear"
"2006-09-19 13:00","2006","09","19","13:00","19.5","","13.0","","66","","22","","15","","24.1","","99.07","","","","","","Mainly Clear"
"2006-09-19 14:00","2006","09","19","14:00","20.7","","14.1","","66","","17","","17","","24.1","","99.02","","","","","","Mostly Cloudy"
"2006-09-19 15:00","2006","09","19","15:00","20.0","","13.4","","66","","20","","7","","24.1","","99.01","","","","","","Cloudy"
"2006-09-19 16:00","2006","09","19","16:00","20.1","","12.2","","60","","22","","13","","24.1","","98.98","","","","","","Mostly Cloudy"
"2006-09-19 17:00","2006","09","19","17:00","19.3","","12.9","","66","","21","","13","","24.1","","99.00","","","","","","Mostly Cloudy"
"2006-09-19 18:00","2006","09","19","18:00","18.2","","11.2","","64","","27","","19","","24.1","","99.07","","","","","","Mostly Cloudy"
"2006-09-19 19:00","2006","09","19","19:00","16.2","","8.2","","59","","29","","24","","25.0","","99.16","","","","","","Mainly Clear"
"2006-09-19 20:00","2006","09","19","20:00","15.3","","8.2","","63","","28","","15","","25.0","","99.21","","","","","","Mostly Cloudy"
"2006-09-19 21:00","2006","09","19","21:00","14.8","","8.9","","68","","26","","13","","25.0","","99.22","","","","","","Cloudy"
"2006-09-19 22:00","2006","09","19","22:00","13.7","","8.2","","69","","25","","9","","25.0","","99.23","","","","","","Mainly Clear"
"2006-09-19 23:00","2006","09","19","23:00","12.7","","8.1","","74","","24","","9","","25.0","","99.21","","","","","","Mainly Clear"
"2006-09-20 00:00","2006","09","20","00:00","11.8","","8.2","","79","","22","","7","","25.0","","99.17","","","","","","Clear"
"2006-09-20 01:00","2006","09","20","01:00","11.5","","8.1","","80","","22","","6","","25.0","","99.13","","","","","","Clear"
"2006-09-20 02:00","2006","09","20","02:00","9.3","","7.2","","87","","17","","4","","25.0","","99.11","","","","","","Clear"
"2006-09-20 03:00","2006","09","20","03:00","10.6","","8.1","","85","","21","","7","","25.0","","99.04","","","","","","Mainly Clear"
"2006-09-20 04:00","2006","09","20","04:00","9.0","","7.5","","90","","11","","6","","25.0","","99.01","","","","","","Mostly Cloudy"
"2006-09-20 05:00","2006","09","20","05:00","9.2","","8.1","","93","","12","","4","","25.0","","99.02","","","","","","Mostly Cloudy"
"2006-09-20 06:00","2006","09","20","06:00","10.0","","8.8","","92","","18","","9","","24.1","","99.04","","","","","","Mostly Cloudy"
"2006-09-20 07:00","2006","09","20","07:00","10.8","","9.4","","91","","22","","6","","24.1","","99.05","","","","","","Mostly Cloudy"
"2006-09-20 08:00","2006","09","20","08:00","11.8","","9.9","","88","","24","","9","","24.1","","99.07","","","","","","Mostly Cloudy"
"2006-09-20 09:00","2006","09","20","09:00","13.0","","10.4","","84","","27","","9","","24.1","","99.08","","","","","","Cloudy"
"2006-09-20 10:00","2006","09","20","10:00","14.0","","9.7","","75","","27","","13","","24.1","","99.10","","","","","","Cloudy"
"2006-09-20 11:00","2006","09","20","11:00","14.0","","8.8","","71","","29","","13","","24.1","","99.07","","","","","","Cloudy"
"2006-09-20 12:00","2006","09","20","12:00","13.7","","9.6","","76","","29","","22","","24.1","","99.07","","","","","","Rain"
"2006-09-20 13:00","2006","09","20","13:00","15.0","","9.7","","71","","29","","20","","24.1","","99.06","","","","","","Rain"
"2006-09-20 14:00","2006","09","20","14:00","13.3","","8.7","","74","","30","","24","","24.1","","99.09","","","","","","Cloudy"
"2006-09-20 15:00","2006","09","20","15:00","13.0","","8.0","","72","","30","","22","","24.1","","99.12","","","","","","Cloudy"
"2006-09-20 16:00","2006","09","20","16:00","12.0","","7.3","","73","","30","","22","","24.1","","99.19","","","","","","Cloudy"
"2006-09-20 17:00","2006","09","20","17:00","10.7","","5.6","","71","","31","","24","","24.1","","99.28","","","","","","Cloudy"
"2006-09-20 18:00","2006","09","20","18:00","10.6","","3.7","","62","","31","","24","","24.1","","99.34","","","","","","Mostly Cloudy"
"2006-09-20 19:00","2006","09","20","19:00","10.4","","4.2","","65","","30","","19","","25.0","","99.46","","","","","","Mostly Cloudy"
"2006-09-20 20:00","2006","09","20","20:00","9.9","","2.7","","61","","32","","20","","25.0","","99.57","","","","","","Mostly Cloudy"
"2006-09-20 21:00","2006","09","20","21:00","9.1","","3.7","","69","","28","","17","","25.0","","99.65","","","","","","Mostly Cloudy"
"2006-09-20 22:00","2006","09","20","22:00","7.7","","3.4","","74","","27","","13","","25.0","","99.70","","","","","","Clear"
"2006-09-20 23:00","2006","09","20","23:00","6.2","","3.4","","82","","26","","9","","25.0","","99.77","","","","","","Clear"
"2006-09-21 00:00","2006","09","21","00:00","5.1","","3.0","","86","","26","","11","","25.0","","99.80","","","","","","Clear"
"2006-09-21 01:00","2006","09","21","01:00","5.1","","3.2","","88","","24","","7","","25.0","","99.86","","","","","","Mostly Cloudy"
"2006-09-21 02:00","2006","09","21","02:00","4.7","","3.0","","89","","27","","9","","25.0","","99.90","","","","","","Mainly Clear"
"2006-09-21 03:00","2006","09","21","03:00","4.8","","2.8","","87","","26","","6","","25.0","","99.94","","","","","","Mainly Clear"
"2006-09-21 04:00","2006","09","21","04:00","4.5","","2.9","","89","","25","","6","","25.0","","100.00","","","","","","Clear"
"2006-09-21 05:00","2006","09","21","05:00","3.3","","1.9","","91","","21","","7","","25.0","","100.04","","","","","","Clear"
"2006-09-21 06:00","2006","09","21","06:00","3.5","","2.1","","91","","22","","9","","24.1","","100.08","","","","","","Clear"
"2006-09-21 07:00","2006","09","21","07:00","4.8","","3.2","","89","","24","","9","","24.1","","100.13","","","","","","Clear"
"2006-09-21 08:00","2006","09","21","08:00","7.5","","4.6","","82","","22","","6","","24.1","","100.16","","","","","","Clear"
"2006-09-21 09:00","2006","09","21","09:00","10.4","","4.0","","64","","23","","13","","24.1","","100.18","","","","","","Clear"
"2006-09-21 10:00","2006","09","21","10:00","12.7","","3.9","","55","","28","","13","","24.1","","100.17","","","","","","Clear"
"2006-09-21 11:00","2006","09","21","11:00","12.9","","4.1","","55","","31","","15","","24.1","","100.16","","","","","","Mostly Cloudy"
"2006-09-21 12:00","2006","09","21","12:00","14.4","","4.5","","51","","30","","22","","24.1","","100.15","","","","","","Mostly Cloudy"
"2006-09-21 13:00","2006","09","21","13:00","15.5","","4.4","","48","","31","","19","","24.1","","100.18","","","","","","Mainly Clear"
"2006-09-21 14:00","2006","09","21","14:00","14.9","","4.4","","49","","31","","20","","24.1","","100.20","","","","","","Mainly Clear"
"2006-09-21 15:00","2006","09","21","15:00","15.3","","4.7","","49","","27","","20","","24.1","","100.20","","","","","","Mainly Clear"
"2006-09-21 16:00","2006","09","21","16:00","15.6","","5.2","","50","","29","","15","","24.1","","100.20","","","","","","Mainly Clear"
"2006-09-21 17:00","2006","09","21","17:00","14.2","","4.7","","53","","28","","13","","24.1","","100.22","","","","","","Mostly Cloudy"
"2006-09-21 18:00","2006","09","21","18:00","12.5","","5.0","","60","","30","","7","","24.1","","100.26","","","","","","Mostly Cloudy"
"2006-09-21 19:00","2006","09","21","19:00","12.5","","4.5","","58","","33","","4","","25.0","","100.33","","","","","","Mostly Cloudy"
"2006-09-21 20:00","2006","09","21","20:00","12.0","","5.2","","63","","19","","6","","25.0","","100.39","","","","","","Cloudy"
"2006-09-21 21:00","2006","09","21","21:00","10.7","","7.0","","78","","36","","6","","25.0","","100.48","","","","","","Mostly Cloudy"
"2006-09-21 22:00","2006","09","21","22:00","10.4","","7.0","","79","","","","0","","25.0","","100.52","","","","","","Mostly Cloudy"
"2006-09-21 23:00","2006","09","21","23:00","10.5","","7.4","","81","","19","","7","","25.0","","100.57","","","","","","Rain"
"2006-09-22 00:00","2006","09","22","00:00","10.0","","8.4","","90","","","","0","","25.0","","100.61","","","","","","Rain"
"2006-09-22 01:00","2006","09","22","01:00","9.8","","8.3","","90","","6","","4","","25.0","","100.60","","","","","","Mainly Clear"
"2006-09-22 02:00","2006","09","22","02:00","8.7","","8.0","","95","","","","0","","25.0","","100.61","","","","","","Mostly Cloudy"
"2006-09-22 03:00","2006","09","22","03:00","8.6","","7.8","","95","","18","","4","","25.0","","100.64","","","","","","Mostly Cloudy"
"2006-09-22 04:00","2006","09","22","04:00","8.2","","7.2","","93","","15","","4","","25.0","","100.65","","","","","","Mostly Cloudy"
"2006-09-22 05:00","2006","09","22","05:00","7.9","","6.8","","93","","","","0","","25.0","","100.70","","","","","","Mostly Cloudy"
"2006-09-22 06:00","2006","09","22","06:00","7.3","","6.4","","94","","","","0","","24.1","","100.71","","","","","","Mainly Clear"
"2006-09-22 07:00","2006","09","22","07:00","9.2","","8.2","","93","","15","","6","","24.1","","100.72","","","","","","Clear"
"2006-09-22 08:00","2006","09","22","08:00","10.3","","8.3","","87","","16","","4","","24.1","","100.73","","","","","","Mainly Clear"
"2006-09-22 09:00","2006","09","22","09:00","12.3","","8.7","","79","","20","","9","","24.1","","100.79","","","","","","Mostly Cloudy"
"2006-09-22 10:00","2006","09","22","10:00","14.3","","9.1","","71","","19","","11","","24.1","","100.72","","","","","","Mostly Cloudy"
"2006-09-22 11:00","2006","09","22","11:00","15.2","","9.1","","67","","18","","7","","24.1","","100.70","","","","","","Cloudy"
"2006-09-22 12:00","2006","09","22","12:00","15.7","","7.5","","58","","19","","13","","24.1","","100.67","","","","","","Cloudy"
"2006-09-22 13:00","2006","09","22","13:00","16.4","","7.8","","57","","16","","6","","24.1","","100.56","","","","","","Cloudy"
"2006-09-22 14:00","2006","09","22","14:00","16.8","","7.9","","56","","18","","9","","24.1","","100.48","","","","","","Cloudy"
"2006-09-22 15:00","2006","09","22","15:00","17.7","","8.1","","53","","21","","13","","24.1","","100.42","","","","","","Cloudy"
"2006-09-22 16:00","2006","09","22","16:00","16.6","","7.2","","54","","17","","9","","24.1","","100.34","","","","","","Cloudy"
"2006-09-22 17:00","2006","09","22","17:00","15.6","","8.7","","63","","13","","6","","24.1","","100.32","","","","","","Mostly Cloudy"
"2006-09-22 18:00","2006","09","22","18:00","13.7","","8.7","","72","","11","","7","","24.1","","100.28","","","","","","Mostly Cloudy"
"2006-09-22 19:00","2006","09","22","19:00","13.3","","8.8","","74","","10","","9","","24.1","","100.23","","","","","","Cloudy"
"2006-09-22 20:00","2006","09","22","20:00","12.5","","8.3","","76","","11","","9","","24.1","","100.21","","","","","","Mostly Cloudy"
"2006-09-22 21:00","2006","09","22","21:00","13.1","","8.2","","72","","10","","11","","24.1","","100.14","","","","","","Cloudy"
"2006-09-22 22:00","2006","09","22","22:00","13.4","","8.2","","71","","12","","13","","25.0","","100.07","","","","","","Cloudy"
"2006-09-22 23:00","2006","09","22","23:00","12.5","","8.3","","76","","11","","13","","25.0","","99.95","","","","","","Cloudy"
"2006-09-23 00:00","2006","09","23","00:00","12.5","","8.9","","79","","13","","7","","25.0","","99.93","","","","","","Cloudy"
"2006-09-23 01:00","2006","09","23","01:00","12.3","","9.2","","81","","12","","7","","25.0","","99.86","","","","","","Cloudy"
"2006-09-23 02:00","2006","09","23","02:00","12.9","","9.6","","80","","15","","7","","25.0","","99.79","","","","","","Cloudy"
"2006-09-23 03:00","2006","09","23","03:00","12.8","","9.8","","82","","14","","9","","25.0","","99.70","","","","","","Cloudy"
"2006-09-23 04:00","2006","09","23","04:00","12.9","","10.8","","87","","16","","7","","11.3","","99.62","","","","","","Rain"
"2006-09-23 05:00","2006","09","23","05:00","12.5","","11.7","","95","","14","","9","","6.4","","99.53","","","","","","Drizzle,Fog"
"2006-09-23 06:00","2006","09","23","06:00","12.4","","11.7","","95","","15","","11","","2.4","","99.41","","","","","","Rain,Fog"
"2006-09-23 07:00","2006","09","23","07:00","12.7","","12.0","","96","","15","","11","","2.4","","99.38","","","","","","Rain,Fog"
"2006-09-23 08:00","2006","09","23","08:00","13.0","","12.3","","96","","13","","9","","3.2","","99.35","","","","","","Rain,Fog"
"2006-09-23 09:00","2006","09","23","09:00","13.1","","12.6","","97","","15","","7","","2.4","","99.27","","","","","","Rain,Fog"
"2006-09-23 10:00","2006","09","23","10:00","14.0","","13.1","","94","","19","","6","","3.2","","99.27","","","","","","Fog"
"2006-09-23 11:00","2006","09","23","11:00","14.5","","13.7","","95","","25","","7","","3.2","","99.25","","","","","","Rain,Fog"
"2006-09-23 12:00","2006","09","23","12:00","15.5","","14.7","","95","","23","","7","","3.2","","99.16","","","","","","Rain,Fog"
"2006-09-23 13:00","2006","09","23","13:00","16.6","","15.4","","93","","23","","9","","8.0","","99.15","","","","","","Fog"
"2006-09-23 14:00","2006","09","23","14:00","17.4","","15.8","","90","","23","","7","","8.0","","99.13","","","","","","Fog"
"2006-09-23 15:00","2006","09","23","15:00","19.0","","16.7","","87","","22","","7","","9.7","","99.14","","","","","","Haze"
"2006-09-23 16:00","2006","09","23","16:00","18.5","","16.1","","86","","20","","7","","9.7","","99.15","","","","","","Haze"
"2006-09-23 17:00","2006","09","23","17:00","19.5","","16.7","","84","","21","","7","","16.1","","99.14","","","","","","Mostly Cloudy"
"2006-09-23 18:00","2006","09","23","18:00","18.4","","16.1","","86","","20","","6","","16.1","","99.15","","","","","","Mostly Cloudy"
"2006-09-23 19:00","2006","09","23","19:00","16.9","","15.7","","93","","17","","6","","16.1","","99.15","","","","","","Cloudy"
"2006-09-23 20:00","2006","09","23","20:00","17.0","","16.0","","94","","17","","6","","12.9","","99.12","","","","","","Mostly Cloudy"
"2006-09-23 21:00","2006","09","23","21:00","16.9","","16.2","","96","","18","","7","","6.4","","99.05","","","","","","Fog"
"2006-09-23 22:00","2006","09","23","22:00","16.9","","16.2","","96","","17","","7","","4.0","","98.99","","","","","","Fog"
"2006-09-23 23:00","2006","09","23","23:00","17.4","","16.6","","95","","19","","9","","4.8","","98.96","","","","","","Fog"
"2006-09-24 00:00","2006","09","24","00:00","17.5","","16.7","","95","","20","","9","","4.8","","98.83","","","","","","Rain,Fog"
"2006-09-24 01:00","2006","09","24","01:00","17.0","","16.4","","96","","18","","6","","3.2","","98.74","","","","","","Rain,Fog"
"2006-09-24 02:00","2006","09","24","02:00","17.0","","16.5","","97","","9","","6","","2.4","","98.57","","","","","","Rain,Fog"
"2006-09-24 03:00","2006","09","24","03:00","18.0","","17.2","","95","","19","","15","","8.0","","98.43","","","","","","Rain,Fog"
"2006-09-24 04:00","2006","09","24","04:00","17.4","","16.5","","94","","16","","15","","8.0","","98.27","","","","","","Rain,Fog"
"2006-09-24 05:00","2006","09","24","05:00","18.4","","17.2","","93","","19","","19","","9.7","","98.12","","","","","","Fog"
"2006-09-24 06:00","2006","09","24","06:00","19.3","","17.2","","88","","21","","22","","9.7","","98.04","","","","","","Drizzle,Fog"
"2006-09-24 07:00","2006","09","24","07:00","19.5","","17.2","","87","","22","","22","","11.3","","98.02","","","","","","Mostly Cloudy"
"2006-09-24 08:00","2006","09","24","08:00","20.5","","16.8","","79","","22","","30","","24.1","","97.97","","26","","","","Mainly Clear"
"2006-09-24 09:00","2006","09","24","09:00","19.3","","13.1","","67","","25","","32","","24.1","","97.94","","","","","","Mainly Clear"
"2006-09-24 10:00","2006","09","24","10:00","21.1","","12.8","","59","","23","","41","","24.1","","97.90","","","","","","Mainly Clear"
"2006-09-24 11:00","2006","09","24","11:00","21.8","","12.6","","56","","24","","41","","24.1","","97.93","","","","","","Mainly Clear"
"2006-09-24 12:00","2006","09","24","12:00","19.4","","11.6","","61","","29","","39","","24.1","","98.05","","","","","","Mostly Cloudy"
"2006-09-24 13:00","2006","09","24","13:00","15.4","","10.0","","70","","29","","50","","24.1","","98.24","","","","","","Mostly Cloudy"
"2006-09-24 14:00","2006","09","24","14:00","15.1","","10.3","","73","","29","","37","","24.1","","98.41","","","","","","Mostly Cloudy"
"2006-09-24 15:00","2006","09","24","15:00","14.2","","9.1","","71","","32","","32","","24.1","","98.58","","","","","","Cloudy"
"2006-09-24 16:00","2006","09","24","16:00","14.2","","8.7","","69","","31","","22","","24.1","","98.70","","","","","","Mostly Cloudy"
"2006-09-24 17:00","2006","09","24","17:00","14.4","","8.5","","68","","29","","24","","32.2","","98.81","","","","","","Mostly Cloudy"
"2006-09-24 18:00","2006","09","24","18:00","12.2","","7.6","","73","","31","","28","","32.2","","98.95","","","","","","Mostly Cloudy"
"2006-09-24 19:00","2006","09","24","19:00","11.4","","6.7","","73","","32","","19","","25.0","","99.03","","","","","","Mostly Cloudy"
"2006-09-24 20:00","2006","09","24","20:00","11.3","","5.6","","68","","35","","13","","25.0","","99.11","","","","","","Cloudy"
"2006-09-24 21:00","2006","09","24","21:00","10.8","","5.6","","70","","36","","20","","25.0","","99.19","","","","","","Cloudy"
"2006-09-24 22:00","2006","09","24","22:00","10.2","","4.8","","69","","35","","15","","25.0","","99.27","","","","","","Cloudy"
"2006-09-24 23:00","2006","09","24","23:00","9.6","","2.9","","63","","34","","24","","25.0","","99.30","","","","","","Mostly Cloudy"
"2006-09-25 00:00","2006","09","25","00:00","7.5","","2.3","","70","","32","","11","","25.0","","99.34","","","","","","Mainly Clear"
"2006-09-25 01:00","2006","09","25","01:00","6.3","","2.2","","75","","32","","13","","25.0","","99.39","","","","","","Mainly Clear"
"2006-09-25 02:00","2006","09","25","02:00","5.1","","1.4","","77","","32","","9","","25.0","","99.40","","","","","","Clear"
"2006-09-25 03:00","2006","09","25","03:00","4.8","","2.6","","86","","27","","7","","25.0","","99.43","","","","","","Clear"
"2006-09-25 04:00","2006","09","25","04:00","4.8","","2.9","","87","","27","","7","","25.0","","99.42","","","","","","Clear"
"2006-09-25 05:00","2006","09","25","05:00","4.0","","2.7","","91","","25","","6","","25.0","","99.47","","","","","","Clear"
"2006-09-25 06:00","2006","09","25","06:00","3.6","","2.6","","93","","27","","7","","24.1","","99.54","","","","","","Mainly Clear"
"2006-09-25 07:00","2006","09","25","07:00","4.8","","3.7","","93","","25","","9","","24.1","","99.55","","","","","","Mainly Clear"
"2006-09-25 08:00","2006","09","25","08:00","7.3","","4.8","","84","","26","","11","","24.1","","99.59","","","","","","Mainly Clear"
"2006-09-25 09:00","2006","09","25","09:00","9.5","","4.4","","70","","29","","11","","24.1","","99.61","","","","","","Mainly Clear"
"2006-09-25 10:00","2006","09","25","10:00","10.0","","4.1","","67","","27","","9","","24.1","","99.60","","","","","","Mostly Cloudy"
"2006-09-25 11:00","2006","09","25","11:00","11.2","","4.3","","62","","25","","15","","24.1","","99.52","","","","","","Mostly Cloudy"
"2006-09-25 12:00","2006","09","25","12:00","12.6","","3.2","","53","","25","","17","","24.1","","99.44","","","","","","Mostly Cloudy"
"2006-09-25 13:00","2006","09","25","13:00","13.3","","2.7","","49","","25","","17","","24.1","","99.36","","","","","","Mostly Cloudy"
"2006-09-25 14:00","2006","09","25","14:00","14.6","","3.7","","48","","23","","15","","24.1","","99.33","","","","","","Mostly Cloudy"
"2006-09-25 15:00","2006","09","25","15:00","14.1","","4.0","","51","","23","","20","","24.1","","99.29","","","","","","Mostly Cloudy"
"2006-09-25 16:00","2006","09","25","16:00","13.4","","4.8","","56","","21","","13","","19.3","","99.24","","","","","","Rain"
"2006-09-25 17:00","2006","09","25","17:00","12.4","","7.0","","70","","18","","7","","19.3","","99.22","","","","","","Rain"
"2006-09-25 18:00","2006","09","25","18:00","11.8","","7.9","","77","","18","","13","","24.1","","99.15","","","","","","Rain"
"2006-09-25 19:00","2006","09","25","19:00","12.3","","8.0","","75","","20","","11","","19.3","","99.15","","","","","","Rain"
"2006-09-25 20:00","2006","09","25","20:00","11.1","","9.5","","90","","20","","9","","19.3","","99.14","","","","","","Rain"
"2006-09-25 21:00","2006","09","25","21:00","10.7","","8.9","","89","","22","","13","","24.1","","99.06","","","","","","Mostly Cloudy"
"2006-09-25 22:00","2006","09","25","22:00","10.5","","8.6","","88","","23","","17","","25.0","","99.08","","","","","","Mainly Clear"
"2006-09-25 23:00","2006","09","25","23:00","10.0","","8.2","","89","","24","","13","","25.0","","99.15","","","","","","Mainly Clear"
"2006-09-26 00:00","2006","09","26","00:00","10.1","","8.1","","87","","26","","15","","25.0","","99.24","","","","","","Mainly Clear"
"2006-09-26 01:00","2006","09","26","01:00","10.4","","7.9","","84","","27","","20","","25.0","","99.27","","","","","","Mostly Cloudy"
"2006-09-26 02:00","2006","09","26","02:00","10.3","","5.5","","72","","27","","26","","25.0","","99.33","","","","","","Mostly Cloudy"
"2006-09-26 03:00","2006","09","26","03:00","10.0","","5.0","","71","","28","","26","","25.0","","99.39","","","","","","Mainly Clear"
"2006-09-26 04:00","2006","09","26","04:00","8.7","","5.0","","78","","26","","11","","25.0","","99.50","","","","","","Mostly Cloudy"
"2006-09-26 05:00","2006","09","26","05:00","7.2","","4.8","","85","","27","","7","","25.0","","99.59","","","","","","Mainly Clear"
"2006-09-26 06:00","2006","09","26","06:00","6.9","","4.8","","86","","24","","7","","24.1","","99.70","","","","","","Mainly Clear"
"2006-09-26 07:00","2006","09","26","07:00","7.6","","5.5","","87","","25","","7","","24.1","","99.80","","","","","","Mainly Clear"
"2006-09-26 08:00","2006","09","26","08:00","10.0","","6.4","","78","","28","","19","","24.1","","99.87","","","","","","Mainly Clear"
"2006-09-26 09:00","2006","09","26","09:00","11.7","","6.9","","72","","28","","24","","24.1","","99.94","","","","","","Mainly Clear"
"2006-09-26 10:00","2006","09","26","10:00","12.7","","7.2","","69","","28","","19","","24.1","","99.99","","","","","","Mostly Cloudy"
"2006-09-26 11:00","2006","09","26","11:00","12.6","","6.5","","66","","30","","19","","24.1","","100.03","","","","","","Mostly Cloudy"
"2006-09-26 12:00","2006","09","26","12:00","14.0","","5.9","","58","","29","","17","","24.1","","100.04","","","","","","Mostly Cloudy"
"2006-09-26 13:00","2006","09","26","13:00","15.2","","4.9","","50","","28","","19","","24.1","","100.04","","","","","","Mainly Clear"
"2006-09-26 14:00","2006","09","26","14:00","15.7","","3.9","","45","","27","","15","","24.1","","100.05","","","","","","Mainly Clear"
"2006-09-26 15:00","2006","09","26","15:00","15.5","","3.1","","43","","30","","11","","24.1","","100.07","","","","","","Mainly Clear"
"2006-09-26 16:00","2006","09","26","16:00","15.2","","3.0","","44","","28","","15","","24.1","","100.06","","","","","","Clear"
"2006-09-26 17:00","2006","09","26","17:00","15.3","","3.0","","44","","24","","7","","24.1","","100.06","","","","","","Mainly Clear"
"2006-09-26 18:00","2006","09","26","18:00","13.1","","3.4","","52","","18","","6","","24.1","","100.06","","","","","","Mainly Clear"
"2006-09-26 19:00","2006","09","26","19:00","11.6","","3.4","","57","","16","","7","","25.0","","100.06","","","","","","Mainly Clear"
"2006-09-26 20:00","2006","09","26","20:00","9.3","","3.9","","69","","17","","9","","25.0","","100.10","","","","","","Clear"
"2006-09-26 21:00","2006","09","26","21:00","10.0","","6.8","","80","","19","","9","","25.0","","100.11","","","","","","Clear"
"2006-09-26 22:00","2006","09","26","22:00","9.3","","7.0","","86","","18","","7","","25.0","","100.13","","","","","","Clear"
"2006-09-26 23:00","2006","09","26","23:00","9.0","","7.2","","88","","19","","9","","25.0","","100.12","","","","","","Clear"
"2006-09-27 00:00","2006","09","27","00:00","8.2","","6.7","","90","","17","","7","","25.0","","100.11","","","","","","Mainly Clear"
"2006-09-27 01:00","2006","09","27","01:00","8.2","","6.9","","92","","17","","7","","25.0","","100.09","","","","","","Mostly Cloudy"
"2006-09-27 02:00","2006","09","27","02:00","7.2","","6.0","","92","","17","","7","","25.0","","100.06","","","","","","Clear"
"2006-09-27 03:00","2006","09","27","03:00","7.3","","6.5","","95","","17","","9","","25.0","","100.02","","","","","","Clear"
"2006-09-27 04:00","2006","09","27","04:00","6.7","","5.4","","91","","16","","6","","25.0","","100.00","","","","","","Clear"
"2006-09-27 05:00","2006","09","27","05:00","5.2","","4.1","","93","","12","","6","","25.0","","99.97","","","","","","Mainly Clear"
"2006-09-27 06:00","2006","09","27","06:00","5.3","","3.7","","89","","13","","9","","24.1","","99.92","","","","","","Mainly Clear"
"2006-09-27 07:00","2006","09","27","07:00","7.9","","6.1","","88","","14","","7","","24.1","","99.90","","","","","","Clear"
"2006-09-27 08:00","2006","09","27","08:00","10.5","","7.4","","81","","18","","11","","24.1","","99.85","","","","","","Clear"
"2006-09-27 09:00","2006","09","27","09:00","13.8","","8.2","","69","","18","","13","","24.1","","99.80","","","","","","Mainly Clear"
"2006-09-27 10:00","2006","09","27","10:00","16.2","","8.6","","61","","19","","15","","24.1","","99.73","","","","","","Mainly Clear"
"2006-09-27 11:00","2006","09","27","11:00","18.7","","9.3","","54","","19","","19","","24.1","","99.68","","","","","","Mainly Clear"
"2006-09-27 12:00","2006","09","27","12:00","19.9","","9.9","","52","","18","","24","","24.1","","99.60","","","","","","Mainly Clear"
"2006-09-27 13:00","2006","09","27","13:00","20.6","","10.9","","54","","20","","24","","24.1","","99.54","","","","","","Mainly Clear"
"2006-09-27 14:00","2006","09","27","14:00","21.8","","11.2","","51","","18","","24","","24.1","","99.49","","","","","","Mostly Cloudy"
"2006-09-27 15:00","2006","09","27","15:00","20.9","","11.2","","54","","19","","24","","24.1","","99.44","","","","","","Mostly Cloudy"
"2006-09-27 16:00","2006","09","27","16:00","20.6","","11.7","","57","","19","","13","","24.1","","99.38","","","","","","Mostly Cloudy"
"2006-09-27 17:00","2006","09","27","17:00","21.0","","11.2","","53","","19","","24","","24.1","","99.39","","","","","","Mainly Clear"
"2006-09-27 18:00","2006","09","27","18:00","19.0","","10.7","","59","","18","","11","","24.1","","99.39","","","","","","Mainly Clear"
"2006-09-27 19:00","2006","09","27","19:00","18.6","","10.2","","58","","18","","15","","25.0","","99.36","","","","","","Mostly Cloudy"
"2006-09-27 20:00","2006","09","27","20:00","17.8","","9.9","","60","","18","","15","","25.0","","99.32","","","","","","Mostly Cloudy"
"2006-09-27 21:00","2006","09","27","21:00","17.1","","9.9","","63","","17","","19","","25.0","","99.27","","","","","","Mostly Cloudy"
"2006-09-27 22:00","2006","09","27","22:00","17.4","","10.2","","63","","18","","15","","25.0","","99.27","","","","","","Mostly Cloudy"
"2006-09-27 23:00","2006","09","27","23:00","17.4","","10.0","","62","","18","","20","","25.0","","99.26","","","","","","Cloudy"
"2006-09-28 00:00","2006","09","28","00:00","17.1","","9.9","","63","","19","","24","","25.0","","99.25","","","","","","Cloudy"
"2006-09-28 01:00","2006","09","28","01:00","16.9","","10.1","","64","","19","","19","","25.0","","99.23","","","","","","Cloudy"
"2006-09-28 02:00","2006","09","28","02:00","16.3","","10.2","","67","","19","","15","","25.0","","99.21","","","","","","Cloudy"
"2006-09-28 03:00","2006","09","28","03:00","15.7","","10.4","","71","","19","","15","","25.0","","99.21","","","","","","Cloudy"
"2006-09-28 04:00","2006","09","28","04:00","15.4","","10.5","","73","","18","","17","","25.0","","99.19","","","","","","Mostly Cloudy"
"2006-09-28 05:00","2006","09","28","05:00","15.2","","10.5","","74","","18","","19","","25.0","","99.20","","","","","","Cloudy"
"2006-09-28 06:00","2006","09","28","06:00","15.1","","10.5","","74","","19","","15","","16.1","","99.24","","","","","","Cloudy"
"2006-09-28 07:00","2006","09","28","07:00","15.2","","10.8","","75","","19","","11","","16.1","","99.26","","","","","","Cloudy"
"2006-09-28 08:00","2006","09","28","08:00","15.2","","10.9","","75","","18","","13","","16.1","","99.24","","","","","","Cloudy"
"2006-09-28 09:00","2006","09","28","09:00","15.3","","11.1","","76","","18","","11","","16.1","","99.24","","","","","","Cloudy"
"2006-09-28 10:00","2006","09","28","10:00","15.2","","11.4","","78","","19","","11","","16.1","","99.23","","","","","","Rain"
"2006-09-28 11:00","2006","09","28","11:00","13.6","","12.1","","91","","27","","17","","9.7","","99.28","","","","","","Rain,Fog"
"2006-09-28 12:00","2006","09","28","12:00","12.6","","11.7","","94","","26","","7","","12.9","","99.29","","","","","","Rain"
"2006-09-28 13:00","2006","09","28","13:00","12.9","","11.8","","93","","31","","4","","12.9","","99.23","","","","","","Rain"
"2006-09-28 14:00","2006","09","28","14:00","13.2","","12.0","","92","","31","","6","","12.9","","99.21","","","","","","Rain"
"2006-09-28 15:00","2006","09","28","15:00","13.1","","11.9","","92","","30","","11","","12.9","","99.21","","","","","","Rain"
"2006-09-28 16:00","2006","09","28","16:00","11.8","","10.6","","92","","33","","15","","12.9","","99.19","","","","","","Rain"
"2006-09-28 17:00","2006","09","28","17:00","11.2","","9.6","","90","","33","","13","","9.7","","99.25","","","","","","Rain,Fog"
"2006-09-28 18:00","2006","09","28","18:00","11.0","","10.1","","94","","32","","7","","9.7","","99.27","","","","","","Rain,Fog"
"2006-09-28 19:00","2006","09","28","19:00","10.9","","10.2","","95","","","","0","","12.9","","99.27","","","","","","Rain"
"2006-09-28 20:00","2006","09","28","20:00","11.0","","10.4","","96","","","","0","","12.9","","99.31","","","","","","Rain"
"2006-09-28 21:00","2006","09","28","21:00","10.8","","10.0","","95","","32","","11","","9.7","","99.31","","","","","","Rain,Fog"
"2006-09-28 22:00","2006","09","28","22:00","9.9","","8.9","","93","","32","","17","","12.9","","99.26","","","","","","Rain"
"2006-09-28 23:00","2006","09","28","23:00","9.5","","8.2","","92","","33","","13","","16.1","","99.27","","","","","","Rain"
"2006-09-29 00:00","2006","09","29","00:00","9.2","","7.8","","91","","31","","13","","12.9","","99.26","","","","","","Rain"
"2006-09-29 01:00","2006","09","29","01:00","8.9","","7.9","","93","","33","","15","","25.0","","99.19","","","","","","Rain"
"2006-09-29 02:00","2006","09","29","02:00","8.4","","7.2","","92","","31","","15","","16.1","","99.22","","","","","","Rain"
"2006-09-29 03:00","2006","09","29","03:00","7.9","","6.9","","93","","28","","15","","25.0","","99.26","","","","","","Rain"
"2006-09-29 04:00","2006","09","29","04:00","7.7","","6.5","","92","","34","","11","","25.0","","99.22","","","","","","Cloudy"
"2006-09-29 05:00","2006","09","29","05:00","7.1","","5.8","","91","","29","","17","","25.0","","99.28","","","","","","Cloudy"
"2006-09-29 06:00","2006","09","29","06:00","7.3","","5.8","","90","","30","","15","","24.1","","99.30","","","","","","Cloudy"
"2006-09-29 07:00","2006","09","29","07:00","7.3","","5.9","","91","","27","","13","","24.1","","99.36","","","","","","Cloudy"
"2006-09-29 08:00","2006","09","29","08:00","7.6","","6.1","","90","","27","","13","","24.1","","99.40","","","","","","Cloudy"
"2006-09-29 09:00","2006","09","29","09:00","8.3","","6.0","","85","","30","","15","","19.3","","99.39","","","","","","Cloudy"
"2006-09-29 10:00","2006","09","29","10:00","8.1","","5.8","","85","","28","","19","","19.3","","99.39","","","","","","Cloudy"
"2006-09-29 11:00","2006","09","29","11:00","9.9","","5.9","","76","","28","","17","","24.1","","99.41","","","","","","Mostly Cloudy"
"2006-09-29 12:00","2006","09","29","12:00","9.0","","5.9","","81","","30","","17","","24.1","","99.42","","","","","","Mostly Cloudy"
"2006-09-29 13:00","2006","09","29","13:00","9.1","","5.6","","79","","28","","20","","19.3","","99.44","","","","","","Cloudy"
"2006-09-29 14:00","2006","09","29","14:00","7.6","","5.3","","85","","28","","22","","16.1","","99.52","","","","","","Rain"
"2006-09-29 15:00","2006","09","29","15:00","9.2","","3.8","","69","","27","","19","","24.1","","99.55","","","","","","Cloudy"
"2006-09-29 16:00","2006","09","29","16:00","9.0","","3.4","","68","","28","","22","","24.1","","99.59","","","","","","Mostly Cloudy"
"2006-09-29 17:00","2006","09","29","17:00","9.0","","2.9","","66","","27","","15","","32.2","","99.67","","","","","","Mostly Cloudy"
"2006-09-29 18:00","2006","09","29","18:00","8.1","","3.9","","75","","26","","7","","32.2","","99.71","","","","","","Mainly Clear"
"2006-09-29 19:00","2006","09","29","19:00","7.9","","3.7","","75","","27","","9","","25.0","","99.78","","","","","","Mostly Cloudy"
"2006-09-29 20:00","2006","09","29","20:00","7.6","","3.3","","74","","27","","11","","25.0","","99.87","","","","","","Mostly Cloudy"
"2006-09-29 21:00","2006","09","29","21:00","7.1","","3.7","","79","","27","","9","","25.0","","99.94","","","","","","Mostly Cloudy"
"2006-09-29 22:00","2006","09","29","22:00","5.6","","2.7","","82","","26","","9","","25.0","","100.00","","","","","","Mainly Clear"
"2006-09-29 23:00","2006","09","29","23:00","5.2","","2.7","","84","","24","","9","","25.0","","100.07","","","","","","Clear"
"2006-09-30 00:00","2006","09","30","00:00","4.8","","2.6","","86","","22","","4","","25.0","","100.10","","","","","","Mainly Clear"
"2006-09-30 01:00","2006","09","30","01:00","4.2","","2.3","","87","","","","0","","25.0","","100.16","","","","","","Clear"
"2006-09-30 02:00","2006","09","30","02:00","3.8","","2.1","","89","","22","","4","","25.0","","100.18","","","","","","Mainly Clear"
"2006-09-30 03:00","2006","09","30","03:00","3.2","","1.9","","91","","22","","4","","25.0","","100.22","","","","","","Mainly Clear"
"2006-09-30 04:00","2006","09","30","04:00","1.9","","0.8","","92","","18","","4","","25.0","","100.26","","","","","","Clear"
"2006-09-30 05:00","2006","09","30","05:00","1.6","","0.5","","92","","","","0","","25.0","","100.29","","","","","","Clear"
"2006-09-30 06:00","2006","09","30","06:00","2.4","","1.4","","93","","22","","4","","24.1","","100.36","","","","","","Mainly Clear"
"2006-09-30 07:00","2006","09","30","07:00","1.7","","0.8","","94","","16","","6","","32.2","","100.44","","","","","","Mainly Clear"
"2006-09-30 08:00","2006","09","30","08:00","4.8","","3.2","","89","","17","","6","","32.2","","100.53","","","","","","Mainly Clear"
"2006-09-30 09:00","2006","09","30","09:00","7.9","","4.7","","80","","17","","9","","24.1","","100.56","","","","","","Mostly Cloudy"
"2006-09-30 10:00","2006","09","30","10:00","11.1","","4.3","","63","","17","","7","","24.1","","100.55","","","","","","Mainly Clear"
"2006-09-30 11:00","2006","09","30","11:00","12.8","","5.7","","62","","15","","9","","24.1","","100.49","","","","","","Mainly Clear"
"2006-09-30 12:00","2006","09","30","12:00","13.8","","6.7","","62","","16","","15","","24.1","","100.46","","","","","","Mostly Cloudy"
"2006-09-30 13:00","2006","09","30","13:00","15.0","","5.6","","53","","15","","22","","24.1","","100.40","","","","","","Mostly Cloudy"
"2006-09-30 14:00","2006","09","30","14:00","15.6","","4.5","","48","","18","","7","","24.1","","100.34","","","","","","Mostly Cloudy"
"2006-09-30 15:00","2006","09","30","15:00","15.7","","3.8","","45","","18","","15","","24.1","","100.33","","","","","","Mostly Cloudy"
"2006-09-30 16:00","2006","09","30","16:00","14.6","","3.9","","49","","16","","15","","24.1","","100.32","","","","","","Mostly Cloudy"
"2006-09-30 17:00","2006","09","30","17:00","14.0","","3.8","","50","","16","","13","","24.1","","100.31","","","","","","Mostly Cloudy"
"2006-09-30 18:00","2006","09","30","18:00","13.2","","2.7","","49","","16","","13","","24.1","","100.33","","","","","","Cloudy"
"2006-09-30 19:00","2006","09","30","19:00","12.5","","3.9","","56","","17","","11","","24.1","","100.36","","","","","","Cloudy"
"2006-09-30 20:00","2006","09","30","20:00","11.5","","4.6","","63","","16","","11","","24.1","","100.37","","","","","","Cloudy"
"2006-09-30 21:00","2006","09","30","21:00","11.4","","4.9","","64","","15","","13","","24.1","","100.35","","","","","","Cloudy"
"2006-09-30 22:00","2006","09","30","22:00","10.6","","5.9","","73","","13","","13","","24.1","","100.31","","","","","","Rain"
"2006-09-30 23:00","2006","09","30","23:00","10.9","","5.8","","71","","13","","11","","24.1","","100.24","","","","","","Cloudy"
