"Station Name","OTTAWA MACDONALD-CARTIER INT'L A"
"Province","ONTARIO"
"Latitude","45.32"
"Longitude","-75.67"
"Elevation","114.00"
"Climate Identifier","6106000"
"WMO Identifier","71628"
"TC Identifier","YOW"
"All times are specified in Local Standard Time (LST). Add 1 hour to adjust for Daylight Saving Time where and when it is observed."

"Legend"
"E","Estimated"
"M","Missing"
"NA","Not Available"

"Date/Time","Year","Month","Day","Time","Temp (°C)","Temp Flag","Dew Point Temp (°C)","Dew Point Temp Flag","Rel Hum (%)","Rel Hum Flag","Wind Dir (10s deg)","Wind Dir Flag","Wind Spd (km/h)","Wind Spd Flag","Visibility (km)","Visibility Flag","Stn Press (kPa)","Stn Press Flag","Hmdx","Hmdx Flag","Wind Chill","Wind Chill Flag","Weather"
"1997-03-01 00:00","1997","03","01","00:00","-5.2","","-7.2","","86","","","","0","","24.1","","101.43","","","","","","Mostly Cloudy"
"1997-03-01 01:00","1997","03","01","01:00","-6.6","","-8.7","","85","","","","0","","19.3","","101.47","","","","","","Mostly Cloudy"
"1997-03-01 02:00","1997","03","01","02:00","-7.1","","-9.0","","86","","5","","7","","6.4","","101.30","","","","-11","","Fog"
"1997-03-01 03:00","1997","03","01","03:00","-7.6","","-9.5","","86","","6","","9","","4.0","","101.20","","","","-12","","Fog"
"1997-03-01 04:00","1997","03","01","04:00","-7.1","","-8.8","","88","","8","","6","","6.4","","101.20","","","","-10","","Fog"
"1997-03-01 05:00","1997","03","01","05:00","-7.5","","-9.0","","89","","6","","11","","8.0","","101.16","","","","-13","","Fog"
"1997-03-01 06:00","1997","03","01","06:00","-7.4","","-9.4","","86","","5","","13","","8.0","","101.06","","","","-13","","Fog"
"1997-03-01 07:00","1997","03","01","07:00","-6.9","","-8.7","","87","","6","","15","","6.4","","100.93","","","","-13","","Fog"
"1997-03-01 08:00","1997","03","01","08:00","-5.9","","-7.4","","89","","7","","15","","8.0","","100.80","","","","-12","","Fog"
"1997-03-01 09:00","1997","03","01","09:00","-5.0","","-6.5","","89","","6","","13","","12.9","","100.73","","","","-10","","Cloudy"
"1997-03-01 10:00","1997","03","01","10:00","-3.9","","-5.4","","89","","7","","19","","12.9","","100.46","","","","-10","","Cloudy"
"1997-03-01 11:00","1997","03","01","11:00","-2.5","","-4.4","","87","","8","","19","","12.9","","100.26","","","","-8","","Cloudy"
"1997-03-01 12:00","1997","03","01","12:00","-1.6","","-3.9","","84","","8","","15","","12.9","","100.03","","","","-6","","Cloudy"
"1997-03-01 13:00","1997","03","01","13:00","-1.2","","-3.2","","86","","7","","13","","2.8","","99.86","","","","-5","","Freezing Rain,Fog"
"1997-03-01 14:00","1997","03","01","14:00","-0.7","","-1.7","","93","","8","","11","","2.4","","99.76","","","","-4","","Moderate Freezing Rain,Fog"
"1997-03-01 15:00","1997","03","01","15:00","-0.2","","-0.9","","95","","7","","9","","1.6","","99.69","","","","-3","","Freezing Rain,Fog"
"1997-03-01 16:00","1997","03","01","16:00","0.1","","-0.3","","97","","7","","6","","0.8","","99.52","","","","","","Rain,Fog"
"1997-03-01 17:00","1997","03","01","17:00","0.2","","-0.3","","96","","9","","7","","1.0","","99.42","","","","","","Rain,Fog"
"1997-03-01 18:00","1997","03","01","18:00","0.4","","0.1","","98","","11","","6","","0.8","","99.39","","","","","","Rain,Fog"
"1997-03-01 19:00","1997","03","01","19:00","1.2","","1.2","","100","","14","","4","","1.2","","99.39","","","","","","Drizzle,Fog"
"1997-03-01 20:00","1997","03","01","20:00","2.4","","2.3","","99","","17","","4","","4.0","","99.29","","","","","","Drizzle,Fog"
"1997-03-01 21:00","1997","03","01","21:00","3.6","","3.6","","100","","17","","6","","8.0","","99.19","","","","","","Fog"
"1997-03-01 22:00","1997","03","01","22:00","4.6","","4.6","","100","","20","","4","","12.9","","99.12","","","","","","Cloudy"
"1997-03-01 23:00","1997","03","01","23:00","5.0","","5.0","","100","","20","","9","","12.9","","98.99","","","","","","Cloudy"
"1997-03-02 00:00","1997","03","02","00:00","4.9","","4.9","","100","","20","","13","","16.1","","98.89","","","","","","Cloudy"
"1997-03-02 01:00","1997","03","02","01:00","5.2","","5.2","","100","","20","","15","","16.1","","98.79","","","","","","Cloudy"
"1997-03-02 02:00","1997","03","02","02:00","5.3","","5.3","","100","","20","","17","","12.9","","98.75","","","","","","Cloudy"
"1997-03-02 03:00","1997","03","02","03:00","5.0","","5.0","","100","","19","","11","","12.9","","98.52","","","","","","Rain"
"1997-03-02 04:00","1997","03","02","04:00","5.3","","5.3","","100","","19","","9","","9.7","","98.35","","","","","","Rain,Fog"
"1997-03-02 05:00","1997","03","02","05:00","4.3","","4.3","","100","","20","","7","","0.4","","98.28","","","","","","Fog"
"1997-03-02 06:00","1997","03","02","06:00","4.7","","4.7","","100","","22","","9","","0.0","","98.28","","","","","","Fog"
"1997-03-02 07:00","1997","03","02","07:00","4.7","","4.7","","100","","23","","13","","1.0","","98.25","","","","","","Fog"
"1997-03-02 08:00","1997","03","02","08:00","5.0","","5.0","","100","","24","","19","","12.9","","98.25","","","","","","Mostly Cloudy"
"1997-03-02 09:00","1997","03","02","09:00","4.7","","4.7","","100","","24","","17","","12.9","","98.28","","","","","","Mostly Cloudy"
"1997-03-02 10:00","1997","03","02","10:00","6.1","","5.9","","99","","27","","24","","32.2","","98.35","","","","","","Mostly Cloudy"
"1997-03-02 11:00","1997","03","02","11:00","6.2","","1.9","","74","","26","","28","","40.2","","98.42","","","","","","Mostly Cloudy"
"1997-03-02 12:00","1997","03","02","12:00","6.1","","-0.5","","63","","25","","30","","40.2","","98.62","","","","","","Cloudy"
"1997-03-02 13:00","1997","03","02","13:00","5.4","","-1.3","","62","","25","","24","","40.2","","98.65","","","","","","Mostly Cloudy"
"1997-03-02 14:00","1997","03","02","14:00","4.8","","-1.9","","62","","26","","28","","32.2","","98.82","","","","","","Cloudy"
"1997-03-02 15:00","1997","03","02","15:00","4.2","","-2.1","","64","","26","","26","","32.2","","98.99","","","","","","Rain Showers"
"1997-03-02 16:00","1997","03","02","16:00","2.4","","-1.4","","76","","26","","19","","32.2","","99.15","","","","","","Ice Pellets"
"1997-03-02 17:00","1997","03","02","17:00","2.2","","-3.7","","65","","29","","30","","32.2","","99.32","","","","","","Mostly Cloudy"
"1997-03-02 18:00","1997","03","02","18:00","0.8","","-6.2","","59","","31","","30","","32.2","","99.66","","","","","","Mainly Clear"
"1997-03-02 19:00","1997","03","02","19:00","-0.6","","-7.2","","61","","31","","17","","24.1","","99.86","","","","-6","","Mostly Cloudy"
"1997-03-02 20:00","1997","03","02","20:00","-1.5","","-8.0","","61","","31","","24","","25.0","","100.06","","","","-8","","Mainly Clear"
"1997-03-02 21:00","1997","03","02","21:00","-2.3","","-9.3","","59","","31","","24","","25.0","","100.29","","","","-9","","Clear"
"1997-03-02 22:00","1997","03","02","22:00","-3.7","","-10.4","","60","","31","","20","","25.0","","100.43","","","","-10","","Clear"
"1997-03-02 23:00","1997","03","02","23:00","-4.7","","-11.7","","58","","33","","19","","25.0","","100.53","","","","-11","","Clear"
"1997-03-03 00:00","1997","03","03","00:00","-5.5","","-11.7","","62","","32","","19","","25.0","","100.63","","","","-12","","Clear"
"1997-03-03 01:00","1997","03","03","01:00","-6.3","","-13.0","","59","","33","","15","","25.0","","100.73","","","","-12","","Clear"
"1997-03-03 02:00","1997","03","03","02:00","-7.2","","-15.8","","50","","32","","17","","25.0","","100.83","","","","-14","","Clear"
"1997-03-03 03:00","1997","03","03","03:00","-8.0","","-15.9","","53","","31","","19","","25.0","","100.93","","","","-15","","Clear"
"1997-03-03 04:00","1997","03","03","04:00","-8.8","","-17.4","","50","","33","","15","","25.0","","100.90","","","","-15","","Clear"
"1997-03-03 05:00","1997","03","03","05:00","-9.2","","-17.3","","52","","35","","11","","25.0","","101.00","","","","-15","","Clear"
"1997-03-03 06:00","1997","03","03","06:00","-10.0","","-17.2","","56","","1","","7","","25.0","","101.06","","","","-14","","Clear"
"1997-03-03 07:00","1997","03","03","07:00","-10.4","","-17.0","","58","","4","","6","","40.2","","101.13","","","","-14","","Mainly Clear"
"1997-03-03 08:00","1997","03","03","08:00","-9.8","","-16.9","","56","","1","","9","","40.2","","101.23","","","","-15","","Mostly Cloudy"
"1997-03-03 09:00","1997","03","03","09:00","-9.2","","-17.5","","51","","","","0","","40.2","","101.33","","","","","","Mostly Cloudy"
"1997-03-03 10:00","1997","03","03","10:00","-8.4","","-18.8","","43","","3","","6","","40.2","","101.33","","","","-12","","Mostly Cloudy"
"1997-03-03 11:00","1997","03","03","11:00","-7.7","","-18.3","","42","","2","","11","","40.2","","101.27","","","","-13","","Mostly Cloudy"
"1997-03-03 12:00","1997","03","03","12:00","-7.2","","-18.6","","40","","36","","9","","40.2","","101.27","","","","-12","","Cloudy"
"1997-03-03 13:00","1997","03","03","13:00","-6.2","","-18.4","","37","","1","","7","","40.2","","101.16","","","","-10","","Cloudy"
"1997-03-03 14:00","1997","03","03","14:00","-5.5","","-18.0","","37","","5","","9","","40.2","","101.10","","","","-10","","Cloudy"
"1997-03-03 15:00","1997","03","03","15:00","-5.3","","-17.2","","39","","7","","6","","40.2","","101.10","","","","-8","","Mostly Cloudy"
"1997-03-03 16:00","1997","03","03","16:00","-5.0","","-16.2","","41","","5","","9","","40.2","","101.03","","","","-9","","Mostly Cloudy"
"1997-03-03 17:00","1997","03","03","17:00","-5.2","","-15.4","","45","","4","","11","","40.2","","101.03","","","","-10","","Mostly Cloudy"
"1997-03-03 18:00","1997","03","03","18:00","-5.5","","-17.3","","39","","5","","11","","40.2","","101.03","","","","-10","","Mostly Cloudy"
"1997-03-03 19:00","1997","03","03","19:00","-6.2","","-16.8","","43","","6","","9","","25.0","","101.06","","","","-10","","Mostly Cloudy"
"1997-03-03 20:00","1997","03","03","20:00","-7.0","","-15.7","","50","","5","","9","","25.0","","101.10","","","","-11","","Mainly Clear"
"1997-03-03 21:00","1997","03","03","21:00","-6.7","","-15.1","","51","","9","","7","","25.0","","101.16","","","","-10","","Mainly Clear"
"1997-03-03 22:00","1997","03","03","22:00","-7.2","","-15.1","","53","","6","","11","","25.0","","101.13","","","","-12","","Mainly Clear"
"1997-03-03 23:00","1997","03","03","23:00","-7.5","","-15.1","","54","","5","","15","","25.0","","101.00","","","","-14","","Mainly Clear"
"1997-03-04 00:00","1997","03","04","00:00","-8.0","","-15.0","","57","","5","","17","","25.0","","100.93","","","","-15","","Mainly Clear"
"1997-03-04 01:00","1997","03","04","01:00","-7.9","","-14.7","","58","","6","","15","","25.0","","100.86","","","","-14","","Mainly Clear"
"1997-03-04 02:00","1997","03","04","02:00","-7.9","","-14.9","","57","","6","","11","","25.0","","100.83","","","","-13","","Mainly Clear"
"1997-03-04 03:00","1997","03","04","03:00","-8.1","","-14.9","","58","","6","","17","","25.0","","100.70","","","","-15","","Mostly Cloudy"
"1997-03-04 04:00","1997","03","04","04:00","-7.9","","-15.2","","56","","5","","15","","25.0","","100.66","","","","-14","","Mostly Cloudy"
"1997-03-04 05:00","1997","03","04","05:00","-7.7","","-15.4","","54","","6","","17","","25.0","","100.66","","","","-14","","Mostly Cloudy"
"1997-03-04 06:00","1997","03","04","06:00","-7.8","","-15.5","","54","","7","","15","","25.0","","100.66","","","","-14","","Cloudy"
"1997-03-04 07:00","1997","03","04","07:00","-7.6","","-15.3","","54","","8","","9","","40.2","","100.66","","","","-12","","Cloudy"
"1997-03-04 08:00","1997","03","04","08:00","-7.2","","-15.0","","54","","29","","15","","32.2","","100.63","","","","-13","","Cloudy"
"1997-03-04 09:00","1997","03","04","09:00","-6.9","","-14.2","","56","","8","","13","","32.2","","100.63","","","","-12","","Cloudy"
"1997-03-04 10:00","1997","03","04","10:00","-6.9","","-12.8","","63","","7","","15","","2.0","","100.56","","","","-13","","Snow"
"1997-03-04 11:00","1997","03","04","11:00","-7.1","","-10.8","","75","","6","","9","","0.8","","100.53","","","","-11","","Moderate Snow"
"1997-03-04 12:00","1997","03","04","12:00","-6.9","","-9.3","","83","","6","","17","","1.2","","100.36","","","","-13","","Snow"
"1997-03-04 13:00","1997","03","04","13:00","-7.0","","-9.0","","86","","6","","15","","2.0","","100.29","","","","-13","","Snow"
"1997-03-04 14:00","1997","03","04","14:00","-6.9","","-9.0","","85","","6","","13","","2.0","","100.26","","","","-12","","Snow"
"1997-03-04 15:00","1997","03","04","15:00","-6.6","","-8.5","","86","","7","","9","","2.0","","100.16","","","","-11","","Snow"
"1997-03-04 16:00","1997","03","04","16:00","-6.3","","-8.4","","85","","5","","7","","2.0","","100.19","","","","-10","","Snow"
"1997-03-04 17:00","1997","03","04","17:00","-6.2","","-8.2","","86","","4","","4","","4.8","","100.23","","","","-8","","Snow"
"1997-03-04 18:00","1997","03","04","18:00","-6.1","","-8.4","","84","","32","","4","","9.7","","100.29","","","","-8","","Snow"
"1997-03-04 19:00","1997","03","04","19:00","-5.7","","-7.8","","85","","","","0","","12.9","","100.36","","","","","","Snow"
"1997-03-04 20:00","1997","03","04","20:00","-5.9","","-8.1","","84","","26","","7","","16.1","","100.46","","","","-9","","Cloudy"
"1997-03-04 21:00","1997","03","04","21:00","-6.0","","-8.0","","86","","25","","7","","19.3","","100.53","","","","-9","","Cloudy"
"1997-03-04 22:00","1997","03","04","22:00","-6.3","","-8.0","","88","","23","","6","","19.3","","100.53","","","","-9","","Cloudy"
"1997-03-04 23:00","1997","03","04","23:00","-7.5","","-9.6","","85","","24","","4","","24.1","","100.56","","","","-10","","Mainly Clear"
"1997-03-05 00:00","1997","03","05","00:00","-7.1","","-9.1","","86","","19","","6","","24.1","","100.60","","","","-10","","Mostly Cloudy"
"1997-03-05 01:00","1997","03","05","01:00","-6.5","","-8.4","","86","","","","0","","24.1","","100.66","","","","","","Mostly Cloudy"
"1997-03-05 02:00","1997","03","05","02:00","-5.9","","-7.8","","86","","","","0","","24.1","","100.66","","","","","","Mostly Cloudy"
"1997-03-05 03:00","1997","03","05","03:00","-5.8","","-7.8","","86","","","","0","","19.3","","100.63","","","","","","Mostly Cloudy"
"1997-03-05 04:00","1997","03","05","04:00","-6.0","","-7.9","","86","","","","0","","16.1","","100.66","","","","","","Mostly Cloudy"
"1997-03-05 05:00","1997","03","05","05:00","-6.0","","-8.1","","85","","","","0","","16.1","","100.70","","","","","","Mostly Cloudy"
"1997-03-05 06:00","1997","03","05","06:00","-6.1","","-8.1","","86","","","","0","","16.1","","100.70","","","","","","Mostly Cloudy"
"1997-03-05 07:00","1997","03","05","07:00","-6.1","","-8.0","","86","","","","0","","12.9","","100.73","","","","","","Cloudy"
"1997-03-05 08:00","1997","03","05","08:00","-5.4","","-7.4","","86","","1","","4","","9.7","","100.73","","","","-7","","Haze"
"1997-03-05 09:00","1997","03","05","09:00","-3.6","","-6.1","","83","","","","0","","12.9","","100.76","","","","","","Mostly Cloudy"
"1997-03-05 10:00","1997","03","05","10:00","-3.1","","-6.9","","75","","","","0","","16.1","","100.73","","","","","","Mostly Cloudy"
"1997-03-05 11:00","1997","03","05","11:00","-2.1","","-6.0","","75","","36","","6","","24.1","","100.70","","","","-4","","Mostly Cloudy"
"1997-03-05 12:00","1997","03","05","12:00","-1.8","","-6.7","","69","","35","","7","","24.1","","100.63","","","","-4","","Mostly Cloudy"
"1997-03-05 13:00","1997","03","05","13:00","-1.7","","-6.7","","69","","35","","9","","32.2","","100.60","","","","-5","","Mostly Cloudy"
"1997-03-05 14:00","1997","03","05","14:00","-1.6","","-6.4","","70","","3","","9","","32.2","","100.53","","","","-5","","Mostly Cloudy"
"1997-03-05 15:00","1997","03","05","15:00","-1.7","","-6.4","","70","","5","","9","","32.2","","100.49","","","","-5","","Mostly Cloudy"
"1997-03-05 16:00","1997","03","05","16:00","-1.8","","-7.0","","68","","2","","7","","32.2","","100.43","","","","-4","","Mostly Cloudy"
"1997-03-05 17:00","1997","03","05","17:00","-1.9","","-7.2","","67","","7","","7","","32.2","","100.39","","","","-5","","Mostly Cloudy"
"1997-03-05 18:00","1997","03","05","18:00","-2.6","","-7.6","","68","","7","","6","","32.2","","100.33","","","","-5","","Mostly Cloudy"
"1997-03-05 19:00","1997","03","05","19:00","-3.1","","-7.7","","70","","7","","6","","24.1","","100.23","","","","-6","","Mostly Cloudy"
"1997-03-05 20:00","1997","03","05","20:00","-3.5","","-7.6","","73","","6","","4","","24.1","","100.19","","","","-5","","Cloudy"
"1997-03-05 21:00","1997","03","05","21:00","-3.7","","-7.7","","74","","5","","15","","24.1","","99.99","","","","-9","","Cloudy"
"1997-03-05 22:00","1997","03","05","22:00","-3.9","","-7.6","","75","","5","","13","","24.1","","99.89","","","","-9","","Cloudy"
"1997-03-05 23:00","1997","03","05","23:00","-3.7","","-7.1","","77","","5","","20","","24.1","","99.69","","","","-10","","Cloudy"
"1997-03-06 00:00","1997","03","06","00:00","-4.2","","-7.3","","79","","6","","30","","3.2","","99.46","","","","-12","","Snow"
"1997-03-06 01:00","1997","03","06","01:00","-4.4","","-6.6","","85","","5","","26","","3.2","","99.26","","","","-12","","Snow"
"1997-03-06 02:00","1997","03","06","02:00"
"1997-03-06 03:00","1997","03","06","03:00","-4.7","","-6.4","","88","","3","","22","","1.2","","98.75","","","","-12","","Snow"
"1997-03-06 04:00","1997","03","06","04:00","-4.7","","-6.3","","89","","1","","17","","1.2","","98.65","","","","-11","","Snow"
"1997-03-06 05:00","1997","03","06","05:00","-4.6","","-5.9","","91","","35","","15","","0.8","","98.59","","","","-10","","Moderate Snow"
"1997-03-06 06:00","1997","03","06","06:00","-4.6","","-6.2","","89","","34","","24","","0.8","","98.55","","","","-12","","Moderate Snow"
"1997-03-06 07:00","1997","03","06","07:00","-4.8","","-6.4","","89","","33","","28","","0.6","","98.49","","","","-12","","Moderate Snow"
"1997-03-06 08:00","1997","03","06","08:00","-4.8","","-6.5","","88","","32","","26","","3.2","","98.55","","","","-12","","Snow"
"1997-03-06 09:00","1997","03","06","09:00","-4.0","","-6.6","","82","","31","","24","","6.4","","98.65","","","","-11","","Snow"
"1997-03-06 10:00","1997","03","06","10:00","-4.1","","-6.6","","83","","31","","24","","4.8","","98.69","","","","-11","","Snow"
"1997-03-06 11:00","1997","03","06","11:00","-3.1","","-7.2","","73","","31","","32","","24.1","","98.72","","","","-11","","Snow"
"1997-03-06 12:00","1997","03","06","12:00","-2.0","","-8.2","","62","","31","","35","","32.2","","98.79","","","","-10","","Cloudy"
"1997-03-06 13:00","1997","03","06","13:00","-0.9","","-8.2","","58","","31","","33","","32.2","","98.79","","","","-8","","Cloudy"
"1997-03-06 14:00","1997","03","06","14:00","0.1","","-7.9","","55","","30","","30","","40.2","","98.82","","","","","","Mostly Cloudy"
"1997-03-06 15:00","1997","03","06","15:00","0.0","","-8.2","","54","","27","","30","","40.2","","98.92","","","","-6","","Cloudy"
"1997-03-06 16:00","1997","03","06","16:00","0.4","","-8.5","","51","","29","","30","","40.2","","99.05","","","","","","Mostly Cloudy"
"1997-03-06 17:00","1997","03","06","17:00","0.2","","-8.6","","52","","28","","28","","40.2","","99.09","","","","","","Mostly Cloudy"
"1997-03-06 18:00","1997","03","06","18:00","-1.2","","-8.9","","56","","29","","20","","32.2","","99.19","","","","-7","","Mainly Clear"
"1997-03-06 19:00","1997","03","06","19:00","-2.0","","-9.4","","57","","28","","13","","24.1","","99.29","","","","-6","","Clear"
"1997-03-06 20:00","1997","03","06","20:00","-3.6","","-10.1","","61","","27","","6","","24.1","","99.39","","","","-6","","Clear"
"1997-03-06 21:00","1997","03","06","21:00","-3.6","","-10.3","","60","","27","","7","","24.1","","99.46","","","","-7","","Mainly Clear"
"1997-03-06 22:00","1997","03","06","22:00","-5.6","","-11.0","","66","","26","","6","","24.1","","99.52","","","","-8","","Mostly Cloudy"
"1997-03-06 23:00","1997","03","06","23:00","-5.1","","-10.0","","68","","26","","7","","24.1","","99.56","","","","-8","","Mostly Cloudy"
"1997-03-07 00:00","1997","03","07","00:00","-3.8","","-8.9","","68","","27","","11","","24.1","","99.59","","","","-8","","Cloudy"
"1997-03-07 01:00","1997","03","07","01:00","-4.1","","-9.6","","65","","32","","19","","6.4","","99.72","","","","-10","","Snow Showers"
"1997-03-07 02:00","1997","03","07","02:00","-4.7","","-10.6","","63","","33","","13","","24.1","","99.82","","","","-10","","Mostly Cloudy"
"1997-03-07 03:00","1997","03","07","03:00","-5.5","","-11.4","","63","","32","","11","","24.1","","99.93","","","","-10","","Mainly Clear"
"1997-03-07 04:00","1997","03","07","04:00","-6.8","","-13.5","","59","","32","","15","","24.1","","100.06","","","","-13","","Mainly Clear"
"1997-03-07 05:00","1997","03","07","05:00","-7.7","","-14.1","","60","","30","","17","","24.1","","100.26","","","","-14","","Mainly Clear"
"1997-03-07 06:00","1997","03","07","06:00","-8.3","","-12.3","","73","","29","","19","","3.2","","100.43","","","","-16","","Snow Showers"
"1997-03-07 07:00","1997","03","07","07:00","-10.1","","-15.8","","63","","28","","22","","32.2","","100.56","","","","-18","","Mainly Clear"
"1997-03-07 08:00","1997","03","07","08:00","-10.8","","-18.2","","54","","28","","26","","32.2","","100.73","","","","-20","","Mainly Clear"
"1997-03-07 09:00","1997","03","07","09:00","-10.3","","-17.4","","56","","27","","22","","32.2","","100.86","","","","-19","","Snow"
"1997-03-07 10:00","1997","03","07","10:00","-9.3","","-16.5","","56","","29","","24","","32.2","","100.93","","","","-18","","Snow"
"1997-03-07 11:00","1997","03","07","11:00","-8.6","","-15.6","","57","","28","","26","","32.2","","100.96","","","","-17","","Snow"
"1997-03-07 12:00","1997","03","07","12:00","-8.1","","-15.7","","54","","27","","28","","32.2","","101.00","","","","-17","","Mostly Cloudy"
"1997-03-07 13:00","1997","03","07","13:00","-7.2","","-15.8","","50","","27","","24","","40.2","","100.93","","","","-15","","Mainly Clear"
"1997-03-07 14:00","1997","03","07","14:00","-6.2","","-15.0","","50","","27","","24","","40.2","","100.90","","","","-14","","Mainly Clear"
"1997-03-07 15:00","1997","03","07","15:00","-5.1","","-15.0","","46","","28","","20","","40.2","","100.86","","","","-12","","Mainly Clear"
"1997-03-07 16:00","1997","03","07","16:00","-4.5","","-15.2","","43","","28","","19","","32.2","","100.83","","","","-11","","Mainly Clear"
"1997-03-07 17:00","1997","03","07","17:00","-4.4","","-15.2","","43","","27","","17","","32.2","","100.80","","","","-10","","Mainly Clear"
"1997-03-07 18:00","1997","03","07","18:00","-5.0","","-15.8","","42","","26","","9","","32.2","","100.83","","","","-9","","Mainly Clear"
"1997-03-07 19:00","1997","03","07","19:00","-7.0","","-16.1","","48","","22","","4","","24.1","","100.90","","","","-9","","Mainly Clear"
"1997-03-07 20:00","1997","03","07","20:00","-7.9","","-17.0","","48","","23","","4","","24.1","","100.90","","","","-10","","Mainly Clear"
"1997-03-07 21:00","1997","03","07","21:00","-8.7","","-16.9","","51","","22","","6","","24.1","","100.90","","","","-12","","Clear"
"1997-03-07 22:00","1997","03","07","22:00","-9.4","","-17.5","","52","","26","","6","","24.1","","100.93","","","","-13","","Clear"
"1997-03-07 23:00","1997","03","07","23:00","-9.0","","-16.4","","55","","26","","4","","24.1","","100.93","","","","-11","","Mainly Clear"
"1997-03-08 00:00","1997","03","08","00:00","-9.6","","-16.2","","59","","21","","4","","24.1","","100.93","","","","-12","","Mainly Clear"
"1997-03-08 01:00","1997","03","08","01:00","-10.4","","-16.0","","63","","","","0","","24.1","","100.93","","","","","","Mostly Cloudy"
"1997-03-08 02:00","1997","03","08","02:00","-10.0","","-15.4","","65","","","","0","","24.1","","100.93","","","","","","Mostly Cloudy"
"1997-03-08 03:00","1997","03","08","03:00","-9.7","","-15.0","","65","","","","0","","24.1","","100.83","","","","","","Cloudy"
"1997-03-08 04:00","1997","03","08","04:00","-9.4","","-14.4","","67","","","","0","","24.1","","100.73","","","","","","Mostly Cloudy"
"1997-03-08 05:00","1997","03","08","05:00","-8.6","","-14.5","","62","","","","0","","24.1","","100.70","","","","","","Cloudy"
"1997-03-08 06:00","1997","03","08","06:00","-8.8","","-13.5","","69","","19","","6","","16.1","","100.70","","","","-12","","Snow"
"1997-03-08 07:00","1997","03","08","07:00","-8.7","","-12.4","","75","","","","0","","6.4","","100.66","","","","","","Snow"
"1997-03-08 08:00","1997","03","08","08:00","-9.1","","-12.1","","79","","5","","4","","4.8","","100.70","","","","-11","","Snow"
"1997-03-08 09:00","1997","03","08","09:00","-8.9","","-11.7","","80","","3","","6","","6.4","","100.73","","","","-12","","Snow"
"1997-03-08 10:00","1997","03","08","10:00","-7.6","","-10.5","","80","","2","","7","","19.3","","100.73","","","","-11","","Snow"
"1997-03-08 11:00","1997","03","08","11:00","-5.8","","-9.6","","74","","35","","9","","24.1","","100.73","","","","-10","","Mainly Clear"
"1997-03-08 12:00","1997","03","08","12:00","-4.8","","-10.0","","67","","2","","7","","32.2","","100.73","","","","-8","","Mainly Clear"
"1997-03-08 13:00","1997","03","08","13:00","-3.5","","-10.1","","60","","33","","9","","32.2","","100.73","","","","-7","","Mostly Cloudy"
"1997-03-08 14:00","1997","03","08","14:00","-3.3","","-10.1","","59","","31","","9","","24.1","","100.76","","","","-7","","Snow Showers"
"1997-03-08 15:00","1997","03","08","15:00","-2.7","","-10.9","","53","","34","","15","","32.2","","100.86","","","","-8","","Mostly Cloudy"
"1997-03-08 16:00","1997","03","08","16:00","-3.0","","-11.4","","52","","32","","19","","40.2","","101.03","","","","-9","","Mostly Cloudy"
"1997-03-08 17:00","1997","03","08","17:00","-3.8","","-14.7","","42","","33","","20","","40.2","","101.16","","","","-10","","Mainly Clear"
"1997-03-08 18:00","1997","03","08","18:00","-4.4","","-15.8","","41","","35","","13","","40.2","","101.33","","","","-9","","Mainly Clear"
"1997-03-08 19:00","1997","03","08","19:00","-5.0","","-17.3","","37","","34","","13","","24.1","","101.50","","","","-10","","Clear"
"1997-03-08 20:00","1997","03","08","20:00","-6.1","","-18.6","","36","","35","","15","","24.1","","101.60","","","","-12","","Clear"
"1997-03-08 21:00","1997","03","08","21:00","-7.5","","-18.4","","41","","36","","15","","24.1","","101.77","","","","-14","","Clear"
"1997-03-08 22:00","1997","03","08","22:00","-8.5","","-19.1","","42","","35","","13","","24.1","","101.87","","","","-14","","Clear"
"1997-03-08 23:00","1997","03","08","23:00","-9.5","","-19.6","","44","","35","","11","","24.1","","101.97","","","","-15","","Clear"
"1997-03-09 00:00","1997","03","09","00:00","-10.7","","-20.0","","46","","35","","9","","24.1","","102.04","","","","-16","","Clear"
"1997-03-09 01:00","1997","03","09","01:00","-11.7","","-20.3","","49","","35","","7","","24.1","","102.10","","","","-16","","Clear"
"1997-03-09 02:00","1997","03","09","02:00","-12.7","","-20.8","","51","","36","","6","","24.1","","102.17","","","","-17","","Clear"
"1997-03-09 03:00","1997","03","09","03:00","-13.8","","-21.7","","51","","33","","6","","24.1","","102.20","","","","-18","","Clear"
"1997-03-09 04:00","1997","03","09","04:00","-14.8","","-21.9","","55","","2","","6","","24.1","","102.20","","","","-19","","Clear"
"1997-03-09 05:00","1997","03","09","05:00","-14.9","","-21.7","","56","","","","0","","24.1","","102.30","","","","","","Clear"
"1997-03-09 06:00","1997","03","09","06:00","-15.2","","-21.6","","58","","5","","7","","40.2","","102.37","","","","-20","","Clear"
"1997-03-09 07:00","1997","03","09","07:00","-15.9","","-22.1","","59","","6","","4","","40.2","","102.40","","","","-19","","Clear"
"1997-03-09 08:00","1997","03","09","08:00","-14.6","","-22.0","","53","","8","","9","","40.2","","102.40","","","","-20","","Clear"
"1997-03-09 09:00","1997","03","09","09:00","-13.7","","-21.9","","50","","9","","19","","40.2","","102.27","","","","-22","","Clear"
"1997-03-09 10:00","1997","03","09","10:00","-12.8","","-21.2","","49","","9","","9","","40.2","","102.20","","","","-18","","Clear"
"1997-03-09 11:00","1997","03","09","11:00","-11.0","","-19.5","","50","","","","0","","40.2","","102.20","","","","","","Clear"
"1997-03-09 12:00","1997","03","09","12:00","-9.3","","-18.5","","47","","10","","6","","40.2","","102.14","","","","-13","","Clear"
"1997-03-09 13:00","1997","03","09","13:00","-8.0","","-18.2","","44","","11","","7","","40.2","","102.00","","","","-12","","Clear"
"1997-03-09 14:00","1997","03","09","14:00","-7.9","","-18.6","","42","","9","","11","","40.2","","101.83","","","","-13","","Mainly Clear"
"1997-03-09 15:00","1997","03","09","15:00","-7.6","","-19.0","","40","","10","","17","","40.2","","101.67","","","","-14","","Mainly Clear"
"1997-03-09 16:00","1997","03","09","16:00","-7.6","","-19.8","","37","","9","","19","","40.2","","101.50","","","","-15","","Mostly Cloudy"
"1997-03-09 17:00","1997","03","09","17:00","-7.9","","-18.9","","41","","9","","19","","40.2","","101.30","","","","-15","","Cloudy"
"1997-03-09 18:00","1997","03","09","18:00","-8.5","","-19.1","","42","","8","","19","","40.2","","101.16","","","","-16","","Cloudy"
"1997-03-09 19:00","1997","03","09","19:00","-8.9","","-18.9","","44","","9","","28","","24.1","","100.90","","","","-18","","Mostly Cloudy"
"1997-03-09 20:00","1997","03","09","20:00","-9.4","","-18.6","","47","","9","","26","","24.1","","100.70","","","","-18","","Cloudy"
"1997-03-09 21:00","1997","03","09","21:00","-9.5","","-17.8","","51","","9","","15","","24.1","","100.49","","","","-16","","Cloudy"
"1997-03-09 22:00","1997","03","09","22:00","-9.3","","-16.7","","55","","8","","19","","24.1","","100.26","","","","-17","","Cloudy"
"1997-03-09 23:00","1997","03","09","23:00","-9.2","","-16.4","","56","","8","","20","","24.1","","99.99","","","","-17","","Cloudy"
"1997-03-10 00:00","1997","03","10","00:00","-9.3","","-16.1","","58","","8","","24","","24.1","","99.79","","","","-18","","Cloudy"
"1997-03-10 01:00","1997","03","10","01:00","-10.0","","-13.4","","76","","8","","20","","2.0","","99.59","","","","-18","","Snow"
"1997-03-10 02:00","1997","03","10","02:00","-10.0","","-12.9","","79","","9","","20","","0.8","","99.29","","","","-18","","Moderate Snow"
"1997-03-10 03:00","1997","03","10","03:00","-9.0","","-11.5","","82","","8","","15","","3.2","","99.09","","","","-16","","Snow"
"1997-03-10 04:00","1997","03","10","04:00","-7.7","","-9.9","","84","","7","","13","","1.0","","98.95","","","","-13","","Snow"
"1997-03-10 05:00","1997","03","10","05:00","-6.9","","-9.0","","85","","7","","4","","1.6","","98.92","","","","-9","","Snow"
"1997-03-10 06:00","1997","03","10","06:00","-5.8","","-7.5","","88","","24","","4","","16.1","","98.99","","","","-8","","Mostly Cloudy"
"1997-03-10 07:00","1997","03","10","07:00","-2.6","","-5.2","","82","","24","","13","","16.1","","99.09","","","","-7","","Cloudy"
"1997-03-10 08:00","1997","03","10","08:00","0.3","","-3.0","","78","","25","","17","","19.3","","99.19","","","","","","Mostly Cloudy"
"1997-03-10 09:00","1997","03","10","09:00","1.2","","-3.2","","72","","24","","20","","19.3","","99.29","","","","","","Mostly Cloudy"
"1997-03-10 10:00","1997","03","10","10:00","1.3","","-4.1","","67","","26","","22","","24.1","","99.36","","","","","","Mostly Cloudy"
"1997-03-10 11:00","1997","03","10","11:00","1.8","","-4.4","","63","","24","","17","","32.2","","99.42","","","","","","Cloudy"
"1997-03-10 12:00","1997","03","10","12:00","1.5","","-4.6","","64","","25","","22","","32.2","","99.46","","","","","","Cloudy"
"1997-03-10 13:00","1997","03","10","13:00","1.2","","-4.7","","65","","26","","20","","32.2","","99.46","","","","","","Cloudy"
"1997-03-10 14:00","1997","03","10","14:00","1.2","","-5.3","","62","","25","","15","","32.2","","99.46","","","","","","Cloudy"
"1997-03-10 15:00","1997","03","10","15:00","1.8","","-4.7","","62","","24","","20","","32.2","","99.49","","","","","","Mostly Cloudy"
"1997-03-10 16:00","1997","03","10","16:00","1.6","","-5.3","","60","","25","","19","","32.2","","99.49","","","","","","Mostly Cloudy"
"1997-03-10 17:00","1997","03","10","17:00","1.4","","-5.9","","58","","25","","17","","32.2","","99.49","","","","","","Mostly Cloudy"
"1997-03-10 18:00","1997","03","10","18:00","0.6","","-6.2","","60","","24","","13","","32.2","","99.49","","","","","","Mostly Cloudy"
"1997-03-10 19:00","1997","03","10","19:00","0.2","","-6.5","","61","","24","","15","","24.1","","99.49","","","","","","Mostly Cloudy"
"1997-03-10 20:00","1997","03","10","20:00","-0.4","","-7.0","","61","","25","","15","","24.1","","99.52","","","","-5","","Mainly Clear"
"1997-03-10 21:00","1997","03","10","21:00","-1.7","","-7.9","","63","","24","","11","","24.1","","99.59","","","","-6","","Mainly Clear"
"1997-03-10 22:00","1997","03","10","22:00","-1.4","","-7.7","","62","","25","","13","","24.1","","99.59","","","","-6","","Mostly Cloudy"
"1997-03-10 23:00","1997","03","10","23:00","-2.6","","-8.4","","64","","24","","13","","24.1","","99.59","","","","-7","","Mainly Clear"
"1997-03-11 00:00","1997","03","11","00:00","-1.8","","-7.4","","66","","23","","7","","24.1","","99.59","","","","-4","","Cloudy"
"1997-03-11 01:00","1997","03","11","01:00","-1.3","","-7.0","","65","","22","","9","","24.1","","99.59","","","","-5","","Cloudy"
"1997-03-11 02:00","1997","03","11","02:00","-1.6","","-6.8","","68","","23","","7","","24.1","","99.56","","","","-4","","Cloudy"
"1997-03-11 03:00","1997","03","11","03:00","-1.9","","-6.3","","72","","22","","6","","24.1","","99.49","","","","-4","","Snow"
"1997-03-11 04:00","1997","03","11","04:00","-2.5","","-6.0","","77","","22","","4","","24.1","","99.42","","","","-4","","Cloudy"
"1997-03-11 05:00","1997","03","11","05:00","-3.1","","-5.7","","82","","","","0","","24.1","","99.42","","","","","","Mostly Cloudy"
"1997-03-11 06:00","1997","03","11","06:00","-3.9","","-6.2","","84","","","","0","","24.1","","99.42","","","","","","Mostly Cloudy"
"1997-03-11 07:00","1997","03","11","07:00","-3.5","","-5.4","","87","","31","","4","","19.3","","99.46","","","","-5","","Cloudy"
"1997-03-11 08:00","1997","03","11","08:00","-2.3","","-4.2","","87","","33","","6","","16.1","","99.52","","","","-5","","Mostly Cloudy"
"1997-03-11 09:00","1997","03","11","09:00","-2.1","","-4.8","","82","","1","","9","","11.3","","99.59","","","","-6","","Snow"
"1997-03-11 10:00","1997","03","11","10:00","-1.4","","-4.9","","77","","33","","7","","19.3","","99.59","","","","-4","","Snow Showers"
"1997-03-11 11:00","1997","03","11","11:00","-0.2","","-5.3","","68","","29","","9","","32.2","","99.62","","","","-3","","Mainly Clear"
"1997-03-11 12:00","1997","03","11","12:00","0.2","","-6.9","","59","","32","","15","","32.2","","99.62","","","","","","Mainly Clear"
"1997-03-11 13:00","1997","03","11","13:00","0.6","","-7.3","","55","","31","","19","","32.2","","99.66","","","","","","Mostly Cloudy"
"1997-03-11 14:00","1997","03","11","14:00","0.7","","-8.1","","52","","29","","24","","32.2","","99.69","","","","","","Mainly Clear"
"1997-03-11 15:00","1997","03","11","15:00","0.6","","-8.4","","51","","29","","26","","32.2","","99.76","","","","","","Mostly Cloudy"
"1997-03-11 16:00","1997","03","11","16:00","0.3","","-8.8","","50","","29","","22","","32.2","","99.86","","","","","","Mostly Cloudy"
"1997-03-11 17:00","1997","03","11","17:00","-0.6","","-9.6","","51","","30","","20","","32.2","","99.93","","","","-6","","Mostly Cloudy"
"1997-03-11 18:00","1997","03","11","18:00","-1.1","","-10.3","","50","","33","","20","","32.2","","100.06","","","","-7","","Mostly Cloudy"
"1997-03-11 19:00","1997","03","11","19:00","-2.3","","-11.5","","49","","33","","15","","25.0","","100.19","","","","-7","","Mainly Clear"
"1997-03-11 20:00","1997","03","11","20:00","-3.3","","-11.8","","52","","34","","9","","25.0","","100.26","","","","-7","","Clear"
"1997-03-11 21:00","1997","03","11","21:00","-4.1","","-12.9","","50","","34","","13","","25.0","","100.36","","","","-9","","Clear"
"1997-03-11 22:00","1997","03","11","22:00","-5.2","","-13.7","","51","","34","","13","","25.0","","100.43","","","","-10","","Clear"
"1997-03-11 23:00","1997","03","11","23:00","-5.4","","-14.3","","50","","35","","11","","25.0","","100.46","","","","-10","","Clear"
"1997-03-12 00:00","1997","03","12","00:00","-6.7","","-14.6","","53","","30","","4","","25.0","","100.49","","","","-9","","Clear"
"1997-03-12 01:00","1997","03","12","01:00","-8.9","","-15.1","","61","","30","","4","","25.0","","100.53","","","","-11","","Clear"
"1997-03-12 02:00","1997","03","12","02:00","-9.6","","-15.2","","64","","","","0","","25.0","","100.56","","","","","","Clear"
"1997-03-12 03:00","1997","03","12","03:00","-10.4","","-15.5","","66","","","","0","","25.0","","100.53","","","","","","Clear"
"1997-03-12 04:00","1997","03","12","04:00","-10.7","","-15.6","","67","","22","","4","","25.0","","100.56","","","","-13","","Mainly Clear"
"1997-03-12 05:00","1997","03","12","05:00","-10.8","","-15.7","","67","","","","0","","25.0","","100.53","","","","","","Mainly Clear"
"1997-03-12 06:00","1997","03","12","06:00","-10.7","","-15.8","","66","","20","","4","","24.1","","100.49","","","","-13","","Mostly Cloudy"
"1997-03-12 07:00","1997","03","12","07:00","-10.3","","-15.5","","66","","","","0","","12.9","","100.49","","","","","","Snow"
"1997-03-12 08:00","1997","03","12","08:00","-8.7","","-13.1","","70","","","","0","","3.2","","100.46","","","","","","Snow Showers"
"1997-03-12 09:00","1997","03","12","09:00","-7.4","","-10.8","","77","","28","","17","","6.4","","100.49","","","","-14","","Snow Showers"
"1997-03-12 10:00","1997","03","12","10:00","-7.3","","-10.6","","77","","30","","24","","9.7","","100.53","","","","-15","","Snow Showers"
"1997-03-12 11:00","1997","03","12","11:00","-7.6","","-14.2","","59","","33","","28","","32.2","","100.66","","","","-16","","Mainly Clear"
"1997-03-12 12:00","1997","03","12","12:00","-6.2","","-14.2","","53","","31","","22","","32.2","","100.70","","","","-13","","Mostly Cloudy"
"1997-03-12 13:00","1997","03","12","13:00","-6.4","","-14.9","","51","","30","","32","","32.2","","100.70","","","","-15","","Mainly Clear"
"1997-03-12 14:00","1997","03","12","14:00","-6.3","","-15.7","","47","","30","","30","","32.2","","100.76","","","","-15","","Mainly Clear"
"1997-03-12 15:00","1997","03","12","15:00","-6.2","","-15.9","","46","","29","","28","","32.2","","100.80","","","","-14","","Mainly Clear"
"1997-03-12 16:00","1997","03","12","16:00","-6.6","","-16.1","","47","","30","","24","","32.2","","100.86","","","","-14","","Mainly Clear"
"1997-03-12 17:00","1997","03","12","17:00","-7.0","","-17.1","","44","","29","","20","","32.2","","100.96","","","","-14","","Mainly Clear"
"1997-03-12 18:00","1997","03","12","18:00","-7.7","","-17.7","","45","","29","","24","","32.2","","101.03","","","","-16","","Mainly Clear"
"1997-03-12 19:00","1997","03","12","19:00","-8.7","","-18.1","","47","","30","","19","","25.0","","101.16","","","","-16","","Clear"
"1997-03-12 20:00","1997","03","12","20:00","-9.1","","-20.1","","40","","32","","19","","25.0","","101.27","","","","-17","","Clear"
"1997-03-12 21:00","1997","03","12","21:00","-10.0","","-20.0","","44","","33","","20","","25.0","","101.37","","","","-18","","Clear"
"1997-03-12 22:00","1997","03","12","22:00","-10.7","","-20.7","","44","","34","","19","","25.0","","101.40","","","","-19","","Clear"
"1997-03-12 23:00","1997","03","12","23:00","-11.5","","-20.6","","47","","35","","17","","25.0","","101.50","","","","-19","","Clear"
"1997-03-13 00:00","1997","03","13","00:00","-12.3","","-20.7","","50","","31","","6","","25.0","","101.60","","","","-16","","Mainly Clear"
"1997-03-13 01:00","1997","03","13","01:00","-12.8","","-20.9","","51","","","","0","","25.0","","101.63","","","","","","Mainly Clear"
"1997-03-13 02:00","1997","03","13","02:00","-14.2","","-21.1","","56","","27","","7","","25.0","","101.70","","","","-19","","Clear"
"1997-03-13 03:00","1997","03","13","03:00","-15.1","","-22.0","","56","","27","","6","","25.0","","101.77","","","","-19","","Clear"
"1997-03-13 04:00","1997","03","13","04:00","-15.2","","-21.7","","58","","28","","7","","25.0","","101.80","","","","-20","","Clear"
"1997-03-13 05:00","1997","03","13","05:00","-15.7","","-22.3","","57","","27","","7","","25.0","","101.87","","","","-21","","Clear"
"1997-03-13 06:00","1997","03","13","06:00","-16.0","","-22.7","","56","","28","","9","","32.2","","101.94","","","","-22","","Clear"
"1997-03-13 07:00","1997","03","13","07:00","-16.2","","-22.3","","59","","30","","7","","32.2","","102.00","","","","-21","","Clear"
"1997-03-13 08:00","1997","03","13","08:00","-14.7","","-21.1","","58","","26","","7","","32.2","","102.07","","","","-19","","Clear"
"1997-03-13 09:00","1997","03","13","09:00","-13.3","","-20.1","","57","","29","","11","","32.2","","102.10","","","","-20","","Clear"
"1997-03-13 10:00","1997","03","13","10:00","-12.1","","-19.6","","54","","28","","11","","32.2","","102.10","","","","-18","","Clear"
"1997-03-13 11:00","1997","03","13","11:00","-11.1","","-19.5","","50","","31","","15","","32.2","","102.07","","","","-18","","Clear"
"1997-03-13 12:00","1997","03","13","12:00","-9.9","","-18.9","","48","","29","","13","","32.2","","102.10","","","","-16","","Clear"
"1997-03-13 13:00","1997","03","13","13:00","-9.0","","-18.1","","48","","32","","7","","32.2","","102.07","","","","-13","","Clear"
"1997-03-13 14:00","1997","03","13","14:00","-8.2","","-18.4","","44","","27","","7","","32.2","","102.00","","","","-12","","Mainly Clear"
"1997-03-13 15:00","1997","03","13","15:00","-7.8","","-17.6","","45","","25","","15","","32.2","","102.00","","","","-14","","Mainly Clear"
"1997-03-13 16:00","1997","03","13","16:00","-7.3","","-17.9","","42","","26","","13","","32.2","","101.97","","","","-13","","Mainly Clear"
"1997-03-13 17:00","1997","03","13","17:00","-7.8","","-18.5","","42","","26","","7","","32.2","","101.97","","","","-11","","Mostly Cloudy"
"1997-03-13 18:00","1997","03","13","18:00","-8.3","","-18.8","","42","","28","","9","","32.2","","101.94","","","","-13","","Mostly Cloudy"
"1997-03-13 19:00","1997","03","13","19:00","-9.7","","-19.7","","44","","27","","6","","25.0","","101.97","","","","-13","","Mostly Cloudy"
"1997-03-13 20:00","1997","03","13","20:00","-9.9","","-19.7","","45","","29","","4","","25.0","","101.97","","","","-12","","Mostly Cloudy"
"1997-03-13 21:00","1997","03","13","21:00","-10.1","","-20.2","","43","","","","0","","25.0","","101.90","","","","","","Mainly Clear"
"1997-03-13 22:00","1997","03","13","22:00","-11.1","","-20.0","","48","","","","0","","25.0","","101.87","","","","","","Mainly Clear"
"1997-03-13 23:00","1997","03","13","23:00","-11.3","","-20.2","","48","","","","0","","25.0","","101.83","","","","","","Clear"
"1997-03-14 00:00","1997","03","14","00:00","-12.4","","-19.4","","56","","5","","6","","25.0","","101.77","","","","-16","","Mainly Clear"
"1997-03-14 01:00","1997","03","14","01:00","-11.8","","-19.2","","54","","6","","4","","25.0","","101.80","","","","-14","","Mainly Clear"
"1997-03-14 02:00","1997","03","14","02:00","-11.7","","-20.2","","49","","36","","6","","24.1","","101.77","","","","-15","","Mainly Clear"
"1997-03-14 03:00","1997","03","14","03:00","-13.4","","-20.5","","55","","6","","9","","24.1","","101.60","","","","-19","","Mostly Cloudy"
"1997-03-14 04:00","1997","03","14","04:00","-13.0","","-20.2","","55","","7","","11","","24.1","","101.53","","","","-19","","Mostly Cloudy"
"1997-03-14 05:00","1997","03","14","05:00","-12.7","","-20.5","","52","","7","","15","","24.1","","101.40","","","","-20","","Mostly Cloudy"
"1997-03-14 06:00","1997","03","14","06:00","-12.2","","-20.3","","51","","8","","20","","24.1","","101.30","","","","-21","","Cloudy"
"1997-03-14 07:00","1997","03","14","07:00","-11.6","","-19.9","","50","","8","","26","","32.2","","101.16","","","","-21","","Cloudy"
"1997-03-14 08:00","1997","03","14","08:00","-11.5","","-20.0","","49","","8","","32","","32.2","","100.93","","","","-22","","Cloudy"
"1997-03-14 09:00","1997","03","14","09:00","-11.7","","-19.8","","51","","8","","32","","8.0","","100.73","","","","-22","","Snow,Blowing Snow"
"1997-03-14 10:00","1997","03","14","10:00","-13.3","","-18.1","","67","","8","","28","","0.4","","100.46","","","","-24","","Moderate Snow,Blowing Snow"
"1997-03-14 11:00","1997","03","14","11:00","-13.8","","-17.8","","72","","7","","30","","0.6","","100.16","","","","-24","","Moderate Snow,Blowing Snow"
"1997-03-14 12:00","1997","03","14","12:00","-13.8","","-17.9","","71","","7","","22","","0.4","","99.96","","","","-23","","Heavy Snow"
"1997-03-14 13:00","1997","03","14","13:00","-12.9","","-16.7","","73","","7","","35","","0.2","","99.66","","","","-24","","Heavy Snow,Blowing Snow"
"1997-03-14 14:00","1997","03","14","14:00","-12.5","","-15.9","","76","","8","","30","","0.6","","99.46","","","","-23","","Moderate Snow,Blowing Snow"
"1997-03-14 15:00","1997","03","14","15:00","-12.1","","-15.4","","76","","8","","33","","1.2","","99.29","","","","-23","","Snow,Blowing Snow"
"1997-03-14 16:00","1997","03","14","16:00","-11.6","","-15.1","","75","","8","","33","","2.4","","99.15","","","","-22","","Freezing Rain,Snow,Blowing Snow"
"1997-03-14 17:00","1997","03","14","17:00","-10.7","","-14.0","","77","","8","","26","","2.8","","99.02","","","","-20","","Freezing Rain,Ice Pellets"
"1997-03-14 18:00","1997","03","14","18:00","-10.2","","-13.0","","80","","9","","24","","4.8","","98.95","","","","-19","","Freezing Drizzle,Snow"
"1997-03-14 19:00","1997","03","14","19:00","-9.7","","-12.2","","82","","8","","22","","4.0","","98.85","","","","-18","","Freezing Drizzle,Snow"
"1997-03-14 20:00","1997","03","14","20:00","-9.5","","-11.8","","83","","6","","17","","3.2","","98.75","","","","-17","","Freezing Drizzle,Fog"
"1997-03-14 21:00","1997","03","14","21:00","-8.9","","-10.9","","85","","6","","7","","2.8","","98.79","","","","-13","","Freezing Drizzle,Fog"
"1997-03-14 22:00","1997","03","14","22:00","-7.9","","-9.9","","86","","11","","9","","3.6","","98.72","","","","-12","","Freezing Rain,Fog"
"1997-03-14 23:00","1997","03","14","23:00","-6.1","","-8.6","","82","","19","","7","","4.8","","98.75","","","","-9","","Freezing Drizzle,Snow,Haze"
"1997-03-15 00:00","1997","03","15","00:00","-4.1","","-5.5","","90","","23","","17","","16.1","","98.82","","","","-10","","Cloudy"
"1997-03-15 01:00","1997","03","15","01:00","-4.2","","-5.3","","92","","23","","9","","24.1","","98.89","","","","-8","","Cloudy"
"1997-03-15 02:00","1997","03","15","02:00","-4.3","","-5.5","","91","","23","","4","","16.1","","98.85","","","","-6","","Snow Showers"
"1997-03-15 03:00","1997","03","15","03:00","-2.2","","-3.7","","89","","22","","17","","11.3","","98.82","","","","-8","","Snow Showers"
"1997-03-15 04:00","1997","03","15","04:00","-3.2","","-6.3","","79","","23","","20","","24.1","","98.92","","","","-9","","Mainly Clear"
"1997-03-15 05:00","1997","03","15","05:00","-4.7","","-9.2","","71","","24","","28","","25.0","","99.09","","","","-12","","Mainly Clear"
"1997-03-15 06:00","1997","03","15","06:00","-6.3","","-10.9","","70","","24","","22","","24.1","","99.19","","","","-14","","Mainly Clear"
"1997-03-15 07:00","1997","03","15","07:00","-6.6","","-11.9","","66","","23","","22","","32.2","","99.22","","","","-14","","Mainly Clear"
"1997-03-15 08:00","1997","03","15","08:00","-6.7","","-11.8","","67","","24","","30","","32.2","","99.36","","","","-15","","Mainly Clear"
"1997-03-15 09:00","1997","03","15","09:00","-7.2","","-14.0","","58","","25","","33","","32.2","","99.46","","","","-16","","Mostly Cloudy"
"1997-03-15 10:00","1997","03","15","10:00","-7.1","","-14.8","","54","","26","","28","","32.2","","99.59","","","","-15","","Mostly Cloudy"
"1997-03-15 11:00","1997","03","15","11:00","-7.5","","-14.8","","56","","26","","33","","32.2","","99.66","","","","-17","","Mostly Cloudy"
"1997-03-15 12:00","1997","03","15","12:00","-6.9","","-14.0","","57","","26","","33","","32.2","","99.69","","","","-16","","Mostly Cloudy"
"1997-03-15 13:00","1997","03","15","13:00","-6.4","","-14.5","","53","","26","","33","","40.2","","99.79","","","","-15","","Mostly Cloudy"
"1997-03-15 14:00","1997","03","15","14:00","-6.6","","-15.9","","48","","27","","28","","40.2","","99.82","","","","-15","","Mostly Cloudy"
"1997-03-15 15:00","1997","03","15","15:00","-6.2","","-15.8","","47","","29","","26","","40.2","","99.96","","","","-14","","Mostly Cloudy"
"1997-03-15 16:00","1997","03","15","16:00","-6.1","","-15.3","","48","","26","","22","","40.2","","99.99","","","","-13","","Mostly Cloudy"
"1997-03-15 17:00","1997","03","15","17:00","-6.2","","-15.7","","47","","29","","22","","40.2","","100.06","","","","-13","","Mostly Cloudy"
"1997-03-15 18:00","1997","03","15","18:00","-6.5","","-16.3","","46","","27","","19","","40.2","","100.09","","","","-13","","Mostly Cloudy"
"1997-03-15 19:00","1997","03","15","19:00","-7.3","","-16.9","","46","","26","","17","","24.1","","100.19","","","","-14","","Mainly Clear"
"1997-03-15 20:00","1997","03","15","20:00","-7.8","","-16.8","","48","","25","","17","","24.1","","100.26","","","","-14","","Mainly Clear"
"1997-03-15 21:00","1997","03","15","21:00","-8.3","","-17.2","","49","","26","","20","","24.1","","100.36","","","","-16","","Mainly Clear"
"1997-03-15 22:00","1997","03","15","22:00","-9.6","","-17.9","","51","","26","","15","","25.0","","100.43","","","","-16","","Clear"
"1997-03-15 23:00","1997","03","15","23:00","-10.8","","-18.6","","53","","25","","7","","25.0","","100.46","","","","-15","","Clear"
"1997-03-16 00:00","1997","03","16","00:00","-12.1","","-19.6","","54","","24","","9","","25.0","","100.49","","","","-17","","Clear"
"1997-03-16 01:00","1997","03","16","01:00","-12.3","","-19.0","","57","","27","","7","","25.0","","100.53","","","","-17","","Clear"
"1997-03-16 02:00","1997","03","16","02:00","-14.2","","-20.0","","61","","25","","7","","25.0","","100.63","","","","-19","","Clear"
"1997-03-16 03:00","1997","03","16","03:00","-13.7","","-19.7","","60","","26","","7","","25.0","","100.70","","","","-18","","Clear"
"1997-03-16 04:00","1997","03","16","04:00","-13.9","","-19.5","","63","","27","","15","","25.0","","100.80","","","","-22","","Clear"
"1997-03-16 05:00","1997","03","16","05:00","-14.6","","-19.9","","64","","28","","11","","25.0","","100.90","","","","-21","","Clear"
"1997-03-16 06:00","1997","03","16","06:00","-14.7","","-21.0","","59","","29","","17","","24.1","","101.03","","","","-23","","Clear"
"1997-03-16 07:00","1997","03","16","07:00","-14.8","","-21.1","","59","","28","","15","","40.2","","101.10","","","","-23","","Clear"
"1997-03-16 08:00","1997","03","16","08:00","-13.7","","-20.3","","57","","25","","9","","40.2","","101.16","","","","-19","","Clear"
"1997-03-16 09:00","1997","03","16","09:00","-12.5","","-19.5","","56","","28","","19","","40.2","","101.23","","","","-21","","Mainly Clear"
"1997-03-16 10:00","1997","03","16","10:00","-11.7","","-18.6","","57","","27","","22","","40.2","","101.27","","","","-20","","Mainly Clear"
"1997-03-16 11:00","1997","03","16","11:00","-10.6","","-18.6","","52","","27","","24","","40.2","","101.23","","","","-19","","Clear"
"1997-03-16 12:00","1997","03","16","12:00","-10.0","","-17.6","","54","","27","","24","","40.2","","101.27","","","","-19","","Mainly Clear"
"1997-03-16 13:00","1997","03","16","13:00","-9.1","","-18.0","","48","","28","","19","","40.2","","101.23","","","","-17","","Clear"
"1997-03-16 14:00","1997","03","16","14:00","-8.0","","-17.2","","48","","30","","19","","40.2","","101.16","","","","-15","","Clear"
"1997-03-16 15:00","1997","03","16","15:00","-6.7","","-16.7","","45","","28","","15","","40.2","","101.13","","","","-13","","Clear"
"1997-03-16 16:00","1997","03","16","16:00","-6.2","","-17.0","","42","","29","","11","","40.2","","101.10","","","","-11","","Clear"
"1997-03-16 17:00","1997","03","16","17:00","-5.7","","-17.0","","40","","30","","4","","40.2","","101.10","","","","-8","","Clear"
"1997-03-16 18:00","1997","03","16","18:00","-6.3","","-17.2","","42","","27","","7","","40.2","","101.10","","","","-10","","Clear"
"1997-03-16 19:00","1997","03","16","19:00","-8.3","","-17.5","","47","","19","","4","","25.0","","101.13","","","","-10","","Clear"
"1997-03-16 20:00","1997","03","16","20:00","-9.3","","-18.1","","49","","22","","4","","25.0","","101.16","","","","-12","","Clear"
"1997-03-16 21:00","1997","03","16","21:00","-9.8","","-18.4","","49","","","","0","","25.0","","101.20","","","","","","Clear"
"1997-03-16 22:00","1997","03","16","22:00","-10.8","","-19.1","","50","","24","","7","","25.0","","101.23","","","","-15","","Clear"
"1997-03-16 23:00","1997","03","16","23:00","-12.2","","-18.8","","58","","22","","6","","25.0","","101.20","","","","-16","","Clear"
"1997-03-17 00:00","1997","03","17","00:00","-11.4","","-18.0","","58","","22","","4","","25.0","","101.20","","","","-14","","Clear"
"1997-03-17 01:00","1997","03","17","01:00","-11.6","","-17.3","","63","","22","","4","","25.0","","101.16","","","","-14","","Clear"
"1997-03-17 02:00","1997","03","17","02:00","-11.4","","-17.5","","61","","23","","6","","25.0","","101.13","","","","-15","","Mainly Clear"
"1997-03-17 03:00","1997","03","17","03:00","-12.4","","-17.5","","66","","19","","4","","25.0","","101.10","","","","-15","","Mainly Clear"
"1997-03-17 04:00","1997","03","17","04:00","-12.5","","-17.4","","67","","19","","6","","24.1","","101.06","","","","-16","","Mainly Clear"
"1997-03-17 05:00","1997","03","17","05:00","-11.5","","-16.0","","69","","18","","6","","24.1","","101.03","","","","-15","","Mostly Cloudy"
"1997-03-17 06:00","1997","03","17","06:00","-11.5","","-15.8","","70","","17","","7","","24.1","","100.93","","","","-16","","Cloudy"
"1997-03-17 07:00","1997","03","17","07:00","-11.3","","-15.1","","73","","16","","6","","2.4","","100.83","","","","-15","","Snow"
"1997-03-17 08:00","1997","03","17","08:00","-9.8","","-13.0","","77","","16","","11","","1.0","","100.70","","","","-15","","Snow"
"1997-03-17 09:00","1997","03","17","09:00","-7.9","","-10.6","","81","","18","","17","","12.9","","100.53","","","","-15","","Snow"
"1997-03-17 10:00","1997","03","17","10:00","-6.8","","-9.8","","79","","18","","19","","3.2","","100.29","","","","-14","","Snow"
"1997-03-17 11:00","1997","03","17","11:00","-5.8","","-8.5","","81","","18","","20","","8.0","","100.09","","","","-13","","Snow"
"1997-03-17 12:00","1997","03","17","12:00","-4.1","","-8.5","","71","","20","","17","","12.9","","99.96","","","","-10","","Snow"
"1997-03-17 13:00","1997","03","17","13:00","-2.7","","-7.9","","67","","20","","20","","4.0","","99.79","","","","-9","","Snow"
"1997-03-17 14:00","1997","03","17","14:00","-1.2","","-5.2","","74","","21","","22","","8.0","","99.62","","","","-7","","Snow,Snow Pellets"
"1997-03-17 15:00","1997","03","17","15:00","0.1","","-4.6","","71","","22","","24","","19.3","","99.59","","","","","","Snow Pellets"
"1997-03-17 16:00","1997","03","17","16:00","0.9","","-3.9","","70","","23","","20","","8.0","","99.62","","","","","","Snow"
"1997-03-17 17:00","1997","03","17","17:00","0.8","","-3.2","","75","","24","","13","","6.4","","99.66","","","","","","Snow"
"1997-03-17 18:00","1997","03","17","18:00","0.4","","-2.2","","83","","26","","11","","4.0","","99.72","","","","","","Snow"
"1997-03-17 19:00","1997","03","17","19:00","-0.4","","-2.5","","86","","26","","15","","19.3","","99.89","","","","-5","","Mostly Cloudy"
"1997-03-17 20:00","1997","03","17","20:00","-0.3","","-2.3","","86","","28","","13","","19.3","","99.99","","","","-4","","Mainly Clear"
"1997-03-17 21:00","1997","03","17","21:00","-1.1","","-2.8","","88","","28","","19","","12.9","","100.13","","","","-6","","Snow"
"1997-03-17 22:00","1997","03","17","22:00","-0.8","","-3.3","","83","","30","","22","","19.3","","100.29","","","","-7","","Mostly Cloudy"
"1997-03-17 23:00","1997","03","17","23:00","-2.5","","-9.2","","60","","32","","24","","24.1","","100.49","","","","-9","","Mainly Clear"
"1997-03-18 00:00","1997","03","18","00:00","-3.7","","-10.0","","62","","35","","20","","25.0","","100.63","","","","-10","","Clear"
"1997-03-18 01:00","1997","03","18","01:00","-5.1","","-10.9","","64","","32","","26","","24.1","","100.80","","","","-13","","Clear"
"1997-03-18 02:00","1997","03","18","02:00","-6.5","","-11.9","","65","","32","","15","","25.0","","100.93","","","","-12","","Clear"
"1997-03-18 03:00","1997","03","18","03:00","-7.7","","-12.7","","67","","31","","9","","25.0","","101.03","","","","-12","","Clear"
"1997-03-18 04:00","1997","03","18","04:00","-8.7","","-13.7","","67","","31","","11","","25.0","","101.16","","","","-14","","Clear"
"1997-03-18 05:00","1997","03","18","05:00","-9.8","","-14.8","","67","","32","","11","","25.0","","101.30","","","","-15","","Clear"
"1997-03-18 06:00","1997","03","18","06:00","-10.2","","-15.7","","64","","33","","15","","32.2","","101.40","","","","-17","","Clear"
"1997-03-18 07:00","1997","03","18","07:00","-10.4","","-15.9","","64","","34","","9","","32.2","","101.50","","","","-15","","Mainly Clear"
"1997-03-18 08:00","1997","03","18","08:00","-9.8","","-15.8","","62","","33","","11","","32.2","","101.63","","","","-15","","Mainly Clear"
"1997-03-18 09:00","1997","03","18","09:00","-9.0","","-15.9","","57","","33","","13","","32.2","","101.67","","","","-15","","Mainly Clear"
"1997-03-18 10:00","1997","03","18","10:00","-7.9","","-15.3","","55","","32","","9","","32.2","","101.70","","","","-12","","Clear"
"1997-03-18 11:00","1997","03","18","11:00","-6.5","","-15.0","","51","","30","","4","","32.2","","101.73","","","","-8","","Clear"
"1997-03-18 12:00","1997","03","18","12:00","-5.4","","-14.8","","48","","30","","4","","32.2","","101.70","","","","-7","","Clear"
"1997-03-18 13:00","1997","03","18","13:00","-5.0","","-14.4","","48","","29","","9","","32.2","","101.70","","","","-9","","Clear"
"1997-03-18 14:00","1997","03","18","14:00"
"1997-03-18 15:00","1997","03","18","15:00","-3.4","","-14.2","","43","","27","","13","","40.2","","101.53","","","","-8","","Clear"
"1997-03-18 16:00","1997","03","18","16:00","-3.5","","-14.6","","42","","25","","13","","40.2","","101.53","","","","-8","","Clear"
"1997-03-18 17:00","1997","03","18","17:00","-3.9","","-16.7","","36","","28","","15","","40.2","","101.50","","","","-9","","Clear"
"1997-03-18 18:00","1997","03","18","18:00","-4.4","","-16.2","","39","","29","","13","","40.2","","101.50","","","","-9","","Clear"
"1997-03-18 19:00","1997","03","18","19:00","-5.6","","-16.4","","42","","28","","6","","40.2","","101.50","","","","-8","","Clear"
"1997-03-18 20:00","1997","03","18","20:00","-7.2","","-16.9","","46","","23","","4","","25.0","","101.53","","","","-9","","Clear"
"1997-03-18 21:00","1997","03","18","21:00","-7.5","","-17.2","","46","","21","","6","","25.0","","101.50","","","","-11","","Clear"
"1997-03-18 22:00","1997","03","18","22:00","-8.5","","-17.6","","48","","23","","6","","24.1","","101.50","","","","-12","","Clear"
"1997-03-18 23:00","1997","03","18","23:00","-9.1","","-18.3","","47","","23","","4","","24.1","","101.50","","","","-11","","Clear"
"1997-03-19 00:00","1997","03","19","00:00","-10.0","","-18.5","","50","","22","","6","","24.1","","101.50","","","","-14","","Clear"
"1997-03-19 01:00","1997","03","19","01:00","-11.0","","-19.0","","52","","22","","6","","25.0","","101.47","","","","-15","","Clear"
"1997-03-19 02:00","1997","03","19","02:00","-10.5","","-17.1","","58","","21","","6","","24.1","","101.43","","","","-14","","Clear"
"1997-03-19 03:00","1997","03","19","03:00","-11.1","","-17.3","","60","","21","","7","","24.1","","101.37","","","","-15","","Mainly Clear"
"1997-03-19 04:00","1997","03","19","04:00","-11.7","","-17.3","","63","","22","","6","","24.1","","101.33","","","","-15","","Mainly Clear"
"1997-03-19 05:00","1997","03","19","05:00","-12.6","","-17.5","","67","","21","","7","","24.1","","101.30","","","","-17","","Mainly Clear"
"1997-03-19 06:00","1997","03","19","06:00","-13.2","","-17.6","","69","","20","","7","","24.1","","101.27","","","","-18","","Mainly Clear"
"1997-03-19 07:00","1997","03","19","07:00","-13.4","","-17.8","","69","","22","","6","","32.2","","101.23","","","","-17","","Mainly Clear"
"1997-03-19 08:00","1997","03","19","08:00","-12.0","","-16.6","","69","","21","","7","","32.2","","101.20","","","","-16","","Mainly Clear"
"1997-03-19 09:00","1997","03","19","09:00","-9.4","","-15.6","","61","","22","","6","","32.2","","101.20","","","","-13","","Mainly Clear"
"1997-03-19 10:00","1997","03","19","10:00","-5.5","","-14.2","","50","","22","","9","","32.2","","101.16","","","","-10","","Mainly Clear"
"1997-03-19 11:00","1997","03","19","11:00","-3.0","","-12.6","","47","","22","","9","","32.2","","101.03","","","","-7","","Mainly Clear"
"1997-03-19 12:00","1997","03","19","12:00","-1.0","","-11.5","","45","","23","","7","","32.2","","100.93","","","","-4","","Clear"
"1997-03-19 13:00","1997","03","19","13:00","-0.1","","-11.6","","42","","25","","15","","40.2","","100.83","","","","-5","","Mainly Clear"
"1997-03-19 14:00","1997","03","19","14:00","1.1","","-10.2","","43","","22","","13","","40.2","","100.63","","","","","","Mainly Clear"
"1997-03-19 15:00","1997","03","19","15:00","1.2","","-11.2","","39","","20","","15","","40.2","","100.53","","","","","","Mostly Cloudy"
"1997-03-19 16:00","1997","03","19","16:00","0.4","","-11.0","","42","","21","","15","","40.2","","100.46","","","","","","Mostly Cloudy"
"1997-03-19 17:00","1997","03","19","17:00","0.1","","-10.9","","43","","20","","13","","40.2","","100.36","","","","","","Mostly Cloudy"
"1997-03-19 18:00","1997","03","19","18:00","-0.3","","-10.8","","45","","20","","13","","40.2","","100.26","","","","-4","","Cloudy"
"1997-03-19 19:00","1997","03","19","19:00","-1.3","","-8.9","","56","","19","","13","","24.1","","100.23","","","","-6","","Cloudy"
"1997-03-19 20:00","1997","03","19","20:00","-1.8","","-8.2","","62","","20","","13","","24.1","","100.16","","","","-6","","Cloudy"
"1997-03-19 21:00","1997","03","19","21:00","-2.0","","-8.0","","63","","21","","7","","24.1","","100.09","","","","-5","","Cloudy"
"1997-03-19 22:00","1997","03","19","22:00","-3.0","","-8.7","","65","","20","","7","","24.1","","100.06","","","","-6","","Mostly Cloudy"
"1997-03-19 23:00","1997","03","19","23:00","-3.2","","-9.0","","64","","20","","6","","24.1","","99.99","","","","-6","","Mostly Cloudy"
"1997-03-20 00:00","1997","03","20","00:00","-3.7","","-9.1","","66","","21","","6","","24.1","","99.96","","","","-6","","Mostly Cloudy"
"1997-03-20 01:00","1997","03","20","01:00","-4.3","","-9.5","","67","","24","","4","","24.1","","99.93","","","","-6","","Mostly Cloudy"
"1997-03-20 02:00","1997","03","20","02:00","-5.3","","-10.0","","69","","22","","6","","24.1","","99.86","","","","-8","","Mostly Cloudy"
"1997-03-20 03:00","1997","03","20","03:00","-6.1","","-10.6","","70","","23","","6","","24.1","","99.79","","","","-9","","Cloudy"
"1997-03-20 04:00","1997","03","20","04:00","-6.8","","-11.3","","70","","23","","6","","24.1","","99.72","","","","-10","","Mainly Clear"
"1997-03-20 05:00","1997","03","20","05:00","-6.7","","-11.1","","71","","23","","4","","24.1","","99.66","","","","-9","","Mostly Cloudy"
"1997-03-20 06:00","1997","03","20","06:00","-6.9","","-11.0","","73","","","","0","","32.2","","99.62","","","","","","Mostly Cloudy"
"1997-03-20 07:00","1997","03","20","07:00","-6.3","","-10.7","","71","","23","","6","","32.2","","99.62","","","","-9","","Mostly Cloudy"
"1997-03-20 08:00","1997","03","20","08:00","-5.8","","-10.2","","71","","23","","7","","32.2","","99.62","","","","-9","","Cloudy"
"1997-03-20 09:00","1997","03","20","09:00","-3.7","","-9.5","","64","","25","","6","","32.2","","99.62","","","","-6","","Cloudy"
"1997-03-20 10:00","1997","03","20","10:00","-1.4","","-7.5","","63","","27","","13","","32.2","","99.59","","","","-6","","Cloudy"
"1997-03-20 11:00","1997","03","20","11:00","-0.9","","-6.0","","68","","25","","19","","6.4","","99.49","","","","-6","","Snow"
"1997-03-20 12:00","1997","03","20","12:00"
"1997-03-20 13:00","1997","03","20","13:00","-0.3","","-3.1","","81","","23","","9","","6.4","","99.39","","","","-3","","Snow"
"1997-03-20 14:00","1997","03","20","14:00","-0.4","","-2.7","","84","","23","","4","","19.3","","99.36","","","","-2","","Snow"
"1997-03-20 15:00","1997","03","20","15:00","-0.6","","-3.1","","83","","23","","7","","3.2","","99.32","","","","-3","","Snow"
"1997-03-20 16:00","1997","03","20","16:00","-0.3","","-1.9","","89","","22","","9","","9.7","","99.32","","","","-3","","Snow"
"1997-03-20 17:00","1997","03","20","17:00","-0.2","","-2.0","","88","","21","","9","","24.1","","99.32","","","","-3","","Mostly Cloudy"
"1997-03-20 18:00","1997","03","20","18:00","-1.0","","-3.2","","85","","22","","7","","24.1","","99.36","","","","-4","","Mainly Clear"
"1997-03-20 19:00","1997","03","20","19:00","-1.0","","-3.8","","81","","24","","7","","24.1","","99.42","","","","-4","","Mostly Cloudy"
"1997-03-20 20:00","1997","03","20","20:00","-2.6","","-4.6","","86","","28","","7","","24.1","","99.46","","","","-5","","Mainly Clear"
"1997-03-20 21:00","1997","03","20","21:00","-2.0","","-4.4","","84","","29","","9","","24.1","","99.49","","","","-5","","Clear"
"1997-03-20 22:00","1997","03","20","22:00","-3.8","","-6.0","","85","","28","","4","","24.1","","99.46","","","","-5","","Clear"
"1997-03-20 23:00","1997","03","20","23:00","-4.5","","-6.6","","85","","25","","6","","24.1","","99.46","","","","-7","","Clear"
"1997-03-21 00:00","1997","03","21","00:00","-5.3","","-6.7","","90","","26","","9","","20.9","","99.49","","","","-9","","Clear"
"1997-03-21 01:00","1997","03","21","01:00","-5.9","","-7.5","","88","","26","","6","","24.1","","99.49","","","","-9","","Clear"
"1997-03-21 02:00","1997","03","21","02:00","-4.6","","-6.3","","88","","28","","6","","24.1","","99.49","","","","-7","","Mostly Cloudy"
"1997-03-21 03:00","1997","03","21","03:00","-5.1","","-6.6","","89","","30","","7","","24.1","","99.46","","","","-8","","Mainly Clear"
"1997-03-21 04:00","1997","03","21","04:00","-6.4","","-7.7","","90","","31","","4","","19.3","","99.46","","","","-8","","Mainly Clear"
"1997-03-21 05:00","1997","03","21","05:00","-6.6","","-8.1","","89","","32","","4","","19.3","","99.46","","","","-9","","Mainly Clear"
"1997-03-21 06:00","1997","03","21","06:00","-7.4","","-8.8","","90","","","","0","","32.2","","99.46","","","","","","Mainly Clear"
"1997-03-21 07:00","1997","03","21","07:00","-8.9","","-10.5","","88","","","","0","","0.4","","99.46","","","","","","Fog"
"1997-03-21 08:00","1997","03","21","08:00","-8.3","","-9.8","","89","","","","0","","0.2","","99.46","","","","","","Fog"
"1997-03-21 09:00","1997","03","21","09:00","-5.6","","-6.5","","93","","","","0","","4.8","","99.42","","","","","","Fog"
"1997-03-21 10:00","1997","03","21","10:00","-3.9","","-5.4","","89","","","","0","","12.9","","99.39","","","","","","Mostly Cloudy"
"1997-03-21 11:00","1997","03","21","11:00","-1.3","","-6.7","","67","","","","0","","19.3","","99.29","","","","","","Cloudy"
"1997-03-21 12:00","1997","03","21","12:00","0.0","","-5.3","","67","","19","","2","","24.1","","99.26","","","","-1","","Cloudy"
"1997-03-21 13:00","1997","03","21","13:00","1.3","","-3.8","","69","","21","","4","","32.2","","99.12","","","","","","Cloudy"
"1997-03-21 14:00","1997","03","21","14:00","2.3","","-3.9","","64","","24","","4","","32.2","","98.95","","","","","","Cloudy"
"1997-03-21 15:00","1997","03","21","15:00","1.9","","-3.8","","66","","22","","7","","24.1","","98.85","","","","","","Snow"
"1997-03-21 16:00","1997","03","21","16:00","1.0","","-3.6","","71","","24","","6","","8.0","","98.82","","","","","","Snow"
"1997-03-21 17:00","1997","03","21","17:00","-0.4","","-2.7","","84","","","","0","","1.6","","98.82","","","","","","Snow"
"1997-03-21 18:00","1997","03","21","18:00","-0.8","","-2.1","","91","","","","0","","2.0","","98.75","","","","","","Snow,Fog"
"1997-03-21 19:00","1997","03","21","19:00","-0.7","","-1.7","","93","","7","","7","","3.2","","98.69","","","","-3","","Snow"
"1997-03-21 20:00","1997","03","21","20:00","-1.0","","-1.9","","94","","8","","9","","2.8","","98.62","","","","-4","","Snow"
"1997-03-21 21:00","1997","03","21","21:00","-1.2","","-1.9","","95","","6","","9","","1.6","","98.59","","","","-4","","Snow"
"1997-03-21 22:00","1997","03","21","22:00","-1.5","","-2.5","","93","","5","","15","","3.2","","98.52","","","","-6","","Snow"
"1997-03-21 23:00","1997","03","21","23:00","-2.0","","-3.0","","93","","5","","19","","2.4","","98.52","","","","-8","","Snow"
"1997-03-22 00:00","1997","03","22","00:00","-2.2","","-3.2","","93","","3","","13","","4.0","","98.45","","","","-7","","Snow"
"1997-03-22 01:00","1997","03","22","01:00","-2.2","","-3.3","","92","","3","","13","","8.0","","98.45","","","","-7","","Snow"
"1997-03-22 02:00","1997","03","22","02:00","-3.2","","-4.3","","92","","1","","7","","24.1","","98.49","","","","-6","","Snow"
"1997-03-22 03:00","1997","03","22","03:00","-3.1","","-4.1","","93","","36","","11","","24.1","","98.52","","","","-7","","Mostly Cloudy"
"1997-03-22 04:00","1997","03","22","04:00","-3.8","","-6.1","","84","","35","","11","","24.1","","98.55","","","","-8","","Mainly Clear"
"1997-03-22 05:00","1997","03","22","05:00","-5.8","","-8.6","","81","","33","","15","","24.1","","98.65","","","","-12","","Mainly Clear"
"1997-03-22 06:00","1997","03","22","06:00","-7.9","","-12.2","","71","","33","","19","","32.2","","98.75","","","","-15","","Clear"
"1997-03-22 07:00","1997","03","22","07:00","-8.6","","-13.7","","67","","32","","20","","40.2","","98.89","","","","-16","","Clear"
"1997-03-22 08:00","1997","03","22","08:00","-8.6","","-14.3","","63","","33","","20","","40.2","","99.02","","","","-16","","Clear"
"1997-03-22 09:00","1997","03","22","09:00","-7.9","","-14.0","","62","","33","","26","","40.2","","99.12","","","","-16","","Mainly Clear"
"1997-03-22 10:00","1997","03","22","10:00","-6.5","","-13.4","","58","","32","","20","","40.2","","99.19","","","","-13","","Mainly Clear"
"1997-03-22 11:00","1997","03","22","11:00","-6.7","","-13.6","","58","","33","","24","","40.2","","99.22","","","","-14","","Mainly Clear"
"1997-03-22 12:00","1997","03","22","12:00","-6.5","","-14.3","","54","","32","","26","","40.2","","99.29","","","","-14","","Mainly Clear"
"1997-03-22 13:00","1997","03","22","13:00","-5.8","","-14.8","","49","","33","","24","","40.2","","99.29","","","","-13","","Mainly Clear"
"1997-03-22 14:00","1997","03","22","14:00","-5.4","","-14.9","","47","","34","","19","","40.2","","99.29","","","","-12","","Cloudy"
"1997-03-22 15:00","1997","03","22","15:00","-5.4","","-15.1","","46","","34","","19","","40.2","","99.36","","","","-12","","Cloudy"
"1997-03-22 16:00","1997","03","22","16:00","-5.2","","-14.7","","47","","29","","19","","40.2","","99.46","","","","-12","","Cloudy"
"1997-03-22 17:00","1997","03","22","17:00","-5.6","","-17.2","","40","","34","","19","","40.2","","99.52","","","","-12","","Mostly Cloudy"
"1997-03-22 18:00","1997","03","22","18:00","-5.9","","-16.7","","42","","30","","11","","40.2","","99.59","","","","-11","","Mainly Clear"
"1997-03-22 19:00","1997","03","22","19:00","-6.5","","-18.2","","39","","33","","20","","40.2","","99.69","","","","-13","","Mainly Clear"
"1997-03-22 20:00","1997","03","22","20:00","-7.7","","-18.4","","42","","34","","17","","25.0","","99.82","","","","-14","","Clear"
"1997-03-22 21:00","1997","03","22","21:00","-8.6","","-18.8","","43","","33","","19","","25.0","","99.89","","","","-16","","Clear"
"1997-03-22 22:00","1997","03","22","22:00","-9.2","","-19.3","","44","","33","","17","","25.0","","99.96","","","","-16","","Clear"
"1997-03-22 23:00","1997","03","22","23:00","-10.2","","-19.6","","46","","33","","19","","25.0","","99.96","","","","-18","","Clear"
"1997-03-23 00:00","1997","03","23","00:00","-10.7","","-19.9","","47","","34","","13","","25.0","","99.99","","","","-17","","Clear"
"1997-03-23 01:00","1997","03","23","01:00","-11.8","","-20.3","","49","","33","","13","","25.0","","100.03","","","","-18","","Clear"
"1997-03-23 02:00","1997","03","23","02:00","-12.5","","-20.7","","50","","32","","13","","25.0","","100.03","","","","-19","","Clear"
"1997-03-23 03:00","1997","03","23","03:00","-13.3","","-21.0","","52","","30","","11","","25.0","","100.03","","","","-20","","Clear"
"1997-03-23 04:00","1997","03","23","04:00","-15.1","","-22.0","","56","","29","","11","","25.0","","100.06","","","","-22","","Clear"
"1997-03-23 05:00","1997","03","23","05:00","-16.0","","-22.6","","57","","29","","9","","25.0","","100.16","","","","-22","","Clear"
"1997-03-23 06:00","1997","03","23","06:00","-16.7","","-22.9","","59","","30","","9","","40.2","","100.23","","","","-23","","Clear"
"1997-03-23 07:00","1997","03","23","07:00","-16.3","","-22.3","","60","","30","","11","","40.2","","100.29","","","","-23","","Clear"
"1997-03-23 08:00","1997","03","23","08:00","-14.9","","-21.0","","60","","29","","4","","40.2","","100.36","","","","-18","","Clear"
"1997-03-23 09:00","1997","03","23","09:00","-13.2","","-20.2","","56","","30","","7","","40.2","","100.43","","","","-18","","Clear"
"1997-03-23 10:00","1997","03","23","10:00","-11.4","","-19.2","","52","","27","","9","","40.2","","100.43","","","","-17","","Clear"
"1997-03-23 11:00","1997","03","23","11:00","-10.4","","-18.6","","51","","30","","17","","40.2","","100.46","","","","-18","","Clear"
"1997-03-23 12:00","1997","03","23","12:00","-9.3","","-18.2","","48","","26","","17","","40.2","","100.43","","","","-16","","Clear"
"1997-03-23 13:00","1997","03","23","13:00","-8.2","","-17.3","","48","","25","","17","","40.2","","100.43","","","","-15","","Mainly Clear"
"1997-03-23 14:00","1997","03","23","14:00","-6.9","","-16.5","","46","","25","","19","","40.2","","100.36","","","","-14","","Mainly Clear"
"1997-03-23 15:00","1997","03","23","15:00","-6.5","","-16.4","","45","","28","","20","","40.2","","100.36","","","","-13","","Mostly Cloudy"
"1997-03-23 16:00","1997","03","23","16:00","-6.0","","-16.6","","43","","28","","22","","40.2","","100.36","","","","-13","","Cloudy"
"1997-03-23 17:00","1997","03","23","17:00","-5.6","","-16.7","","41","","30","","11","","40.2","","100.36","","","","-10","","Cloudy"
"1997-03-23 18:00","1997","03","23","18:00","-5.5","","-16.1","","43","","29","","6","","40.2","","100.43","","","","-8","","Cloudy"
"1997-03-23 19:00","1997","03","23","19:00","-5.4","","-15.9","","43","","29","","13","","25.0","","100.46","","","","-11","","Mostly Cloudy"
"1997-03-23 20:00","1997","03","23","20:00","-5.7","","-15.5","","46","","30","","17","","25.0","","100.56","","","","-12","","Mostly Cloudy"
"1997-03-23 21:00","1997","03","23","21:00","-6.5","","-16.0","","47","","28","","9","","25.0","","100.60","","","","-11","","Mostly Cloudy"
"1997-03-23 22:00","1997","03","23","22:00","-6.4","","-15.8","","47","","34","","17","","25.0","","100.70","","","","-13","","Mostly Cloudy"
"1997-03-23 23:00","1997","03","23","23:00","-7.9","","-16.4","","50","","33","","17","","25.0","","100.76","","","","-15","","Mainly Clear"
"1997-03-24 00:00","1997","03","24","00:00","-9.1","","-16.5","","55","","34","","19","","25.0","","100.86","","","","-17","","Clear"
"1997-03-24 01:00","1997","03","24","01:00","-10.1","","-17.2","","56","","33","","13","","25.0","","100.96","","","","-16","","Clear"
"1997-03-24 02:00","1997","03","24","02:00","-10.7","","-17.8","","56","","30","","9","","25.0","","101.06","","","","-16","","Clear"
"1997-03-24 03:00","1997","03","24","03:00","-11.8","","-18.3","","58","","30","","9","","25.0","","101.10","","","","-17","","Clear"
"1997-03-24 04:00","1997","03","24","04:00","-13.6","","-19.5","","61","","28","","6","","25.0","","101.16","","","","-18","","Clear"
"1997-03-24 05:00","1997","03","24","05:00","-13.5","","-18.8","","64","","26","","7","","25.0","","101.27","","","","-18","","Clear"
"1997-03-24 06:00","1997","03","24","06:00","-14.2","","-19.2","","66","","27","","7","","40.2","","101.37","","","","-19","","Clear"
"1997-03-24 07:00","1997","03","24","07:00","-13.9","","-18.5","","68","","26","","6","","40.2","","101.43","","","","-18","","Clear"
"1997-03-24 08:00","1997","03","24","08:00","-12.1","","-17.3","","65","","26","","4","","40.2","","101.57","","","","-15","","Clear"
"1997-03-24 09:00","1997","03","24","09:00","-9.6","","-15.9","","60","","26","","7","","40.2","","101.63","","","","-14","","Clear"
"1997-03-24 10:00","1997","03","24","10:00","-7.8","","-15.7","","53","","25","","13","","40.2","","101.70","","","","-14","","Clear"
"1997-03-24 11:00","1997","03","24","11:00","-6.2","","-13.9","","54","","26","","13","","40.2","","101.67","","","","-12","","Clear"
"1997-03-24 12:00","1997","03","24","12:00","-4.2","","-13.1","","50","","27","","13","","40.2","","101.60","","","","-9","","Clear"
"1997-03-24 13:00","1997","03","24","13:00","-2.5","","-12.1","","48","","27","","15","","40.2","","101.57","","","","-7","","Clear"
"1997-03-24 14:00","1997","03","24","14:00","-1.6","","-12.1","","45","","20","","11","","40.2","","101.50","","","","-5","","Clear"
"1997-03-24 15:00","1997","03","24","15:00","-0.9","","-11.5","","44","","25","","7","","40.2","","101.50","","","","-3","","Clear"
"1997-03-24 16:00","1997","03","24","16:00","0.3","","-11.0","","42","","24","","7","","40.2","","101.50","","","","","","Clear"
"1997-03-24 17:00","1997","03","24","17:00","0.5","","-11.7","","39","","25","","4","","40.2","","101.50","","","","","","Clear"
"1997-03-24 18:00","1997","03","24","18:00","-0.7","","-11.6","","43","","16","","6","","40.2","","101.50","","","","-3","","Mainly Clear"
"1997-03-24 19:00","1997","03","24","19:00","-2.5","","-10.7","","53","","20","","7","","40.2","","101.47","","","","-5","","Clear"
"1997-03-24 20:00","1997","03","24","20:00","-3.7","","-10.5","","59","","20","","9","","25.0","","101.50","","","","-7","","Clear"
"1997-03-24 21:00","1997","03","24","21:00","-4.5","","-10.8","","61","","22","","7","","25.0","","101.57","","","","-8","","Clear"
"1997-03-24 22:00","1997","03","24","22:00","-5.1","","-10.8","","64","","19","","6","","25.0","","101.57","","","","-8","","Clear"
"1997-03-24 23:00","1997","03","24","23:00","-5.5","","-11.2","","64","","18","","7","","25.0","","101.60","","","","-9","","Clear"
"1997-03-25 00:00","1997","03","25","00:00","-6.9","","-11.7","","69","","19","","9","","25.0","","101.60","","","","-11","","Mainly Clear"
"1997-03-25 01:00","1997","03","25","01:00","-7.3","","-11.8","","70","","20","","7","","25.0","","101.60","","","","-11","","Mainly Clear"
"1997-03-25 02:00","1997","03","25","02:00","-7.9","","-11.9","","73","","19","","6","","25.0","","101.60","","","","-11","","Clear"
"1997-03-25 03:00","1997","03","25","03:00","-8.6","","-12.3","","75","","18","","6","","25.0","","101.53","","","","-12","","Mostly Cloudy"
"1997-03-25 04:00","1997","03","25","04:00","-10.0","","-13.6","","75","","9","","4","","25.0","","101.50","","","","-12","","Mostly Cloudy"
"1997-03-25 05:00","1997","03","25","05:00","-10.6","","-13.9","","77","","7","","4","","25.0","","101.47","","","","-13","","Mostly Cloudy"
"1997-03-25 06:00","1997","03","25","06:00","-11.7","","-14.8","","78","","8","","6","","32.2","","101.43","","","","-15","","Mostly Cloudy"
"1997-03-25 07:00","1997","03","25","07:00","-11.1","","-14.2","","78","","7","","11","","32.2","","101.33","","","","-17","","Cloudy"
"1997-03-25 08:00","1997","03","25","08:00","-8.6","","-12.9","","71","","8","","13","","32.2","","101.27","","","","-15","","Cloudy"
"1997-03-25 09:00","1997","03","25","09:00","-6.5","","-13.3","","58","","8","","17","","32.2","","101.10","","","","-13","","Cloudy"
"1997-03-25 10:00","1997","03","25","10:00","-3.7","","-12.2","","52","","10","","24","","32.2","","100.93","","","","-11","","Cloudy"
"1997-03-25 11:00","1997","03","25","11:00","-2.2","","-11.1","","50","","9","","15","","32.2","","100.80","","","","-7","","Cloudy"
"1997-03-25 12:00","1997","03","25","12:00","-0.9","","-10.0","","50","","9","","19","","32.2","","100.60","","","","-6","","Cloudy"
"1997-03-25 13:00","1997","03","25","13:00","-0.7","","-7.6","","60","","12","","17","","2.8","","100.43","","","","-6","","Snow"
"1997-03-25 14:00","1997","03","25","14:00","-1.6","","-4.0","","84","","9","","17","","2.8","","100.19","","","","-7","","Snow"
"1997-03-25 15:00","1997","03","25","15:00","-1.7","","-3.5","","87","","9","","19","","0.8","","99.96","","","","-7","","Moderate Snow"
"1997-03-25 16:00","1997","03","25","16:00","-0.8","","-1.8","","93","","9","","19","","1.0","","99.69","","","","-6","","Snow"
"1997-03-25 17:00","1997","03","25","17:00","0.1","","-0.6","","95","","11","","19","","1.0","","99.49","","","","","","Snow"
"1997-03-25 18:00","1997","03","25","18:00","0.2","","-0.4","","96","","11","","17","","6.4","","99.29","","","","","","Rain,Snow,Fog"
"1997-03-25 19:00","1997","03","25","19:00","0.8","","0.4","","97","","15","","13","","8.0","","99.19","","","","","","Rain,Fog"
"1997-03-25 20:00","1997","03","25","20:00","1.6","","1.4","","99","","17","","11","","9.7","","99.09","","","","","","Rain,Fog"
"1997-03-25 21:00","1997","03","25","21:00","1.8","","1.4","","97","","17","","7","","12.9","","98.99","","","","","","Cloudy"
"1997-03-25 22:00","1997","03","25","22:00","2.5","","2.2","","98","","19","","15","","19.3","","98.85","","","","","","Cloudy"
"1997-03-25 23:00","1997","03","25","23:00","3.5","","2.9","","96","","21","","19","","19.3","","98.79","","","","","","Cloudy"
"1997-03-26 00:00","1997","03","26","00:00","3.6","","3.1","","97","","22","","22","","19.3","","98.69","","","","","","Rain"
"1997-03-26 01:00","1997","03","26","01:00","3.1","","2.9","","99","","24","","15","","16.1","","98.62","","","","","","Cloudy"
"1997-03-26 02:00","1997","03","26","02:00","2.9","","2.7","","99","","23","","13","","16.1","","98.59","","","","","","Cloudy"
"1997-03-26 03:00","1997","03","26","03:00","2.9","","2.0","","94","","29","","26","","16.1","","98.65","","","","","","Mostly Cloudy"
"1997-03-26 04:00","1997","03","26","04:00","2.2","","-0.6","","82","","24","","19","","16.1","","98.69","","","","","","Mostly Cloudy"
"1997-03-26 05:00","1997","03","26","05:00","2.2","","-0.9","","80","","23","","20","","16.1","","98.69","","","","","","Cloudy"
"1997-03-26 06:00","1997","03","26","06:00","1.8","","-0.8","","83","","23","","24","","24.1","","98.72","","","","","","Cloudy"
"1997-03-26 07:00","1997","03","26","07:00","1.7","","-0.8","","83","","24","","22","","24.1","","98.75","","","","","","Snow Showers"
"1997-03-26 08:00","1997","03","26","08:00","1.6","","-2.2","","76","","25","","22","","24.1","","98.82","","","","","","Snow Showers"
"1997-03-26 09:00","1997","03","26","09:00","1.6","","-2.0","","77","","25","","26","","19.3","","98.82","","","","","","Snow Showers"
"1997-03-26 10:00","1997","03","26","10:00","2.4","","-2.5","","70","","26","","30","","24.1","","98.82","","","","","","Cloudy"
"1997-03-26 11:00","1997","03","26","11:00","0.4","","-2.6","","80","","29","","22","","11.3","","98.92","","","","","","Snow Showers"
"1997-03-26 12:00","1997","03","26","12:00","0.6","","-4.1","","71","","29","","28","","32.2","","98.99","","","","","","Mostly Cloudy"
"1997-03-26 13:00","1997","03","26","13:00","2.1","","-6.0","","55","","29","","30","","32.2","","99.02","","","","","","Mostly Cloudy"
"1997-03-26 14:00","1997","03","26","14:00","2.1","","-6.2","","54","","29","","28","","32.2","","99.05","","","","","","Mostly Cloudy"
"1997-03-26 15:00","1997","03","26","15:00","2.2","","-6.4","","53","","29","","32","","32.2","","99.12","","","","","","Mostly Cloudy"
"1997-03-26 16:00","1997","03","26","16:00","2.4","","-5.8","","55","","28","","26","","32.2","","99.19","","","","","","Mostly Cloudy"
"1997-03-26 17:00","1997","03","26","17:00","2.3","","-5.9","","55","","29","","24","","32.2","","99.29","","","","","","Mostly Cloudy"
"1997-03-26 18:00","1997","03","26","18:00","1.3","","-6.0","","58","","29","","20","","32.2","","99.39","","","","","","Mostly Cloudy"
"1997-03-26 19:00","1997","03","26","19:00","1.0","","-6.1","","59","","28","","19","","32.2","","99.46","","","","","","Mainly Clear"
"1997-03-26 20:00","1997","03","26","20:00","0.7","","-5.1","","65","","25","","11","","24.1","","99.49","","","","","","Mostly Cloudy"
"1997-03-26 21:00","1997","03","26","21:00","-0.3","","-5.2","","69","","25","","11","","24.1","","99.52","","","","-4","","Mainly Clear"
"1997-03-26 22:00","1997","03","26","22:00","-0.3","","-4.7","","72","","25","","7","","24.1","","99.56","","","","-3","","Mostly Cloudy"
"1997-03-26 23:00","1997","03","26","23:00","-0.1","","-5.3","","68","","24","","9","","24.1","","99.56","","","","-3","","Cloudy"
"1997-03-27 00:00","1997","03","27","00:00","-0.4","","-5.4","","69","","23","","9","","24.1","","99.49","","","","-4","","Cloudy"
"1997-03-27 01:00","1997","03","27","01:00","0.3","","-4.4","","71","","23","","15","","24.1","","99.49","","","","","","Cloudy"
"1997-03-27 02:00","1997","03","27","02:00","0.5","","-3.7","","73","","22","","13","","24.1","","99.36","","","","","","Cloudy"
"1997-03-27 03:00","1997","03","27","03:00","0.2","","-3.8","","74","","20","","9","","24.1","","99.26","","","","","","Cloudy"
"1997-03-27 04:00","1997","03","27","04:00","0.6","","-3.3","","75","","19","","11","","24.1","","99.19","","","","","","Cloudy"
"1997-03-27 05:00","1997","03","27","05:00","0.2","","-2.4","","83","","20","","13","","2.0","","99.12","","","","","","Snow"
"1997-03-27 06:00","1997","03","27","06:00","0.9","","-1.0","","87","","20","","13","","16.1","","99.05","","","","","","Cloudy"
"1997-03-27 07:00","1997","03","27","07:00","1.2","","-0.9","","86","","21","","9","","14.5","","99.02","","","","","","Mostly Cloudy"
"1997-03-27 08:00","1997","03","27","08:00","1.7","","-0.6","","85","","22","","13","","14.5","","98.99","","","","","","Mainly Clear"
"1997-03-27 09:00","1997","03","27","09:00","2.9","","0.1","","82","","24","","11","","12.9","","99.02","","","","","","Clear"
"1997-03-27 10:00","1997","03","27","10:00","5.2","","0.5","","72","","25","","11","","19.3","","98.99","","","","","","Clear"
"1997-03-27 11:00","1997","03","27","11:00","6.5","","-0.2","","62","","28","","15","","19.3","","99.05","","","","","","Clear"
"1997-03-27 12:00","1997","03","27","12:00","7.6","","0.3","","60","","25","","11","","24.1","","99.05","","","","","","Clear"
"1997-03-27 13:00","1997","03","27","13:00","8.6","","0.3","","56","","","","0","","32.2","","99.05","","","","","","Clear"
"1997-03-27 14:00","1997","03","27","14:00","10.1","","0.5","","51","","31","","6","","32.2","","99.12","","","","","","Mainly Clear"
"1997-03-27 15:00","1997","03","27","15:00","10.1","","0.0","","49","","30","","19","","32.2","","99.15","","","","","","Mainly Clear"
"1997-03-27 16:00","1997","03","27","16:00","10.4","","-0.5","","47","","31","","17","","32.2","","99.22","","","","","","Clear"
"1997-03-27 17:00","1997","03","27","17:00","10.4","","-0.9","","45","","31","","19","","32.2","","99.36","","","","","","Mainly Clear"
"1997-03-27 18:00","1997","03","27","18:00","9.6","","-1.9","","44","","28","","13","","32.2","","99.46","","","","","","Mainly Clear"
"1997-03-27 19:00","1997","03","27","19:00","8.0","","-2.4","","48","","","","0","","32.2","","99.52","","","","","","Mainly Clear"
"1997-03-27 20:00","1997","03","27","20:00","5.0","","-2.4","","59","","","","0","","24.1","","99.66","","","","","","Mainly Clear"
"1997-03-27 21:00","1997","03","27","21:00","5.8","","-2.1","","57","","6","","7","","24.1","","99.76","","","","","","Mainly Clear"
"1997-03-27 22:00","1997","03","27","22:00","5.5","","-2.3","","57","","6","","7","","24.1","","99.82","","","","","","Mostly Cloudy"
"1997-03-27 23:00","1997","03","27","23:00","3.9","","-2.6","","63","","4","","6","","24.1","","99.93","","","","","","Mostly Cloudy"
"1997-03-28 00:00","1997","03","28","00:00","3.3","","-2.6","","65","","4","","4","","24.1","","99.99","","","","","","Mainly Clear"
"1997-03-28 01:00","1997","03","28","01:00","0.8","","-3.7","","72","","1","","11","","24.1","","100.06","","","","","","Clear"
"1997-03-28 02:00","1997","03","28","02:00","1.7","","-2.7","","73","","","","0","","24.1","","100.06","","","","","","Mainly Clear"
"1997-03-28 03:00","1997","03","28","03:00","-0.3","","-3.7","","78","","4","","7","","24.1","","100.09","","","","-3","","Mostly Cloudy"
"1997-03-28 04:00","1997","03","28","04:00","0.8","","-3.2","","75","","6","","6","","24.1","","100.13","","","","","","Mostly Cloudy"
"1997-03-28 05:00","1997","03","28","05:00","0.6","","-3.5","","74","","7","","4","","24.1","","100.13","","","","","","Mostly Cloudy"
"1997-03-28 06:00","1997","03","28","06:00","1.2","","-3.9","","69","","9","","7","","32.2","","100.16","","","","","","Mostly Cloudy"
"1997-03-28 07:00","1997","03","28","07:00","1.2","","-3.3","","72","","8","","4","","32.2","","100.23","","","","","","Mostly Cloudy"
"1997-03-28 08:00","1997","03","28","08:00","1.9","","-3.1","","69","","9","","6","","32.2","","100.23","","","","","","Mostly Cloudy"
"1997-03-28 09:00","1997","03","28","09:00","3.3","","-2.3","","67","","7","","7","","32.2","","100.23","","","","","","Mostly Cloudy"
"1997-03-28 10:00","1997","03","28","10:00","4.5","","-2.0","","63","","11","","9","","32.2","","100.19","","","","","","Mostly Cloudy"
"1997-03-28 11:00","1997","03","28","11:00","5.4","","-1.7","","60","","7","","11","","32.2","","100.06","","","","","","Mostly Cloudy"
"1997-03-28 12:00","1997","03","28","12:00","6.5","","-1.9","","55","","9","","13","","32.2","","99.99","","","","","","Mostly Cloudy"
"1997-03-28 13:00","1997","03","28","13:00","7.9","","-1.6","","51","","9","","13","","32.2","","99.82","","","","","","Mostly Cloudy"
"1997-03-28 14:00","1997","03","28","14:00","8.3","","-1.9","","49","","10","","19","","32.2","","99.72","","","","","","Mostly Cloudy"
"1997-03-28 15:00","1997","03","28","15:00","8.2","","-1.8","","49","","10","","22","","32.2","","99.59","","","","","","Mostly Cloudy"
"1997-03-28 16:00","1997","03","28","16:00","7.8","","-1.5","","52","","8","","17","","32.2","","99.52","","","","","","Cloudy"
"1997-03-28 17:00","1997","03","28","17:00","6.6","","-1.7","","55","","6","","13","","32.2","","99.49","","","","","","Cloudy"
"1997-03-28 18:00","1997","03","28","18:00","5.9","","-1.6","","59","","7","","15","","32.2","","99.46","","","","","","Cloudy"
"1997-03-28 19:00","1997","03","28","19:00","5.0","","-1.6","","62","","5","","15","","32.2","","99.42","","","","","","Mostly Cloudy"
"1997-03-28 20:00","1997","03","28","20:00","4.7","","-1.6","","64","","6","","19","","24.1","","99.36","","","","","","Cloudy"
"1997-03-28 21:00","1997","03","28","21:00","4.0","","-1.7","","66","","5","","17","","24.1","","99.36","","","","","","Cloudy"
"1997-03-28 22:00","1997","03","28","22:00","3.9","","-1.8","","66","","4","","13","","24.1","","99.29","","","","","","Cloudy"
"1997-03-28 23:00","1997","03","28","23:00","4.6","","-1.9","","63","","7","","20","","24.1","","99.22","","","","","","Cloudy"
"1997-03-29 00:00","1997","03","29","00:00","4.4","","-2.0","","63","","7","","15","","24.1","","99.19","","","","","","Cloudy"
"1997-03-29 01:00","1997","03","29","01:00","4.6","","-1.8","","63","","7","","13","","24.1","","99.12","","","","","","Cloudy"
"1997-03-29 02:00","1997","03","29","02:00","4.5","","-1.8","","64","","8","","13","","24.1","","99.02","","","","","","Cloudy"
"1997-03-29 03:00","1997","03","29","03:00","4.1","","-1.6","","66","","8","","13","","24.1","","98.95","","","","","","Cloudy"
"1997-03-29 04:00","1997","03","29","04:00","3.7","","-1.1","","71","","8","","13","","12.9","","98.92","","","","","","Rain Showers"
"1997-03-29 05:00","1997","03","29","05:00","2.7","","-0.1","","82","","7","","11","","19.3","","98.82","","","","","","Rain Showers"
"1997-03-29 06:00","1997","03","29","06:00","2.7","","0.3","","84","","6","","9","","19.3","","98.82","","","","","","Rain Showers"
"1997-03-29 07:00","1997","03","29","07:00","3.3","","0.1","","80","","7","","9","","24.1","","98.75","","","","","","Cloudy"
"1997-03-29 08:00","1997","03","29","08:00","4.2","","0.6","","77","","8","","11","","24.1","","98.65","","","","","","Mostly Cloudy"
"1997-03-29 09:00","1997","03","29","09:00","5.8","","0.9","","71","","8","","13","","24.1","","98.65","","","","","","Mostly Cloudy"
"1997-03-29 10:00","1997","03","29","10:00","8.5","","2.8","","67","","7","","11","","24.1","","98.62","","","","","","Mostly Cloudy"
"1997-03-29 11:00","1997","03","29","11:00","9.2","","2.6","","63","","8","","11","","24.1","","98.62","","","","","","Cloudy"
"1997-03-29 12:00","1997","03","29","12:00","8.9","","3.2","","67","","11","","6","","19.3","","98.59","","","","","","Rain Showers"
"1997-03-29 13:00","1997","03","29","13:00","7.7","","4.1","","78","","9","","6","","12.9","","98.55","","","","","","Rain"
"1997-03-29 14:00","1997","03","29","14:00","7.0","","4.5","","84","","10","","4","","6.4","","98.55","","","","","","Rain,Fog"
"1997-03-29 15:00","1997","03","29","15:00","5.3","","3.6","","89","","7","","7","","4.0","","98.55","","","","","","Rain,Fog"
"1997-03-29 16:00","1997","03","29","16:00","5.0","","3.9","","93","","5","","11","","4.8","","98.55","","","","","","Rain,Fog"
"1997-03-29 17:00","1997","03","29","17:00","4.9","","4.4","","97","","5","","6","","3.2","","98.59","","","","","","Fog"
"1997-03-29 18:00","1997","03","29","18:00","4.4","","4.3","","99","","3","","4","","1.0","","98.65","","","","","","Drizzle,Fog"
"1997-03-29 19:00","1997","03","29","19:00","4.4","","3.9","","97","","33","","11","","0.6","","98.75","","","","","","Drizzle,Fog"
"1997-03-29 20:00","1997","03","29","20:00","4.5","","4.4","","99","","33","","6","","0.6","","98.79","","","","","","Drizzle,Fog"
"1997-03-29 21:00","1997","03","29","21:00","4.2","","4.2","","100","","31","","13","","0.4","","98.82","","","","","","Drizzle,Fog"
"1997-03-29 22:00","1997","03","29","22:00","3.8","","3.8","","100","","30","","13","","0.6","","98.92","","","","","","Fog"
"1997-03-29 23:00","1997","03","29","23:00","4.2","","4.1","","99","","31","","13","","9.7","","98.92","","","","","","Fog"
"1997-03-30 00:00","1997","03","30","00:00","3.8","","3.5","","98","","31","","15","","12.9","","99.02","","","","","","Cloudy"
"1997-03-30 01:00","1997","03","30","01:00","3.5","","3.1","","97","","31","","17","","16.1","","99.09","","","","","","Cloudy"
"1997-03-30 02:00","1997","03","30","02:00","3.2","","2.1","","92","","33","","20","","19.3","","99.09","","","","","","Cloudy"
"1997-03-30 03:00","1997","03","30","03:00","3.1","","1.6","","90","","32","","15","","24.1","","99.19","","","","","","Mostly Cloudy"
"1997-03-30 04:00","1997","03","30","04:00","3.0","","1.3","","89","","31","","20","","24.1","","99.29","","","","","","Mostly Cloudy"
"1997-03-30 05:00","1997","03","30","05:00","2.8","","0.9","","87","","30","","15","","24.1","","99.39","","","","","","Cloudy"
"1997-03-30 06:00","1997","03","30","06:00","1.5","","-0.1","","89","","30","","19","","24.1","","99.49","","","","","","Cloudy"
"1997-03-30 07:00","1997","03","30","07:00","1.3","","-0.2","","90","","30","","13","","32.2","","99.46","","","","","","Cloudy"
"1997-03-30 08:00","1997","03","30","08:00","0.7","","-1.0","","88","","30","","19","","24.1","","99.52","","","","","","Cloudy"
"1997-03-30 09:00","1997","03","30","09:00","0.3","","-1.7","","86","","30","","19","","32.2","","99.56","","","","","","Cloudy"
"1997-03-30 10:00","1997","03","30","10:00","0.0","","-2.4","","84","","29","","17","","32.2","","99.59","","","","-5","","Cloudy"
"1997-03-30 11:00","1997","03","30","11:00","-0.1","","-2.9","","81","","29","","19","","32.2","","99.62","","","","-5","","Cloudy"
"1997-03-30 12:00","1997","03","30","12:00","0.2","","-2.8","","80","","29","","13","","32.2","","99.62","","","","","","Cloudy"
"1997-03-30 13:00","1997","03","30","13:00","0.6","","-2.6","","79","","30","","15","","32.2","","99.59","","","","","","Cloudy"
"1997-03-30 14:00","1997","03","30","14:00","0.7","","-2.8","","77","","28","","13","","32.2","","99.59","","","","","","Cloudy"
"1997-03-30 15:00","1997","03","30","15:00","0.5","","-3.4","","75","","29","","13","","32.2","","99.56","","","","","","Cloudy"
"1997-03-30 16:00","1997","03","30","16:00","-0.1","","-4.4","","73","","28","","17","","32.2","","99.56","","","","-5","","Cloudy"
"1997-03-30 17:00","1997","03","30","17:00","-0.2","","-4.8","","71","","28","","13","","32.2","","99.56","","","","-4","","Cloudy"
"1997-03-30 18:00","1997","03","30","18:00","-0.6","","-4.4","","75","","31","","15","","4.0","","99.56","","","","-5","","Snow"
"1997-03-30 19:00","1997","03","30","19:00","-1.3","","-3.8","","83","","33","","13","","4.0","","99.56","","","","-6","","Snow"
"1997-03-30 20:00","1997","03","30","20:00","-1.7","","-3.5","","87","","32","","9","","6.4","","99.59","","","","-5","","Snow"
"1997-03-30 21:00","1997","03","30","21:00","-1.7","","-3.5","","87","","33","","9","","16.1","","99.52","","","","-5","","Snow"
"1997-03-30 22:00","1997","03","30","22:00","-1.8","","-3.4","","89","","32","","9","","16.1","","99.52","","","","-5","","Snow"
"1997-03-30 23:00","1997","03","30","23:00","-1.9","","-3.4","","89","","32","","9","","4.8","","99.52","","","","-5","","Snow"
"1997-03-31 00:00","1997","03","31","00:00","-2.0","","-3.5","","89","","34","","11","","4.8","","99.49","","","","-6","","Snow"
"1997-03-31 01:00","1997","03","31","01:00","-2.0","","-3.3","","91","","34","","9","","4.8","","99.42","","","","-5","","Snow"
"1997-03-31 02:00","1997","03","31","02:00","-1.9","","-3.0","","92","","36","","7","","4.8","","99.42","","","","-5","","Snow"
"1997-03-31 03:00","1997","03","31","03:00","-1.9","","-3.1","","91","","36","","11","","6.4","","99.36","","","","-6","","Snow"
"1997-03-31 04:00","1997","03","31","04:00","-1.8","","-2.7","","94","","1","","7","","4.8","","99.32","","","","-4","","Snow"
"1997-03-31 05:00","1997","03","31","05:00","-1.9","","-2.7","","94","","36","","9","","4.8","","99.39","","","","-5","","Snow"
"1997-03-31 06:00","1997","03","31","06:00","-1.8","","-2.7","","94","","36","","9","","0.8","","99.46","","","","-5","","Moderate Snow"
"1997-03-31 07:00","1997","03","31","07:00","-2.0","","-3.0","","93","","36","","11","","1.0","","99.49","","","","-6","","Snow"
"1997-03-31 08:00","1997","03","31","08:00","-2.1","","-3.1","","93","","36","","17","","2.4","","99.56","","","","-7","","Snow"
"1997-03-31 09:00","1997","03","31","09:00","-2.4","","-3.6","","91","","36","","19","","4.0","","99.59","","","","-8","","Snow"
"1997-03-31 10:00","1997","03","31","10:00","-2.7","","-4.2","","89","","36","","15","","2.4","","99.59","","","","-8","","Snow"
"1997-03-31 11:00","1997","03","31","11:00","-2.7","","-4.4","","88","","36","","22","","2.0","","99.59","","","","-9","","Snow"
"1997-03-31 12:00","1997","03","31","12:00","-2.3","","-4.1","","87","","35","","20","","2.0","","99.62","","","","-8","","Snow"
"1997-03-31 13:00","1997","03","31","13:00","-1.8","","-3.6","","87","","35","","19","","3.2","","99.66","","","","-7","","Snow"
"1997-03-31 14:00","1997","03","31","14:00","-1.4","","-3.8","","84","","36","","22","","4.8","","99.69","","","","-7","","Snow"
"1997-03-31 15:00","1997","03","31","15:00","-1.2","","-3.5","","84","","36","","20","","2.8","","99.76","","","","-7","","Snow"
"1997-03-31 16:00","1997","03","31","16:00","-0.6","","-2.5","","87","","36","","20","","4.8","","99.76","","","","-6","","Snow"
"1997-03-31 17:00","1997","03","31","17:00","0.2","","-2.1","","84","","1","","11","","32.2","","99.79","","","","","","Mostly Cloudy"
"1997-03-31 18:00","1997","03","31","18:00","1.2","","-4.0","","68","","2","","20","","40.2","","99.89","","","","","","Mostly Cloudy"
"1997-03-31 19:00","1997","03","31","19:00","1.2","","-4.2","","67","","2","","17","","40.2","","99.99","","","","","","Mostly Cloudy"
"1997-03-31 20:00","1997","03","31","20:00","0.6","","-4.6","","68","","1","","11","","25.0","","100.06","","","","","","Mainly Clear"
"1997-03-31 21:00","1997","03","31","21:00","0.9","","-4.6","","67","","36","","15","","25.0","","100.09","","","","","","Clear"
"1997-03-31 22:00","1997","03","31","22:00","0.5","","-6.0","","62","","36","","15","","25.0","","100.09","","","","","","Clear"
"1997-03-31 23:00","1997","03","31","23:00","0.6","","-10.9","","42","","2","","19","","25.0","","100.16","","","","","","Clear"
