"Station Name","OTTAWA INTL A"
"Province","ONTARIO"
"Latitude","45.32"
"Longitude","-75.67"
"Elevation","114.90"
"Climate Identifier","6106001"
"WMO Identifier","71628"
"TC Identifier","YOW"
"All times are specified in Local Standard Time (LST). Add 1 hour to adjust for Daylight Saving Time where and when it is observed."

"Legend"
"E","Estimated"
"M","Missing"
"NA","Not Available"

"Date/Time","Year","Month","Day","Time","Temp (°C)","Temp Flag","Dew Point Temp (°C)","Dew Point Temp Flag","Rel Hum (%)","Rel Hum Flag","Wind Dir (10s deg)","Wind Dir Flag","Wind Spd (km/h)","Wind Spd Flag","Visibility (km)","Visibility Flag","Stn Press (kPa)","Stn Press Flag","Hmdx","Hmdx Flag","Wind Chill","Wind Chill Flag","Weather"
"2014-01-01 00:00","2014","01","01","00:00","-23.2","","-25.9","","79","","24","","8","","24.1","","100.64","","","","-30","","NA"
"2014-01-01 01:00","2014","01","01","01:00","-21.0","","-23.2","","83","","26","","5","","24.1","","100.70","","","","-25","","Mostly Cloudy"
"2014-01-01 02:00","2014","01","01","02:00","-20.1","","-22.4","","82","","30","","9","","24.1","","100.78","","","","-27","","NA"
"2014-01-01 03:00","2014","01","01","03:00","-22.9","","-25.7","","78","","25","","9","","12.9","","100.91","","","","-30","","Snow"
"2014-01-01 04:00","2014","01","01","04:00","-21.1","","-23.6","","81","","30","","13","","24.1","","100.96","","","","-30","","Ice Crystals"
"2014-01-01 05:00","2014","01","01","05:00","-24.5","","-27.3","","78","","27","","11","","24.1","","101.04","","","","-33","","NA"
"2014-01-01 06:00","2014","01","01","06:00","-22.2","","-24.8","","80","","27","","14","","24.1","","101.12","","","","-31","","NA"
"2014-01-01 07:00","2014","01","01","07:00","-20.0","","-22.5","","81","","28","","17","","24.1","","101.22","","","","-30","","Clear"
"2014-01-01 08:00","2014","01","01","08:00","-21.6","","-24.0","","81","","30","","17","","24.1","","101.29","","","","-32","","NA"
"2014-01-01 09:00","2014","01","01","09:00","-21.4","","-23.8","","81","","30","","15","","24.1","","101.43","","","","-31","","NA"
"2014-01-01 10:00","2014","01","01","10:00","-20.3","","-22.9","","80","","27","","14","","24.1","","101.58","","","","-29","","Mainly Clear"
"2014-01-01 11:00","2014","01","01","11:00","-20.2","","-23.0","","79","","28","","20","","24.1","","101.62","","","","-31","","NA"
"2014-01-01 12:00","2014","01","01","12:00","-20.4","","-23.8","","75","","30","","23","","24.1","","101.65","","","","-32","","NA"
"2014-01-01 13:00","2014","01","01","13:00","-20.2","","-24.2","","71","","30","","21","","24.1","","101.62","","","","-31","","Mainly Clear"
"2014-01-01 14:00","2014","01","01","14:00","-20.0","","-25.5","","62","","29","","18","","24.1","","101.67","","","","-30","","NA"
"2014-01-01 15:00","2014","01","01","15:00","-20.0","","-26.3","","58","","28","","19","","24.1","","101.69","","","","-30","","NA"
"2014-01-01 16:00","2014","01","01","16:00","-20.9","","-28.2","","53","","28","","18","","24.1","","101.74","","","","-31","","Mostly Cloudy"
"2014-01-01 17:00","2014","01","01","17:00","-21.9","","-28.3","","57","","30","","15","","24.1","","101.77","","","","-31","","NA"
"2014-01-01 18:00","2014","01","01","18:00","-22.2","","-27.8","","61","","34","","14","","24.1","","101.81","","","","-31","","NA"
"2014-01-01 19:00","2014","01","01","19:00","-22.5","","-28.9","","57","","36","","19","","24.1","","101.84","","","","-33","","Clear"
"2014-01-01 20:00","2014","01","01","20:00","-23.4","","-29.3","","59","","36","","13","","24.1","","101.89","","","","-33","","NA"
"2014-01-01 21:00","2014","01","01","21:00","-24.6","","-29.9","","62","","3","","13","","24.1","","101.90","","","","-34","","NA"
"2014-01-01 22:00","2014","01","01","22:00","-25.1","","-29.9","","65","","5","","9","","24.1","","101.90","","","","-33","","Mainly Clear"
"2014-01-01 23:00","2014","01","01","23:00","-25.0","","-30.3","","62","","4","","15","","24.1","","101.92","","","","-35","","NA"
"2014-01-02 00:00","2014","01","02","00:00","-25.2","","-30.2","","64","","6","","10","","24.1","","101.92","","","","-33","","NA"
"2014-01-02 01:00","2014","01","02","01:00","-25.9","","-30.5","","66","","4","","13","","24.1","","101.85","","","","-36","","Mostly Cloudy"
"2014-01-02 02:00","2014","01","02","02:00","-25.6","","-30.9","","62","","3","","18","","24.1","","101.84","","","","-37","","NA"
"2014-01-02 03:00","2014","01","02","03:00","-26.7","","-31.3","","66","","5","","13","","24.1","","101.85","","","","-37","","NA"
"2014-01-02 04:00","2014","01","02","04:00","-26.5","","-31.1","","66","","4","","18","","24.1","","101.75","","","","-38","","Cloudy"
"2014-01-02 05:00","2014","01","02","05:00","-26.7","","-31.8","","63","","4","","21","","24.1","","101.73","","","","-39","","NA"
"2014-01-02 06:00","2014","01","02","06:00","-26.9","","-32.0","","63","","5","","21","","24.1","","101.72","","","","-39","","NA"
"2014-01-02 07:00","2014","01","02","07:00","-27.1","","-32.2","","63","","5","","18","","24.1","","101.73","","","","-39","","Cloudy"
"2014-01-02 08:00","2014","01","02","08:00","-27.3","","-32.7","","61","","6","","19","","24.1","","101.71","","","","-39","","NA"
"2014-01-02 09:00","2014","01","02","09:00","-27.1","","-33.1","","58","","6","","23","","24.1","","101.69","","","","-40","","NA"
"2014-01-02 10:00","2014","01","02","10:00","-26.8","","-33.1","","56","","5","","24","","24.1","","101.66","","","","-40","","Cloudy"
"2014-01-02 11:00","2014","01","02","11:00","-26.3","","-34.1","","49","","6","","28","","24.1","","101.56","","","","-40","","NA"
"2014-01-02 12:00","2014","01","02","12:00","-25.6","","-32.6","","53","","4","","19","","24.1","","101.42","","","","-37","","NA"
"2014-01-02 13:00","2014","01","02","13:00","-25.1","","-31.7","","55","","3","","22","","24.1","","101.33","","","","-37","","Cloudy"
"2014-01-02 14:00","2014","01","02","14:00","-24.3","","-31.8","","51","","3","","23","","24.1","","101.23","","","","-37","","NA"
"2014-01-02 15:00","2014","01","02","15:00","-23.7","","-30.6","","54","","2","","17","","24.1","","101.11","","","","-34","","NA"
"2014-01-02 16:00","2014","01","02","16:00","-23.1","","-30.0","","54","","3","","15","","24.1","","101.09","","","","-33","","Cloudy"
"2014-01-02 17:00","2014","01","02","17:00","-22.8","","-29.5","","55","","5","","12","","24.1","","101.05","","","","-31","","NA"
"2014-01-02 18:00","2014","01","02","18:00","-22.1","","-28.1","","59","","3","","13","","24.1","","100.96","","","","-31","","NA"
"2014-01-02 19:00","2014","01","02","19:00","-21.9","","-27.5","","61","","4","","22","","11.3","","100.95","","","","-33","","Snow"
"2014-01-02 20:00","2014","01","02","20:00","-22.1","","-26.7","","67","","5","","17","","6.4","","100.94","","","","-32","","Snow"
"2014-01-02 21:00","2014","01","02","21:00","-22.3","","-25.9","","73","","5","","12","","4.8","","100.88","","","","-31","","Snow"
"2014-01-02 22:00","2014","01","02","22:00","-22.9","","-26.0","","76","","8","","8","","6.4","","100.84","","","","-30","","Snow"
"2014-01-02 23:00","2014","01","02","23:00","-23.0","","-26.1","","76","","5","","9","","6.4","","100.83","","","","-30","","Snow"
"2014-01-03 00:00","2014","01","03","00:00","-22.8","","-26.7","","71","","35","","18","","9.7","","100.78","","","","-33","","Snow"
"2014-01-03 01:00","2014","01","03","01:00","-23.0","","-27.4","","68","","34","","18","","24.1","","100.74","","","","-34","","Snow"
"2014-01-03 02:00","2014","01","03","02:00","-23.3","","-28.0","","66","","35","","17","","24.1","","100.75","","","","-34","","NA"
"2014-01-03 03:00","2014","01","03","03:00","-23.5","","-28.2","","66","","34","","16","","24.1","","100.76","","","","-34","","NA"
"2014-01-03 04:00","2014","01","03","04:00","-24.2","","-28.4","","69","","33","","21","","24.1","","100.75","","","","-36","","Mostly Cloudy"
"2014-01-03 05:00","2014","01","03","05:00","-24.8","","-29.3","","67","","33","","18","","24.1","","100.81","","","","-36","","NA"
"2014-01-03 06:00","2014","01","03","06:00","-25.9","","-30.5","","66","","33","","21","","24.1","","100.92","","","","-38","","NA"
"2014-01-03 07:00","2014","01","03","07:00","-26.8","","-31.4","","66","","33","","19","","24.1","","100.99","","","","-39","","Mainly Clear"
"2014-01-03 08:00","2014","01","03","08:00","-27.0","","-31.7","","65","","33","","17","","24.1","","101.08","","","","-38","","NA"
"2014-01-03 09:00","2014","01","03","09:00","-27.3","","-31.4","","69","","31","","13","","24.1","","101.13","","","","-37","","NA"
"2014-01-03 10:00","2014","01","03","10:00","-25.9","","-31.2","","62","","28","","17","","24.1","","101.23","","","","-37","","Clear"
"2014-01-03 11:00","2014","01","03","11:00","-25.3","","-31.2","","59","","30","","13","","24.1","","101.22","","","","-35","","NA"
"2014-01-03 12:00","2014","01","03","12:00","-24.3","","-31.2","","54","","29","","18","","24.1","","101.23","","","","-35","","NA"
"2014-01-03 13:00","2014","01","03","13:00","-23.1","","-30.4","","52","","29","","18","","24.1","","101.28","","","","-34","","Mainly Clear"
"2014-01-03 14:00","2014","01","03","14:00","-22.6","","-30.4","","50","","25","","16","","24.1","","101.30","","","","-33","","NA"
"2014-01-03 15:00","2014","01","03","15:00","-22.6","","-30.4","","50","","25","","18","","24.1","","101.34","","","","-33","","NA"
"2014-01-03 16:00","2014","01","03","16:00","-22.5","","-30.3","","50","","26","","16","","24.1","","101.45","","","","-32","","Clear"
"2014-01-03 17:00","2014","01","03","17:00","-23.4","","-30.5","","53","","28","","9","","24.1","","101.47","","","","-31","","NA"
"2014-01-03 18:00","2014","01","03","18:00","-25.0","","-30.9","","59","","28","","15","","24.1","","101.49","","","","-35","","NA"
"2014-01-03 19:00","2014","01","03","19:00","-25.1","","-31.3","","57","","21","","5","","24.1","","101.52","","","","-30","","Mainly Clear"
"2014-01-03 20:00","2014","01","03","20:00","-25.5","","-31.0","","61","","17","","8","","24.1","","101.52","","","","-33","","NA"
"2014-01-03 21:00","2014","01","03","21:00","-24.6","","-31.1","","56","","16","","10","","24.1","","101.44","","","","-33","","NA"
"2014-01-03 22:00","2014","01","03","22:00","-25.0","","-30.3","","62","","17","","10","","24.1","","101.38","","","","-33","","Mainly Clear"
"2014-01-03 23:00","2014","01","03","23:00","-24.5","","-29.0","","67","","16","","10","","24.1","","101.30","","","","-33","","NA"
"2014-01-04 00:00","2014","01","04","00:00","-24.5","","-28.7","","69","","16","","8","","24.1","","101.32","","","","-32","","NA"
"2014-01-04 01:00","2014","01","04","01:00","-24.8","","-28.6","","71","","9","","6","","24.1","","101.24","","","","-31","","Mainly Clear"
"2014-01-04 02:00","2014","01","04","02:00","-24.7","","-28.4","","72","","9","","8","","24.1","","101.22","","","","-32","","NA"
"2014-01-04 03:00","2014","01","04","03:00","-25.5","","-29.0","","73","","5","","13","","24.1","","101.22","","","","-35","","NA"
"2014-01-04 04:00","2014","01","04","04:00","-24.4","","-27.8","","74","","7","","12","","24.1","","101.12","","","","-33","","Cloudy"
"2014-01-04 05:00","2014","01","04","05:00","-23.4","","-26.8","","74","","9","","13","","24.1","","101.01","","","","-33","","NA"
"2014-01-04 06:00","2014","01","04","06:00","-22.9","","-26.2","","75","","7","","13","","24.1","","100.94","","","","-32","","NA"
"2014-01-04 07:00","2014","01","04","07:00","-21.4","","-24.9","","74","","7","","14","","24.1","","100.86","","","","-30","","Cloudy"
"2014-01-04 08:00","2014","01","04","08:00","-20.0","","-23.7","","73","","10","","19","","24.1","","100.77","","","","-30","","NA"
"2014-01-04 09:00","2014","01","04","09:00","-19.1","","-23.0","","72","","9","","13","","24.1","","100.71","","","","-27","","NA"
"2014-01-04 10:00","2014","01","04","10:00","-14.0","","-19.8","","62","","12","","15","","24.1","","100.52","","","","-22","","Cloudy"
"2014-01-04 11:00","2014","01","04","11:00","-10.1","","-18.4","","51","","18","","22","","24.1","","100.36","","","","-18","","NA"
"2014-01-04 12:00","2014","01","04","12:00","-8.7","","-17.6","","49","","17","","14","","24.1","","100.19","","","","-15","","NA"
"2014-01-04 13:00","2014","01","04","13:00","-7.7","","-17.4","","46","","17","","13","","24.1","","100.12","","","","-13","","Mostly Cloudy"
"2014-01-04 14:00","2014","01","04","14:00","-4.8","","-14.8","","46","","19","","21","","24.1","","100.08","","","","-11","","NA"
"2014-01-04 15:00","2014","01","04","15:00","-3.6","","-13.4","","47","","19","","16","","24.1","","100.08","","","","-9","","NA"
"2014-01-04 16:00","2014","01","04","16:00","-3.4","","-12.9","","48","","19","","22","","24.1","","100.10","","","","-10","","Mostly Cloudy"
"2014-01-04 17:00","2014","01","04","17:00","-3.4","","-12.7","","49","","19","","17","","24.1","","100.11","","","","-9","","NA"
"2014-01-04 18:00","2014","01","04","18:00","-2.9","","-12.5","","48","","19","","22","","24.1","","100.11","","","","-9","","NA"
"2014-01-04 19:00","2014","01","04","19:00","-2.6","","-11.4","","51","","20","","18","","19.3","","100.18","","","","-8","","Snow"
"2014-01-04 20:00","2014","01","04","20:00","-2.8","","-10.0","","58","","21","","15","","19.3","","100.23","","","","-8","","Snow"
"2014-01-04 21:00","2014","01","04","21:00","-3.7","","-7.5","","75","","22","","10","","2.8","","100.24","","","","-8","","Snow"
"2014-01-04 22:00","2014","01","04","22:00","-9.7","","-11.9","","84","","4","","11","","16.1","","100.30","","","","-15","","Snow"
"2014-01-04 23:00","2014","01","04","23:00","-9.8","","-12.2","","83","","4","","12","","16.1","","100.31","","","","-16","","Snow"
"2014-01-05 00:00","2014","01","05","00:00","-9.5","","-12.2","","81","","5","","10","","16.1","","100.35","","","","-15","","Snow"
"2014-01-05 01:00","2014","01","05","01:00","-9.0","","-12.0","","79","","5","","6","","19.3","","100.42","","","","-12","","Snow"
"2014-01-05 02:00","2014","01","05","02:00","-9.4","","-11.6","","84","","12","","8","","9.7","","100.49","","","","-14","","Snow"
"2014-01-05 03:00","2014","01","05","03:00","-9.2","","-11.1","","86","","4","","9","","2.8","","100.54","","","","-14","","Snow"
"2014-01-05 04:00","2014","01","05","04:00","-8.2","","-10.0","","87","","6","","5","","4.0","","100.55","","","","-11","","Snow"
"2014-01-05 05:00","2014","01","05","05:00","-8.7","","-10.2","","89","","5","","9","","2.0","","100.54","","","","-13","","Snow"
"2014-01-05 06:00","2014","01","05","06:00","-8.8","","-10.2","","90","","5","","12","","2.4","","100.54","","","","-14","","Snow"
"2014-01-05 07:00","2014","01","05","07:00","-8.4","","-9.8","","90","","6","","9","","2.8","","100.60","","","","-13","","Snow"
"2014-01-05 08:00","2014","01","05","08:00","-7.9","","-9.3","","90","","2","","9","","4.8","","100.64","","","","-12","","Snow"
"2014-01-05 09:00","2014","01","05","09:00","-8.0","","-9.5","","89","","5","","10","","3.2","","100.73","","","","-13","","Snow"
"2014-01-05 10:00","2014","01","05","10:00","-6.6","","-8.3","","88","","7","","7","","8.1","","100.74","","","","-10","","Snow"
"2014-01-05 11:00","2014","01","05","11:00","-5.6","","-7.1","","89","","9","","5","","2.4","","100.74","","","","-8","","Snow"
"2014-01-05 12:00","2014","01","05","12:00","-4.4","","-5.7","","91","","7","","5","","2.4","","100.67","","","","-7","","Snow"
"2014-01-05 13:00","2014","01","05","13:00","-5.0","","-6.5","","89","","4","","12","","8.1","","100.63","","","","-10","","Snow"
"2014-01-05 14:00","2014","01","05","14:00","-5.1","","-6.5","","90","","5","","13","","9.7","","100.58","","","","-10","","Snow"
"2014-01-05 15:00","2014","01","05","15:00","-5.0","","-6.4","","90","","6","","15","","9.7","","100.50","","","","-11","","Snow,Fog"
"2014-01-05 16:00","2014","01","05","16:00","-5.4","","-6.6","","91","","7","","15","","9.7","","100.41","","","","-11","","Fog"
"2014-01-05 17:00","2014","01","05","17:00","-5.4","","-6.6","","91","","7","","17","","9.7","","100.33","","","","-11","","Snow,Fog"
"2014-01-05 18:00","2014","01","05","18:00","-5.1","","-6.4","","91","","6","","16","","9.7","","100.22","","","","-11","","Snow,Fog"
"2014-01-05 19:00","2014","01","05","19:00","-5.0","","-6.4","","90","","5","","16","","11.3","","100.14","","","","-11","","Cloudy"
"2014-01-05 20:00","2014","01","05","20:00","-5.0","","-7.0","","86","","5","","32","","16.1","","99.81","","","","-13","","Snow,Blowing Snow"
"2014-01-05 21:00","2014","01","05","21:00","-5.2","","-8.0","","81","","6","","33","","19.3","","99.46","","","","-14","","Blowing Snow"
"2014-01-05 22:00","2014","01","05","22:00","-3.7","","-5.4","","88","","8","","35","","9.7","","99.21","","","","-12","","Freezing Rain,Ice Pellets"
"2014-01-05 23:00","2014","01","05","23:00","-2.8","","-3.6","","94","","9","","30","","4.8","","98.96","","","","-10","","Freezing Rain,Fog"
"2014-01-06 00:00","2014","01","06","00:00","-1.8","","-2.5","","95","","7","","21","","4.8","","98.69","","","","-8","","Freezing Rain,Fog"
"2014-01-06 01:00","2014","01","06","01:00","-0.8","","-1.4","","96","","7","","21","","4.8","","","M","","","-6","","Freezing Rain,Fog"
"2014-01-06 02:00","2014","01","06","02:00","-0.4","","-1.0","","96","","3","","17","","3.2","","98.31","","","","-5","","Freezing Rain,Fog"
"2014-01-06 03:00","2014","01","06","03:00","-0.2","","-0.6","","97","","8","","20","","4.0","","98.08","","","","-5","","Freezing Rain,Fog"
"2014-01-06 04:00","2014","01","06","04:00","0.3","","-0.1","","97","","8","","20","","3.2","","97.81","","","","","","Rain,Fog"
"2014-01-06 05:00","2014","01","06","05:00","0.6","","0.3","","98","","10","","20","","2.4","","97.58","","","","","","Rain,Fog"
"2014-01-06 06:00","2014","01","06","06:00","2.1","","1.8","","98","","14","","22","","2.4","","97.43","","","","","","Rain,Fog"
"2014-01-06 07:00","2014","01","06","07:00","4.2","","3.9","","98","","18","","14","","9.7","","97.35","","","","","","Rain,Fog"
"2014-01-06 08:00","2014","01","06","08:00","5.7","","3.6","","86","","19","","29","","16.1","","97.33","","","","","","Rain"
"2014-01-06 09:00","2014","01","06","09:00","3.8","","0.9","","81","","20","","43","","24.1","","97.46","","","","","","NA"
"2014-01-06 10:00","2014","01","06","10:00","2.2","","-1.4","","77","","22","","51","","24.1","","97.70","","","","","","Cloudy"
"2014-01-06 11:00","2014","01","06","11:00","-2.6","","-5.3","","82","","28","","30","","16.1","","97.91","","","","-10","","Snow"
"2014-01-06 12:00","2014","01","06","12:00","-5.2","","-8.3","","79","","28","","27","","24.1","","98.03","","","","-13","","Snow"
"2014-01-06 13:00","2014","01","06","13:00","-5.7","","-9.1","","77","","27","","32","","6.4","","98.11","","","","-14","","Snow"
"2014-01-06 14:00","2014","01","06","14:00","-6.2","","-9.9","","75","","29","","24","","8.1","","98.25","","","","-14","","Snow"
"2014-01-06 15:00","2014","01","06","15:00","-7.6","","-11.1","","76","","28","","27","","9.7","","98.39","","","","-16","","Snow"
"2014-01-06 16:00","2014","01","06","16:00","-8.4","","-11.9","","76","","28","","25","","24.1","","98.47","","","","-17","","Snow"
"2014-01-06 17:00","2014","01","06","17:00","-8.7","","-12.5","","74","","29","","28","","16.1","","98.54","","","","-18","","Snow"
"2014-01-06 18:00","2014","01","06","18:00","-9.2","","-13.0","","74","","29","","20","","16.1","","98.58","","","","-17","","Snow"
"2014-01-06 19:00","2014","01","06","19:00","-10.4","","-13.4","","79","","30","","21","","4.8","","98.65","","","","-19","","Snow"
"2014-01-06 20:00","2014","01","06","20:00","-11.1","","-14.7","","75","","31","","19","","16.1","","98.66","","","","-19","","NA"
"2014-01-06 21:00","2014","01","06","21:00","-12.0","","-16.1","","72","","28","","14","","19.3","","98.65","","","","-19","","NA"
"2014-01-06 22:00","2014","01","06","22:00","-12.7","","-16.3","","75","","28","","14","","19.3","","98.64","","","","-20","","Cloudy"
"2014-01-06 23:00","2014","01","06","23:00","-13.5","","-16.7","","77","","26","","12","","19.3","","98.66","","","","-20","","Snow"
"2014-01-07 00:00","2014","01","07","00:00","-14.1","","-17.3","","77","","27","","20","","16.1","","98.69","","","","-23","","Snow"
"2014-01-07 01:00","2014","01","07","01:00","-14.8","","-18.3","","75","","28","","26","","19.3","","98.78","","","","-25","","Mostly Cloudy"
"2014-01-07 02:00","2014","01","07","02:00","-15.6","","-18.8","","77","","27","","17","","19.3","","98.87","","","","-24","","NA"
"2014-01-07 03:00","2014","01","07","03:00","-16.3","","-20.6","","70","","28","","26","","24.1","","98.93","","","","-27","","NA"
"2014-01-07 04:00","2014","01","07","04:00","-17.2","","-22.1","","66","","28","","29","","24.1","","99.04","","","","-29","","Mainly Clear"
"2014-01-07 05:00","2014","01","07","05:00","-17.7","","-23.7","","60","","27","","30","","24.1","","99.14","","","","-30","","NA"
"2014-01-07 06:00","2014","01","07","06:00","-17.6","","-23.8","","59","","27","","24","","24.1","","99.23","","","","-28","","NA"
"2014-01-07 07:00","2014","01","07","07:00","-16.8","","-21.2","","69","","25","","35","","24.1","","99.31","","","","-29","","Cloudy"
"2014-01-07 08:00","2014","01","07","08:00","-16.5","","-19.8","","76","","24","","27","","2.4","","99.38","","","","-27","","Snow,Fog"
"2014-01-07 09:00","2014","01","07","09:00","-16.1","","-21.3","","65","","24","","33","","9.7","","99.44","","","","-28","","Snow,Fog"
"2014-01-07 10:00","2014","01","07","10:00","-16.3","","-22.6","","59","","23","","36","","24.1","","99.52","","","","-29","","Mainly Clear"
"2014-01-07 11:00","2014","01","07","11:00","-16.0","","-23.1","","55","","24","","32","","24.1","","99.53","","","","-28","","NA"
"2014-01-07 12:00","2014","01","07","12:00","-16.3","","-23.8","","53","","23","","33","","24.1","","99.51","","","","-28","","NA"
"2014-01-07 13:00","2014","01","07","13:00","-15.8","","-23.6","","52","","23","","34","","24.1","","99.51","","","","-28","","Mostly Cloudy"
"2014-01-07 14:00","2014","01","07","14:00","-15.4","","-23.2","","52","","22","","30","","24.1","","99.53","","","","-27","","NA"
"2014-01-07 15:00","2014","01","07","15:00","-15.1","","-23.4","","50","","22","","36","","24.1","","99.59","","","","-27","","NA"
"2014-01-07 16:00","2014","01","07","16:00","-15.3","","-23.3","","51","","22","","29","","24.1","","99.67","","","","-26","","Clear"
"2014-01-07 17:00","2014","01","07","17:00","-16.2","","-23.7","","53","","22","","31","","24.1","","99.71","","","","-28","","NA"
"2014-01-07 18:00","2014","01","07","18:00","-16.3","","-23.6","","54","","22","","40","","24.1","","99.77","","","","-29","","NA"
"2014-01-07 19:00","2014","01","07","19:00","-16.5","","-23.0","","58","","22","","39","","24.1","","99.82","","","","-29","","Mainly Clear"
"2014-01-07 20:00","2014","01","07","20:00","-16.5","","-22.8","","59","","23","","37","","24.1","","99.93","","","","-29","","NA"
"2014-01-07 21:00","2014","01","07","21:00","-16.2","","-22.3","","60","","23","","35","","24.1","","100.08","","","","-28","","NA"
"2014-01-07 22:00","2014","01","07","22:00","-16.4","","-21.9","","63","","23","","30","","24.1","","100.19","","","","-28","","Clear"
"2014-01-07 23:00","2014","01","07","23:00","-16.4","","-21.7","","64","","23","","33","","24.1","","100.29","","","","-28","","NA"
"2014-01-08 00:00","2014","01","08","00:00","-16.3","","-21.5","","65","","23","","35","","24.1","","100.33","","","","-29","","NA"
"2014-01-08 01:00","2014","01","08","01:00","-16.1","","-21.4","","64","","22","","30","","24.1","","100.40","","","","-27","","Clear"
"2014-01-08 02:00","2014","01","08","02:00","-16.3","","-21.5","","65","","23","","28","","24.1","","100.50","","","","-27","","NA"
"2014-01-08 03:00","2014","01","08","03:00","-16.0","","-21.0","","66","","23","","28","","24.1","","100.63","","","","-27","","NA"
"2014-01-08 04:00","2014","01","08","04:00","-16.4","","-21.0","","68","","22","","23","","24.1","","100.71","","","","-27","","Clear"
"2014-01-08 05:00","2014","01","08","05:00","-16.7","","-21.0","","70","","23","","25","","24.1","","100.78","","","","-27","","NA"
"2014-01-08 06:00","2014","01","08","06:00","-15.6","","-20.2","","68","","23","","26","","24.1","","100.85","","","","-26","","NA"
"2014-01-08 07:00","2014","01","08","07:00","-15.1","","-19.6","","69","","23","","17","","24.1","","100.94","","","","-24","","Mostly Cloudy"
"2014-01-08 08:00","2014","01","08","08:00","-14.7","","-19.4","","68","","23","","17","","24.1","","101.03","","","","-23","","NA"
"2014-01-08 09:00","2014","01","08","09:00","-14.1","","-19.0","","67","","23","","22","","24.1","","101.14","","","","-23","","NA"
"2014-01-08 10:00","2014","01","08","10:00","-13.6","","-18.5","","67","","24","","17","","24.1","","101.20","","","","-22","","Mostly Cloudy"
"2014-01-08 11:00","2014","01","08","11:00","-12.8","","-18.1","","65","","24","","23","","24.1","","101.21","","","","-22","","NA"
"2014-01-08 12:00","2014","01","08","12:00","-12.0","","-17.5","","64","","23","","19","","24.1","","101.15","","","","-20","","NA"
"2014-01-08 13:00","2014","01","08","13:00","-11.2","","-16.9","","63","","23","","18","","24.1","","101.12","","","","-19","","Cloudy"
"2014-01-08 14:00","2014","01","08","14:00","-10.5","","-16.3","","63","","22","","16","","24.1","","101.12","","","","-18","","NA"
"2014-01-08 15:00","2014","01","08","15:00","-10.3","","-16.5","","61","","23","","18","","24.1","","101.16","","","","-18","","NA"
"2014-01-08 16:00","2014","01","08","16:00","-10.2","","-16.6","","60","","22","","18","","24.1","","101.18","","","","-18","","Mostly Cloudy"
"2014-01-08 17:00","2014","01","08","17:00","-10.1","","-16.7","","59","","20","","18","","24.1","","101.17","","","","-18","","NA"
"2014-01-08 18:00","2014","01","08","18:00","-10.5","","-16.9","","60","","21","","18","","24.1","","101.22","","","","-18","","NA"
"2014-01-08 19:00","2014","01","08","19:00","-10.5","","-16.9","","60","","22","","23","","24.1","","101.28","","","","-19","","Mostly Cloudy"
"2014-01-08 20:00","2014","01","08","20:00","-11.0","","-16.9","","62","","22","","22","","24.1","","101.31","","","","-20","","NA"
"2014-01-08 21:00","2014","01","08","21:00","-11.1","","-16.8","","63","","23","","25","","24.1","","101.32","","","","-20","","NA"
"2014-01-08 22:00","2014","01","08","22:00","-11.2","","-16.6","","65","","24","","19","","24.1","","101.37","","","","-19","","Cloudy"
"2014-01-08 23:00","2014","01","08","23:00","-11.4","","-16.4","","67","","24","","17","","24.1","","101.37","","","","-19","","NA"
"2014-01-09 00:00","2014","01","09","00:00","-11.6","","-16.2","","69","","24","","8","","24.1","","101.38","","","","-16","","Snow"
"2014-01-09 01:00","2014","01","09","01:00","-11.7","","-16.0","","71","","24","","8","","24.1","","101.40","","","","-16","","Snow"
"2014-01-09 02:00","2014","01","09","02:00","-11.3","","-15.7","","70","","25","","9","","24.1","","101.47","","","","-16","","NA"
"2014-01-09 03:00","2014","01","09","03:00","-11.4","","-15.5","","72","","24","","11","","24.1","","101.54","","","","-17","","NA"
"2014-01-09 04:00","2014","01","09","04:00","-11.4","","-15.5","","72","","25","","17","","24.1","","101.57","","","","-19","","Mostly Cloudy"
"2014-01-09 05:00","2014","01","09","05:00","-12.6","","-16.0","","76","","27","","11","","24.1","","101.65","","","","-19","","NA"
"2014-01-09 06:00","2014","01","09","06:00","-13.8","","-16.9","","78","","26","","10","","24.1","","101.78","","","","-20","","NA"
"2014-01-09 07:00","2014","01","09","07:00","-14.4","","-17.1","","80","","25","","13","","24.1","","101.89","","","","-22","","Clear"
"2014-01-09 08:00","2014","01","09","08:00","-14.3","","-17.0","","80","","25","","10","","24.1","","102.01","","","","-20","","NA"
"2014-01-09 09:00","2014","01","09","09:00","-14.1","","-17.1","","78","","21","","10","","24.1","","102.13","","","","-20","","NA"
"2014-01-09 10:00","2014","01","09","10:00","-11.9","","-16.5","","69","","22","","4","","24.1","","102.20","","","","-14","","Clear"
"2014-01-09 11:00","2014","01","09","11:00","-10.8","","-16.2","","65","","23","","8","","24.1","","102.25","","","","-15","","NA"
"2014-01-09 12:00","2014","01","09","12:00","-9.8","","-15.4","","64","","24","","12","","24.1","","102.17","","","","-16","","NA"
"2014-01-09 13:00","2014","01","09","13:00","-9.1","","-15.5","","60","","23","","8","","24.1","","102.13","","","","-13","","Clear"
"2014-01-09 14:00","2014","01","09","14:00","-8.6","","-15.5","","58","","18","","8","","24.1","","102.07","","","","-13","","NA"
"2014-01-09 15:00","2014","01","09","15:00","-8.3","","-15.6","","56","","15","","6","","24.1","","102.05","","","","-12","","NA"
"2014-01-09 16:00","2014","01","09","16:00","-8.6","","-15.9","","56","","16","","12","","24.1","","102.01","","","","-14","","Mainly Clear"
"2014-01-09 17:00","2014","01","09","17:00","-9.6","","-16.6","","57","","16","","10","","24.1","","102.00","","","","-15","","NA"
"2014-01-09 18:00","2014","01","09","18:00","-10.1","","-16.7","","59","","15","","10","","24.1","","101.97","","","","-15","","NA"
"2014-01-09 19:00","2014","01","09","19:00","-11.0","","-16.6","","64","","17","","10","","24.1","","101.96","","","","-16","","Clear"
"2014-01-09 20:00","2014","01","09","20:00","-11.4","","-16.2","","68","","19","","8","","24.1","","101.96","","","","-16","","NA"
"2014-01-09 21:00","2014","01","09","21:00","-11.3","","-15.4","","72","","20","","9","","24.1","","101.91","","","","-16","","NA"
"2014-01-09 22:00","2014","01","09","22:00","-10.6","","-14.9","","71","","20","","6","","24.1","","101.87","","","","-14","","Cloudy"
"2014-01-09 23:00","2014","01","09","23:00","-10.6","","-14.6","","73","","14","","6","","24.1","","101.78","","","","-14","","NA"
"2014-01-10 00:00","2014","01","10","00:00","-12.4","","-15.5","","78","","13","","11","","24.1","","101.69","","","","-18","","NA"
"2014-01-10 01:00","2014","01","10","01:00","-12.5","","-15.0","","82","","13","","10","","24.1","","101.63","","","","-18","","Mainly Clear"
"2014-01-10 02:00","2014","01","10","02:00","-12.4","","-14.9","","82","","8","","9","","24.1","","101.53","","","","-18","","NA"
"2014-01-10 03:00","2014","01","10","03:00","-13.1","","-15.1","","85","","6","","9","","24.1","","101.50","","","","-19","","NA"
"2014-01-10 04:00","2014","01","10","04:00","-12.7","","-15.0","","83","","7","","7","","24.1","","101.43","","","","-17","","Cloudy"
"2014-01-10 05:00","2014","01","10","05:00","-12.8","","-15.3","","82","","6","","10","","24.1","","101.37","","","","-19","","NA"
"2014-01-10 06:00","2014","01","10","06:00","-12.9","","-15.2","","83","","7","","9","","16.1","","101.33","","","","-18","","Snow"
"2014-01-10 07:00","2014","01","10","07:00","-12.8","","-15.1","","83","","6","","9","","4.8","","101.31","","","","-18","","Snow"
"2014-01-10 08:00","2014","01","10","08:00","-12.5","","-14.7","","84","","6","","9","","4.8","","101.28","","","","-18","","Snow,Fog"
"2014-01-10 09:00","2014","01","10","09:00","-11.9","","-14.1","","84","","3","","11","","3.2","","101.29","","","","-18","","Snow,Fog"
"2014-01-10 10:00","2014","01","10","10:00","-10.2","","-12.7","","82","","9","","8","","4.8","","101.27","","","","-15","","Snow,Fog"
"2014-01-10 11:00","2014","01","10","11:00","-8.9","","-11.8","","80","","8","","6","","8.1","","101.22","","","","-12","","Snow,Fog"
"2014-01-10 12:00","2014","01","10","12:00","-8.0","","-10.9","","80","","6","","10","","12.9","","101.12","","","","-13","","Snow"
"2014-01-10 13:00","2014","01","10","13:00","-7.1","","-10.0","","80","","5","","10","","16.1","","101.02","","","","-12","","Snow"
"2014-01-10 14:00","2014","01","10","14:00","-6.6","","-9.8","","78","","9","","11","","16.1","","100.97","","","","-12","","Snow"
"2014-01-10 15:00","2014","01","10","15:00","-5.9","","-9.0","","79","","6","","9","","16.1","","100.98","","","","-10","","Snow"
"2014-01-10 16:00","2014","01","10","16:00","-5.6","","-8.2","","82","","6","","8","","16.1","","100.96","","","","-9","","Cloudy"
"2014-01-10 17:00","2014","01","10","17:00","-5.7","","-8.3","","82","","6","","9","","16.1","","100.91","","","","-10","","NA"
"2014-01-10 18:00","2014","01","10","18:00","-5.5","","-7.9","","83","","7","","10","","16.1","","100.86","","","","-10","","NA"
"2014-01-10 19:00","2014","01","10","19:00","-5.4","","-7.9","","83","","6","","10","","16.1","","100.82","","","","-10","","Cloudy"
"2014-01-10 20:00","2014","01","10","20:00","-5.2","","-7.7","","83","","6","","13","","16.1","","100.77","","","","-10","","NA"
"2014-01-10 21:00","2014","01","10","21:00","-5.1","","-7.2","","85","","7","","12","","16.1","","100.73","","","","-10","","NA"
"2014-01-10 22:00","2014","01","10","22:00","-5.1","","-7.2","","85","","6","","10","","16.1","","100.63","","","","-9","","Cloudy"
"2014-01-10 23:00","2014","01","10","23:00","-5.0","","-7.0","","86","","6","","15","","12.9","","100.50","","","","-11","","NA"
"2014-01-11 00:00","2014","01","11","00:00","-4.8","","-6.8","","86","","7","","14","","12.9","","100.38","","","","-10","","NA"
"2014-01-11 01:00","2014","01","11","01:00","-4.6","","-6.9","","84","","5","","14","","12.9","","100.30","","","","-10","","Cloudy"
"2014-01-11 02:00","2014","01","11","02:00","-4.6","","-6.6","","86","","5","","21","","12.9","","100.11","","","","-11","","NA"
"2014-01-11 03:00","2014","01","11","03:00","-4.2","","-6.2","","86","","6","","21","","12.9","","99.93","","","","-11","","NA"
"2014-01-11 04:00","2014","01","11","04:00","-4.0","","-6.0","","86","","7","","20","","11.3","","99.75","","","","-10","","Cloudy"
"2014-01-11 05:00","2014","01","11","05:00","-3.3","","-4.1","","94","","8","","18","","4.8","","99.48","","","","-9","","Freezing Rain"
"2014-01-11 06:00","2014","01","11","06:00","-2.3","","-3.0","","95","","9","","23","","2.4","","99.28","","","","-9","","Freezing Rain"
"2014-01-11 07:00","2014","01","11","07:00","-2.3","","-2.9","","96","","9","","13","","0.8","","99.10","","","","-7","","Freezing Rain,Fog"
"2014-01-11 08:00","2014","01","11","08:00","-1.7","","-2.3","","96","","8","","17","","2.0","","98.89","","","","-7","","Freezing Rain,Fog"
"2014-01-11 09:00","2014","01","11","09:00","-1.2","","-1.8","","96","","9","","13","","2.0","","98.81","","","","-5","","Freezing Rain,Fog"
"2014-01-11 10:00","2014","01","11","10:00","-0.4","","-0.8","","97","","7","","11","","1.2","","98.68","","","","-4","","Freezing Rain,Fog"
"2014-01-11 11:00","2014","01","11","11:00","-0.1","","-0.5","","97","","6","","11","","1.2","","98.53","","","","-4","","Freezing Rain,Fog"
"2014-01-11 12:00","2014","01","11","12:00","0.0","","-0.4","","97","","7","","13","","1.2","","98.29","","","","-4","","Rain,Fog"
"2014-01-11 13:00","2014","01","11","13:00","0.1","","-0.2","","98","","7","","17","","0.8","","97.99","","","","","","Rain,Fog"
"2014-01-11 14:00","2014","01","11","14:00","0.1","","-0.2","","98","","2","","17","","0.4","","97.86","","","","","","Fog"
"2014-01-11 15:00","2014","01","11","15:00","0.4","","0.1","","98","","7","","14","","0.8","","97.73","","","","","","Drizzle,Fog"
"2014-01-11 16:00","2014","01","11","16:00","0.8","","0.5","","98","","8","","15","","1.2","","97.53","","","","","","Drizzle,Fog"
"2014-01-11 17:00","2014","01","11","17:00","1.0","","0.7","","98","","9","","13","","0.2","","97.42","","","","","","Drizzle,Fog"
"2014-01-11 18:00","2014","01","11","18:00","3.2","","2.9","","98","","15","","13","","0.8","","97.33","","","","","","Rain,Fog"
"2014-01-11 19:00","2014","01","11","19:00","4.8","","4.5","","98","","20","","14","","0.4","","97.25","","","","","","Drizzle,Fog"
"2014-01-11 20:00","2014","01","11","20:00","6.1","","5.8","","98","","22","","22","","16.1","","97.22","","","","","","Rain"
"2014-01-11 21:00","2014","01","11","21:00","5.3","","4.9","","97","","21","","18","","19.3","","97.23","","","","","","NA"
"2014-01-11 22:00","2014","01","11","22:00","5.3","","4.3","","93","","23","","25","","19.3","","97.35","","","","","","Cloudy"
"2014-01-11 23:00","2014","01","11","23:00","4.4","","2.9","","90","","24","","21","","19.3","","97.46","","","","","","NA"
"2014-01-12 00:00","2014","01","12","00:00","3.8","","1.8","","87","","23","","24","","19.3","","97.53","","","","","","NA"
"2014-01-12 01:00","2014","01","12","01:00","3.6","","1.5","","86","","22","","30","","19.3","","97.56","","","","","","Cloudy"
"2014-01-12 02:00","2014","01","12","02:00","3.3","","0.4","","81","","23","","28","","19.3","","97.69","","","","","","NA"
"2014-01-12 03:00","2014","01","12","03:00","2.7","","-0.6","","79","","24","","23","","19.3","","97.86","","","","","","NA"
"2014-01-12 04:00","2014","01","12","04:00","2.5","","-0.6","","80","","24","","21","","19.3","","98.00","","","","","","Cloudy"
"2014-01-12 05:00","2014","01","12","05:00","2.5","","-0.6","","80","","24","","26","","19.3","","98.14","","","","","","NA"
"2014-01-12 06:00","2014","01","12","06:00","2.3","","-1.5","","76","","27","","30","","19.3","","98.27","","","","","","NA"
"2014-01-12 07:00","2014","01","12","07:00","1.9","","-1.7","","77","","25","","22","","19.3","","98.46","","","","","","Cloudy"
"2014-01-12 08:00","2014","01","12","08:00","1.6","","-1.3","","81","","26","","10","","16.1","","98.59","","","","","","Ice Pellet Showers"
"2014-01-12 09:00","2014","01","12","09:00","1.5","","-0.4","","87","","23","","21","","16.1","","98.73","","","","","","Snow"
"2014-01-12 10:00","2014","01","12","10:00","2.0","","-0.9","","81","","23","","26","","16.1","","98.84","","","","","","Snow"
"2014-01-12 11:00","2014","01","12","11:00","2.1","","-1.2","","79","","24","","26","","24.1","","98.91","","","","","","NA"
"2014-01-12 12:00","2014","01","12","12:00","2.0","","-2.5","","72","","25","","31","","19.3","","98.95","","","","","","NA"
"2014-01-12 13:00","2014","01","12","13:00","2.1","","-3.2","","68","","26","","28","","19.3","","98.99","","","","","","Cloudy"
"2014-01-12 14:00","2014","01","12","14:00","1.9","","-3.4","","68","","26","","31","","19.3","","99.09","","","","","","NA"
"2014-01-12 15:00","2014","01","12","15:00","2.1","","-4.0","","64","","25","","33","","24.1","","99.20","","","","","","NA"
"2014-01-12 16:00","2014","01","12","16:00","1.8","","-3.9","","66","","26","","26","","19.3","","99.36","","","","","","Mostly Cloudy"
"2014-01-12 17:00","2014","01","12","17:00","1.6","","-3.9","","67","","25","","26","","16.1","","99.49","","","","","","NA"
"2014-01-12 18:00","2014","01","12","18:00","1.5","","-5.0","","62","","26","","30","","16.1","","99.65","","","","","","NA"
"2014-01-12 19:00","2014","01","12","19:00","1.2","","-4.3","","67","","24","","16","","24.1","","99.72","","","","","","Cloudy"
"2014-01-12 20:00","2014","01","12","20:00","0.6","","-4.8","","67","","25","","13","","24.1","","99.75","","","","","","NA"
"2014-01-12 21:00","2014","01","12","21:00","0.7","","-4.7","","67","","20","","9","","24.1","","99.79","","","","","","NA"
"2014-01-12 22:00","2014","01","12","22:00","0.7","","-4.2","","70","","21","","13","","24.1","","99.83","","","","","","Mostly Cloudy"
"2014-01-12 23:00","2014","01","12","23:00","0.1","","-4.4","","72","","19","","9","","24.1","","99.82","","","","","","NA"
"2014-01-13 00:00","2014","01","13","00:00","-0.7","","-4.2","","77","","19","","12","","24.1","","99.81","","","","-5","","NA"
"2014-01-13 01:00","2014","01","13","01:00","-0.7","","-3.2","","83","","20","","12","","24.1","","99.79","","","","-5","","Mostly Cloudy"
"2014-01-13 02:00","2014","01","13","02:00","-0.1","","-2.3","","85","","19","","14","","24.1","","99.85","","","","-4","","NA"
"2014-01-13 03:00","2014","01","13","03:00","0.4","","-2.0","","84","","19","","21","","24.1","","99.82","","","","","","NA"
"2014-01-13 04:00","2014","01","13","04:00","0.0","","-2.2","","85","","18","","13","","24.1","","99.76","","","","-4","","Mostly Cloudy"
"2014-01-13 05:00","2014","01","13","05:00","-0.5","","-2.9","","84","","16","","24","","19.3","","99.61","","","","-6","","NA"
"2014-01-13 06:00","2014","01","13","06:00","-1.0","","-3.9","","81","","18","","11","","19.3","","99.62","","","","-5","","NA"
"2014-01-13 07:00","2014","01","13","07:00","-1.5","","-4.5","","80","","17","","10","","19.3","","99.60","","","","-5","","Mainly Clear"
"2014-01-13 08:00","2014","01","13","08:00","-1.4","","-4.6","","79","","15","","14","","19.3","","99.56","","","","-6","","NA"
"2014-01-13 09:00","2014","01","13","09:00","-0.6","","-4.7","","74","","17","","11","","19.3","","99.56","","","","-4","","NA"
"2014-01-13 10:00","2014","01","13","10:00","2.3","","-4.0","","63","","18","","20","","19.3","","99.48","","","","","","Mostly Cloudy"
"2014-01-13 11:00","2014","01","13","11:00","4.1","","-3.4","","58","","19","","27","","24.1","","99.41","","","","","","NA"
"2014-01-13 12:00","2014","01","13","12:00","5.4","","-2.9","","55","","20","","21","","24.1","","99.32","","","","","","NA"
"2014-01-13 13:00","2014","01","13","13:00","5.4","","-2.7","","56","","19","","19","","24.1","","99.23","","","","","","Mostly Cloudy"
"2014-01-13 14:00","2014","01","13","14:00","5.5","","-2.3","","57","","17","","14","","24.1","","99.15","","","","","","NA"
"2014-01-13 15:00","2014","01","13","15:00","5.8","","-2.1","","57","","18","","19","","24.1","","99.16","","","","","","NA"
"2014-01-13 16:00","2014","01","13","16:00","6.0","","-2.4","","55","","18","","17","","24.1","","99.14","","","","","","Mostly Cloudy"
"2014-01-13 17:00","2014","01","13","17:00","5.1","","-0.9","","65","","20","","13","","19.3","","99.12","","","","","","NA"
"2014-01-13 18:00","2014","01","13","18:00","3.8","","0.3","","78","","18","","14","","12.9","","99.10","","","","","","Rain"
"2014-01-13 19:00","2014","01","13","19:00","4.3","","-0.3","","72","","18","","13","","24.1","","99.03","","","","","","Cloudy"
"2014-01-13 20:00","2014","01","13","20:00","3.1","","-0.2","","79","","28","","5","","24.1","","99.07","","","","","","NA"
"2014-01-13 21:00","2014","01","13","21:00","2.9","","-0.2","","80","","14","","10","","24.1","","98.99","","","","","","NA"
"2014-01-13 22:00","2014","01","13","22:00","5.3","","0.9","","73","","20","","17","","24.1","","99.01","","","","","","Cloudy"
"2014-01-13 23:00","2014","01","13","23:00","5.8","","0.8","","70","","19","","23","","24.1","","98.93","","","","","","NA"
"2014-01-14 00:00","2014","01","14","00:00","5.7","","0.5","","69","","19","","23","","24.1","","98.89","","","","","","NA"
"2014-01-14 01:00","2014","01","14","01:00","4.2","","1.7","","84","","20","","16","","16.1","","98.89","","","","","","Rain"
"2014-01-14 02:00","2014","01","14","02:00","3.7","","2.5","","92","","21","","14","","16.1","","98.91","","","","","","Rain"
"2014-01-14 03:00","2014","01","14","03:00","3.5","","2.6","","94","","19","","16","","12.9","","98.90","","","","","","Rain"
"2014-01-14 04:00","2014","01","14","04:00","3.4","","2.8","","96","","20","","13","","12.9","","98.90","","","","","","Rain"
"2014-01-14 05:00","2014","01","14","05:00","3.3","","2.6","","95","","20","","11","","16.1","","98.89","","","","","","NA"
"2014-01-14 06:00","2014","01","14","06:00","3.1","","2.5","","96","","23","","8","","9.7","","98.95","","","","","","Fog"
"2014-01-14 07:00","2014","01","14","07:00","3.1","","2.7","","97","","20","","8","","9.7","","98.92","","","","","","Drizzle,Fog"
"2014-01-14 08:00","2014","01","14","08:00","2.9","","2.5","","97","","19","","11","","4.8","","99.03","","","","","","Fog"
"2014-01-14 09:00","2014","01","14","09:00","2.8","","2.4","","97","","19","","9","","4.8","","99.07","","","","","","Fog"
"2014-01-14 10:00","2014","01","14","10:00","3.2","","2.5","","95","","20","","4","","16.1","","99.12","","","","","","Cloudy"
"2014-01-14 11:00","2014","01","14","11:00","3.5","","2.3","","92","","22","","13","","19.3","","99.23","","","","","","NA"
"2014-01-14 12:00","2014","01","14","12:00","4.1","","2.6","","90","","22","","12","","24.1","","99.13","","","","","","NA"
"2014-01-14 13:00","2014","01","14","13:00","4.4","","2.1","","85","","23","","10","","24.1","","99.10","","","","","","Cloudy"
"2014-01-14 14:00","2014","01","14","14:00","3.1","","-0.9","","75","","30","","19","","24.1","","99.18","","","","","","NA"
"2014-01-14 15:00","2014","01","14","15:00","2.7","","-2.2","","70","","30","","14","","24.1","","99.26","","","","","","NA"
"2014-01-14 16:00","2014","01","14","16:00","2.0","","-2.5","","72","","30","","17","","24.1","","99.32","","","","","","Mostly Cloudy"
"2014-01-14 17:00","2014","01","14","17:00","1.7","","-4.6","","63","","29","","17","","24.1","","99.33","","","","","","NA"
"2014-01-14 18:00","2014","01","14","18:00","0.3","","-4.5","","70","","29","","13","","24.1","","99.36","","","","","","NA"
"2014-01-14 19:00","2014","01","14","19:00","-0.9","","-5.1","","73","","30","","17","","24.1","","99.43","","","","-6","","Mainly Clear"
"2014-01-14 20:00","2014","01","14","20:00","-1.1","","-6.3","","68","","29","","18","","24.1","","99.50","","","","-6","","NA"
"2014-01-14 21:00","2014","01","14","21:00","-2.0","","-6.6","","71","","28","","14","","24.1","","99.54","","","","-7","","NA"
"2014-01-14 22:00","2014","01","14","22:00","-3.4","","-6.9","","77","","29","","13","","24.1","","99.55","","","","-8","","Clear"
"2014-01-14 23:00","2014","01","14","23:00","-3.6","","-7.4","","75","","30","","10","","24.1","","99.57","","","","-8","","NA"
"2014-01-15 00:00","2014","01","15","00:00","-3.9","","-7.2","","78","","29","","9","","24.1","","99.56","","","","-8","","NA"
"2014-01-15 01:00","2014","01","15","01:00","-5.1","","-7.6","","83","","20","","6","","24.1","","99.53","","","","-8","","Clear"
"2014-01-15 02:00","2014","01","15","02:00","-6.7","","-8.4","","88","","19","","10","","24.1","","99.58","","","","-11","","NA"
"2014-01-15 03:00","2014","01","15","03:00","-6.1","","-8.2","","85","","20","","10","","24.1","","99.66","","","","-11","","NA"
"2014-01-15 04:00","2014","01","15","04:00","-6.8","","-8.9","","85","","19","","4","","24.1","","99.64","","","","-9","","Mostly Cloudy"
"2014-01-15 05:00","2014","01","15","05:00","-5.9","","-7.9","","86","","14","","4","","24.1","","99.61","","","","-8","","NA"
"2014-01-15 06:00","2014","01","15","06:00","-5.2","","-7.3","","85","","7","","7","","24.1","","99.54","","","","-8","","NA"
"2014-01-15 07:00","2014","01","15","07:00","-5.0","","-7.3","","84","","6","","9","","24.1","","99.56","","","","-9","","Cloudy"
"2014-01-15 08:00","2014","01","15","08:00","-4.7","","-7.0","","84","","6","","9","","19.3","","99.62","","","","-9","","NA"
"2014-01-15 09:00","2014","01","15","09:00","-3.6","","-5.8","","85","","10","","13","","19.3","","99.64","","","","-8","","Snow"
"2014-01-15 10:00","2014","01","15","10:00","-1.8","","-3.5","","88","","14","","12","","16.1","","99.64","","","","-6","","Snow"
"2014-01-15 11:00","2014","01","15","11:00","-1.0","","-2.3","","91","","16","","10","","9.7","","99.61","","","","-5","","Snow Grains,Fog"
"2014-01-15 12:00","2014","01","15","12:00","1.0","","-0.8","","88","","20","","17","","9.7","","99.52","","","","","","Fog"
"2014-01-15 13:00","2014","01","15","13:00","1.4","","-3.7","","69","","22","","32","","19.3","","99.51","","","","","","Mostly Cloudy"
"2014-01-15 14:00","2014","01","15","14:00","1.5","","-6.1","","57","","22","","25","","24.1","","99.54","","","","","","NA"
"2014-01-15 15:00","2014","01","15","15:00","1.3","","-6.8","","55","","24","","30","","24.1","","99.62","","","","","","NA"
"2014-01-15 16:00","2014","01","15","16:00","0.1","","-7.2","","58","","23","","21","","24.1","","99.67","","","","","","Mostly Cloudy"
"2014-01-15 17:00","2014","01","15","17:00","-0.6","","-7.9","","58","","22","","21","","24.1","","99.72","","","","-6","","NA"
"2014-01-15 18:00","2014","01","15","18:00","-1.2","","-8.2","","59","","22","","21","","24.1","","99.79","","","","-7","","NA"
"2014-01-15 19:00","2014","01","15","19:00","-2.0","","-7.9","","64","","22","","12","","24.1","","99.86","","","","-6","","Mostly Cloudy"
"2014-01-15 20:00","2014","01","15","20:00","-2.4","","-8.1","","65","","23","","12","","24.1","","99.91","","","","-7","","NA"
"2014-01-15 21:00","2014","01","15","21:00","-2.3","","-7.4","","68","","22","","13","","24.1","","99.93","","","","-7","","NA"
"2014-01-15 22:00","2014","01","15","22:00","-2.2","","-7.1","","69","","20","","14","","24.1","","99.91","","","","-7","","Cloudy"
"2014-01-15 23:00","2014","01","15","23:00","-2.2","","-6.8","","71","","19","","13","","24.1","","99.90","","","","-7","","NA"
"2014-01-16 00:00","2014","01","16","00:00","-3.0","","-6.8","","75","","20","","11","","24.1","","99.89","","","","-7","","NA"
"2014-01-16 01:00","2014","01","16","01:00","-3.8","","-6.8","","80","","19","","10","","24.1","","99.88","","","","-8","","Mostly Cloudy"
"2014-01-16 02:00","2014","01","16","02:00","-3.9","","-6.5","","82","","22","","8","","24.1","","99.94","","","","-7","","NA"
"2014-01-16 03:00","2014","01","16","03:00","-3.5","","-9.6","","63","","29","","16","","24.1","","99.97","","","","-9","","Snow"
"2014-01-16 04:00","2014","01","16","04:00","-4.7","","-10.3","","65","","28","","11","","24.1","","100.01","","","","-9","","Mostly Cloudy"
"2014-01-16 05:00","2014","01","16","05:00","-5.5","","-10.9","","66","","26","","8","","24.1","","100.02","","","","-9","","NA"
"2014-01-16 06:00","2014","01","16","06:00","-6.2","","-11.0","","69","","27","","9","","24.1","","99.99","","","","-10","","NA"
"2014-01-16 07:00","2014","01","16","07:00","-6.9","","-11.1","","72","","18","","8","","24.1","","100.04","","","","-11","","Clear"
"2014-01-16 08:00","2014","01","16","08:00","-6.8","","-10.9","","73","","15","","8","","24.1","","100.04","","","","-11","","NA"
"2014-01-16 09:00","2014","01","16","09:00","-5.6","","-10.4","","69","","18","","10","","24.1","","100.07","","","","-10","","NA"
"2014-01-16 10:00","2014","01","16","10:00","-4.4","","-9.5","","68","","19","","10","","24.1","","100.13","","","","-9","","Mainly Clear"
"2014-01-16 11:00","2014","01","16","11:00","-3.2","","-10.8","","56","","19","","17","","24.1","","100.13","","","","-9","","NA"
"2014-01-16 12:00","2014","01","16","12:00","-2.7","","-10.6","","55","","21","","10","","24.1","","100.06","","","","-7","","NA"
"2014-01-16 13:00","2014","01","16","13:00","-2.3","","-9.9","","56","","18","","11","","24.1","","100.00","","","","-6","","Mainly Clear"
"2014-01-16 14:00","2014","01","16","14:00","-2.2","","-9.4","","58","","17","","8","","24.1","","99.91","","","","-5","","NA"
"2014-01-16 15:00","2014","01","16","15:00","-1.8","","-9.2","","57","","19","","11","","24.1","","99.90","","","","-6","","NA"
"2014-01-16 16:00","2014","01","16","16:00","-2.2","","-8.7","","61","","18","","4","","24.1","","99.97","","","","-4","","Mostly Cloudy"
"2014-01-16 17:00","2014","01","16","17:00","-3.0","","-7.5","","71","","11","","10","","24.1","","99.91","","","","-7","","NA"
"2014-01-16 18:00","2014","01","16","18:00","-2.9","","-8.0","","68","","10","","9","","24.1","","99.89","","","","-6","","NA"
"2014-01-16 19:00","2014","01","16","19:00","-3.1","","-7.8","","70","","8","","8","","24.1","","99.94","","","","-6","","Cloudy"
"2014-01-16 20:00","2014","01","16","20:00","-3.4","","-7.9","","71","","11","","11","","24.1","","99.96","","","","-8","","NA"
"2014-01-16 21:00","2014","01","16","21:00","-3.9","","-8.6","","70","","10","","11","","24.1","","99.95","","","","-8","","NA"
"2014-01-16 22:00","2014","01","16","22:00","-4.6","","-8.7","","73","","9","","11","","24.1","","99.95","","","","-9","","Cloudy"
"2014-01-16 23:00","2014","01","16","23:00","-4.5","","-8.6","","73","","9","","10","","24.1","","99.91","","","","-9","","NA"
"2014-01-17 00:00","2014","01","17","00:00","-4.5","","-8.3","","75","","8","","9","","24.1","","99.87","","","","-8","","NA"
"2014-01-17 01:00","2014","01","17","01:00","-4.8","","-8.6","","75","","6","","10","","24.1","","99.78","","","","-9","","Cloudy"
"2014-01-17 02:00","2014","01","17","02:00","-5.0","","-8.4","","77","","7","","6","","24.1","","99.79","","","","-8","","NA"
"2014-01-17 03:00","2014","01","17","03:00","-5.6","","-8.5","","80","","6","","9","","24.1","","99.76","","","","-10","","NA"
"2014-01-17 04:00","2014","01","17","04:00","-5.2","","-8.5","","78","","7","","15","","24.1","","99.69","","","","-11","","Cloudy"
"2014-01-17 05:00","2014","01","17","05:00","-5.1","","-8.2","","79","","9","","14","","24.1","","99.65","","","","-10","","NA"
"2014-01-17 06:00","2014","01","17","06:00","-5.2","","-7.8","","82","","9","","15","","24.1","","99.63","","","","-11","","NA"
"2014-01-17 07:00","2014","01","17","07:00","-5.1","","-7.6","","83","","8","","13","","24.1","","99.61","","","","-10","","Cloudy"
"2014-01-17 08:00","2014","01","17","08:00","-5.0","","-7.3","","84","","10","","14","","16.1","","99.62","","","","-10","","NA"
"2014-01-17 09:00","2014","01","17","09:00","-4.5","","-6.8","","84","","11","","9","","8.1","","99.64","","","","-8","","Snow,Fog"
"2014-01-17 10:00","2014","01","17","10:00","-4.0","","-5.7","","88","","10","","14","","2.4","","99.66","","","","-9","","Snow"
"2014-01-17 11:00","2014","01","17","11:00","-2.8","","-4.8","","86","","14","","13","","9.7","","99.61","","","","-7","","Snow"
"2014-01-17 12:00","2014","01","17","12:00","-2.0","","-4.0","","86","","15","","10","","9.7","","99.53","","","","-6","","Snow"
"2014-01-17 13:00","2014","01","17","13:00","-2.0","","-3.9","","87","","13","","10","","16.1","","99.47","","","","-6","","Snow"
"2014-01-17 14:00","2014","01","17","14:00","-0.9","","-2.8","","87","","18","","11","","3.2","","99.45","","","","-5","","Snow"
"2014-01-17 15:00","2014","01","17","15:00","-0.6","","-3.0","","84","","17","","13","","6.4","","99.47","","","","-5","","Snow"
"2014-01-17 16:00","2014","01","17","16:00","-0.4","","-2.9","","83","","17","","13","","16.1","","99.48","","","","-5","","Mostly Cloudy"
"2014-01-17 17:00","2014","01","17","17:00","-0.8","","-2.9","","86","","16","","12","","19.3","","99.50","","","","-5","","NA"
"2014-01-17 18:00","2014","01","17","18:00","-0.5","","-3.2","","82","","20","","17","","19.3","","99.52","","","","-5","","NA"
"2014-01-17 19:00","2014","01","17","19:00","-0.8","","-3.5","","82","","19","","13","","19.3","","99.54","","","","-5","","Cloudy"
"2014-01-17 20:00","2014","01","17","20:00","-1.4","","-3.9","","83","","18","","14","","19.3","","99.57","","","","-6","","NA"
"2014-01-17 21:00","2014","01","17","21:00","-1.2","","-4.2","","80","","21","","16","","19.3","","99.59","","","","-6","","NA"
"2014-01-17 22:00","2014","01","17","22:00","-1.7","","-4.7","","80","","22","","10","","19.3","","99.61","","","","-5","","Mainly Clear"
"2014-01-17 23:00","2014","01","17","23:00","-2.6","","-5.1","","83","","19","","10","","19.3","","99.60","","","","-6","","NA"
"2014-01-18 00:00","2014","01","18","00:00","-3.1","","-5.1","","86","","19","","10","","19.3","","99.59","","","","-7","","NA"
"2014-01-18 01:00","2014","01","18","01:00","-2.8","","-4.8","","86","","23","","9","","19.3","","99.58","","","","-6","","Mostly Cloudy"
"2014-01-18 02:00","2014","01","18","02:00","-3.4","","-5.4","","86","","19","","8","","19.3","","99.58","","","","-7","","NA"
"2014-01-18 03:00","2014","01","18","03:00","-4.8","","-6.2","","90","","21","","4","","19.3","","99.60","","","","-7","","NA"
"2014-01-18 04:00","2014","01","18","04:00","-4.4","","-5.7","","91","","18","","10","","19.3","","99.56","","","","-9","","Mostly Cloudy"
"2014-01-18 05:00","2014","01","18","05:00","-4.9","","-6.2","","91","","19","","9","","19.3","","99.52","","","","-9","","NA"
"2014-01-18 06:00","2014","01","18","06:00","-5.4","","-6.4","","93","","20","","9","","19.3","","99.51","","","","-9","","NA"
"2014-01-18 07:00","2014","01","18","07:00","-10.1","","-11.6","","89","","10","","4","","4.8","","99.49","","","","-12","","Fog"
"2014-01-18 08:00","2014","01","18","08:00","-8.0","","-8.8","","94","","28","","3","","4.8","","99.46","","","","-10","","Fog"
"2014-01-18 09:00","2014","01","18","09:00","-6.2","","-7.0","","94","","1","","8","","6.4","","99.45","","","","-10","","Fog"
"2014-01-18 10:00","2014","01","18","10:00","-4.2","","-5.0","","94","","5","","7","","8.1","","99.50","","","","-7","","Fog"
"2014-01-18 11:00","2014","01","18","11:00","-3.2","","-4.3","","92","","33","","2","","8.1","","99.49","","","","-4","","Fog"
"2014-01-18 12:00","2014","01","18","12:00","-2.1","","-4.9","","81","","26","","2","","8.1","","99.45","","","","-3","","Fog"
"2014-01-18 13:00","2014","01","18","13:00","-2.6","","-4.6","","86","","25","","6","","1.6","","99.39","","","","-5","","Snow"
"2014-01-18 14:00","2014","01","18","14:00","-2.5","","-3.6","","92","","29","","4","","0.8","","99.36","","","","-4","","Moderate Snow"
"2014-01-18 15:00","2014","01","18","15:00","-2.3","","-3.4","","92","","31","","7","","2.4","","99.35","","","","-5","","Snow"
"2014-01-18 16:00","2014","01","18","16:00","-2.0","","-4.0","","86","","28","","8","","8.1","","99.37","","","","-5","","Snow"
"2014-01-18 17:00","2014","01","18","17:00","-3.3","","-4.4","","92","","26","","8","","19.3","","99.38","","","","-7","","NA"
"2014-01-18 18:00","2014","01","18","18:00","-4.4","","-5.2","","94","","23","","9","","19.3","","99.39","","","","-8","","NA"
"2014-01-18 19:00","2014","01","18","19:00","-4.1","","-5.1","","93","","26","","8","","19.3","","99.42","","","","-8","","Cloudy"
"2014-01-18 20:00","2014","01","18","20:00","-3.6","","-5.0","","90","","24","","9","","19.3","","99.38","","","","-7","","NA"
"2014-01-18 21:00","2014","01","18","21:00","-3.3","","-4.6","","91","","23","","6","","19.3","","99.35","","","","-6","","NA"
"2014-01-18 22:00","2014","01","18","22:00","-3.4","","-4.5","","92","","25","","8","","24.1","","99.32","","","","-7","","Cloudy"
"2014-01-18 23:00","2014","01","18","23:00","-3.0","","-4.4","","90","","22","","10","","24.1","","99.28","","","","-7","","NA"
"2014-01-19 00:00","2014","01","19","00:00","-3.3","","-5.3","","86","","23","","13","","24.1","","99.24","","","","-8","","NA"
"2014-01-19 01:00","2014","01","19","01:00","-3.9","","-5.6","","88","","23","","12","","24.1","","99.19","","","","-9","","Cloudy"
"2014-01-19 02:00","2014","01","19","02:00","-4.3","","-6.0","","88","","21","","12","","24.1","","99.18","","","","-9","","NA"
"2014-01-19 03:00","2014","01","19","03:00","-4.5","","-6.2","","88","","21","","12","","24.1","","99.17","","","","-9","","NA"
"2014-01-19 04:00","2014","01","19","04:00","-4.7","","-6.4","","88","","21","","18","","19.3","","99.09","","","","-11","","Cloudy"
"2014-01-19 05:00","2014","01","19","05:00","-5.2","","-7.5","","84","","21","","21","","16.1","","99.01","","","","-12","","NA"
"2014-01-19 06:00","2014","01","19","06:00","-5.6","","-9.4","","75","","21","","18","","16.1","","98.94","","","","-12","","NA"
"2014-01-19 07:00","2014","01","19","07:00","-6.1","","-10.0","","74","","21","","22","","16.1","","98.87","","","","-13","","Cloudy"
"2014-01-19 08:00","2014","01","19","08:00","-6.8","","-9.7","","80","","21","","18","","19.3","","98.77","","","","-13","","NA"
"2014-01-19 09:00","2014","01","19","09:00","-6.1","","-8.7","","82","","21","","25","","2.4","","98.68","","","","-14","","Snow"
"2014-01-19 10:00","2014","01","19","10:00","-5.7","","-8.1","","83","","21","","23","","2.4","","98.58","","","","-13","","Snow"
"2014-01-19 11:00","2014","01","19","11:00","-5.4","","-8.8","","77","","20","","26","","16.1","","98.43","","","","-13","","NA"
"2014-01-19 12:00","2014","01","19","12:00","-5.2","","-8.8","","76","","20","","27","","9.7","","98.28","","","","-13","","Snow"
"2014-01-19 13:00","2014","01","19","13:00","-5.8","","-7.6","","87","","18","","22","","1.2","","98.09","","","","-13","","Snow"
"2014-01-19 14:00","2014","01","19","14:00","-5.6","","-7.4","","87","","18","","23","","1.2","","97.95","","","","-13","","Snow"
"2014-01-19 15:00","2014","01","19","15:00","-4.8","","-6.5","","88","","20","","26","","1.2","","97.85","","","","-12","","Snow"
"2014-01-19 16:00","2014","01","19","16:00","-4.3","","-6.2","","87","","21","","26","","1.2","","97.82","","","","-12","","Snow"
"2014-01-19 17:00","2014","01","19","17:00","-3.7","","-6.0","","84","","22","","22","","16.1","","97.84","","","","-10","","NA"
"2014-01-19 18:00","2014","01","19","18:00","-3.1","","-6.6","","77","","22","","39","","9.7","","97.85","","","","-11","","Blowing Snow"
"2014-01-19 19:00","2014","01","19","19:00","-3.0","","-6.5","","77","","22","","36","","16.1","","97.93","","","","-11","","Blowing Snow"
"2014-01-19 20:00","2014","01","19","20:00","-2.9","","-5.9","","80","","22","","37","","9.7","","97.98","","","","-11","","Snow,Blowing Snow"
"2014-01-19 21:00","2014","01","19","21:00","-3.8","","-7.3","","77","","29","","39","","1.6","","98.08","","","","-12","","Snow,Blowing Snow"
"2014-01-19 22:00","2014","01","19","22:00","-6.8","","-10.9","","73","","30","","36","","9.7","","98.24","","","","-16","","Snow,Blowing Snow"
"2014-01-19 23:00","2014","01","19","23:00","-7.9","","-14.0","","62","","29","","27","","24.1","","98.34","","","","-16","","NA"
"2014-01-20 00:00","2014","01","20","00:00","-8.6","","-14.1","","65","","31","","23","","19.3","","98.42","","","","-17","","Snow"
"2014-01-20 01:00","2014","01","20","01:00","-9.6","","-14.8","","66","","31","","26","","8.1","","98.41","","","","-18","","Snow"
"2014-01-20 02:00","2014","01","20","02:00","-10.0","","-14.7","","69","","31","","19","","19.3","","98.48","","","","-18","","Snow"
"2014-01-20 03:00","2014","01","20","03:00","-11.1","","-15.7","","69","","34","","22","","19.3","","98.57","","","","-20","","Snow"
"2014-01-20 04:00","2014","01","20","04:00","-12.1","","-16.9","","68","","34","","20","","16.1","","98.64","","","","-21","","Snow"
"2014-01-20 05:00","2014","01","20","05:00","-13.0","","-18.7","","63","","35","","24","","24.1","","98.71","","","","-22","","Snow"
"2014-01-20 06:00","2014","01","20","06:00","-13.7","","-19.1","","64","","33","","21","","16.1","","98.81","","","","-23","","Snow"
"2014-01-20 07:00","2014","01","20","07:00","-14.4","","-20.8","","59","","34","","24","","24.1","","98.91","","","","-24","","Snow"
"2014-01-20 08:00","2014","01","20","08:00","-15.0","","-20.2","","65","","33","","23","","24.1","","99.00","","","","-25","","NA"
"2014-01-20 09:00","2014","01","20","09:00","-16.4","","-22.1","","62","","33","","23","","24.1","","99.12","","","","-27","","NA"
"2014-01-20 10:00","2014","01","20","10:00","-16.9","","-22.6","","62","","31","","25","","24.1","","99.26","","","","-28","","Mostly Cloudy"
"2014-01-20 11:00","2014","01","20","11:00","-17.1","","-22.8","","62","","31","","17","","24.1","","99.26","","","","-26","","NA"
"2014-01-20 12:00","2014","01","20","12:00","-16.9","","-23.2","","59","","32","","20","","24.1","","99.25","","","","-27","","NA"
"2014-01-20 13:00","2014","01","20","13:00","-16.2","","-23.3","","55","","31","","21","","24.1","","99.28","","","","-26","","Mostly Cloudy"
"2014-01-20 14:00","2014","01","20","14:00","-16.0","","-23.3","","54","","33","","20","","24.1","","99.35","","","","-25","","NA"
"2014-01-20 15:00","2014","01","20","15:00","-15.7","","-23.0","","54","","29","","21","","24.1","","99.48","","","","-25","","NA"
"2014-01-20 16:00","2014","01","20","16:00","-16.5","","-23.6","","55","","29","","20","","24.1","","99.60","","","","-26","","Clear"
"2014-01-20 17:00","2014","01","20","17:00","-17.7","","-24.3","","57","","28","","17","","24.1","","99.74","","","","-27","","NA"
"2014-01-20 18:00","2014","01","20","18:00","-18.2","","-24.8","","57","","28","","18","","24.1","","99.88","","","","-28","","NA"
"2014-01-20 19:00","2014","01","20","19:00","-18.8","","-24.6","","61","","29","","15","","24.1","","100.01","","","","-28","","Clear"
"2014-01-20 20:00","2014","01","20","20:00","-19.1","","-25.2","","59","","32","","23","","24.1","","100.14","","","","-30","","NA"
"2014-01-20 21:00","2014","01","20","21:00","-19.8","","-25.5","","61","","31","","23","","24.1","","100.19","","","","-31","","NA"
"2014-01-20 22:00","2014","01","20","22:00","-20.5","","-26.0","","62","","31","","22","","24.1","","100.27","","","","-32","","Mainly Clear"
"2014-01-20 23:00","2014","01","20","23:00","-21.1","","-26.4","","63","","31","","22","","24.1","","100.34","","","","-32","","NA"
"2014-01-21 00:00","2014","01","21","00:00","-21.4","","-26.7","","63","","32","","17","","24.1","","100.37","","","","-31","","NA"
"2014-01-21 01:00","2014","01","21","01:00","-22.2","","-26.9","","66","","31","","15","","24.1","","100.42","","","","-32","","Mainly Clear"
"2014-01-21 02:00","2014","01","21","02:00","-22.2","","-27.1","","65","","33","","12","","24.1","","100.47","","","","-31","","NA"
"2014-01-21 03:00","2014","01","21","03:00","-22.9","","-28.0","","64","","32","","15","","24.1","","100.56","","","","-33","","NA"
"2014-01-21 04:00","2014","01","21","04:00","-23.4","","-28.1","","66","","32","","14","","24.1","","100.57","","","","-33","","Mainly Clear"
"2014-01-21 05:00","2014","01","21","05:00","-23.8","","-28.7","","65","","33","","15","","24.1","","100.60","","","","-34","","NA"
"2014-01-21 06:00","2014","01","21","06:00","-24.2","","-29.0","","65","","32","","12","","24.1","","100.65","","","","-33","","NA"
"2014-01-21 07:00","2014","01","21","07:00","-25.8","","-29.8","","70","","28","","7","","24.1","","100.75","","","","-32","","Mainly Clear"
"2014-01-21 08:00","2014","01","21","08:00","-24.7","","-29.5","","65","","33","","18","","24.1","","100.72","","","","-36","","NA"
"2014-01-21 09:00","2014","01","21","09:00","-24.4","","-29.2","","65","","34","","15","","24.1","","100.77","","","","-35","","NA"
"2014-01-21 10:00","2014","01","21","10:00","-23.2","","-28.6","","62","","32","","13","","24.1","","100.81","","","","-32","","Mostly Cloudy"
"2014-01-21 11:00","2014","01","21","11:00","-22.7","","-28.7","","59","","32","","14","","24.1","","100.82","","","","-32","","NA"
"2014-01-21 12:00","2014","01","21","12:00","-21.6","","-28.2","","56","","30","","8","","24.1","","100.80","","","","-28","","NA"
"2014-01-21 13:00","2014","01","21","13:00","-21.3","","-27.5","","58","","30","","15","","24.1","","100.81","","","","-31","","Mostly Cloudy"
"2014-01-21 14:00","2014","01","21","14:00","-21.8","","-28.2","","57","","28","","11","","24.1","","100.77","","","","-30","","NA"
"2014-01-21 15:00","2014","01","21","15:00","-21.5","","-28.1","","56","","30","","11","","24.1","","100.74","","","","-29","","NA"
"2014-01-21 16:00","2014","01","21","16:00","-21.7","","-28.1","","57","","28","","12","","24.1","","100.76","","","","-30","","Clear"
"2014-01-21 17:00","2014","01","21","17:00","-22.4","","-28.2","","60","","27","","9","","24.1","","100.76","","","","-30","","NA"
"2014-01-21 18:00","2014","01","21","18:00","-22.9","","-28.3","","62","","31","","15","","24.1","","100.76","","","","-33","","NA"
"2014-01-21 19:00","2014","01","21","19:00","-23.0","","-28.4","","62","","31","","15","","24.1","","100.78","","","","-33","","Clear"
"2014-01-21 20:00","2014","01","21","20:00","-24.0","","-28.7","","66","","32","","9","","24.1","","100.78","","","","-31","","NA"
"2014-01-21 21:00","2014","01","21","21:00","-23.5","","-27.9","","68","","32","","11","","24.1","","100.77","","","","-32","","NA"
"2014-01-21 22:00","2014","01","21","22:00","-23.8","","-27.8","","70","","31","","7","","24.1","","100.78","","","","-30","","Clear"
"2014-01-21 23:00","2014","01","21","23:00","-25.2","","-28.4","","75","","31","","10","","24.1","","100.78","","","","-33","","NA"
"2014-01-22 00:00","2014","01","22","00:00","-25.5","","-28.4","","77","","30","","6","","24.1","","100.75","","","","-31","","NA"
"2014-01-22 01:00","2014","01","22","01:00","-26.0","","-28.8","","78","","32","","15","","24.1","","100.66","","","","-36","","Clear"
"2014-01-22 02:00","2014","01","22","02:00","-25.4","","-28.6","","75","","33","","14","","24.1","","100.62","","","","-35","","NA"
"2014-01-22 03:00","2014","01","22","03:00","-24.4","","-28.4","","70","","34","","18","","24.1","","100.61","","","","-35","","NA"
"2014-01-22 04:00","2014","01","22","04:00","-24.9","","-28.7","","71","","33","","10","","24.1","","100.56","","","","-33","","Clear"
"2014-01-22 05:00","2014","01","22","05:00","-25.3","","-29.0","","72","","33","","17","","24.1","","100.54","","","","-36","","NA"
"2014-01-22 06:00","2014","01","22","06:00","-25.4","","-28.9","","73","","33","","18","","24.1","","100.50","","","","-37","","NA"
"2014-01-22 07:00","2014","01","22","07:00","-25.5","","-29.3","","71","","34","","15","","24.1","","100.55","","","","-36","","Clear"
"2014-01-22 08:00","2014","01","22","08:00","-25.8","","-29.5","","72","","32","","13","","24.1","","100.56","","","","-35","","NA"
"2014-01-22 09:00","2014","01","22","09:00","-25.4","","-28.6","","75","","29","","7","","24.1","","100.54","","","","-32","","NA"
"2014-01-22 10:00","2014","01","22","10:00","-23.2","","-28.6","","62","","33","","18","","24.1","","100.51","","","","-34","","Clear"
"2014-01-22 11:00","2014","01","22","11:00","-21.4","","-26.7","","63","","31","","14","","24.1","","100.42","","","","-30","","NA"
"2014-01-22 12:00","2014","01","22","12:00","-20.6","","-26.5","","60","","29","","12","","24.1","","100.33","","","","-29","","NA"
"2014-01-22 13:00","2014","01","22","13:00","-19.6","","-26.5","","55","","29","","11","","24.1","","100.25","","","","-27","","Mainly Clear"
"2014-01-22 14:00","2014","01","22","14:00","-18.5","","-26.1","","52","","29","","14","","24.1","","100.20","","","","-27","","NA"
"2014-01-22 15:00","2014","01","22","15:00","-18.3","","-25.5","","54","","28","","16","","24.1","","100.17","","","","-27","","NA"
"2014-01-22 16:00","2014","01","22","16:00","-17.9","","-25.5","","52","","29","","18","","24.1","","100.20","","","","-27","","Mostly Cloudy"
"2014-01-22 17:00","2014","01","22","17:00","-19.6","","-25.9","","58","","27","","17","","24.1","","100.26","","","","-29","","NA"
"2014-01-22 18:00","2014","01","22","18:00","-20.7","","-26.4","","61","","26","","14","","24.1","","100.31","","","","-30","","NA"
"2014-01-22 19:00","2014","01","22","19:00","-20.9","","-26.2","","63","","28","","13","","24.1","","100.34","","","","-30","","Mainly Clear"
"2014-01-22 20:00","2014","01","22","20:00","-21.1","","-26.2","","64","","28","","12","","24.1","","100.36","","","","-29","","NA"
"2014-01-22 21:00","2014","01","22","21:00","-23.0","","-27.2","","69","","26","","9","","24.1","","100.35","","","","-30","","NA"
"2014-01-22 22:00","2014","01","22","22:00","-23.5","","-27.2","","72","","27","","10","","24.1","","100.31","","","","-31","","Mostly Cloudy"
"2014-01-22 23:00","2014","01","22","23:00","-22.1","","-26.5","","68","","29","","12","","24.1","","100.31","","","","-31","","NA"
"2014-01-23 00:00","2014","01","23","00:00","-22.5","","-26.4","","71","","28","","10","","24.1","","100.35","","","","-30","","NA"
"2014-01-23 01:00","2014","01","23","01:00","-23.0","","-26.6","","73","","28","","10","","24.1","","100.34","","","","-31","","Mainly Clear"
"2014-01-23 02:00","2014","01","23","02:00","-22.7","","-26.1","","74","","28","","10","","24.1","","100.36","","","","-30","","NA"
"2014-01-23 03:00","2014","01","23","03:00","-23.0","","-26.3","","75","","29","","11","","24.1","","100.40","","","","-31","","NA"
"2014-01-23 04:00","2014","01","23","04:00","-23.4","","-26.4","","77","","29","","8","","24.1","","100.42","","","","-30","","Mainly Clear"
"2014-01-23 05:00","2014","01","23","05:00","-23.7","","-26.5","","78","","29","","10","","24.1","","100.46","","","","-32","","NA"
"2014-01-23 06:00","2014","01","23","06:00","-23.6","","-26.7","","76","","29","","13","","24.1","","100.48","","","","-33","","NA"
"2014-01-23 07:00","2014","01","23","07:00","-23.7","","-27.0","","75","","30","","17","","24.1","","100.53","","","","-34","","Mostly Cloudy"
"2014-01-23 08:00","2014","01","23","08:00","-23.8","","-27.2","","74","","28","","15","","24.1","","100.56","","","","-34","","NA"
"2014-01-23 09:00","2014","01","23","09:00","-23.6","","-27.5","","71","","29","","17","","24.1","","100.62","","","","-34","","NA"
"2014-01-23 10:00","2014","01","23","10:00","-23.1","","-27.6","","67","","29","","15","","24.1","","100.68","","","","-33","","Mostly Cloudy"
"2014-01-23 11:00","2014","01","23","11:00","-22.1","","-27.2","","64","","29","","20","","24.1","","100.70","","","","-33","","NA"
"2014-01-23 12:00","2014","01","23","12:00","-21.4","","-27.1","","61","","29","","21","","24.1","","100.66","","","","-32","","NA"
"2014-01-23 13:00","2014","01","23","13:00","-20.5","","-26.8","","58","","28","","21","","24.1","","100.67","","","","-31","","Mostly Cloudy"
"2014-01-23 14:00","2014","01","23","14:00","-19.6","","-26.1","","57","","28","","21","","24.1","","100.68","","","","-30","","NA"
"2014-01-23 15:00","2014","01","23","15:00","-19.2","","-25.7","","57","","26","","20","","24.1","","100.73","","","","-29","","NA"
"2014-01-23 16:00","2014","01","23","16:00","-19.6","","-25.9","","58","","26","","19","","24.1","","100.80","","","","-30","","Mostly Cloudy"
"2014-01-23 17:00","2014","01","23","17:00","-20.5","","-25.8","","63","","25","","14","","24.1","","100.88","","","","-29","","NA"
"2014-01-23 18:00","2014","01","23","18:00","-19.6","","-25.3","","61","","28","","18","","24.1","","100.93","","","","-29","","NA"
"2014-01-23 19:00","2014","01","23","19:00","-19.5","","-25.2","","61","","28","","18","","24.1","","100.98","","","","-29","","Mainly Clear"
"2014-01-23 20:00","2014","01","23","20:00","-19.7","","-25.1","","63","","29","","18","","24.1","","101.01","","","","-30","","NA"
"2014-01-23 21:00","2014","01","23","21:00","-20.2","","-25.2","","65","","29","","18","","24.1","","101.06","","","","-30","","NA"
"2014-01-23 22:00","2014","01","23","22:00","-20.8","","-25.3","","68","","30","","16","","24.1","","101.06","","","","-30","","Mainly Clear"
"2014-01-23 23:00","2014","01","23","23:00","-21.6","","-25.9","","69","","29","","14","","24.1","","101.10","","","","-31","","NA"
"2014-01-24 00:00","2014","01","24","00:00","-22.3","","-26.1","","72","","28","","13","","24.1","","101.11","","","","-31","","NA"
"2014-01-24 01:00","2014","01","24","01:00","-22.8","","-26.6","","72","","28","","14","","24.1","","101.08","","","","-32","","Mainly Clear"
"2014-01-24 02:00","2014","01","24","02:00","-23.1","","-27.0","","71","","28","","14","","24.1","","101.11","","","","-33","","NA"
"2014-01-24 03:00","2014","01","24","03:00","-24.1","","-27.7","","73","","27","","10","","24.1","","101.15","","","","-32","","NA"
"2014-01-24 04:00","2014","01","24","04:00","-24.0","","-27.6","","73","","28","","14","","24.1","","101.15","","","","-34","","Clear"
"2014-01-24 05:00","2014","01","24","05:00","-25.9","","-28.8","","77","","25","","13","","24.1","","101.16","","","","-36","","NA"
"2014-01-24 06:00","2014","01","24","06:00","-26.3","","-29.4","","76","","24","","10","","24.1","","101.16","","","","-35","","NA"
"2014-01-24 07:00","2014","01","24","07:00","-26.6","","-29.4","","78","","22","","9","","24.1","","101.17","","","","-35","","Clear"
"2014-01-24 08:00","2014","01","24","08:00","-26.5","","-29.4","","77","","22","","8","","24.1","","101.13","","","","-34","","NA"
"2014-01-24 09:00","2014","01","24","09:00","-24.7","","-28.4","","72","","20","","9","","24.1","","101.06","","","","-32","","NA"
"2014-01-24 10:00","2014","01","24","10:00","-22.0","","-27.1","","64","","20","","15","","24.1","","100.99","","","","-32","","Mainly Clear"
"2014-01-24 11:00","2014","01","24","11:00","-20.1","","-25.8","","61","","16","","17","","24.1","","100.80","","","","-30","","NA"
"2014-01-24 12:00","2014","01","24","12:00","-17.9","","-24.3","","58","","19","","16","","24.1","","100.63","","","","-27","","NA"
"2014-01-24 13:00","2014","01","24","13:00","-16.2","","-22.7","","58","","16","","22","","24.1","","100.35","","","","-26","","Mostly Cloudy"
"2014-01-24 14:00","2014","01","24","14:00","-15.7","","-22.2","","58","","17","","17","","24.1","","100.19","","","","-24","","NA"
"2014-01-24 15:00","2014","01","24","15:00","-14.2","","-19.6","","64","","17","","17","","24.1","","100.02","","","","-22","","NA"
"2014-01-24 16:00","2014","01","24","16:00","-12.6","","-17.9","","65","","16","","17","","24.1","","99.81","","","","-20","","Cloudy"
"2014-01-24 17:00","2014","01","24","17:00","-10.3","","-15.1","","68","","20","","32","","24.1","","99.69","","","","-20","","NA"
"2014-01-24 18:00","2014","01","24","18:00","-9.7","","-15.7","","62","","19","","34","","24.1","","99.55","","","","-20","","NA"
"2014-01-24 19:00","2014","01","24","19:00","-9.4","","-15.4","","62","","20","","26","","24.1","","99.45","","","","-18","","Cloudy"
"2014-01-24 20:00","2014","01","24","20:00","-8.9","","-15.1","","61","","20","","27","","24.1","","99.32","","","","-18","","NA"
"2014-01-24 21:00","2014","01","24","21:00","-9.7","","-16.3","","59","","19","","27","","24.1","","99.19","","","","-19","","Snow"
"2014-01-24 22:00","2014","01","24","22:00","-9.9","","-15.9","","62","","18","","19","","16.1","","99.06","","","","-18","","Snow"
"2014-01-24 23:00","2014","01","24","23:00","-8.4","","-14.3","","63","","21","","31","","16.1","","98.93","","","","-18","","NA"
"2014-01-25 00:00","2014","01","25","00:00","-8.6","","-13.7","","67","","21","","27","","16.1","","98.86","","","","-17","","Snow"
"2014-01-25 01:00","2014","01","25","01:00","-8.4","","-13.5","","67","","20","","27","","16.1","","98.76","","","","-17","","Snow"
"2014-01-25 02:00","2014","01","25","02:00","-8.6","","-12.1","","76","","20","","28","","3.2","","98.65","","","","-17","","Snow"
"2014-01-25 03:00","2014","01","25","03:00","-8.3","","-11.8","","76","","18","","23","","12.9","","98.54","","","","-16","","Snow"
"2014-01-25 04:00","2014","01","25","04:00","-8.4","","-10.6","","84","","18","","17","","4.0","","98.43","","","","-15","","Snow"
"2014-01-25 05:00","2014","01","25","05:00","-9.2","","-11.3","","85","","17","","29","","2.4","","98.32","","","","-18","","Snow"
"2014-01-25 06:00","2014","01","25","06:00","-9.2","","-11.6","","83","","18","","26","","2.4","","98.25","","","","-18","","Snow"
"2014-01-25 07:00","2014","01","25","07:00","-9.1","","-11.6","","82","","17","","28","","3.2","","98.18","","","","-18","","Snow"
"2014-01-25 08:00","2014","01","25","08:00","-8.8","","-11.8","","79","","17","","30","","3.2","","98.12","","","","-18","","Snow"
"2014-01-25 09:00","2014","01","25","09:00","-8.6","","-11.9","","77","","17","","23","","9.7","","98.05","","","","-17","","Snow"
"2014-01-25 10:00","2014","01","25","10:00","-8.4","","-11.7","","77","","16","","27","","12.9","","97.98","","","","-17","","Blowing Snow"
"2014-01-25 11:00","2014","01","25","11:00","-7.3","","-10.5","","78","","18","","33","","4.0","","97.88","","","","-16","","Snow,Blowing Snow"
"2014-01-25 12:00","2014","01","25","12:00","-6.0","","-9.9","","74","","17","","27","","9.7","","97.72","","","","-14","","Snow,Blowing Snow"
"2014-01-25 13:00","2014","01","25","13:00","-5.3","","-9.6","","72","","18","","27","","9.7","","97.60","","","","-13","","Snow,Blowing Snow"
"2014-01-25 14:00","2014","01","25","14:00","-5.1","","-9.2","","73","","17","","31","","9.7","","97.52","","","","-13","","Snow,Blowing Snow"
"2014-01-25 15:00","2014","01","25","15:00","-5.3","","-8.7","","77","","17","","34","","9.7","","97.45","","","","-14","","Snow,Blowing Snow"
"2014-01-25 16:00","2014","01","25","16:00","-5.5","","-7.9","","83","","16","","27","","2.4","","97.46","","","","-13","","Snow,Blowing Snow"
"2014-01-25 17:00","2014","01","25","17:00","-6.0","","-8.1","","85","","16","","28","","2.4","","97.45","","","","-14","","Snow,Blowing Snow"
"2014-01-25 18:00","2014","01","25","18:00","-5.9","","-7.4","","89","","18","","21","","4.0","","97.48","","","","-13","","Snow,Blowing Snow,Blowing Sand"
"2014-01-25 19:00","2014","01","25","19:00","-6.3","","-8.9","","82","","28","","30","","4.8","","97.62","","","","-15","","Snow,Blowing Snow"
"2014-01-25 20:00","2014","01","25","20:00","-11.4","","-15.2","","74","","30","","46","","2.4","","97.79","","","","-23","","Blowing Snow"
"2014-01-25 21:00","2014","01","25","21:00","-15.8","","-19.9","","71","","30","","50","","1.6","","98.00","","","","-30","","Blowing Snow"
"2014-01-25 22:00","2014","01","25","22:00","-17.5","","-23.0","","63","","28","","36","","16.1","","98.17","","","","-30","","Blowing Snow"
"2014-01-25 23:00","2014","01","25","23:00","-18.7","","-24.1","","63","","28","","37","","19.3","","98.38","","","","-32","","Blowing Snow"
"2014-01-26 00:00","2014","01","26","00:00","-19.6","","-25.7","","59","","28","","27","","24.1","","98.48","","","","-31","","Blowing Snow"
"2014-01-26 01:00","2014","01","26","01:00","-20.3","","-26.2","","60","","28","","31","","24.1","","98.60","","","","-33","","Blowing Snow"
"2014-01-26 02:00","2014","01","26","02:00","-20.8","","-26.9","","59","","28","","21","","24.1","","98.74","","","","-32","","NA"
"2014-01-26 03:00","2014","01","26","03:00","-21.4","","-26.9","","62","","27","","24","","24.1","","98.85","","","","-33","","NA"
"2014-01-26 04:00","2014","01","26","04:00","-22.0","","-27.5","","62","","28","","19","","24.1","","98.94","","","","-33","","Clear"
"2014-01-26 05:00","2014","01","26","05:00","-22.5","","-28.3","","60","","27","","14","","24.1","","99.04","","","","-32","","NA"
"2014-01-26 06:00","2014","01","26","06:00","-23.9","","-28.8","","65","","26","","4","","24.1","","99.03","","","","-28","","NA"
"2014-01-26 07:00","2014","01","26","07:00","-24.3","","-29.0","","66","","26","","12","","24.1","","99.15","","","","-33","","Clear"
"2014-01-26 08:00","2014","01","26","08:00","-24.6","","-29.1","","67","","26","","13","","24.1","","99.25","","","","-34","","NA"
"2014-01-26 09:00","2014","01","26","09:00","-22.8","","-28.4","","61","","24","","10","","24.1","","99.32","","","","-31","","NA"
"2014-01-26 10:00","2014","01","26","10:00","-21.0","","-27.2","","58","","30","","17","","24.1","","99.33","","","","-31","","Mostly Cloudy"
"2014-01-26 11:00","2014","01","26","11:00","-20.2","","-27.1","","55","","26","","5","","24.1","","99.34","","","","-25","","NA"
"2014-01-26 12:00","2014","01","26","12:00","-19.0","","-25.9","","55","","20","","13","","24.1","","99.30","","","","-27","","NA"
"2014-01-26 13:00","2014","01","26","13:00","-18.2","","-26.0","","51","","17","","12","","24.1","","99.21","","","","-26","","Mostly Cloudy"
"2014-01-26 14:00","2014","01","26","14:00","-17.3","","-25.7","","49","","17","","14","","24.1","","99.16","","","","-25","","NA"
"2014-01-26 15:00","2014","01","26","15:00","-16.7","","-24.9","","50","","19","","12","","24.1","","99.14","","","","-24","","NA"
"2014-01-26 16:00","2014","01","26","16:00","-16.1","","-23.2","","55","","15","","7","","19.3","","99.15","","","","-21","","Mostly Cloudy"
"2014-01-26 17:00","2014","01","26","17:00","-16.8","","-21.4","","68","","11","","13","","12.9","","99.12","","","","-25","","Snow"
"2014-01-26 18:00","2014","01","26","18:00","-17.0","","-20.0","","78","","8","","13","","4.8","","99.04","","","","-25","","Snow"
"2014-01-26 19:00","2014","01","26","19:00","-17.1","","-19.9","","79","","8","","16","","3.2","","99.11","","","","-26","","Snow"
"2014-01-26 20:00","2014","01","26","20:00","-17.1","","-19.8","","80","","8","","18","","4.8","","99.00","","","","-26","","Snow"
"2014-01-26 21:00","2014","01","26","21:00","-17.2","","-19.9","","80","","8","","22","","9.7","","98.93","","","","-27","","Snow"
"2014-01-26 22:00","2014","01","26","22:00","-17.1","","-19.6","","81","","7","","20","","4.8","","98.82","","","","-27","","Snow"
"2014-01-26 23:00","2014","01","26","23:00","-17.0","","-19.5","","81","","6","","15","","12.9","","98.82","","","","-25","","Snow"
"2014-01-27 00:00","2014","01","27","00:00","-16.7","","-19.1","","82","","7","","24","","2.4","","98.61","","","","-27","","Snow"
"2014-01-27 01:00","2014","01","27","01:00","-15.9","","-18.3","","82","","7","","19","","12.9","","98.45","","","","-25","","Snow"
"2014-01-27 02:00","2014","01","27","02:00","-15.3","","-17.6","","83","","7","","23","","3.2","","98.23","","","","-25","","Snow"
"2014-01-27 03:00","2014","01","27","03:00","-14.6","","-16.9","","83","","7","","19","","3.2","","98.19","","","","-23","","Snow"
"2014-01-27 04:00","2014","01","27","04:00","-14.4","","-16.7","","83","","7","","20","","2.4","","97.99","","","","-23","","Snow"
"2014-01-27 05:00","2014","01","27","05:00","-14.4","","-16.5","","84","","35","","11","","1.6","","97.97","","","","-21","","Snow"
"2014-01-27 06:00","2014","01","27","06:00","-14.6","","-16.7","","84","","1","","12","","2.4","","97.90","","","","-21","","Snow"
"2014-01-27 07:00","2014","01","27","07:00","-14.4","","-16.5","","84","","5","","11","","2.4","","97.85","","","","-21","","Snow"
"2014-01-27 08:00","2014","01","27","08:00","-13.9","","-15.9","","85","","23","","9","","0.6","","98.02","","","","-20","","Moderate Snow"
"2014-01-27 09:00","2014","01","27","09:00","-12.5","","-14.8","","83","","19","","9","","24.1","","98.15","","","","-18","","NA"
"2014-01-27 10:00","2014","01","27","10:00","-7.7","","-13.6","","63","","25","","48","","3.2","","98.33","","","","-18","","Blowing Snow"
"2014-01-27 11:00","2014","01","27","11:00","-8.4","","-13.7","","66","","24","","32","","1.6","","98.55","","","","-18","","Blowing Snow"
"2014-01-27 12:00","2014","01","27","12:00","-12.1","","-15.7","","75","","28","","44","","1.6","","98.89","","","","-24","","Blowing Snow"
"2014-01-27 13:00","2014","01","27","13:00","-12.2","","-19.1","","57","","28","","41","","24.1","","99.12","","","","-24","","Blowing Snow"
"2014-01-27 14:00","2014","01","27","14:00","-12.7","","-19.2","","59","","28","","36","","24.1","","99.32","","","","-24","","Blowing Snow"
"2014-01-27 15:00","2014","01","27","15:00","-13.0","","-20.3","","55","","28","","31","","24.1","","99.48","","","","-24","","NA"
"2014-01-27 16:00","2014","01","27","16:00","-13.4","","-20.9","","54","","30","","21","","24.1","","99.59","","","","-22","","Clear"
"2014-01-27 17:00","2014","01","27","17:00","-14.4","","-21.6","","55","","29","","14","","24.1","","99.67","","","","-22","","NA"
"2014-01-27 18:00","2014","01","27","18:00","-15.0","","-21.1","","60","","29","","10","","24.1","","99.76","","","","-21","","NA"
"2014-01-27 19:00","2014","01","27","19:00","-15.7","","-21.4","","62","","24","","7","","24.1","","99.86","","","","-21","","Mainly Clear"
"2014-01-27 20:00","2014","01","27","20:00","-16.9","","-21.7","","67","","25","","12","","24.1","","99.99","","","","-24","","NA"
"2014-01-27 21:00","2014","01","27","21:00","-18.5","","-22.2","","73","","27","","10","","24.1","","100.03","","","","-25","","NA"
"2014-01-27 22:00","2014","01","27","22:00","-18.9","","-24.7","","61","","27","","13","","24.1","","100.07","","","","-27","","Mainly Clear"
"2014-01-27 23:00","2014","01","27","23:00","-18.3","","-22.7","","69","","29","","22","","24.1","","100.11","","","","-29","","NA"
"2014-01-28 00:00","2014","01","28","00:00","-19.7","","-24.2","","68","","28","","14","","24.1","","100.19","","","","-28","","NA"
"2014-01-28 01:00","2014","01","28","01:00","-21.7","","-25.8","","70","","22","","10","","24.1","","100.25","","","","-29","","Clear"
"2014-01-28 02:00","2014","01","28","02:00","-21.9","","-25.7","","72","","22","","10","","24.1","","100.30","","","","-29","","NA"
"2014-01-28 03:00","2014","01","28","03:00","-22.2","","-26.9","","66","","20","","13","","24.1","","100.28","","","","-31","","NA"
"2014-01-28 04:00","2014","01","28","04:00","-20.5","","-26.8","","58","","24","","19","","24.1","","100.31","","","","-31","","Cloudy"
"2014-01-28 05:00","2014","01","28","05:00","-20.7","","-25.2","","68","","23","","19","","19.3","","100.39","","","","-31","","NA"
"2014-01-28 06:00","2014","01","28","06:00","-21.2","","-25.8","","67","","23","","22","","24.1","","100.45","","","","-32","","NA"
"2014-01-28 07:00","2014","01","28","07:00","-22.0","","-25.9","","71","","22","","14","","24.1","","100.52","","","","-31","","Clear"
"2014-01-28 08:00","2014","01","28","08:00","-22.0","","-25.5","","74","","22","","12","","24.1","","100.62","","","","-30","","NA"
"2014-01-28 09:00","2014","01","28","09:00","-20.0","","-23.8","","72","","21","","15","","24.1","","100.69","","","","-29","","NA"
"2014-01-28 10:00","2014","01","28","10:00","-16.8","","-21.9","","65","","22","","19","","24.1","","100.73","","","","-26","","Mostly Cloudy"
"2014-01-28 11:00","2014","01","28","11:00","-14.1","","-21.1","","56","","22","","24","","24.1","","100.74","","","","-24","","NA"
"2014-01-28 12:00","2014","01","28","12:00","-12.8","","-20.1","","55","","21","","23","","24.1","","100.67","","","","-22","","NA"
"2014-01-28 13:00","2014","01","28","13:00","-11.7","","-19.9","","51","","21","","25","","24.1","","100.60","","","","-21","","Clear"
"2014-01-28 14:00","2014","01","28","14:00","-11.1","","-20.1","","48","","22","","33","","24.1","","100.51","","","","-21","","Blowing Snow"
"2014-01-28 15:00","2014","01","28","15:00","-10.8","","-21.1","","43","","21","","30","","24.1","","100.42","","","","-21","","Blowing Snow"
"2014-01-28 16:00","2014","01","28","16:00","-11.2","","-22.0","","41","","22","","32","","24.1","","100.43","","","","-21","","Blowing Snow"
"2014-01-28 17:00","2014","01","28","17:00","-12.4","","-22.1","","45","","23","","33","","24.1","","100.44","","","","-23","","Blowing Snow"
"2014-01-28 18:00","2014","01","28","18:00","-13.3","","-22.2","","48","","22","","32","","24.1","","100.52","","","","-24","","Blowing Snow"
"2014-01-28 19:00","2014","01","28","19:00","-14.1","","-22.4","","50","","23","","26","","24.1","","100.56","","","","-24","","Blowing Snow"
"2014-01-28 20:00","2014","01","28","20:00","-14.7","","-22.5","","52","","22","","18","","24.1","","100.55","","","","-23","","NA"
"2014-01-28 21:00","2014","01","28","21:00","-15.2","","-21.7","","58","","21","","14","","24.1","","100.55","","","","-23","","NA"
"2014-01-28 22:00","2014","01","28","22:00","-15.5","","-19.5","","72","","22","","16","","24.1","","100.53","","","","-24","","Mostly Cloudy"
"2014-01-28 23:00","2014","01","28","23:00","-14.3","","-18.1","","73","","23","","21","","8.1","","100.50","","","","-24","","Snow"
"2014-01-29 00:00","2014","01","29","00:00","-13.9","","-17.6","","74","","22","","18","","24.1","","100.42","","","","-22","","Snow"
"2014-01-29 01:00","2014","01","29","01:00","-14.0","","-18.9","","67","","22","","20","","24.1","","100.37","","","","-23","","Mostly Cloudy"
"2014-01-29 02:00","2014","01","29","02:00","-14.5","","-20.3","","62","","20","","13","","24.1","","100.32","","","","-22","","NA"
"2014-01-29 03:00","2014","01","29","03:00","-13.8","","-20.4","","58","","22","","25","","24.1","","100.29","","","","-24","","NA"
"2014-01-29 04:00","2014","01","29","04:00","-14.0","","-20.2","","60","","21","","28","","24.1","","100.20","","","","-24","","Mostly Cloudy"
"2014-01-29 05:00","2014","01","29","05:00","-14.8","","-21.0","","60","","21","","18","","24.1","","100.16","","","","-23","","NA"
"2014-01-29 06:00","2014","01","29","06:00","-15.5","","-20.3","","67","","20","","20","","64.4","","100.08","","","","-25","","NA"
"2014-01-29 07:00","2014","01","29","07:00","-15.8","","-21.3","","63","","21","","22","","24.1","","100.04","","","","-26","","Mainly Clear"
"2014-01-29 08:00","2014","01","29","08:00","-15.7","","-21.2","","63","","20","","22","","24.1","","99.99","","","","-25","","NA"
"2014-01-29 09:00","2014","01","29","09:00","-15.0","","-20.8","","62","","22","","21","","24.1","","99.99","","","","-24","","NA"
"2014-01-29 10:00","2014","01","29","10:00","-13.6","","-20.0","","59","","21","","33","","24.1","","99.94","","","","-25","","Mostly Cloudy"
"2014-01-29 11:00","2014","01","29","11:00","-12.9","","-19.5","","58","","23","","30","","24.1","","99.94","","","","-23","","NA"
"2014-01-29 12:00","2014","01","29","12:00","-12.1","","-18.6","","59","","21","","27","","24.1","","99.79","","","","-22","","NA"
"2014-01-29 13:00","2014","01","29","13:00","-12.0","","-17.0","","67","","22","","32","","2.4","","99.75","","","","-22","","Snow,Blowing Snow"
"2014-01-29 14:00","2014","01","29","14:00","-11.8","","-16.4","","69","","23","","28","","12.9","","99.74","","","","-22","","Snow"
"2014-01-29 15:00","2014","01","29","15:00","-11.7","","-17.2","","64","","23","","27","","16.1","","99.83","","","","-21","","Snow"
"2014-01-29 16:00","2014","01","29","16:00","-11.8","","-18.1","","60","","22","","31","","24.1","","99.88","","","","-22","","Clear"
"2014-01-29 17:00","2014","01","29","17:00","-12.2","","-18.3","","61","","22","","24","","24.1","","99.95","","","","-21","","NA"
"2014-01-29 18:00","2014","01","29","18:00","-12.4","","-18.1","","63","","21","","27","","24.1","","100.03","","","","-22","","NA"
"2014-01-29 19:00","2014","01","29","19:00","-12.5","","-18.4","","62","","22","","31","","24.1","","100.09","","","","-23","","Mainly Clear"
"2014-01-29 20:00","2014","01","29","20:00","-12.8","","-18.5","","63","","22","","25","","24.1","","100.18","","","","-22","","NA"
"2014-01-29 21:00","2014","01","29","21:00","-11.9","","-17.6","","63","","23","","24","","24.1","","100.25","","","","-21","","NA"
"2014-01-29 22:00","2014","01","29","22:00","-11.6","","-17.3","","63","","23","","17","","24.1","","100.39","","","","-19","","Cloudy"
"2014-01-29 23:00","2014","01","29","23:00","-11.7","","-17.2","","64","","24","","18","","24.1","","100.49","","","","-20","","NA"
"2014-01-30 00:00","2014","01","30","00:00","-12.4","","-17.7","","65","","22","","18","","24.1","","100.57","","","","-20","","NA"
"2014-01-30 01:00","2014","01","30","01:00","-12.4","","-17.3","","67","","23","","16","","24.1","","100.63","","","","-20","","Mostly Cloudy"
"2014-01-30 02:00","2014","01","30","02:00","-12.4","","-17.0","","69","","23","","18","","24.1","","100.68","","","","-20","","NA"
"2014-01-30 03:00","2014","01","30","03:00","-13.9","","-18.1","","71","","22","","13","","24.1","","100.73","","","","-21","","NA"
"2014-01-30 04:00","2014","01","30","04:00","-14.9","","-18.6","","74","","20","","11","","24.1","","100.77","","","","-21","","Mainly Clear"
"2014-01-30 05:00","2014","01","30","05:00","-15.6","","-18.8","","77","","21","","8","","24.1","","100.82","","","","-21","","NA"
"2014-01-30 06:00","2014","01","30","06:00","-16.2","","-19.0","","79","","17","","11","","24.1","","100.82","","","","-23","","NA"
"2014-01-30 07:00","2014","01","30","07:00","-16.0","","-18.7","","80","","16","","14","","24.1","","100.84","","","","-24","","Mainly Clear"
"2014-01-30 08:00","2014","01","30","08:00","-15.0","","-18.0","","78","","16","","11","","19.3","","100.91","","","","-22","","NA"
"2014-01-30 09:00","2014","01","30","09:00","-12.6","","-16.5","","73","","17","","15","","24.1","","100.92","","","","-20","","NA"
"2014-01-30 10:00","2014","01","30","10:00","-9.0","","-12.5","","76","","19","","14","","24.1","","100.90","","","","-15","","Mainly Clear"
"2014-01-30 11:00","2014","01","30","11:00","-6.5","","-11.5","","68","","19","","28","","24.1","","100.88","","","","-15","","NA"
"2014-01-30 12:00","2014","01","30","12:00","-6.4","","-11.6","","67","","20","","30","","24.1","","100.76","","","","-15","","NA"
"2014-01-30 13:00","2014","01","30","13:00","-6.0","","-12.2","","62","","19","","33","","24.1","","100.65","","","","-15","","Mostly Cloudy"
"2014-01-30 14:00","2014","01","30","14:00","-5.8","","-12.4","","60","","19","","28","","24.1","","100.56","","","","-14","","NA"
"2014-01-30 15:00","2014","01","30","15:00","-5.5","","-12.5","","58","","18","","27","","24.1","","100.45","","","","-13","","NA"
"2014-01-30 16:00","2014","01","30","16:00","-5.6","","-13.3","","55","","19","","25","","19.3","","100.40","","","","-13","","Mostly Cloudy"
"2014-01-30 17:00","2014","01","30","17:00","-5.7","","-14.1","","52","","19","","21","","24.1","","100.33","","","","-13","","NA"
"2014-01-30 18:00","2014","01","30","18:00","-5.6","","-14.5","","50","","19","","20","","19.3","","100.26","","","","-12","","NA"
"2014-01-30 19:00","2014","01","30","19:00","-6.0","","-14.8","","50","","17","","12","","24.1","","100.12","","","","-11","","Cloudy"
"2014-01-30 20:00","2014","01","30","20:00","-6.2","","-14.5","","52","","17","","19","","24.1","","99.94","","","","-13","","NA"
"2014-01-30 21:00","2014","01","30","21:00","-5.5","","-14.9","","48","","18","","22","","24.1","","99.82","","","","-13","","NA"
"2014-01-30 22:00","2014","01","30","22:00","-4.9","","-14.8","","46","","17","","22","","24.1","","99.69","","","","-12","","Cloudy"
"2014-01-30 23:00","2014","01","30","23:00","-4.4","","-14.7","","45","","19","","20","","24.1","","99.61","","","","-11","","NA"
"2014-01-31 00:00","2014","01","31","00:00","-4.0","","-13.7","","47","","18","","23","","24.1","","99.48","","","","-11","","NA"
"2014-01-31 01:00","2014","01","31","01:00","-3.9","","-13.4","","48","","20","","20","","24.1","","99.48","","","","-10","","Cloudy"
"2014-01-31 02:00","2014","01","31","02:00","-3.4","","-10.3","","59","","20","","23","","24.1","","99.45","","","","-10","","NA"
"2014-01-31 03:00","2014","01","31","03:00","-3.0","","-7.7","","70","","21","","25","","12.9","","99.48","","","","-10","","Snow"
"2014-01-31 04:00","2014","01","31","04:00","-2.8","","-6.3","","77","","22","","24","","24.1","","99.49","","","","-9","","Snow"
"2014-01-31 05:00","2014","01","31","05:00","-2.6","","-5.9","","78","","23","","21","","24.1","","99.56","","","","-9","","Snow"
"2014-01-31 06:00","2014","01","31","06:00","-2.3","","-6.5","","73","","22","","26","","24.1","","99.56","","","","-9","","NA"
"2014-01-31 07:00","2014","01","31","07:00","-2.5","","-5.5","","80","","20","","22","","24.1","","99.58","","","","-9","","Cloudy"
"2014-01-31 08:00","2014","01","31","08:00","-2.3","","-5.6","","78","","22","","25","","24.1","","99.69","","","","-9","","NA"
"2014-01-31 09:00","2014","01","31","09:00","-2.0","","-6.0","","74","","23","","24","","24.1","","99.81","","","","-8","","NA"
"2014-01-31 10:00","2014","01","31","10:00","-1.1","","-6.3","","68","","23","","21","","24.1","","99.93","","","","-7","","Mostly Cloudy"
"2014-01-31 11:00","2014","01","31","11:00","-0.7","","-6.3","","66","","24","","27","","24.1","","99.98","","","","-7","","NA"
"2014-01-31 12:00","2014","01","31","12:00","-0.8","","-5.8","","69","","26","","26","","24.1","","100.02","","","","-7","","NA"
"2014-01-31 13:00","2014","01","31","13:00","-0.2","","-8.0","","56","","25","","22","","24.1","","100.05","","","","-6","","Mostly Cloudy"
"2014-01-31 14:00","2014","01","31","14:00","0.3","","-8.2","","53","","25","","19","","24.1","","100.07","","","","","","NA"
"2014-01-31 15:00","2014","01","31","15:00","-0.7","","-8.9","","54","","29","","21","","24.1","","100.11","","","","-6","","NA"
"2014-01-31 16:00","2014","01","31","16:00","-1.8","","-8.6","","60","","30","","13","","24.1","","100.18","","","","-6","","Mainly Clear"
"2014-01-31 17:00","2014","01","31","17:00","-2.7","","-10.3","","56","","29","","13","","24.1","","100.31","","","","-7","","NA"
"2014-01-31 18:00","2014","01","31","18:00","-3.6","","-10.7","","58","","29","","10","","24.1","","100.39","","","","-8","","NA"
"2014-01-31 19:00","2014","01","31","19:00","-3.9","","-11.2","","57","","29","","12","","24.1","","100.44","","","","-9","","Mostly Cloudy"
"2014-01-31 20:00","2014","01","31","20:00","-4.5","","-11.8","","57","","24","","8","","24.1","","100.51","","","","-8","","NA"
"2014-01-31 21:00","2014","01","31","21:00","-5.3","","-11.1","","64","","22","","9","","24.1","","100.60","","","","-9","","NA"
"2014-01-31 22:00","2014","01","31","22:00","-5.8","","-11.8","","63","","25","","10","","24.1","","100.66","","","","-10","","Mainly Clear"
"2014-01-31 23:00","2014","01","31","23:00","-6.9","","-12.2","","66","","23","","10","","24.1","","100.67","","","","-12","","NA"
