"Station Name","OTTAWA MACDONALD-CARTIER INT'L A"
"Province","ONTARIO"
"Latitude","45.32"
"Longitude","-75.67"
"Elevation","114.00"
"Climate Identifier","6106000"
"WMO Identifier","71628"
"TC Identifier","YOW"
"All times are specified in Local Standard Time (LST). Add 1 hour to adjust for Daylight Saving Time where and when it is observed."

"Legend"
"E","Estimated"
"M","Missing"
"NA","Not Available"

"Date/Time","Year","Month","Day","Time","Temp (°C)","Temp Flag","Dew Point Temp (°C)","Dew Point Temp Flag","Rel Hum (%)","Rel Hum Flag","Wind Dir (10s deg)","Wind Dir Flag","Wind Spd (km/h)","Wind Spd Flag","Visibility (km)","Visibility Flag","Stn Press (kPa)","Stn Press Flag","Hmdx","Hmdx Flag","Wind Chill","Wind Chill Flag","Weather"
"1996-01-01 00:00","1996","01","01","00:00","-5.5","","-10.3","","69","","1","","17","","24.1","","100.29","","","","-12","","Cloudy"
"1996-01-01 01:00","1996","01","01","01:00","-6.2","","-11.4","","67","","2","","22","","24.1","","100.29","","","","-13","","Cloudy"
"1996-01-01 02:00","1996","01","01","02:00","-7.0","","-11.9","","68","","36","","13","","24.1","","100.36","","","","-13","","Cloudy"
"1996-01-01 03:00","1996","01","01","03:00","-7.8","","-12.9","","67","","2","","15","","24.1","","100.39","","","","-14","","Snow"
"1996-01-01 04:00","1996","01","01","04:00","-9.8","","-14.8","","67","","2","","15","","24.1","","100.43","","","","-16","","Snow"
"1996-01-01 05:00","1996","01","01","05:00","-10.6","","-15.5","","67","","2","","19","","24.1","","100.43","","","","-18","","Snow"
"1996-01-01 06:00","1996","01","01","06:00","-11.3","","-16.0","","68","","1","","13","","19.3","","100.49","","","","-18","","Snow"
"1996-01-01 07:00","1996","01","01","07:00","-12.0","","-16.9","","67","","2","","19","","19.3","","100.53","","","","-20","","Snow"
"1996-01-01 08:00","1996","01","01","08:00","-13.1","","-17.9","","67","","1","","19","","24.1","","100.63","","","","-22","","Snow"
"1996-01-01 09:00","1996","01","01","09:00","-14.1","","-17.9","","73","","2","","19","","19.3","","100.63","","","","-23","","Snow"
"1996-01-01 10:00","1996","01","01","10:00","-13.4","","-17.9","","69","","3","","17","","24.1","","100.70","","","","-21","","Snow"
"1996-01-01 11:00","1996","01","01","11:00","-12.7","","-17.4","","68","","2","","13","","40.2","","100.66","","","","-20","","Mainly Clear"
"1996-01-01 12:00","1996","01","01","12:00","-12.4","","-16.9","","69","","2","","11","","40.2","","100.56","","","","-18","","Mainly Clear"
"1996-01-01 13:00","1996","01","01","13:00","-11.4","","-16.9","","64","","35","","11","","40.2","","100.56","","","","-17","","Mainly Clear"
"1996-01-01 14:00","1996","01","01","14:00","-11.3","","-16.9","","63","","3","","17","","40.2","","100.49","","","","-19","","Mainly Clear"
"1996-01-01 15:00","1996","01","01","15:00","-11.2","","-17.0","","62","","3","","17","","40.2","","100.49","","","","-19","","Mostly Cloudy"
"1996-01-01 16:00","1996","01","01","16:00","-11.1","","-17.3","","60","","4","","7","","40.2","","100.49","","","","-15","","Mostly Cloudy"
"1996-01-01 17:00","1996","01","01","17:00","-12.8","","-18.0","","65","","5","","7","","40.2","","100.43","","","","-17","","Mainly Clear"
"1996-01-01 18:00","1996","01","01","18:00","-13.4","","-18.3","","67","","2","","11","","24.1","","100.43","","","","-20","","Mainly Clear"
"1996-01-01 19:00","1996","01","01","19:00","-13.8","","-18.6","","67","","","","0","","25.0","","100.49","","","","","","Mostly Cloudy"
"1996-01-01 20:00","1996","01","01","20:00","-13.3","","-18.6","","64","","3","","6","","25.0","","100.49","","","","-17","","Mostly Cloudy"
"1996-01-01 21:00","1996","01","01","21:00","-13.8","","-19.5","","62","","1","","17","","25.0","","100.49","","","","-22","","Mostly Cloudy"
"1996-01-01 22:00","1996","01","01","22:00","-14.6","","-20.4","","61","","2","","11","","25.0","","100.49","","","","-21","","Mostly Cloudy"
"1996-01-01 23:00","1996","01","01","23:00","-14.3","","-20.1","","61","","36","","9","","25.0","","100.49","","","","-20","","Mostly Cloudy"
"1996-01-02 00:00","1996","01","02","00:00","-16.0","","-21.4","","63","","35","","13","","25.0","","100.49","","","","-24","","Mostly Cloudy"
"1996-01-02 01:00","1996","01","02","01:00","-15.8","","-21.5","","62","","35","","17","","25.0","","100.43","","","","-24","","Mainly Clear"
"1996-01-02 02:00","1996","01","02","02:00","-16.5","","-21.9","","63","","34","","15","","25.0","","100.49","","","","-25","","Mostly Cloudy"
"1996-01-02 03:00","1996","01","02","03:00","-16.1","","-24.4","","49","","35","","19","","25.0","","100.53","","","","-25","","Mostly Cloudy"
"1996-01-02 04:00","1996","01","02","04:00","-17.0","","-24.6","","52","","35","","17","","25.0","","100.49","","","","-26","","Mainly Clear"
"1996-01-02 05:00","1996","01","02","05:00","-18.0","","-25.0","","54","","34","","11","","25.0","","100.49","","","","-25","","Clear"
"1996-01-02 06:00","1996","01","02","06:00","-18.8","","-25.4","","56","","34","","15","","25.0","","100.56","","","","-28","","Clear"
"1996-01-02 07:00","1996","01","02","07:00","-19.2","","-25.9","","55","","34","","15","","24.1","","100.49","","","","-28","","Mainly Clear"
"1996-01-02 08:00","1996","01","02","08:00","-20.0","","-26.4","","57","","33","","9","","32.2","","100.49","","","","-27","","Mainly Clear"
"1996-01-02 09:00","1996","01","02","09:00","-20.3","","-26.9","","56","","33","","17","","40.2","","100.60","","","","-30","","Mainly Clear"
"1996-01-02 10:00","1996","01","02","10:00","-19.5","","-26.6","","53","","33","","15","","40.2","","100.63","","","","-28","","Mainly Clear"
"1996-01-02 11:00","1996","01","02","11:00","-18.4","","-26.6","","49","","1","","15","","40.2","","100.56","","","","-27","","Mainly Clear"
"1996-01-02 12:00","1996","01","02","12:00","-17.3","","-26.3","","45","","34","","11","","40.2","","100.49","","","","-24","","Mainly Clear"
"1996-01-02 13:00","1996","01","02","13:00","-16.8","","-25.7","","46","","26","","7","","40.2","","100.43","","","","-22","","Mainly Clear"
"1996-01-02 14:00","1996","01","02","14:00","-17.1","","-25.9","","46","","25","","11","","40.2","","100.36","","","","-24","","Cloudy"
"1996-01-02 15:00","1996","01","02","15:00","-17.0","","-25.8","","46","","26","","9","","40.2","","100.36","","","","-23","","Mostly Cloudy"
"1996-01-02 16:00","1996","01","02","16:00","-16.5","","-25.5","","46","","30","","7","","40.2","","100.33","","","","-22","","Mostly Cloudy"
"1996-01-02 17:00","1996","01","02","17:00","-17.4","","-25.6","","49","","30","","11","","32.2","","100.29","","","","-25","","Mainly Clear"
"1996-01-02 18:00","1996","01","02","18:00","-18.4","","-25.9","","52","","29","","9","","25.0","","100.29","","","","-25","","Mainly Clear"
"1996-01-02 19:00","1996","01","02","19:00","-19.3","","-26.4","","53","","31","","11","","24.1","","100.23","","","","-27","","Mostly Cloudy"
"1996-01-02 20:00","1996","01","02","20:00","-19.5","","-26.5","","54","","30","","4","","19.3","","100.26","","","","-23","","Mainly Clear"
"1996-01-02 21:00","1996","01","02","21:00","-20.5","","-27.1","","56","","31","","7","","19.3","","100.19","","","","-26","","Mostly Cloudy"
"1996-01-02 22:00","1996","01","02","22:00","-18.9","","-25.8","","54","","35","","17","","19.3","","100.09","","","","-28","","Mostly Cloudy"
"1996-01-02 23:00","1996","01","02","23:00","-19.6","","-26.7","","53","","36","","6","","16.1","","100.06","","","","-25","","Cloudy"
"1996-01-03 00:00","1996","01","03","00:00","-18.8","","-26.0","","53","","34","","11","","16.1","","99.99","","","","-26","","Cloudy"
"1996-01-03 01:00","1996","01","03","01:00","-19.0","","-25.7","","55","","35","","13","","16.1","","99.93","","","","-27","","Cloudy"
"1996-01-03 02:00","1996","01","03","02:00","-18.6","","-25.8","","53","","36","","15","","16.1","","99.89","","","","-27","","Cloudy"
"1996-01-03 03:00","1996","01","03","03:00","-18.5","","-25.7","","53","","1","","13","","16.1","","99.82","","","","-27","","Cloudy"
"1996-01-03 04:00","1996","01","03","04:00","-18.4","","-26.3","","50","","4","","19","","16.1","","99.79","","","","-28","","Cloudy"
"1996-01-03 05:00","1996","01","03","05:00","-18.3","","-26.1","","50","","5","","19","","16.1","","99.69","","","","-28","","Cloudy"
"1996-01-03 06:00","1996","01","03","06:00","-18.5","","-26.2","","51","","5","","20","","19.3","","99.62","","","","-29","","Cloudy"
"1996-01-03 07:00","1996","01","03","07:00","-18.6","","-26.0","","52","","4","","19","","24.1","","99.56","","","","-28","","Cloudy"
"1996-01-03 08:00","1996","01","03","08:00","-18.4","","-25.9","","52","","4","","17","","32.2","","99.59","","","","-28","","Cloudy"
"1996-01-03 09:00","1996","01","03","09:00","-18.2","","-26.1","","50","","5","","22","","32.2","","99.59","","","","-29","","Cloudy"
"1996-01-03 10:00","1996","01","03","10:00","-17.6","","-25.3","","51","","4","","19","","32.2","","99.56","","","","-27","","Cloudy"
"1996-01-03 11:00","1996","01","03","11:00","-17.3","","-25.4","","49","","5","","15","","32.2","","99.59","","","","-26","","Cloudy"
"1996-01-03 12:00","1996","01","03","12:00","-16.7","","-25.1","","48","","4","","17","","32.2","","99.56","","","","-26","","Cloudy"
"1996-01-03 13:00","1996","01","03","13:00","-16.4","","-25.0","","47","","2","","19","","32.2","","99.46","","","","-26","","Cloudy"
"1996-01-03 14:00","1996","01","03","14:00"
"1996-01-03 15:00","1996","01","03","15:00","-16.6","","-25.4","","46","","3","","17","","32.2","","99.49","","","","-25","","Cloudy"
"1996-01-03 16:00","1996","01","03","16:00","-16.8","","-25.7","","46","","34","","17","","32.2","","99.56","","","","-26","","Mostly Cloudy"
"1996-01-03 17:00","1996","01","03","17:00","-17.2","","-26.3","","45","","35","","15","","24.1","","99.62","","","","-26","","Mostly Cloudy"
"1996-01-03 18:00","1996","01","03","18:00","-17.9","","-27.2","","44","","30","","17","","24.1","","99.69","","","","-27","","Mostly Cloudy"
"1996-01-03 19:00","1996","01","03","19:00","-18.4","","-27.5","","45","","36","","17","","24.1","","99.79","","","","-28","","Cloudy"
"1996-01-03 20:00","1996","01","03","20:00","-19.8","","-28.8","","45","","36","","24","","24.1","","99.86","","","","-31","","Cloudy"
"1996-01-03 21:00","1996","01","03","21:00","-20.5","","-29.7","","44","","1","","22","","19.3","","99.89","","","","-32","","Mostly Cloudy"
"1996-01-03 22:00","1996","01","03","22:00","-20.5","","-29.3","","45","","36","","17","","19.3","","99.93","","","","-30","","Mostly Cloudy"
"1996-01-03 23:00","1996","01","03","23:00","-20.9","","-29.7","","45","","35","","13","","19.3","","99.96","","","","-30","","Mostly Cloudy"
"1996-01-04 00:00","1996","01","04","00:00","-22.0","","-30.1","","48","","34","","11","","16.1","","99.99","","","","-30","","Mainly Clear"
"1996-01-04 01:00","1996","01","04","01:00","-23.0","","-30.5","","50","","33","","15","","16.1","","99.93","","","","-33","","Mainly Clear"
"1996-01-04 02:00","1996","01","04","02:00","-23.5","","-30.8","","51","","33","","15","","19.3","","99.99","","","","-33","","Mainly Clear"
"1996-01-04 03:00","1996","01","04","03:00","-24.0","","-31.1","","52","","33","","17","","19.3","","100.06","","","","-35","","Mainly Clear"
"1996-01-04 04:00","1996","01","04","04:00","-24.4","","-31.7","","51","","31","","11","","19.3","","100.16","","","","-33","","Mainly Clear"
"1996-01-04 05:00","1996","01","04","05:00","-25.4","","-32.3","","52","","31","","11","","19.3","","100.19","","","","-34","","Mainly Clear"
"1996-01-04 06:00","1996","01","04","06:00","-25.9","","-32.2","","55","","31","","13","","24.1","","100.29","","","","-36","","Mainly Clear"
"1996-01-04 07:00","1996","01","04","07:00","-25.9","","-32.2","","55","","29","","6","","19.3","","100.33","","","","-32","","Mostly Cloudy"
"1996-01-04 08:00","1996","01","04","08:00","-26.0","","-32.6","","54","","30","","13","","19.3","","100.36","","","","-36","","Mostly Cloudy"
"1996-01-04 09:00","1996","01","04","09:00","-25.3","","-32.4","","52","","30","","11","","19.3","","100.46","","","","-34","","Mainly Clear"
"1996-01-04 10:00","1996","01","04","10:00","-24.2","","-31.8","","49","","29","","7","","19.3","","100.53","","","","-31","","Mainly Clear"
"1996-01-04 11:00","1996","01","04","11:00","-23.6","","-31.0","","51","","29","","11","","19.3","","100.53","","","","-32","","Clear"
"1996-01-04 12:00","1996","01","04","12:00","-22.9","","-31.7","","44","","30","","15","","24.1","","100.53","","","","-33","","Clear"
"1996-01-04 13:00","1996","01","04","13:00","-21.7","","-31.3","","42","","25","","15","","24.1","","100.53","","","","-31","","Mainly Clear"
"1996-01-04 14:00","1996","01","04","14:00","-21.2","","-31.0","","41","","25","","13","","24.1","","100.56","","","","-30","","Mostly Cloudy"
"1996-01-04 15:00","1996","01","04","15:00","-21.0","","-30.2","","43","","26","","13","","24.1","","100.60","","","","-30","","Cloudy"
"1996-01-04 16:00","1996","01","04","16:00","-20.9","","-29.4","","46","","25","","9","","9.7","","100.60","","","","-28","","Snow"
"1996-01-04 17:00","1996","01","04","17:00","-21.2","","-28.7","","51","","26","","9","","6.4","","100.63","","","","-28","","Snow"
"1996-01-04 18:00","1996","01","04","18:00","-21.3","","-27.9","","55","","24","","6","","9.7","","100.63","","","","-27","","Snow"
"1996-01-04 19:00","1996","01","04","19:00","-21.2","","-27.3","","58","","24","","6","","4.0","","100.60","","","","-26","","Snow"
"1996-01-04 20:00","1996","01","04","20:00","-21.2","","-27.1","","59","","","","0","","9.7","","100.60","","","","","","Snow"
"1996-01-04 21:00","1996","01","04","21:00","-21.2","","-26.9","","60","","","","0","","3.6","","100.56","","","","","","Snow"
"1996-01-04 22:00","1996","01","04","22:00","-21.1","","-26.8","","60","","","","0","","8.0","","100.49","","","","","","Snow"
"1996-01-04 23:00","1996","01","04","23:00","-20.9","","-26.8","","59","","16","","7","","4.0","","100.46","","","","-27","","Snow"
"1996-01-05 00:00","1996","01","05","00:00","-20.8","","-26.4","","61","","18","","4","","4.8","","100.39","","","","-24","","Snow"
"1996-01-05 01:00","1996","01","05","01:00","-20.7","","-26.4","","60","","29","","6","","4.0","","100.39","","","","-26","","Snow"
"1996-01-05 02:00","1996","01","05","02:00","-21.7","","-27.3","","60","","30","","13","","9.7","","100.46","","","","-30","","Snow"
"1996-01-05 03:00","1996","01","05","03:00","-22.4","","-28.1","","60","","29","","17","","16.1","","100.53","","","","-33","","Snow"
"1996-01-05 04:00","1996","01","05","04:00","-23.0","","-29.1","","57","","29","","20","","16.1","","100.60","","","","-34","","Mostly Cloudy"
"1996-01-05 05:00","1996","01","05","05:00","-23.3","","-29.5","","57","","29","","11","","19.3","","100.73","","","","-32","","Mainly Clear"
"1996-01-05 06:00","1996","01","05","06:00","-24.1","","-30.4","","56","","28","","9","","24.1","","100.83","","","","-32","","Mainly Clear"
"1996-01-05 07:00","1996","01","05","07:00","-24.4","","-31.1","","54","","28","","15","","24.1","","100.93","","","","-35","","Mainly Clear"
"1996-01-05 08:00","1996","01","05","08:00","-25.2","","-32.4","","51","","29","","17","","32.2","","101.03","","","","-36","","Clear"
"1996-01-05 09:00","1996","01","05","09:00","-24.8","","-32.4","","49","","30","","22","","32.2","","101.13","","","","-37","","Clear"
"1996-01-05 10:00","1996","01","05","10:00","-24.7","","-32.5","","48","","29","","20","","32.2","","101.23","","","","-36","","Clear"
"1996-01-05 11:00","1996","01","05","11:00","-24.2","","-32.4","","47","","29","","20","","32.2","","101.33","","","","-36","","Clear"
"1996-01-05 12:00","1996","01","05","12:00","-23.3","","-31.6","","47","","29","","19","","32.2","","101.33","","","","-34","","Mainly Clear"
"1996-01-05 13:00","1996","01","05","13:00","-22.6","","-31.3","","45","","27","","22","","32.2","","101.33","","","","-34","","Mainly Clear"
"1996-01-05 14:00","1996","01","05","14:00","-22.1","","-31.0","","44","","26","","22","","32.2","","101.33","","","","-34","","Clear"
"1996-01-05 15:00","1996","01","05","15:00","-21.7","","-30.6","","44","","26","","19","","32.2","","101.37","","","","-32","","Clear"
"1996-01-05 16:00","1996","01","05","16:00","-21.4","","-30.4","","44","","26","","19","","32.2","","101.43","","","","-32","","Clear"
"1996-01-05 17:00","1996","01","05","17:00","-21.9","","-30.8","","44","","27","","15","","32.2","","101.53","","","","-31","","Clear"
"1996-01-05 18:00","1996","01","05","18:00","-23.2","","-31.6","","46","","25","","7","","24.1","","101.63","","","","-29","","Clear"
"1996-01-05 19:00","1996","01","05","19:00","-22.8","","-30.8","","48","","24","","9","","24.1","","101.67","","","","-30","","Clear"
"1996-01-05 20:00","1996","01","05","20:00","-22.8","","-31.1","","47","","25","","7","","24.1","","101.70","","","","-29","","Clear"
"1996-01-05 21:00","1996","01","05","21:00","-23.8","","-31.5","","49","","25","","15","","24.1","","101.70","","","","-34","","Clear"
"1996-01-05 22:00","1996","01","05","22:00","-22.9","","-30.5","","50","","29","","9","","24.1","","101.73","","","","-30","","Clear"
"1996-01-05 23:00","1996","01","05","23:00","-22.9","","-30.5","","50","","28","","13","","24.1","","101.80","","","","-32","","Clear"
"1996-01-06 00:00","1996","01","06","00:00","-23.6","","-30.6","","53","","28","","13","","24.1","","101.77","","","","-33","","Clear"
"1996-01-06 01:00","1996","01","06","01:00","-24.9","","-31.5","","54","","24","","9","","24.1","","101.87","","","","-33","","Clear"
"1996-01-06 02:00","1996","01","06","02:00","-24.3","","-30.9","","54","","28","","13","","24.1","","101.94","","","","-34","","Clear"
"1996-01-06 03:00","1996","01","06","03:00","-25.4","","-31.9","","55","","27","","7","","25.0","","101.97","","","","-32","","Clear"
"1996-01-06 04:00","1996","01","06","04:00","-25.7","","-31.7","","57","","25","","9","","25.0","","102.00","","","","-33","","Clear"
"1996-01-06 05:00","1996","01","06","05:00","-25.8","","-31.9","","57","","27","","9","","25.0","","102.00","","","","-34","","Clear"
"1996-01-06 06:00","1996","01","06","06:00","-26.5","","-32.0","","60","","26","","9","","25.0","","102.00","","","","-34","","Mainly Clear"
"1996-01-06 07:00","1996","01","06","07:00","-26.1","","-31.8","","59","","26","","7","","24.1","","102.04","","","","-33","","Ice Crystals"
"1996-01-06 08:00","1996","01","06","08:00","-27.1","","-32.5","","60","","23","","4","","24.1","","102.07","","","","-31","","Mostly Cloudy"
"1996-01-06 09:00","1996","01","06","09:00","-25.0","","-30.7","","59","","27","","6","","24.1","","102.10","","","","-31","","Mostly Cloudy"
"1996-01-06 10:00","1996","01","06","10:00","-23.5","","-28.8","","62","","28","","7","","24.1","","102.14","","","","-30","","Mostly Cloudy"
"1996-01-06 11:00","1996","01","06","11:00","-22.0","","-29.0","","53","","31","","6","","32.2","","102.14","","","","-27","","Clear"
"1996-01-06 12:00","1996","01","06","12:00","-19.1","","-27.0","","50","","","","0","","32.2","","102.07","","","","","","Clear"
"1996-01-06 13:00","1996","01","06","13:00","-18.5","","-26.7","","48","","26","","9","","32.2","","102.00","","","","-25","","Clear"
"1996-01-06 14:00","1996","01","06","14:00","-17.6","","-26.3","","47","","23","","13","","32.2","","101.94","","","","-25","","Clear"
"1996-01-06 15:00","1996","01","06","15:00","-17.4","","-26.7","","44","","25","","9","","32.2","","101.90","","","","-24","","Clear"
"1996-01-06 16:00","1996","01","06","16:00","-17.6","","-26.5","","46","","25","","9","","32.2","","101.94","","","","-24","","Clear"
"1996-01-06 17:00","1996","01","06","17:00","-19.1","","-27.7","","47","","23","","6","","24.1","","101.90","","","","-24","","Clear"
"1996-01-06 18:00","1996","01","06","18:00","-18.9","","-27.3","","47","","25","","6","","24.1","","101.94","","","","-24","","Clear"
"1996-01-06 19:00","1996","01","06","19:00","-20.3","","-27.8","","51","","23","","7","","25.0","","101.87","","","","-26","","Clear"
"1996-01-06 20:00","1996","01","06","20:00","-20.0","","-27.5","","51","","25","","7","","25.0","","101.87","","","","-26","","Clear"
"1996-01-06 21:00","1996","01","06","21:00","-21.6","","-28.3","","55","","24","","7","","25.0","","101.90","","","","-28","","Clear"
"1996-01-06 22:00","1996","01","06","22:00","-21.2","","-28.2","","53","","26","","7","","25.0","","101.87","","","","-27","","Clear"
"1996-01-06 23:00","1996","01","06","23:00","-22.0","","-28.2","","57","","22","","4","","25.0","","101.87","","","","-26","","Clear"
"1996-01-07 00:00","1996","01","07","00:00","-22.9","","-29.4","","55","","","","0","","25.0","","101.83","","","","","","Clear"
"1996-01-07 01:00","1996","01","07","01:00","-23.9","","-29.7","","59","","20","","7","","25.0","","101.80","","","","-30","","Clear"
"1996-01-07 02:00","1996","01","07","02:00","-24.0","","-30.1","","57","","24","","6","","25.0","","101.83","","","","-30","","Clear"
"1996-01-07 03:00","1996","01","07","03:00","-25.3","","-30.7","","61","","27","","4","","25.0","","101.83","","","","-29","","Clear"
"1996-01-07 04:00","1996","01","07","04:00","-26.4","","-32.1","","59","","30","","7","","25.0","","101.73","","","","-33","","Clear"
"1996-01-07 05:00","1996","01","07","05:00","-26.5","","-32.0","","60","","30","","7","","25.0","","101.70","","","","-33","","Clear"
"1996-01-07 06:00","1996","01","07","06:00","-25.9","","-31.6","","59","","29","","7","","25.0","","101.73","","","","-33","","Clear"
"1996-01-07 07:00","1996","01","07","07:00","-26.8","","-32.8","","57","","32","","15","","24.1","","101.73","","","","-37","","Mainly Clear"
"1996-01-07 08:00","1996","01","07","08:00","-26.5","","-32.2","","59","","30","","7","","19.3","","101.70","","","","-33","","Mostly Cloudy"
"1996-01-07 09:00","1996","01","07","09:00","-25.5","","-31.3","","58","","26","","4","","19.3","","101.73","","","","-30","","Mostly Cloudy"
"1996-01-07 10:00","1996","01","07","10:00","-24.9","","-30.1","","62","","","","0","","12.9","","101.77","","","","","","Ice Crystals"
"1996-01-07 11:00","1996","01","07","11:00","-22.6","","-28.1","","61","","31","","7","","12.9","","101.67","","","","-29","","Ice Crystals"
"1996-01-07 12:00","1996","01","07","12:00","-19.5","","-25.3","","60","","35","","11","","16.1","","101.37","","","","-27","","Mainly Clear"
"1996-01-07 13:00","1996","01","07","13:00","-18.9","","-25.5","","56","","25","","9","","19.3","","101.50","","","","-25","","Mainly Clear"
"1996-01-07 14:00","1996","01","07","14:00","-17.6","","-25.1","","52","","","","0","","19.3","","101.30","","","","","","Mostly Cloudy"
"1996-01-07 15:00","1996","01","07","15:00","-17.2","","-25.1","","50","","32","","7","","19.3","","101.20","","","","-22","","Mostly Cloudy"
"1996-01-07 16:00","1996","01","07","16:00","-17.7","","-26.1","","48","","","","0","","24.1","","101.13","","","","","","Mostly Cloudy"
"1996-01-07 17:00","1996","01","07","17:00","-18.7","","-26.7","","49","","22","","6","","19.3","","101.06","","","","-24","","Mostly Cloudy"
"1996-01-07 18:00","1996","01","07","18:00","-20.2","","-27.9","","50","","","","0","","19.3","","101.00","","","","","","Mainly Clear"
"1996-01-07 19:00","1996","01","07","19:00","-20.5","","-28.4","","49","","","","0","","19.3","","100.90","","","","","","Mainly Clear"
"1996-01-07 20:00","1996","01","07","20:00","-21.2","","-28.3","","53","","33","","7","","19.3","","100.80","","","","-27","","Mainly Clear"
"1996-01-07 21:00","1996","01","07","21:00","-20.8","","-27.1","","57","","35","","9","","19.3","","100.70","","","","-28","","Mainly Clear"
"1996-01-07 22:00","1996","01","07","22:00","-21.9","","-27.6","","60","","","","0","","19.3","","100.70","","","","","","Mainly Clear"
"1996-01-07 23:00","1996","01","07","23:00","-22.6","","-28.0","","61","","","","0","","16.1","","100.63","","","","","","Clear"
"1996-01-08 00:00","1996","01","08","00:00","-22.6","","-28.1","","61","","33","","15","","16.1","","100.53","","","","-32","","Clear"
"1996-01-08 01:00","1996","01","08","01:00","-22.3","","-27.1","","65","","36","","15","","16.1","","100.36","","","","-32","","Clear"
"1996-01-08 02:00","1996","01","08","02:00","-21.9","","-27.6","","60","","35","","19","","16.1","","100.23","","","","-33","","Clear"
"1996-01-08 03:00","1996","01","08","03:00","-21.2","","-27.2","","58","","35","","17","","16.1","","100.33","","","","-31","","Clear"
"1996-01-08 04:00","1996","01","08","04:00","-22.2","","-28.5","","57","","","","0","","16.1","","100.13","","","","","","Clear"
"1996-01-08 05:00","1996","01","08","05:00","-23.4","","-29.8","","56","","31","","13","","16.1","","100.13","","","","-33","","Clear"
"1996-01-08 06:00","1996","01","08","06:00","-23.7","","-29.9","","57","","30","","11","","19.3","","100.09","","","","-32","","Clear"
"1996-01-08 07:00","1996","01","08","07:00","-23.8","","-29.6","","59","","30","","15","","19.3","","100.03","","","","-34","","Clear"
"1996-01-08 08:00","1996","01","08","08:00","-24.3","","-30.3","","58","","27","","6","","32.2","","100.06","","","","-30","","Clear"
"1996-01-08 09:00","1996","01","08","09:00","-22.9","","-28.9","","58","","30","","9","","24.1","","99.99","","","","-30","","Clear"
"1996-01-08 10:00","1996","01","08","10:00","-20.5","","-26.5","","59","","30","","7","","24.1","","99.99","","","","-26","","Mainly Clear"
"1996-01-08 11:00","1996","01","08","11:00","-18.7","","-25.1","","57","","27","","6","","24.1","","99.93","","","","-24","","Mostly Cloudy"
"1996-01-08 12:00","1996","01","08","12:00","-17.1","","-24.3","","54","","","","0","","24.1","","99.82","","","","","","Mostly Cloudy"
"1996-01-08 13:00","1996","01","08","13:00","-16.0","","-24.3","","49","","","","0","","32.2","","99.72","","","","","","Mostly Cloudy"
"1996-01-08 14:00","1996","01","08","14:00","-15.6","","-25.0","","44","","23","","6","","32.2","","99.66","","","","-20","","Mostly Cloudy"
"1996-01-08 15:00","1996","01","08","15:00","-15.1","","-24.8","","43","","23","","7","","24.1","","99.56","","","","-20","","Mostly Cloudy"
"1996-01-08 16:00","1996","01","08","16:00","-15.5","","-24.9","","44","","22","","7","","19.3","","99.52","","","","-20","","Mostly Cloudy"
"1996-01-08 17:00","1996","01","08","17:00","-15.8","","-25.5","","43","","","","0","","24.1","","99.52","","","","","","Mostly Cloudy"
"1996-01-08 18:00","1996","01","08","18:00","-15.6","","-24.8","","45","","16","","7","","24.1","","99.46","","","","-21","","Mostly Cloudy"
"1996-01-08 19:00","1996","01","08","19:00","-15.6","","-24.4","","47","","18","","4","","24.1","","99.46","","","","-19","","Cloudy"
"1996-01-08 20:00","1996","01","08","20:00","-15.5","","-24.3","","47","","19","","7","","24.1","","99.39","","","","-20","","Cloudy"
"1996-01-08 21:00","1996","01","08","21:00","-15.3","","-23.3","","50","","15","","7","","24.1","","99.32","","","","-20","","Cloudy"
"1996-01-08 22:00","1996","01","08","22:00","-14.8","","-23.2","","49","","15","","11","","24.1","","99.26","","","","-21","","Cloudy"
"1996-01-08 23:00","1996","01","08","23:00","-14.3","","-22.4","","50","","14","","7","","24.1","","99.15","","","","-19","","Cloudy"
"1996-01-09 00:00","1996","01","09","00:00","-14.6","","-21.8","","54","","11","","7","","16.1","","99.09","","","","-19","","Snow"
"1996-01-09 01:00","1996","01","09","01:00","-14.9","","-20.8","","61","","11","","7","","16.1","","99.05","","","","-20","","Snow"
"1996-01-09 02:00","1996","01","09","02:00","-14.9","","-20.3","","63","","8","","7","","12.9","","99.05","","","","-20","","Snow"
"1996-01-09 03:00","1996","01","09","03:00","-14.6","","-19.7","","65","","10","","7","","19.3","","99.05","","","","-19","","Snow"
"1996-01-09 04:00","1996","01","09","04:00","-14.7","","-19.9","","65","","6","","7","","19.3","","98.99","","","","-19","","Snow"
"1996-01-09 05:00","1996","01","09","05:00","-15.3","","-20.6","","64","","6","","7","","19.3","","98.99","","","","-20","","Snow"
"1996-01-09 06:00","1996","01","09","06:00","-15.6","","-20.7","","65","","5","","7","","16.1","","98.99","","","","-21","","Snow"
"1996-01-09 07:00","1996","01","09","07:00","-15.3","","-20.4","","65","","6","","7","","9.7","","99.05","","","","-20","","Snow"
"1996-01-09 08:00","1996","01","09","08:00","-15.3","","-20.4","","65","","6","","6","","4.0","","99.05","","","","-20","","Snow"
"1996-01-09 09:00","1996","01","09","09:00","-14.7","","-19.8","","65","","7","","6","","4.0","","99.05","","","","-19","","Snow"
"1996-01-09 10:00","1996","01","09","10:00","-13.6","","-18.6","","66","","7","","4","","16.1","","99.05","","","","-16","","Snow"
"1996-01-09 11:00","1996","01","09","11:00","-10.6","","-16.6","","61","","5","","4","","16.1","","98.99","","","","-13","","Cloudy"
"1996-01-09 12:00","1996","01","09","12:00","-11.1","","-16.5","","64","","7","","4","","4.8","","98.95","","","","-14","","Snow"
"1996-01-09 13:00","1996","01","09","13:00","-10.1","","-17.4","","55","","6","","4","","9.7","","98.89","","","","-12","","Snow"
"1996-01-09 14:00","1996","01","09","14:00","-9.6","","-14.8","","66","","7","","7","","8.0","","98.85","","","","-14","","Snow"
"1996-01-09 15:00","1996","01","09","15:00","-9.5","","-14.3","","68","","5","","9","","4.0","","98.85","","","","-14","","Snow"
"1996-01-09 16:00","1996","01","09","16:00","-9.8","","-14.1","","71","","5","","11","","1.2","","98.89","","","","-15","","Snow"
"1996-01-09 17:00","1996","01","09","17:00","-9.9","","-14.1","","71","","5","","9","","1.0","","98.92","","","","-15","","Snow"
"1996-01-09 18:00","1996","01","09","18:00","-10.3","","-14.4","","72","","5","","11","","1.0","","98.95","","","","-16","","Snow"
"1996-01-09 19:00","1996","01","09","19:00","-10.2","","-14.2","","72","","7","","13","","1.6","","98.95","","","","-16","","Snow"
"1996-01-09 20:00","1996","01","09","20:00","-10.3","","-14.4","","72","","5","","11","","1.0","","98.99","","","","-16","","Snow"
"1996-01-09 21:00","1996","01","09","21:00","-10.4","","-14.4","","72","","4","","13","","2.0","","98.99","","","","-17","","Snow"
"1996-01-09 22:00","1996","01","09","22:00","-10.4","","-14.5","","72","","4","","13","","3.2","","98.99","","","","-17","","Snow"
"1996-01-09 23:00","1996","01","09","23:00","-10.4","","-14.6","","71","","3","","19","","4.8","","99.05","","","","-18","","Snow"
"1996-01-10 00:00","1996","01","10","00:00","-10.3","","-14.5","","71","","4","","17","","4.8","","99.09","","","","-18","","Snow"
"1996-01-10 01:00","1996","01","10","01:00","-10.3","","-14.5","","71","","3","","19","","9.7","","99.12","","","","-18","","Snow"
"1996-01-10 02:00","1996","01","10","02:00","-9.9","","-14.2","","71","","4","","19","","9.7","","99.19","","","","-18","","Snow"
"1996-01-10 03:00","1996","01","10","03:00","-9.6","","-13.7","","72","","3","","17","","4.8","","99.29","","","","-17","","Snow"
"1996-01-10 04:00","1996","01","10","04:00","-9.6","","-13.6","","73","","3","","15","","6.4","","99.36","","","","-16","","Snow"
"1996-01-10 05:00","1996","01","10","05:00","-9.6","","-13.5","","73","","3","","15","","9.7","","99.39","","","","-16","","Snow"
"1996-01-10 06:00","1996","01","10","06:00","-10.1","","-14.1","","72","","1","","15","","9.7","","99.49","","","","-17","","Snow"
"1996-01-10 07:00","1996","01","10","07:00","-10.4","","-15.0","","69","","35","","13","","16.1","","99.59","","","","-17","","Mostly Cloudy"
"1996-01-10 08:00","1996","01","10","08:00","-10.2","","-14.6","","70","","35","","19","","24.1","","99.69","","","","-18","","Mostly Cloudy"
"1996-01-10 09:00","1996","01","10","09:00","-10.1","","-15.8","","63","","35","","19","","40.2","","99.79","","","","-18","","Cloudy"
"1996-01-10 10:00","1996","01","10","10:00","-10.5","","-16.0","","64","","32","","20","","40.2","","99.93","","","","-18","","Cloudy"
"1996-01-10 11:00","1996","01","10","11:00","-10.4","","-16.2","","62","","32","","22","","40.2","","99.99","","","","-19","","Cloudy"
"1996-01-10 12:00","1996","01","10","12:00","-10.5","","-16.5","","61","","32","","22","","40.2","","99.99","","","","-19","","Mainly Clear"
"1996-01-10 13:00","1996","01","10","13:00","-9.8","","-16.5","","58","","33","","15","","40.2","","99.99","","","","-16","","Mainly Clear"
"1996-01-10 14:00","1996","01","10","14:00","-9.1","","-16.6","","54","","32","","22","","40.2","","100.03","","","","-17","","Clear"
"1996-01-10 15:00","1996","01","10","15:00","-9.1","","-16.9","","53","","32","","26","","40.2","","100.16","","","","-18","","Clear"
"1996-01-10 16:00","1996","01","10","16:00","-9.2","","-17.3","","52","","32","","20","","40.2","","100.23","","","","-17","","Clear"
"1996-01-10 17:00","1996","01","10","17:00","-10.3","","-18.0","","53","","33","","15","","40.2","","100.33","","","","-17","","Clear"
"1996-01-10 18:00","1996","01","10","18:00","-11.1","","-18.1","","56","","33","","15","","24.1","","100.36","","","","-18","","Clear"
"1996-01-10 19:00","1996","01","10","19:00","-13.4","","-18.9","","63","","28","","9","","24.1","","100.43","","","","-19","","Clear"
"1996-01-10 20:00","1996","01","10","20:00","-12.9","","-19.2","","59","","29","","7","","24.1","","100.49","","","","-17","","Clear"
"1996-01-10 21:00","1996","01","10","21:00","-12.5","","-19.4","","56","","33","","20","","24.1","","100.53","","","","-21","","Clear"
"1996-01-10 22:00","1996","01","10","22:00","-14.0","","-19.9","","61","","32","","15","","24.1","","100.60","","","","-22","","Clear"
"1996-01-10 23:00","1996","01","10","23:00","-15.3","","-20.4","","65","","28","","13","","24.1","","100.66","","","","-23","","Clear"
"1996-01-11 00:00","1996","01","11","00:00","-16.4","","-21.4","","65","","28","","15","","24.1","","100.70","","","","-25","","Clear"
"1996-01-11 01:00","1996","01","11","01:00","-17.3","","-21.8","","68","","30","","9","","24.1","","100.70","","","","-24","","Clear"
"1996-01-11 02:00","1996","01","11","02:00","-17.3","","-21.9","","67","","29","","17","","24.1","","100.73","","","","-26","","Clear"
"1996-01-11 03:00","1996","01","11","03:00","-18.4","","-22.6","","70","","29","","13","","24.1","","100.80","","","","-26","","Clear"
"1996-01-11 04:00","1996","01","11","04:00","-18.7","","-22.9","","69","","30","","15","","24.1","","100.80","","","","-27","","Clear"
"1996-01-11 05:00","1996","01","11","05:00","-19.3","","-24.6","","63","","30","","13","","24.1","","100.83","","","","-28","","Clear"
"1996-01-11 06:00","1996","01","11","06:00","-19.5","","-25.6","","58","","28","","11","","24.1","","100.83","","","","-27","","Clear"
"1996-01-11 07:00","1996","01","11","07:00","-19.8","","-25.7","","59","","30","","15","","24.1","","100.86","","","","-29","","Clear"
"1996-01-11 08:00","1996","01","11","08:00","-20.2","","-26.0","","60","","29","","7","","32.2","","100.86","","","","-26","","Clear"
"1996-01-11 09:00","1996","01","11","09:00","-20.3","","-25.9","","61","","25","","6","","32.2","","100.93","","","","-25","","Mainly Clear"
"1996-01-11 10:00","1996","01","11","10:00","-18.6","","-24.5","","60","","29","","7","","32.2","","100.93","","","","-24","","Mainly Clear"
"1996-01-11 11:00","1996","01","11","11:00","-16.9","","-23.1","","59","","29","","9","","40.2","","100.96","","","","-23","","Mainly Clear"
"1996-01-11 12:00","1996","01","11","12:00","-14.1","","-21.3","","54","","23","","9","","40.2","","100.93","","","","-20","","Mainly Clear"
"1996-01-11 13:00","1996","01","11","13:00","-13.3","","-20.8","","53","","20","","6","","32.2","","100.90","","","","-17","","Mostly Cloudy"
"1996-01-11 14:00","1996","01","11","14:00","-12.9","","-20.6","","52","","22","","9","","32.2","","100.86","","","","-18","","Mostly Cloudy"
"1996-01-11 15:00","1996","01","11","15:00","-12.2","","-20.1","","52","","22","","7","","32.2","","100.83","","","","-17","","Cloudy"
"1996-01-11 16:00","1996","01","11","16:00","-13.1","","-21.2","","51","","12","","4","","32.2","","100.76","","","","-16","","Cloudy"
"1996-01-11 17:00","1996","01","11","17:00","-12.6","","-20.3","","53","","16","","4","","32.2","","100.76","","","","-15","","Cloudy"
"1996-01-11 18:00","1996","01","11","18:00","-13.1","","-20.4","","54","","13","","6","","24.1","","100.83","","","","-17","","Cloudy"
"1996-01-11 19:00","1996","01","11","19:00","-13.9","","-19.7","","61","","13","","7","","24.1","","100.73","","","","-19","","Cloudy"
"1996-01-11 20:00","1996","01","11","20:00","-14.8","","-21.5","","57","","14","","6","","24.1","","100.73","","","","-19","","Mainly Clear"
"1996-01-11 21:00","1996","01","11","21:00","-14.2","","-21.0","","56","","","","0","","24.1","","100.73","","","","","","Mostly Cloudy"
"1996-01-11 22:00","1996","01","11","22:00","-14.9","","-21.6","","57","","","","0","","24.1","","100.70","","","","","","Mostly Cloudy"
"1996-01-11 23:00","1996","01","11","23:00","-16.9","","-23.1","","59","","7","","4","","24.1","","100.63","","","","-20","","Cloudy"
"1996-01-12 00:00","1996","01","12","00:00","-16.8","","-22.5","","61","","5","","6","","24.1","","100.56","","","","-21","","Mostly Cloudy"
"1996-01-12 01:00","1996","01","12","01:00","-16.8","","-21.5","","67","","6","","7","","24.1","","100.49","","","","-22","","Cloudy"
"1996-01-12 02:00","1996","01","12","02:00","-16.3","","-21.7","","63","","7","","7","","24.1","","100.49","","","","-21","","Cloudy"
"1996-01-12 03:00","1996","01","12","03:00","-15.6","","-21.2","","62","","5","","9","","24.1","","100.39","","","","-22","","Cloudy"
"1996-01-12 04:00","1996","01","12","04:00","-15.2","","-21.0","","61","","5","","15","","24.1","","100.29","","","","-23","","Cloudy"
"1996-01-12 05:00","1996","01","12","05:00","-14.9","","-20.9","","60","","6","","17","","24.1","","100.23","","","","-23","","Cloudy"
"1996-01-12 06:00","1996","01","12","06:00","-14.6","","-20.7","","60","","5","","13","","24.1","","100.19","","","","-22","","Cloudy"
"1996-01-12 07:00","1996","01","12","07:00","-14.9","","-21.0","","60","","5","","11","","24.1","","100.16","","","","-21","","Cloudy"
"1996-01-12 08:00","1996","01","12","08:00","-14.8","","-20.7","","61","","6","","11","","19.3","","100.13","","","","-21","","Cloudy"
"1996-01-12 09:00","1996","01","12","09:00","-14.0","","-19.7","","62","","8","","17","","19.3","","100.09","","","","-22","","Mostly Cloudy"
"1996-01-12 10:00","1996","01","12","10:00","-13.4","","-18.8","","64","","7","","20","","8.0","","99.99","","","","-22","","Snow"
"1996-01-12 11:00","1996","01","12","11:00","-12.1","","-17.7","","63","","5","","9","","19.3","","100.03","","","","-17","","Cloudy"
"1996-01-12 12:00","1996","01","12","12:00","-11.5","","-17.1","","63","","8","","7","","16.1","","99.96","","","","-16","","Snow"
"1996-01-12 13:00","1996","01","12","13:00","-11.0","","-16.6","","63","","8","","9","","16.1","","99.89","","","","-16","","Cloudy"
"1996-01-12 14:00","1996","01","12","14:00","-10.6","","-16.3","","63","","5","","9","","19.3","","99.82","","","","-16","","Cloudy"
"1996-01-12 15:00","1996","01","12","15:00","-10.0","","-16.1","","61","","7","","11","","19.3","","99.76","","","","-16","","Cloudy"
"1996-01-12 16:00","1996","01","12","16:00","-10.2","","-16.2","","61","","6","","13","","19.3","","99.69","","","","-16","","Cloudy"
"1996-01-12 17:00","1996","01","12","17:00","-11.2","","-17.2","","61","","5","","7","","16.1","","99.66","","","","-15","","Mostly Cloudy"
"1996-01-12 18:00","1996","01","12","18:00","-11.2","","-16.8","","63","","4","","9","","12.9","","99.62","","","","-16","","Cloudy"
"1996-01-12 19:00","1996","01","12","19:00","-11.1","","-16.6","","64","","6","","11","","12.9","","99.59","","","","-17","","Cloudy"
"1996-01-12 20:00","1996","01","12","20:00","-11.1","","-16.4","","65","","4","","9","","12.9","","99.52","","","","-16","","Cloudy"
"1996-01-12 21:00","1996","01","12","21:00","-10.7","","-16.1","","64","","7","","7","","12.9","","99.49","","","","-15","","Cloudy"
"1996-01-12 22:00","1996","01","12","22:00","-10.8","","-16.1","","65","","5","","6","","12.9","","99.36","","","","-14","","Cloudy"
"1996-01-12 23:00","1996","01","12","23:00","-10.4","","-15.9","","64","","","","0","","12.9","","99.22","","","","","","Cloudy"
"1996-01-13 00:00","1996","01","13","00:00","-10.0","","-15.5","","64","","30","","6","","12.9","","99.22","","","","-14","","Cloudy"
"1996-01-13 01:00","1996","01","13","01:00","-9.6","","-15.1","","64","","29","","9","","12.9","","99.19","","","","-14","","Cloudy"
"1996-01-13 02:00","1996","01","13","02:00","-10.3","","-15.4","","66","","29","","11","","12.9","","99.19","","","","-16","","Cloudy"
"1996-01-13 03:00","1996","01","13","03:00","-10.9","","-15.9","","67","","26","","6","","12.9","","99.12","","","","-15","","Mostly Cloudy"
"1996-01-13 04:00","1996","01","13","04:00","-12.9","","-16.7","","73","","22","","6","","12.9","","99.05","","","","-17","","Mainly Clear"
"1996-01-13 05:00","1996","01","13","05:00","-12.1","","-16.4","","70","","22","","7","","11.3","","99.02","","","","-16","","Mostly Cloudy"
"1996-01-13 06:00","1996","01","13","06:00","-12.2","","-16.6","","70","","21","","9","","12.9","","99.05","","","","-17","","Mostly Cloudy"
"1996-01-13 07:00","1996","01","13","07:00","-11.2","","-15.6","","70","","21","","9","","12.9","","99.05","","","","-16","","Cloudy"
"1996-01-13 08:00","1996","01","13","08:00","-10.5","","-14.9","","70","","19","","11","","16.1","","98.99","","","","-16","","Cloudy"
"1996-01-13 09:00","1996","01","13","09:00","-9.3","","-13.9","","69","","19","","15","","16.1","","98.95","","","","-16","","Cloudy"
"1996-01-13 10:00","1996","01","13","10:00","-8.3","","-12.5","","72","","21","","15","","3.2","","98.92","","","","-15","","Snow"
"1996-01-13 11:00","1996","01","13","11:00","-7.2","","-10.9","","75","","22","","19","","1.2","","98.89","","","","-14","","Freezing Drizzle,Snow"
"1996-01-13 12:00","1996","01","13","12:00","-5.6","","-9.5","","74","","22","","19","","16.1","","98.85","","","","-12","","Freezing Drizzle"
"1996-01-13 13:00","1996","01","13","13:00","-4.9","","-9.2","","72","","22","","15","","19.3","","98.85","","","","-10","","Cloudy"
"1996-01-13 14:00","1996","01","13","14:00","-3.9","","-8.5","","70","","22","","13","","16.1","","98.85","","","","-9","","Cloudy"
"1996-01-13 15:00","1996","01","13","15:00","-3.7","","-8.5","","69","","27","","7","","16.1","","98.95","","","","-7","","Cloudy"
"1996-01-13 16:00","1996","01","13","16:00","-4.2","","-8.7","","71","","26","","17","","16.1","","99.02","","","","-10","","Cloudy"
"1996-01-13 17:00","1996","01","13","17:00","-4.2","","-8.6","","71","","24","","11","","16.1","","99.09","","","","-9","","Cloudy"
"1996-01-13 18:00","1996","01","13","18:00","-3.8","","-7.9","","73","","24","","13","","16.1","","99.22","","","","-9","","Snow"
"1996-01-13 19:00","1996","01","13","19:00","-3.5","","-7.5","","74","","25","","7","","9.7","","99.22","","","","-6","","Snow"
"1996-01-13 20:00","1996","01","13","20:00","-3.9","","-7.9","","74","","30","","9","","11.3","","99.29","","","","-8","","Snow"
"1996-01-13 21:00","1996","01","13","21:00","-4.4","","-11.0","","60","","33","","22","","24.1","","99.42","","","","-11","","Snow"
"1996-01-13 22:00","1996","01","13","22:00","-6.2","","-12.4","","61","","33","","20","","24.1","","99.49","","","","-13","","Mostly Cloudy"
"1996-01-13 23:00","1996","01","13","23:00","-8.2","","-15.0","","58","","33","","15","","24.1","","99.52","","","","-15","","Mostly Cloudy"
"1996-01-14 00:00","1996","01","14","00:00","-9.5","","-16.1","","59","","35","","11","","24.1","","99.52","","","","-15","","Mainly Clear"
"1996-01-14 01:00","1996","01","14","01:00","-9.9","","-16.1","","60","","34","","6","","24.1","","99.49","","","","-13","","Mostly Cloudy"
"1996-01-14 02:00","1996","01","14","02:00","-11.2","","-16.6","","64","","","","0","","24.1","","99.52","","","","","","Mainly Clear"
"1996-01-14 03:00","1996","01","14","03:00","-12.1","","-17.0","","67","","","","0","","24.1","","99.49","","","","","","Mostly Cloudy"
"1996-01-14 04:00","1996","01","14","04:00","-10.9","","-16.4","","64","","7","","7","","24.1","","99.46","","","","-15","","Cloudy"
"1996-01-14 05:00","1996","01","14","05:00","-10.9","","-16.5","","63","","7","","9","","24.1","","99.39","","","","-16","","Cloudy"
"1996-01-14 06:00","1996","01","14","06:00","-11.1","","-16.3","","65","","9","","11","","3.2","","99.32","","","","-17","","Snow"
"1996-01-14 07:00","1996","01","14","07:00","-10.7","","-15.7","","67","","8","","11","","16.1","","99.19","","","","-16","","Snow"
"1996-01-14 08:00","1996","01","14","08:00","-10.1","","-14.9","","68","","8","","17","","19.3","","98.95","","","","-17","","Cloudy"
"1996-01-14 09:00","1996","01","14","09:00","-9.3","","-13.4","","72","","9","","15","","19.3","","98.82","","","","-16","","Cloudy"
"1996-01-14 10:00","1996","01","14","10:00","-7.8","","-11.1","","77","","11","","7","","9.7","","98.69","","","","-11","","Snow"
"1996-01-14 11:00","1996","01","14","11:00","-8.0","","-12.2","","72","","28","","15","","12.9","","98.65","","","","-14","","Cloudy"
"1996-01-14 12:00","1996","01","14","12:00","0.6","","-3.8","","72","","22","","28","","16.1","","98.55","","","","","","Cloudy"
"1996-01-14 13:00","1996","01","14","13:00","0.8","","-3.8","","71","","22","","28","","24.1","","98.55","","","","","","Cloudy"
"1996-01-14 14:00","1996","01","14","14:00","0.8","","-3.5","","73","","22","","22","","24.1","","98.59","","","","","","Cloudy"
"1996-01-14 15:00","1996","01","14","15:00","1.0","","-3.4","","72","","21","","20","","24.1","","98.65","","","","","","Cloudy"
"1996-01-14 16:00","1996","01","14","16:00","1.4","","-3.4","","70","","21","","24","","19.3","","98.72","","","","","","Cloudy"
"1996-01-14 17:00","1996","01","14","17:00","1.5","","-3.5","","69","","21","","24","","16.1","","98.82","","","","","","Cloudy"
"1996-01-14 18:00","1996","01","14","18:00","1.3","","-3.3","","71","","22","","24","","16.1","","98.95","","","","","","Cloudy"
"1996-01-14 19:00","1996","01","14","19:00","-2.6","","-8.1","","66","","33","","32","","8.0","","99.22","","","","-10","","Snow,Ice Pellets"
"1996-01-14 20:00","1996","01","14","20:00","-5.5","","-12.1","","60","","33","","39","","12.9","","99.49","","","","-15","","Snow,Ice Pellets"
"1996-01-14 21:00","1996","01","14","21:00","-8.5","","-15.8","","56","","34","","33","","11.3","","99.72","","","","-18","","Snow"
"1996-01-14 22:00","1996","01","14","22:00","-10.4","","-17.8","","55","","34","","33","","24.1","","99.96","","","","-20","","Snow"
"1996-01-14 23:00","1996","01","14","23:00","-13.1","","-20.3","","55","","33","","30","","24.1","","100.13","","","","-24","","Mainly Clear"
"1996-01-15 00:00","1996","01","15","00:00","-14.6","","-23.6","","46","","32","","20","","24.1","","100.29","","","","-24","","Mainly Clear"
"1996-01-15 01:00","1996","01","15","01:00","-16.0","","-24.9","","46","","32","","24","","24.1","","100.43","","","","-26","","Mainly Clear"
"1996-01-15 02:00","1996","01","15","02:00","-16.9","","-25.9","","46","","32","","22","","24.1","","100.60","","","","-27","","Clear"
"1996-01-15 03:00","1996","01","15","03:00","-18.5","","-27.0","","47","","32","","20","","24.1","","100.73","","","","-29","","Mainly Clear"
"1996-01-15 04:00","1996","01","15","04:00","-19.5","","-27.9","","47","","32","","22","","24.1","","100.90","","","","-30","","Mainly Clear"
"1996-01-15 05:00","1996","01","15","05:00","-20.2","","-28.8","","46","","32","","20","","24.1","","100.96","","","","-31","","Clear"
"1996-01-15 06:00","1996","01","15","06:00","-21.2","","-29.6","","47","","32","","19","","24.1","","101.13","","","","-32","","Clear"
"1996-01-15 07:00","1996","01","15","07:00","-22.0","","-30.0","","48","","32","","24","","24.1","","101.30","","","","-34","","Clear"
"1996-01-15 08:00","1996","01","15","08:00","-22.2","","-30.2","","48","","32","","22","","32.2","","101.40","","","","-34","","Clear"
"1996-01-15 09:00","1996","01","15","09:00","-22.5","","-30.1","","50","","27","","11","","40.2","","101.53","","","","-31","","Clear"
"1996-01-15 10:00","1996","01","15","10:00","-21.6","","-29.7","","48","","28","","15","","48.3","","101.67","","","","-31","","Clear"
"1996-01-15 11:00","1996","01","15","11:00","-21.0","","-29.6","","46","","29","","15","","48.3","","101.73","","","","-30","","Clear"
"1996-01-15 12:00","1996","01","15","12:00","-20.1","","-29.0","","45","","24","","19","","48.3","","101.77","","","","-30","","Clear"
"1996-01-15 13:00","1996","01","15","13:00","-19.0","","-28.7","","42","","23","","19","","40.2","","101.77","","","","-29","","Clear"
"1996-01-15 14:00","1996","01","15","14:00","-18.8","","-28.6","","42","","25","","20","","40.2","","101.77","","","","-29","","Clear"
"1996-01-15 15:00","1996","01","15","15:00","-17.7","","-29.1","","36","","25","","20","","40.2","","101.77","","","","-28","","Clear"
"1996-01-15 16:00","1996","01","15","16:00","-17.7","","-29.7","","34","","28","","13","","32.2","","101.83","","","","-26","","Clear"
"1996-01-15 17:00","1996","01","15","17:00","-18.3","","-29.6","","36","","29","","6","","24.1","","101.94","","","","-23","","Mainly Clear"
"1996-01-15 18:00","1996","01","15","18:00","-18.9","","-29.4","","39","","22","","6","","24.1","","102.04","","","","-24","","Mainly Clear"
"1996-01-15 19:00","1996","01","15","19:00","-19.4","","-29.7","","40","","19","","6","","24.1","","102.10","","","","-24","","Clear"
"1996-01-15 20:00","1996","01","15","20:00","-19.0","","-29.1","","41","","19","","6","","24.1","","102.14","","","","-24","","Clear"
"1996-01-15 21:00","1996","01","15","21:00","-19.7","","-29.0","","43","","17","","6","","24.1","","102.10","","","","-25","","Clear"
"1996-01-15 22:00","1996","01","15","22:00","-21.4","","-29.7","","47","","","","0","","24.1","","102.17","","","","","","Clear"
"1996-01-15 23:00","1996","01","15","23:00","-19.8","","-28.6","","45","","18","","6","","24.1","","102.17","","","","-25","","Mainly Clear"
"1996-01-16 00:00","1996","01","16","00:00","-20.9","","-29.2","","47","","14","","4","","24.1","","102.17","","","","-24","","Mainly Clear"
"1996-01-16 01:00","1996","01","16","01:00","-20.6","","-28.7","","48","","15","","4","","24.1","","102.17","","","","-24","","Mainly Clear"
"1996-01-16 02:00","1996","01","16","02:00","-20.5","","-28.2","","50","","","","0","","24.1","","102.14","","","","","","Mostly Cloudy"
"1996-01-16 03:00","1996","01","16","03:00","-21.2","","-28.2","","53","","7","","6","","24.1","","102.14","","","","-26","","Cloudy"
"1996-01-16 04:00","1996","01","16","04:00","-22.0","","-29.0","","53","","5","","9","","24.1","","102.07","","","","-29","","Cloudy"
"1996-01-16 05:00","1996","01","16","05:00","-20.9","","-27.9","","53","","6","","11","","24.1","","102.00","","","","-29","","Cloudy"
"1996-01-16 06:00","1996","01","16","06:00","-20.4","","-27.6","","53","","8","","13","","24.1","","102.00","","","","-29","","Cloudy"
"1996-01-16 07:00","1996","01","16","07:00","-19.7","","-27.0","","52","","7","","13","","24.1","","101.94","","","","-28","","Cloudy"
"1996-01-16 08:00","1996","01","16","08:00","-18.9","","-26.6","","51","","7","","15","","19.3","","101.87","","","","-28","","Cloudy"
"1996-01-16 09:00","1996","01","16","09:00","-18.3","","-26.2","","50","","7","","20","","19.3","","101.77","","","","-28","","Cloudy"
"1996-01-16 10:00","1996","01","16","10:00","-16.5","","-25.4","","46","","8","","24","","24.1","","101.57","","","","-27","","Cloudy"
"1996-01-16 11:00","1996","01","16","11:00","-15.5","","-24.4","","46","","9","","32","","24.1","","101.47","","","","-27","","Cloudy"
"1996-01-16 12:00","1996","01","16","12:00","-14.0","","-23.0","","46","","8","","24","","24.1","","101.33","","","","-24","","Cloudy"
"1996-01-16 13:00","1996","01","16","13:00","-13.4","","-22.9","","45","","8","","24","","24.1","","101.06","","","","-23","","Cloudy"
"1996-01-16 14:00","1996","01","16","14:00","-12.9","","-21.8","","47","","8","","20","","32.2","","101.03","","","","-22","","Cloudy"
"1996-01-16 15:00","1996","01","16","15:00","-12.4","","-21.1","","48","","8","","24","","24.1","","100.93","","","","-22","","Cloudy"
"1996-01-16 16:00","1996","01","16","16:00","-12.5","","-21.0","","49","","9","","22","","19.3","","100.80","","","","-21","","Cloudy"
"1996-01-16 17:00","1996","01","16","17:00","-12.5","","-20.7","","50","","8","","20","","19.3","","100.70","","","","-21","","Cloudy"
"1996-01-16 18:00","1996","01","16","18:00","-12.8","","-20.3","","53","","8","","19","","19.3","","100.63","","","","-21","","Cloudy"
"1996-01-16 19:00","1996","01","16","19:00","-12.6","","-20.1","","53","","8","","22","","19.3","","100.46","","","","-22","","Cloudy"
"1996-01-16 20:00","1996","01","16","20:00","-12.0","","-19.0","","56","","9","","15","","16.1","","100.29","","","","-19","","Cloudy"
"1996-01-16 21:00","1996","01","16","21:00","-11.1","","-18.0","","57","","8","","15","","11.3","","100.13","","","","-18","","Freezing Rain,Ice Pellets"
"1996-01-16 22:00","1996","01","16","22:00"
"1996-01-16 23:00","1996","01","16","23:00","-9.2","","-14.2","","67","","7","","13","","11.3","","99.86","","","","-15","","Freezing Rain"
"1996-01-17 00:00","1996","01","17","00:00","-7.4","","-11.8","","71","","11","","13","","11.3","","99.76","","","","-13","","Cloudy"
"1996-01-17 01:00","1996","01","17","01:00","-5.0","","-7.2","","85","","18","","22","","9.7","","99.59","","","","-12","","Freezing Rain,Fog"
"1996-01-17 02:00","1996","01","17","02:00","2.1","","-0.4","","83","","20","","26","","8.0","","99.49","","","","","","Rain,Fog"
"1996-01-17 03:00","1996","01","17","03:00","2.8","","-0.4","","79","","20","","33","","9.7","","99.39","","","","","","Rain,Fog"
"1996-01-17 04:00","1996","01","17","04:00","2.9","","-0.2","","80","","21","","33","","12.9","","99.39","","","","","","Rain"
"1996-01-17 05:00","1996","01","17","05:00","3.3","","-0.3","","77","","21","","28","","16.1","","99.39","","","","","","Cloudy"
"1996-01-17 06:00","1996","01","17","06:00","3.3","","-0.2","","78","","21","","26","","6.4","","99.42","","","","","","Drizzle,Fog"
"1996-01-17 07:00","1996","01","17","07:00","3.5","","-0.1","","77","","22","","24","","12.9","","99.52","","","","","","Cloudy"
"1996-01-17 08:00","1996","01","17","08:00","3.6","","-0.1","","77","","22","","26","","11.3","","99.62","","","","","","Cloudy"
"1996-01-17 09:00","1996","01","17","09:00","3.5","","0.0","","78","","22","","24","","8.0","","99.79","","","","","","Drizzle,Haze"
"1996-01-17 10:00","1996","01","17","10:00","3.3","","0.2","","80","","21","","19","","6.4","","99.93","","","","","","Drizzle,Haze"
"1996-01-17 11:00","1996","01","17","11:00","3.6","","0.7","","81","","21","","15","","4.8","","100.03","","","","","","Haze"
"1996-01-17 12:00","1996","01","17","12:00","3.3","","0.5","","82","","21","","19","","4.0","","100.09","","","","","","Fog"
"1996-01-17 13:00","1996","01","17","13:00","3.6","","0.6","","81","","20","","11","","6.4","","100.19","","","","","","Haze"
"1996-01-17 14:00","1996","01","17","14:00","3.7","","0.6","","80","","22","","11","","11.3","","100.29","","","","","","Cloudy"
"1996-01-17 15:00","1996","01","17","15:00","4.3","","0.1","","74","","23","","15","","12.9","","100.39","","","","","","Cloudy"
"1996-01-17 16:00","1996","01","17","16:00","4.0","","-0.2","","74","","24","","7","","16.1","","100.49","","","","","","Cloudy"
"1996-01-17 17:00","1996","01","17","17:00","3.9","","0.3","","77","","20","","6","","12.9","","100.60","","","","","","Cloudy"
"1996-01-17 18:00","1996","01","17","18:00","3.5","","0.2","","79","","21","","6","","12.9","","100.70","","","","","","Cloudy"
"1996-01-17 19:00","1996","01","17","19:00","3.5","","0.3","","80","","16","","4","","8.0","","100.80","","","","","","Fog"
"1996-01-17 20:00","1996","01","17","20:00","3.9","","0.0","","76","","20","","4","","12.9","","100.83","","","","","","Cloudy"
"1996-01-17 21:00","1996","01","17","21:00","3.0","","-0.6","","77","","15","","11","","4.8","","100.80","","","","","","Fog"
"1996-01-17 22:00","1996","01","17","22:00","2.8","","-0.3","","80","","13","","11","","2.4","","100.80","","","","","","Fog"
"1996-01-17 23:00","1996","01","17","23:00","2.5","","-0.4","","81","","13","","9","","0.2","","100.80","","","","","","Rain,Fog"
"1996-01-18 00:00","1996","01","18","00:00","3.4","","0.8","","83","","11","","11","","0.0","","100.76","","","","","","Rain,Fog"
"1996-01-18 01:00","1996","01","18","01:00","2.5","","0.0","","84","","10","","15","","0.0","","100.73","","","","","","Rain,Fog"
"1996-01-18 02:00","1996","01","18","02:00","2.6","","-0.2","","82","","8","","11","","0.0","","100.73","","","","","","Rain,Fog"
"1996-01-18 03:00","1996","01","18","03:00","2.9","","0.2","","82","","9","","15","","0.2","","100.70","","","","","","Fog"
"1996-01-18 04:00","1996","01","18","04:00","2.7","","0.1","","83","","8","","11","","0.0","","100.63","","","","","","Fog"
"1996-01-18 05:00","1996","01","18","05:00","2.5","","-0.2","","82","","9","","11","","0.0","","100.60","","","","","","Fog"
"1996-01-18 06:00","1996","01","18","06:00","2.5","","-0.3","","82","","8","","17","","0.0","","100.60","","","","","","Fog"
"1996-01-18 07:00","1996","01","18","07:00","2.4","","2.4","","100","","8","","13","","0.2","","100.56","","","","","","Fog"
"1996-01-18 08:00","1996","01","18","08:00","1.9","","1.9","","100","","10","","13","","0.0","","100.53","","","","","","Fog"
"1996-01-18 09:00","1996","01","18","09:00","2.0","","2.0","","100","","12","","11","","0.4","","100.53","","","","","","Fog"
"1996-01-18 10:00","1996","01","18","10:00","3.5","","2.6","","94","","12","","11","","3.6","","100.49","","","","","","Fog"
"1996-01-18 11:00","1996","01","18","11:00","5.8","","5.2","","96","","17","","11","","8.0","","100.46","","","","","","Fog"
"1996-01-18 12:00","1996","01","18","12:00","6.5","","5.8","","95","","16","","9","","12.9","","100.36","","","","","","Cloudy"
"1996-01-18 13:00","1996","01","18","13:00","7.4","","5.2","","86","","17","","9","","16.1","","100.29","","","","","","Cloudy"
"1996-01-18 14:00","1996","01","18","14:00","8.6","","5.6","","81","","17","","15","","16.1","","100.19","","","","","","Cloudy"
"1996-01-18 15:00","1996","01","18","15:00","9.2","","5.6","","78","","18","","4","","12.9","","100.19","","","","","","Cloudy"
"1996-01-18 16:00","1996","01","18","16:00","9.1","","6.2","","82","","17","","11","","16.1","","100.13","","","","","","Cloudy"
"1996-01-18 17:00","1996","01","18","17:00","8.4","","6.1","","85","","16","","13","","16.1","","100.03","","","","","","Cloudy"
"1996-01-18 18:00","1996","01","18","18:00","9.1","","6.3","","83","","18","","17","","16.1","","99.99","","","","","","Cloudy"
"1996-01-18 19:00","1996","01","18","19:00","9.0","","6.4","","84","","17","","19","","19.3","","99.93","","","","","","Cloudy"
"1996-01-18 20:00","1996","01","18","20:00","8.5","","6.3","","86","","16","","9","","24.1","","99.89","","","","","","Cloudy"
"1996-01-18 21:00","1996","01","18","21:00","7.8","","5.7","","87","","14","","13","","19.3","","99.76","","","","","","Cloudy"
"1996-01-18 22:00","1996","01","18","22:00","7.1","","5.7","","91","","8","","9","","24.1","","99.66","","","","","","Cloudy"
"1996-01-18 23:00","1996","01","18","23:00","4.4","","3.8","","96","","7","","13","","16.1","","99.52","","","","","","Mostly Cloudy"
"1996-01-19 00:00","1996","01","19","00:00","5.7","","4.2","","90","","8","","13","","19.3","","99.36","","","","","","Mostly Cloudy"
"1996-01-19 01:00","1996","01","19","01:00","6.1","","4.3","","88","","7","","13","","19.3","","99.22","","","","","","Cloudy"
"1996-01-19 02:00","1996","01","19","02:00","6.9","","4.6","","85","","8","","15","","19.3","","99.02","","","","","","Cloudy"
"1996-01-19 03:00","1996","01","19","03:00","7.1","","5.4","","89","","10","","19","","24.1","","98.85","","","","","","Cloudy"
"1996-01-19 04:00","1996","01","19","04:00","8.5","","6.1","","85","","12","","22","","24.1","","98.65","","","","","","Cloudy"
"1996-01-19 05:00","1996","01","19","05:00","7.6","","6.9","","95","","12","","19","","25.0","","98.49","","","","","","Cloudy"
"1996-01-19 06:00","1996","01","19","06:00","8.9","","7.4","","90","","13","","22","","25.0","","98.35","","","","","","Cloudy"
"1996-01-19 07:00","1996","01","19","07:00","9.2","","7.3","","88","","13","","24","","24.1","","98.18","","","","","","Cloudy"
"1996-01-19 08:00","1996","01","19","08:00","9.7","","7.5","","86","","11","","22","","32.2","","98.02","","","","","","Cloudy"
"1996-01-19 09:00","1996","01","19","09:00","11.0","","8.4","","84","","16","","24","","4.8","","97.92","","","","","","Rain Showers,Fog"
"1996-01-19 10:00","1996","01","19","10:00","7.8","","7.5","","98","","21","","9","","9.7","","98.08","","","","","","Rain,Fog"
"1996-01-19 11:00","1996","01","19","11:00","7.2","","7.2","","100","","14","","15","","3.2","","98.02","","","","","","Rain Showers,Fog"
"1996-01-19 12:00","1996","01","19","12:00","7.6","","7.6","","100","","15","","13","","0.4","","97.88","","","","","","Rain,Fog"
"1996-01-19 13:00","1996","01","19","13:00","8.0","","8.0","","100","","18","","13","","0.4","","97.78","","","","","","Rain,Fog"
"1996-01-19 14:00","1996","01","19","14:00","3.7","","3.5","","99","","23","","24","","6.4","","97.85","","","","","","Moderate Rain,Fog"
"1996-01-19 15:00","1996","01","19","15:00","1.4","","1.0","","97","","23","","26","","6.4","","97.88","","","","","","Rain,Ice Pellets,Fog"
"1996-01-19 16:00","1996","01","19","16:00","0.0","","-0.4","","97","","21","","30","","2.8","","98.05","","","","-6","","Snow Showers"
"1996-01-19 17:00","1996","01","19","17:00","-0.9","","-1.5","","96","","21","","33","","6.4","","98.15","","","","-8","","Snow"
"1996-01-19 18:00","1996","01","19","18:00","-1.5","","-3.0","","89","","23","","33","","16.1","","98.35","","","","-9","","Snow"
"1996-01-19 19:00","1996","01","19","19:00","-2.3","","-5.0","","82","","24","","35","","24.1","","98.55","","","","-10","","Snow"
"1996-01-19 20:00","1996","01","19","20:00","-4.0","","-5.3","","91","","27","","35","","25.0","","98.75","","","","-12","","Cloudy"
"1996-01-19 21:00","1996","01","19","21:00","-5.6","","-9.1","","76","","27","","37","","25.0","","98.92","","","","-15","","Mostly Cloudy"
"1996-01-19 22:00","1996","01","19","22:00","-6.9","","-11.2","","71","","26","","37","","25.0","","99.19","","","","-16","","Mostly Cloudy"
"1996-01-19 23:00","1996","01","19","23:00","-8.5","","-12.9","","70","","28","","48","","25.0","","99.49","","","","-20","","Mostly Cloudy"
"1996-01-20 00:00","1996","01","20","00:00","-10.0","","-17.0","","57","","29","","50","","25.0","","99.79","","","","-22","","Mainly Clear"
"1996-01-20 01:00","1996","01","20","01:00","-11.6","","-18.6","","56","","29","","39","","25.0","","100.09","","","","-23","","Mainly Clear"
"1996-01-20 02:00","1996","01","20","02:00","-12.1","","-19.3","","55","","29","","24","","25.0","","100.33","","","","-21","","Clear"
"1996-01-20 03:00","1996","01","20","03:00","-12.4","","-19.7","","54","","30","","32","","25.0","","100.46","","","","-23","","Clear"
"1996-01-20 04:00","1996","01","20","04:00","-12.5","","-19.3","","57","","29","","24","","25.0","","100.63","","","","-22","","Clear"
"1996-01-20 05:00","1996","01","20","05:00","-12.5","","-18.9","","59","","29","","19","","25.0","","100.73","","","","-21","","Mainly Clear"
"1996-01-20 06:00","1996","01","20","06:00","-12.8","","-17.5","","68","","24","","7","","25.0","","100.86","","","","-17","","Mainly Clear"
"1996-01-20 07:00","1996","01","20","07:00","-12.8","","-16.5","","74","","24","","7","","25.0","","100.93","","","","-17","","Mostly Cloudy"
"1996-01-20 08:00","1996","01","20","08:00","-11.9","","-16.0","","72","","24","","13","","40.2","","101.03","","","","-19","","Mostly Cloudy"
"1996-01-20 09:00","1996","01","20","09:00","-11.0","","-15.5","","69","","25","","19","","40.2","","101.23","","","","-19","","Cloudy"
"1996-01-20 10:00","1996","01","20","10:00","-10.2","","-15.1","","67","","25","","17","","40.2","","101.33","","","","-17","","Mostly Cloudy"
"1996-01-20 11:00","1996","01","20","11:00","-9.0","","-15.0","","62","","25","","19","","40.2","","101.37","","","","-16","","Mostly Cloudy"
"1996-01-20 12:00","1996","01","20","12:00","-8.4","","-14.8","","60","","24","","17","","40.2","","101.43","","","","-15","","Cloudy"
"1996-01-20 13:00","1996","01","20","13:00","-8.6","","-14.6","","62","","22","","20","","24.1","","101.43","","","","-16","","Cloudy"
"1996-01-20 14:00","1996","01","20","14:00","-8.4","","-11.4","","79","","27","","13","","2.4","","101.47","","","","-14","","Snow Showers"
"1996-01-20 15:00","1996","01","20","15:00","-8.3","","-13.6","","66","","34","","6","","32.2","","101.53","","","","-12","","Cloudy"
"1996-01-20 16:00","1996","01","20","16:00","-8.4","","-13.9","","64","","33","","7","","40.2","","101.60","","","","-12","","Cloudy"
"1996-01-20 17:00","1996","01","20","17:00","-8.5","","-14.7","","61","","33","","6","","40.2","","101.67","","","","-12","","Mostly Cloudy"
"1996-01-20 18:00","1996","01","20","18:00","-8.6","","-14.8","","61","","34","","9","","25.0","","101.73","","","","-13","","Mostly Cloudy"
"1996-01-20 19:00","1996","01","20","19:00","-8.8","","-14.8","","62","","34","","6","","25.0","","101.77","","","","-12","","Mostly Cloudy"
"1996-01-20 20:00","1996","01","20","20:00","-9.5","","-15.5","","62","","","","0","","25.0","","101.83","","","","","","Mostly Cloudy"
"1996-01-20 21:00","1996","01","20","21:00","-9.5","","-14.3","","68","","15","","9","","25.0","","101.87","","","","-14","","Mostly Cloudy"
"1996-01-20 22:00","1996","01","20","22:00","-9.5","","-14.6","","66","","15","","11","","24.1","","101.87","","","","-15","","Mostly Cloudy"
"1996-01-20 23:00","1996","01","20","23:00","-9.7","","-14.6","","67","","16","","11","","24.1","","101.90","","","","-15","","Mostly Cloudy"
"1996-01-21 00:00","1996","01","21","00:00","-10.0","","-15.0","","67","","15","","15","","24.1","","101.90","","","","-17","","Mainly Clear"
"1996-01-21 01:00","1996","01","21","01:00","-10.4","","-15.1","","68","","16","","15","","24.1","","101.87","","","","-17","","Mainly Clear"
"1996-01-21 02:00","1996","01","21","02:00","-11.6","","-15.2","","75","","14","","15","","24.1","","101.90","","","","-19","","Clear"
"1996-01-21 03:00","1996","01","21","03:00","-11.9","","-14.4","","82","","13","","17","","19.3","","101.94","","","","-20","","Mainly Clear"
"1996-01-21 04:00","1996","01","21","04:00","-11.5","","-14.2","","80","","15","","15","","19.3","","101.97","","","","-19","","Mostly Cloudy"
"1996-01-21 05:00","1996","01","21","05:00","-11.0","","-15.0","","72","","7","","20","","16.1","","101.94","","","","-19","","Mostly Cloudy"
"1996-01-21 06:00","1996","01","21","06:00","-10.7","","-15.8","","66","","8","","24","","16.1","","101.87","","","","-19","","Mostly Cloudy"
"1996-01-21 07:00","1996","01","21","07:00","-10.8","","-16.1","","65","","8","","22","","24.1","","101.83","","","","-19","","Mostly Cloudy"
"1996-01-21 08:00","1996","01","21","08:00","-10.8","","-16.0","","65","","9","","26","","32.2","","101.77","","","","-20","","Cloudy"
"1996-01-21 09:00","1996","01","21","09:00","-10.0","","-13.8","","74","","9","","28","","19.3","","101.70","","","","-19","","Cloudy"
"1996-01-21 10:00","1996","01","21","10:00"
"1996-01-21 11:00","1996","01","21","11:00","-9.8","","-14.1","","71","","9","","30","","32.2","","101.60","","","","-19","","Cloudy"
"1996-01-21 12:00","1996","01","21","12:00","-9.4","","-13.6","","71","","8","","26","","32.2","","101.47","","","","-18","","Cloudy"
"1996-01-21 13:00","1996","01","21","13:00","-8.9","","-12.5","","75","","10","","26","","8.0","","101.37","","","","-18","","Snow Showers"
"1996-01-21 14:00","1996","01","21","14:00","-8.4","","-10.4","","85","","9","","20","","2.4","","101.30","","","","-16","","Snow,Fog"
"1996-01-21 15:00","1996","01","21","15:00","-7.7","","-9.2","","89","","10","","26","","6.4","","101.27","","","","-16","","Snow"
"1996-01-21 16:00","1996","01","21","16:00","-7.6","","-9.1","","89","","9","","22","","12.9","","101.27","","","","-15","","Snow"
"1996-01-21 17:00","1996","01","21","17:00","-7.4","","-8.8","","90","","10","","13","","9.7","","101.27","","","","-13","","Snow"
"1996-01-21 18:00","1996","01","21","18:00","-7.5","","-8.6","","92","","8","","11","","12.9","","101.27","","","","-13","","Snow"
"1996-01-21 19:00","1996","01","21","19:00","-7.6","","-8.4","","94","","8","","11","","12.9","","101.33","","","","-13","","Snow"
"1996-01-21 20:00","1996","01","21","20:00","-7.7","","-8.8","","92","","8","","11","","19.3","","101.33","","","","-13","","Snow"
"1996-01-21 21:00","1996","01","21","21:00","-7.7","","-8.8","","92","","9","","11","","19.3","","101.30","","","","-13","","Cloudy"
"1996-01-21 22:00","1996","01","21","22:00","-8.5","","-9.3","","94","","8","","11","","19.3","","101.33","","","","-14","","Cloudy"
"1996-01-21 23:00","1996","01","21","23:00","-8.0","","-8.9","","93","","7","","7","","19.3","","101.33","","","","-12","","Mostly Cloudy"
"1996-01-22 00:00","1996","01","22","00:00","-7.0","","-7.8","","94","","15","","7","","19.3","","101.33","","","","-11","","Cloudy"
"1996-01-22 01:00","1996","01","22","01:00","-5.3","","-6.6","","91","","20","","11","","19.3","","101.27","","","","-10","","Cloudy"
"1996-01-22 02:00","1996","01","22","02:00","-4.2","","-6.5","","84","","22","","11","","19.3","","101.27","","","","-9","","Cloudy"
"1996-01-22 03:00","1996","01","22","03:00","-3.7","","-6.8","","79","","23","","15","","19.3","","101.27","","","","-9","","Cloudy"
"1996-01-22 04:00","1996","01","22","04:00","-4.3","","-6.9","","82","","22","","7","","19.3","","101.27","","","","-7","","Cloudy"
"1996-01-22 05:00","1996","01","22","05:00","-4.0","","-6.8","","81","","19","","9","","19.3","","101.27","","","","-8","","Mostly Cloudy"
"1996-01-22 06:00","1996","01","22","06:00","-4.3","","-6.6","","84","","18","","15","","19.3","","101.20","","","","-10","","Mostly Cloudy"
"1996-01-22 07:00","1996","01","22","07:00","-3.8","","-6.5","","81","","19","","15","","19.3","","101.20","","","","-9","","Mostly Cloudy"
"1996-01-22 08:00","1996","01","22","08:00","-4.4","","-6.4","","86","","18","","13","","19.3","","101.16","","","","-9","","Mostly Cloudy"
"1996-01-22 09:00","1996","01","22","09:00","-3.6","","-6.8","","78","","17","","19","","16.1","","101.06","","","","-10","","Mostly Cloudy"
"1996-01-22 10:00","1996","01","22","10:00","-3.6","","-6.8","","78","","17","","19","","16.1","","101.06","","","","-10","","Mostly Cloudy"
"1996-01-22 11:00","1996","01","22","11:00","-2.4","","-6.7","","72","","18","","22","","19.3","","101.00","","","","-9","","Cloudy"
"1996-01-22 12:00","1996","01","22","12:00","-1.6","","-7.0","","67","","19","","24","","24.1","","100.80","","","","-8","","Mostly Cloudy"
"1996-01-22 13:00","1996","01","22","13:00","-0.6","","-6.1","","66","","20","","24","","24.1","","100.70","","","","-7","","Cloudy"
"1996-01-22 14:00","1996","01","22","14:00","0.2","","-5.7","","64","","20","","19","","19.3","","100.60","","","","","","Cloudy"
"1996-01-22 15:00","1996","01","22","15:00","0.8","","-5.1","","65","","21","","15","","24.1","","100.53","","","","","","Cloudy"
"1996-01-22 16:00","1996","01","22","16:00","1.0","","-5.0","","64","","20","","17","","24.1","","100.49","","","","","","Mostly Cloudy"
"1996-01-22 17:00","1996","01","22","17:00","1.0","","-5.0","","64","","21","","13","","24.1","","100.43","","","","","","Cloudy"
"1996-01-22 18:00","1996","01","22","18:00","1.3","","-5.3","","61","","19","","15","","24.1","","100.36","","","","","","Cloudy"
"1996-01-22 19:00","1996","01","22","19:00","1.5","","-5.2","","61","","19","","20","","24.1","","100.26","","","","","","Cloudy"
"1996-01-22 20:00","1996","01","22","20:00","1.8","","-4.9","","61","","20","","32","","24.1","","100.13","","","","","","Cloudy"
"1996-01-22 21:00","1996","01","22","21:00","1.4","","-4.5","","65","","21","","20","","24.1","","100.16","","","","","","Cloudy"
"1996-01-22 22:00","1996","01","22","22:00","0.9","","-4.3","","68","","20","","15","","24.1","","100.19","","","","","","Cloudy"
"1996-01-22 23:00","1996","01","22","23:00","1.2","","-3.6","","70","","21","","19","","24.1","","100.19","","","","","","Cloudy"
"1996-01-23 00:00","1996","01","23","00:00","1.4","","-3.5","","70","","21","","19","","24.1","","100.13","","","","","","Cloudy"
"1996-01-23 01:00","1996","01","23","01:00","1.6","","-3.2","","70","","21","","19","","24.1","","100.09","","","","","","Cloudy"
"1996-01-23 02:00","1996","01","23","02:00","1.7","","-3.4","","69","","21","","20","","24.1","","100.09","","","","","","Cloudy"
"1996-01-23 03:00","1996","01","23","03:00","1.8","","-2.6","","73","","21","","17","","24.1","","100.09","","","","","","Cloudy"
"1996-01-23 04:00","1996","01","23","04:00","1.7","","-2.4","","74","","23","","11","","19.3","","100.09","","","","","","Snow"
"1996-01-23 05:00","1996","01","23","05:00","1.3","","-2.4","","76","","22","","13","","19.3","","100.09","","","","","","Cloudy"
"1996-01-23 06:00","1996","01","23","06:00","0.9","","-2.0","","81","","24","","7","","19.3","","100.16","","","","","","Snow"
"1996-01-23 07:00","1996","01","23","07:00","0.5","","-0.8","","91","","22","","4","","6.4","","100.16","","","","","","Snow"
"1996-01-23 08:00","1996","01","23","08:00","0.3","","-0.7","","93","","22","","6","","4.8","","100.16","","","","","","Snow"
"1996-01-23 09:00","1996","01","23","09:00","0.4","","-0.3","","95","","21","","9","","4.8","","100.19","","","","","","Fog"
"1996-01-23 10:00","1996","01","23","10:00","0.5","","-0.2","","95","","33","","7","","4.8","","100.29","","","","","","Snow Grains,Fog"
"1996-01-23 11:00","1996","01","23","11:00","-0.5","","-1.5","","93","","34","","11","","4.0","","100.29","","","","-4","","Rain,Snow,Fog"
"1996-01-23 12:00","1996","01","23","12:00","-1.3","","-2.0","","95","","35","","17","","6.4","","100.26","","","","-6","","Snow,Fog"
"1996-01-23 13:00","1996","01","23","13:00","-1.6","","-2.9","","91","","35","","17","","8.0","","100.19","","","","-7","","Snow,Fog"
"1996-01-23 14:00","1996","01","23","14:00","-1.9","","-3.4","","89","","34","","15","","6.4","","100.16","","","","-7","","Snow,Fog"
"1996-01-23 15:00","1996","01","23","15:00","-2.0","","-3.4","","90","","34","","7","","4.8","","100.19","","","","-5","","Snow"
"1996-01-23 16:00","1996","01","23","16:00","-2.5","","-3.4","","94","","32","","11","","2.0","","100.26","","","","-7","","Snow"
"1996-01-23 17:00","1996","01","23","17:00","-3.2","","-4.1","","93","","33","","9","","2.4","","100.23","","","","-7","","Snow"
"1996-01-23 18:00","1996","01","23","18:00","-3.4","","-4.0","","96","","36","","7","","9.7","","100.16","","","","-6","","Snow"
"1996-01-23 19:00","1996","01","23","19:00","-3.0","","-3.6","","96","","2","","4","","9.7","","100.13","","","","-5","","Fog"
"1996-01-23 20:00","1996","01","23","20:00","-2.6","","-3.1","","96","","5","","7","","9.7","","100.09","","","","-5","","Snow,Fog"
"1996-01-23 21:00","1996","01","23","21:00","-2.4","","-2.9","","96","","4","","4","","4.8","","99.99","","","","-4","","Snow,Fog"
"1996-01-23 22:00","1996","01","23","22:00","-2.0","","-2.3","","98","","6","","11","","0.6","","99.89","","","","-6","","Freezing Drizzle,Snow,Fog"
"1996-01-23 23:00","1996","01","23","23:00","-1.8","","-2.0","","99","","7","","11","","0.4","","99.72","","","","-6","","Freezing Drizzle,Snow,Fog"
"1996-01-24 00:00","1996","01","24","00:00","-0.9","","-1.1","","99","","8","","13","","0.4","","99.52","","","","-5","","Snow,Fog"
"1996-01-24 01:00","1996","01","24","01:00","-0.3","","-0.4","","99","","9","","19","","1.0","","99.42","","","","-5","","Snow,Fog"
"1996-01-24 02:00","1996","01","24","02:00"
"1996-01-24 03:00","1996","01","24","03:00","-0.3","","-0.4","","99","","8","","26","","0.6","","99.02","","","","-6","","Moderate Snow"
"1996-01-24 04:00","1996","01","24","04:00","-0.6","","-0.6","","100","","8","","26","","0.6","","98.72","","","","-7","","Moderate Snow"
"1996-01-24 05:00","1996","01","24","05:00","-0.4","","-0.5","","99","","10","","22","","0.6","","98.49","","","","-6","","Moderate Snow"
"1996-01-24 06:00","1996","01","24","06:00","0.0","","-0.1","","99","","11","","20","","2.8","","98.28","","","","-5","","Snow,Ice Pellets"
"1996-01-24 07:00","1996","01","24","07:00","0.5","","0.3","","99","","14","","17","","4.8","","98.18","","","","","","Snow,Fog"
"1996-01-24 08:00","1996","01","24","08:00","0.7","","0.6","","99","","13","","6","","1.2","","98.15","","","","","","Drizzle,Fog"
"1996-01-24 09:00","1996","01","24","09:00","0.8","","0.7","","99","","14","","13","","2.0","","98.05","","","","","","Drizzle,Fog"
"1996-01-24 10:00","1996","01","24","10:00","1.8","","1.7","","99","","16","","19","","6.4","","97.95","","","","","","Rain,Fog"
"1996-01-24 11:00","1996","01","24","11:00","2.4","","2.3","","99","","17","","17","","4.0","","97.85","","","","","","Drizzle,Fog"
"1996-01-24 12:00","1996","01","24","12:00","2.7","","2.7","","100","","19","","15","","4.8","","97.71","","","","","","Rain,Fog"
"1996-01-24 13:00","1996","01","24","13:00","3.3","","3.1","","99","","19","","26","","6.4","","97.55","","","","","","Rain,Fog"
"1996-01-24 14:00","1996","01","24","14:00","3.1","","3.1","","100","","20","","20","","4.8","","97.58","","","","","","Rain,Fog"
"1996-01-24 15:00","1996","01","24","15:00","3.1","","3.0","","99","","21","","19","","9.7","","97.58","","","","","","Rain,Fog"
"1996-01-24 16:00","1996","01","24","16:00","2.9","","2.6","","98","","22","","17","","12.9","","97.61","","","","","","Rain"
"1996-01-24 17:00","1996","01","24","17:00"
"1996-01-24 18:00","1996","01","24","18:00","0.0","","-0.6","","96","","28","","33","","6.4","","97.92","","","","-7","","Snow,Fog"
"1996-01-24 19:00","1996","01","24","19:00","-4.4","","-5.6","","91","","29","","44","","4.8","","98.12","","","","-14","","Snow"
"1996-01-24 20:00","1996","01","24","20:00","-5.8","","-8.2","","83","","30","","46","","24.1","","98.38","","","","-16","","Snow"
"1996-01-24 21:00","1996","01","24","21:00","-8.0","","-11.1","","78","","30","","46","","16.1","","98.62","","","","-19","","Snow Showers"
"1996-01-24 22:00","1996","01","24","22:00","-9.1","","-13.1","","73","","30","","44","","24.1","","98.92","","","","-20","","Cloudy"
"1996-01-24 23:00","1996","01","24","23:00","-10.0","","-14.0","","72","","29","","33","","24.1","","99.12","","","","-20","","Snow Showers"
"1996-01-25 00:00","1996","01","25","00:00","-11.5","","-14.7","","77","","29","","33","","24.1","","99.39","","","","-22","","Mostly Cloudy"
"1996-01-25 01:00","1996","01","25","01:00","-12.3","","-15.9","","74","","29","","30","","24.1","","99.56","","","","-23","","Mostly Cloudy"
"1996-01-25 02:00","1996","01","25","02:00","-13.4","","-16.8","","76","","29","","32","","24.1","","99.79","","","","-24","","Mainly Clear"
"1996-01-25 03:00","1996","01","25","03:00","-14.2","","-18.5","","70","","29","","33","","24.1","","99.96","","","","-25","","Mainly Clear"
"1996-01-25 04:00","1996","01","25","04:00","-15.3","","-20.0","","67","","30","","24","","24.1","","100.19","","","","-25","","Mainly Clear"
"1996-01-25 05:00","1996","01","25","05:00","-16.0","","-21.0","","65","","29","","33","","24.1","","100.36","","","","-28","","Mainly Clear"
"1996-01-25 06:00","1996","01","25","06:00","-16.7","","-22.0","","63","","30","","28","","24.1","","100.53","","","","-28","","Mainly Clear"
"1996-01-25 07:00","1996","01","25","07:00","-17.4","","-22.6","","64","","29","","22","","25.0","","100.73","","","","-28","","Mainly Clear"
"1996-01-25 08:00","1996","01","25","08:00","-17.8","","-23.2","","63","","29","","20","","32.2","","100.90","","","","-28","","Mainly Clear"
"1996-01-25 09:00","1996","01","25","09:00","-17.8","","-23.0","","64","","30","","22","","32.2","","101.03","","","","-28","","Mainly Clear"
"1996-01-25 10:00","1996","01","25","10:00","-17.7","","-23.1","","63","","28","","20","","32.2","","101.13","","","","-28","","Clear"
"1996-01-25 11:00","1996","01","25","11:00","-16.9","","-23.3","","58","","28","","19","","32.2","","101.27","","","","-26","","Clear"
"1996-01-25 12:00","1996","01","25","12:00","-16.3","","-23.7","","53","","24","","20","","32.2","","101.27","","","","-26","","Clear"
"1996-01-25 13:00","1996","01","25","13:00","-15.3","","-24.8","","44","","25","","22","","32.2","","101.27","","","","-25","","Clear"
"1996-01-25 14:00","1996","01","25","14:00","-14.4","","-24.7","","41","","25","","20","","32.2","","101.33","","","","-23","","Clear"
"1996-01-25 15:00","1996","01","25","15:00","-13.3","","-23.0","","44","","26","","17","","40.2","","101.37","","","","-21","","Clear"
"1996-01-25 16:00","1996","01","25","16:00","-12.9","","-22.3","","45","","24","","7","","40.2","","101.40","","","","-17","","Clear"
"1996-01-25 17:00","1996","01","25","17:00","-13.3","","-21.7","","49","","","","0","","32.2","","101.50","","","","","","Mainly Clear"
"1996-01-25 18:00","1996","01","25","18:00","-14.2","","-20.9","","57","","","","0","","24.1","","101.53","","","","","","Mainly Clear"
"1996-01-25 19:00","1996","01","25","19:00","-14.2","","-21.6","","53","","8","","7","","24.1","","101.57","","","","-19","","Mainly Clear"
"1996-01-25 20:00","1996","01","25","20:00","-14.1","","-21.4","","54","","10","","7","","24.1","","101.57","","","","-19","","Mainly Clear"
"1996-01-25 21:00","1996","01","25","21:00","-13.8","","-21.1","","54","","10","","7","","24.1","","101.63","","","","-18","","Mostly Cloudy"
"1996-01-25 22:00","1996","01","25","22:00","-13.7","","-19.9","","59","","10","","6","","24.1","","101.67","","","","-18","","Cloudy"
"1996-01-25 23:00","1996","01","25","23:00","-13.9","","-19.0","","65","","9","","7","","24.1","","101.67","","","","-19","","Cloudy"
"1996-01-26 00:00","1996","01","26","00:00","-13.7","","-18.2","","69","","7","","7","","24.1","","101.63","","","","-18","","Cloudy"
"1996-01-26 01:00","1996","01","26","01:00","-12.7","","-16.9","","71","","5","","7","","24.1","","101.67","","","","-17","","Cloudy"
"1996-01-26 02:00","1996","01","26","02:00","-13.7","","-17.3","","74","","4","","13","","16.1","","101.63","","","","-21","","Snow Showers"
"1996-01-26 03:00","1996","01","26","03:00","-13.1","","-15.9","","79","","7","","11","","4.0","","101.60","","","","-19","","Snow Showers"
"1996-01-26 04:00","1996","01","26","04:00","-12.3","","-14.1","","86","","6","","17","","2.4","","101.60","","","","-20","","Snow"
"1996-01-26 05:00","1996","01","26","05:00","-12.1","","-13.6","","89","","7","","19","","2.0","","101.57","","","","-20","","Snow"
"1996-01-26 06:00","1996","01","26","06:00","-12.1","","-13.7","","88","","7","","22","","2.4","","101.60","","","","-21","","Snow"
"1996-01-26 07:00","1996","01","26","07:00","-12.1","","-13.9","","86","","7","","24","","2.0","","101.60","","","","-21","","Snow"
"1996-01-26 08:00","1996","01","26","08:00","-12.1","","-13.9","","86","","6","","20","","24.1","","101.63","","","","-21","","Snow"
"1996-01-26 09:00","1996","01","26","09:00","-11.2","","-13.0","","87","","6","","20","","6.4","","101.63","","","","-19","","Snow"
"1996-01-26 10:00","1996","01","26","10:00","-10.7","","-12.5","","87","","6","","20","","8.0","","101.63","","","","-19","","Snow"
"1996-01-26 11:00","1996","01","26","11:00","-10.2","","-12.1","","86","","6","","24","","9.7","","101.67","","","","-19","","Snow"
"1996-01-26 12:00","1996","01","26","12:00","-9.4","","-11.4","","85","","5","","26","","4.0","","101.67","","","","-18","","Snow"
"1996-01-26 13:00","1996","01","26","13:00","-9.2","","-11.3","","85","","5","","26","","4.8","","101.60","","","","-18","","Snow"
"1996-01-26 14:00","1996","01","26","14:00","-8.9","","-10.8","","86","","6","","28","","4.0","","101.57","","","","-18","","Snow"
"1996-01-26 15:00","1996","01","26","15:00","-8.3","","-10.2","","86","","6","","26","","19.3","","101.63","","","","-17","","Snow"
"1996-01-26 16:00","1996","01","26","16:00","-8.1","","-10.1","","85","","6","","24","","19.3","","101.70","","","","-16","","Cloudy"
"1996-01-26 17:00","1996","01","26","17:00","-8.1","","-10.1","","85","","6","","22","","19.3","","101.73","","","","-16","","Cloudy"
"1996-01-26 18:00","1996","01","26","18:00","-8.1","","-10.0","","86","","6","","24","","16.1","","101.77","","","","-16","","Cloudy"
"1996-01-26 19:00","1996","01","26","19:00","-8.6","","-10.8","","84","","7","","24","","16.1","","101.70","","","","-17","","Mostly Cloudy"
"1996-01-26 20:00","1996","01","26","20:00","-9.0","","-11.4","","83","","7","","28","","16.1","","101.53","","","","-18","","Cloudy"
"1996-01-26 21:00","1996","01","26","21:00","-8.7","","-11.5","","80","","9","","26","","19.3","","101.50","","","","-17","","Cloudy"
"1996-01-26 22:00","1996","01","26","22:00","-8.5","","-11.4","","80","","8","","33","","19.3","","101.37","","","","-18","","Cloudy"
"1996-01-26 23:00","1996","01","26","23:00","-8.2","","-11.0","","80","","8","","28","","19.3","","101.27","","","","-17","","Cloudy"
"1996-01-27 00:00","1996","01","27","00:00","-8.0","","-10.1","","85","","8","","30","","0.8","","101.06","","","","-17","","Moderate Snow,Blowing Snow"
"1996-01-27 01:00","1996","01","27","01:00","-7.6","","-9.0","","90","","8","","32","","0.6","","100.83","","","","-17","","Moderate Snow,Blowing Snow"
"1996-01-27 02:00","1996","01","27","02:00","-6.8","","-8.2","","90","","8","","37","","0.4","","100.56","","","","-16","","Heavy Snow,Blowing Snow"
"1996-01-27 03:00","1996","01","27","03:00","-5.5","","-6.6","","92","","8","","33","","0.6","","100.29","","","","-14","","Moderate Snow,Blowing Snow"
"1996-01-27 04:00","1996","01","27","04:00","-4.2","","-5.4","","91","","8","","37","","0.8","","100.03","","","","-13","","Moderate Snow,Blowing Snow"
"1996-01-27 05:00","1996","01","27","05:00","-2.1","","-2.7","","96","","8","","30","","4.8","","99.79","","","","-9","","Freezing Rain,Ice Pellets,Fog"
"1996-01-27 06:00","1996","01","27","06:00","0.3","","-0.2","","96","","8","","28","","4.8","","99.56","","","","","","Freezing Rain,Ice Pellets,Fog"
"1996-01-27 07:00","1996","01","27","07:00","0.5","","0.0","","96","","8","","26","","6.4","","99.36","","","","","","Rain,Fog"
"1996-01-27 08:00","1996","01","27","08:00","1.3","","0.7","","96","","8","","26","","6.4","","99.09","","","","","","Rain,Fog"
"1996-01-27 09:00","1996","01","27","09:00","2.6","","2.2","","97","","9","","26","","9.7","","98.75","","","","","","Rain,Fog"
"1996-01-27 10:00","1996","01","27","10:00","5.4","","3.7","","89","","13","","28","","9.7","","98.45","","","","","","Rain,Fog"
"1996-01-27 11:00","1996","01","27","11:00","8.7","","5.1","","78","","16","","41","","12.9","","98.15","","","","","","Rain"
"1996-01-27 12:00","1996","01","27","12:00","8.5","","5.8","","83","","20","","65","","1.2","","98.05","","","","","","Moderate Rain,Fog"
"1996-01-27 13:00","1996","01","27","13:00","2.3","","0.5","","88","","22","","37","","12.9","","98.28","","","","","","Rain"
"1996-01-27 14:00","1996","01","27","14:00","0.9","","-1.1","","86","","20","","33","","4.8","","98.28","","","","","","Snow,Fog"
"1996-01-27 15:00","1996","01","27","15:00","-1.3","","-2.7","","90","","20","","37","","4.0","","98.35","","","","-9","","Snow,Blowing Snow"
"1996-01-27 16:00","1996","01","27","16:00","-1.5","","-5.8","","72","","20","","46","","24.1","","98.69","","","","-10","","Cloudy"
"1996-01-27 17:00","1996","01","27","17:00","-2.2","","-7.4","","67","","28","","52","","24.1","","98.79","","","","-11","","Cloudy"
"1996-01-27 18:00","1996","01","27","18:00","-2.7","","-7.2","","71","","21","","37","","16.1","","98.85","","","","-11","","Snow"
"1996-01-27 19:00","1996","01","27","19:00","-3.0","","-9.0","","63","","21","","35","","25.0","","98.85","","","","-11","","Mostly Cloudy"
"1996-01-27 20:00","1996","01","27","20:00","-3.4","","-8.2","","69","","21","","39","","25.0","","98.89","","","","-12","","Mostly Cloudy"
"1996-01-27 21:00","1996","01","27","21:00","-3.3","","-8.1","","69","","20","","33","","25.0","","98.85","","","","-11","","Mostly Cloudy"
"1996-01-27 22:00","1996","01","27","22:00","-3.4","","-7.7","","72","","20","","32","","25.0","","98.85","","","","-11","","Cloudy"
"1996-01-27 23:00","1996","01","27","23:00","-3.6","","-7.5","","74","","21","","28","","25.0","","98.79","","","","-11","","Cloudy"
"1996-01-28 00:00","1996","01","28","00:00","-3.7","","-8.3","","70","","21","","33","","25.0","","98.79","","","","-12","","Mostly Cloudy"
"1996-01-28 01:00","1996","01","28","01:00","-3.6","","-8.4","","69","","21","","28","","25.0","","98.85","","","","-11","","Cloudy"
"1996-01-28 02:00","1996","01","28","02:00","-4.2","","-8.4","","72","","23","","30","","11.3","","98.95","","","","-12","","Snow Showers"
"1996-01-28 03:00","1996","01","28","03:00","-9.8","","-14.8","","67","","28","","63","","12.9","","99.32","","","","-23","","Snow"
"1996-01-28 04:00","1996","01","28","04:00","-11.7","","-17.0","","65","","28","","54","","24.1","","99.62","","","","-24","","Snow"
"1996-01-28 05:00","1996","01","28","05:00","-13.8","","-20.6","","56","","29","","59","","25.0","","99.99","","","","-28","","Mainly Clear"
"1996-01-28 06:00","1996","01","28","06:00","-14.4","","-22.2","","52","","29","","37","","25.0","","100.29","","","","-26","","Mainly Clear"
"1996-01-28 07:00","1996","01","28","07:00","-14.9","","-22.3","","53","","28","","33","","24.1","","100.53","","","","-26","","Clear"
"1996-01-28 08:00","1996","01","28","08:00","-15.0","","-21.4","","58","","27","","24","","40.2","","100.73","","","","-25","","Clear"
"1996-01-28 09:00","1996","01","28","09:00","-14.8","","-21.1","","59","","27","","39","","40.2","","100.90","","","","-27","","Clear"
"1996-01-28 10:00","1996","01","28","10:00","-14.6","","-21.0","","58","","27","","37","","40.2","","101.06","","","","-27","","Clear"
"1996-01-28 11:00","1996","01","28","11:00","-13.6","","-20.8","","55","","26","","37","","40.2","","101.16","","","","-25","","Clear"
"1996-01-28 12:00","1996","01","28","12:00","-13.0","","-21.4","","49","","27","","30","","40.2","","101.16","","","","-23","","Clear"
"1996-01-28 13:00","1996","01","28","13:00","-12.1","","-20.6","","49","","27","","24","","40.2","","101.16","","","","-21","","Clear"
"1996-01-28 14:00","1996","01","28","14:00","-11.4","","-20.0","","49","","28","","24","","40.2","","101.16","","","","-20","","Mainly Clear"
"1996-01-28 15:00","1996","01","28","15:00","-10.9","","-20.5","","45","","28","","24","","40.2","","101.33","","","","-20","","Mainly Clear"
"1996-01-28 16:00","1996","01","28","16:00","-10.4","","-20.7","","43","","28","","17","","40.2","","101.43","","","","-18","","Mainly Clear"
"1996-01-28 17:00","1996","01","28","17:00","-11.1","","-20.7","","45","","28","","17","","40.2","","101.43","","","","-19","","Mainly Clear"
"1996-01-28 18:00","1996","01","28","18:00","-11.5","","-21.6","","43","","27","","7","","24.1","","101.53","","","","-16","","Mainly Clear"
"1996-01-28 19:00","1996","01","28","19:00","-12.1","","-21.6","","45","","","","0","","24.1","","101.53","","","","","","Mainly Clear"
"1996-01-28 20:00","1996","01","28","20:00","-12.9","","-20.7","","52","","","","0","","24.1","","101.60","","","","","","Mainly Clear"
"1996-01-28 21:00","1996","01","28","21:00","-12.4","","-21.4","","47","","33","","4","","24.1","","101.60","","","","-15","","Mainly Clear"
"1996-01-28 22:00","1996","01","28","22:00","-13.3","","-20.6","","54","","","","0","","24.1","","101.63","","","","","","Clear"
"1996-01-28 23:00","1996","01","28","23:00","-14.4","","-20.3","","61","","","","0","","24.1","","101.67","","","","","","Mainly Clear"
"1996-01-29 00:00","1996","01","29","00:00","-14.9","","-19.3","","69","","","","0","","24.1","","101.73","","","","","","Clear"
"1996-01-29 01:00","1996","01","29","01:00","-15.1","","-19.9","","67","","","","0","","24.1","","101.73","","","","","","Clear"
"1996-01-29 02:00","1996","01","29","02:00","-15.9","","-20.0","","71","","","","0","","24.1","","101.77","","","","","","Clear"
"1996-01-29 03:00","1996","01","29","03:00","-16.1","","-20.3","","70","","4","","13","","24.1","","101.73","","","","-24","","Clear"
"1996-01-29 04:00","1996","01","29","04:00","-17.6","","-21.7","","70","","5","","17","","24.1","","101.67","","","","-27","","Mainly Clear"
"1996-01-29 05:00","1996","01","29","05:00","-17.1","","-22.0","","66","","8","","13","","24.1","","101.70","","","","-25","","Mostly Cloudy"
"1996-01-29 06:00","1996","01","29","06:00","-17.4","","-22.3","","66","","6","","20","","24.1","","101.60","","","","-27","","Mainly Clear"
"1996-01-29 07:00","1996","01","29","07:00","-17.2","","-22.0","","66","","6","","19","","24.1","","101.60","","","","-27","","Mostly Cloudy"
"1996-01-29 08:00","1996","01","29","08:00","-16.4","","-21.5","","65","","7","","19","","32.2","","101.57","","","","-26","","Mostly Cloudy"
"1996-01-29 09:00","1996","01","29","09:00","-15.9","","-20.7","","67","","8","","26","","32.2","","101.47","","","","-27","","Mostly Cloudy"
"1996-01-29 10:00","1996","01","29","10:00","-14.3","","-19.5","","65","","8","","26","","32.2","","101.40","","","","-24","","Cloudy"
"1996-01-29 11:00","1996","01","29","11:00","-13.3","","-19.6","","59","","8","","28","","32.2","","101.33","","","","-24","","Cloudy"
"1996-01-29 12:00","1996","01","29","12:00","-13.2","","-19.4","","60","","8","","35","","24.1","","101.06","","","","-24","","Snow"
"1996-01-29 13:00","1996","01","29","13:00","-13.4","","-18.2","","67","","8","","33","","0.8","","100.73","","","","-24","","Moderate Snow,Blowing Snow"
"1996-01-29 14:00","1996","01","29","14:00","-12.8","","-16.2","","76","","8","","35","","0.8","","100.53","","","","-24","","Snow,Blowing Snow"
"1996-01-29 15:00","1996","01","29","15:00","-11.8","","-14.4","","81","","8","","35","","1.0","","100.29","","","","-23","","Snow,Blowing Snow"
"1996-01-29 16:00","1996","01","29","16:00","-11.0","","-13.3","","83","","8","","35","","1.6","","100.13","","","","-22","","Snow,Blowing Snow"
"1996-01-29 17:00","1996","01","29","17:00","-10.1","","-12.3","","84","","7","","35","","1.0","","99.93","","","","-20","","Snow,Blowing Snow"
"1996-01-29 18:00","1996","01","29","18:00","-9.6","","-11.4","","87","","8","","30","","0.6","","99.82","","","","-19","","Moderate Snow"
"1996-01-29 19:00","1996","01","29","19:00","-8.6","","-10.5","","86","","9","","30","","0.8","","99.62","","","","-18","","Moderate Snow"
"1996-01-29 20:00","1996","01","29","20:00","-6.5","","-8.2","","88","","9","","32","","1.6","","99.39","","","","-15","","Snow"
"1996-01-29 21:00","1996","01","29","21:00","-3.9","","-6.1","","85","","14","","24","","4.8","","99.26","","","","-11","","Snow"
"1996-01-29 22:00","1996","01","29","22:00","-2.6","","-3.5","","94","","21","","33","","2.4","","99.29","","","","-10","","Snow,Blowing Snow"
"1996-01-29 23:00","1996","01","29","23:00","-3.9","","-6.6","","81","","22","","28","","4.8","","99.39","","","","-11","","Blowing Snow"
"1996-01-30 00:00","1996","01","30","00:00","-5.5","","-9.0","","76","","24","","26","","24.1","","99.49","","","","-13","","Mainly Clear"
"1996-01-30 01:00","1996","01","30","01:00","-5.9","","-11.0","","67","","23","","30","","24.1","","99.52","","","","-14","","Clear"
"1996-01-30 02:00","1996","01","30","02:00","-6.7","","-12.2","","65","","23","","26","","25.0","","99.59","","","","-15","","Mainly Clear"
"1996-01-30 03:00","1996","01","30","03:00","-7.2","","-12.0","","69","","22","","20","","25.0","","99.62","","","","-14","","Mainly Clear"
"1996-01-30 04:00","1996","01","30","04:00","-7.6","","-13.1","","65","","22","","32","","25.0","","99.62","","","","-17","","Mainly Clear"
"1996-01-30 05:00","1996","01","30","05:00","-7.6","","-14.1","","60","","23","","28","","25.0","","99.69","","","","-16","","Clear"
"1996-01-30 06:00","1996","01","30","06:00","-8.3","","-14.1","","63","","22","","28","","25.0","","99.72","","","","-17","","Clear"
"1996-01-30 07:00","1996","01","30","07:00","-8.8","","-14.5","","63","","22","","26","","25.0","","99.72","","","","-17","","Mainly Clear"
"1996-01-30 08:00","1996","01","30","08:00","-8.8","","-14.4","","64","","23","","30","","32.2","","99.82","","","","-18","","Mainly Clear"
"1996-01-30 09:00","1996","01","30","09:00","-8.4","","-14.1","","63","","23","","33","","32.2","","99.82","","","","-18","","Mainly Clear"
"1996-01-30 10:00","1996","01","30","10:00","-8.4","","-15.1","","58","","24","","39","","32.2","","99.82","","","","-19","","Mainly Clear"
"1996-01-30 11:00","1996","01","30","11:00","-7.6","","-14.6","","57","","24","","37","","32.2","","99.86","","","","-17","","Mainly Clear"
"1996-01-30 12:00","1996","01","30","12:00","-7.5","","-14.6","","57","","24","","39","","40.2","","99.82","","","","-17","","Mostly Cloudy"
"1996-01-30 13:00","1996","01","30","13:00","-7.5","","-14.4","","58","","25","","33","","40.2","","99.82","","","","-17","","Mostly Cloudy"
"1996-01-30 14:00","1996","01","30","14:00","-6.9","","-14.5","","55","","25","","32","","40.2","","99.82","","","","-16","","Mostly Cloudy"
"1996-01-30 15:00","1996","01","30","15:00","-8.2","","-11.9","","75","","25","","22","","16.1","","99.93","","","","-16","","Snow Showers"
"1996-01-30 16:00","1996","01","30","16:00","-8.0","","-13.6","","64","","25","","19","","24.1","","99.93","","","","-15","","Mostly Cloudy"
"1996-01-30 17:00","1996","01","30","17:00","-8.7","","-14.1","","65","","27","","24","","32.2","","99.99","","","","-17","","Mainly Clear"
"1996-01-30 18:00","1996","01","30","18:00","-9.1","","-15.5","","60","","24","","11","","24.1","","99.99","","","","-15","","Mainly Clear"
"1996-01-30 19:00","1996","01","30","19:00","-9.8","","-15.6","","63","","24","","15","","25.0","","100.03","","","","-16","","Mainly Clear"
"1996-01-30 20:00","1996","01","30","20:00","-10.3","","-15.6","","65","","23","","20","","24.1","","99.99","","","","-18","","Mainly Clear"
"1996-01-30 21:00","1996","01","30","21:00","-11.0","","-16.5","","64","","24","","22","","24.1","","99.99","","","","-20","","Mostly Cloudy"
"1996-01-30 22:00","1996","01","30","22:00","-11.2","","-16.1","","67","","25","","22","","24.1","","100.03","","","","-20","","Mostly Cloudy"
"1996-01-30 23:00","1996","01","30","23:00","-11.6","","-14.8","","77","","27","","24","","12.9","","100.03","","","","-21","","Snow"
"1996-01-31 00:00","1996","01","31","00:00","-12.4","","-15.4","","78","","29","","19","","12.9","","99.99","","","","-21","","Snow"
"1996-01-31 01:00","1996","01","31","01:00","-13.1","","-16.8","","74","","30","","19","","25.0","","99.93","","","","-22","","Mainly Clear"
"1996-01-31 02:00","1996","01","31","02:00","-14.1","","-18.5","","69","","29","","22","","25.0","","99.93","","","","-23","","Clear"
"1996-01-31 03:00","1996","01","31","03:00","-15.4","","-19.3","","72","","29","","19","","25.0","","99.99","","","","-24","","Mostly Cloudy"
"1996-01-31 04:00","1996","01","31","04:00","-16.8","","-22.7","","60","","33","","17","","25.0","","100.03","","","","-26","","Clear"
"1996-01-31 05:00","1996","01","31","05:00","-17.9","","-22.6","","67","","29","","20","","25.0","","100.06","","","","-28","","Clear"
"1996-01-31 06:00","1996","01","31","06:00","-19.3","","-24.1","","66","","29","","15","","25.0","","100.09","","","","-28","","Clear"
"1996-01-31 07:00","1996","01","31","07:00","-20.7","","-25.5","","65","","30","","20","","32.2","","100.16","","","","-31","","Clear"
"1996-01-31 08:00","1996","01","31","08:00","-21.2","","-26.1","","65","","30","","24","","32.2","","100.23","","","","-33","","Clear"
"1996-01-31 09:00","1996","01","31","09:00","-21.2","","-26.7","","61","","29","","20","","32.2","","100.23","","","","-32","","Clear"
"1996-01-31 10:00","1996","01","31","10:00","-20.9","","-26.7","","60","","28","","20","","32.2","","100.33","","","","-32","","Clear"
"1996-01-31 11:00","1996","01","31","11:00","-20.6","","-27.6","","53","","30","","24","E","32.2","","100.39","","","","-32","E","Clear"
"1996-01-31 12:00","1996","01","31","12:00","-20.0","","-27.7","","50","","30","","22","E","32.2","","100.33","","","","-31","E","Clear"
"1996-01-31 13:00","1996","01","31","13:00","-19.9","","-27.8","","49","","27","","26","E","32.2","","100.29","","","","-32","E","Clear"
"1996-01-31 14:00","1996","01","31","14:00","-19.4","","-27.8","","47","","27","","24","","32.2","","100.29","","","","-31","","Clear"
"1996-01-31 15:00","1996","01","31","15:00","-18.8","","-28.0","","44","","29","","26","","32.2","","100.29","","","","-30","","Clear"
"1996-01-31 16:00","1996","01","31","16:00","-18.6","","-27.7","","45","","29","","19","","32.2","","100.36","","","","-28","","Clear"
"1996-01-31 17:00","1996","01","31","17:00","-19.0","","-27.7","","46","","28","","19","","32.2","","100.43","","","","-29","","Clear"
"1996-01-31 18:00","1996","01","31","18:00","-19.6","","-28.0","","47","","30","","11","","24.1","","100.49","","","","-27","","Clear"
"1996-01-31 19:00","1996","01","31","19:00","-19.8","","-27.8","","49","","23","","4","","24.1","","100.49","","","","-23","","Clear"
"1996-01-31 20:00","1996","01","31","20:00","-20.8","","-28.0","","52","","23","","7","","24.1","","100.53","","","","-27","","Clear"
"1996-01-31 21:00","1996","01","31","21:00","-21.7","","-28.7","","53","","24","","9","","24.1","","100.60","","","","-29","","Clear"
"1996-01-31 22:00","1996","01","31","22:00","-22.1","","-28.3","","57","","25","","9","","24.1","","100.66","","","","-29","","Clear"
"1996-01-31 23:00","1996","01","31","23:00","-22.2","","-28.2","","58","","27","","7","","24.1","","100.70","","","","-28","","Clear"
