"Station Name","OTTAWA MACDONALD-CARTIER INT'L A"
"Province","ONTARIO"
"Latitude","45.32"
"Longitude","-75.67"
"Elevation","114.00"
"Climate Identifier","6106000"
"WMO Identifier","71628"
"TC Identifier","YOW"
"All times are specified in Local Standard Time (LST). Add 1 hour to adjust for Daylight Saving Time where and when it is observed."

"Legend"
"E","Estimated"
"M","Missing"
"NA","Not Available"

"Date/Time","Year","Month","Day","Time","Temp (°C)","Temp Flag","Dew Point Temp (°C)","Dew Point Temp Flag","Rel Hum (%)","Rel Hum Flag","Wind Dir (10s deg)","Wind Dir Flag","Wind Spd (km/h)","Wind Spd Flag","Visibility (km)","Visibility Flag","Stn Press (kPa)","Stn Press Flag","Hmdx","Hmdx Flag","Wind Chill","Wind Chill Flag","Weather"
"1998-02-01 00:00","1998","02","01","00:00","-4.4","","-8.6","","72","","18","","4","","25.0","","100.53","","","","-6","","Mostly Cloudy"
"1998-02-01 01:00","1998","02","01","01:00","-4.7","","-8.7","","74","","18","","9","","25.0","","100.49","","","","-9","","Mainly Clear"
"1998-02-01 02:00","1998","02","01","02:00","-4.4","","-8.5","","73","","19","","11","","25.0","","100.53","","","","-9","","Cloudy"
"1998-02-01 03:00","1998","02","01","03:00","-3.7","","-8.0","","72","","18","","11","","24.1","","100.53","","","","-8","","Mostly Cloudy"
"1998-02-01 04:00","1998","02","01","04:00","-3.7","","-7.8","","73","","18","","7","","24.1","","100.53","","","","-7","","Mainly Clear"
"1998-02-01 05:00","1998","02","01","05:00","-4.1","","-8.4","","72","","16","","9","","24.1","","100.53","","","","-8","","Mostly Cloudy"
"1998-02-01 06:00","1998","02","01","06:00","-4.1","","-8.3","","73","","16","","13","","24.1","","100.53","","","","-9","","Mostly Cloudy"
"1998-02-01 07:00","1998","02","01","07:00","-3.6","","-7.8","","73","","18","","7","","24.1","","100.60","","","","-7","","Cloudy"
"1998-02-01 08:00","1998","02","01","08:00","-3.3","","-7.4","","73","","17","","11","","24.1","","100.63","","","","-8","","Cloudy"
"1998-02-01 09:00","1998","02","01","09:00","-3.0","","-6.9","","74","","17","","11","","24.1","","100.63","","","","-7","","Cloudy"
"1998-02-01 10:00","1998","02","01","10:00","-1.9","","-5.7","","75","","18","","13","","24.1","","100.70","","","","-6","","Cloudy"
"1998-02-01 11:00","1998","02","01","11:00","-0.3","","-4.1","","75","","19","","19","","24.1","","100.66","","","","-5","","Cloudy"
"1998-02-01 12:00","1998","02","01","12:00","0.6","","-3.1","","76","","19","","17","","24.1","","100.63","","","","","","Cloudy"
"1998-02-01 13:00","1998","02","01","13:00","1.3","","-3.0","","73","","19","","17","","40.2","","100.63","","","","","","Mainly Clear"
"1998-02-01 14:00","1998","02","01","14:00","2.0","","-3.0","","69","","19","","17","","40.2","","100.63","","","","","","Mainly Clear"
"1998-02-01 15:00","1998","02","01","15:00","2.3","","-2.8","","69","","18","","13","","40.2","","100.66","","","","","","Mostly Cloudy"
"1998-02-01 16:00","1998","02","01","16:00","1.9","","-3.9","","65","","17","","13","","40.2","","100.70","","","","","","Mostly Cloudy"
"1998-02-01 17:00","1998","02","01","17:00","1.5","","-4.3","","65","","16","","11","","40.2","","100.70","","","","","","Cloudy"
"1998-02-01 18:00","1998","02","01","18:00","1.1","","-5.0","","64","","15","","7","","25.0","","100.70","","","","","","Cloudy"
"1998-02-01 19:00","1998","02","01","19:00","0.0","","-5.5","","66","","12","","9","","25.0","","100.70","","","","-3","","Mainly Clear"
"1998-02-01 20:00","1998","02","01","20:00","-0.6","","-6.1","","66","","12","","6","","25.0","","100.70","","","","-3","","Mainly Clear"
"1998-02-01 21:00","1998","02","01","21:00","-1.1","","-6.5","","67","","10","","9","","25.0","","100.70","","","","-4","","Mainly Clear"
"1998-02-01 22:00","1998","02","01","22:00","-2.2","","-7.0","","70","","8","","7","","24.1","","100.66","","","","-5","","Mainly Clear"
"1998-02-01 23:00","1998","02","01","23:00","-2.8","","-7.2","","72","","5","","9","","24.1","","100.66","","","","-6","","Mainly Clear"
"1998-02-02 00:00","1998","02","02","00:00","-2.9","","-7.3","","72","","6","","9","","24.1","","100.63","","","","-6","","Mostly Cloudy"
"1998-02-02 01:00","1998","02","02","01:00","-3.3","","-7.3","","74","","6","","11","","24.1","","100.60","","","","-8","","Mostly Cloudy"
"1998-02-02 02:00","1998","02","02","02:00","-4.8","","-8.8","","74","","6","","11","","24.1","","100.53","","","","-9","","Mostly Cloudy"
"1998-02-02 03:00","1998","02","02","03:00","-4.7","","-8.3","","76","","6","","9","","24.1","","100.53","","","","-9","","Mostly Cloudy"
"1998-02-02 04:00","1998","02","02","04:00","-4.8","","-8.6","","75","","7","","11","","24.1","","100.49","","","","-9","","Mostly Cloudy"
"1998-02-02 05:00","1998","02","02","05:00","-6.0","","-9.6","","76","","5","","11","","24.1","","100.53","","","","-11","","Mostly Cloudy"
"1998-02-02 06:00","1998","02","02","06:00","-6.6","","-10.6","","73","","4","","9","","19.3","","100.56","","","","-11","","Mostly Cloudy"
"1998-02-02 07:00","1998","02","02","07:00","-6.0","","-10.5","","70","","8","","11","","24.1","","100.60","","","","-11","","Mainly Clear"
"1998-02-02 08:00","1998","02","02","08:00","-5.8","","-9.4","","76","","9","","11","","24.1","","100.60","","","","-11","","Mostly Cloudy"
"1998-02-02 09:00","1998","02","02","09:00","-4.4","","-8.8","","71","","9","","13","","32.2","","100.53","","","","-9","","Mostly Cloudy"
"1998-02-02 10:00","1998","02","02","10:00","-3.1","","-8.2","","68","","8","","7","","32.2","","100.49","","","","-6","","Mostly Cloudy"
"1998-02-02 11:00","1998","02","02","11:00","-2.3","","-8.1","","64","","6","","4","","19.3","","100.49","","","","-4","","Cloudy"
"1998-02-02 12:00","1998","02","02","12:00","0.4","","-6.1","","62","","","","0","","19.3","","100.46","","","","","","Mostly Cloudy"
"1998-02-02 13:00","1998","02","02","13:00","1.8","","-5.6","","58","","9","","9","","19.3","","100.33","","","","","","Cloudy"
"1998-02-02 14:00","1998","02","02","14:00","3.6","","-4.4","","56","","15","","7","","19.3","","100.26","","","","","","Cloudy"
"1998-02-02 15:00","1998","02","02","15:00","2.2","","-5.2","","58","","10","","7","","19.3","","100.19","","","","","","Cloudy"
"1998-02-02 16:00","1998","02","02","16:00","4.2","","-4.0","","55","","19","","11","","19.3","","100.29","","","","","","Cloudy"
"1998-02-02 17:00","1998","02","02","17:00","3.8","","-4.2","","56","","14","","7","","24.1","","100.26","","","","","","Mostly Cloudy"
"1998-02-02 18:00","1998","02","02","18:00","3.9","","-4.1","","56","","13","","7","","24.1","","100.29","","","","","","Mostly Cloudy"
"1998-02-02 19:00","1998","02","02","19:00","3.8","","-4.1","","56","","15","","13","","25.0","","100.26","","","","","","Cloudy"
"1998-02-02 20:00","1998","02","02","20:00","3.9","","-3.9","","57","","19","","15","","25.0","","100.29","","","","","","Cloudy"
"1998-02-02 21:00","1998","02","02","21:00","3.3","","-3.4","","61","","18","","15","","25.0","","100.26","","","","","","Mostly Cloudy"
"1998-02-02 22:00","1998","02","02","22:00","2.7","","-3.2","","65","","20","","17","","24.1","","100.26","","","","","","Mostly Cloudy"
"1998-02-02 23:00","1998","02","02","23:00","2.8","","-2.2","","70","","23","","17","","24.1","","100.29","","","","","","Cloudy"
"1998-02-03 00:00","1998","02","03","00:00","2.6","","-2.4","","70","","22","","15","","24.1","","100.33","","","","","","Mostly Cloudy"
"1998-02-03 01:00","1998","02","03","01:00","2.2","","-2.8","","69","","20","","15","","25.0","","100.36","","","","","","Mainly Clear"
"1998-02-03 02:00","1998","02","03","02:00","1.1","","-4.0","","69","","20","","13","","25.0","","100.39","","","","","","Mostly Cloudy"
"1998-02-03 03:00","1998","02","03","03:00","1.3","","-3.8","","69","","21","","11","","25.0","","100.43","","","","","","Cloudy"
"1998-02-03 04:00","1998","02","03","04:00","0.6","","-4.0","","71","","20","","7","","25.0","","100.49","","","","","","Cloudy"
"1998-02-03 05:00","1998","02","03","05:00","0.9","","-3.9","","70","","23","","17","","25.0","","100.53","","","","","","Cloudy"
"1998-02-03 06:00","1998","02","03","06:00","1.1","","-3.6","","71","","24","","17","","25.0","","100.60","","","","","","Cloudy"
"1998-02-03 07:00","1998","02","03","07:00","1.0","","-3.6","","71","","24","","11","","25.0","","100.63","","","","","","Cloudy"
"1998-02-03 08:00","1998","02","03","08:00","0.8","","-4.1","","70","","26","","20","","32.2","","100.73","","","","","","Cloudy"
"1998-02-03 09:00","1998","02","03","09:00","-0.7","","-5.2","","72","","28","","26","","32.2","","100.83","","","","-7","","Cloudy"
"1998-02-03 10:00","1998","02","03","10:00","-2.0","","-7.1","","68","","28","","24","","32.2","","100.90","","","","-8","","Cloudy"
"1998-02-03 11:00","1998","02","03","11:00","-2.7","","-8.8","","63","","29","","22","","32.2","","100.93","","","","-9","","Cloudy"
"1998-02-03 12:00","1998","02","03","12:00","-2.7","","-9.0","","62","","32","","15","","32.2","","100.96","","","","-8","","Cloudy"
"1998-02-03 13:00","1998","02","03","13:00","-3.2","","-9.6","","61","","27","","20","","32.2","","100.93","","","","-9","","Mostly Cloudy"
"1998-02-03 14:00","1998","02","03","14:00","-3.0","","-9.9","","59","","28","","17","","32.2","","100.96","","","","-9","","Mostly Cloudy"
"1998-02-03 15:00","1998","02","03","15:00","-3.1","","-11.6","","52","","31","","15","","40.2","","101.03","","","","-8","","Mostly Cloudy"
"1998-02-03 16:00","1998","02","03","16:00","-3.1","","-11.8","","51","","31","","19","","40.2","","101.03","","","","-9","","Mostly Cloudy"
"1998-02-03 17:00","1998","02","03","17:00","-4.0","","-12.9","","50","","30","","17","","40.2","","101.06","","","","-10","","Mostly Cloudy"
"1998-02-03 18:00","1998","02","03","18:00","-4.8","","-13.5","","51","","31","","15","","32.2","","101.20","","","","-10","","Mostly Cloudy"
"1998-02-03 19:00","1998","02","03","19:00","-5.5","","-14.3","","50","","32","","13","","25.0","","101.16","","","","-11","","Mostly Cloudy"
"1998-02-03 20:00","1998","02","03","20:00","-5.9","","-14.8","","49","","36","","9","","25.0","","101.16","","","","-10","","Mostly Cloudy"
"1998-02-03 21:00","1998","02","03","21:00","-7.0","","-15.8","","49","","35","","13","","25.0","","101.20","","","","-13","","Mostly Cloudy"
"1998-02-03 22:00","1998","02","03","22:00","-7.9","","-16.4","","50","","35","","11","","25.0","","101.20","","","","-13","","Mainly Clear"
"1998-02-03 23:00","1998","02","03","23:00","-8.7","","-16.7","","52","","33","","11","","25.0","","101.20","","","","-14","","Mainly Clear"
"1998-02-04 00:00","1998","02","04","00:00","-9.3","","-17.3","","52","","34","","11","","25.0","","101.16","","","","-15","","Mainly Clear"
"1998-02-04 01:00","1998","02","04","01:00","-10.3","","-17.7","","55","","33","","13","","25.0","","101.10","","","","-17","","Clear"
"1998-02-04 02:00","1998","02","04","02:00","-11.0","","-18.1","","56","","33","","4","","25.0","","101.13","","","","-13","","Clear"
"1998-02-04 03:00","1998","02","04","03:00","-11.2","","-18.5","","55","","33","","15","","25.0","","101.03","","","","-18","","Mainly Clear"
"1998-02-04 04:00","1998","02","04","04:00","-12.1","","-18.8","","57","","35","","7","","25.0","","101.03","","","","-16","","Mainly Clear"
"1998-02-04 05:00","1998","02","04","05:00","-12.3","","-19.2","","56","","34","","11","","25.0","","101.06","","","","-18","","Mainly Clear"
"1998-02-04 06:00","1998","02","04","06:00","-12.7","","-19.5","","57","","35","","7","","25.0","","101.10","","","","-17","","Mainly Clear"
"1998-02-04 07:00","1998","02","04","07:00","-12.9","","-19.5","","58","","34","","15","","32.2","","101.13","","","","-20","","Mostly Cloudy"
"1998-02-04 08:00","1998","02","04","08:00","-13.2","","-19.2","","61","","2","","9","","32.2","","101.16","","","","-19","","Cloudy"
"1998-02-04 09:00","1998","02","04","09:00","-11.4","","-17.7","","60","","2","","9","","32.2","","101.16","","","","-17","","Mostly Cloudy"
"1998-02-04 10:00","1998","02","04","10:00","-9.7","","-16.9","","56","","5","","9","","40.2","","101.16","","","","-15","","Mostly Cloudy"
"1998-02-04 11:00","1998","02","04","11:00","-8.9","","-17.4","","50","","3","","7","","40.2","","101.13","","","","-13","","Mostly Cloudy"
"1998-02-04 12:00","1998","02","04","12:00","-7.9","","-16.9","","48","","1","","9","","40.2","","101.03","","","","-12","","Cloudy"
"1998-02-04 13:00","1998","02","04","13:00","-7.2","","-16.3","","48","","1","","9","","40.2","","100.93","","","","-12","","Cloudy"
"1998-02-04 14:00","1998","02","04","14:00","-6.2","","-15.7","","47","","2","","9","","40.2","","100.83","","","","-10","","Cloudy"
"1998-02-04 15:00","1998","02","04","15:00","-5.7","","-15.7","","45","","2","","9","","40.2","","100.80","","","","-10","","Cloudy"
"1998-02-04 16:00","1998","02","04","16:00","-5.9","","-15.6","","46","","3","","7","","40.2","","100.83","","","","-9","","Cloudy"
"1998-02-04 17:00","1998","02","04","17:00","-6.1","","-16.1","","45","","2","","4","","40.2","","100.76","","","","-8","","Cloudy"
"1998-02-04 18:00","1998","02","04","18:00","-6.8","","-16.4","","46","","34","","6","","32.2","","100.76","","","","-10","","Cloudy"
"1998-02-04 19:00","1998","02","04","19:00","-7.0","","-16.0","","49","","33","","7","","24.1","","100.73","","","","-11","","Cloudy"
"1998-02-04 20:00","1998","02","04","20:00","-8.6","","-17.3","","49","","5","","6","","24.1","","100.73","","","","-12","","Cloudy"
"1998-02-04 21:00","1998","02","04","21:00","-8.6","","-17.3","","49","","3","","9","","24.1","","100.70","","","","-13","","Cloudy"
"1998-02-04 22:00","1998","02","04","22:00","-9.8","","-18.2","","50","","1","","13","","24.1","","100.63","","","","-16","","Cloudy"
"1998-02-04 23:00","1998","02","04","23:00","-9.7","","-17.7","","52","","2","","11","","24.1","","100.63","","","","-15","","Cloudy"
"1998-02-05 00:00","1998","02","05","00:00","-9.3","","-16.9","","54","","35","","13","","24.1","","100.60","","","","-15","","Cloudy"
"1998-02-05 01:00","1998","02","05","01:00","-9.2","","-16.8","","54","","35","","15","","24.1","","100.53","","","","-16","","Cloudy"
"1998-02-05 02:00","1998","02","05","02:00","-9.7","","-17.2","","54","","36","","13","","24.1","","100.49","","","","-16","","Cloudy"
"1998-02-05 03:00","1998","02","05","03:00","-10.0","","-17.0","","57","","36","","9","","24.1","","100.46","","","","-15","","Cloudy"
"1998-02-05 04:00","1998","02","05","04:00","-9.9","","-18.0","","52","","1","","9","","24.1","","100.43","","","","-15","","Cloudy"
"1998-02-05 05:00","1998","02","05","05:00","-10.3","","-18.1","","53","","35","","9","","24.1","","100.46","","","","-15","","Cloudy"
"1998-02-05 06:00","1998","02","05","06:00","-10.5","","-18.4","","52","","35","","13","","24.1","","100.46","","","","-17","","Cloudy"
"1998-02-05 07:00","1998","02","05","07:00","-10.7","","-18.7","","52","","34","","15","","32.2","","100.46","","","","-18","","Cloudy"
"1998-02-05 08:00","1998","02","05","08:00","-11.2","","-18.9","","53","","34","","13","","40.2","","100.46","","","","-18","","Mostly Cloudy"
"1998-02-05 09:00","1998","02","05","09:00","-10.7","","-18.8","","51","","33","","17","","40.2","","100.43","","","","-18","","Mostly Cloudy"
"1998-02-05 10:00","1998","02","05","10:00","-8.8","","-17.7","","49","","33","","11","","40.2","","100.43","","","","-14","","Cloudy"
"1998-02-05 11:00","1998","02","05","11:00","-7.2","","-16.9","","46","","34","","7","","40.2","","100.39","","","","-11","","Mostly Cloudy"
"1998-02-05 12:00","1998","02","05","12:00","-5.7","","-15.7","","45","","36","","7","","40.2","","100.33","","","","-9","","Mostly Cloudy"
"1998-02-05 13:00","1998","02","05","13:00","-4.5","","-15.8","","41","","2","","15","","40.2","","100.29","","","","-10","","Mostly Cloudy"
"1998-02-05 14:00","1998","02","05","14:00","-3.4","","-15.4","","39","","1","","15","","40.2","","100.23","","","","-9","","Mostly Cloudy"
"1998-02-05 15:00","1998","02","05","15:00","-2.4","","-14.4","","39","","1","","13","","40.2","","100.19","","","","-7","","Mainly Clear"
"1998-02-05 16:00","1998","02","05","16:00","-2.2","","-14.1","","40","","1","","4","","40.2","","100.19","","","","-4","","Mainly Clear"
"1998-02-05 17:00","1998","02","05","17:00","-3.1","","-13.7","","44","","","","0","","40.2","","100.16","","","","","","Mainly Clear"
"1998-02-05 18:00","1998","02","05","18:00","-3.4","","-14.8","","41","","7","","6","","32.2","","100.19","","","","-6","","Mainly Clear"
"1998-02-05 19:00","1998","02","05","19:00","-5.5","","-16.1","","43","","8","","11","","24.1","","100.23","","","","-10","","Clear"
"1998-02-05 20:00","1998","02","05","20:00","-6.0","","-16.4","","44","","9","","13","","24.1","","100.19","","","","-11","","Clear"
"1998-02-05 21:00","1998","02","05","21:00","-6.6","","-16.7","","44","","6","","6","","24.1","","100.23","","","","-10","","Clear"
"1998-02-05 22:00","1998","02","05","22:00","-7.9","","-17.3","","47","","3","","6","","24.1","","100.19","","","","-11","","Clear"
"1998-02-05 23:00","1998","02","05","23:00","-8.3","","-17.0","","49","","3","","7","","24.1","","100.19","","","","-12","","Clear"
"1998-02-06 00:00","1998","02","06","00:00","-8.9","","-17.1","","51","","3","","6","","24.1","","100.19","","","","-12","","Clear"
"1998-02-06 01:00","1998","02","06","01:00","-9.7","","-17.5","","53","","34","","4","","24.1","","100.19","","","","-12","","Clear"
"1998-02-06 02:00","1998","02","06","02:00","-11.4","","-18.2","","57","","30","","7","","24.1","","100.23","","","","-16","","Clear"
"1998-02-06 03:00","1998","02","06","03:00","-11.9","","-18.7","","57","","28","","4","","24.1","","100.19","","","","-14","","Clear"
"1998-02-06 04:00","1998","02","06","04:00","-11.9","","-18.6","","57","","29","","4","","24.1","","100.19","","","","-14","","Clear"
"1998-02-06 05:00","1998","02","06","05:00","-12.4","","-18.5","","60","","","","0","","24.1","","100.19","","","","","","Clear"
"1998-02-06 06:00","1998","02","06","06:00","-12.6","","-19.1","","58","","","","0","","24.1","","100.19","","","","","","Clear"
"1998-02-06 07:00","1998","02","06","07:00","-12.9","","-19.1","","60","","29","","6","","32.2","","100.29","","","","-17","","Clear"
"1998-02-06 08:00","1998","02","06","08:00","-12.6","","-18.3","","62","","29","","4","","32.2","","100.33","","","","-15","","Mainly Clear"
"1998-02-06 09:00","1998","02","06","09:00","-11.8","","-17.3","","64","","","","0","","32.2","","100.36","","","","","","Clear"
"1998-02-06 10:00","1998","02","06","10:00","-9.4","","-15.1","","63","","28","","4","","24.1","","100.39","","","","-12","","Clear"
"1998-02-06 11:00","1998","02","06","11:00","-7.4","","-14.0","","59","","27","","4","","24.1","","100.39","","","","-9","","Clear"
"1998-02-06 12:00","1998","02","06","12:00","-5.8","","-13.1","","56","","30","","7","","32.2","","100.43","","","","-9","","Clear"
"1998-02-06 13:00","1998","02","06","13:00","-4.3","","-12.3","","54","","27","","6","","32.2","","100.36","","","","-7","","Clear"
"1998-02-06 14:00","1998","02","06","14:00","-3.1","","-11.7","","51","","27","","9","","32.2","","100.33","","","","-7","","Mainly Clear"
"1998-02-06 15:00","1998","02","06","15:00","-2.3","","-11.4","","50","","27","","9","","40.2","","100.36","","","","-6","","Mainly Clear"
"1998-02-06 16:00","1998","02","06","16:00","-2.2","","-11.9","","47","","30","","13","","40.2","","100.36","","","","-7","","Mainly Clear"
"1998-02-06 17:00","1998","02","06","17:00","-3.3","","-12.5","","49","","31","","9","","40.2","","100.39","","","","-7","","Mainly Clear"
"1998-02-06 18:00","1998","02","06","18:00","-4.4","","-13.1","","51","","30","","13","","32.2","","100.43","","","","-9","","Mainly Clear"
"1998-02-06 19:00","1998","02","06","19:00","-5.3","","-13.5","","52","","32","","11","","24.1","","100.53","","","","-10","","Mainly Clear"
"1998-02-06 20:00","1998","02","06","20:00","-4.9","","-13.3","","52","","34","","17","","24.1","","100.56","","","","-11","","Clear"
"1998-02-06 21:00","1998","02","06","21:00","-6.2","","-14.2","","53","","34","","11","","24.1","","100.56","","","","-11","","Clear"
"1998-02-06 22:00","1998","02","06","22:00","-6.9","","-14.6","","54","","35","","13","","24.1","","100.56","","","","-12","","Clear"
"1998-02-06 23:00","1998","02","06","23:00","-6.8","","-14.6","","54","","34","","13","","24.1","","100.60","","","","-12","","Clear"
"1998-02-07 00:00","1998","02","07","00:00","-7.5","","-15.1","","54","","34","","9","","24.1","","100.63","","","","-12","","Clear"
"1998-02-07 01:00","1998","02","07","01:00","-8.4","","-15.9","","55","","34","","13","","24.1","","100.63","","","","-14","","Clear"
"1998-02-07 02:00","1998","02","07","02:00","-9.3","","-16.5","","56","","35","","19","","24.1","","100.66","","","","-17","","Clear"
"1998-02-07 03:00","1998","02","07","03:00","-10.0","","-16.8","","57","","35","","17","","24.1","","100.70","","","","-17","","Clear"
"1998-02-07 04:00","1998","02","07","04:00","-10.7","","-17.0","","60","","2","","11","","24.1","","100.73","","","","-16","","Clear"
"1998-02-07 05:00","1998","02","07","05:00","-11.9","","-18.3","","59","","2","","11","","24.1","","100.73","","","","-18","","Clear"
"1998-02-07 06:00","1998","02","07","06:00","-12.5","","-18.0","","63","","1","","9","","24.1","","100.76","","","","-18","","Clear"
"1998-02-07 07:00","1998","02","07","07:00","-12.5","","-18.2","","62","","1","","7","","32.2","","100.80","","","","-17","","Clear"
"1998-02-07 08:00","1998","02","07","08:00","-12.5","","-17.7","","65","","35","","11","","40.2","","100.86","","","","-19","","Clear"
"1998-02-07 09:00","1998","02","07","09:00","-10.8","","-16.2","","64","","36","","7","","40.2","","100.86","","","","-15","","Clear"
"1998-02-07 10:00","1998","02","07","10:00","-8.9","","-14.8","","62","","3","","4","","40.2","","100.86","","","","-11","","Clear"
"1998-02-07 11:00","1998","02","07","11:00","-7.9","","-15.4","","55","","5","","9","","40.2","","100.90","","","","-12","","Clear"
"1998-02-07 12:00","1998","02","07","12:00","-6.6","","-14.8","","52","","7","","7","","40.2","","100.86","","","","-10","","Clear"
"1998-02-07 13:00","1998","02","07","13:00","-5.9","","-14.4","","51","","","","0","","40.2","","100.83","","","","","","Clear"
"1998-02-07 14:00","1998","02","07","14:00","-4.5","","-13.8","","48","","10","","7","","40.2","","100.76","","","","-8","","Clear"
"1998-02-07 15:00","1998","02","07","15:00","-4.0","","-13.7","","47","","","","0","","40.2","","100.73","","","","","","Clear"
"1998-02-07 16:00","1998","02","07","16:00","-5.1","","-14.3","","48","","4","","11","","40.2","","100.73","","","","-10","","Mainly Clear"
"1998-02-07 17:00","1998","02","07","17:00","-5.3","","-14.5","","48","","4","","6","","40.2","","100.70","","","","-8","","Mainly Clear"
"1998-02-07 18:00","1998","02","07","18:00","-5.9","","-14.9","","49","","6","","6","","32.2","","100.73","","","","-9","","Mainly Clear"
"1998-02-07 19:00","1998","02","07","19:00","-7.1","","-15.1","","53","","","","0","","25.0","","100.66","","","","","","Mainly Clear"
"1998-02-07 20:00","1998","02","07","20:00","-7.6","","-15.7","","52","","","","0","","25.0","","100.70","","","","","","Mostly Cloudy"
"1998-02-07 21:00","1998","02","07","21:00","-7.2","","-15.0","","54","","7","","6","","25.0","","100.70","","","","-10","","Mainly Clear"
"1998-02-07 22:00","1998","02","07","22:00","-7.7","","-15.5","","54","","","","0","","25.0","","100.63","","","","","","Mostly Cloudy"
"1998-02-07 23:00","1998","02","07","23:00","-8.0","","-15.8","","53","","","","0","","25.0","","100.60","","","","","","Mostly Cloudy"
"1998-02-08 00:00","1998","02","08","00:00","-8.8","","-15.9","","56","","","","0","","25.0","","100.60","","","","","","Mostly Cloudy"
"1998-02-08 01:00","1998","02","08","01:00","-9.1","","-16.4","","55","","35","","9","","25.0","","100.63","","","","-14","","Mostly Cloudy"
"1998-02-08 02:00","1998","02","08","02:00","-9.1","","-16.0","","57","","1","","9","","25.0","","100.63","","","","-14","","Mostly Cloudy"
"1998-02-08 03:00","1998","02","08","03:00","-9.3","","-15.7","","60","","1","","7","","25.0","","100.53","","","","-13","","Mostly Cloudy"
"1998-02-08 04:00","1998","02","08","04:00","-9.2","","-15.7","","59","","2","","6","","25.0","","100.49","","","","-13","","Mostly Cloudy"
"1998-02-08 05:00","1998","02","08","05:00","-9.3","","-15.5","","61","","34","","11","","25.0","","100.56","","","","-15","","Mostly Cloudy"
"1998-02-08 06:00","1998","02","08","06:00","-9.2","","-15.8","","59","","4","","6","","25.0","","100.53","","","","-13","","Mainly Clear"
"1998-02-08 07:00","1998","02","08","07:00","-10.0","","-16.4","","59","","2","","6","","24.1","","100.63","","","","-14","","Mainly Clear"
"1998-02-08 08:00","1998","02","08","08:00","-10.6","","-17.0","","59","","32","","11","","40.2","","100.73","","","","-16","","Mainly Clear"
"1998-02-08 09:00","1998","02","08","09:00","-8.6","","-15.0","","60","","36","","7","","40.2","","100.70","","","","-12","","Clear"
"1998-02-08 10:00","1998","02","08","10:00","-6.5","","-14.6","","53","","6","","9","","40.2","","100.70","","","","-11","","Clear"
"1998-02-08 11:00","1998","02","08","11:00","-5.3","","-15.2","","46","","6","","7","","40.2","","100.70","","","","-9","","Clear"
"1998-02-08 12:00","1998","02","08","12:00","-4.4","","-14.8","","44","","","","0","","40.2","","100.66","","","","","","Clear"
"1998-02-08 13:00","1998","02","08","13:00","-3.8","","-14.4","","44","","","","0","","40.2","","100.56","","","","","","Clear"
"1998-02-08 14:00","1998","02","08","14:00","-3.4","","-13.8","","44","","3","","6","","40.2","","100.53","","","","-6","","Clear"
"1998-02-08 15:00","1998","02","08","15:00","-2.9","","-13.6","","43","","","","0","","40.2","","100.49","","","","","","Clear"
"1998-02-08 16:00","1998","02","08","16:00","-2.5","","-13.7","","42","","","","0","","40.2","","100.49","","","","","","Clear"
"1998-02-08 17:00","1998","02","08","17:00","-3.4","","-14.1","","43","","","","0","","40.2","","100.53","","","","","","Clear"
"1998-02-08 18:00","1998","02","08","18:00","-4.5","","-14.2","","47","","9","","4","","25.0","","100.53","","","","-6","","Clear"
"1998-02-08 19:00","1998","02","08","19:00","-5.1","","-14.7","","47","","11","","4","","25.0","","100.49","","","","-7","","Clear"
"1998-02-08 20:00","1998","02","08","20:00","-5.7","","-14.6","","49","","","","0","","25.0","","100.53","","","","","","Clear"
"1998-02-08 21:00","1998","02","08","21:00","-6.6","","-15.4","","50","","10","","7","","25.0","","100.49","","","","-10","","Clear"
"1998-02-08 22:00","1998","02","08","22:00","-7.9","","-15.8","","53","","12","","4","","25.0","","100.46","","","","-10","","Clear"
"1998-02-08 23:00","1998","02","08","23:00","-7.6","","-15.3","","54","","16","","4","","25.0","","100.46","","","","-10","","Clear"
"1998-02-09 00:00","1998","02","09","00:00","-8.3","","-15.6","","56","","","","0","","25.0","","100.46","","","","","","Clear"
"1998-02-09 01:00","1998","02","09","01:00","-9.3","","-16.4","","56","","14","","4","","25.0","","100.49","","","","-12","","Clear"
"1998-02-09 02:00","1998","02","09","02:00","-9.4","","-15.7","","60","","15","","4","","25.0","","100.46","","","","-12","","Mainly Clear"
"1998-02-09 03:00","1998","02","09","03:00","-10.0","","-16.1","","61","","","","0","","25.0","","100.43","","","","","","Mainly Clear"
"1998-02-09 04:00","1998","02","09","04:00","-12.1","","-18.8","","57","","8","","6","","25.0","","100.43","","","","-16","","Mainly Clear"
"1998-02-09 05:00","1998","02","09","05:00","-10.9","","-16.4","","64","","8","","4","","19.3","","100.46","","","","-13","","Clear"
"1998-02-09 06:00","1998","02","09","06:00","-13.9","","-19.0","","65","","3","","4","","12.9","","100.53","","","","-17","","Clear"
"1998-02-09 07:00","1998","02","09","07:00","-13.8","","-18.8","","66","","6","","4","","12.9","","100.53","","","","-17","","Clear"
"1998-02-09 08:00","1998","02","09","08:00","-12.5","","-17.8","","65","","","","0","","9.7","","100.56","","","","","","Fog"
"1998-02-09 09:00","1998","02","09","09:00","-10.7","","-15.4","","68","","","","0","","16.1","","100.60","","","","","","Mainly Clear"
"1998-02-09 10:00","1998","02","09","10:00","-8.5","","-13.1","","69","","","","0","","16.1","","100.63","","","","","","Mainly Clear"
"1998-02-09 11:00","1998","02","09","11:00","-6.0","","-11.1","","67","","","","0","","19.3","","100.63","","","","","","Mainly Clear"
"1998-02-09 12:00","1998","02","09","12:00","-4.9","","-12.1","","57","","18","","4","","24.1","","100.63","","","","-7","","Mainly Clear"
"1998-02-09 13:00","1998","02","09","13:00","-3.2","","-10.8","","56","","19","","4","","24.1","","100.56","","","","-5","","Mainly Clear"
"1998-02-09 14:00","1998","02","09","14:00","-0.6","","-8.3","","56","","24","","4","","32.2","","100.56","","","","-2","","Clear"
"1998-02-09 15:00","1998","02","09","15:00","0.1","","-8.2","","54","","21","","4","","24.1","","100.60","","","","","","Mostly Cloudy"
"1998-02-09 16:00","1998","02","09","16:00","0.8","","-8.2","","51","","","","0","","24.1","","100.63","","","","","","Mainly Clear"
"1998-02-09 17:00","1998","02","09","17:00","-0.2","","-9.1","","51","","","","0","","24.1","","100.66","","","","","","Mainly Clear"
"1998-02-09 18:00","1998","02","09","18:00","-1.6","","-9.9","","53","","","","0","","24.1","","100.73","","","","","","Mainly Clear"
"1998-02-09 19:00","1998","02","09","19:00","-2.0","","-9.8","","55","","23","","4","","24.1","","100.73","","","","-3","","Mainly Clear"
"1998-02-09 20:00","1998","02","09","20:00","-3.7","","-10.6","","59","","27","","6","","24.1","","100.73","","","","-6","","Mainly Clear"
"1998-02-09 21:00","1998","02","09","21:00","-3.7","","-10.2","","61","","","","0","","24.1","","100.76","","","","","","Mainly Clear"
"1998-02-09 22:00","1998","02","09","22:00","-4.3","","-10.7","","61","","23","","4","","24.1","","100.76","","","","-6","","Mostly Cloudy"
"1998-02-09 23:00","1998","02","09","23:00","-4.6","","-10.6","","63","","","","0","","24.1","","100.83","","","","","","Mostly Cloudy"
"1998-02-10 00:00","1998","02","10","00:00","-4.9","","-10.7","","64","","","","0","","24.1","","100.83","","","","","","Mostly Cloudy"
"1998-02-10 01:00","1998","02","10","01:00","-5.7","","-11.5","","64","","","","0","","24.1","","100.83","","","","","","Mostly Cloudy"
"1998-02-10 02:00","1998","02","10","02:00","-6.5","","-11.2","","69","","","","0","","24.1","","100.83","","","","","","Mostly Cloudy"
"1998-02-10 03:00","1998","02","10","03:00","-8.3","","-13.4","","67","","4","","13","","12.9","","100.83","","","","-14","","Mostly Cloudy"
"1998-02-10 04:00","1998","02","10","04:00","-9.3","","-14.1","","68","","3","","13","","11.3","","100.83","","","","-15","","Mostly Cloudy"
"1998-02-10 05:00","1998","02","10","05:00","-8.9","","-14.1","","66","","6","","7","","6.4","","100.86","","","","-13","","Fog"
"1998-02-10 06:00","1998","02","10","06:00","-9.3","","-14.2","","67","","6","","11","","6.4","","100.90","","","","-15","","Fog"
"1998-02-10 07:00","1998","02","10","07:00","-9.2","","-14.1","","68","","5","","6","","4.8","","100.93","","","","-13","","Fog"
"1998-02-10 08:00","1998","02","10","08:00","-9.3","","-14.1","","68","","6","","7","","4.8","","100.93","","","","-13","","Fog"
"1998-02-10 09:00","1998","02","10","09:00","-8.1","","-12.7","","69","","4","","4","","3.6","","101.00","","","","-10","","Fog"
"1998-02-10 10:00","1998","02","10","10:00","-6.8","","-11.3","","70","","7","","4","","2.0","","101.00","","","","-9","","Fog"
"1998-02-10 11:00","1998","02","10","11:00","-5.6","","-9.6","","73","","8","","4","","1.6","","100.96","","","","-7","","Fog"
"1998-02-10 12:00","1998","02","10","12:00","-3.9","","-8.1","","73","","4","","4","","6.4","","100.90","","","","-6","","Fog"
"1998-02-10 13:00","1998","02","10","13:00","-2.4","","-7.2","","70","","11","","4","","6.4","","100.83","","","","-4","","Haze"
"1998-02-10 14:00","1998","02","10","14:00","-1.2","","-7.1","","64","","","","0","","8.0","","100.80","","","","","","Haze"
"1998-02-10 15:00","1998","02","10","15:00","-0.4","","-7.3","","60","","10","","6","","8.0","","100.80","","","","-2","","Haze"
"1998-02-10 16:00","1998","02","10","16:00","-0.2","","-7.5","","58","","5","","6","","8.0","","100.73","","","","-2","","Haze"
"1998-02-10 17:00","1998","02","10","17:00","-1.0","","-8.5","","57","","5","","6","","9.7","","100.73","","","","-3","","Haze"
"1998-02-10 18:00","1998","02","10","18:00","-1.8","","-8.9","","58","","7","","6","","6.4","","100.73","","","","-4","","Haze"
"1998-02-10 19:00","1998","02","10","19:00","-2.9","","-10.0","","58","","5","","7","","6.4","","100.73","","","","-6","","Haze"
"1998-02-10 20:00","1998","02","10","20:00","-3.7","","-9.6","","64","","4","","7","","9.7","","100.70","","","","-7","","Haze"
"1998-02-10 21:00","1998","02","10","21:00","-3.4","","-9.4","","63","","6","","4","","9.7","","100.66","","","","-5","","Haze"
"1998-02-10 22:00","1998","02","10","22:00","-4.1","","-9.9","","64","","7","","6","","9.7","","100.63","","","","-7","","Haze"
"1998-02-10 23:00","1998","02","10","23:00","-5.5","","-11.0","","65","","","","0","","9.7","","100.63","","","","","","Haze"
"1998-02-11 00:00","1998","02","11","00:00","-6.2","","-11.3","","67","","4","","4","","9.7","","100.60","","","","-8","","Haze"
"1998-02-11 01:00","1998","02","11","01:00","-6.6","","-11.7","","67","","3","","9","","9.7","","100.56","","","","-11","","Haze"
"1998-02-11 02:00","1998","02","11","02:00","-6.9","","-11.7","","69","","4","","4","","9.7","","100.56","","","","-9","","Haze"
"1998-02-11 03:00","1998","02","11","03:00","-6.3","","-10.0","","75","","7","","6","","9.7","","100.56","","","","-9","","Haze"
"1998-02-11 04:00","1998","02","11","04:00","-7.8","","-12.9","","67","","3","","4","","6.4","","100.49","","","","-10","","Haze"
"1998-02-11 05:00","1998","02","11","05:00","-7.6","","-12.4","","68","","3","","7","","4.8","","100.53","","","","-11","","Haze"
"1998-02-11 06:00","1998","02","11","06:00","-7.2","","-11.4","","72","","","","0","","4.8","","100.49","","","","","","Haze"
"1998-02-11 07:00","1998","02","11","07:00","-7.5","","-11.6","","72","","5","","6","","3.6","","100.53","","","","-11","","Haze"
"1998-02-11 08:00","1998","02","11","08:00","-7.6","","-12.0","","71","","3","","7","","4.0","","100.49","","","","-11","","Haze"
"1998-02-11 09:00","1998","02","11","09:00","-6.2","","-10.0","","74","","5","","4","","4.0","","100.46","","","","-8","","Haze"
"1998-02-11 10:00","1998","02","11","10:00","-5.1","","-9.0","","74","","2","","6","","4.0","","100.43","","","","-8","","Haze"
"1998-02-11 11:00","1998","02","11","11:00","-3.0","","-7.2","","73","","6","","6","","4.8","","100.39","","","","-5","","Haze"
"1998-02-11 12:00","1998","02","11","12:00","-0.8","","-6.4","","66","","5","","9","","6.4","","100.29","","","","-4","","Haze"
"1998-02-11 13:00","1998","02","11","13:00","0.5","","-6.2","","61","","5","","7","","8.0","","100.16","","","","","","Haze"
"1998-02-11 14:00","1998","02","11","14:00","1.1","","-6.1","","59","","5","","7","","8.0","","100.03","","","","","","Haze"
"1998-02-11 15:00","1998","02","11","15:00","2.1","","-5.3","","58","","5","","7","","9.7","","99.96","","","","","","Haze"
"1998-02-11 16:00","1998","02","11","16:00","1.6","","-5.4","","60","","4","","9","","8.0","","99.89","","","","","","Haze"
"1998-02-11 17:00","1998","02","11","17:00","1.4","","-5.4","","61","","5","","11","","8.0","","99.82","","","","","","Haze"
"1998-02-11 18:00","1998","02","11","18:00","1.1","","-5.5","","61","","5","","13","","8.0","","99.76","","","","","","Haze"
"1998-02-11 19:00","1998","02","11","19:00","0.7","","-5.5","","63","","4","","15","","8.0","","99.66","","","","","","Haze"
"1998-02-11 20:00","1998","02","11","20:00","0.8","","-5.3","","64","","5","","13","","8.0","","99.56","","","","","","Rain,Haze"
"1998-02-11 21:00","1998","02","11","21:00","0.9","","-5.3","","63","","6","","13","","9.7","","99.42","","","","","","Rain,Haze"
"1998-02-11 22:00","1998","02","11","22:00","0.9","","-5.3","","63","","7","","17","","8.0","","99.36","","","","","","Rain,Haze"
"1998-02-11 23:00","1998","02","11","23:00","0.9","","-4.8","","66","","7","","17","","6.4","","99.19","","","","","","Haze"
"1998-02-12 00:00","1998","02","12","00:00","0.8","","-4.4","","68","","7","","15","","6.4","","99.02","","","","","","Haze"
"1998-02-12 01:00","1998","02","12","01:00","0.6","","-3.9","","72","","6","","11","","4.8","","98.92","","","","","","Rain,Haze"
"1998-02-12 02:00","1998","02","12","02:00","0.5","","-3.2","","76","","4","","9","","4.0","","98.79","","","","","","Rain,Fog"
"1998-02-12 03:00","1998","02","12","03:00","0.4","","-3.1","","77","","6","","7","","2.4","","98.62","","","","","","Rain,Fog"
"1998-02-12 04:00","1998","02","12","04:00","0.5","","-2.8","","78","","8","","15","","1.0","","98.49","","","","","","Rain,Fog"
"1998-02-12 05:00","1998","02","12","05:00","0.5","","-2.6","","80","","4","","9","","1.6","","98.35","","","","","","Fog"
"1998-02-12 06:00","1998","02","12","06:00","0.2","","-2.6","","81","","4","","7","","0.6","","98.32","","","","","","Rain,Fog"
"1998-02-12 07:00","1998","02","12","07:00","0.2","","-2.4","","83","","2","","9","","0.8","","98.22","","","","","","Rain,Fog"
"1998-02-12 08:00","1998","02","12","08:00","0.2","","-2.3","","83","","2","","4","","0.8","","98.15","","","","","","Fog"
"1998-02-12 09:00","1998","02","12","09:00","0.5","","-1.8","","85","","5","","6","","0.8","","98.05","","","","","","Fog"
"1998-02-12 10:00","1998","02","12","10:00","0.8","","-1.5","","85","","","","0","","0.6","","98.02","","","","","","Drizzle,Fog"
"1998-02-12 11:00","1998","02","12","11:00","1.1","","-1.0","","86","","","","0","","0.4","","97.95","","","","","","Rain,Fog"
"1998-02-12 12:00","1998","02","12","12:00","1.3","","-0.5","","88","","","","0","","0.2","","97.88","","","","","","Rain,Fog"
"1998-02-12 13:00","1998","02","12","13:00","1.3","","-0.6","","87","","","","0","","1.0","","97.82","","","","","","Rain,Fog"
"1998-02-12 14:00","1998","02","12","14:00","1.6","","-0.9","","83","","24","","9","","1.0","","97.82","","","","","","Rain,Fog"
"1998-02-12 15:00","1998","02","12","15:00","1.3","","-1.5","","82","","27","","17","","3.6","","97.85","","","","","","Rain,Snow,Fog"
"1998-02-12 16:00","1998","02","12","16:00","1.1","","-1.8","","81","","27","","20","","4.8","","97.98","","","","","","Rain,Snow,Fog"
"1998-02-12 17:00","1998","02","12","17:00","1.0","","-1.7","","82","","27","","24","","4.8","","98.08","","","","","","Rain,Snow,Fog"
"1998-02-12 18:00","1998","02","12","18:00","1.2","","-1.7","","81","","28","","32","","12.9","","98.22","","","","","","Rain,Snow"
"1998-02-12 19:00","1998","02","12","19:00","0.4","","-2.5","","81","","28","","35","","12.9","","98.42","","","","","","Snow"
"1998-02-12 20:00","1998","02","12","20:00","-0.3","","-3.8","","77","","29","","39","","24.1","","98.62","","","","-8","","Snow"
"1998-02-12 21:00","1998","02","12","21:00","-1.1","","-5.6","","71","","29","","41","","25.0","","98.75","","","","-9","","Cloudy"
"1998-02-12 22:00","1998","02","12","22:00","-2.1","","-7.5","","66","","30","","44","","25.0","","98.92","","","","-11","","Cloudy"
"1998-02-12 23:00","1998","02","12","23:00","-3.2","","-8.7","","66","","29","","41","","25.0","","99.09","","","","-12","","Mostly Cloudy"
"1998-02-13 00:00","1998","02","13","00:00","-4.1","","-9.9","","64","","28","","33","","25.0","","99.26","","","","-12","","Cloudy"
"1998-02-13 01:00","1998","02","13","01:00","-5.7","","-11.9","","62","","29","","37","","25.0","","99.42","","","","-15","","Mostly Cloudy"
"1998-02-13 02:00","1998","02","13","02:00","-7.1","","-13.6","","60","","29","","35","","25.0","","99.52","","","","-16","","Mainly Clear"
"1998-02-13 03:00","1998","02","13","03:00","-7.6","","-14.2","","59","","29","","33","","24.1","","99.62","","","","-17","","Snow Showers"
"1998-02-13 04:00","1998","02","13","04:00","-9.1","","-15.8","","58","","31","","32","","25.0","","99.72","","","","-19","","Mainly Clear"
"1998-02-13 05:00","1998","02","13","05:00","-9.8","","-16.8","","57","","31","","26","","25.0","","99.86","","","","-19","","Mainly Clear"
"1998-02-13 06:00","1998","02","13","06:00","-10.6","","-17.5","","57","","31","","24","","25.0","","99.96","","","","-19","","Mainly Clear"
"1998-02-13 07:00","1998","02","13","07:00","-11.6","","-18.1","","59","","31","","19","","32.2","","100.09","","","","-20","","Mainly Clear"
"1998-02-13 08:00","1998","02","13","08:00","-12.5","","-19.1","","58","","30","","22","","40.2","","100.23","","","","-21","","Clear"
"1998-02-13 09:00","1998","02","13","09:00","-12.3","","-19.3","","56","","29","","26","","40.2","","100.29","","","","-22","","Clear"
"1998-02-13 10:00","1998","02","13","10:00","-12.1","","-19.0","","56","","29","","28","","40.2","","100.33","","","","-22","","Clear"
"1998-02-13 11:00","1998","02","13","11:00","-11.5","","-18.5","","56","","27","","30","","40.2","","100.36","","","","-21","","Clear"
"1998-02-13 12:00","1998","02","13","12:00","-10.6","","-18.0","","54","","29","","28","","40.2","","100.39","","","","-20","","Mainly Clear"
"1998-02-13 13:00","1998","02","13","13:00","-9.6","","-17.4","","53","","28","","28","","40.2","","100.43","","","","-19","","Mainly Clear"
"1998-02-13 14:00","1998","02","13","14:00","-9.1","","-17.0","","53","","27","","24","","40.2","","100.43","","","","-17","","Mainly Clear"
"1998-02-13 15:00","1998","02","13","15:00","-8.6","","-16.7","","52","","28","","20","","40.2","","100.43","","","","-16","","Mainly Clear"
"1998-02-13 16:00","1998","02","13","16:00","-8.2","","-16.8","","50","","28","","17","","40.2","","100.46","","","","-15","","Mainly Clear"
"1998-02-13 17:00","1998","02","13","17:00","-8.3","","-17.0","","49","","25","","9","","40.2","","100.49","","","","-13","","Mainly Clear"
"1998-02-13 18:00","1998","02","13","18:00","-9.2","","-17.5","","51","","28","","13","","32.2","","100.60","","","","-15","","Mainly Clear"
"1998-02-13 19:00","1998","02","13","19:00","-10.0","","-17.7","","53","","27","","9","","25.0","","100.70","","","","-15","","Mainly Clear"
"1998-02-13 20:00","1998","02","13","20:00","-9.5","","-17.7","","51","","31","","19","","25.0","","100.73","","","","-17","","Clear"
"1998-02-13 21:00","1998","02","13","21:00","-10.3","","-18.8","","50","","31","","20","","25.0","","100.76","","","","-18","","Clear"
"1998-02-13 22:00","1998","02","13","22:00","-11.4","","-19.5","","51","","31","","22","","25.0","","100.80","","","","-20","","Clear"
"1998-02-13 23:00","1998","02","13","23:00","-12.3","","-20.1","","52","","33","","19","","25.0","","100.80","","","","-21","","Clear"
"1998-02-14 00:00","1998","02","14","00:00","-13.3","","-20.6","","54","","32","","11","","25.0","","100.86","","","","-20","","Clear"
"1998-02-14 01:00","1998","02","14","01:00","-14.6","","-21.6","","55","","30","","9","","25.0","","100.86","","","","-20","","Clear"
"1998-02-14 02:00","1998","02","14","02:00","-15.1","","-22.1","","55","","31","","15","","25.0","","100.90","","","","-23","","Clear"
"1998-02-14 03:00","1998","02","14","03:00","-15.9","","-22.5","","57","","30","","19","","25.0","","100.96","","","","-25","","Clear"
"1998-02-14 04:00","1998","02","14","04:00","-16.6","","-24.3","","51","","31","","20","","25.0","","101.00","","","","-26","","Clear"
"1998-02-14 05:00","1998","02","14","05:00","-17.4","","-24.9","","52","","30","","17","","25.0","","101.06","","","","-26","","Clear"
"1998-02-14 06:00","1998","02","14","06:00","-18.0","","-25.6","","51","","29","","15","","25.0","","101.13","","","","-27","","Mainly Clear"
"1998-02-14 07:00","1998","02","14","07:00","-18.8","","-26.4","","51","","31","","15","","40.2","","101.20","","","","-28","","Mainly Clear"
"1998-02-14 08:00","1998","02","14","08:00","-19.0","","-26.5","","52","","31","","17","","40.2","","101.30","","","","-28","","Mainly Clear"
"1998-02-14 09:00","1998","02","14","09:00","-18.1","","-25.9","","50","","31","","15","","40.2","","101.33","","","","-27","","Clear"
"1998-02-14 10:00","1998","02","14","10:00","-17.2","","-25.4","","49","","34","","17","","40.2","","101.40","","","","-26","","Mainly Clear"
"1998-02-14 11:00","1998","02","14","11:00","-16.1","","-25.1","","46","","31","","20","","40.2","","101.43","","","","-26","","Mainly Clear"
"1998-02-14 12:00","1998","02","14","12:00","-15.1","","-25.0","","43","","33","","17","","40.2","","101.40","","","","-24","","Mainly Clear"
"1998-02-14 13:00","1998","02","14","13:00","-14.3","","-24.1","","43","","30","","11","","40.2","","101.40","","","","-21","","Mainly Clear"
"1998-02-14 14:00","1998","02","14","14:00","-13.6","","-24.0","","41","","29","","11","","40.2","","101.37","","","","-20","","Clear"
"1998-02-14 15:00","1998","02","14","15:00","-13.4","","-23.6","","42","","31","","17","","40.2","","101.40","","","","-21","","Clear"
"1998-02-14 16:00","1998","02","14","16:00","-13.1","","-23.9","","40","","32","","17","","40.2","","101.43","","","","-21","","Clear"
"1998-02-14 17:00","1998","02","14","17:00","-13.3","","-24.2","","39","","31","","13","","40.2","","101.47","","","","-20","","Clear"
"1998-02-14 18:00","1998","02","14","18:00","-14.2","","-24.7","","41","","29","","6","","25.0","","101.50","","","","-18","","Clear"
"1998-02-14 19:00","1998","02","14","19:00","-14.5","","-24.7","","42","","26","","6","","25.0","","101.57","","","","-19","","Clear"
"1998-02-14 20:00","1998","02","14","20:00","-15.2","","-24.2","","46","","28","","7","","25.0","","101.57","","","","-20","","Clear"
"1998-02-14 21:00","1998","02","14","21:00","-15.8","","-24.3","","48","","29","","4","","25.0","","101.60","","","","-19","","Clear"
"1998-02-14 22:00","1998","02","14","22:00","-15.6","","-24.8","","45","","","","0","","25.0","","101.67","","","","","","Clear"
"1998-02-14 23:00","1998","02","14","23:00","-15.7","","-25.2","","44","","35","","11","","25.0","","101.63","","","","-22","","Clear"
"1998-02-15 00:00","1998","02","15","00:00","-16.5","","-25.9","","44","","35","","9","","25.0","","101.67","","","","-23","","Clear"
"1998-02-15 01:00","1998","02","15","01:00","-17.3","","-25.9","","47","","35","","6","","25.0","","101.70","","","","-22","","Clear"
"1998-02-15 02:00","1998","02","15","02:00","-17.6","","-26.0","","48","","33","","6","","25.0","","101.70","","","","-22","","Clear"
"1998-02-15 03:00","1998","02","15","03:00","-18.7","","-26.5","","50","","30","","4","","25.0","","101.83","","","","-22","","Clear"
"1998-02-15 04:00","1998","02","15","04:00","-18.7","","-26.6","","50","","","","0","","25.0","","101.87","","","","","","Clear"
"1998-02-15 05:00","1998","02","15","05:00","-19.2","","-26.5","","52","","","","0","","25.0","","101.90","","","","","","Clear"
"1998-02-15 06:00","1998","02","15","06:00","-20.2","","-27.0","","55","","","","0","","25.0","","102.00","","","","","","Clear"
"1998-02-15 07:00","1998","02","15","07:00","-19.5","","-26.5","","54","","","","0","","40.2","","102.07","","","","","","Mainly Clear"
"1998-02-15 08:00","1998","02","15","08:00","-19.2","","-25.7","","56","","1","","4","","40.2","","102.10","","","","-23","","Mainly Clear"
"1998-02-15 09:00","1998","02","15","09:00","-17.7","","-24.1","","57","","4","","6","","40.2","","102.14","","","","-22","","Mainly Clear"
"1998-02-15 10:00","1998","02","15","10:00","-16.3","","-23.4","","54","","","","0","","40.2","","102.17","","","","","","Mainly Clear"
"1998-02-15 11:00","1998","02","15","11:00","-15.0","","-23.3","","49","","","","0","","40.2","","102.20","","","","","","Mainly Clear"
"1998-02-15 12:00","1998","02","15","12:00","-13.9","","-22.9","","47","","","","0","","40.2","","102.17","","","","","","Mainly Clear"
"1998-02-15 13:00","1998","02","15","13:00","-12.6","","-22.0","","45","","","","0","","40.2","","102.17","","","","","","Mainly Clear"
"1998-02-15 14:00","1998","02","15","14:00","-12.2","","-21.6","","45","","17","","4","","40.2","","102.10","","","","-15","","Mostly Cloudy"
"1998-02-15 15:00","1998","02","15","15:00","-11.1","","-22.2","","39","","9","","4","","40.2","","102.04","","","","-14","","Mostly Cloudy"
"1998-02-15 16:00","1998","02","15","16:00","-11.3","","-21.6","","42","","7","","7","","40.2","","102.04","","","","-16","","Mainly Clear"
"1998-02-15 17:00","1998","02","15","17:00","-12.2","","-22.2","","43","","9","","7","","40.2","","102.00","","","","-17","","Mainly Clear"
"1998-02-15 18:00","1998","02","15","18:00","-13.1","","-22.7","","44","","10","","7","","40.2","","102.00","","","","-18","","Mainly Clear"
"1998-02-15 19:00","1998","02","15","19:00","-13.6","","-23.2","","44","","6","","6","","25.0","","101.97","","","","-18","","Mainly Clear"
"1998-02-15 20:00","1998","02","15","20:00","-13.5","","-23.6","","42","","6","","7","","25.0","","101.94","","","","-18","","Mostly Cloudy"
"1998-02-15 21:00","1998","02","15","21:00","-13.6","","-23.9","","42","","11","","4","","25.0","","101.94","","","","-16","","Mostly Cloudy"
"1998-02-15 22:00","1998","02","15","22:00","-14.1","","-24.4","","41","","5","","7","","25.0","","101.90","","","","-19","","Mostly Cloudy"
"1998-02-15 23:00","1998","02","15","23:00","-14.7","","-24.0","","45","","7","","11","","25.0","","101.80","","","","-21","","Mostly Cloudy"
"1998-02-16 00:00","1998","02","16","00:00","-14.5","","-23.1","","48","","9","","7","","25.0","","101.83","","","","-19","","Mostly Cloudy"
"1998-02-16 01:00","1998","02","16","01:00","-14.7","","-23.0","","49","","3","","6","","25.0","","101.80","","","","-19","","Mostly Cloudy"
"1998-02-16 02:00","1998","02","16","02:00","-15.0","","-23.0","","50","","3","","11","","25.0","","101.80","","","","-22","","Mostly Cloudy"
"1998-02-16 03:00","1998","02","16","03:00","-15.0","","-22.7","","52","","3","","9","","25.0","","101.80","","","","-21","","Cloudy"
"1998-02-16 04:00","1998","02","16","04:00","-15.3","","-22.9","","52","","3","","13","","25.0","","101.77","","","","-23","","Mainly Clear"
"1998-02-16 05:00","1998","02","16","05:00","-15.3","","-23.0","","52","","4","","13","","25.0","","101.73","","","","-23","","Mostly Cloudy"
"1998-02-16 06:00","1998","02","16","06:00","-14.6","","-22.3","","52","","7","","13","","25.0","","101.77","","","","-22","","Mostly Cloudy"
"1998-02-16 07:00","1998","02","16","07:00","-14.2","","-22.1","","51","","4","","7","","40.2","","101.80","","","","-19","","Mostly Cloudy"
"1998-02-16 08:00","1998","02","16","08:00","-13.3","","-21.3","","51","","7","","4","","40.2","","101.90","","","","-16","","Mostly Cloudy"
"1998-02-16 09:00","1998","02","16","09:00","-12.6","","-21.1","","49","","","","0","","40.2","","101.90","","","","","","Mostly Cloudy"
"1998-02-16 10:00","1998","02","16","10:00","-11.4","","-20.1","","49","","","","0","","40.2","","101.90","","","","","","Mostly Cloudy"
"1998-02-16 11:00","1998","02","16","11:00","-8.8","","-17.7","","49","","3","","6","","40.2","","101.87","","","","-12","","Mostly Cloudy"
"1998-02-16 12:00","1998","02","16","12:00","-6.8","","-16.9","","44","","7","","7","","40.2","","101.70","","","","-10","","Mostly Cloudy"
"1998-02-16 13:00","1998","02","16","13:00","-5.2","","-15.7","","43","","9","","4","","40.2","","101.67","","","","-7","","Mostly Cloudy"
"1998-02-16 14:00","1998","02","16","14:00","-3.3","","-14.4","","42","","","","0","","40.2","","101.67","","","","","","Mainly Clear"
"1998-02-16 15:00","1998","02","16","15:00","-2.7","","-13.6","","43","","","","0","","24.1","","101.67","","","","","","Mostly Cloudy"
"1998-02-16 16:00","1998","02","16","16:00","-1.9","","-13.9","","39","","5","","7","","24.1","","101.67","","","","-5","","Mostly Cloudy"
"1998-02-16 17:00","1998","02","16","17:00","-3.3","","-13.1","","47","","4","","11","","24.1","","101.60","","","","-8","","Mostly Cloudy"
"1998-02-16 18:00","1998","02","16","18:00","-4.1","","-13.5","","48","","6","","7","","24.1","","101.67","","","","-7","","Mostly Cloudy"
"1998-02-16 19:00","1998","02","16","19:00","-4.3","","-13.8","","47","","7","","6","","24.1","","101.70","","","","-7","","Mostly Cloudy"
"1998-02-16 20:00","1998","02","16","20:00","-5.3","","-14.3","","49","","10","","13","","24.1","","101.70","","","","-10","","Mostly Cloudy"
"1998-02-16 21:00","1998","02","16","21:00","-5.4","","-14.2","","50","","4","","11","","24.1","","101.67","","","","-10","","Mostly Cloudy"
"1998-02-16 22:00","1998","02","16","22:00","-5.5","","-14.3","","50","","3","","9","","24.1","","101.63","","","","-10","","Mostly Cloudy"
"1998-02-16 23:00","1998","02","16","23:00","-5.5","","-14.2","","50","","3","","11","","24.1","","101.53","","","","-10","","Mostly Cloudy"
"1998-02-17 00:00","1998","02","17","00:00","-5.1","","-14.1","","49","","5","","7","","24.1","","101.60","","","","-8","","Cloudy"
"1998-02-17 01:00","1998","02","17","01:00","-5.5","","-14.1","","51","","4","","15","","24.1","","101.57","","","","-11","","Cloudy"
"1998-02-17 02:00","1998","02","17","02:00","-5.1","","-14.1","","49","","4","","20","","24.1","","101.43","","","","-12","","Cloudy"
"1998-02-17 03:00","1998","02","17","03:00","-5.2","","-13.9","","50","","4","","13","","24.1","","101.50","","","","-10","","Mostly Cloudy"
"1998-02-17 04:00","1998","02","17","04:00","-5.1","","-13.6","","51","","5","","9","","24.1","","101.53","","","","-9","","Mostly Cloudy"
"1998-02-17 05:00","1998","02","17","05:00","-5.0","","-13.6","","51","","6","","11","","24.1","","101.53","","","","-10","","Cloudy"
"1998-02-17 06:00","1998","02","17","06:00","-5.1","","-13.6","","51","","4","","17","","24.1","","101.50","","","","-11","","Cloudy"
"1998-02-17 07:00","1998","02","17","07:00","-5.2","","-13.9","","50","","5","","19","","16.1","","101.50","","","","-12","","Cloudy"
"1998-02-17 08:00","1998","02","17","08:00","-4.9","","-13.8","","50","","6","","17","","16.1","","101.50","","","","-11","","Cloudy"
"1998-02-17 09:00","1998","02","17","09:00","-4.0","","-13.1","","49","","5","","15","","19.3","","101.47","","","","-9","","Cloudy"
"1998-02-17 10:00","1998","02","17","10:00","-2.8","","-12.4","","48","","5","","17","","19.3","","101.43","","","","-8","","Mostly Cloudy"
"1998-02-17 11:00","1998","02","17","11:00","-1.9","","-11.6","","47","","5","","20","","24.1","","101.37","","","","-8","","Mostly Cloudy"
"1998-02-17 12:00","1998","02","17","12:00","-0.6","","-10.8","","46","","6","","17","","32.2","","101.30","","","","-6","","Mostly Cloudy"
"1998-02-17 13:00","1998","02","17","13:00","0.9","","-9.9","","44","","7","","26","","32.2","","101.06","","","","","","Mostly Cloudy"
"1998-02-17 14:00","1998","02","17","14:00","0.8","","-11.5","","39","","5","","26","","32.2","","100.96","","","","","","Mostly Cloudy"
"1998-02-17 15:00","1998","02","17","15:00","1.0","","-11.1","","40","","5","","20","","24.1","","100.83","","","","","","Mostly Cloudy"
"1998-02-17 16:00","1998","02","17","16:00","1.1","","-10.7","","41","","6","","19","","19.3","","100.80","","","","","","Cloudy"
"1998-02-17 17:00","1998","02","17","17:00","0.9","","-10.6","","42","","6","","24","","19.3","","100.73","","","","","","Cloudy"
"1998-02-17 18:00","1998","02","17","18:00","0.5","","-11.0","","42","","5","","24","","19.3","","100.73","","","","","","Cloudy"
"1998-02-17 19:00","1998","02","17","19:00","0.0","","-10.0","","47","","5","","28","","19.3","","100.63","","","","-6","","Cloudy"
"1998-02-17 20:00","1998","02","17","20:00","0.4","","-7.9","","54","","6","","28","","19.3","","100.60","","","","","","Cloudy"
"1998-02-17 21:00","1998","02","17","21:00","0.8","","-7.4","","54","","7","","26","","19.3","","100.56","","","","","","Cloudy"
"1998-02-17 22:00","1998","02","17","22:00","1.0","","-7.2","","54","","6","","30","","19.3","","100.43","","","","","","Cloudy"
"1998-02-17 23:00","1998","02","17","23:00","0.8","","-7.1","","55","","7","","33","","24.1","","100.36","","","","","","Cloudy"
"1998-02-18 00:00","1998","02","18","00:00","-1.2","","-7.4","","63","","6","","35","","2.8","","100.26","","","","-9","","Snow,Ice Pellets"
"1998-02-18 01:00","1998","02","18","01:00","-1.4","","-5.8","","72","","6","","35","","2.0","","100.19","","","","-9","","Snow,Ice Pellets"
"1998-02-18 02:00","1998","02","18","02:00","-1.3","","-5.3","","74","","6","","46","","6.4","","99.99","","","","-10","","Freezing Rain,Ice Pellets"
"1998-02-18 03:00","1998","02","18","03:00","-1.4","","-5.3","","75","","5","","39","","16.1","","99.93","","","","-9","","Freezing Rain"
"1998-02-18 04:00","1998","02","18","04:00","-1.2","","-5.1","","75","","6","","41","","8.0","","99.76","","","","-9","","Freezing Rain"
"1998-02-18 05:00","1998","02","18","05:00","-0.7","","-4.5","","75","","6","","28","","16.1","","99.72","","","","-7","","Freezing Rain"
"1998-02-18 06:00","1998","02","18","06:00","-0.5","","-4.2","","76","","5","","26","","16.1","","99.69","","","","-7","","Freezing Rain"
"1998-02-18 07:00","1998","02","18","07:00","-0.5","","-4.3","","75","","6","","22","","19.3","","99.66","","","","-6","","Freezing Rain"
"1998-02-18 08:00","1998","02","18","08:00","-0.2","","-3.8","","77","","6","","22","","8.0","","99.66","","","","-6","","Moderate Freezing Rain"
"1998-02-18 09:00","1998","02","18","09:00","-0.1","","-3.8","","76","","5","","22","","32.2","","99.56","","","","-6","","Cloudy"
"1998-02-18 10:00","1998","02","18","10:00","0.4","","-3.6","","74","","6","","26","","32.2","","99.49","","","","","","Rain"
"1998-02-18 11:00","1998","02","18","11:00","0.5","","-3.8","","73","","6","","22","","32.2","","99.46","","","","","","Cloudy"
"1998-02-18 12:00","1998","02","18","12:00","0.8","","-3.5","","73","","5","","22","","16.1","","99.42","","","","","","Rain,Ice Pellets"
"1998-02-18 13:00","1998","02","18","13:00","0.6","","-3.5","","74","","6","","28","","19.3","","99.39","","","","","","Rain"
"1998-02-18 14:00","1998","02","18","14:00","0.8","","-3.0","","76","","5","","32","","24.1","","99.36","","","","","","Rain"
"1998-02-18 15:00","1998","02","18","15:00","1.2","","-2.7","","75","","6","","32","","24.1","","99.32","","","","","","Cloudy"
"1998-02-18 16:00","1998","02","18","16:00","1.4","","-2.5","","75","","6","","30","","24.1","","99.29","","","","","","Rain"
"1998-02-18 17:00","1998","02","18","17:00","1.3","","-2.8","","74","","5","","35","","24.1","","99.32","","","","","","Cloudy"
"1998-02-18 18:00","1998","02","18","18:00","1.2","","-2.8","","75","","7","","35","","24.1","","99.36","","","","","","Cloudy"
"1998-02-18 19:00","1998","02","18","19:00","1.1","","-2.6","","76","","6","","32","","24.1","","99.36","","","","","","Cloudy"
"1998-02-18 20:00","1998","02","18","20:00","1.1","","-2.7","","76","","5","","28","","24.1","","99.39","","","","","","Cloudy"
"1998-02-18 21:00","1998","02","18","21:00","1.0","","-2.9","","75","","6","","28","","24.1","","99.39","","","","","","Cloudy"
"1998-02-18 22:00","1998","02","18","22:00","0.9","","-2.8","","76","","6","","28","","24.1","","99.36","","","","","","Cloudy"
"1998-02-18 23:00","1998","02","18","23:00","0.8","","-3.0","","76","","5","","24","","24.1","","99.32","","","","","","Cloudy"
"1998-02-19 00:00","1998","02","19","00:00","0.7","","-3.0","","76","","6","","22","","24.1","","99.29","","","","","","Cloudy"
"1998-02-19 01:00","1998","02","19","01:00","0.7","","-3.1","","76","","5","","22","","24.1","","99.29","","","","","","Cloudy"
"1998-02-19 02:00","1998","02","19","02:00","0.7","","-3.2","","75","","6","","24","","24.1","","99.26","","","","","","Cloudy"
"1998-02-19 03:00","1998","02","19","03:00","0.6","","-3.2","","76","","6","","19","","24.1","","99.26","","","","","","Cloudy"
"1998-02-19 04:00","1998","02","19","04:00","0.6","","-3.4","","75","","5","","24","","24.1","","99.22","","","","","","Cloudy"
"1998-02-19 05:00","1998","02","19","05:00","0.6","","-3.5","","74","","5","","20","","24.1","","99.22","","","","","","Cloudy"
"1998-02-19 06:00","1998","02","19","06:00","0.7","","-3.3","","75","","5","","19","","24.1","","99.22","","","","","","Cloudy"
"1998-02-19 07:00","1998","02","19","07:00","0.7","","-3.5","","73","","5","","17","","32.2","","99.26","","","","","","Cloudy"
"1998-02-19 08:00","1998","02","19","08:00","0.8","","-3.3","","74","","5","","13","","32.2","","99.29","","","","","","Cloudy"
"1998-02-19 09:00","1998","02","19","09:00","1.0","","-3.1","","74","","5","","7","","32.2","","99.29","","","","","","Cloudy"
"1998-02-19 10:00","1998","02","19","10:00","1.3","","-3.1","","72","","5","","9","","32.2","","99.29","","","","","","Cloudy"
"1998-02-19 11:00","1998","02","19","11:00","1.3","","-3.1","","72","","2","","9","","40.2","","99.32","","","","","","Cloudy"
"1998-02-19 12:00","1998","02","19","12:00","1.7","","-2.7","","73","","5","","7","","40.2","","99.29","","","","","","Cloudy"
"1998-02-19 13:00","1998","02","19","13:00","2.2","","-2.7","","70","","","","0","","40.2","","99.26","","","","","","Cloudy"
"1998-02-19 14:00","1998","02","19","14:00","2.6","","-2.3","","70","","","","0","","40.2","","99.26","","","","","","Cloudy"
"1998-02-19 15:00","1998","02","19","15:00","2.2","","-3.2","","67","","21","","4","","32.2","","99.29","","","","","","Cloudy"
"1998-02-19 16:00","1998","02","19","16:00","2.1","","-3.1","","68","","21","","6","","24.1","","99.32","","","","","","Cloudy"
"1998-02-19 17:00","1998","02","19","17:00","1.9","","-3.0","","70","","22","","4","","24.1","","99.36","","","","","","Cloudy"
"1998-02-19 18:00","1998","02","19","18:00","1.6","","-3.4","","69","","23","","6","","19.3","","99.39","","","","","","Cloudy"
"1998-02-19 19:00","1998","02","19","19:00","1.5","","-3.1","","71","","23","","6","","24.1","","99.39","","","","","","Cloudy"
"1998-02-19 20:00","1998","02","19","20:00","1.3","","-2.5","","76","","23","","6","","19.3","","99.42","","","","","","Cloudy"
"1998-02-19 21:00","1998","02","19","21:00","1.3","","-2.5","","76","","22","","6","","19.3","","99.39","","","","","","Cloudy"
"1998-02-19 22:00","1998","02","19","22:00","1.2","","-2.2","","78","","24","","4","","19.3","","99.39","","","","","","Cloudy"
"1998-02-19 23:00","1998","02","19","23:00","1.2","","-2.1","","79","","","","0","","12.9","","99.39","","","","","","Drizzle"
"1998-02-20 00:00","1998","02","20","00:00","0.9","","-2.0","","81","","24","","4","","8.0","","99.39","","","","","","Drizzle"
"1998-02-20 01:00","1998","02","20","01:00","0.5","","-1.8","","85","","22","","7","","0.6","","99.39","","","","","","Drizzle,Fog"
"1998-02-20 02:00","1998","02","20","02:00","0.6","","-2.0","","83","","23","","6","","0.8","","99.39","","","","","","Drizzle,Fog"
"1998-02-20 03:00","1998","02","20","03:00","0.5","","-2.0","","83","","24","","4","","0.8","","99.36","","","","","","Drizzle,Fog"
"1998-02-20 04:00","1998","02","20","04:00","0.5","","-1.9","","84","","22","","4","","0.6","","99.32","","","","","","Fog"
"1998-02-20 05:00","1998","02","20","05:00","0.5","","-1.9","","84","","23","","4","","0.6","","99.29","","","","","","Rain,Snow,Fog"
"1998-02-20 06:00","1998","02","20","06:00","0.5","","-1.8","","85","","25","","4","","0.4","","99.26","","","","","","Drizzle,Snow,Fog"
"1998-02-20 07:00","1998","02","20","07:00","0.7","","-1.9","","83","","25","","6","","0.2","","99.22","","","","","","Fog"
"1998-02-20 08:00","1998","02","20","08:00","0.7","","-1.7","","84","","24","","6","","0.2","","99.26","","","","","","Rain,Snow,Fog"
"1998-02-20 09:00","1998","02","20","09:00","0.9","","-1.6","","83","","26","","7","","1.6","","99.22","","","","","","Rain,Snow,Fog"
"1998-02-20 10:00","1998","02","20","10:00","0.8","","-1.4","","85","","29","","9","","4.0","","99.19","","","","","","Rain,Snow,Fog"
"1998-02-20 11:00","1998","02","20","11:00","1.0","","-1.2","","85","","29","","9","","8.0","","99.19","","","","","","Rain,Snow,Fog"
"1998-02-20 12:00","1998","02","20","12:00","1.7","","-0.5","","85","","29","","13","","12.9","","99.12","","","","","","Rain"
"1998-02-20 13:00","1998","02","20","13:00","1.9","","-0.3","","85","","29","","11","","16.1","","99.05","","","","","","Rain"
"1998-02-20 14:00","1998","02","20","14:00","2.4","","0.0","","84","","26","","9","","19.3","","98.99","","","","","","Cloudy"
"1998-02-20 15:00","1998","02","20","15:00","2.0","","-1.0","","80","","30","","13","","19.3","","98.99","","","","","","Rain,Snow"
"1998-02-20 16:00","1998","02","20","16:00","1.4","","-1.8","","79","","32","","15","","16.1","","98.99","","","","","","Rain,Snow"
"1998-02-20 17:00","1998","02","20","17:00","1.2","","-2.0","","79","","31","","9","","12.9","","98.99","","","","","","Rain,Snow"
"1998-02-20 18:00","1998","02","20","18:00","0.8","","-2.5","","79","","30","","11","","6.4","","99.02","","","","","","Snow"
"1998-02-20 19:00","1998","02","20","19:00","0.8","","-2.3","","80","","31","","9","","19.3","","99.02","","","","","","Snow"
"1998-02-20 20:00","1998","02","20","20:00","0.6","","-2.3","","81","","32","","13","","19.3","","99.02","","","","","","Snow"
"1998-02-20 21:00","1998","02","20","21:00","0.6","","-2.5","","80","","31","","13","","24.1","","99.05","","","","","","Cloudy"
"1998-02-20 22:00","1998","02","20","22:00","0.5","","-3.4","","75","","35","","20","","24.1","","99.05","","","","","","Cloudy"
"1998-02-20 23:00","1998","02","20","23:00","0.1","","-4.9","","69","","33","","28","","24.1","","99.05","","","","","","Snow"
"1998-02-21 00:00","1998","02","21","00:00","-0.2","","-5.4","","68","","32","","17","","24.1","","99.05","","","","-5","","Snow"
"1998-02-21 01:00","1998","02","21","01:00","-0.2","","-5.4","","68","","32","","17","","24.1","","99.05","","","","-5","","Cloudy"
"1998-02-21 02:00","1998","02","21","02:00","-0.5","","-5.6","","68","","30","","20","","24.1","","99.09","","","","-6","","Cloudy"
"1998-02-21 03:00","1998","02","21","03:00","-0.7","","-5.7","","69","","32","","24","","24.1","","99.09","","","","-7","","Cloudy"
"1998-02-21 04:00","1998","02","21","04:00","-0.8","","-5.5","","70","","32","","22","","24.1","","99.09","","","","-7","","Cloudy"
"1998-02-21 05:00","1998","02","21","05:00","-0.9","","-5.6","","70","","31","","19","","24.1","","99.15","","","","-6","","Cloudy"
"1998-02-21 06:00","1998","02","21","06:00","-0.9","","-5.9","","69","","31","","20","","24.1","","99.19","","","","-6","","Mostly Cloudy"
"1998-02-21 07:00","1998","02","21","07:00","-1.0","","-6.1","","68","","31","","24","","40.2","","99.26","","","","-7","","Mostly Cloudy"
"1998-02-21 08:00","1998","02","21","08:00","-0.9","","-5.9","","69","","31","","24","","40.2","","99.32","","","","-7","","Cloudy"
"1998-02-21 09:00","1998","02","21","09:00","-0.9","","-6.0","","68","","30","","20","","40.2","","99.39","","","","-6","","Mostly Cloudy"
"1998-02-21 10:00","1998","02","21","10:00","-0.7","","-6.0","","67","","31","","24","","40.2","","99.42","","","","-7","","Mostly Cloudy"
"1998-02-21 11:00","1998","02","21","11:00","-0.5","","-6.4","","64","","30","","28","","40.2","","99.46","","","","-7","","Mostly Cloudy"
"1998-02-21 12:00","1998","02","21","12:00","-0.1","","-6.2","","63","","30","","24","","40.2","","99.46","","","","-6","","Mostly Cloudy"
"1998-02-21 13:00","1998","02","21","13:00","0.6","","-5.8","","62","","30","","24","","40.2","","99.46","","","","","","Mostly Cloudy"
"1998-02-21 14:00","1998","02","21","14:00","1.3","","-5.5","","60","","30","","22","","40.2","","99.46","","","","","","Mainly Clear"
"1998-02-21 15:00","1998","02","21","15:00","1.9","","-5.6","","57","","29","","20","","40.2","","99.49","","","","","","Mainly Clear"
"1998-02-21 16:00","1998","02","21","16:00","1.6","","-5.8","","58","","29","","20","","40.2","","99.59","","","","","","Mainly Clear"
"1998-02-21 17:00","1998","02","21","17:00","1.9","","-5.5","","58","","30","","17","","40.2","","99.66","","","","","","Mainly Clear"
"1998-02-21 18:00","1998","02","21","18:00","1.2","","-6.0","","59","","31","","15","","40.2","","99.72","","","","","","Mainly Clear"
"1998-02-21 19:00","1998","02","21","19:00","0.1","","-6.3","","62","","30","","17","","25.0","","99.79","","","","","","Mainly Clear"
"1998-02-21 20:00","1998","02","21","20:00","-0.3","","-6.6","","62","","31","","11","","25.0","","99.86","","","","-4","","Clear"
"1998-02-21 21:00","1998","02","21","21:00","-0.9","","-7.4","","61","","30","","17","","25.0","","99.93","","","","-6","","Mainly Clear"
"1998-02-21 22:00","1998","02","21","22:00","-1.9","","-8.1","","63","","32","","11","","25.0","","99.99","","","","-6","","Clear"
"1998-02-21 23:00","1998","02","21","23:00","-3.0","","-8.7","","65","","35","","7","","25.0","","100.06","","","","-6","","Clear"
"1998-02-22 00:00","1998","02","22","00:00","-3.3","","-9.3","","63","","31","","13","","25.0","","100.09","","","","-8","","Clear"
"1998-02-22 01:00","1998","02","22","01:00","-3.8","","-9.5","","65","","30","","15","","25.0","","100.16","","","","-9","","Clear"
"1998-02-22 02:00","1998","02","22","02:00","-4.5","","-10.2","","64","","29","","11","","25.0","","100.23","","","","-9","","Clear"
"1998-02-22 03:00","1998","02","22","03:00","-5.2","","-10.4","","67","","28","","9","","25.0","","100.26","","","","-9","","Mainly Clear"
"1998-02-22 04:00","1998","02","22","04:00","-4.9","","-10.3","","66","","29","","9","","25.0","","100.29","","","","-9","","Mainly Clear"
"1998-02-22 05:00","1998","02","22","05:00","-5.5","","-11.2","","64","","30","","11","","25.0","","100.36","","","","-10","","Mainly Clear"
"1998-02-22 06:00","1998","02","22","06:00","-6.6","","-12.1","","65","","29","","9","","25.0","","100.43","","","","-11","","Mainly Clear"
"1998-02-22 07:00","1998","02","22","07:00","-7.6","","-12.6","","67","","27","","9","","40.2","","100.53","","","","-12","","Mainly Clear"
"1998-02-22 08:00","1998","02","22","08:00","-6.1","","-10.9","","69","","31","","11","","40.2","","100.63","","","","-11","","Mainly Clear"
"1998-02-22 09:00","1998","02","22","09:00","-4.2","","-9.3","","68","","27","","6","","40.2","","100.66","","","","-7","","Mainly Clear"
"1998-02-22 10:00","1998","02","22","10:00","-2.8","","-9.3","","61","","31","","6","","40.2","","100.66","","","","-5","","Mainly Clear"
"1998-02-22 11:00","1998","02","22","11:00","-1.6","","-8.8","","58","","","","0","","40.2","","100.70","","","","","","Mainly Clear"
"1998-02-22 12:00","1998","02","22","12:00","-0.6","","-8.7","","54","","24","","13","","40.2","","100.66","","","","-5","","Clear"
"1998-02-22 13:00","1998","02","22","13:00","0.3","","-9.0","","50","","25","","9","","40.2","","100.63","","","","","","Clear"
"1998-02-22 14:00","1998","02","22","14:00","1.4","","-8.5","","48","","26","","11","","40.2","","100.66","","","","","","Clear"
"1998-02-22 15:00","1998","02","22","15:00","1.8","","-8.5","","46","","24","","7","","40.2","","100.66","","","","","","Clear"
"1998-02-22 16:00","1998","02","22","16:00","2.6","","-7.9","","46","","","","0","","40.2","","100.60","","","","","","Clear"
"1998-02-22 17:00","1998","02","22","17:00","2.0","","-8.6","","45","","21","","4","","40.2","","100.60","","","","","","Clear"
"1998-02-22 18:00","1998","02","22","18:00","0.7","","-8.8","","49","","","","0","","40.2","","100.63","","","","","","Clear"
"1998-02-22 19:00","1998","02","22","19:00","0.2","","-9.0","","50","","","","0","","25.0","","100.63","","","","","","Clear"
"1998-02-22 20:00","1998","02","22","20:00","0.3","","-9.1","","49","","18","","6","","25.0","","100.70","","","","","","Mainly Clear"
"1998-02-22 21:00","1998","02","22","21:00","-0.7","","-9.7","","51","","16","","6","","25.0","","100.73","","","","-3","","Mainly Clear"
"1998-02-22 22:00","1998","02","22","22:00","-1.6","","-8.8","","58","","16","","7","","25.0","","100.70","","","","-4","","Clear"
"1998-02-22 23:00","1998","02","22","23:00","-2.4","","-8.4","","63","","18","","6","","25.0","","100.70","","","","-5","","Clear"
"1998-02-23 00:00","1998","02","23","00:00","-3.0","","-7.8","","69","","","","0","","25.0","","100.70","","","","","","Clear"
"1998-02-23 01:00","1998","02","23","01:00","-3.9","","-8.5","","70","","","","0","","25.0","","100.73","","","","","","Mainly Clear"
"1998-02-23 02:00","1998","02","23","02:00","-4.1","","-7.8","","75","","11","","6","","24.1","","100.63","","","","-7","","Mainly Clear"
"1998-02-23 03:00","1998","02","23","03:00","-5.5","","-8.3","","81","","","","0","","4.0","","100.70","","","","","","Fog"
"1998-02-23 04:00","1998","02","23","04:00","-5.7","","-9.4","","75","","5","","4","","16.1","","100.63","","","","-8","","Clear"
"1998-02-23 05:00","1998","02","23","05:00","-6.4","","-10.3","","74","","","","0","","16.1","","100.66","","","","","","Mostly Cloudy"
"1998-02-23 06:00","1998","02","23","06:00","-6.8","","-10.8","","73","","6","","6","","0.4","","100.70","","","","-10","","Fog"
"1998-02-23 07:00","1998","02","23","07:00","-7.2","","-11.4","","72","","5","","4","","0.2","","100.76","","","","-9","","Fog"
"1998-02-23 08:00","1998","02","23","08:00","-6.5","","-10.4","","74","","4","","7","","0.2","","100.73","","","","-10","","Fog"
"1998-02-23 09:00","1998","02","23","09:00","-5.5","","-9.0","","76","","4","","7","","0.6","","100.70","","","","-9","","Fog"
"1998-02-23 10:00","1998","02","23","10:00","-4.3","","-7.2","","80","","4","","11","","4.8","","100.63","","","","-9","","Fog"
"1998-02-23 11:00","1998","02","23","11:00","-2.7","","-5.4","","82","","9","","7","","12.9","","100.63","","","","-6","","Mostly Cloudy"
"1998-02-23 12:00","1998","02","23","12:00","-0.7","","-3.2","","83","","5","","11","","12.9","","100.53","","","","-4","","Mostly Cloudy"
"1998-02-23 13:00","1998","02","23","13:00","-0.1","","-4.7","","71","","2","","11","","32.2","","100.39","","","","-4","","Mostly Cloudy"
"1998-02-23 14:00","1998","02","23","14:00","1.9","","-5.4","","58","","5","","13","","40.2","","100.36","","","","","","Mostly Cloudy"
"1998-02-23 15:00","1998","02","23","15:00","2.0","","-6.4","","54","","5","","19","","40.2","","100.29","","","","","","Mostly Cloudy"
"1998-02-23 16:00","1998","02","23","16:00","1.4","","-6.7","","55","","4","","17","","32.2","","100.26","","","","","","Mostly Cloudy"
"1998-02-23 17:00","1998","02","23","17:00","1.2","","-6.9","","55","","8","","17","","40.2","","100.26","","","","","","Cloudy"
"1998-02-23 18:00","1998","02","23","18:00","0.4","","-6.5","","60","","4","","13","","40.2","","100.23","","","","","","Cloudy"
"1998-02-23 19:00","1998","02","23","19:00","0.2","","-6.6","","60","","5","","22","","25.0","","100.16","","","","","","Cloudy"
"1998-02-23 20:00","1998","02","23","20:00","-0.1","","-6.8","","61","","5","","19","","24.1","","100.09","","","","-5","","Mostly Cloudy"
"1998-02-23 21:00","1998","02","23","21:00","-0.5","","-7.1","","61","","5","","19","","24.1","","99.99","","","","-6","","Mostly Cloudy"
"1998-02-23 22:00","1998","02","23","22:00","-0.5","","-7.5","","59","","5","","20","","24.1","","99.96","","","","-6","","Mostly Cloudy"
"1998-02-23 23:00","1998","02","23","23:00","-0.6","","-8.0","","57","","6","","24","","25.0","","99.86","","","","-7","","Mainly Clear"
"1998-02-24 00:00","1998","02","24","00:00","-0.4","","-7.8","","57","","6","","17","","25.0","","99.86","","","","-5","","Mostly Cloudy"
"1998-02-24 01:00","1998","02","24","01:00","-0.1","","-7.4","","58","","7","","19","","25.0","","99.76","","","","-5","","Cloudy"
"1998-02-24 02:00","1998","02","24","02:00","0.1","","-7.1","","58","","6","","15","","25.0","","99.72","","","","","","Cloudy"
"1998-02-24 03:00","1998","02","24","03:00","0.4","","-6.8","","58","","7","","20","","25.0","","99.66","","","","","","Cloudy"
"1998-02-24 04:00","1998","02","24","04:00","0.4","","-6.9","","58","","6","","28","","25.0","","99.56","","","","","","Cloudy"
"1998-02-24 05:00","1998","02","24","05:00","0.4","","-7.0","","58","","7","","24","","25.0","","99.52","","","","","","Mostly Cloudy"
"1998-02-24 06:00","1998","02","24","06:00","0.1","","-7.5","","57","","6","","24","","25.0","","99.52","","","","","","Mostly Cloudy"
"1998-02-24 07:00","1998","02","24","07:00","-0.5","","-8.0","","57","","5","","17","","40.2","","99.56","","","","-5","","Mostly Cloudy"
"1998-02-24 08:00","1998","02","24","08:00","-0.6","","-7.4","","60","","4","","11","","40.2","","99.59","","","","-4","","Cloudy"
"1998-02-24 09:00","1998","02","24","09:00","0.8","","-6.7","","57","","5","","17","","40.2","","99.56","","","","","","Cloudy"
"1998-02-24 10:00","1998","02","24","10:00","1.4","","-7.0","","54","","6","","17","","40.2","","99.52","","","","","","Cloudy"
"1998-02-24 11:00","1998","02","24","11:00","2.1","","-6.6","","53","","6","","22","","40.2","","99.46","","","","","","Cloudy"
"1998-02-24 12:00","1998","02","24","12:00","2.4","","-6.3","","53","","5","","11","","40.2","","99.39","","","","","","Cloudy"
"1998-02-24 13:00","1998","02","24","13:00","2.7","","-6.3","","51","","3","","13","","40.2","","99.29","","","","","","Cloudy"
"1998-02-24 14:00","1998","02","24","14:00","3.4","","-6.1","","50","","3","","9","","40.2","","99.26","","","","","","Cloudy"
"1998-02-24 15:00","1998","02","24","15:00","4.0","","-6.0","","48","","","","0","","32.2","","99.22","","","","","","Cloudy"
"1998-02-24 16:00","1998","02","24","16:00","3.8","","-5.6","","50","","","","0","","32.2","","99.22","","","","","","Cloudy"
"1998-02-24 17:00","1998","02","24","17:00","3.6","","-5.5","","51","","31","","17","","32.2","","99.19","","","","","","Cloudy"
"1998-02-24 18:00","1998","02","24","18:00","2.1","","-5.6","","57","","32","","6","","25.0","","99.19","","","","","","Cloudy"
"1998-02-24 19:00","1998","02","24","19:00","2.9","","-5.1","","56","","3","","6","","25.0","","99.12","","","","","","Cloudy"
"1998-02-24 20:00","1998","02","24","20:00","3.3","","-4.7","","56","","35","","7","","25.0","","99.12","","","","","","Cloudy"
"1998-02-24 21:00","1998","02","24","21:00","2.4","","-5.6","","55","","9","","6","","25.0","","99.15","","","","","","Cloudy"
"1998-02-24 22:00","1998","02","24","22:00","1.4","","-4.5","","65","","5","","11","","6.4","","99.19","","","","","","Snow"
"1998-02-24 23:00","1998","02","24","23:00","0.2","","-3.8","","74","","31","","7","","2.8","","99.15","","","","","","Snow"
"1998-02-25 00:00","1998","02","25","00:00","0.3","","-3.3","","77","","31","","15","","4.8","","99.12","","","","","","Snow"
"1998-02-25 01:00","1998","02","25","01:00","0.2","","-3.1","","78","","31","","20","","6.4","","99.09","","","","","","Snow"
"1998-02-25 02:00","1998","02","25","02:00","0.4","","-2.7","","80","","31","","22","","6.4","","99.09","","","","","","Snow"
"1998-02-25 03:00","1998","02","25","03:00","1.0","","-2.0","","80","","31","","22","","11.3","","99.09","","","","","","Rain,Snow"
"1998-02-25 04:00","1998","02","25","04:00","1.1","","-1.8","","81","","31","","20","","8.0","","99.09","","","","","","Rain,Fog"
"1998-02-25 05:00","1998","02","25","05:00","1.0","","-2.1","","80","","32","","24","","9.7","","99.12","","","","","","Rain,Fog"
"1998-02-25 06:00","1998","02","25","06:00","1.2","","-2.1","","79","","32","","24","","6.4","","99.19","","","","","","Rain,Fog"
"1998-02-25 07:00","1998","02","25","07:00","1.2","","-2.0","","79","","31","","22","","6.4","","99.22","","","","","","Rain,Fog"
"1998-02-25 08:00","1998","02","25","08:00","1.9","","-1.9","","76","","32","","24","","32.2","","99.29","","","","","","Ice Pellets"
"1998-02-25 09:00","1998","02","25","09:00","3.0","","-4.0","","60","","32","","22","","32.2","","99.32","","","","","","Cloudy"
"1998-02-25 10:00","1998","02","25","10:00","4.1","","-4.1","","55","","33","","22","","32.2","","99.36","","","","","","Mostly Cloudy"
"1998-02-25 11:00","1998","02","25","11:00","5.4","","-3.9","","51","","32","","17","","32.2","","99.36","","","","","","Mostly Cloudy"
"1998-02-25 12:00","1998","02","25","12:00","5.7","","-4.0","","50","","33","","26","","32.2","","99.39","","","","","","Mostly Cloudy"
"1998-02-25 13:00","1998","02","25","13:00","6.9","","-5.4","","41","","33","","28","","32.2","","99.39","","","","","","Mostly Cloudy"
"1998-02-25 14:00","1998","02","25","14:00","7.8","","-5.7","","38","","34","","28","","32.2","","99.39","","","","","","Mostly Cloudy"
"1998-02-25 15:00","1998","02","25","15:00","7.7","","-5.4","","39","","35","","17","","32.2","","99.49","","","","","","Mostly Cloudy"
"1998-02-25 16:00","1998","02","25","16:00","7.0","","-5.5","","41","","32","","26","","32.2","","99.59","","","","","","Mostly Cloudy"
"1998-02-25 17:00","1998","02","25","17:00","7.1","","-5.0","","42","","34","","24","","32.2","","99.62","","","","","","Mostly Cloudy"
"1998-02-25 18:00","1998","02","25","18:00","6.5","","-4.4","","46","","33","","11","","32.2","","99.76","","","","","","Mainly Clear"
"1998-02-25 19:00","1998","02","25","19:00","5.6","","-5.7","","44","","32","","17","","25.0","","99.82","","","","","","Mainly Clear"
"1998-02-25 20:00","1998","02","25","20:00","5.8","","-4.6","","47","","32","","20","","24.1","","99.86","","","","","","Clear"
"1998-02-25 21:00","1998","02","25","21:00","4.7","","-4.2","","52","","32","","20","","24.1","","99.86","","","","","","Clear"
"1998-02-25 22:00","1998","02","25","22:00","4.1","","-4.2","","55","","31","","20","","25.0","","99.93","","","","","","Clear"
"1998-02-25 23:00","1998","02","25","23:00","3.6","","-4.5","","55","","30","","22","","25.0","","99.99","","","","","","Mainly Clear"
"1998-02-26 00:00","1998","02","26","00:00","2.9","","-4.9","","56","","29","","22","","25.0","","100.06","","","","","","Mainly Clear"
"1998-02-26 01:00","1998","02","26","01:00","1.8","","-5.2","","60","","29","","19","","25.0","","100.13","","","","","","Mainly Clear"
"1998-02-26 02:00","1998","02","26","02:00","1.9","","-4.8","","61","","31","","22","","25.0","","100.16","","","","","","Mainly Clear"
"1998-02-26 03:00","1998","02","26","03:00","1.0","","-5.5","","62","","32","","20","","25.0","","100.23","","","","","","Mainly Clear"
"1998-02-26 04:00","1998","02","26","04:00","0.5","","-5.9","","62","","32","","24","","25.0","","100.26","","","","","","Mainly Clear"
"1998-02-26 05:00","1998","02","26","05:00","0.0","","-6.3","","63","","32","","30","","25.0","","100.36","","","","-6","","Mainly Clear"
"1998-02-26 06:00","1998","02","26","06:00","-0.1","","-6.1","","64","","32","","26","","25.0","","100.43","","","","-6","","Mostly Cloudy"
"1998-02-26 07:00","1998","02","26","07:00","0.1","","-5.8","","64","","31","","19","","32.2","","100.46","","","","","","Mostly Cloudy"
"1998-02-26 08:00","1998","02","26","08:00","0.5","","-5.4","","65","","30","","19","","32.2","","100.49","","","","","","Mostly Cloudy"
"1998-02-26 09:00","1998","02","26","09:00","1.3","","-5.0","","63","","31","","20","","32.2","","100.46","","","","","","Mainly Clear"
"1998-02-26 10:00","1998","02","26","10:00","2.0","","-4.9","","60","","32","","22","","32.2","","100.43","","","","","","Mainly Clear"
"1998-02-26 11:00","1998","02","26","11:00","2.7","","-5.0","","57","","33","","26","","32.2","","100.53","","","","","","Mainly Clear"
"1998-02-26 12:00","1998","02","26","12:00","3.2","","-5.1","","54","","33","","28","","32.2","","100.46","","","","","","Mainly Clear"
"1998-02-26 13:00","1998","02","26","13:00","3.6","","-5.3","","52","","32","","30","","32.2","","100.36","","","","","","Mainly Clear"
"1998-02-26 14:00","1998","02","26","14:00","3.9","","-5.3","","51","","32","","24","","32.2","","100.29","","","","","","Mostly Cloudy"
"1998-02-26 15:00","1998","02","26","15:00","4.7","","-4.7","","50","","31","","20","","32.2","","100.26","","","","","","Mostly Cloudy"
"1998-02-26 16:00","1998","02","26","16:00","4.3","","-5.0","","51","","28","","19","","32.2","","100.29","","","","","","Mostly Cloudy"
"1998-02-26 17:00","1998","02","26","17:00","2.9","","-5.2","","55","","29","","19","","32.2","","100.33","","","","","","Mostly Cloudy"
"1998-02-26 18:00","1998","02","26","18:00","2.3","","-5.2","","58","","29","","19","","32.2","","100.39","","","","","","Mostly Cloudy"
"1998-02-26 19:00","1998","02","26","19:00","2.1","","-5.3","","58","","30","","13","","25.0","","100.36","","","","","","Mostly Cloudy"
"1998-02-26 20:00","1998","02","26","20:00","1.8","","-5.8","","57","","28","","17","","25.0","","100.36","","","","","","Mainly Clear"
"1998-02-26 21:00","1998","02","26","21:00","0.5","","-6.5","","59","","29","","15","","25.0","","100.29","","","","","","Mainly Clear"
"1998-02-26 22:00","1998","02","26","22:00","0.4","","-7.4","","56","","30","","19","","25.0","","100.29","","","","","","Mainly Clear"
"1998-02-26 23:00","1998","02","26","23:00","-0.2","","-8.3","","54","","30","","20","","25.0","","100.33","","","","-5","","Mainly Clear"
"1998-02-27 00:00","1998","02","27","00:00","-0.6","","-8.8","","54","","30","","24","","25.0","","100.33","","","","-7","","Clear"
"1998-02-27 01:00","1998","02","27","01:00","-1.4","","-9.3","","55","","30","","20","","25.0","","100.23","","","","-7","","Clear"
"1998-02-27 02:00","1998","02","27","02:00","-1.3","","-9.8","","52","","31","","22","","25.0","","100.13","","","","-7","","Clear"
"1998-02-27 03:00","1998","02","27","03:00","-1.4","","-10.4","","50","","31","","20","","25.0","","100.09","","","","-7","","Clear"
"1998-02-27 04:00","1998","02","27","04:00","-1.9","","-11.1","","49","","33","","15","","25.0","","100.09","","","","-7","","Clear"
"1998-02-27 05:00","1998","02","27","05:00","-2.7","","-11.4","","51","","31","","11","","25.0","","100.13","","","","-7","","Clear"
"1998-02-27 06:00","1998","02","27","06:00","-3.3","","-11.3","","54","","32","","13","","25.0","","100.16","","","","-8","","Mostly Cloudy"
"1998-02-27 07:00","1998","02","27","07:00","-3.8","","-11.5","","55","","30","","9","","32.2","","100.13","","","","-8","","Mostly Cloudy"
"1998-02-27 08:00","1998","02","27","08:00","-2.8","","-10.6","","55","","30","","9","","32.2","","100.13","","","","-6","","Mostly Cloudy"
"1998-02-27 09:00","1998","02","27","09:00","-1.4","","-10.3","","51","","35","","9","","32.2","","100.09","","","","-5","","Mostly Cloudy"
"1998-02-27 10:00","1998","02","27","10:00","-0.6","","-9.3","","52","","31","","6","","32.2","","100.06","","","","-3","","Mostly Cloudy"
"1998-02-27 11:00","1998","02","27","11:00","0.3","","-8.6","","51","","31","","4","","40.2","","100.03","","","","","","Mostly Cloudy"
"1998-02-27 12:00","1998","02","27","12:00","1.8","","-8.4","","47","","","","0","","40.2","","99.96","","","","","","Mostly Cloudy"
"1998-02-27 13:00","1998","02","27","13:00","2.7","","-7.7","","46","","19","","4","","40.2","","99.93","","","","","","Mostly Cloudy"
"1998-02-27 14:00","1998","02","27","14:00","4.1","","-7.5","","43","","","","0","","40.2","","99.86","","","","","","Mainly Clear"
"1998-02-27 15:00","1998","02","27","15:00","3.2","","-7.5","","45","","","","0","","40.2","","99.79","","","","","","Mostly Cloudy"
"1998-02-27 16:00","1998","02","27","16:00","3.2","","-6.7","","48","","11","","11","","40.2","","99.82","","","","","","Mostly Cloudy"
"1998-02-27 17:00","1998","02","27","17:00","2.6","","-6.6","","51","","6","","11","","40.2","","99.76","","","","","","Mainly Clear"
"1998-02-27 18:00","1998","02","27","18:00","1.5","","-6.0","","57","","4","","9","","40.2","","99.76","","","","","","Mainly Clear"
"1998-02-27 19:00","1998","02","27","19:00","1.2","","-6.8","","55","","5","","4","","25.0","","99.79","","","","","","Mostly Cloudy"
"1998-02-27 20:00","1998","02","27","20:00","0.5","","-6.8","","58","","6","","9","","25.0","","99.79","","","","","","Mostly Cloudy"
"1998-02-27 21:00","1998","02","27","21:00","-0.3","","-7.1","","60","","5","","13","","25.0","","99.79","","","","-4","","Mostly Cloudy"
"1998-02-27 22:00","1998","02","27","22:00","-0.9","","-7.1","","63","","3","","9","","25.0","","99.82","","","","-4","","Mostly Cloudy"
"1998-02-27 23:00","1998","02","27","23:00","-0.7","","-6.5","","65","","5","","13","","25.0","","99.79","","","","-5","","Mostly Cloudy"
"1998-02-28 00:00","1998","02","28","00:00","-0.7","","-6.5","","65","","4","","9","","25.0","","99.82","","","","-4","","Cloudy"
"1998-02-28 01:00","1998","02","28","01:00","-0.9","","-6.3","","67","","4","","19","","24.1","","99.79","","","","-6","","Cloudy"
"1998-02-28 02:00","1998","02","28","02:00","0.1","","-5.1","","68","","5","","17","","24.1","","99.79","","","","","","Mostly Cloudy"
"1998-02-28 03:00","1998","02","28","03:00","0.1","","-5.1","","68","","6","","22","","24.1","","99.82","","","","","","Mostly Cloudy"
"1998-02-28 04:00","1998","02","28","04:00","-0.8","","-5.8","","69","","4","","13","","24.1","","99.76","","","","-5","","Mostly Cloudy"
"1998-02-28 05:00","1998","02","28","05:00","-1.6","","-6.3","","70","","1","","9","","24.1","","99.82","","","","-5","","Mostly Cloudy"
"1998-02-28 06:00","1998","02","28","06:00","-1.4","","-5.8","","72","","5","","15","","25.0","","99.82","","","","-6","","Mostly Cloudy"
"1998-02-28 07:00","1998","02","28","07:00","-0.4","","-4.9","","72","","4","","13","","32.2","","99.89","","","","-5","","Mostly Cloudy"
"1998-02-28 08:00","1998","02","28","08:00","0.3","","-3.9","","73","","5","","15","","40.2","","99.89","","","","","","Mainly Clear"
"1998-02-28 09:00","1998","02","28","09:00","1.5","","-2.8","","73","","6","","19","","32.2","","99.93","","","","","","Mostly Cloudy"
"1998-02-28 10:00","1998","02","28","10:00","2.9","","-1.8","","71","","6","","19","","32.2","","99.93","","","","","","Mostly Cloudy"
"1998-02-28 11:00","1998","02","28","11:00","3.6","","-1.5","","69","","7","","17","","40.2","","99.89","","","","","","Mostly Cloudy"
"1998-02-28 12:00","1998","02","28","12:00","4.0","","-1.2","","69","","5","","6","","40.2","","99.93","","","","","","Mostly Cloudy"
"1998-02-28 13:00","1998","02","28","13:00","4.7","","-1.0","","67","","6","","11","","40.2","","99.86","","","","","","Mostly Cloudy"
"1998-02-28 14:00","1998","02","28","14:00","4.6","","-1.1","","66","","5","","13","","40.2","","99.89","","","","","","Cloudy"
"1998-02-28 15:00","1998","02","28","15:00","5.0","","-1.1","","65","","5","","7","","40.2","","99.89","","","","","","Cloudy"
"1998-02-28 16:00","1998","02","28","16:00","4.8","","-1.1","","66","","5","","17","","40.2","","99.82","","","","","","Mainly Clear"
"1998-02-28 17:00","1998","02","28","17:00","4.4","","-1.3","","66","","6","","7","","40.2","","99.79","","","","","","Mainly Clear"
"1998-02-28 18:00","1998","02","28","18:00","3.8","","-1.5","","68","","8","","6","","24.1","","99.82","","","","","","Mostly Cloudy"
"1998-02-28 19:00","1998","02","28","19:00","2.9","","-1.9","","71","","7","","15","","24.1","","99.72","","","","","","Mostly Cloudy"
"1998-02-28 20:00","1998","02","28","20:00","2.8","","-1.7","","72","","8","","11","","24.1","","99.72","","","","","","Cloudy"
"1998-02-28 21:00","1998","02","28","21:00","2.6","","-1.5","","74","","8","","7","","24.1","","99.76","","","","","","Cloudy"
"1998-02-28 22:00","1998","02","28","22:00","2.1","","-1.8","","75","","3","","15","","24.1","","99.69","","","","","","Cloudy"
"1998-02-28 23:00","1998","02","28","23:00","2.0","","-1.7","","76","","36","","11","","16.1","","99.59","","","","","","Rain"
