"Station Name","OTTAWA MACDONALD-CARTIER INT'L A"
"Province","ONTARIO"
"Latitude","45.32"
"Longitude","-75.67"
"Elevation","114.00"
"Climate Identifier","6106000"
"WMO Identifier","71628"
"TC Identifier","YOW"
"All times are specified in Local Standard Time (LST). Add 1 hour to adjust for Daylight Saving Time where and when it is observed."

"Legend"
"E","Estimated"
"M","Missing"
"NA","Not Available"

"Date/Time","Year","Month","Day","Time","Temp (°C)","Temp Flag","Dew Point Temp (°C)","Dew Point Temp Flag","Rel Hum (%)","Rel Hum Flag","Wind Dir (10s deg)","Wind Dir Flag","Wind Spd (km/h)","Wind Spd Flag","Visibility (km)","Visibility Flag","Stn Press (kPa)","Stn Press Flag","Hmdx","Hmdx Flag","Wind Chill","Wind Chill Flag","Weather"
"1996-03-01 00:00","1996","03","01","00:00","-10.0","","-17.2","","56","","23","","13","","25.0","","99.93","","","","-16","","Mostly Cloudy"
"1996-03-01 01:00","1996","03","01","01:00","-9.7","","-15.3","","64","","23","","17","","25.0","","99.93","","","","-17","","Cloudy"
"1996-03-01 02:00","1996","03","01","02:00","-9.5","","-14.8","","65","","22","","13","","25.0","","99.93","","","","-16","","Cloudy"
"1996-03-01 03:00","1996","03","01","03:00","-10.1","","-15.2","","66","","22","","17","","25.0","","99.93","","","","-17","","Mostly Cloudy"
"1996-03-01 04:00","1996","03","01","04:00","-10.3","","-15.4","","66","","20","","13","","25.0","","99.86","","","","-17","","Mainly Clear"
"1996-03-01 05:00","1996","03","01","05:00","-10.1","","-15.2","","66","","21","","6","","25.0","","99.82","","","","-14","","Mostly Cloudy"
"1996-03-01 06:00","1996","03","01","06:00","-9.3","","-14.7","","65","","","","0","","25.0","","99.82","","","","","","Mostly Cloudy"
"1996-03-01 07:00","1996","03","01","07:00","-8.8","","-14.0","","66","","20","","7","","24.1","","99.79","","","","-13","","Mostly Cloudy"
"1996-03-01 08:00","1996","03","01","08:00","-9.0","","-14.3","","65","","21","","13","","24.1","","99.82","","","","-15","","Mostly Cloudy"
"1996-03-01 09:00","1996","03","01","09:00","-7.9","","-13.4","","65","","21","","15","","24.1","","99.82","","","","-14","","Cloudy"
"1996-03-01 10:00","1996","03","01","10:00","-6.6","","-13.2","","59","","23","","19","","24.1","","99.79","","","","-13","","Mostly Cloudy"
"1996-03-01 11:00","1996","03","01","11:00","-5.2","","-13.5","","52","","22","","20","","24.1","","99.72","","","","-12","","Mostly Cloudy"
"1996-03-01 12:00","1996","03","01","12:00","-4.6","","-12.9","","52","","22","","30","","32.2","","99.69","","","","-12","","Mostly Cloudy"
"1996-03-01 13:00","1996","03","01","13:00","-3.7","","-12.8","","49","","23","","28","","32.2","","99.62","","","","-11","","Cloudy"
"1996-03-01 14:00","1996","03","01","14:00","-3.7","","-10.5","","59","","22","","28","","24.1","","99.62","","","","-11","","Snow Showers"
"1996-03-01 15:00","1996","03","01","15:00","-3.8","","-7.6","","75","","22","","20","","12.9","","99.66","","","","-10","","Mostly Cloudy"
"1996-03-01 16:00","1996","03","01","16:00","-3.6","","-9.3","","65","","22","","19","","12.9","","99.69","","","","-10","","Mostly Cloudy"
"1996-03-01 17:00","1996","03","01","17:00","-3.7","","-10.6","","59","","23","","20","","16.1","","99.69","","","","-10","","Mostly Cloudy"
"1996-03-01 18:00","1996","03","01","18:00","-3.8","","-10.7","","59","","21","","20","","19.3","","99.76","","","","-10","","Mostly Cloudy"
"1996-03-01 19:00","1996","03","01","19:00","-4.4","","-11.0","","60","","20","","15","","24.1","","99.82","","","","-10","","Mainly Clear"
"1996-03-01 20:00","1996","03","01","20:00","-5.1","","-11.6","","60","","21","","9","","24.1","","99.89","","","","-9","","Mainly Clear"
"1996-03-01 21:00","1996","03","01","21:00","-5.7","","-12.1","","61","","20","","11","","19.3","","99.89","","","","-10","","Mainly Clear"
"1996-03-01 22:00","1996","03","01","22:00","-6.5","","-12.4","","63","","16","","7","","19.3","","99.89","","","","-10","","Mainly Clear"
"1996-03-01 23:00","1996","03","01","23:00","-6.9","","-12.6","","64","","17","","7","","19.3","","99.89","","","","-10","","Mainly Clear"
"1996-03-02 00:00","1996","03","02","00:00","-8.0","","-12.7","","69","","15","","6","","16.1","","99.86","","","","-11","","Mainly Clear"
"1996-03-02 01:00","1996","03","02","01:00","-8.2","","-12.6","","71","","14","","9","","12.9","","99.82","","","","-13","","Mainly Clear"
"1996-03-02 02:00","1996","03","02","02:00","-7.9","","-12.8","","68","","13","","11","","16.1","","99.79","","","","-13","","Mainly Clear"
"1996-03-02 03:00","1996","03","02","03:00","-7.9","","-13.1","","66","","12","","11","","16.1","","99.72","","","","-13","","Mostly Cloudy"
"1996-03-02 04:00","1996","03","02","04:00","-8.6","","-13.6","","67","","8","","9","","19.3","","99.66","","","","-13","","Mainly Clear"
"1996-03-02 05:00","1996","03","02","05:00","-9.0","","-13.8","","68","","10","","13","","19.3","","99.62","","","","-15","","Mostly Cloudy"
"1996-03-02 06:00","1996","03","02","06:00","-9.2","","-14.2","","67","","10","","17","","19.3","","99.62","","","","-16","","Mostly Cloudy"
"1996-03-02 07:00","1996","03","02","07:00","-9.1","","-13.8","","69","","10","","15","","16.1","","99.52","","","","-16","","Mostly Cloudy"
"1996-03-02 08:00","1996","03","02","08:00","-7.4","","-13.2","","63","","9","","15","","19.3","","99.46","","","","-14","","Cloudy"
"1996-03-02 09:00","1996","03","02","09:00","-5.6","","-11.9","","61","","11","","15","","19.3","","99.39","","","","-11","","Cloudy"
"1996-03-02 10:00","1996","03","02","10:00","-2.4","","-10.5","","54","","13","","17","","19.3","","99.29","","","","-8","","Mostly Cloudy"
"1996-03-02 11:00","1996","03","02","11:00","0.0","","-8.8","","52","","14","","24","","19.3","","99.15","","","","-6","","Mostly Cloudy"
"1996-03-02 12:00","1996","03","02","12:00","2.3","","-8.1","","46","","16","","22","","19.3","","99.09","","","","","","Mainly Clear"
"1996-03-02 13:00","1996","03","02","13:00","2.9","","-8.4","","43","","18","","20","","24.1","","98.99","","","","","","Mainly Clear"
"1996-03-02 14:00","1996","03","02","14:00","3.8","","-7.8","","42","","18","","22","","24.1","","98.89","","","","","","Mostly Cloudy"
"1996-03-02 15:00","1996","03","02","15:00","2.8","","-7.8","","46","","18","","19","","24.1","","98.75","","","","","","Mostly Cloudy"
"1996-03-02 16:00","1996","03","02","16:00","3.3","","-7.3","","46","","19","","11","","19.3","","98.85","","","","","","Mostly Cloudy"
"1996-03-02 17:00","1996","03","02","17:00","2.3","","-6.3","","53","","17","","7","","19.3","","98.85","","","","","","Mostly Cloudy"
"1996-03-02 18:00","1996","03","02","18:00","2.2","","-6.0","","55","","21","","15","","19.3","","98.89","","","","","","Cloudy"
"1996-03-02 19:00","1996","03","02","19:00","1.5","","-5.2","","61","","19","","9","","19.3","","98.89","","","","","","Cloudy"
"1996-03-02 20:00","1996","03","02","20:00","0.7","","-5.5","","63","","16","","11","","19.3","","98.85","","","","","","Cloudy"
"1996-03-02 21:00","1996","03","02","21:00","-0.6","","-4.5","","75","","17","","11","","19.3","","98.85","","","","-4","","Cloudy"
"1996-03-02 22:00","1996","03","02","22:00","-0.8","","-4.5","","76","","18","","7","","19.3","","98.85","","","","-3","","Cloudy"
"1996-03-02 23:00","1996","03","02","23:00","-1.2","","-4.5","","78","","17","","9","","19.3","","98.82","","","","-4","","Cloudy"
"1996-03-03 00:00","1996","03","03","00:00","-1.9","","-4.7","","81","","17","","11","","19.3","","98.69","","","","-6","","Cloudy"
"1996-03-03 01:00","1996","03","03","01:00","-2.0","","-4.6","","82","","17","","9","","19.3","","98.62","","","","-5","","Cloudy"
"1996-03-03 02:00","1996","03","03","02:00","-2.1","","-4.5","","84","","18","","4","","19.3","","98.62","","","","-4","","Cloudy"
"1996-03-03 03:00","1996","03","03","03:00","-2.3","","-4.7","","84","","24","","11","","9.7","","98.62","","","","-6","","Snow Showers"
"1996-03-03 04:00","1996","03","03","04:00","-2.9","","-4.9","","86","","27","","11","","6.4","","98.52","","","","-7","","Snow Showers"
"1996-03-03 05:00","1996","03","03","05:00","-3.0","","-5.1","","85","","25","","11","","1.6","","98.52","","","","-7","","Snow Showers"
"1996-03-03 06:00","1996","03","03","06:00","-3.7","","-6.0","","84","","22","","11","","24.1","","98.55","","","","-8","","Snow Showers"
"1996-03-03 07:00","1996","03","03","07:00","-5.1","","-7.8","","81","","22","","22","","19.3","","98.62","","","","-12","","Snow"
"1996-03-03 08:00","1996","03","03","08:00","-6.4","","-11.7","","66","","23","","30","","24.1","","98.69","","","","-15","","Mainly Clear"
"1996-03-03 09:00","1996","03","03","09:00","-6.3","","-13.1","","59","","23","","28","","32.2","","98.79","","","","-14","","Mainly Clear"
"1996-03-03 10:00","1996","03","03","10:00","-6.1","","-14.0","","54","","23","","32","","32.2","","98.79","","","","-15","","Mainly Clear"
"1996-03-03 11:00","1996","03","03","11:00","-5.7","","-15.2","","47","","24","","33","","32.2","","98.82","","","","-14","","Mostly Cloudy"
"1996-03-03 12:00","1996","03","03","12:00","-5.6","","-12.8","","57","","23","","33","","24.1","","98.89","","","","-14","","Mostly Cloudy"
"1996-03-03 13:00","1996","03","03","13:00","-5.7","","-12.0","","61","","23","","26","","19.3","","98.89","","","","-13","","Mostly Cloudy"
"1996-03-03 14:00","1996","03","03","14:00","-6.6","","-9.1","","82","","30","","33","","0.6","","98.95","","","","-15","","Moderate Snow Showers"
"1996-03-03 15:00","1996","03","03","15:00","-6.7","","-11.3","","70","","30","","41","","19.3","","99.19","","","","-16","","Snow Showers"
"1996-03-03 16:00","1996","03","03","16:00","-7.2","","-14.7","","55","","29","","44","","32.2","","99.42","","","","-17","","Cloudy"
"1996-03-03 17:00","1996","03","03","17:00","-7.5","","-16.3","","49","","29","","41","","32.2","","99.59","","","","-18","","Mostly Cloudy"
"1996-03-03 18:00","1996","03","03","18:00","-7.9","","-17.1","","48","","30","","26","","32.2","","99.72","","","","-16","","Mainly Clear"
"1996-03-03 19:00","1996","03","03","19:00","-8.6","","-16.8","","52","","29","","28","","24.1","","99.96","","","","-17","","Mainly Clear"
"1996-03-03 20:00","1996","03","03","20:00","-8.8","","-17.1","","51","","29","","22","","25.0","","100.06","","","","-17","","Clear"
"1996-03-03 21:00","1996","03","03","21:00","-9.0","","-18.4","","46","","28","","22","","25.0","","100.19","","","","-17","","Clear"
"1996-03-03 22:00","1996","03","03","22:00","-9.7","","-17.3","","54","","28","","22","","25.0","","100.29","","","","-18","","Clear"
"1996-03-03 23:00","1996","03","03","23:00","-10.2","","-16.7","","59","","27","","22","","25.0","","100.39","","","","-18","","Clear"
"1996-03-04 00:00","1996","03","04","00:00","-11.0","","-17.5","","59","","27","","19","","25.0","","100.49","","","","-19","","Clear"
"1996-03-04 01:00","1996","03","04","01:00","-11.5","","-18.3","","57","","27","","17","","25.0","","100.56","","","","-19","","Clear"
"1996-03-04 02:00","1996","03","04","02:00","-11.8","","-19.0","","55","","27","","11","","25.0","","100.63","","","","-18","","Clear"
"1996-03-04 03:00","1996","03","04","03:00","-12.2","","-19.1","","56","","27","","7","","25.0","","100.70","","","","-17","","Clear"
"1996-03-04 04:00","1996","03","04","04:00","-13.7","","-19.5","","62","","24","","7","","25.0","","100.76","","","","-18","","Clear"
"1996-03-04 05:00","1996","03","04","05:00","-14.6","","-20.0","","63","","24","","6","","25.0","","100.83","","","","-19","","Clear"
"1996-03-04 06:00","1996","03","04","06:00","-14.8","","-20.1","","64","","23","","7","","25.0","","100.90","","","","-20","","Clear"
"1996-03-04 07:00","1996","03","04","07:00","-15.1","","-20.7","","62","","25","","11","","40.2","","100.90","","","","-22","","Mostly Cloudy"
"1996-03-04 08:00","1996","03","04","08:00","-13.9","","-19.8","","61","","25","","9","","40.2","","100.96","","","","-20","","Mainly Clear"
"1996-03-04 09:00","1996","03","04","09:00","-11.3","","-18.6","","55","","26","","15","","40.2","","101.00","","","","-18","","Mainly Clear"
"1996-03-04 10:00","1996","03","04","10:00","-10.4","","-18.0","","54","","28","","20","","40.2","","101.03","","","","-18","","Mainly Clear"
"1996-03-04 11:00","1996","03","04","11:00","-10.4","","-18.0","","54","","28","","20","","40.2","","101.03","","","","-18","","Mainly Clear"
"1996-03-04 12:00","1996","03","04","12:00","-9.5","","-18.4","","48","","29","","22","","40.2","","101.06","","","","-18","","Mostly Cloudy"
"1996-03-04 13:00","1996","03","04","13:00","-8.7","","-18.7","","44","","29","","26","","40.2","","101.03","","","","-17","","Mainly Clear"
"1996-03-04 14:00","1996","03","04","14:00","-7.8","","-18.2","","43","","29","","22","","40.2","","100.96","","","","-15","","Mostly Cloudy"
"1996-03-04 15:00","1996","03","04","15:00","-6.8","","-18.2","","40","","28","","19","","40.2","","100.96","","","","-14","","Mostly Cloudy"
"1996-03-04 16:00","1996","03","04","16:00","-6.8","","-17.2","","43","","28","","19","","40.2","","100.96","","","","-14","","Mostly Cloudy"
"1996-03-04 17:00","1996","03","04","17:00","-6.5","","-17.4","","42","","27","","17","","40.2","","101.00","","","","-13","","Mostly Cloudy"
"1996-03-04 18:00","1996","03","04","18:00","-6.9","","-17.6","","42","","28","","20","","40.2","","101.03","","","","-14","","Mostly Cloudy"
"1996-03-04 19:00","1996","03","04","19:00","-8.2","","-16.8","","50","","26","","7","","25.0","","101.06","","","","-12","","Mostly Cloudy"
"1996-03-04 20:00","1996","03","04","20:00","-8.1","","-15.8","","54","","25","","6","","24.1","","101.06","","","","-11","","Mainly Clear"
"1996-03-04 21:00","1996","03","04","21:00","-8.6","","-15.3","","58","","","","0","","24.1","","101.06","","","","","","Mainly Clear"
"1996-03-04 22:00","1996","03","04","22:00","-9.0","","-15.1","","61","","23","","4","","24.1","","101.06","","","","-11","","Mainly Clear"
"1996-03-04 23:00","1996","03","04","23:00","-8.4","","-13.4","","67","","23","","6","","19.3","","101.03","","","","-12","","Cloudy"
"1996-03-05 00:00","1996","03","05","00:00","-8.3","","-13.1","","68","","","","0","","19.3","","100.96","","","","","","Cloudy"
"1996-03-05 01:00","1996","03","05","01:00","-8.4","","-13.2","","68","","","","0","","19.3","","100.93","","","","","","Cloudy"
"1996-03-05 02:00","1996","03","05","02:00"
"1996-03-05 03:00","1996","03","05","03:00","-8.4","","-13.2","","68","","","","0","","19.3","","100.76","","","","","","Cloudy"
"1996-03-05 04:00","1996","03","05","04:00","-8.6","","-12.4","","74","","14","","4","","16.1","","100.73","","","","-11","","Snow"
"1996-03-05 05:00","1996","03","05","05:00","-8.6","","-11.5","","80","","11","","4","","16.1","","100.66","","","","-11","","Snow"
"1996-03-05 06:00","1996","03","05","06:00","-8.6","","-11.2","","81","","11","","4","","9.7","","100.49","","","","-11","","Snow"
"1996-03-05 07:00","1996","03","05","07:00","-8.4","","-11.0","","81","","8","","4","","6.4","","100.43","","","","-11","","Snow"
"1996-03-05 08:00","1996","03","05","08:00","-8.0","","-10.4","","83","","8","","7","","4.0","","100.33","","","","-12","","Snow"
"1996-03-05 09:00","1996","03","05","09:00","-7.9","","-10.6","","81","","7","","9","","4.0","","100.23","","","","-12","","Snow"
"1996-03-05 10:00","1996","03","05","10:00","-7.2","","-10.4","","78","","8","","13","","9.7","","100.16","","","","-13","","Snow"
"1996-03-05 11:00","1996","03","05","11:00","-6.6","","-10.2","","76","","8","","17","","19.3","","100.06","","","","-13","","Snow"
"1996-03-05 12:00","1996","03","05","12:00","-6.0","","-10.1","","73","","6","","11","","19.3","","99.99","","","","-11","","Snow"
"1996-03-05 13:00","1996","03","05","13:00","-5.0","","-9.7","","70","","7","","7","","19.3","","99.93","","","","-8","","Cloudy"
"1996-03-05 14:00","1996","03","05","14:00","-4.6","","-9.9","","66","","7","","6","","24.1","","99.93","","","","-7","","Cloudy"
"1996-03-05 15:00","1996","03","05","15:00","-4.3","","-10.2","","63","","8","","6","","24.1","","99.86","","","","-7","","Cloudy"
"1996-03-05 16:00","1996","03","05","16:00","-4.4","","-10.0","","65","","4","","7","","24.1","","99.86","","","","-8","","Cloudy"
"1996-03-05 17:00","1996","03","05","17:00","-4.4","","-10.5","","62","","6","","4","","24.1","","99.89","","","","-6","","Cloudy"
"1996-03-05 18:00","1996","03","05","18:00","-4.9","","-11.0","","62","","","","0","","24.1","","99.96","","","","","","Cloudy"
"1996-03-05 19:00","1996","03","05","19:00","-5.8","","-11.1","","66","","","","0","","24.1","","99.99","","","","","","Cloudy"
"1996-03-05 20:00","1996","03","05","20:00","-6.2","","-11.0","","69","","4","","4","","24.1","","99.96","","","","-8","","Mostly Cloudy"
"1996-03-05 21:00","1996","03","05","21:00","-7.1","","-11.3","","72","","4","","6","","19.3","","99.99","","","","-10","","Mostly Cloudy"
"1996-03-05 22:00","1996","03","05","22:00","-6.7","","-10.5","","74","","","","0","","19.3","","100.09","","","","","","Cloudy"
"1996-03-05 23:00","1996","03","05","23:00","-6.3","","-10.5","","72","","","","0","","24.1","","100.16","","","","","","Cloudy"
"1996-03-06 00:00","1996","03","06","00:00","-7.1","","-10.9","","74","","34","","6","","19.3","","100.13","","","","-10","","Mainly Clear"
"1996-03-06 01:00","1996","03","06","01:00","-7.2","","-11.2","","73","","36","","11","","16.1","","100.13","","","","-12","","Snow"
"1996-03-06 02:00","1996","03","06","02:00","-7.7","","-12.4","","69","","35","","19","","25.0","","100.19","","","","-15","","Mainly Clear"
"1996-03-06 03:00","1996","03","06","03:00","-8.9","","-13.9","","67","","35","","22","","25.0","","100.13","","","","-17","","Mostly Cloudy"
"1996-03-06 04:00","1996","03","06","04:00","-10.2","","-15.9","","63","","35","","20","","25.0","","100.16","","","","-18","","Mainly Clear"
"1996-03-06 05:00","1996","03","06","05:00","-11.1","","-16.9","","62","","34","","22","","25.0","","100.23","","","","-20","","Mostly Cloudy"
"1996-03-06 06:00","1996","03","06","06:00","-12.2","","-18.3","","60","","33","","19","","25.0","","100.36","","","","-20","","Snow"
"1996-03-06 07:00","1996","03","06","07:00","-13.4","","-20.0","","58","","34","","24","","40.2","","100.43","","","","-23","","Mainly Clear"
"1996-03-06 08:00","1996","03","06","08:00","-13.8","","-22.3","","49","","34","","19","","40.2","","100.53","","","","-22","","Mainly Clear"
"1996-03-06 09:00","1996","03","06","09:00","-12.7","","-21.4","","48","","34","","19","","32.2","","100.56","","","","-21","","Mostly Cloudy"
"1996-03-06 10:00","1996","03","06","10:00","-12.8","","-21.3","","49","","32","","17","","40.2","","100.63","","","","-21","","Cloudy"
"1996-03-06 11:00","1996","03","06","11:00","-12.5","","-22.0","","45","","32","","19","","40.2","","100.63","","","","-21","","Cloudy"
"1996-03-06 12:00","1996","03","06","12:00","-11.5","","-22.0","","41","","36","","20","","40.2","","100.56","","","","-20","","Mostly Cloudy"
"1996-03-06 13:00","1996","03","06","13:00","-11.6","","-21.6","","43","","36","","20","","40.2","","100.53","","","","-20","","Mostly Cloudy"
"1996-03-06 14:00","1996","03","06","14:00","-10.4","","-21.9","","38","","36","","20","","40.2","","100.49","","","","-18","","Mostly Cloudy"
"1996-03-06 15:00","1996","03","06","15:00","-11.0","","-23.0","","36","","33","","22","","40.2","","100.53","","","","-20","","Mostly Cloudy"
"1996-03-06 16:00","1996","03","06","16:00","-10.9","","-22.7","","37","","34","","19","","40.2","","100.49","","","","-19","","Mostly Cloudy"
"1996-03-06 17:00","1996","03","06","17:00","-10.7","","-22.5","","37","","33","","19","","40.2","","100.49","","","","-19","","Mostly Cloudy"
"1996-03-06 18:00","1996","03","06","18:00","-10.9","","-23.3","","35","","35","","19","","40.2","","100.56","","","","-19","","Cloudy"
"1996-03-06 19:00","1996","03","06","19:00","-11.4","","-23.9","","35","","34","","24","","24.1","","100.60","","","","-20","","Cloudy"
"1996-03-06 20:00","1996","03","06","20:00","-11.8","","-24.0","","36","","34","","20","","24.1","","100.63","","","","-20","","Cloudy"
"1996-03-06 21:00","1996","03","06","21:00","-11.9","","-24.4","","35","","1","","20","","24.1","","100.63","","","","-20","","Cloudy"
"1996-03-06 22:00","1996","03","06","22:00","-12.1","","-24.3","","35","","36","","20","","24.1","","100.63","","","","-21","","Cloudy"
"1996-03-06 23:00","1996","03","06","23:00","-12.4","","-24.1","","37","","1","","17","","24.1","","100.60","","","","-20","","Cloudy"
"1996-03-07 00:00","1996","03","07","00:00","-12.5","","-24.0","","38","","1","","17","","24.1","","100.63","","","","-20","","Cloudy"
"1996-03-07 01:00","1996","03","07","01:00","-13.0","","-23.5","","41","","1","","15","","19.3","","100.63","","","","-20","","Snow Showers"
"1996-03-07 02:00","1996","03","07","02:00","-13.9","","-21.1","","54","","10","","13","","4.8","","100.63","","","","-21","","Snow"
"1996-03-07 03:00","1996","03","07","03:00","-14.7","","-20.2","","63","","2","","15","","3.2","","100.63","","","","-23","","Snow"
"1996-03-07 04:00","1996","03","07","04:00","-14.9","","-20.3","","63","","2","","15","","8.0","","100.53","","","","-23","","Snow"
"1996-03-07 05:00","1996","03","07","05:00","-15.3","","-20.4","","65","","36","","13","","4.8","","100.60","","","","-23","","Snow"
"1996-03-07 06:00","1996","03","07","06:00","-15.3","","-20.7","","63","","35","","15","","9.7","","100.60","","","","-23","","Snow"
"1996-03-07 07:00","1996","03","07","07:00","-15.3","","-21.4","","60","","35","","13","","16.1","","100.66","","","","-23","","Snow"
"1996-03-07 08:00","1996","03","07","08:00","-15.1","","-23.5","","49","","36","","9","","40.2","","100.66","","","","-21","","Mainly Clear"
"1996-03-07 09:00","1996","03","07","09:00","-14.7","","-24.1","","45","","2","","11","","40.2","","100.70","","","","-21","","Mainly Clear"
"1996-03-07 10:00","1996","03","07","10:00","-13.6","","-22.6","","47","","1","","11","","40.2","","100.66","","","","-20","","Mostly Cloudy"
"1996-03-07 11:00","1996","03","07","11:00","-12.3","","-20.9","","49","","36","","13","","40.2","","100.63","","","","-19","","Mostly Cloudy"
"1996-03-07 12:00","1996","03","07","12:00","-11.3","","-20.9","","45","","3","","6","","32.2","","100.60","","","","-15","","Mostly Cloudy"
"1996-03-07 13:00","1996","03","07","13:00","-10.8","","-21.0","","43","","","","0","","40.2","","100.53","","","","","","Mostly Cloudy"
"1996-03-07 14:00","1996","03","07","14:00","-10.1","","-20.3","","43","","6","","7","","40.2","","100.43","","","","-14","","Mostly Cloudy"
"1996-03-07 15:00","1996","03","07","15:00","-9.1","","-20.0","","41","","2","","4","","40.2","","100.33","","","","-11","","Mostly Cloudy"
"1996-03-07 16:00","1996","03","07","16:00","-8.8","","-19.8","","41","","3","","9","","40.2","","100.33","","","","-13","","Mostly Cloudy"
"1996-03-07 17:00","1996","03","07","17:00","-8.7","","-19.4","","42","","4","","6","","40.2","","100.29","","","","-12","","Mostly Cloudy"
"1996-03-07 18:00","1996","03","07","18:00","-9.0","","-19.9","","41","","","","0","","40.2","","100.33","","","","","","Mostly Cloudy"
"1996-03-07 19:00","1996","03","07","19:00","-9.6","","-20.0","","42","","","","0","","24.1","","100.33","","","","","","Mostly Cloudy"
"1996-03-07 20:00","1996","03","07","20:00","-9.4","","-22.3","","34","","1","","7","","24.1","","100.33","","","","-13","","Mostly Cloudy"
"1996-03-07 21:00","1996","03","07","21:00","-10.6","","-20.4","","44","","","","0","","24.1","","100.33","","","","","","Mainly Clear"
"1996-03-07 22:00","1996","03","07","22:00","-11.3","","-21.0","","45","","34","","6","","24.1","","100.29","","","","-15","","Mostly Cloudy"
"1996-03-07 23:00","1996","03","07","23:00","-11.7","","-23.5","","37","","35","","15","","24.1","","100.16","","","","-19","","Mostly Cloudy"
"1996-03-08 00:00","1996","03","08","00:00","-12.2","","-23.6","","38","","36","","13","","24.1","","100.09","","","","-19","","Mainly Clear"
"1996-03-08 01:00","1996","03","08","01:00","-12.8","","-23.6","","40","","34","","11","","24.1","","100.09","","","","-19","","Mainly Clear"
"1996-03-08 02:00","1996","03","08","02:00","-13.2","","-23.7","","41","","35","","11","","24.1","","100.09","","","","-19","","Mainly Clear"
"1996-03-08 03:00","1996","03","08","03:00","-14.1","","-24.1","","42","","36","","20","","24.1","","99.89","","","","-23","","Mainly Clear"
"1996-03-08 04:00","1996","03","08","04:00","-14.5","","-24.2","","44","","35","","17","","24.1","","99.86","","","","-23","","Mostly Cloudy"
"1996-03-08 05:00","1996","03","08","05:00","-14.5","","-24.2","","44","","35","","20","","24.1","","99.89","","","","-24","","Cloudy"
"1996-03-08 06:00","1996","03","08","06:00","-15.1","","-24.6","","44","","36","","15","","32.2","","99.86","","","","-23","","Mostly Cloudy"
"1996-03-08 07:00","1996","03","08","07:00","-15.6","","-24.0","","49","","32","","13","","40.2","","99.86","","","","-23","","Cloudy"
"1996-03-08 08:00","1996","03","08","08:00","-15.4","","-23.9","","48","","34","","15","","40.2","","99.82","","","","-23","","Cloudy"
"1996-03-08 09:00","1996","03","08","09:00","-14.7","","-23.6","","47","","32","","13","","40.2","","99.76","","","","-22","","Cloudy"
"1996-03-08 10:00","1996","03","08","10:00","-14.4","","-23.8","","45","","32","","17","","40.2","","99.72","","","","-23","","Cloudy"
"1996-03-08 11:00","1996","03","08","11:00","-14.1","","-23.6","","44","","33","","17","","19.3","","99.69","","","","-22","","Snow"
"1996-03-08 12:00","1996","03","08","12:00","-13.5","","-23.3","","43","","33","","24","","16.1","","99.62","","","","-23","","Snow"
"1996-03-08 13:00","1996","03","08","13:00","-12.6","","-23.2","","41","","31","","22","","40.2","","99.52","","","","-22","","Cloudy"
"1996-03-08 14:00","1996","03","08","14:00","-12.3","","-23.4","","39","","31","","20","","40.2","","99.52","","","","-21","","Cloudy"
"1996-03-08 15:00","1996","03","08","15:00","-11.6","","-23.2","","38","","32","","22","","40.2","","99.52","","","","-20","","Cloudy"
"1996-03-08 16:00","1996","03","08","16:00","-10.7","","-22.2","","38","","31","","15","","40.2","","99.52","","","","-18","","Cloudy"
"1996-03-08 17:00","1996","03","08","17:00","-10.1","","-22.0","","37","","31","","20","","40.2","","99.59","","","","-18","","Cloudy"
"1996-03-08 18:00","1996","03","08","18:00","-10.0","","-21.8","","37","","32","","9","","32.2","","99.62","","","","-15","","Cloudy"
"1996-03-08 19:00","1996","03","08","19:00","-10.4","","-21.2","","41","","29","","17","","24.1","","99.72","","","","-18","","Cloudy"
"1996-03-08 20:00","1996","03","08","20:00","-10.5","","-21.7","","39","","29","","22","","24.1","","99.82","","","","-19","","Cloudy"
"1996-03-08 21:00","1996","03","08","21:00","-11.1","","-23.8","","34","","31","","24","","24.1","","99.89","","","","-20","","Mostly Cloudy"
"1996-03-08 22:00","1996","03","08","22:00","-11.8","","-25.2","","32","","32","","20","","24.1","","99.93","","","","-20","","Mostly Cloudy"
"1996-03-08 23:00","1996","03","08","23:00","-12.1","","-24.8","","34","","31","","22","","24.1","","99.99","","","","-21","","Mostly Cloudy"
"1996-03-09 00:00","1996","03","09","00:00","-12.5","","-24.7","","35","","31","","20","","24.1","","100.03","","","","-21","","Cloudy"
"1996-03-09 01:00","1996","03","09","01:00","-13.2","","-24.0","","40","","28","","19","","24.1","","100.09","","","","-22","","Mostly Cloudy"
"1996-03-09 02:00","1996","03","09","02:00","-13.5","","-24.3","","40","","23","","13","","24.1","","100.16","","","","-20","","Mostly Cloudy"
"1996-03-09 03:00","1996","03","09","03:00","-14.2","","-24.4","","42","","27","","17","","24.1","","100.19","","","","-22","","Mostly Cloudy"
"1996-03-09 04:00","1996","03","09","04:00","-14.7","","-24.6","","43","","26","","13","","24.1","","100.23","","","","-22","","Mainly Clear"
"1996-03-09 05:00","1996","03","09","05:00","-15.1","","-24.9","","43","","26","","13","","24.1","","100.36","","","","-22","","Mainly Clear"
"1996-03-09 06:00","1996","03","09","06:00","-15.6","","-24.5","","46","","28","","19","","32.2","","100.46","","","","-25","","Mainly Clear"
"1996-03-09 07:00","1996","03","09","07:00","-15.8","","-23.7","","51","","28","","20","","40.2","","100.60","","","","-25","","Mostly Cloudy"
"1996-03-09 08:00","1996","03","09","08:00","-15.5","","-22.1","","57","","29","","26","","40.2","","100.70","","","","-26","","Mostly Cloudy"
"1996-03-09 09:00","1996","03","09","09:00","-14.6","","-21.2","","57","","29","","22","","40.2","","100.73","","","","-24","","Mainly Clear"
"1996-03-09 10:00","1996","03","09","10:00","-13.3","","-20.6","","54","","29","","24","","40.2","","100.83","","","","-23","","Mainly Clear"
"1996-03-09 11:00","1996","03","09","11:00","-11.5","","-20.2","","49","","30","","24","","40.2","","100.80","","","","-21","","Mainly Clear"
"1996-03-09 12:00","1996","03","09","12:00","-10.7","","-20.3","","45","","29","","28","","40.2","","100.90","","","","-20","","Mainly Clear"
"1996-03-09 13:00","1996","03","09","13:00","-10.0","","-20.1","","43","","29","","26","","32.2","","100.90","","","","-19","","Mainly Clear"
"1996-03-09 14:00","1996","03","09","14:00","-9.0","","-19.8","","41","","29","","26","","32.2","","100.90","","","","-18","","Mainly Clear"
"1996-03-09 15:00","1996","03","09","15:00","-8.5","","-19.6","","40","","30","","28","","32.2","","101.03","","","","-17","","Mainly Clear"
"1996-03-09 16:00","1996","03","09","16:00","-7.4","","-19.0","","39","","29","","24","","32.2","","101.06","","","","-15","","Mainly Clear"
"1996-03-09 17:00","1996","03","09","17:00","-7.7","","-19.8","","37","","29","","28","","32.2","","101.16","","","","-16","","Mainly Clear"
"1996-03-09 18:00","1996","03","09","18:00","-7.9","","-19.3","","39","","28","","9","","24.1","","101.27","","","","-12","","Mainly Clear"
"1996-03-09 19:00","1996","03","09","19:00","-9.1","","-19.5","","43","","25","","6","","25.0","","101.37","","","","-12","","Clear"
"1996-03-09 20:00","1996","03","09","20:00","-9.5","","-19.6","","44","","25","","6","","25.0","","101.47","","","","-13","","Clear"
"1996-03-09 21:00","1996","03","09","21:00","-10.6","","-19.7","","47","","","","0","","25.0","","101.63","","","","","","Clear"
"1996-03-09 22:00","1996","03","09","22:00","-10.6","","-19.6","","48","","","","0","","25.0","","101.73","","","","","","Clear"
"1996-03-09 23:00","1996","03","09","23:00","-12.0","","-20.1","","51","","25","","9","","25.0","","101.83","","","","-17","","Clear"
"1996-03-10 00:00","1996","03","10","00:00","-11.4","","-20.4","","47","","24","","7","","25.0","","101.94","","","","-16","","Clear"
"1996-03-10 01:00","1996","03","10","01:00","-11.8","","-20.8","","47","","22","","9","","25.0","","102.00","","","","-17","","Clear"
"1996-03-10 02:00","1996","03","10","02:00","-12.1","","-20.7","","49","","24","","9","","25.0","","102.07","","","","-17","","Clear"
"1996-03-10 03:00","1996","03","10","03:00","-12.8","","-20.4","","53","","24","","6","","25.0","","102.10","","","","-17","","Clear"
"1996-03-10 04:00","1996","03","10","04:00","-11.9","","-19.7","","52","","20","","7","","25.0","","102.17","","","","-16","","Clear"
"1996-03-10 05:00","1996","03","10","05:00","-13.3","","-19.4","","60","","21","","7","","25.0","","102.30","","","","-18","","Clear"
"1996-03-10 06:00","1996","03","10","06:00","-13.0","","-18.0","","66","","21","","7","","25.0","","102.37","","","","-18","","Clear"
"1996-03-10 07:00","1996","03","10","07:00","-12.4","","-16.8","","70","","21","","7","","40.2","","102.47","","","","-17","","Clear"
"1996-03-10 08:00","1996","03","10","08:00","-10.7","","-12.9","","84","","22","","9","","40.2","","102.54","","","","-16","","Clear"
"1996-03-10 09:00","1996","03","10","09:00","-8.5","","-13.1","","69","","23","","7","","32.2","","102.64","","","","-12","","Clear"
"1996-03-10 10:00","1996","03","10","10:00","-5.4","","-11.3","","63","","23","","9","","32.2","","102.67","","","","-9","","Clear"
"1996-03-10 11:00","1996","03","10","11:00","-3.2","","-10.7","","56","","22","","7","","40.2","","102.64","","","","-6","","Clear"
"1996-03-10 12:00","1996","03","10","12:00","-2.0","","-10.2","","53","","23","","11","","40.2","","102.64","","","","-6","","Clear"
"1996-03-10 13:00","1996","03","10","13:00","-0.6","","-9.3","","52","","22","","19","","40.2","","102.54","","","","-6","","Clear"
"1996-03-10 14:00","1996","03","10","14:00","0.0","","-9.5","","49","","22","","20","","40.2","","102.54","","","","-5","","Clear"
"1996-03-10 15:00","1996","03","10","15:00","0.3","","-10.2","","45","","21","","22","","40.2","","102.50","","","","","","Mainly Clear"
"1996-03-10 16:00","1996","03","10","16:00","0.2","","-10.1","","46","","22","","20","","40.2","","102.47","","","","","","Mainly Clear"
"1996-03-10 17:00","1996","03","10","17:00","-0.4","","-10.5","","46","","21","","17","","40.2","","102.50","","","","-5","","Mostly Cloudy"
"1996-03-10 18:00","1996","03","10","18:00","-1.3","","-10.1","","51","","21","","19","","32.2","","102.50","","","","-7","","Mainly Clear"
"1996-03-10 19:00","1996","03","10","19:00","-2.3","","-10.2","","55","","21","","19","","25.0","","102.50","","","","-8","","Mostly Cloudy"
"1996-03-10 20:00","1996","03","10","20:00","-3.0","","-10.1","","58","","21","","19","","25.0","","102.50","","","","-9","","Mainly Clear"
"1996-03-10 21:00","1996","03","10","21:00","-3.9","","-10.1","","62","","21","","17","","25.0","","102.54","","","","-10","","Mainly Clear"
"1996-03-10 22:00","1996","03","10","22:00","-4.6","","-10.5","","63","","22","","17","","25.0","","102.57","","","","-10","","Mainly Clear"
"1996-03-10 23:00","1996","03","10","23:00","-5.5","","-11.1","","65","","20","","11","","25.0","","102.57","","","","-10","","Clear"
"1996-03-11 00:00","1996","03","11","00:00","-6.2","","-12.2","","62","","22","","7","","25.0","","102.57","","","","-10","","Mainly Clear"
"1996-03-11 01:00","1996","03","11","01:00","-5.9","","-12.3","","61","","23","","13","","25.0","","102.57","","","","-11","","Mainly Clear"
"1996-03-11 02:00","1996","03","11","02:00","-6.7","","-12.3","","64","","22","","7","","25.0","","102.57","","","","-10","","Mostly Cloudy"
"1996-03-11 03:00","1996","03","11","03:00","-7.1","","-12.1","","67","","22","","6","","25.0","","102.50","","","","-10","","Cloudy"
"1996-03-11 04:00","1996","03","11","04:00","-7.4","","-12.0","","70","","","","0","","25.0","","102.50","","","","","","Mostly Cloudy"
"1996-03-11 05:00","1996","03","11","05:00","-7.5","","-12.1","","70","","21","","7","","25.0","","102.50","","","","-11","","Mostly Cloudy"
"1996-03-11 06:00","1996","03","11","06:00","-7.3","","-12.1","","68","","22","","6","","25.0","","102.57","","","","-10","","Mainly Clear"
"1996-03-11 07:00","1996","03","11","07:00","-8.1","","-12.3","","72","","18","","7","","24.1","","102.57","","","","-12","","Mostly Cloudy"
"1996-03-11 08:00","1996","03","11","08:00","-7.6","","-12.2","","70","","20","","6","","24.1","","102.57","","","","-11","","Mainly Clear"
"1996-03-11 09:00","1996","03","11","09:00","-5.5","","-10.9","","66","","21","","9","","24.1","","102.54","","","","-10","","Mainly Clear"
"1996-03-11 10:00","1996","03","11","10:00","-2.3","","-9.4","","58","","21","","9","","24.1","","102.47","","","","-6","","Mainly Clear"
"1996-03-11 11:00","1996","03","11","11:00","-0.6","","-8.6","","55","","21","","9","","19.3","","102.40","","","","-4","","Mainly Clear"
"1996-03-11 12:00","1996","03","11","12:00","0.8","","-7.9","","52","","20","","9","","19.3","","102.34","","","","","","Mainly Clear"
"1996-03-11 13:00","1996","03","11","13:00","1.7","","-7.5","","50","","23","","13","","19.3","","102.20","","","","","","Clear"
"1996-03-11 14:00","1996","03","11","14:00","2.2","","-9.3","","42","","23","","15","","19.3","","102.10","","","","","","Mainly Clear"
"1996-03-11 15:00","1996","03","11","15:00","2.4","","-7.1","","49","","20","","13","","19.3","","102.00","","","","","","Mainly Clear"
"1996-03-11 16:00","1996","03","11","16:00","2.2","","-6.5","","53","","19","","17","","16.1","","101.97","","","","","","Clear"
"1996-03-11 17:00","1996","03","11","17:00","1.4","","-6.3","","56","","19","","17","","19.3","","101.94","","","","","","Clear"
"1996-03-11 18:00","1996","03","11","18:00","0.3","","-6.7","","59","","19","","13","","19.3","","101.87","","","","","","Mainly Clear"
"1996-03-11 19:00","1996","03","11","19:00","-0.5","","-7.0","","61","","19","","15","","19.3","","101.80","","","","-5","","Mainly Clear"
"1996-03-11 20:00","1996","03","11","20:00","-1.4","","-7.5","","63","","20","","13","","24.1","","101.73","","","","-6","","Clear"
"1996-03-11 21:00","1996","03","11","21:00","-2.0","","-7.9","","64","","20","","7","","19.3","","101.67","","","","-5","","Clear"
"1996-03-11 22:00","1996","03","11","22:00","-2.5","","-8.2","","65","","21","","9","","19.3","","101.67","","","","-6","","Mainly Clear"
"1996-03-11 23:00","1996","03","11","23:00","-3.2","","-8.5","","67","","22","","7","","19.3","","101.63","","","","-6","","Clear"
"1996-03-12 00:00","1996","03","12","00:00","-3.8","","-8.6","","69","","22","","7","","19.3","","101.60","","","","-7","","Clear"
"1996-03-12 01:00","1996","03","12","01:00","-4.1","","-8.9","","69","","20","","7","","19.3","","101.53","","","","-7","","Clear"
"1996-03-12 02:00","1996","03","12","02:00","-4.4","","-9.1","","70","","19","","7","","19.3","","101.47","","","","-8","","Clear"
"1996-03-12 03:00","1996","03","12","03:00","-5.0","","-9.4","","71","","20","","7","","19.3","","101.43","","","","-8","","Clear"
"1996-03-12 04:00","1996","03","12","04:00","-5.7","","-9.8","","73","","22","","7","","19.3","","101.40","","","","-9","","Clear"
"1996-03-12 05:00","1996","03","12","05:00","-6.0","","-9.9","","74","","21","","7","","19.3","","101.37","","","","-9","","Clear"
"1996-03-12 06:00","1996","03","12","06:00","-6.2","","-9.9","","75","","","","0","","19.3","","101.40","","","","","","Clear"
"1996-03-12 07:00","1996","03","12","07:00","-5.7","","-9.5","","75","","","","0","","16.1","","101.37","","","","","","Mainly Clear"
"1996-03-12 08:00","1996","03","12","08:00","-4.4","","-9.0","","70","","","","0","","12.9","","101.33","","","","","","Mainly Clear"
"1996-03-12 09:00","1996","03","12","09:00","-3.2","","-8.3","","68","","24","","4","","12.9","","101.27","","","","-5","","Mainly Clear"
"1996-03-12 10:00","1996","03","12","10:00","-0.6","","-7.2","","61","","","","0","","11.3","","101.23","","","","","","Mainly Clear"
"1996-03-12 11:00","1996","03","12","11:00","1.2","","-6.7","","56","","","","0","","12.9","","101.20","","","","","","Mainly Clear"
"1996-03-12 12:00","1996","03","12","12:00","2.4","","-6.4","","52","","22","","6","","16.1","","101.13","","","","","","Mainly Clear"
"1996-03-12 13:00","1996","03","12","13:00","3.6","","-7.1","","45","","21","","4","","19.3","","101.03","","","","","","Mainly Clear"
"1996-03-12 14:00","1996","03","12","14:00","4.7","","-7.1","","42","","","","0","","19.3","","100.96","","","","","","Mainly Clear"
"1996-03-12 15:00","1996","03","12","15:00","6.0","","-6.9","","39","","","","0","","24.1","","100.90","","","","","","Mainly Clear"
"1996-03-12 16:00","1996","03","12","16:00","6.0","","-8.1","","36","","","","0","","24.1","","100.83","","","","","","Mostly Cloudy"
"1996-03-12 17:00","1996","03","12","17:00","5.5","","-8.2","","37","","","","0","","24.1","","100.80","","","","","","Mainly Clear"
"1996-03-12 18:00","1996","03","12","18:00","4.8","","-7.5","","40","","","","0","","24.1","","100.73","","","","","","Mainly Clear"
"1996-03-12 19:00","1996","03","12","19:00","2.8","","-5.6","","54","","15","","6","","19.3","","100.73","","","","","","Mainly Clear"
"1996-03-12 20:00","1996","03","12","20:00","2.5","","-6.0","","53","","17","","6","","19.3","","100.73","","","","","","Mainly Clear"
"1996-03-12 21:00","1996","03","12","21:00","2.1","","-6.7","","52","","20","","6","","19.3","","100.73","","","","","","Mainly Clear"
"1996-03-12 22:00","1996","03","12","22:00","1.0","","-6.8","","56","","20","","7","","19.3","","100.70","","","","","","Mainly Clear"
"1996-03-12 23:00","1996","03","12","23:00","0.3","","-6.6","","60","","20","","6","","19.3","","100.70","","","","","","Mainly Clear"
"1996-03-13 00:00","1996","03","13","00:00","-0.3","","-6.4","","63","","20","","7","","19.3","","100.66","","","","-3","","Mainly Clear"
"1996-03-13 01:00","1996","03","13","01:00","-0.6","","-6.2","","66","","20","","6","","19.3","","100.63","","","","-3","","Mainly Clear"
"1996-03-13 02:00","1996","03","13","02:00","-1.5","","-6.5","","69","","21","","6","","19.3","","100.63","","","","-4","","Mainly Clear"
"1996-03-13 03:00","1996","03","13","03:00","-1.6","","-6.6","","69","","21","","6","","19.3","","100.60","","","","-4","","Mainly Clear"
"1996-03-13 04:00","1996","03","13","04:00","-1.6","","-6.6","","69","","20","","6","","19.3","","100.56","","","","-4","","Mostly Cloudy"
"1996-03-13 05:00","1996","03","13","05:00","-2.0","","-6.5","","71","","22","","4","","16.1","","100.56","","","","-3","","Mostly Cloudy"
"1996-03-13 06:00","1996","03","13","06:00","-2.1","","-6.4","","72","","22","","4","","12.9","","100.60","","","","-4","","Mostly Cloudy"
"1996-03-13 07:00","1996","03","13","07:00","-2.0","","-6.3","","72","","","","0","","12.9","","100.63","","","","","","Mostly Cloudy"
"1996-03-13 08:00","1996","03","13","08:00","-1.5","","-5.8","","72","","","","0","","12.9","","100.63","","","","","","Mostly Cloudy"
"1996-03-13 09:00","1996","03","13","09:00","-0.4","","-5.3","","69","","","","0","","9.7","","100.60","","","","","","Haze"
"1996-03-13 10:00","1996","03","13","10:00","1.2","","-5.1","","63","","","","0","","9.7","","100.60","","","","","","Haze"
"1996-03-13 11:00","1996","03","13","11:00","3.3","","-4.6","","56","","22","","4","","12.9","","100.53","","","","","","Mostly Cloudy"
"1996-03-13 12:00","1996","03","13","12:00","4.6","","-4.3","","52","","18","","4","","12.9","","100.46","","","","","","Mostly Cloudy"
"1996-03-13 13:00","1996","03","13","13:00","6.1","","-4.1","","48","","17","","4","","14.5","","100.39","","","","","","Cloudy"
"1996-03-13 14:00","1996","03","13","14:00","7.5","","-4.3","","43","","18","","6","","16.1","","100.29","","","","","","Cloudy"
"1996-03-13 15:00","1996","03","13","15:00","8.2","","-4.8","","39","","20","","7","","16.1","","100.23","","","","","","Mostly Cloudy"
"1996-03-13 16:00","1996","03","13","16:00","7.9","","-4.6","","41","","18","","7","","16.1","","100.23","","","","","","Cloudy"
"1996-03-13 17:00","1996","03","13","17:00","7.5","","-4.3","","43","","17","","7","","16.1","","100.19","","","","","","Mostly Cloudy"
"1996-03-13 18:00","1996","03","13","18:00","6.2","","-4.2","","47","","18","","9","","12.9","","100.19","","","","","","Mostly Cloudy"
"1996-03-13 19:00","1996","03","13","19:00","4.7","","-4.6","","51","","18","","7","","12.9","","100.23","","","","","","Mostly Cloudy"
"1996-03-13 20:00","1996","03","13","20:00","3.6","","-6.4","","48","","20","","13","","12.9","","100.19","","","","","","Mostly Cloudy"
"1996-03-13 21:00","1996","03","13","21:00","2.9","","-6.4","","50","","19","","13","","11.3","","100.13","","","","","","Cloudy"
"1996-03-13 22:00","1996","03","13","22:00","2.3","","-6.4","","53","","19","","9","","12.9","","100.09","","","","","","Cloudy"
"1996-03-13 23:00","1996","03","13","23:00","2.3","","-6.6","","52","","19","","7","","16.1","","100.03","","","","","","Cloudy"
"1996-03-14 00:00","1996","03","14","00:00","2.1","","-6.4","","53","","20","","9","","19.3","","100.03","","","","","","Cloudy"
"1996-03-14 01:00","1996","03","14","01:00","2.1","","-6.7","","52","","20","","7","","19.3","","99.99","","","","","","Cloudy"
"1996-03-14 02:00","1996","03","14","02:00","1.8","","-7.5","","50","","19","","6","","24.1","","99.96","","","","","","Cloudy"
"1996-03-14 03:00","1996","03","14","03:00","1.4","","-7.4","","52","","20","","4","","24.1","","99.89","","","","","","Mostly Cloudy"
"1996-03-14 04:00","1996","03","14","04:00","1.8","","-8.1","","48","","18","","6","","19.3","","99.82","","","","","","Cloudy"
"1996-03-14 05:00","1996","03","14","05:00","1.3","","-8.3","","49","","18","","6","","19.3","","99.79","","","","","","Mostly Cloudy"
"1996-03-14 06:00","1996","03","14","06:00","0.9","","-8.5","","49","","17","","4","","16.1","","99.76","","","","","","Mostly Cloudy"
"1996-03-14 07:00","1996","03","14","07:00","1.2","","-8.2","","49","","20","","9","","16.1","","99.72","","","","","","Mainly Clear"
"1996-03-14 08:00","1996","03","14","08:00","2.1","","-6.9","","51","","23","","6","","14.5","","99.69","","","","","","Mostly Cloudy"
"1996-03-14 09:00","1996","03","14","09:00","4.3","","-6.0","","47","","21","","6","","16.1","","99.62","","","","","","Mostly Cloudy"
"1996-03-14 10:00","1996","03","14","10:00","7.1","","-7.0","","36","","19","","9","","19.3","","99.52","","","","","","Mostly Cloudy"
"1996-03-14 11:00","1996","03","14","11:00","8.5","","-5.8","","36","","20","","13","","19.3","","99.46","","","","","","Mostly Cloudy"
"1996-03-14 12:00","1996","03","14","12:00","10.3","","-3.9","","37","","21","","9","","24.1","","99.39","","","","","","Mostly Cloudy"
"1996-03-14 13:00","1996","03","14","13:00","10.7","","-3.8","","36","","19","","4","","24.1","","99.26","","","","","","Mostly Cloudy"
"1996-03-14 14:00","1996","03","14","14:00","10.3","","-3.0","","39","","20","","11","","24.1","","99.15","","","","","","Cloudy"
"1996-03-14 15:00","1996","03","14","15:00","9.0","","-3.0","","43","","20","","15","","24.1","","99.09","","","","","","Rain Showers"
"1996-03-14 16:00","1996","03","14","16:00","8.5","","-2.7","","45","","19","","13","","24.1","","99.02","","","","","","Mostly Cloudy"
"1996-03-14 17:00","1996","03","14","17:00","8.2","","-3.3","","44","","20","","13","","24.1","","99.02","","","","","","Cloudy"
"1996-03-14 18:00","1996","03","14","18:00","7.9","","-3.3","","45","","20","","13","","24.1","","98.95","","","","","","Mostly Cloudy"
"1996-03-14 19:00","1996","03","14","19:00","7.1","","-2.4","","51","","22","","15","","24.1","","98.95","","","","","","Cloudy"
"1996-03-14 20:00","1996","03","14","20:00","5.5","","0.1","","68","","24","","9","","16.1","","98.99","","","","","","Rain Showers"
"1996-03-14 21:00","1996","03","14","21:00","4.5","","0.1","","73","","25","","13","","19.3","","98.99","","","","","","Cloudy"
"1996-03-14 22:00","1996","03","14","22:00","5.7","","0.6","","70","","28","","13","","19.3","","99.05","","","","","","Cloudy"
"1996-03-14 23:00","1996","03","14","23:00","4.6","","0.3","","74","","28","","17","","19.3","","99.09","","","","","","Cloudy"
"1996-03-15 00:00","1996","03","15","00:00","3.3","","-1.1","","73","","29","","17","","16.1","","99.15","","","","","","Cloudy"
"1996-03-15 01:00","1996","03","15","01:00","1.2","","-4.2","","67","","34","","22","","19.3","","99.19","","","","","","Cloudy"
"1996-03-15 02:00","1996","03","15","02:00","-0.6","","-6.2","","66","","34","","22","","19.3","","99.26","","","","-6","","Cloudy"
"1996-03-15 03:00","1996","03","15","03:00","-2.0","","-7.6","","65","","34","","22","","19.3","","99.29","","","","-8","","Cloudy"
"1996-03-15 04:00","1996","03","15","04:00","-3.8","","-9.6","","64","","35","","20","","19.3","","99.36","","","","-10","","Mainly Clear"
"1996-03-15 05:00","1996","03","15","05:00","-4.7","","-10.5","","64","","34","","20","","24.1","","99.32","","","","-11","","Mainly Clear"
"1996-03-15 06:00","1996","03","15","06:00","-4.7","","-10.3","","65","","33","","13","","19.3","","99.29","","","","-10","","Mostly Cloudy"
"1996-03-15 07:00","1996","03","15","07:00","-4.6","","-10.2","","65","","33","","13","","24.1","","99.32","","","","-10","","Mostly Cloudy"
"1996-03-15 08:00","1996","03","15","08:00","-4.7","","-10.2","","65","","32","","17","","32.2","","99.36","","","","-11","","Mostly Cloudy"
"1996-03-15 09:00","1996","03","15","09:00","-4.4","","-10.4","","63","","33","","17","","32.2","","99.29","","","","-10","","Mostly Cloudy"
"1996-03-15 10:00","1996","03","15","10:00","-4.5","","-10.4","","63","","34","","15","","32.2","","99.26","","","","-10","","Mostly Cloudy"
"1996-03-15 11:00","1996","03","15","11:00","-4.4","","-11.6","","57","","32","","15","","32.2","","99.26","","","","-10","","Mostly Cloudy"
"1996-03-15 12:00","1996","03","15","12:00","-4.0","","-12.0","","54","","32","","9","","32.2","","99.26","","","","-8","","Mostly Cloudy"
"1996-03-15 13:00","1996","03","15","13:00","-3.9","","-12.4","","52","","34","","15","","32.2","","99.15","","","","-9","","Mostly Cloudy"
"1996-03-15 14:00","1996","03","15","14:00","-3.2","","-12.3","","49","","32","","13","","32.2","","99.09","","","","-8","","Mostly Cloudy"
"1996-03-15 15:00","1996","03","15","15:00","-3.2","","-12.3","","49","","31","","19","","32.2","","99.05","","","","-9","","Mostly Cloudy"
"1996-03-15 16:00","1996","03","15","16:00","-3.6","","-12.7","","49","","31","","15","","32.2","","99.05","","","","-9","","Mostly Cloudy"
"1996-03-15 17:00","1996","03","15","17:00","-3.9","","-13.0","","49","","33","","17","","32.2","","99.09","","","","-10","","Cloudy"
"1996-03-15 18:00","1996","03","15","18:00","-3.8","","-13.4","","47","","36","","13","","32.2","","99.15","","","","-9","","Mostly Cloudy"
"1996-03-15 19:00","1996","03","15","19:00","-4.1","","-13.1","","50","","32","","9","","25.0","","99.26","","","","-8","","Mostly Cloudy"
"1996-03-15 20:00","1996","03","15","20:00","-4.4","","-13.1","","51","","31","","11","","25.0","","99.29","","","","-9","","Mostly Cloudy"
"1996-03-15 21:00","1996","03","15","21:00","-4.5","","-13.5","","49","","32","","15","","25.0","","99.36","","","","-10","","Mostly Cloudy"
"1996-03-15 22:00","1996","03","15","22:00","-4.4","","-13.9","","47","","32","","17","","25.0","","99.39","","","","-10","","Mostly Cloudy"
"1996-03-15 23:00","1996","03","15","23:00","-4.8","","-14.0","","49","","33","","15","","25.0","","99.46","","","","-10","","Mainly Clear"
"1996-03-16 00:00","1996","03","16","00:00","-5.4","","-14.1","","50","","33","","19","","25.0","","99.46","","","","-12","","Cloudy"
"1996-03-16 01:00","1996","03","16","01:00","-6.0","","-14.6","","51","","34","","24","","25.0","","99.52","","","","-13","","Mainly Clear"
"1996-03-16 02:00","1996","03","16","02:00","-7.0","","-15.7","","50","","34","","20","","25.0","","99.59","","","","-14","","Mainly Clear"
"1996-03-16 03:00","1996","03","16","03:00","-7.9","","-16.0","","52","","32","","15","","25.0","","99.66","","","","-14","","Clear"
"1996-03-16 04:00","1996","03","16","04:00","-8.7","","-16.5","","53","","33","","20","","25.0","","99.72","","","","-16","","Clear"
"1996-03-16 05:00","1996","03","16","05:00","-9.3","","-17.1","","53","","32","","19","","25.0","","99.82","","","","-17","","Clear"
"1996-03-16 06:00","1996","03","16","06:00","-9.9","","-17.3","","55","","31","","19","","40.2","","99.89","","","","-18","","Mainly Clear"
"1996-03-16 07:00","1996","03","16","07:00","-10.1","","-17.2","","56","","31","","20","","40.2","","99.99","","","","-18","","Clear"
"1996-03-16 08:00","1996","03","16","08:00","-9.4","","-17.2","","53","","31","","22","","40.2","","100.09","","","","-17","","Clear"
"1996-03-16 09:00","1996","03","16","09:00","-8.6","","-16.9","","51","","32","","19","","40.2","","100.16","","","","-16","","Clear"
"1996-03-16 10:00","1996","03","16","10:00","-7.3","","-16.2","","49","","31","","19","","40.2","","100.19","","","","-14","","Clear"
"1996-03-16 11:00","1996","03","16","11:00","-5.4","","-16.1","","43","","30","","22","","40.2","","100.23","","","","-12","","Clear"
"1996-03-16 12:00","1996","03","16","12:00","-4.1","","-16.6","","37","","32","","20","","40.2","","100.19","","","","-10","","Clear"
"1996-03-16 13:00","1996","03","16","13:00","-2.3","","-15.3","","36","","32","","20","","40.2","","100.16","","","","-8","","Clear"
"1996-03-16 14:00","1996","03","16","14:00","-1.3","","-16.2","","31","","30","","19","","40.2","","100.13","","","","-7","","Clear"
"1996-03-16 15:00","1996","03","16","15:00","-0.3","","-16.2","","29","","32","","22","","40.2","","100.13","","","","-6","","Clear"
"1996-03-16 16:00","1996","03","16","16:00","0.2","","-17.0","","26","","34","","19","","40.2","","100.13","","","","","","Clear"
"1996-03-16 17:00","1996","03","16","17:00","0.4","","-16.9","","26","","33","","15","","40.2","","100.19","","","","","","Clear"
"1996-03-16 18:00","1996","03","16","18:00","0.0","","-17.1","","26","","27","","7","","40.2","","100.23","","","","-2","","Clear"
"1996-03-16 19:00","1996","03","16","19:00","-1.2","","-13.6","","38","","27","","7","","25.0","","100.23","","","","-4","","Clear"
"1996-03-16 20:00","1996","03","16","20:00","-2.0","","-13.8","","40","","28","","7","","25.0","","100.26","","","","-5","","Clear"
"1996-03-16 21:00","1996","03","16","21:00","-2.7","","-14.1","","41","","27","","11","","25.0","","100.29","","","","-7","","Clear"
"1996-03-16 22:00","1996","03","16","22:00","-2.5","","-15.8","","35","","29","","7","","25.0","","100.29","","","","-5","","Clear"
"1996-03-16 23:00","1996","03","16","23:00","-3.2","","-16.6","","35","","32","","11","","25.0","","100.29","","","","-7","","Clear"
"1996-03-17 00:00","1996","03","17","00:00","-3.7","","-17.0","","35","","29","","7","","25.0","","100.29","","","","-7","","Clear"
"1996-03-17 01:00","1996","03","17","01:00","-4.3","","-17.9","","34","","32","","7","","25.0","","100.23","","","","-7","","Clear"
"1996-03-17 02:00","1996","03","17","02:00","-4.8","","-17.8","","35","","30","","7","","24.1","","100.23","","","","-8","","Clear"
"1996-03-17 03:00","1996","03","17","03:00","-5.8","","-17.9","","38","","29","","4","","24.1","","100.23","","","","-8","","Clear"
"1996-03-17 04:00","1996","03","17","04:00","-6.1","","-18.9","","36","","29","","4","","24.1","","100.19","","","","-8","","Clear"
"1996-03-17 05:00","1996","03","17","05:00","-6.8","","-18.8","","38","","28","","6","","24.1","","100.19","","","","-10","","Clear"
"1996-03-17 06:00","1996","03","17","06:00","-7.4","","-19.3","","38","","33","","9","","24.1","","100.19","","","","-12","","Clear"
"1996-03-17 07:00","1996","03","17","07:00","-7.6","","-16.9","","47","","28","","7","","40.2","","100.23","","","","-11","","Clear"
"1996-03-17 08:00","1996","03","17","08:00","-5.7","","-18.4","","36","","29","","7","","40.2","","100.26","","","","-9","","Clear"
"1996-03-17 09:00","1996","03","17","09:00","-4.7","","-18.0","","35","","28","","7","","40.2","","100.29","","","","-8","","Clear"
"1996-03-17 10:00","1996","03","17","10:00","-2.9","","-17.3","","32","","29","","7","","40.2","","100.19","","","","-6","","Clear"
"1996-03-17 11:00","1996","03","17","11:00","-2.3","","-16.5","","33","","29","","6","","40.2","","100.13","","","","-5","","Clear"
"1996-03-17 12:00","1996","03","17","12:00","-0.9","","-15.6","","32","","30","","9","","40.2","","100.03","","","","-4","","Clear"
"1996-03-17 13:00","1996","03","17","13:00","0.7","","-14.2","","32","","28","","6","","40.2","","99.93","","","","","","Clear"
"1996-03-17 14:00","1996","03","17","14:00","2.4","","-14.3","","28","","","","0","","40.2","","99.82","","","","","","Clear"
"1996-03-17 15:00","1996","03","17","15:00","3.4","","-15.0","","25","","28","","6","","40.2","","99.72","","","","","","Clear"
"1996-03-17 16:00","1996","03","17","16:00","4.3","","-14.8","","23","","25","","11","","40.2","","99.72","","","","","","Clear"
"1996-03-17 17:00","1996","03","17","17:00","3.5","","-10.5","","35","","25","","15","","40.2","","99.72","","","","","","Clear"
"1996-03-17 18:00","1996","03","17","18:00","3.0","","-12.0","","32","","29","","11","","40.2","","99.72","","","","","","Clear"
"1996-03-17 19:00","1996","03","17","19:00","2.0","","-12.9","","32","","28","","9","","25.0","","99.69","","","","","","Clear"
"1996-03-17 20:00","1996","03","17","20:00","0.5","","-12.9","","36","","25","","6","","25.0","","99.72","","","","","","Clear"
"1996-03-17 21:00","1996","03","17","21:00","-0.7","","-12.2","","41","","26","","7","","25.0","","99.72","","","","-3","","Clear"
"1996-03-17 22:00","1996","03","17","22:00","-0.5","","-12.8","","39","","26","","4","","25.0","","99.72","","","","-2","","Clear"
"1996-03-17 23:00","1996","03","17","23:00","-1.2","","-12.8","","41","","30","","7","","25.0","","99.69","","","","-4","","Clear"
"1996-03-18 00:00","1996","03","18","00:00","-1.4","","-12.7","","42","","","","0","","25.0","","99.69","","","","","","Clear"
"1996-03-18 01:00","1996","03","18","01:00","-2.7","","-13.3","","44","","","","0","","25.0","","99.69","","","","","","Clear"
"1996-03-18 02:00","1996","03","18","02:00","-2.5","","-13.7","","42","","30","","4","","25.0","","99.69","","","","-4","","Clear"
"1996-03-18 03:00","1996","03","18","03:00","-2.5","","-14.0","","41","","28","","4","","25.0","","99.69","","","","-4","","Clear"
"1996-03-18 04:00","1996","03","18","04:00","-2.9","","-14.8","","39","","30","","7","","25.0","","99.66","","","","-6","","Clear"
"1996-03-18 05:00","1996","03","18","05:00","-4.1","","-14.0","","46","","29","","7","","25.0","","99.69","","","","-7","","Clear"
"1996-03-18 06:00","1996","03","18","06:00","-4.7","","-14.2","","47","","28","","4","","24.1","","99.76","","","","-6","","Mainly Clear"
"1996-03-18 07:00","1996","03","18","07:00","-4.7","","-13.5","","50","","30","","7","","40.2","","99.79","","","","-8","","Mostly Cloudy"
"1996-03-18 08:00","1996","03","18","08:00","-3.4","","-14.6","","42","","32","","6","","40.2","","99.76","","","","-6","","Mainly Clear"
"1996-03-18 09:00","1996","03","18","09:00","-0.8","","-14.4","","35","","34","","7","","40.2","","99.79","","","","-3","","Mainly Clear"
"1996-03-18 10:00","1996","03","18","10:00","1.3","","-13.2","","33","","","","0","","40.2","","99.79","","","","","","Mainly Clear"
"1996-03-18 11:00","1996","03","18","11:00","2.6","","-14.3","","28","","31","","7","","40.2","","99.72","","","","","","Mainly Clear"
"1996-03-18 12:00","1996","03","18","12:00","3.9","","-14.1","","25","","25","","11","","40.2","","99.72","","","","","","Mainly Clear"
"1996-03-18 13:00","1996","03","18","13:00","5.6","","-13.9","","23","","25","","13","","40.2","","99.69","","","","","","Mainly Clear"
"1996-03-18 14:00","1996","03","18","14:00","6.5","","-14.5","","21","","22","","9","","40.2","","99.62","","","","","","Mainly Clear"
"1996-03-18 15:00","1996","03","18","15:00","7.3","","-12.6","","23","","25","","6","","40.2","","99.62","","","","","","Mainly Clear"
"1996-03-18 16:00","1996","03","18","16:00","8.1","","-12.9","","21","","","","0","","40.2","","99.62","","","","","","Clear"
"1996-03-18 17:00","1996","03","18","17:00","7.6","","-14.3","","19","","","","0","","40.2","","99.62","","","","","","Mainly Clear"
"1996-03-18 18:00","1996","03","18","18:00","6.5","","-13.8","","22","","","","0","","40.2","","99.62","","","","","","Mostly Cloudy"
"1996-03-18 19:00","1996","03","18","19:00","5.4","","-13.3","","25","","","","0","","25.0","","99.66","","","","","","Mainly Clear"
"1996-03-18 20:00","1996","03","18","20:00","4.0","","-12.6","","29","","14","","4","","25.0","","99.72","","","","","","Mainly Clear"
"1996-03-18 21:00","1996","03","18","21:00","4.2","","-11.0","","32","","","","0","","25.0","","99.72","","","","","","Mainly Clear"
"1996-03-18 22:00","1996","03","18","22:00","3.3","","-10.6","","35","","20","","4","","25.0","","99.72","","","","","","Mainly Clear"
"1996-03-18 23:00","1996","03","18","23:00","2.1","","-10.6","","38","","23","","7","","25.0","","99.72","","","","","","Mainly Clear"
"1996-03-19 00:00","1996","03","19","00:00","2.1","","-10.6","","38","","23","","7","","25.0","","99.72","","","","","","Mainly Clear"
"1996-03-19 01:00","1996","03","19","01:00","0.7","","-10.9","","41","","","","0","","25.0","","99.72","","","","","","Mainly Clear"
"1996-03-19 02:00","1996","03","19","02:00","-0.6","","-10.1","","49","","","","0","","25.0","","99.72","","","","","","Mainly Clear"
"1996-03-19 03:00","1996","03","19","03:00","-1.0","","-10.9","","47","","","","0","","25.0","","99.72","","","","","","Mainly Clear"
"1996-03-19 04:00","1996","03","19","04:00","-1.2","","-11.4","","46","","","","0","","25.0","","99.82","","","","","","Mainly Clear"
"1996-03-19 05:00","1996","03","19","05:00","-2.8","","-10.5","","55","","","","0","","25.0","","99.82","","","","","","Mainly Clear"
"1996-03-19 06:00","1996","03","19","06:00","-2.3","","-9.2","","59","","35","","7","","32.2","","99.89","","","","-5","","Mainly Clear"
"1996-03-19 07:00","1996","03","19","07:00","-2.3","","-8.8","","61","","6","","7","","19.3","","99.93","","","","-5","","Mainly Clear"
"1996-03-19 08:00","1996","03","19","08:00","-0.5","","-8.6","","54","","6","","7","","19.3","","99.99","","","","-3","","Mainly Clear"
"1996-03-19 09:00","1996","03","19","09:00","1.5","","-8.3","","48","","3","","7","","19.3","","99.99","","","","","","Mainly Clear"
"1996-03-19 10:00","1996","03","19","10:00","3.3","","-7.6","","45","","5","","11","","24.1","","99.99","","","","","","Mostly Cloudy"
"1996-03-19 11:00","1996","03","19","11:00","5.1","","-6.7","","42","","5","","9","","32.2","","99.99","","","","","","Mainly Clear"
"1996-03-19 12:00","1996","03","19","12:00","7.1","","-7.2","","35","","3","","17","","32.2","","99.93","","","","","","Mainly Clear"
"1996-03-19 13:00","1996","03","19","13:00","8.8","","-7.3","","31","","7","","22","","40.2","","99.82","","","","","","Mostly Cloudy"
"1996-03-19 14:00","1996","03","19","14:00","9.2","","-9.2","","26","","6","","26","","40.2","","99.79","","","","","","Mostly Cloudy"
"1996-03-19 15:00","1996","03","19","15:00","9.4","","-11.8","","21","","6","","32","","40.2","","99.72","","","","","","Mostly Cloudy"
"1996-03-19 16:00","1996","03","19","16:00","9.6","","-11.2","","22","","6","","26","","40.2","","99.66","","","","","","Mostly Cloudy"
"1996-03-19 17:00","1996","03","19","17:00","8.4","","-11.5","","23","","6","","26","","40.2","","99.66","","","","","","Mostly Cloudy"
"1996-03-19 18:00","1996","03","19","18:00","7.5","","-11.5","","25","","6","","22","","40.2","","99.62","","","","","","Mainly Clear"
"1996-03-19 19:00","1996","03","19","19:00","6.4","","-12.4","","25","","5","","28","","24.1","","99.59","","","","","","Mainly Clear"
"1996-03-19 20:00","1996","03","19","20:00","5.4","","-11.2","","29","","4","","22","","24.1","","99.52","","","","","","Mainly Clear"
"1996-03-19 21:00","1996","03","19","21:00","4.5","","-10.7","","32","","4","","22","","24.1","","99.49","","","","","","Mostly Cloudy"
"1996-03-19 22:00","1996","03","19","22:00","4.7","","-10.4","","32","","4","","24","","24.1","","99.39","","","","","","Mainly Clear"
"1996-03-19 23:00","1996","03","19","23:00","4.2","","-9.4","","36","","4","","28","","24.1","","99.22","","","","","","Mostly Cloudy"
"1996-03-20 00:00","1996","03","20","00:00","4.8","","-10.6","","32","","5","","30","","24.1","","99.15","","","","","","Mainly Clear"
"1996-03-20 01:00","1996","03","20","01:00","4.8","","-10.0","","33","","5","","37","","24.1","","99.05","","","","","","Mainly Clear"
"1996-03-20 02:00","1996","03","20","02:00","5.0","","-9.0","","36","","5","","46","","24.1","","98.89","","","","","","Mainly Clear"
"1996-03-20 03:00","1996","03","20","03:00","5.2","","-9.2","","34","","5","","39","","24.1","","98.79","","","","","","Mostly Cloudy"
"1996-03-20 04:00","1996","03","20","04:00","4.2","","-7.1","","44","","5","","28","","12.9","","98.79","","","","","","Ice Pellets"
"1996-03-20 05:00","1996","03","20","05:00","3.6","","-5.5","","51","","5","","33","","16.1","","98.69","","","","","","Rain"
"1996-03-20 06:00","1996","03","20","06:00","3.1","","-4.1","","59","","4","","32","","6.4","","98.79","","","","","","Rain,Snow"
"1996-03-20 07:00","1996","03","20","07:00","0.6","","-2.6","","79","","3","","32","","2.8","","98.82","","","","","","Snow"
"1996-03-20 08:00","1996","03","20","08:00","0.7","","-1.9","","83","","3","","26","","16.1","","98.75","","","","","","Snow"
"1996-03-20 09:00","1996","03","20","09:00","0.4","","-2.1","","83","","5","","32","","2.8","","98.72","","","","","","Snow"
"1996-03-20 10:00","1996","03","20","10:00","0.7","","-1.9","","83","","4","","30","","2.8","","98.69","","","","","","Snow"
"1996-03-20 11:00","1996","03","20","11:00","0.3","","-2.6","","81","","5","","33","","2.8","","98.65","","","","","","Snow,Ice Pellets"
"1996-03-20 12:00","1996","03","20","12:00","0.3","","-2.3","","83","","5","","32","","4.8","","98.62","","","","","","Snow,Ice Pellets"
"1996-03-20 13:00","1996","03","20","13:00","0.3","","-2.3","","83","","5","","32","","4.8","","98.59","","","","","","Snow"
"1996-03-20 14:00","1996","03","20","14:00","0.5","","-2.2","","82","","5","","33","","19.3","","98.55","","","","","","Snow"
"1996-03-20 15:00","1996","03","20","15:00","1.0","","-2.5","","77","","5","","28","","9.7","","98.55","","","","","","Snow"
"1996-03-20 16:00","1996","03","20","16:00","0.9","","-2.5","","78","","5","","26","","4.0","","98.55","","","","","","Snow"
"1996-03-20 17:00","1996","03","20","17:00","0.3","","-2.4","","82","","4","","19","","2.4","","98.55","","","","","","Snow"
"1996-03-20 18:00","1996","03","20","18:00","0.0","","-2.3","","84","","3","","15","","2.0","","98.59","","","","-4","","Snow"
"1996-03-20 19:00","1996","03","20","19:00","-0.2","","-2.4","","85","","3","","19","","9.7","","98.55","","","","-5","","Snow"
"1996-03-20 20:00","1996","03","20","20:00","-0.2","","-2.4","","85","","3","","15","","8.0","","98.55","","","","-5","","Snow"
"1996-03-20 21:00","1996","03","20","21:00","-0.4","","-2.6","","85","","2","","17","","2.4","","98.55","","","","-5","","Snow"
"1996-03-20 22:00","1996","03","20","22:00","-1.0","","-3.0","","86","","2","","15","","3.6","","98.52","","","","-6","","Snow"
"1996-03-20 23:00","1996","03","20","23:00","-0.4","","-2.5","","86","","2","","15","","6.4","","98.49","","","","-5","","Snow"
"1996-03-21 00:00","1996","03","21","00:00","-0.4","","-2.4","","86","","2","","13","","6.4","","98.49","","","","-5","","Snow"
"1996-03-21 01:00","1996","03","21","01:00","-0.4","","-2.4","","86","","1","","13","","6.4","","98.45","","","","-5","","Snow"
"1996-03-21 02:00","1996","03","21","02:00","-0.3","","-2.2","","87","","35","","11","","9.7","","98.45","","","","-4","","Snow"
"1996-03-21 03:00","1996","03","21","03:00","-0.4","","-2.2","","88","","36","","11","","3.2","","98.38","","","","-4","","Snow"
"1996-03-21 04:00","1996","03","21","04:00","-1.0","","-2.4","","90","","1","","11","","4.0","","98.38","","","","-5","","Snow"
"1996-03-21 05:00","1996","03","21","05:00","-0.8","","-2.6","","88","","36","","11","","8.0","","98.38","","","","-5","","Snow"
"1996-03-21 06:00","1996","03","21","06:00","-0.8","","-2.8","","86","","1","","11","","8.0","","98.38","","","","-5","","Snow"
"1996-03-21 07:00","1996","03","21","07:00","-0.8","","-2.8","","86","","35","","13","","8.0","","98.38","","","","-5","","Snow"
"1996-03-21 08:00","1996","03","21","08:00","-0.6","","-3.0","","84","","36","","17","","4.8","","98.38","","","","-6","","Snow"
"1996-03-21 09:00","1996","03","21","09:00","-0.1","","-2.8","","82","","36","","15","","8.0","","98.38","","","","-5","","Snow"
"1996-03-21 10:00","1996","03","21","10:00","0.5","","-2.5","","80","","1","","13","","24.1","","98.38","","","","","","Cloudy"
"1996-03-21 11:00","1996","03","21","11:00","1.1","","-1.9","","80","","36","","11","","24.1","","98.38","","","","","","Cloudy"
"1996-03-21 12:00","1996","03","21","12:00","1.3","","-1.8","","80","","34","","11","","16.1","","98.38","","","","","","Snow"
"1996-03-21 13:00","1996","03","21","13:00","1.4","","-1.5","","81","","33","","13","","11.3","","98.38","","","","","","Snow"
"1996-03-21 14:00","1996","03","21","14:00","1.4","","-1.4","","82","","32","","11","","9.7","","98.38","","","","","","Snow"
"1996-03-21 15:00","1996","03","21","15:00","1.9","","-1.0","","81","","30","","9","","19.3","","98.38","","","","","","Rain,Snow"
"1996-03-21 16:00","1996","03","21","16:00","1.5","","-0.9","","84","","29","","9","","16.1","","98.38","","","","","","Rain,Snow"
"1996-03-21 17:00","1996","03","21","17:00","1.4","","-1.0","","84","","29","","13","","12.9","","98.45","","","","","","Snow"
"1996-03-21 18:00","1996","03","21","18:00","0.8","","-1.3","","86","","30","","17","","11.3","","98.49","","","","","","Rain,Snow"
"1996-03-21 19:00","1996","03","21","19:00","0.4","","-1.7","","86","","29","","13","","6.4","","98.52","","","","","","Snow"
"1996-03-21 20:00","1996","03","21","20:00","0.0","","-2.0","","86","","29","","19","","9.7","","98.55","","","","-5","","Snow"
"1996-03-21 21:00","1996","03","21","21:00","-0.4","","-2.4","","86","","30","","20","","12.9","","98.55","","","","-6","","Snow"
"1996-03-21 22:00","1996","03","21","22:00","-0.9","","-3.1","","85","","29","","19","","9.7","","98.55","","","","-6","","Snow"
"1996-03-21 23:00","1996","03","21","23:00","-1.5","","-3.8","","84","","29","","17","","9.7","","98.55","","","","-7","","Snow"
"1996-03-22 00:00","1996","03","22","00:00","-2.3","","-4.6","","84","","28","","19","","8.0","","98.59","","","","-8","","Snow"
"1996-03-22 01:00","1996","03","22","01:00","-2.9","","-5.4","","83","","28","","19","","4.8","","98.59","","","","-9","","Snow"
"1996-03-22 02:00","1996","03","22","02:00","-3.5","","-6.1","","82","","28","","20","","4.0","","98.59","","","","-10","","Snow"
"1996-03-22 03:00","1996","03","22","03:00","-4.0","","-6.5","","83","","28","","22","","6.4","","98.55","","","","-11","","Snow"
"1996-03-22 04:00","1996","03","22","04:00","-4.8","","-7.9","","79","","27","","22","","12.9","","98.55","","","","-12","","Snow"
"1996-03-22 05:00","1996","03","22","05:00","-5.4","","-8.6","","78","","27","","22","","12.9","","98.59","","","","-12","","Snow"
"1996-03-22 06:00","1996","03","22","06:00","-6.1","","-9.3","","78","","27","","20","","16.1","","98.65","","","","-13","","Snow"
"1996-03-22 07:00","1996","03","22","07:00","-6.6","","-10.3","","75","","28","","24","","12.9","","98.69","","","","-14","","Snow"
"1996-03-22 08:00","1996","03","22","08:00","-6.4","","-10.3","","74","","27","","24","","12.9","","98.65","","","","-14","","Snow"
"1996-03-22 09:00","1996","03","22","09:00","-6.2","","-10.0","","74","","27","","19","","9.7","","98.69","","","","-13","","Snow"
"1996-03-22 10:00","1996","03","22","10:00","-5.3","","-9.7","","71","","26","","17","","32.2","","98.65","","","","-11","","Snow"
"1996-03-22 11:00","1996","03","22","11:00","-5.3","","-9.2","","74","","25","","20","","32.2","","98.69","","","","-12","","Snow Showers"
"1996-03-22 12:00","1996","03","22","12:00","-4.3","","-9.7","","66","","26","","17","","32.2","","98.65","","","","-10","","Snow Showers"
"1996-03-22 13:00","1996","03","22","13:00","-3.2","","-8.7","","66","","27","","17","","32.2","","98.65","","","","-9","","Snow Showers"
"1996-03-22 14:00","1996","03","22","14:00"
"1996-03-22 15:00","1996","03","22","15:00","-2.9","","-7.9","","68","","26","","17","","6.4","","98.65","","","","-8","","Snow Showers"
"1996-03-22 16:00","1996","03","22","16:00","-2.6","","-8.0","","66","","26","","13","","24.1","","98.69","","","","-7","","Snow Showers"
"1996-03-22 17:00","1996","03","22","17:00","-3.3","","-7.6","","72","","29","","13","","2.4","","98.72","","","","-8","","Snow Showers"
"1996-03-22 18:00","1996","03","22","18:00","-3.9","","-7.4","","77","","30","","9","","4.0","","98.79","","","","-8","","Snow Showers"
"1996-03-22 19:00","1996","03","22","19:00","-4.0","","-7.6","","76","","30","","11","","4.8","","98.79","","","","-8","","Snow"
"1996-03-22 20:00","1996","03","22","20:00","-4.3","","-7.7","","77","","29","","13","","9.7","","98.85","","","","-9","","Snow"
"1996-03-22 21:00","1996","03","22","21:00","-5.1","","-8.3","","78","","29","","20","","6.4","","98.89","","","","-12","","Snow"
"1996-03-22 22:00","1996","03","22","22:00","-5.3","","-8.3","","79","","28","","13","","8.0","","98.89","","","","-10","","Snow"
"1996-03-22 23:00","1996","03","22","23:00","-5.8","","-8.9","","79","","29","","15","","8.0","","98.89","","","","-12","","Snow"
"1996-03-23 00:00","1996","03","23","00:00","-6.2","","-9.3","","79","","30","","20","","6.4","","98.95","","","","-13","","Snow"
"1996-03-23 01:00","1996","03","23","01:00","-6.5","","-10.1","","76","","29","","22","","9.7","","98.95","","","","-14","","Snow"
"1996-03-23 02:00","1996","03","23","02:00","-6.8","","-10.4","","75","","30","","17","","6.4","","98.99","","","","-13","","Snow"
"1996-03-23 03:00","1996","03","23","03:00","-7.3","","-11.0","","75","","30","","22","","16.1","","99.02","","","","-15","","Snow"
"1996-03-23 04:00","1996","03","23","04:00","-8.3","","-12.2","","73","","30","","20","","24.1","","99.09","","","","-16","","Mainly Clear"
"1996-03-23 05:00","1996","03","23","05:00","-9.2","","-13.7","","70","","29","","17","","24.1","","99.15","","","","-16","","Mainly Clear"
"1996-03-23 06:00","1996","03","23","06:00","-9.7","","-14.7","","67","","30","","19","","32.2","","99.26","","","","-17","","Mainly Clear"
"1996-03-23 07:00","1996","03","23","07:00","-9.7","","-14.6","","67","","28","","19","","40.2","","99.36","","","","-17","","Mainly Clear"
"1996-03-23 08:00","1996","03","23","08:00","-8.8","","-14.6","","63","","28","","24","","40.2","","99.42","","","","-17","","Mainly Clear"
"1996-03-23 09:00","1996","03","23","09:00","-8.1","","-14.9","","58","","29","","19","","40.2","","99.46","","","","-15","","Mostly Cloudy"
"1996-03-23 10:00","1996","03","23","10:00","-7.1","","-13.6","","60","","29","","28","","40.2","","99.49","","","","-15","","Mostly Cloudy"
"1996-03-23 11:00","1996","03","23","11:00","-6.3","","-12.8","","60","","30","","24","","32.2","","99.52","","","","-14","","Mostly Cloudy"
"1996-03-23 12:00","1996","03","23","12:00","-5.8","","-12.8","","58","","28","","22","","40.2","","99.56","","","","-13","","Mostly Cloudy"
"1996-03-23 13:00","1996","03","23","13:00","-5.3","","-12.6","","56","","29","","22","","40.2","","99.59","","","","-12","","Cloudy"
"1996-03-23 14:00","1996","03","23","14:00","-4.6","","-12.2","","55","","28","","24","","40.2","","99.62","","","","-12","","Mostly Cloudy"
"1996-03-23 15:00","1996","03","23","15:00","-3.7","","-11.8","","53","","28","","24","","40.2","","99.69","","","","-11","","Mostly Cloudy"
"1996-03-23 16:00","1996","03","23","16:00","-2.9","","-11.9","","50","","29","","24","","40.2","","99.72","","","","-10","","Mostly Cloudy"
"1996-03-23 17:00","1996","03","23","17:00","-2.8","","-11.0","","53","","29","","24","","40.2","","99.82","","","","-9","","Mostly Cloudy"
"1996-03-23 18:00","1996","03","23","18:00","-2.8","","-11.1","","53","","29","","20","","40.2","","99.89","","","","-9","","Mainly Clear"
"1996-03-23 19:00","1996","03","23","19:00","-2.7","","-10.9","","53","","29","","17","","25.0","","99.99","","","","-8","","Mostly Cloudy"
"1996-03-23 20:00","1996","03","23","20:00","-3.2","","-10.9","","55","","31","","19","","25.0","","100.09","","","","-9","","Mostly Cloudy"
"1996-03-23 21:00","1996","03","23","21:00","-3.4","","-11.1","","55","","31","","24","","25.0","","100.19","","","","-10","","Mainly Clear"
"1996-03-23 22:00","1996","03","23","22:00","-4.0","","-11.5","","56","","31","","20","","25.0","","100.29","","","","-10","","Mainly Clear"
"1996-03-23 23:00","1996","03","23","23:00","-4.5","","-11.5","","58","","30","","22","","25.0","","100.39","","","","-11","","Mainly Clear"
"1996-03-24 00:00","1996","03","24","00:00","-5.1","","-12.2","","57","","31","","19","","25.0","","100.46","","","","-12","","Mainly Clear"
"1996-03-24 01:00","1996","03","24","01:00","-5.5","","-12.6","","57","","30","","24","","25.0","","100.53","","","","-13","","Clear"
"1996-03-24 02:00","1996","03","24","02:00","-5.8","","-12.6","","59","","31","","24","","25.0","","100.60","","","","-13","","Clear"
"1996-03-24 03:00","1996","03","24","03:00","-6.2","","-12.4","","61","","29","","19","","25.0","","100.63","","","","-13","","Clear"
"1996-03-24 04:00","1996","03","24","04:00","-6.5","","-12.6","","62","","31","","15","","25.0","","100.66","","","","-12","","Clear"
"1996-03-24 05:00","1996","03","24","05:00","-7.0","","-12.5","","65","","27","","7","","25.0","","100.76","","","","-11","","Clear"
"1996-03-24 06:00","1996","03","24","06:00","-7.4","","-12.7","","66","","28","","9","","32.2","","100.86","","","","-12","","Clear"
"1996-03-24 07:00","1996","03","24","07:00","-7.0","","-12.3","","66","","26","","7","","40.2","","100.96","","","","-11","","Clear"
"1996-03-24 08:00","1996","03","24","08:00","-6.2","","-11.8","","64","","30","","17","","40.2","","100.96","","","","-12","","Mainly Clear"
"1996-03-24 09:00","1996","03","24","09:00","-5.4","","-11.4","","63","","30","","11","","40.2","","101.03","","","","-10","","Mostly Cloudy"
"1996-03-24 10:00","1996","03","24","10:00","-3.9","","-10.6","","60","","30","","7","","40.2","","101.03","","","","-7","","Mostly Cloudy"
"1996-03-24 11:00","1996","03","24","11:00","-3.2","","-9.7","","61","","26","","9","","40.2","","101.03","","","","-7","","Cloudy"
"1996-03-24 12:00","1996","03","24","12:00","-1.6","","-8.9","","57","","27","","11","","40.2","","100.96","","","","-5","","Mostly Cloudy"
"1996-03-24 13:00","1996","03","24","13:00","-0.9","","-8.7","","55","","26","","9","","40.2","","100.93","","","","-4","","Mostly Cloudy"
"1996-03-24 14:00","1996","03","24","14:00","-0.1","","-8.7","","52","","23","","4","","40.2","","100.90","","","","-1","","Cloudy"
"1996-03-24 15:00","1996","03","24","15:00","0.8","","-7.6","","53","","27","","7","","40.2","","100.90","","","","","","Cloudy"
"1996-03-24 16:00","1996","03","24","16:00","1.5","","-7.8","","50","","","","0","","40.2","","100.83","","","","","","Cloudy"
"1996-03-24 17:00","1996","03","24","17:00","1.3","","-7.2","","53","","","","0","","40.2","","100.83","","","","","","Cloudy"
"1996-03-24 18:00","1996","03","24","18:00","1.4","","-7.1","","53","","10","","7","","40.2","","100.73","","","","","","Cloudy"
"1996-03-24 19:00","1996","03","24","19:00","0.7","","-7.1","","56","","9","","6","","24.1","","100.70","","","","","","Mostly Cloudy"
"1996-03-24 20:00","1996","03","24","20:00","0.3","","-6.5","","60","","10","","6","","24.1","","100.66","","","","","","Cloudy"
"1996-03-24 21:00","1996","03","24","21:00","0.3","","-6.0","","63","","","","0","","24.1","","100.70","","","","","","Cloudy"
"1996-03-24 22:00","1996","03","24","22:00","0.0","","-5.4","","67","","9","","6","","24.1","","100.60","","","","-2","","Snow"
"1996-03-24 23:00","1996","03","24","23:00","0.0","","-5.1","","68","","","","0","","24.1","","100.60","","","","","","Cloudy"
"1996-03-25 00:00","1996","03","25","00:00","-0.2","","-4.9","","71","","7","","13","","24.1","","100.43","","","","-4","","Snow"
"1996-03-25 01:00","1996","03","25","01:00","-0.2","","-5.8","","66","","9","","17","","24.1","","100.29","","","","-5","","Cloudy"
"1996-03-25 02:00","1996","03","25","02:00","0.2","","-5.9","","64","","9","","17","","24.1","","100.23","","","","","","Cloudy"
"1996-03-25 03:00","1996","03","25","03:00","0.1","","-5.9","","64","","10","","15","","24.1","","100.19","","","","","","Snow"
"1996-03-25 04:00","1996","03","25","04:00","-0.3","","-4.5","","73","","9","","20","","12.9","","99.99","","","","-6","","Freezing Rain,Ice Pellets"
"1996-03-25 05:00","1996","03","25","05:00","0.2","","-3.6","","76","","10","","17","","16.1","","99.93","","","","","","Drizzle"
"1996-03-25 06:00","1996","03","25","06:00","0.6","","-3.3","","75","","12","","11","","19.3","","99.89","","","","","","Cloudy"
"1996-03-25 07:00","1996","03","25","07:00","0.6","","-2.9","","77","","9","","17","","19.3","","99.76","","","","","","Cloudy"
"1996-03-25 08:00","1996","03","25","08:00","0.8","","-2.8","","77","","8","","13","","32.2","","99.69","","","","","","Cloudy"
"1996-03-25 09:00","1996","03","25","09:00","1.2","","-2.3","","77","","7","","9","","24.1","","99.69","","","","","","Cloudy"
"1996-03-25 10:00","1996","03","25","10:00","4.0","","-1.2","","69","","11","","17","","24.1","","99.49","","","","","","Mainly Clear"
"1996-03-25 11:00","1996","03","25","11:00","8.0","","0.1","","57","","11","","17","","24.1","","99.29","","","","","","Mainly Clear"
"1996-03-25 12:00","1996","03","25","12:00","10.4","","1.9","","56","","13","","15","","24.1","","99.15","","","","","","Cloudy"
"1996-03-25 13:00","1996","03","25","13:00","12.5","","3.8","","55","","11","","15","","24.1","","99.05","","","","","","Cloudy"
"1996-03-25 14:00","1996","03","25","14:00","16.4","","1.8","","37","","18","","22","","24.1","","98.99","","","","","","Cloudy"
"1996-03-25 15:00","1996","03","25","15:00","17.5","","2.6","","37","","19","","17","","32.2","","98.92","","","","","","Cloudy"
"1996-03-25 16:00","1996","03","25","16:00","16.4","","1.3","","36","","18","","15","","24.1","","98.85","","","","","","Cloudy"
"1996-03-25 17:00","1996","03","25","17:00","13.8","","1.0","","42","","22","","24","","24.1","","98.95","","","","","","Cloudy"
"1996-03-25 18:00","1996","03","25","18:00","11.9","","1.1","","47","","22","","17","","24.1","","99.05","","","","","","Rain"
"1996-03-25 19:00","1996","03","25","19:00","11.0","","5.0","","66","","19","","22","","24.1","","99.02","","","","","","Cloudy"
"1996-03-25 20:00","1996","03","25","20:00","10.4","","5.6","","72","","17","","17","","24.1","","98.85","","","","","","Mainly Clear"
"1996-03-25 21:00","1996","03","25","21:00","8.2","","5.1","","81","","23","","19","","9.7","","99.09","","","","","","Rain Showers"
"1996-03-25 22:00","1996","03","25","22:00","8.2","","5.2","","81","","21","","30","","24.1","","99.09","","","","","","Cloudy"
"1996-03-25 23:00","1996","03","25","23:00","7.1","","3.5","","78","","21","","28","","19.3","","99.09","","","","","","Cloudy"
"1996-03-26 00:00","1996","03","26","00:00","4.2","","-2.0","","64","","21","","33","","25.0","","99.26","","","","","","Mainly Clear"
"1996-03-26 01:00","1996","03","26","01:00","2.2","","-3.1","","68","","22","","33","","25.0","","99.46","","","","","","Mostly Cloudy"
"1996-03-26 02:00","1996","03","26","02:00","1.6","","-3.5","","69","","22","","28","","16.1","","99.62","","","","","","Snow"
"1996-03-26 03:00","1996","03","26","03:00","1.5","","-6.6","","55","","24","","33","","24.1","","99.79","","","","","","Snow"
"1996-03-26 04:00","1996","03","26","04:00","1.0","","-7.6","","53","","24","","33","","25.0","","99.89","","","","","","Cloudy"
"1996-03-26 05:00","1996","03","26","05:00","0.3","","-9.0","","50","","24","","30","","25.0","","100.03","","","","","","Cloudy"
"1996-03-26 06:00","1996","03","26","06:00","-0.4","","-8.7","","53","","25","","22","","32.2","","100.16","","","","-6","","Mostly Cloudy"
"1996-03-26 07:00","1996","03","26","07:00","-1.2","","-10.4","","50","","25","","28","","40.2","","100.36","","","","-8","","Mostly Cloudy"
"1996-03-26 08:00","1996","03","26","08:00","-0.9","","-10.5","","48","","26","","24","","40.2","","100.43","","","","-7","","Mainly Clear"
"1996-03-26 09:00","1996","03","26","09:00","-0.6","","-11.3","","44","","26","","26","","40.2","","100.49","","","","-7","","Mainly Clear"
"1996-03-26 10:00","1996","03","26","10:00","-1.6","","-11.3","","48","","23","","22","","40.2","","100.53","","","","-8","","Mostly Cloudy"
"1996-03-26 11:00","1996","03","26","11:00","-0.3","","-12.4","","40","","25","","28","","40.2","","100.53","","","","-7","","Mainly Clear"
"1996-03-26 12:00","1996","03","26","12:00","0.5","","-10.6","","43","","26","","24","","40.2","","100.53","","","","","","Mostly Cloudy"
"1996-03-26 13:00","1996","03","26","13:00","0.8","","-10.4","","43","","22","","24","","40.2","","100.43","","","","","","Mostly Cloudy"
"1996-03-26 14:00","1996","03","26","14:00","1.1","","-10.2","","43","","23","","30","","40.2","","100.43","","","","","","Mostly Cloudy"
"1996-03-26 15:00","1996","03","26","15:00","-1.6","","-7.0","","67","","24","","30","","6.4","","100.49","","","","-9","","Snow Showers"
"1996-03-26 16:00","1996","03","26","16:00","0.2","","-9.9","","47","","23","","24","","32.2","","100.49","","","","","","Mostly Cloudy"
"1996-03-26 17:00","1996","03","26","17:00","-0.4","","-13.6","","36","","26","","28","","40.2","","100.56","","","","-7","","Mostly Cloudy"
"1996-03-26 18:00","1996","03","26","18:00","-2.7","","-10.7","","54","","28","","32","","32.2","","100.70","","","","-10","","Mostly Cloudy"
"1996-03-26 19:00","1996","03","26","19:00","-2.9","","-14.0","","42","","26","","35","","24.1","","100.83","","","","-11","","Mostly Cloudy"
"1996-03-26 20:00","1996","03","26","20:00","-4.8","","-12.9","","53","","28","","26","","24.1","","101.00","","","","-12","","Mainly Clear"
"1996-03-26 21:00","1996","03","26","21:00","-4.8","","-15.1","","44","","26","","32","","24.1","","101.10","","","","-13","","Mainly Clear"
"1996-03-26 22:00","1996","03","26","22:00","-5.5","","-15.6","","45","","26","","24","","24.1","","101.16","","","","-13","","Mainly Clear"
"1996-03-26 23:00","1996","03","26","23:00","-6.1","","-15.7","","47","","27","","26","","25.0","","101.23","","","","-14","","Clear"
"1996-03-27 00:00","1996","03","27","00:00","-6.6","","-16.6","","45","","28","","20","","25.0","","101.30","","","","-14","","Clear"
"1996-03-27 01:00","1996","03","27","01:00","-7.0","","-18.8","","38","","28","","22","","25.0","","101.43","","","","-14","","Clear"
"1996-03-27 02:00","1996","03","27","02:00","-8.6","","-16.7","","52","","30","","22","","25.0","","101.57","","","","-16","","Mainly Clear"
"1996-03-27 03:00","1996","03","27","03:00","-10.2","","-19.3","","47","","30","","32","","25.0","","101.73","","","","-20","","Clear"
"1996-03-27 04:00","1996","03","27","04:00","-11.6","","-20.9","","46","","30","","26","","25.0","","101.87","","","","-21","","Clear"
"1996-03-27 05:00","1996","03","27","05:00","-12.6","","-22.7","","43","","30","","28","","25.0","","102.04","","","","-23","","Clear"
"1996-03-27 06:00","1996","03","27","06:00","-13.5","","-22.8","","45","","30","","24","","40.2","","102.17","","","","-23","","Clear"
"1996-03-27 07:00","1996","03","27","07:00","-13.8","","-23.0","","46","","32","","22","","40.2","","102.24","","","","-23","","Clear"
"1996-03-27 08:00","1996","03","27","08:00","-13.4","","-24.0","","40","","34","","19","","40.2","","102.27","","","","-22","","Clear"
"1996-03-27 09:00","1996","03","27","09:00","-12.2","","-23.2","","39","","32","","13","","40.2","","102.30","","","","-19","","Clear"
"1996-03-27 10:00","1996","03","27","10:00","-11.5","","-22.2","","41","","30","","11","","40.2","","102.34","","","","-17","","Clear"
"1996-03-27 11:00","1996","03","27","11:00","-10.8","","-21.5","","41","","27","","9","","40.2","","102.30","","","","-16","","Clear"
"1996-03-27 12:00","1996","03","27","12:00","-8.6","","-20.5","","38","","24","","9","","40.2","","102.30","","","","-13","","Clear"
"1996-03-27 13:00","1996","03","27","13:00","-8.3","","-19.0","","42","","27","","19","","40.2","","102.30","","","","-16","","Clear"
"1996-03-27 14:00","1996","03","27","14:00","-7.4","","-19.9","","36","","30","","15","","40.2","","102.27","","","","-14","","Clear"
"1996-03-27 15:00","1996","03","27","15:00","-6.1","","-18.8","","36","","30","","13","","40.2","","102.20","","","","-11","","Clear"
"1996-03-27 16:00","1996","03","27","16:00","-6.1","","-19.8","","33","","31","","15","","40.2","","102.17","","","","-12","","Clear"
"1996-03-27 17:00","1996","03","27","17:00","-5.4","","-19.5","","32","","32","","9","","40.2","","102.14","","","","-9","","Clear"
"1996-03-27 18:00","1996","03","27","18:00","-5.8","","-19.5","","33","","35","","6","","40.2","","102.14","","","","-9","","Clear"
"1996-03-27 19:00","1996","03","27","19:00","-6.4","","-19.3","","35","","","","0","","32.2","","102.07","","","","","","Clear"
"1996-03-27 20:00","1996","03","27","20:00","-6.5","","-19.4","","35","","13","","4","","25.0","","102.07","","","","-8","","Clear"
"1996-03-27 21:00","1996","03","27","21:00","-7.1","","-18.3","","40","","14","","4","","25.0","","102.14","","","","-9","","Clear"
"1996-03-27 22:00","1996","03","27","22:00","-7.1","","-17.8","","42","","15","","4","","25.0","","102.14","","","","-9","","Clear"
"1996-03-27 23:00","1996","03","27","23:00","-7.5","","-17.1","","46","","","","0","","25.0","","102.17","","","","","","Clear"
"1996-03-28 00:00","1996","03","28","00:00","-7.5","","-13.9","","60","","19","","6","","25.0","","102.07","","","","-11","","Clear"
"1996-03-28 01:00","1996","03","28","01:00","-8.0","","-13.0","","67","","21","","7","","25.0","","102.07","","","","-12","","Clear"
"1996-03-28 02:00","1996","03","28","02:00","-8.3","","-13.4","","67","","22","","6","","25.0","","102.04","","","","-12","","Mainly Clear"
"1996-03-28 03:00","1996","03","28","03:00","-8.4","","-14.6","","61","","29","","2","","25.0","","102.04","","","","-9","","Mainly Clear"
"1996-03-28 04:00","1996","03","28","04:00","-8.8","","-14.0","","66","","","","0","","25.0","","101.97","","","","","","Mostly Cloudy"
"1996-03-28 05:00","1996","03","28","05:00","-9.3","","-13.9","","69","","","","0","","25.0","","101.97","","","","","","Mainly Clear"
"1996-03-28 06:00","1996","03","28","06:00","-9.5","","-13.9","","70","","","","0","","24.1","","102.00","","","","","","Mainly Clear"
"1996-03-28 07:00","1996","03","28","07:00","-8.5","","-13.4","","68","","","","0","","24.1","","102.04","","","","","","Mainly Clear"
"1996-03-28 08:00","1996","03","28","08:00","-6.6","","-13.4","","58","","","","0","","24.1","","102.00","","","","","","Clear"
"1996-03-28 09:00","1996","03","28","09:00","-5.1","","-13.8","","50","","","","0","","24.1","","102.00","","","","","","Clear"
"1996-03-28 10:00","1996","03","28","10:00","-3.2","","-14.2","","42","","","","0","","32.2","","101.94","","","","","","Clear"
"1996-03-28 11:00","1996","03","28","11:00","-2.2","","-14.6","","38","","25","","6","","32.2","","101.83","","","","-5","","Clear"
"1996-03-28 12:00","1996","03","28","12:00","-1.4","","-14.4","","36","","","","0","","32.2","","101.73","","","","","","Mainly Clear"
"1996-03-28 13:00","1996","03","28","13:00","0.0","","-13.6","","35","","","","0","","32.2","","101.63","","","","","","Mainly Clear"
"1996-03-28 14:00","1996","03","28","14:00","0.8","","-13.3","","34","","20","","6","","32.2","","101.50","","","","","","Mainly Clear"
"1996-03-28 15:00","1996","03","28","15:00","1.3","","-13.0","","34","","","","0","","32.2","","101.43","","","","","","Mainly Clear"
"1996-03-28 16:00","1996","03","28","16:00","2.0","","-13.3","","31","","","","0","","32.2","","101.37","","","","","","Mainly Clear"
"1996-03-28 17:00","1996","03","28","17:00","1.8","","-13.6","","31","","","","0","","32.2","","101.30","","","","","","Mainly Clear"
"1996-03-28 18:00","1996","03","28","18:00","1.5","","-13.5","","32","","","","0","","32.2","","101.27","","","","","","Mainly Clear"
"1996-03-28 19:00","1996","03","28","19:00","0.2","","-13.1","","36","","7","","7","","32.2","","101.23","","","","","","Mainly Clear"
"1996-03-28 20:00","1996","03","28","20:00","-0.4","","-12.7","","39","","8","","7","","25.0","","101.23","","","","-3","","Mainly Clear"
"1996-03-28 21:00","1996","03","28","21:00","-0.8","","-12.9","","39","","8","","7","","25.0","","101.16","","","","-3","","Mainly Clear"
"1996-03-28 22:00","1996","03","28","22:00","-1.8","","-12.8","","43","","8","","9","","25.0","","101.10","","","","-5","","Mainly Clear"
"1996-03-28 23:00","1996","03","28","23:00","-2.7","","-12.7","","46","","5","","6","","25.0","","101.03","","","","-5","","Mainly Clear"
"1996-03-29 00:00","1996","03","29","00:00","-3.4","","-12.2","","51","","4","","7","","25.0","","101.00","","","","-6","","Mainly Clear"
"1996-03-29 01:00","1996","03","29","01:00","-3.5","","-12.2","","51","","6","","7","","25.0","","100.93","","","","-6","","Mainly Clear"
"1996-03-29 02:00","1996","03","29","02:00","-4.4","","-11.6","","57","","3","","9","","25.0","","100.90","","","","-8","","Mainly Clear"
"1996-03-29 03:00","1996","03","29","03:00","-4.7","","-10.9","","62","","3","","9","","25.0","","100.83","","","","-9","","Mainly Clear"
"1996-03-29 04:00","1996","03","29","04:00","-4.1","","-10.7","","60","","4","","11","","24.1","","100.80","","","","-9","","Mostly Cloudy"
"1996-03-29 05:00","1996","03","29","05:00","-4.1","","-10.6","","61","","4","","13","","24.1","","100.83","","","","-9","","Mostly Cloudy"
"1996-03-29 06:00","1996","03","29","06:00","-4.0","","-10.6","","60","","4","","13","","19.3","","100.80","","","","-9","","Mostly Cloudy"
"1996-03-29 07:00","1996","03","29","07:00","-3.0","","-10.3","","57","","4","","15","","24.1","","100.83","","","","-8","","Mostly Cloudy"
"1996-03-29 08:00","1996","03","29","08:00","-1.3","","-11.0","","48","","5","","15","","32.2","","100.80","","","","-6","","Mostly Cloudy"
"1996-03-29 09:00","1996","03","29","09:00","0.5","","-10.8","","42","","8","","17","","32.2","","100.80","","","","","","Mainly Clear"
"1996-03-29 10:00","1996","03","29","10:00","2.5","","-10.1","","39","","8","","13","","32.2","","100.80","","","","","","Mainly Clear"
"1996-03-29 11:00","1996","03","29","11:00","3.2","","-9.1","","40","","2","","9","","32.2","","100.73","","","","","","Mainly Clear"
"1996-03-29 12:00","1996","03","29","12:00","4.0","","-9.0","","38","","3","","9","","32.2","","100.66","","","","","","Mainly Clear"
"1996-03-29 13:00","1996","03","29","13:00","4.7","","-9.0","","36","","36","","13","","32.2","","100.63","","","","","","Mostly Cloudy"
"1996-03-29 14:00","1996","03","29","14:00","5.0","","-9.9","","33","","3","","6","","32.2","","100.56","","","","","","Mostly Cloudy"
"1996-03-29 15:00","1996","03","29","15:00","6.2","","-9.4","","32","","","","0","","32.2","","100.53","","","","","","Mostly Cloudy"
"1996-03-29 16:00","1996","03","29","16:00","6.3","","-10.3","","29","","","","0","","32.2","","100.53","","","","","","Mostly Cloudy"
"1996-03-29 17:00","1996","03","29","17:00","6.5","","-10.3","","29","","4","","4","","32.2","","100.60","","","","","","Mainly Clear"
"1996-03-29 18:00","1996","03","29","18:00","5.6","","-10.2","","31","","","","0","","32.2","","100.63","","","","","","Mainly Clear"
"1996-03-29 19:00","1996","03","29","19:00","4.5","","-10.9","","32","","","","0","","32.2","","100.70","","","","","","Mainly Clear"
"1996-03-29 20:00","1996","03","29","20:00","3.6","","-10.4","","35","","","","0","","25.0","","100.73","","","","","","Mainly Clear"
"1996-03-29 21:00","1996","03","29","21:00","2.7","","-10.5","","37","","12","","4","","25.0","","100.73","","","","","","Mainly Clear"
"1996-03-29 22:00","1996","03","29","22:00","-0.1","","-8.8","","52","","6","","6","","25.0","","100.80","","","","-2","","Mainly Clear"
"1996-03-29 23:00","1996","03","29","23:00","-0.2","","-9.2","","51","","6","","9","","25.0","","100.86","","","","-3","","Mainly Clear"
"1996-03-30 00:00","1996","03","30","00:00","-1.0","","-9.0","","55","","4","","11","","24.1","","100.90","","","","-5","","Mainly Clear"
"1996-03-30 01:00","1996","03","30","01:00","-1.4","","-8.9","","57","","5","","4","","24.1","","100.93","","","","-3","","Clear"
"1996-03-30 02:00","1996","03","30","02:00","-2.5","","-8.9","","61","","1","","6","","24.1","","100.96","","","","-5","","Clear"
"1996-03-30 03:00","1996","03","30","03:00","-2.5","","-9.5","","59","","1","","7","","24.1","","101.03","","","","-5","","Clear"
"1996-03-30 04:00","1996","03","30","04:00","-2.2","","-10.0","","55","","3","","6","","24.1","","101.03","","","","-5","","Clear"
"1996-03-30 05:00","1996","03","30","05:00","-3.0","","-9.7","","60","","3","","6","","25.0","","101.13","","","","-5","","Mainly Clear"
"1996-03-30 06:00","1996","03","30","06:00","-3.4","","-9.4","","63","","2","","6","","40.2","","101.13","","","","-6","","Mainly Clear"
"1996-03-30 07:00","1996","03","30","07:00","-2.1","","-8.1","","63","","2","","6","","40.2","","101.20","","","","-4","","Clear"
"1996-03-30 08:00","1996","03","30","08:00","-0.4","","-7.6","","58","","5","","13","","40.2","","101.23","","","","-5","","Clear"
"1996-03-30 09:00","1996","03","30","09:00","1.1","","-7.4","","53","","6","","9","","40.2","","101.27","","","","","","Clear"
"1996-03-30 10:00","1996","03","30","10:00","2.0","","-9.1","","44","","8","","9","","40.2","","101.27","","","","","","Clear"
"1996-03-30 11:00","1996","03","30","11:00","3.0","","-10.8","","35","","2","","6","","40.2","","101.23","","","","","","Clear"
"1996-03-30 12:00","1996","03","30","12:00","4.3","","-9.9","","35","","5","","7","","40.2","","101.13","","","","","","Mainly Clear"
"1996-03-30 13:00","1996","03","30","13:00","4.3","","-9.2","","37","","","","0","","40.2","","101.10","","","","","","Mainly Clear"
"1996-03-30 14:00","1996","03","30","14:00","5.0","","-9.1","","35","","32","","9","","40.2","","101.00","","","","","","Mainly Clear"
"1996-03-30 15:00","1996","03","30","15:00","5.9","","-8.7","","34","","23","","6","","40.2","","100.93","","","","","","Mainly Clear"
"1996-03-30 16:00","1996","03","30","16:00","5.9","","-9.3","","33","","32","","7","","40.2","","100.90","","","","","","Mainly Clear"
"1996-03-30 17:00","1996","03","30","17:00","5.6","","-10.6","","30","","32","","11","","40.2","","100.86","","","","","","Mainly Clear"
"1996-03-30 18:00","1996","03","30","18:00","4.9","","-10.2","","33","","33","","11","","40.2","","100.83","","","","","","Mainly Clear"
"1996-03-30 19:00","1996","03","30","19:00","2.6","","-10.4","","38","","2","","9","","24.1","","100.83","","","","","","Mainly Clear"
"1996-03-30 20:00","1996","03","30","20:00","1.2","","-10.6","","41","","3","","7","","25.0","","100.83","","","","","","Clear"
"1996-03-30 21:00","1996","03","30","21:00","1.9","","-10.9","","38","","3","","7","","25.0","","100.80","","","","","","Clear"
"1996-03-30 22:00","1996","03","30","22:00","1.5","","-11.0","","39","","3","","4","","25.0","","100.76","","","","","","Clear"
"1996-03-30 23:00","1996","03","30","23:00","0.9","","-10.7","","42","","1","","4","","25.0","","100.70","","","","","","Mainly Clear"
"1996-03-31 00:00","1996","03","31","00:00","0.8","","-10.5","","43","","","","0","","25.0","","100.63","","","","","","Mainly Clear"
"1996-03-31 01:00","1996","03","31","01:00","0.7","","-10.3","","44","","","","0","","25.0","","100.63","","","","","","Mostly Cloudy"
"1996-03-31 02:00","1996","03","31","02:00","0.1","","-11.0","","43","","3","","6","","25.0","","100.60","","","","","","Mainly Clear"
"1996-03-31 03:00","1996","03","31","03:00","-0.5","","-11.5","","43","","3","","4","","25.0","","100.60","","","","-2","","Mostly Cloudy"
"1996-03-31 04:00","1996","03","31","04:00","-0.6","","-11.0","","45","","3","","7","","25.0","","100.60","","","","-3","","Mainly Clear"
"1996-03-31 05:00","1996","03","31","05:00","-0.5","","-11.3","","44","","3","","11","","25.0","","100.56","","","","-4","","Mostly Cloudy"
"1996-03-31 06:00","1996","03","31","06:00","-1.0","","-11.4","","45","","4","","9","","24.1","","100.53","","","","-4","","Mainly Clear"
"1996-03-31 07:00","1996","03","31","07:00","-1.1","","-11.2","","46","","5","","9","","32.2","","100.56","","","","-4","","Mostly Cloudy"
"1996-03-31 08:00","1996","03","31","08:00","0.4","","-11.1","","42","","7","","7","","40.2","","100.63","","","","","","Mostly Cloudy"
"1996-03-31 09:00","1996","03","31","09:00","1.4","","-11.6","","37","","13","","7","","40.2","","100.60","","","","","","Mostly Cloudy"
"1996-03-31 10:00","1996","03","31","10:00","3.2","","-11.4","","33","","11","","6","","40.2","","100.60","","","","","","Mostly Cloudy"
"1996-03-31 11:00","1996","03","31","11:00","4.2","","-11.2","","32","","","","0","","40.2","","100.56","","","","","","Mainly Clear"
"1996-03-31 12:00","1996","03","31","12:00","5.1","","-10.2","","32","","6","","9","","40.2","","100.43","","","","","","Mostly Cloudy"
"1996-03-31 13:00","1996","03","31","13:00","5.5","","-11.1","","29","","10","","7","","40.2","","100.36","","","","","","Mainly Clear"
"1996-03-31 14:00","1996","03","31","14:00","7.1","","-10.4","","28","","5","","11","","40.2","","100.23","","","","","","Mainly Clear"
"1996-03-31 15:00","1996","03","31","15:00","7.3","","-10.0","","28","","7","","9","","40.2","","100.16","","","","","","Mainly Clear"
"1996-03-31 16:00","1996","03","31","16:00","7.1","","-9.8","","29","","8","","9","","40.2","","100.13","","","","","","Mostly Cloudy"
"1996-03-31 17:00","1996","03","31","17:00","7.3","","-9.0","","30","","8","","7","","40.2","","100.13","","","","","","Mostly Cloudy"
"1996-03-31 18:00","1996","03","31","18:00","6.1","","-8.9","","33","","","","0","","40.2","","100.13","","","","","","Mostly Cloudy"
"1996-03-31 19:00","1996","03","31","19:00","4.6","","-9.4","","35","","5","","7","","24.1","","100.13","","","","","","Mainly Clear"
"1996-03-31 20:00","1996","03","31","20:00","3.9","","-9.7","","36","","5","","7","","25.0","","100.13","","","","","","Mainly Clear"
"1996-03-31 21:00","1996","03","31","21:00","3.4","","-9.5","","38","","1","","7","","25.0","","100.13","","","","","","Clear"
"1996-03-31 22:00","1996","03","31","22:00","3.5","","-10.2","","36","","5","","4","","25.0","","100.13","","","","","","Mainly Clear"
"1996-03-31 23:00","1996","03","31","23:00","2.6","","-9.8","","39","","3","","7","","25.0","","100.09","","","","","","Mainly Clear"
