"Station Name","OTTAWA MACDONALD-CARTIER INT'L A"
"Province","ONTARIO"
"Latitude","45.32"
"Longitude","-75.67"
"Elevation","114.00"
"Climate Identifier","6106000"
"WMO Identifier","71628"
"TC Identifier","YOW"
"All times are specified in Local Standard Time (LST). Add 1 hour to adjust for Daylight Saving Time where and when it is observed."

"Legend"
"E","Estimated"
"M","Missing"
"NA","Not Available"

"Date/Time","Year","Month","Day","Time","Temp (°C)","Temp Flag","Dew Point Temp (°C)","Dew Point Temp Flag","Rel Hum (%)","Rel Hum Flag","Wind Dir (10s deg)","Wind Dir Flag","Wind Spd (km/h)","Wind Spd Flag","Visibility (km)","Visibility Flag","Stn Press (kPa)","Stn Press Flag","Hmdx","Hmdx Flag","Wind Chill","Wind Chill Flag","Weather"
"2002-11-01 00:00","2002","11","01","00:00","-1.3","","-4.0","","82","","19","","4","","25.0","","99.99","","","","-3","","Cloudy"
"2002-11-01 01:00","2002","11","01","01:00","-1.0","","-3.9","","81","","18","","7","","24.1","","99.94","","","","-4","","Cloudy"
"2002-11-01 02:00","2002","11","01","02:00","-1.2","","-3.7","","83","","17","","6","","24.1","","99.88","","","","-3","","Cloudy"
"2002-11-01 03:00","2002","11","01","03:00","-0.9","","-3.8","","81","","15","","6","","24.1","","99.79","","","","-3","","Snow"
"2002-11-01 04:00","2002","11","01","04:00","-0.8","","-4.0","","79","","18","","6","","24.1","","99.73","","","","-3","","Snow"
"2002-11-01 05:00","2002","11","01","05:00","-0.6","","-4.0","","78","","18","","6","E","24.1","","99.69","","","","-3","E","Snow"
"2002-11-01 06:00","2002","11","01","06:00","-0.5","","-3.1","","83","","19","","7","","24.1","","99.64","","","","-3","","Snow"
"2002-11-01 07:00","2002","11","01","07:00","-0.7","","-2.7","","86","","21","","7","","16.1","","99.61","","","","-3","","Snow"
"2002-11-01 08:00","2002","11","01","08:00","0.2","","-2.0","","85","","21","","6","","19.3","","99.58","","","","","","Cloudy"
"2002-11-01 09:00","2002","11","01","09:00","0.9","","-1.7","","83","","23","","9","","19.3","","99.56","","","","","","Cloudy"
"2002-11-01 10:00","2002","11","01","10:00","2.1","","-1.2","","79","","23","","13","","24.1","","99.51","","","","","","Cloudy"
"2002-11-01 11:00","2002","11","01","11:00","1.9","","-2.0","","75","","27","","11","","4.8","","99.44","","","","","","Snow"
"2002-11-01 12:00","2002","11","01","12:00","-0.4","","-1.8","","90","","30","","24","","0.4","","99.41","","","","-6","","Heavy Snow Showers"
"2002-11-01 13:00","2002","11","01","13:00","-0.3","","-2.3","","86","","29","","24","","19.3","","99.37","","","","-6","","Cloudy"
"2002-11-01 14:00","2002","11","01","14:00","-0.6","","-6.0","","67","","30","","33","","32.2","","99.46","","","","-8","","Mostly Cloudy"
"2002-11-01 15:00","2002","11","01","15:00","-0.5","","-7.2","","60","","29","","26","","32.2","","99.51","","","","-7","","Mainly Clear"
"2002-11-01 16:00","2002","11","01","16:00","-1.3","","-9.9","","52","","29","","28","","32.2","","99.58","","","","-8","","Mainly Clear"
"2002-11-01 17:00","2002","11","01","17:00","-1.6","","-9.5","","55","","29","","24","","32.2","","99.67","","","","-8","","Mainly Clear"
"2002-11-01 18:00","2002","11","01","18:00","-2.2","","-9.4","","58","","30","","20","","24.1","","99.77","","","","-8","","Mainly Clear"
"2002-11-01 19:00","2002","11","01","19:00","-3.1","","-10.4","","57","","31","","20","","24.1","","99.89","","","","-9","","Mainly Clear"
"2002-11-01 20:00","2002","11","01","20:00","-3.8","","-11.4","","56","","31","","17","","24.1","","99.92","","","","-10","","Clear"
"2002-11-01 21:00","2002","11","01","21:00","-5.3","","-11.9","","60","","31","","11","","24.1","","99.95","","","","-10","","Clear"
"2002-11-01 22:00","2002","11","01","22:00","-5.0","","-11.5","","60","","30","","15","","24.1","","99.98","","","","-11","","Clear"
"2002-11-01 23:00","2002","11","01","23:00","-5.3","","-11.3","","63","","30","","15","","25.0","","99.98","","","","-11","","Clear"
"2002-11-02 00:00","2002","11","02","00:00","-5.7","","-11.3","","65","","31","","13","","24.1","","99.98","","","","-11","","Mainly Clear"
"2002-11-02 01:00","2002","11","02","01:00","-5.3","","-10.8","","65","","30","","9","","24.1","","99.96","","","","-9","","Mainly Clear"
"2002-11-02 02:00","2002","11","02","02:00","-5.6","","-10.9","","66","","22","","6","","24.1","","99.98","","","","-8","","Mostly Cloudy"
"2002-11-02 03:00","2002","11","02","03:00","-6.5","","-10.4","","74","","25","","7","","24.1","","99.94","","","","-10","","Mainly Clear"
"2002-11-02 04:00","2002","11","02","04:00","-7.3","","-10.8","","76","","25","","9","","24.1","","99.92","","","","-12","","Mainly Clear"
"2002-11-02 05:00","2002","11","02","05:00","-7.7","","-10.7","","79","","27","","7","","24.1","","99.95","","","","-11","","Clear"
"2002-11-02 06:00","2002","11","02","06:00","-8.0","","-11.0","","79","","27","","7","","32.2","","99.98","","","","-12","","Mainly Clear"
"2002-11-02 07:00","2002","11","02","07:00","-7.4","","-10.1","","81","","25","","7","","32.2","","99.98","","","","-11","","Mostly Cloudy"
"2002-11-02 08:00","2002","11","02","08:00","-6.0","","-9.1","","79","","27","","4","","32.2","","99.98","","","","-8","","Mostly Cloudy"
"2002-11-02 09:00","2002","11","02","09:00","-4.0","","-8.3","","72","","34","","6","","32.2","","100.00","","","","-7","","Mostly Cloudy"
"2002-11-02 10:00","2002","11","02","10:00","-3.3","","-9.5","","62","","28","","4","","32.2","","99.96","","","","-5","","Mostly Cloudy"
"2002-11-02 11:00","2002","11","02","11:00","-2.2","","-10.2","","54","","33","","6","","32.2","","99.93","","","","-5","","Mostly Cloudy"
"2002-11-02 12:00","2002","11","02","12:00","-1.9","","-10.8","","51","","34","","7","","32.2","","99.86","","","","-5","","Mostly Cloudy"
"2002-11-02 13:00","2002","11","02","13:00","-1.2","","-10.4","","50","","","","0","","32.2","","99.80","","","","","","Mostly Cloudy"
"2002-11-02 14:00","2002","11","02","14:00","-0.9","","-10.7","","47","","","","0","","32.2","","99.77","","","","","","Mostly Cloudy"
"2002-11-02 15:00","2002","11","02","15:00","-0.8","","-10.8","","47","","","","0","","32.2","","99.78","","","","","","Mostly Cloudy"
"2002-11-02 16:00","2002","11","02","16:00","-1.0","","-10.3","","49","","10","","4","","32.2","","99.84","","","","-2","","Cloudy"
"2002-11-02 17:00","2002","11","02","17:00","-1.9","","-9.7","","55","","12","","4","","32.2","","99.89","","","","-3","","Cloudy"
"2002-11-02 18:00","2002","11","02","18:00","-2.0","","-9.7","","56","","","","0","","25.0","","99.98","","","","","","Mostly Cloudy"
"2002-11-02 19:00","2002","11","02","19:00","-2.5","","-9.1","","60","","","","0","","24.1","","100.03","","","","","","Cloudy"
"2002-11-02 20:00","2002","11","02","20:00","-2.5","","-9.5","","59","","","","0","","25.0","","100.05","","","","","","Mostly Cloudy"
"2002-11-02 21:00","2002","11","02","21:00","-2.6","","-9.0","","61","","5","","4","","25.0","","100.11","","","","-4","","Mainly Clear"
"2002-11-02 22:00","2002","11","02","22:00","-2.9","","-8.8","","64","","3","","6","","25.0","","100.15","","","","-5","","Mostly Cloudy"
"2002-11-02 23:00","2002","11","02","23:00","-3.8","","-10.8","","58","","1","","4","","25.0","","100.20","","","","-5","","Mainly Clear"
"2002-11-03 00:00","2002","11","03","00:00","-4.1","","-9.9","","64","","2","","7","","25.0","","100.26","","","","-7","","Mainly Clear"
"2002-11-03 01:00","2002","11","03","01:00","-4.9","","-10.0","","67","","36","","6","","25.0","","100.32","","","","-8","","Mostly Cloudy"
"2002-11-03 02:00","2002","11","03","02:00","-4.5","","-11.0","","60","","3","","9","","24.1","","100.39","","","","-8","","Mostly Cloudy"
"2002-11-03 03:00","2002","11","03","03:00","-5.3","","-11.2","","63","","1","","7","","24.1","","100.44","","","","-9","","Mainly Clear"
"2002-11-03 04:00","2002","11","03","04:00","-5.3","","-11.2","","63","","","","0","","24.1","","100.48","","","","","","Clear"
"2002-11-03 05:00","2002","11","03","05:00","-6.1","","-10.5","","71","","","","0","","24.1","","100.55","","","","","","Clear"
"2002-11-03 06:00","2002","11","03","06:00","-6.1","","-10.6","","70","","25","","6","","24.1","","100.61","","","","-9","","Clear"
"2002-11-03 07:00","2002","11","03","07:00","-6.4","","-10.4","","73","","27","","4","","32.2","","100.68","","","","-8","","Clear"
"2002-11-03 08:00","2002","11","03","08:00","-5.6","","-9.7","","73","","23","","4","","32.2","","100.77","","","","-7","","Clear"
"2002-11-03 09:00","2002","11","03","09:00","-2.8","","-8.3","","66","","23","","6","","32.2","","100.78","","","","-5","","Clear"
"2002-11-03 10:00","2002","11","03","10:00","-1.0","","-9.3","","53","","24","","9","","32.2","","100.76","","","","-4","","Clear"
"2002-11-03 11:00","2002","11","03","11:00","-0.1","","-9.2","","50","","24","","9","","32.2","","100.80","","","","-3","","Mainly Clear"
"2002-11-03 12:00","2002","11","03","12:00","0.4","","-9.6","","47","","23","","9","","32.2","","100.73","","","","","","Mostly Cloudy"
"2002-11-03 13:00","2002","11","03","13:00","0.9","","-9.4","","46","","22","","7","","32.2","","100.69","","","","","","Mostly Cloudy"
"2002-11-03 14:00","2002","11","03","14:00","0.9","","-8.8","","48","","23","","13","","32.2","","100.67","","","","","","Mostly Cloudy"
"2002-11-03 15:00","2002","11","03","15:00","1.0","","-8.7","","48","","29","","11","","32.2","","100.67","","","","","","Mostly Cloudy"
"2002-11-03 16:00","2002","11","03","16:00","0.0","","-8.6","","52","","28","","9","","32.2","","100.65","","","","-3","","Mostly Cloudy"
"2002-11-03 17:00","2002","11","03","17:00","-0.7","","-8.0","","58","","25","","9","","32.2","","100.65","","","","-4","","Cloudy"
"2002-11-03 18:00","2002","11","03","18:00","-1.0","","-7.6","","61","","24","","6","","25.0","","100.67","","","","-3","","Mostly Cloudy"
"2002-11-03 19:00","2002","11","03","19:00","-1.2","","-7.8","","61","","18","","4","","25.0","","100.63","","","","-3","","Mostly Cloudy"
"2002-11-03 20:00","2002","11","03","20:00","-1.9","","-8.0","","63","","18","","6","","25.0","","100.60","","","","-4","","Mainly Clear"
"2002-11-03 21:00","2002","11","03","21:00","-2.7","","-8.1","","66","","18","","6","","25.0","","100.59","","","","-5","","Mostly Cloudy"
"2002-11-03 22:00","2002","11","03","22:00","-3.4","","-8.1","","70","","17","","6","","25.0","","100.57","","","","-6","","Mostly Cloudy"
"2002-11-03 23:00","2002","11","03","23:00","-2.9","","-7.5","","71","","","","0","","25.0","","100.55","","","","","","Mostly Cloudy"
"2002-11-04 00:00","2002","11","04","00:00","-3.1","","-7.2","","73","","12","","4","","25.0","","100.51","","","","-5","","Mostly Cloudy"
"2002-11-04 01:00","2002","11","04","01:00","-3.2","","-7.0","","75","","10","","7","","25.0","","100.43","","","","-6","","Mostly Cloudy"
"2002-11-04 02:00","2002","11","04","02:00","-3.4","","-6.8","","77","","9","","7","","25.0","","100.37","","","","-6","","Cloudy"
"2002-11-04 03:00","2002","11","04","03:00","-2.9","","-6.8","","74","","9","","9","","24.1","","100.30","","","","-6","","Cloudy"
"2002-11-04 04:00","2002","11","04","04:00","-2.3","","-7.1","","70","","10","","11","","24.1","","100.23","","","","-6","","Cloudy"
"2002-11-04 05:00","2002","11","04","05:00","-1.9","","-7.3","","67","","10","","11","","24.1","","100.19","","","","-6","","Cloudy"
"2002-11-04 06:00","2002","11","04","06:00","-1.9","","-7.3","","67","","9","","9","","24.1","","100.15","","","","-5","","Snow"
"2002-11-04 07:00","2002","11","04","07:00","-2.9","","-6.2","","78","","8","","13","","4.0","","100.09","","","","-8","","Snow"
"2002-11-04 08:00","2002","11","04","08:00","-2.6","","-5.5","","80","","8","","15","","8.0","","100.05","","","","-8","","Snow"
"2002-11-04 09:00","2002","11","04","09:00","-2.6","","-4.8","","85","","8","","17","","1.6","","100.00","","","","-8","","Snow"
"2002-11-04 10:00","2002","11","04","10:00","-2.2","","-4.2","","86","","8","","17","","4.8","","99.96","","","","-8","","Snow"
"2002-11-04 11:00","2002","11","04","11:00","-1.6","","-3.5","","87","","9","","15","","2.4","","99.91","","","","-6","","Snow"
"2002-11-04 12:00","2002","11","04","12:00","-1.5","","-3.0","","89","","7","","13","","0.8","","99.83","","","","-6","","Moderate Snow"
"2002-11-04 13:00","2002","11","04","13:00","-1.0","","-2.5","","90","","9","","13","","1.2","","99.74","","","","-5","","Snow"
"2002-11-04 14:00","2002","11","04","14:00","-0.7","","-1.9","","92","","9","","11","","3.2","","99.71","","","","-4","","Snow"
"2002-11-04 15:00","2002","11","04","15:00","-0.6","","-1.8","","92","","7","","11","","3.2","","99.73","","","","-4","","Snow"
"2002-11-04 16:00","2002","11","04","16:00","-0.6","","-1.5","","94","","3","","9","","2.8","","99.77","","","","-4","","Snow,Fog"
"2002-11-04 17:00","2002","11","04","17:00","-0.8","","-2.0","","92","","3","","7","","3.2","","99.80","","","","-3","","Snow,Fog"
"2002-11-04 18:00","2002","11","04","18:00","-1.2","","-2.6","","90","","5","","6","","4.0","","99.89","","","","-3","","Freezing Rain,Snow,Fog"
"2002-11-04 19:00","2002","11","04","19:00","-1.2","","-2.5","","91","","35","","4","","4.8","","100.01","","","","-3","","Fog"
"2002-11-04 20:00","2002","11","04","20:00","-1.2","","-2.5","","91","","27","","4","","4.8","","100.06","","","","-3","","Fog"
"2002-11-04 21:00","2002","11","04","21:00","-0.7","","-2.2","","90","","27","","11","","4.8","","100.15","","","","-4","","Fog"
"2002-11-04 22:00","2002","11","04","22:00","0.9","","-1.2","","86","","27","","20","","19.3","","100.22","","","","","","Cloudy"
"2002-11-04 23:00","2002","11","04","23:00","0.9","","-2.1","","80","","29","","19","","25.0","","100.34","","","","","","Snow"
"2002-11-05 00:00","2002","11","05","00:00","0.6","","-3.0","","77","","29","","19","","25.0","","100.44","","","","","","Cloudy"
"2002-11-05 01:00","2002","11","05","01:00","0.6","","-3.0","","77","","29","","19","","25.0","","100.56","","","","","","Cloudy"
"2002-11-05 02:00","2002","11","05","02:00","0.7","","-3.4","","74","","30","","13","","25.0","","100.66","","","","","","Cloudy"
"2002-11-05 03:00","2002","11","05","03:00","0.6","","-3.8","","72","","31","","19","","25.0","","100.74","","","","","","Cloudy"
"2002-11-05 04:00","2002","11","05","04:00","0.3","","-4.4","","71","","33","","13","","25.0","","100.79","","","","","","Cloudy"
"2002-11-05 05:00","2002","11","05","05:00","-1.9","","-6.4","","71","","31","","9","","25.0","","100.85","","","","-5","","Mainly Clear"
"2002-11-05 06:00","2002","11","05","06:00","-0.6","","-5.3","","70","","34","","11","","25.0","","100.89","","","","-4","","Cloudy"
"2002-11-05 07:00","2002","11","05","07:00","-0.6","","-5.4","","70","","34","","7","","32.2","","100.92","","","","-3","","Mostly Cloudy"
"2002-11-05 08:00","2002","11","05","08:00","-0.8","","-5.8","","69","","36","","4","","32.2","","100.96","","","","-2","","Cloudy"
"2002-11-05 09:00","2002","11","05","09:00","0.3","","-5.2","","67","","","","0","","32.2","","101.02","","","","","","Cloudy"
"2002-11-05 10:00","2002","11","05","10:00","0.8","","-5.2","","64","","4","","4","","32.2","","101.01","","","","","","Cloudy"
"2002-11-05 11:00","2002","11","05","11:00","1.1","","-6.0","","59","","","","0","","32.2","","100.99","","","","","","Cloudy"
"2002-11-05 12:00","2002","11","05","12:00","1.1","","-5.7","","60","","9","","7","","32.2","","100.86","","","","","","Cloudy"
"2002-11-05 13:00","2002","11","05","13:00","1.2","","-5.5","","61","","14","","9","","32.2","","100.79","","","","","","Cloudy"
"2002-11-05 14:00","2002","11","05","14:00","1.0","","-5.2","","63","","11","","9","","32.2","","100.75","","","","","","Cloudy"
"2002-11-05 15:00","2002","11","05","15:00","0.9","","-4.4","","68","","10","","11","","32.2","","100.72","","","","","","Cloudy"
"2002-11-05 16:00","2002","11","05","16:00","0.6","","-3.9","","72","","9","","15","","32.2","","100.53","","","","","","Cloudy"
"2002-11-05 17:00","2002","11","05","17:00","0.3","","-3.0","","78","","8","","13","","16.1","","100.47","","","","","","Cloudy"
"2002-11-05 18:00","2002","11","05","18:00","-0.4","","-3.0","","83","","9","","17","","16.1","","100.32","","","","-5","","Cloudy"
"2002-11-05 19:00","2002","11","05","19:00","-0.3","","-2.9","","83","","9","","20","","16.1","","100.29","","","","-6","","Cloudy"
"2002-11-05 20:00","2002","11","05","20:00","-0.5","","-3.1","","83","","8","","24","","16.1","","100.15","","","","-6","","Cloudy"
"2002-11-05 21:00","2002","11","05","21:00","-0.5","","-3.3","","81","","8","","24","","16.1","","100.07","","","","-6","","Cloudy"
"2002-11-05 22:00","2002","11","05","22:00","-0.6","","-3.6","","80","","8","","26","","16.1","","99.92","","","","-7","","Cloudy"
"2002-11-05 23:00","2002","11","05","23:00","-0.5","","-3.3","","81","","9","","24","","16.1","","99.66","","","","-6","","Cloudy"
"2002-11-06 00:00","2002","11","06","00:00","-0.6","","-3.0","","84","","10","","22","","6.4","","99.52","","","","-6","","Snow"
"2002-11-06 01:00","2002","11","06","01:00","-0.6","","-2.0","","90","","10","","22","","2.4","","99.42","","","","-6","","Snow"
"2002-11-06 02:00","2002","11","06","02:00","-0.5","","-1.6","","92","","10","","22","","3.2","","99.31","","","","-6","","Snow"
"2002-11-06 03:00","2002","11","06","03:00","-0.5","","-1.4","","94","","7","","22","","4.8","","99.15","","","","-6","","Snow"
"2002-11-06 04:00","2002","11","06","04:00","0.0","","-1.1","","92","","7","","17","","4.8","","99.06","","","","-5","","Snow"
"2002-11-06 05:00","2002","11","06","05:00","0.0","","-0.9","","94","","8","","13","","4.8","","98.99","","","","-4","","Snow"
"2002-11-06 06:00","2002","11","06","06:00","0.2","","-0.8","","93","","8","","15","","8.0","","98.92","","","","","","Drizzle"
"2002-11-06 07:00","2002","11","06","07:00","0.3","","-0.6","","94","","7","","13","","4.0","","98.92","","","","","","Drizzle,Snow Grains,Fog"
"2002-11-06 08:00","2002","11","06","08:00","0.3","","-0.6","","94","","7","","9","","4.0","","98.89","","","","","","Drizzle,Snow Grains,Fog"
"2002-11-06 09:00","2002","11","06","09:00","0.3","","-0.3","","96","","5","","6","","3.2","","98.88","","","","","","Drizzle,Snow Grains,Fog"
"2002-11-06 10:00","2002","11","06","10:00","0.6","","0.1","","96","","","","0","","2.8","","98.85","","","","","","Snow Grains,Fog"
"2002-11-06 11:00","2002","11","06","11:00","0.9","","-0.1","","93","","32","","6","","2.8","","98.83","","","","","","Fog"
"2002-11-06 12:00","2002","11","06","12:00","1.0","","0.0","","93","","32","","11","","2.0","","98.81","","","","","","Fog"
"2002-11-06 13:00","2002","11","06","13:00","1.4","","0.3","","92","","29","","15","","6.4","","98.79","","","","","","Drizzle,Fog"
"2002-11-06 14:00","2002","11","06","14:00","1.7","","0.0","","88","","30","","17","","12.9","","98.80","","","","","","Cloudy"
"2002-11-06 15:00","2002","11","06","15:00","1.6","","-0.6","","85","","29","","20","","19.3","","98.81","","","","","","Cloudy"
"2002-11-06 16:00","2002","11","06","16:00","1.5","","-0.9","","84","","28","","15","","24.1","","98.88","","","","","","Mostly Cloudy"
"2002-11-06 17:00","2002","11","06","17:00","1.4","","-1.4","","82","","28","","9","","24.1","","98.95","","","","","","Mostly Cloudy"
"2002-11-06 18:00","2002","11","06","18:00","0.0","","-2.1","","86","","26","","11","","19.3","","98.99","","","","-4","","Mainly Clear"
"2002-11-06 19:00","2002","11","06","19:00","-0.9","","-2.7","","88","","20","","7","","19.3","","99.00","","","","-3","","Mainly Clear"
"2002-11-06 20:00","2002","11","06","20:00","-0.6","","-2.1","","90","","22","","7","","19.3","","99.02","","","","-3","","Mostly Cloudy"
"2002-11-06 21:00","2002","11","06","21:00","0.1","","-1.5","","89","","24","","7","","16.1","","99.02","","","","","","Cloudy"
"2002-11-06 22:00","2002","11","06","22:00","0.6","","-1.5","","86","","22","","9","","19.3","","99.00","","","","","","Cloudy"
"2002-11-06 23:00","2002","11","06","23:00","0.9","","-0.9","","88","","24","","7","","19.3","","98.98","","","","","","Cloudy"
"2002-11-07 00:00","2002","11","07","00:00","1.1","","-0.9","","86","","28","","15","","16.1","","99.03","","","","","","Rain"
"2002-11-07 01:00","2002","11","07","01:00","-0.7","","-2.8","","86","","33","","22","","19.3","","99.18","","","","-6","","Cloudy"
"2002-11-07 02:00","2002","11","07","02:00","-3.3","","-13.0","","47","","32","","44","","19.3","","99.38","","","","-12","","Mostly Cloudy"
"2002-11-07 03:00","2002","11","07","03:00","-6.4","","-15.9","","47","","33","","39","","24.1","","99.61","","","","-16","","Mainly Clear"
"2002-11-07 04:00","2002","11","07","04:00","-7.9","","-14.4","","60","","32","","37","","24.1","","99.79","","","","-18","","Mainly Clear"
"2002-11-07 05:00","2002","11","07","05:00","-9.8","","-16.5","","58","","33","","28","","24.1","","100.00","","","","-19","","Clear"
"2002-11-07 06:00","2002","11","07","06:00","-11.2","","-17.0","","62","","31","","26","","24.1","","100.19","","","","-20","","Clear"
"2002-11-07 07:00","2002","11","07","07:00","-12.0","","-18.1","","60","","31","","28","","32.2","","100.33","","","","-22","","Clear"
"2002-11-07 08:00","2002","11","07","08:00","-12.0","","-17.7","","63","","31","","20","","32.2","","100.44","","","","-20","","Clear"
"2002-11-07 09:00","2002","11","07","09:00","-11.0","","-17.1","","61","","31","","19","","32.2","","100.51","","","","-19","","Clear"
"2002-11-07 10:00","2002","11","07","10:00","-10.2","","-16.7","","59","","30","","17","","32.2","","100.60","","","","-17","","Clear"
"2002-11-07 11:00","2002","11","07","11:00","-9.1","","-15.8","","58","","28","","11","","32.2","","100.59","","","","-15","","Clear"
"2002-11-07 12:00","2002","11","07","12:00","-8.3","","-15.3","","57","","28","","15","","32.2","","100.59","","","","-15","","Clear"
"2002-11-07 13:00","2002","11","07","13:00","-7.5","","-15.0","","55","","29","","17","","32.2","","100.60","","","","-14","","Clear"
"2002-11-07 14:00","2002","11","07","14:00","-7.1","","-14.6","","55","","27","","13","","32.2","","100.55","","","","-13","","Mainly Clear"
"2002-11-07 15:00","2002","11","07","15:00","-6.1","","-14.6","","51","","27","","13","","32.2","","100.53","","","","-11","","Mainly Clear"
"2002-11-07 16:00","2002","11","07","16:00","-6.0","","-14.4","","51","","26","","6","","32.2","","100.48","","","","-9","","Mostly Cloudy"
"2002-11-07 17:00","2002","11","07","17:00","-7.6","","-14.5","","58","","14","","6","","32.2","","100.43","","","","-11","","Mostly Cloudy"
"2002-11-07 18:00","2002","11","07","18:00","-6.8","","-13.9","","57","","15","","9","","24.1","","100.38","","","","-11","","Mostly Cloudy"
"2002-11-07 19:00","2002","11","07","19:00","-6.0","","-13.1","","57","","16","","11","","24.1","","100.27","","","","-11","","Mostly Cloudy"
"2002-11-07 20:00","2002","11","07","20:00","-5.3","","-13.0","","55","","16","","11","","24.1","","100.16","","","","-10","","Cloudy"
"2002-11-07 21:00","2002","11","07","21:00","-4.8","","-11.6","","59","","17","","11","","24.1","","100.08","","","","-9","","Cloudy"
"2002-11-07 22:00","2002","11","07","22:00","-5.9","","-8.1","","84","","13","","13","","1.2","","99.91","","","","-11","","Snow"
"2002-11-07 23:00","2002","11","07","23:00","-5.4","","-7.4","","86","","12","","19","","16.1","","99.86","","","","-12","","Snow"
"2002-11-08 00:00","2002","11","08","00:00","-5.3","","-7.3","","86","","13","","15","","2.4","","99.70","","","","-11","","Snow"
"2002-11-08 01:00","2002","11","08","01:00","-4.0","","-6.4","","83","","13","","15","","16.1","","99.62","","","","-9","","Snow"
"2002-11-08 02:00","2002","11","08","02:00","-3.6","","-6.0","","83","","11","","15","","16.1","","99.51","","","","-9","","Snow"
"2002-11-08 03:00","2002","11","08","03:00","-3.0","","-5.7","","82","","9","","9","","19.3","","99.41","","","","-7","","Cloudy"
"2002-11-08 04:00","2002","11","08","04:00","-3.2","","-5.5","","84","","7","","13","","24.1","","99.37","","","","-8","","Cloudy"
"2002-11-08 05:00","2002","11","08","05:00","-3.2","","-5.4","","85","","5","","9","","24.1","","99.35","","","","-7","","Cloudy"
"2002-11-08 06:00","2002","11","08","06:00","-3.2","","-5.4","","85","","7","","7","","24.1","","99.31","","","","-6","","Cloudy"
"2002-11-08 07:00","2002","11","08","07:00","-1.4","","-3.6","","85","","6","","4","","16.1","","99.28","","","","-3","","Cloudy"
"2002-11-08 08:00","2002","11","08","08:00","3.7","","1.8","","87","","20","","13","","16.1","","99.30","","","","","","Cloudy"
"2002-11-08 09:00","2002","11","08","09:00","5.2","","2.5","","83","","19","","19","","12.9","","99.25","","","","","","Cloudy"
"2002-11-08 10:00","2002","11","08","10:00","6.9","","3.4","","78","","20","","20","","12.9","","99.22","","","","","","Mostly Cloudy"
"2002-11-08 11:00","2002","11","08","11:00","8.6","","4.2","","74","","19","","20","","16.1","","99.17","","","","","","Mainly Clear"
"2002-11-08 12:00","2002","11","08","12:00","10.7","","5.2","","69","","21","","24","","19.3","","99.10","","","","","","Mostly Cloudy"
"2002-11-08 13:00","2002","11","08","13:00","12.5","","6.0","","65","","22","","22","","24.1","","99.03","","","","","","Mainly Clear"
"2002-11-08 14:00","2002","11","08","14:00","13.4","","6.1","","61","","22","","26","","24.1","","99.00","","","","","","Mainly Clear"
"2002-11-08 15:00","2002","11","08","15:00","13.8","","6.3","","61","","22","","22","","19.3","","98.99","","","","","","Mainly Clear"
"2002-11-08 16:00","2002","11","08","16:00","12.8","","5.3","","60","","22","","22","","19.3","","99.04","","","","","","Mostly Cloudy"
"2002-11-08 17:00","2002","11","08","17:00","11.7","","5.3","","65","","22","","19","","19.3","","99.09","","","","","","Mostly Cloudy"
"2002-11-08 18:00","2002","11","08","18:00","11.3","","5.3","","67","","22","","15","","16.1","","99.18","","","","","","Cloudy"
"2002-11-08 19:00","2002","11","08","19:00","10.4","","5.2","","70","","24","","9","","16.1","","99.26","","","","","","Cloudy"
"2002-11-08 20:00","2002","11","08","20:00","10.3","","5.2","","71","","23","","9","","16.1","","99.33","","","","","","Cloudy"
"2002-11-08 21:00","2002","11","08","21:00","9.7","","5.1","","73","","22","","9","","16.1","","99.35","","","","","","Cloudy"
"2002-11-08 22:00","2002","11","08","22:00","8.9","","4.7","","75","","22","","11","","16.1","","99.35","","","","","","Mostly Cloudy"
"2002-11-08 23:00","2002","11","08","23:00","9.0","","4.6","","74","","22","","11","","24.1","","99.38","","","","","","Mainly Clear"
"2002-11-09 00:00","2002","11","09","00:00","7.9","","4.2","","77","","21","","9","","24.1","","99.44","","","","","","Mostly Cloudy"
"2002-11-09 01:00","2002","11","09","01:00","7.6","","4.4","","80","","20","","7","","19.3","","99.50","","","","","","Mainly Clear"
"2002-11-09 02:00","2002","11","09","02:00","7.6","","4.0","","78","","21","","7","","19.3","","99.53","","","","","","Mainly Clear"
"2002-11-09 03:00","2002","11","09","03:00","6.6","","3.9","","83","","27","","6","","19.3","","99.58","","","","","","Mostly Cloudy"
"2002-11-09 04:00","2002","11","09","04:00","7.2","","3.9","","80","","22","","4","","19.3","","99.58","","","","","","Mostly Cloudy"
"2002-11-09 05:00","2002","11","09","05:00","7.2","","4.1","","81","","","","0","","19.3","","99.65","","","","","","Mostly Cloudy"
"2002-11-09 06:00","2002","11","09","06:00","5.7","","3.3","","85","","","","0","","19.3","","99.64","","","","","","Mostly Cloudy"
"2002-11-09 07:00","2002","11","09","07:00","6.9","","3.9","","81","","18","","4","","24.1","","99.70","","","","","","Mostly Cloudy"
"2002-11-09 08:00","2002","11","09","08:00","7.2","","4.4","","82","","17","","7","","24.1","","99.74","","","","","","Mostly Cloudy"
"2002-11-09 09:00","2002","11","09","09:00","9.2","","6.1","","81","","15","","6","","24.1","","99.75","","","","","","Mostly Cloudy"
"2002-11-09 10:00","2002","11","09","10:00","10.7","","6.0","","73","","19","","13","","24.1","","99.76","","","","","","Mainly Clear"
"2002-11-09 11:00","2002","11","09","11:00","11.9","","6.2","","68","","17","","11","","19.3","","99.68","","","","","","Mainly Clear"
"2002-11-09 12:00","2002","11","09","12:00","14.1","","6.4","","60","","19","","13","","24.1","","99.58","","","","","","Clear"
"2002-11-09 13:00","2002","11","09","13:00","15.7","","6.5","","54","","19","","13","","24.1","","99.53","","","","","","Mainly Clear"
"2002-11-09 14:00","2002","11","09","14:00","16.2","","6.2","","51","","19","","20","","32.2","","99.48","","","","","","Mainly Clear"
"2002-11-09 15:00","2002","11","09","15:00","15.4","","5.7","","52","","19","","13","","32.2","","99.44","","","","","","Mostly Cloudy"
"2002-11-09 16:00","2002","11","09","16:00","14.4","","5.6","","55","","18","","15","","32.2","","99.46","","","","","","Cloudy"
"2002-11-09 17:00","2002","11","09","17:00","13.0","","5.2","","59","","18","","11","","32.2","","99.46","","","","","","Cloudy"
"2002-11-09 18:00","2002","11","09","18:00","12.5","","5.1","","61","","17","","11","","24.1","","99.49","","","","","","Cloudy"
"2002-11-09 19:00","2002","11","09","19:00","12.5","","4.8","","59","","19","","11","","25.0","","99.49","","","","","","Mostly Cloudy"
"2002-11-09 20:00","2002","11","09","20:00","10.7","","4.3","","65","","15","","11","","25.0","","99.43","","","","","","Mainly Clear"
"2002-11-09 21:00","2002","11","09","21:00","10.6","","4.2","","65","","17","","7","","25.0","","99.45","","","","","","Mostly Cloudy"
"2002-11-09 22:00","2002","11","09","22:00","10.5","","4.6","","67","","17","","6","","25.0","","99.44","","","","","","Mostly Cloudy"
"2002-11-09 23:00","2002","11","09","23:00","12.0","","5.3","","64","","20","","4","","25.0","","99.48","","","","","","Mostly Cloudy"
"2002-11-10 00:00","2002","11","10","00:00","11.5","","5.3","","66","","16","","9","","25.0","","99.42","","","","","","Mostly Cloudy"
"2002-11-10 01:00","2002","11","10","01:00","12.0","","6.0","","67","","16","","9","","24.1","","99.41","","","","","","Cloudy"
"2002-11-10 02:00","2002","11","10","02:00","8.2","","4.4","","77","","5","","7","","24.1","","99.41","","","","","","Cloudy"
"2002-11-10 03:00","2002","11","10","03:00","6.9","","3.5","","79","","8","","9","","19.3","","99.35","","","","","","Cloudy"
"2002-11-10 04:00","2002","11","10","04:00","6.7","","3.4","","79","","7","","13","","19.3","","99.28","","","","","","Cloudy"
"2002-11-10 05:00","2002","11","10","05:00","6.3","","3.4","","82","","6","","11","","19.3","","99.24","","","","","","Cloudy"
"2002-11-10 06:00","2002","11","10","06:00","6.1","","3.2","","82","","9","","15","","19.3","","99.11","","","","","","Mostly Cloudy"
"2002-11-10 07:00","2002","11","10","07:00","6.5","","3.7","","82","","6","","13","","19.3","","99.07","","","","","","Mostly Cloudy"
"2002-11-10 08:00","2002","11","10","08:00","6.4","","3.6","","82","","8","","13","","19.3","","99.01","","","","","","Cloudy"
"2002-11-10 09:00","2002","11","10","09:00","8.3","","4.8","","79","","9","","11","","19.3","","98.98","","","","","","Mostly Cloudy"
"2002-11-10 10:00","2002","11","10","10:00","10.6","","6.0","","73","","9","","13","","19.3","","98.91","","","","","","Cloudy"
"2002-11-10 11:00","2002","11","10","11:00","12.0","","6.9","","71","","8","","13","","19.3","","98.78","","","","","","Cloudy"
"2002-11-10 12:00","2002","11","10","12:00","17.6","","8.9","","57","","18","","22","","24.1","","98.63","","","","","","Mostly Cloudy"
"2002-11-10 13:00","2002","11","10","13:00","17.4","","9.5","","60","","18","","17","","19.3","","98.52","","","","","","Cloudy"
"2002-11-10 14:00","2002","11","10","14:00","14.2","","11.3","","83","","20","","13","","4.8","","98.50","","","","","","Moderate Rain"
"2002-11-10 15:00","2002","11","10","15:00","13.3","","12.1","","92","","17","","13","","6.4","","98.44","","","","","","Rain,Fog"
"2002-11-10 16:00","2002","11","10","16:00","13.7","","12.8","","94","","18","","20","","4.8","","98.39","","","","","","Rain,Fog"
"2002-11-10 17:00","2002","11","10","17:00","14.0","","12.9","","93","","21","","26","","8.0","","98.45","","","","","","Rain,Fog"
"2002-11-10 18:00","2002","11","10","18:00","14.1","","12.6","","91","","21","","19","","19.3","","98.54","","","","","","Cloudy"
"2002-11-10 19:00","2002","11","10","19:00","14.2","","12.7","","91","","21","","17","","16.1","","98.63","","","","","","Cloudy"
"2002-11-10 20:00","2002","11","10","20:00","14.1","","12.9","","92","","19","","7","","16.1","","98.64","","","","","","Cloudy"
"2002-11-10 21:00","2002","11","10","21:00","13.2","","12.2","","94","","13","","6","","16.1","","98.58","","","","","","Mostly Cloudy"
"2002-11-10 22:00","2002","11","10","22:00","12.8","","11.7","","93","","13","","9","","19.3","","98.55","","","","","","Cloudy"
"2002-11-10 23:00","2002","11","10","23:00","13.1","","11.8","","92","","15","","11","","19.3","","98.46","","","","","","Cloudy"
"2002-11-11 00:00","2002","11","11","00:00","14.3","","12.4","","88","","16","","13","","19.3","","98.44","","","","","","Rain"
"2002-11-11 01:00","2002","11","11","01:00","14.3","","13.3","","94","","19","","7","","8.0","","98.46","","","","","","Thunderstorms,Moderate Rain Showers"
"2002-11-11 02:00","2002","11","11","02:00","14.4","","13.6","","95","","14","","15","","9.7","","98.27","","","","","","Rain Showers,Fog"
"2002-11-11 03:00","2002","11","11","03:00","15.3","","13.7","","90","","13","","15","","16.1","","98.13","","","","","","Cloudy"
"2002-11-11 04:00","2002","11","11","04:00","15.2","","13.6","","90","","14","","13","","16.1","","98.15","","","","","","Cloudy"
"2002-11-11 05:00","2002","11","11","05:00","15.8","","14.0","","89","","20","","9","","16.1","","98.16","","","","","","Cloudy"
"2002-11-11 06:00","2002","11","11","06:00","16.3","","14.1","","87","","22","","17","","19.3","","98.18","","","","","","Mostly Cloudy"
"2002-11-11 07:00","2002","11","11","07:00","16.0","","13.3","","84","","22","","17","","19.3","","98.28","","","","","","Cloudy"
"2002-11-11 08:00","2002","11","11","08:00","15.9","","12.8","","82","","22","","26","","19.3","","98.32","","","","","","Mostly Cloudy"
"2002-11-11 09:00","2002","11","11","09:00","16.0","","12.7","","81","","23","","30","","24.1","","98.44","","","","","","Cloudy"
"2002-11-11 10:00","2002","11","11","10:00","15.0","","12.3","","84","","25","","20","","19.3","","98.63","","","","","","Rain Showers"
"2002-11-11 11:00","2002","11","11","11:00","14.4","","12.6","","89","","25","","19","","16.1","","98.79","","","","","","Rain Showers"
"2002-11-11 12:00","2002","11","11","12:00","11.8","","9.7","","87","","28","","13","","32.2","","98.94","","","","","","Cloudy"
"2002-11-11 13:00","2002","11","11","13:00","10.2","","7.2","","82","","29","","24","","32.2","","99.12","","","","","","Mostly Cloudy"
"2002-11-11 14:00","2002","11","11","14:00","8.8","","6.1","","83","","31","","20","","32.2","","99.29","","","","","","Mostly Cloudy"
"2002-11-11 15:00","2002","11","11","15:00","8.3","","5.2","","81","","29","","19","","32.2","","99.45","","","","","","Mostly Cloudy"
"2002-11-11 16:00","2002","11","11","16:00","7.6","","4.4","","80","","29","","20","","32.2","","99.62","","","","","","Mostly Cloudy"
"2002-11-11 17:00","2002","11","11","17:00","6.7","","2.7","","76","","30","","22","","32.2","","99.79","","","","","","Cloudy"
"2002-11-11 18:00","2002","11","11","18:00","6.4","","2.8","","78","","29","","17","","24.1","","100.00","","","","","","Cloudy"
"2002-11-11 19:00","2002","11","11","19:00","6.2","","2.4","","77","","31","","11","","25.0","","100.11","","","","","","Cloudy"
"2002-11-11 20:00","2002","11","11","20:00","6.2","","2.2","","76","","24","","6","","25.0","","100.20","","","","","","Cloudy"
"2002-11-11 21:00","2002","11","11","21:00","5.5","","2.6","","82","","27","","7","","25.0","","100.28","","","","","","Cloudy"
"2002-11-11 22:00","2002","11","11","22:00","5.6","","2.4","","80","","29","","6","","25.0","","100.30","","","","","","Cloudy"
"2002-11-11 23:00","2002","11","11","23:00","5.3","","2.2","","80","","27","","6","","25.0","","100.36","","","","","","Cloudy"
"2002-11-12 00:00","2002","11","12","00:00","5.1","","2.4","","83","","24","","7","","24.1","","100.45","","","","","","Cloudy"
"2002-11-12 01:00","2002","11","12","01:00","4.9","","2.5","","84","","26","","6","","19.3","","100.52","","","","","","Cloudy"
"2002-11-12 02:00","2002","11","12","02:00","4.4","","2.6","","88","","31","","7","","19.3","","100.58","","","","","","Rain"
"2002-11-12 03:00","2002","11","12","03:00","4.3","","2.7","","89","","34","","7","","19.3","","100.65","","","","","","Rain"
"2002-11-12 04:00","2002","11","12","04:00","4.1","","3.0","","93","","2","","6","","19.3","","100.67","","","","","","Cloudy"
"2002-11-12 05:00","2002","11","12","05:00","4.1","","2.3","","88","","5","","4","","19.3","","100.70","","","","","","Cloudy"
"2002-11-12 06:00","2002","11","12","06:00","4.0","","1.9","","86","","1","","6","","16.1","","100.75","","","","","","Rain"
"2002-11-12 07:00","2002","11","12","07:00","3.8","","2.1","","89","","2","","4","","24.1","","100.77","","","","","","Cloudy"
"2002-11-12 08:00","2002","11","12","08:00","3.9","","2.0","","87","","8","","6","","24.1","","100.80","","","","","","Cloudy"
"2002-11-12 09:00","2002","11","12","09:00","4.1","","1.7","","84","","6","","4","","24.1","","100.89","","","","","","Cloudy"
"2002-11-12 10:00","2002","11","12","10:00","4.4","","1.5","","81","","1","","6","","24.1","","100.85","","","","","","Cloudy"
"2002-11-12 11:00","2002","11","12","11:00","4.8","","1.5","","79","","8","","4","","24.1","","100.84","","","","","","Cloudy"
"2002-11-12 12:00","2002","11","12","12:00","5.0","","1.5","","78","","10","","6","","24.1","","100.80","","","","","","Cloudy"
"2002-11-12 13:00","2002","11","12","13:00","5.3","","1.6","","77","","","","0","","24.1","","100.75","","","","","","Cloudy"
"2002-11-12 14:00","2002","11","12","14:00","5.5","","1.9","","78","","","","0","","24.1","","100.73","","","","","","Cloudy"
"2002-11-12 15:00","2002","11","12","15:00","5.6","","1.9","","77","","","","0","","24.1","","100.64","","","","","","Cloudy"
"2002-11-12 16:00","2002","11","12","16:00","5.5","","1.8","","77","","","","0","","24.1","","100.66","","","","","","Cloudy"
"2002-11-12 17:00","2002","11","12","17:00","5.2","","1.9","","79","","6","","7","","24.1","","100.62","","","","","","Cloudy"
"2002-11-12 18:00","2002","11","12","18:00","5.1","","2.0","","80","","6","","6","","24.1","","100.59","","","","","","Cloudy"
"2002-11-12 19:00","2002","11","12","19:00","5.0","","1.9","","80","","7","","4","","24.1","","100.60","","","","","","Cloudy"
"2002-11-12 20:00","2002","11","12","20:00","4.9","","1.9","","81","","4","","6","","24.1","","100.53","","","","","","Cloudy"
"2002-11-12 21:00","2002","11","12","21:00","4.8","","1.8","","81","","7","","6","","24.1","","100.50","","","","","","Cloudy"
"2002-11-12 22:00","2002","11","12","22:00","4.3","","1.9","","84","","8","","6","","24.1","","100.44","","","","","","Cloudy"
"2002-11-12 23:00","2002","11","12","23:00","4.0","","2.0","","87","","2","","4","","24.1","","100.43","","","","","","Cloudy"
"2002-11-13 00:00","2002","11","13","00:00","4.0","","2.3","","89","","30","","7","","19.3","","100.40","","","","","","Cloudy"
"2002-11-13 01:00","2002","11","13","01:00","4.3","","2.3","","87","","27","","9","","16.1","","100.40","","","","","","Cloudy"
"2002-11-13 02:00","2002","11","13","02:00","3.8","","1.4","","84","","30","","11","","19.3","","100.41","","","","","","Cloudy"
"2002-11-13 03:00","2002","11","13","03:00","3.7","","0.5","","80","","32","","9","","24.1","","100.39","","","","","","Cloudy"
"2002-11-13 04:00","2002","11","13","04:00","3.7","","0.0","","77","","30","","11","","24.1","","100.42","","","","","","Cloudy"
"2002-11-13 05:00","2002","11","13","05:00","3.1","","-0.7","","76","","34","","15","","24.1","","100.39","","","","","","Cloudy"
"2002-11-13 06:00","2002","11","13","06:00","3.2","","-0.5","","77","","","","0","","24.1","","100.42","","","","","","Cloudy"
"2002-11-13 07:00","2002","11","13","07:00","3.4","","-0.7","","74","","22","","4","","24.1","","100.43","","","","","","Cloudy"
"2002-11-13 08:00","2002","11","13","08:00","3.6","","-0.6","","74","","22","","4","","24.1","","100.48","","","","","","Cloudy"
"2002-11-13 09:00","2002","11","13","09:00","3.7","","0.2","","78","","17","","4","","24.1","","100.48","","","","","","Cloudy"
"2002-11-13 10:00","2002","11","13","10:00","4.3","","0.2","","75","","25","","7","","24.1","","100.45","","","","","","Cloudy"
"2002-11-13 11:00","2002","11","13","11:00","5.3","","0.2","","70","","17","","6","","24.1","","100.39","","","","","","Cloudy"
"2002-11-13 12:00","2002","11","13","12:00","5.4","","-0.9","","64","","22","","9","","24.1","","100.35","","","","","","Cloudy"
"2002-11-13 13:00","2002","11","13","13:00","5.7","","-0.9","","62","","23","","9","","24.1","","100.27","","","","","","Cloudy"
"2002-11-13 14:00","2002","11","13","14:00","5.5","","-0.1","","67","","24","","13","","24.1","","100.28","","","","","","Cloudy"
"2002-11-13 15:00","2002","11","13","15:00","5.5","","0.3","","69","","22","","9","","24.1","","100.27","","","","","","Cloudy"
"2002-11-13 16:00","2002","11","13","16:00","5.6","","0.0","","67","","22","","9","","24.1","","100.30","","","","","","Cloudy"
"2002-11-13 17:00","2002","11","13","17:00","5.3","","0.0","","69","","21","","6","","24.1","","100.34","","","","","","Cloudy"
"2002-11-13 18:00","2002","11","13","18:00","4.8","","0.2","","72","","17","","6","","24.1","","100.30","","","","","","Cloudy"
"2002-11-13 19:00","2002","11","13","19:00","3.7","","-0.2","","76","","19","","7","","24.1","","100.27","","","","","","Mostly Cloudy"
"2002-11-13 20:00","2002","11","13","20:00","4.0","","-0.1","","75","","20","","7","","24.1","","100.28","","","","","","Mostly Cloudy"
"2002-11-13 21:00","2002","11","13","21:00","2.7","","-0.7","","78","","21","","7","","19.3","","100.27","","","","","","Mainly Clear"
"2002-11-13 22:00","2002","11","13","22:00","3.4","","-0.6","","75","","21","","13","","19.3","","100.24","","","","","","Mostly Cloudy"
"2002-11-13 23:00","2002","11","13","23:00","2.0","","-1.2","","79","","22","","7","","19.3","","100.22","","","","","","Mainly Clear"
"2002-11-14 00:00","2002","11","14","00:00","2.1","","-1.2","","79","","21","","7","","16.1","","100.21","","","","","","Mainly Clear"
"2002-11-14 01:00","2002","11","14","01:00","1.6","","-1.4","","80","","20","","6","","12.9","","100.19","","","","","","Mostly Cloudy"
"2002-11-14 02:00","2002","11","14","02:00","1.9","","-0.9","","82","","19","","6","","16.1","","100.19","","","","","","Mostly Cloudy"
"2002-11-14 03:00","2002","11","14","03:00","1.8","","-0.6","","84","","22","","6","","12.9","","100.17","","","","","","Mostly Cloudy"
"2002-11-14 04:00","2002","11","14","04:00","1.6","","-0.6","","85","","19","","7","","12.9","","100.10","","","","","","Mainly Clear"
"2002-11-14 05:00","2002","11","14","05:00","0.7","","-1.0","","88","","20","","7","","9.7","","100.12","","","","","","Fog"
"2002-11-14 06:00","2002","11","14","06:00","-0.2","","-1.9","","88","","16","","7","","6.4","","100.05","","","","-3","","Fog"
"2002-11-14 07:00","2002","11","14","07:00","0.2","","-1.2","","90","","18","","6","","4.0","","100.04","","","","","","Fog"
"2002-11-14 08:00","2002","11","14","08:00","0.3","","-0.9","","92","","17","","7","","4.0","","100.00","","","","","","Fog"
"2002-11-14 09:00","2002","11","14","09:00","2.0","","0.6","","90","","18","","9","","4.8","","99.95","","","","","","Fog"
"2002-11-14 10:00","2002","11","14","10:00","4.0","","2.5","","90","","18","","11","","6.4","","99.88","","","","","","Fog"
"2002-11-14 11:00","2002","11","14","11:00","5.0","","2.2","","82","","15","","11","","6.4","","99.74","","","","","","Fog"
"2002-11-14 12:00","2002","11","14","12:00","7.2","","2.9","","74","","17","","11","","9.7","","99.61","","","","","","Haze"
"2002-11-14 13:00","2002","11","14","13:00","8.5","","3.0","","68","","20","","15","","16.1","","99.53","","","","","","Cloudy"
"2002-11-14 14:00","2002","11","14","14:00","9.1","","3.1","","66","","20","","19","","16.1","","99.46","","","","","","Cloudy"
"2002-11-14 15:00","2002","11","14","15:00","9.6","","3.7","","67","","23","","15","","16.1","","99.48","","","","","","Cloudy"
"2002-11-14 16:00","2002","11","14","16:00","9.0","","4.2","","72","","19","","9","","16.1","","99.45","","","","","","Cloudy"
"2002-11-14 17:00","2002","11","14","17:00","9.4","","4.4","","71","","19","","9","","16.1","","99.39","","","","","","Cloudy"
"2002-11-14 18:00","2002","11","14","18:00","10.2","","4.9","","70","","22","","20","","16.1","","99.41","","","","","","Cloudy"
"2002-11-14 19:00","2002","11","14","19:00","9.8","","6.0","","77","","22","","19","","16.1","","99.43","","","","","","Drizzle"
"2002-11-14 20:00","2002","11","14","20:00","8.6","","6.6","","87","","23","","17","","9.7","","99.42","","","","","","Rain,Fog"
"2002-11-14 21:00","2002","11","14","21:00","8.6","","5.8","","83","","24","","19","","19.3","","99.41","","","","","","Cloudy"
"2002-11-14 22:00","2002","11","14","22:00","8.1","","5.8","","85","","24","","15","","16.1","","99.43","","","","","","Rain"
"2002-11-14 23:00","2002","11","14","23:00","7.3","","6.0","","91","","25","","11","","12.9","","99.46","","","","","","Rain"
"2002-11-15 00:00","2002","11","15","00:00","6.9","","5.3","","90","","25","","15","","12.9","","99.49","","","","","","Rain"
"2002-11-15 01:00","2002","11","15","01:00","6.3","","4.9","","91","","27","","13","","16.1","","99.52","","","","","","Rain"
"2002-11-15 02:00","2002","11","15","02:00","4.3","","2.7","","89","","29","","20","","16.1","","99.58","","","","","","Rain"
"2002-11-15 03:00","2002","11","15","03:00","3.4","","1.2","","85","","29","","17","","16.1","","99.59","","","","","","Rain"
"2002-11-15 04:00","2002","11","15","04:00","3.0","","1.2","","88","","28","","15","","16.1","","99.65","","","","","","Rain"
"2002-11-15 05:00","2002","11","15","05:00","2.4","","0.6","","88","","30","","17","","16.1","","99.70","","","","","","Rain"
"2002-11-15 06:00","2002","11","15","06:00","0.9","","-0.9","","88","","33","","17","","12.9","","99.77","","","","","","Snow"
"2002-11-15 07:00","2002","11","15","07:00","0.8","","-1.4","","85","","32","","19","","19.3","","99.87","","","","","","Rain,Snow"
"2002-11-15 08:00","2002","11","15","08:00","1.0","","-1.6","","83","","32","","15","","24.1","","99.96","","","","","","Snow"
"2002-11-15 09:00","2002","11","15","09:00","1.1","","-1.7","","82","","32","","15","","24.1","","100.04","","","","","","Cloudy"
"2002-11-15 10:00","2002","11","15","10:00","0.6","","-2.9","","77","","32","","19","","24.1","","100.14","","","","","","Cloudy"
"2002-11-15 11:00","2002","11","15","11:00","0.2","","-4.2","","72","","32","","19","","24.1","","100.22","","","","","","Cloudy"
"2002-11-15 12:00","2002","11","15","12:00","-0.1","","-5.4","","67","","32","","19","","24.1","","100.30","","","","-5","","Cloudy"
"2002-11-15 13:00","2002","11","15","13:00","-0.8","","-6.7","","64","","33","","22","","24.1","","100.39","","","","-7","","Mostly Cloudy"
"2002-11-15 14:00","2002","11","15","14:00","-0.7","","-7.5","","60","","32","","19","","24.1","","100.46","","","","-6","","Mostly Cloudy"
"2002-11-15 15:00","2002","11","15","15:00","-0.8","","-8.6","","55","","33","","22","","32.2","","100.60","","","","-7","","Mostly Cloudy"
"2002-11-15 16:00","2002","11","15","16:00","-1.6","","-10.3","","51","","34","","22","","32.2","","100.72","","","","-8","","Mostly Cloudy"
"2002-11-15 17:00","2002","11","15","17:00","-2.9","","-11.3","","52","","33","","20","","25.0","","100.85","","","","-9","","Mainly Clear"
"2002-11-15 18:00","2002","11","15","18:00","-3.3","","-12.1","","51","","34","","15","","25.0","","100.97","","","","-8","","Mainly Clear"
"2002-11-15 19:00","2002","11","15","19:00","-3.8","","-13.0","","49","","35","","19","","25.0","","101.09","","","","-10","","Clear"
"2002-11-15 20:00","2002","11","15","20:00","-4.9","","-12.8","","54","","35","","15","","25.0","","101.13","","","","-10","","Clear"
"2002-11-15 21:00","2002","11","15","21:00","-5.2","","-12.7","","56","","36","","9","","25.0","","101.22","","","","-9","","Clear"
"2002-11-15 22:00","2002","11","15","22:00","-5.6","","-13.2","","55","","2","","17","","25.0","","101.32","","","","-12","","Clear"
"2002-11-15 23:00","2002","11","15","23:00","-6.1","","-13.3","","57","","1","","17","","25.0","","101.36","","","","-12","","Clear"
"2002-11-16 00:00","2002","11","16","00:00","-6.9","","-13.4","","60","","2","","11","","25.0","","101.39","","","","-12","","Mainly Clear"
"2002-11-16 01:00","2002","11","16","01:00","-7.0","","-13.6","","59","","3","","19","","25.0","","101.45","","","","-14","","Mainly Clear"
"2002-11-16 02:00","2002","11","16","02:00","-7.7","","-13.4","","64","","2","","15","","25.0","","101.50","","","","-14","","Mainly Clear"
"2002-11-16 03:00","2002","11","16","03:00","-7.9","","-13.2","","66","","2","","15","","25.0","","101.52","","","","-14","","Mainly Clear"
"2002-11-16 04:00","2002","11","16","04:00","-8.2","","-13.1","","68","","4","","11","","25.0","","101.56","","","","-13","","Mainly Clear"
"2002-11-16 05:00","2002","11","16","05:00","-8.6","","-13.4","","68","","5","","13","","25.0","","101.58","","","","-15","","Mainly Clear"
"2002-11-16 06:00","2002","11","16","06:00","-9.0","","-13.3","","71","","4","","13","","25.0","","101.61","","","","-15","","Mainly Clear"
"2002-11-16 07:00","2002","11","16","07:00","-9.3","","-13.5","","71","","4","","15","","32.2","","101.64","","","","-16","","Mainly Clear"
"2002-11-16 08:00","2002","11","16","08:00","-9.0","","-13.2","","72","","4","","17","","32.2","","101.69","","","","-16","","Mainly Clear"
"2002-11-16 09:00","2002","11","16","09:00","-7.7","","-13.9","","61","","6","","24","","32.2","","101.71","","","","-16","","Mainly Clear"
"2002-11-16 10:00","2002","11","16","10:00","-6.8","","-13.4","","59","","6","","24","","32.2","","101.69","","","","-14","","Mainly Clear"
"2002-11-16 11:00","2002","11","16","11:00","-5.7","","-13.1","","56","","7","","22","","32.2","","101.71","","","","-13","","Mainly Clear"
"2002-11-16 12:00","2002","11","16","12:00","-4.0","","-12.9","","50","","7","","30","","32.2","","101.56","","","","-12","","Mainly Clear"
"2002-11-16 13:00","2002","11","16","13:00","-2.9","","-13.3","","45","","8","","26","","32.2","","101.52","","","","-10","","Mainly Clear"
"2002-11-16 14:00","2002","11","16","14:00","-3.3","","-12.7","","48","","7","","28","","32.2","","101.49","","","","-11","","Mostly Cloudy"
"2002-11-16 15:00","2002","11","16","15:00","-2.9","","-12.1","","49","","6","","24","","32.2","","101.43","","","","-10","","Mostly Cloudy"
"2002-11-16 16:00","2002","11","16","16:00","-3.1","","-13.1","","46","","6","","19","","32.2","","101.39","","","","-9","","Mostly Cloudy"
"2002-11-16 17:00","2002","11","16","17:00","-3.3","","-13.4","","46","","8","","24","","25.0","","101.38","","","","-10","","Mostly Cloudy"
"2002-11-16 18:00","2002","11","16","18:00","-3.4","","-12.6","","49","","8","","24","","25.0","","101.35","","","","-10","","Mostly Cloudy"
"2002-11-16 19:00","2002","11","16","19:00","-3.6","","-11.9","","53","","8","","28","","24.1","","101.33","","","","-11","","Cloudy"
"2002-11-16 20:00","2002","11","16","20:00","-3.6","","-11.6","","54","","7","","22","","24.1","","101.27","","","","-10","","Cloudy"
"2002-11-16 21:00","2002","11","16","21:00","-3.4","","-11.2","","55","","7","","22","","24.1","","101.24","","","","-10","","Cloudy"
"2002-11-16 22:00","2002","11","16","22:00","-3.3","","-10.3","","58","","7","","22","","9.7","","101.13","","","","-10","","Snow"
"2002-11-16 23:00","2002","11","16","23:00","-3.7","","-8.6","","69","","7","","19","","9.7","","101.06","","","","-10","","Snow"
"2002-11-17 00:00","2002","11","17","00:00","-4.3","","-7.4","","79","","7","","24","","6.4","","100.92","","","","-11","","Snow"
"2002-11-17 01:00","2002","11","17","01:00","-4.2","","-6.8","","82","","6","","24","","9.7","","100.89","","","","-11","","Snow"
"2002-11-17 02:00","2002","11","17","02:00","-4.1","","-6.8","","81","","6","","26","","3.2","","100.79","","","","-11","","Snow"
"2002-11-17 03:00","2002","11","17","03:00","-4.3","","-6.8","","83","","6","","32","","3.2","","100.70","","","","-12","","Snow"
"2002-11-17 04:00","2002","11","17","04:00","-4.3","","-6.9","","82","","6","","30","","4.8","","100.57","","","","-12","","Snow"
"2002-11-17 05:00","2002","11","17","05:00","-4.3","","-7.0","","81","","7","","30","","4.8","","100.50","","","","-12","","Snow"
"2002-11-17 06:00","2002","11","17","06:00","-4.4","","-7.1","","81","","7","","35","","2.8","","100.43","","","","-13","","Snow,Blowing Snow"
"2002-11-17 07:00","2002","11","17","07:00","-4.5","","-7.0","","83","","6","","30","","1.6","","100.30","","","","-12","","Snow"
"2002-11-17 08:00","2002","11","17","08:00","-4.2","","-6.6","","83","","7","","32","","1.0","","100.22","","","","-12","","Snow"
"2002-11-17 09:00","2002","11","17","09:00","-3.7","","-6.1","","83","","7","","28","","2.0","","100.20","","","","-11","","Snow"
"2002-11-17 10:00","2002","11","17","10:00","-3.4","","-5.9","","83","","6","","28","","1.6","","100.13","","","","-11","","Snow"
"2002-11-17 11:00","2002","11","17","11:00","-3.0","","-5.4","","83","","7","","24","","2.0","","99.96","","","","-10","","Snow"
"2002-11-17 12:00","2002","11","17","12:00","-2.7","","-5.1","","84","","7","","26","","3.2","","99.88","","","","-10","","Snow"
"2002-11-17 13:00","2002","11","17","13:00","-2.6","","-4.8","","85","","7","","26","","2.0","","99.69","","","","-9","","Snow"
"2002-11-17 14:00","2002","11","17","14:00","-2.6","","-5.0","","84","","7","","24","","2.0","","99.66","","","","-9","","Snow"
"2002-11-17 15:00","2002","11","17","15:00","-2.7","","-4.7","","86","","6","","19","","0.8","","99.62","","","","-8","","Moderate Snow"
"2002-11-17 16:00","2002","11","17","16:00","-2.5","","-4.5","","86","","6","","20","","1.6","","99.65","","","","-8","","Snow"
"2002-11-17 17:00","2002","11","17","17:00","-2.7","","-4.7","","86","","6","","20","","1.2","","99.55","","","","-9","","Snow"
"2002-11-17 18:00","2002","11","17","18:00","-2.7","","-4.6","","87","","6","","19","","1.6","","99.45","","","","-8","","Snow"
"2002-11-17 19:00","2002","11","17","19:00","-2.7","","-4.5","","87","","5","","15","","2.8","","99.48","","","","-8","","Snow"
"2002-11-17 20:00","2002","11","17","20:00","-2.7","","-4.5","","87","","4","","15","","6.4","","99.42","","","","-8","","Snow"
"2002-11-17 21:00","2002","11","17","21:00","-2.7","","-4.5","","87","","3","","19","","4.8","","99.22","","","","-8","","Snow Grains"
"2002-11-17 22:00","2002","11","17","22:00","-2.5","","-4.2","","88","","3","","9","","12.9","","99.25","","","","-6","","Snow Grains"
"2002-11-17 23:00","2002","11","17","23:00","-2.3","","-4.3","","86","","33","","11","","8.0","","99.21","","","","-6","","Snow Grains"
"2002-11-18 00:00","2002","11","18","00:00","-2.5","","-4.3","","87","","33","","11","","2.4","","99.17","","","","-7","","Snow"
"2002-11-18 01:00","2002","11","18","01:00","-2.5","","-4.0","","89","","33","","13","","2.4","","99.06","","","","-7","","Snow"
"2002-11-18 02:00","2002","11","18","02:00","-2.5","","-4.1","","89","","33","","15","","8.0","","99.01","","","","-7","","Snow"
"2002-11-18 03:00","2002","11","18","03:00","-2.6","","-4.5","","87","","31","","13","","24.1","","98.97","","","","-7","","Snow"
"2002-11-18 04:00","2002","11","18","04:00","-2.5","","-5.0","","83","","30","","13","","24.1","","98.93","","","","-7","","Cloudy"
"2002-11-18 05:00","2002","11","18","05:00","-2.6","","-5.0","","84","","29","","19","","19.3","","98.96","","","","-8","","Cloudy"
"2002-11-18 06:00","2002","11","18","06:00","-2.9","","-4.4","","89","","28","","19","","9.7","","99.03","","","","-9","","Freezing Drizzle"
"2002-11-18 07:00","2002","11","18","07:00","-2.7","","-4.4","","88","","28","","24","","3.2","","99.10","","","","-9","","Freezing Drizzle,Fog"
"2002-11-18 08:00","2002","11","18","08:00","-2.7","","-4.6","","87","","28","","24","","8.0","","99.17","","","","-9","","Freezing Drizzle,Snow,Ice Pellets,Fog"
"2002-11-18 09:00","2002","11","18","09:00","-2.5","","-4.5","","86","","28","","24","","16.1","","99.23","","","","-9","","Snow,Ice Pellets"
"2002-11-18 10:00","2002","11","18","10:00","-1.9","","-4.8","","81","","28","","33","","16.1","","99.36","","","","-9","","Snow"
"2002-11-18 11:00","2002","11","18","11:00","-1.8","","-5.1","","78","","28","","30","","12.9","","99.47","","","","-9","","Snow"
"2002-11-18 12:00","2002","11","18","12:00","-1.6","","-5.7","","74","","28","","32","","24.1","","99.58","","","","-9","","Snow"
"2002-11-18 13:00","2002","11","18","13:00","-1.5","","-6.0","","71","","28","","32","","32.2","","99.75","","","","-9","","Cloudy"
"2002-11-18 14:00","2002","11","18","14:00","-1.4","","-6.5","","68","","28","","35","","32.2","","99.93","","","","-9","","Cloudy"
"2002-11-18 15:00","2002","11","18","15:00","-1.3","","-6.5","","68","","28","","26","","32.2","","100.13","","","","-8","","Mostly Cloudy"
"2002-11-18 16:00","2002","11","18","16:00","-1.2","","-6.5","","67","","29","","24","","32.2","","100.29","","","","-7","","Mostly Cloudy"
"2002-11-18 17:00","2002","11","18","17:00","-1.6","","-6.8","","68","","29","","24","","25.0","","100.40","","","","-8","","Mainly Clear"
"2002-11-18 18:00","2002","11","18","18:00","-1.7","","-6.4","","70","","28","","20","","25.0","","100.56","","","","-7","","Mostly Cloudy"
"2002-11-18 19:00","2002","11","18","19:00","-2.4","","-5.9","","77","","25","","17","","25.0","","100.74","","","","-8","","Cloudy"
"2002-11-18 20:00","2002","11","18","20:00","-2.7","","-6.2","","77","","25","","11","","25.0","","100.84","","","","-7","","Cloudy"
"2002-11-18 21:00","2002","11","18","21:00","-3.0","","-6.5","","77","","27","","11","","19.3","","100.92","","","","-7","","Snow"
"2002-11-18 22:00","2002","11","18","22:00","-3.8","","-7.1","","78","","23","","6","","24.1","","100.97","","","","-6","","Mostly Cloudy"
"2002-11-18 23:00","2002","11","18","23:00","-4.5","","-7.6","","79","","21","","4","","24.1","","100.97","","","","-6","","Snow"
"2002-11-19 00:00","2002","11","19","00:00","-5.2","","-7.7","","83","","21","","6","","24.1","","101.05","","","","-8","","Cloudy"
"2002-11-19 01:00","2002","11","19","01:00","-5.8","","-7.8","","86","","","","0","","24.1","","101.07","","","","","","Mostly Cloudy"
"2002-11-19 02:00","2002","11","19","02:00","-7.0","","-9.1","","85","","","","0","","24.1","","101.07","","","","","","Mostly Cloudy"
"2002-11-19 03:00","2002","11","19","03:00","-7.2","","-8.7","","89","","","","0","","24.1","","101.12","","","","","","Mostly Cloudy"
"2002-11-19 04:00","2002","11","19","04:00","-6.8","","-8.8","","86","","","","0","","24.1","","101.09","","","","","","Mostly Cloudy"
"2002-11-19 05:00","2002","11","19","05:00","-8.2","","-9.9","","88","","","","0","","24.1","","101.04","","","","","","Mostly Cloudy"
"2002-11-19 06:00","2002","11","19","06:00","-7.6","","-9.5","","86","","10","","7","","24.1","","101.08","","","","-11","","Cloudy"
"2002-11-19 07:00","2002","11","19","07:00","-6.4","","-8.5","","85","","9","","9","","16.1","","101.06","","","","-11","","Mostly Cloudy"
"2002-11-19 08:00","2002","11","19","08:00","-5.8","","-7.8","","86","","10","","9","","19.3","","101.06","","","","-10","","Cloudy"
"2002-11-19 09:00","2002","11","19","09:00","-4.6","","-6.9","","84","","9","","11","","19.3","","101.06","","","","-9","","Cloudy"
"2002-11-19 10:00","2002","11","19","10:00","-3.6","","-6.3","","82","","9","","15","","19.3","","100.96","","","","-9","","Cloudy"
"2002-11-19 11:00","2002","11","19","11:00","-1.9","","-5.3","","78","","9","","20","","24.1","","100.85","","","","-8","","Cloudy"
"2002-11-19 12:00","2002","11","19","12:00","-1.2","","-4.7","","77","","9","","20","","24.1","","100.67","","","","-7","","Cloudy"
"2002-11-19 13:00","2002","11","19","13:00","-0.5","","-4.3","","75","","9","","17","","32.2","","100.55","","","","-5","","Mostly Cloudy"
"2002-11-19 14:00","2002","11","19","14:00","-0.3","","-4.1","","75","","10","","19","","32.2","","100.46","","","","-5","","Cloudy"
"2002-11-19 15:00","2002","11","19","15:00","-0.1","","-3.9","","76","","9","","22","","24.1","","100.36","","","","-6","","Cloudy"
"2002-11-19 16:00","2002","11","19","16:00","-0.8","","-3.4","","83","","9","","20","","4.0","","100.32","","","","-6","","Snow"
"2002-11-19 17:00","2002","11","19","17:00","-1.2","","-2.9","","88","","9","","20","","2.8","","100.31","","","","-7","","Snow"
"2002-11-19 18:00","2002","11","19","18:00","-1.0","","-2.6","","89","","9","","19","","4.8","","100.31","","","","-6","","Snow"
"2002-11-19 19:00","2002","11","19","19:00","-0.8","","-2.1","","91","","10","","17","","6.4","","100.30","","","","-6","","Snow,Ice Pellets"
"2002-11-19 20:00","2002","11","19","20:00","-0.2","","-1.6","","90","","12","","19","","9.7","","100.25","","","","-5","","Snow Grains"
"2002-11-19 21:00","2002","11","19","21:00","0.4","","-0.8","","92","","15","","11","","9.7","","100.22","","","","","","Snow,Snow Grains"
"2002-11-19 22:00","2002","11","19","22:00","0.8","","-0.1","","94","","14","","6","","12.9","","100.21","","","","","","Rain"
"2002-11-19 23:00","2002","11","19","23:00","0.9","","0.1","","94","","16","","6","","2.4","","100.19","","","","","","Drizzle,Fog"
"2002-11-20 00:00","2002","11","20","00:00","1.3","","0.6","","95","","18","","6","","2.4","","100.19","","","","","","Drizzle,Fog"
"2002-11-20 01:00","2002","11","20","01:00","1.7","","0.9","","94","","19","","9","","0.8","","100.21","","","","","","Fog"
"2002-11-20 02:00","2002","11","20","02:00","2.6","","2.2","","97","","18","","7","","16.1","","100.22","","","","","","Cloudy"
"2002-11-20 03:00","2002","11","20","03:00","2.6","","2.0","","96","","17","","9","","16.1","","100.22","","","","","","Cloudy"
"2002-11-20 04:00","2002","11","20","04:00","3.1","","2.0","","92","","20","","11","","16.1","","100.21","","","","","","Cloudy"
"2002-11-20 05:00","2002","11","20","05:00","3.3","","2.3","","93","","20","","9","","16.1","","100.23","","","","","","Cloudy"
"2002-11-20 06:00","2002","11","20","06:00","3.4","","2.4","","93","","21","","11","","8.0","","100.27","","","","","","Fog"
"2002-11-20 07:00","2002","11","20","07:00","3.2","","2.2","","93","","20","","15","","4.8","","100.32","","","","","","Fog"
"2002-11-20 08:00","2002","11","20","08:00","3.2","","2.3","","94","","21","","11","","4.8","","100.40","","","","","","Fog"
"2002-11-20 09:00","2002","11","20","09:00","3.8","","2.6","","92","","20","","11","","6.4","","100.46","","","","","","Fog"
"2002-11-20 10:00","2002","11","20","10:00","5.1","","3.1","","87","","22","","11","","8.0","","100.50","","","","","","Fog"
"2002-11-20 11:00","2002","11","20","11:00","6.1","","2.9","","80","","25","","11","","12.9","","100.50","","","","","","Mostly Cloudy"
"2002-11-20 12:00","2002","11","20","12:00","6.4","","2.6","","77","","30","","6","","12.9","","100.45","","","","","","Mostly Cloudy"
"2002-11-20 13:00","2002","11","20","13:00","8.0","","2.9","","70","","19","","6","","16.1","","100.41","","","","","","Mostly Cloudy"
"2002-11-20 14:00","2002","11","20","14:00","8.2","","2.4","","67","","20","","9","","19.3","","100.42","","","","","","Mostly Cloudy"
"2002-11-20 15:00","2002","11","20","15:00","7.0","","2.1","","71","","","","0","","19.3","","100.43","","","","","","Cloudy"
"2002-11-20 16:00","2002","11","20","16:00","6.3","","1.5","","71","","17","","6","","16.1","","100.43","","","","","","Cloudy"
"2002-11-20 17:00","2002","11","20","17:00","4.4","","1.1","","79","","15","","7","","16.1","","100.44","","","","","","Cloudy"
"2002-11-20 18:00","2002","11","20","18:00","4.0","","1.9","","86","","14","","9","","16.1","","100.44","","","","","","Mostly Cloudy"
"2002-11-20 19:00","2002","11","20","19:00","3.6","","1.8","","88","","16","","9","","19.3","","100.42","","","","","","Mainly Clear"
"2002-11-20 20:00","2002","11","20","20:00","3.7","","2.0","","89","","15","","9","","19.3","","100.39","","","","","","Mostly Cloudy"
"2002-11-20 21:00","2002","11","20","21:00","3.6","","2.2","","91","","15","","9","","19.3","","100.34","","","","","","Mostly Cloudy"
"2002-11-20 22:00","2002","11","20","22:00","2.6","","1.2","","90","","14","","7","","19.3","","100.30","","","","","","Cloudy"
"2002-11-20 23:00","2002","11","20","23:00","2.5","","1.2","","91","","10","","6","","19.3","","100.27","","","","","","Cloudy"
"2002-11-21 00:00","2002","11","21","00:00","3.1","","1.2","","87","","12","","7","","19.3","","100.21","","","","","","Cloudy"
"2002-11-21 01:00","2002","11","21","01:00","2.2","","0.8","","90","","11","","7","","19.3","","100.17","","","","","","Cloudy"
"2002-11-21 02:00","2002","11","21","02:00","2.8","","1.3","","90","","9","","6","","19.3","","100.14","","","","","","Cloudy"
"2002-11-21 03:00","2002","11","21","03:00","2.5","","0.5","","87","","10","","7","","19.3","","100.09","","","","","","Cloudy"
"2002-11-21 04:00","2002","11","21","04:00","1.7","","0.0","","88","","10","","9","","19.3","","100.01","","","","","","Mostly Cloudy"
"2002-11-21 05:00","2002","11","21","05:00","2.0","","0.4","","89","","10","","7","","19.3","","99.97","","","","","","Mostly Cloudy"
"2002-11-21 06:00","2002","11","21","06:00","1.6","","-0.3","","87","","10","","9","","19.3","","99.90","","","","","","Mostly Cloudy"
"2002-11-21 07:00","2002","11","21","07:00","2.0","","-0.4","","84","","11","","11","","14.5","","99.84","","","","","","Cloudy"
"2002-11-21 08:00","2002","11","21","08:00","2.1","","-0.4","","83","","4","","7","","14.5","","99.83","","","","","","Cloudy"
"2002-11-21 09:00","2002","11","21","09:00","2.0","","-0.5","","83","","9","","6","","16.1","","99.82","","","","","","Cloudy"
"2002-11-21 10:00","2002","11","21","10:00","3.1","","0.2","","81","","9","","6","","16.1","","99.77","","","","","","Cloudy"
"2002-11-21 11:00","2002","11","21","11:00","4.4","","0.9","","78","","4","","6","","16.1","","99.69","","","","","","Cloudy"
"2002-11-21 12:00","2002","11","21","12:00","6.6","","1.3","","69","","16","","6","","14.5","","99.59","","","","","","Cloudy"
"2002-11-21 13:00","2002","11","21","13:00","7.7","","1.9","","67","","16","","6","","14.5","","99.50","","","","","","Cloudy"
"2002-11-21 14:00","2002","11","21","14:00","8.0","","2.2","","67","","17","","9","","16.1","","99.51","","","","","","Cloudy"
"2002-11-21 15:00","2002","11","21","15:00","7.9","","2.1","","67","","16","","6","","16.1","","99.48","","","","","","Cloudy"
"2002-11-21 16:00","2002","11","21","16:00","5.5","","2.0","","78","","14","","6","","12.9","","99.51","","","","","","Cloudy"
"2002-11-21 17:00","2002","11","21","17:00","4.6","","1.6","","81","","13","","7","","12.9","","99.49","","","","","","Cloudy"
"2002-11-21 18:00","2002","11","21","18:00","4.2","","1.8","","84","","15","","7","","16.1","","99.50","","","","","","Cloudy"
"2002-11-21 19:00","2002","11","21","19:00","4.4","","2.2","","86","","15","","7","","19.3","","99.47","","","","","","Cloudy"
"2002-11-21 20:00","2002","11","21","20:00","3.8","","1.7","","86","","10","","6","","19.3","","99.46","","","","","","Cloudy"
"2002-11-21 21:00","2002","11","21","21:00","4.7","","2.1","","83","","8","","6","","19.3","","99.45","","","","","","Cloudy"
"2002-11-21 22:00","2002","11","21","22:00","2.7","","1.2","","90","","13","","6","","16.1","","99.41","","","","","","Rain"
"2002-11-21 23:00","2002","11","21","23:00","4.1","","2.2","","87","","6","","4","","19.3","","99.39","","","","","","Cloudy"
"2002-11-22 00:00","2002","11","22","00:00","3.7","","2.0","","89","","5","","7","","16.1","","99.36","","","","","","Cloudy"
"2002-11-22 01:00","2002","11","22","01:00","3.0","","1.8","","92","","9","","6","","16.1","","99.32","","","","","","Cloudy"
"2002-11-22 02:00","2002","11","22","02:00","2.7","","1.3","","90","","3","","9","","16.1","","99.30","","","","","","Cloudy"
"2002-11-22 03:00","2002","11","22","03:00","2.7","","1.6","","92","","1","","9","","9.7","","99.28","","","","","","Fog"
"2002-11-22 04:00","2002","11","22","04:00","2.7","","1.9","","94","","8","","9","","0.8","","99.21","","","","","","Fog"
"2002-11-22 05:00","2002","11","22","05:00","2.7","","2.1","","96","","5","","9","","0.0","","99.24","","","","","","Fog"
"2002-11-22 06:00","2002","11","22","06:00","2.6","","2.2","","97","","4","","7","","0.2","","99.21","","","","","","Fog"
"2002-11-22 07:00","2002","11","22","07:00","2.6","","2.0","","96","","2","","9","","0.4","","99.18","","","","","","Drizzle,Fog"
"2002-11-22 08:00","2002","11","22","08:00","2.6","","2.0","","96","","1","","9","","0.2","","99.16","","","","","","Rain,Fog"
"2002-11-22 09:00","2002","11","22","09:00","3.1","","2.6","","97","","1","","11","","0.4","","99.10","","","","","","Rain,Fog"
"2002-11-22 10:00","2002","11","22","10:00","3.7","","3.4","","98","","36","","11","","0.6","","99.02","","","","","","Fog"
"2002-11-22 11:00","2002","11","22","11:00","3.7","","3.3","","97","","1","","13","","2.8","","98.99","","","","","","Rain,Fog"
"2002-11-22 12:00","2002","11","22","12:00","3.7","","3.1","","96","","36","","11","","2.0","","98.92","","","","","","Rain,Fog"
"2002-11-22 13:00","2002","11","22","13:00","2.9","","2.3","","96","","34","","13","","4.0","","98.84","","","","","","Rain,Fog"
"2002-11-22 14:00","2002","11","22","14:00","2.7","","2.1","","96","","34","","15","","9.7","","98.77","","","","","","Rain,Fog"
"2002-11-22 15:00","2002","11","22","15:00","2.7","","2.1","","96","","34","","17","","8.0","","98.74","","","","","","Rain,Fog"
"2002-11-22 16:00","2002","11","22","16:00","2.5","","1.7","","94","","36","","19","","6.4","","98.69","","","","","","Moderate Rain,Fog"
"2002-11-22 17:00","2002","11","22","17:00","2.1","","0.8","","91","","34","","19","","8.0","","98.70","","","","","","Moderate Rain,Fog"
"2002-11-22 18:00","2002","11","22","18:00","0.5","","-1.0","","90","","33","","19","","3.2","","98.67","","","","","","Snow"
"2002-11-22 19:00","2002","11","22","19:00","0.0","","-1.0","","93","","32","","22","","1.6","","98.66","","","","-6","","Snow"
"2002-11-22 20:00","2002","11","22","20:00","0.0","","-1.1","","92","","32","","28","","6.4","","98.63","","","","-6","","Snow"
"2002-11-22 21:00","2002","11","22","21:00","-0.5","","-2.0","","90","","33","","32","","8.0","","98.58","","","","-7","","Snow"
"2002-11-22 22:00","2002","11","22","22:00","-1.0","","-2.8","","88","","32","","32","","8.0","","98.51","","","","-8","","Snow"
"2002-11-22 23:00","2002","11","22","23:00","-1.5","","-3.7","","85","","32","","33","","12.9","","98.50","","","","-9","","Snow,Ice Pellets"
"2002-11-23 00:00","2002","11","23","00:00","-2.2","","-4.2","","86","","32","","37","","2.4","","98.47","","","","-10","","Snow"
"2002-11-23 01:00","2002","11","23","01:00","-2.5","","-4.3","","87","","32","","33","","1.2","","98.45","","","","-10","","Snow"
"2002-11-23 02:00","2002","11","23","02:00","-2.5","","-4.4","","87","","31","","33","","1.2","","98.49","","","","-10","","Snow"
"2002-11-23 03:00","2002","11","23","03:00","-3.0","","-5.4","","83","","32","","44","","1.0","","98.54","","","","-12","","Snow,Blowing Snow"
"2002-11-23 04:00","2002","11","23","04:00","-3.4","","-5.8","","83","","31","","37","","3.2","","98.57","","","","-12","","Snow"
"2002-11-23 05:00","2002","11","23","05:00","-3.3","","-6.4","","79","","31","","32","","24.1","","98.63","","","","-11","","Snow"
"2002-11-23 06:00","2002","11","23","06:00","-3.5","","-6.5","","80","","31","","30","","25.0","","98.71","","","","-11","","Cloudy"
"2002-11-23 07:00","2002","11","23","07:00","-3.8","","-6.8","","80","","30","","41","","32.2","","98.82","","","","-13","","Cloudy"
"2002-11-23 08:00","2002","11","23","08:00","-4.7","","-7.4","","81","","29","","35","","32.2","","98.93","","","","-13","","Cloudy"
"2002-11-23 09:00","2002","11","23","09:00","-4.5","","-7.4","","80","","30","","28","","32.2","","99.03","","","","-12","","Cloudy"
"2002-11-23 10:00","2002","11","23","10:00","-4.6","","-7.8","","78","","31","","32","","32.2","","99.13","","","","-13","","Cloudy"
"2002-11-23 11:00","2002","11","23","11:00","-4.2","","-7.3","","79","","29","","26","","32.2","","99.21","","","","-11","","Cloudy"
"2002-11-23 12:00","2002","11","23","12:00","-3.8","","-7.2","","77","","30","","32","","32.2","","99.22","","","","-12","","Cloudy"
"2002-11-23 13:00","2002","11","23","13:00","-3.5","","-6.9","","77","","28","","30","","32.2","","99.29","","","","-11","","Cloudy"
"2002-11-23 14:00","2002","11","23","14:00","-3.4","","-7.0","","76","","28","","28","","32.2","","99.33","","","","-11","","Cloudy"
"2002-11-23 15:00","2002","11","23","15:00","-3.2","","-6.9","","76","","28","","24","","32.2","","99.35","","","","-10","","Mostly Cloudy"
"2002-11-23 16:00","2002","11","23","16:00","-3.3","","-7.0","","76","","26","","22","","32.2","","99.45","","","","-10","","Mostly Cloudy"
"2002-11-23 17:00","2002","11","23","17:00","-4.5","","-7.9","","77","","25","","13","","32.2","","99.46","","","","-10","","Mostly Cloudy"
"2002-11-23 18:00","2002","11","23","18:00","-4.1","","-7.5","","77","","23","","9","","25.0","","99.48","","","","-8","","Mostly Cloudy"
"2002-11-23 19:00","2002","11","23","19:00","-3.9","","-7.5","","76","","23","","7","","25.0","","99.47","","","","-7","","Mostly Cloudy"
"2002-11-23 20:00","2002","11","23","20:00","-3.7","","-7.4","","75","","22","","6","","25.0","","99.46","","","","-6","","Mostly Cloudy"
"2002-11-23 21:00","2002","11","23","21:00","-3.8","","-6.8","","80","","22","","6","","19.3","","99.43","","","","-6","","Snow"
"2002-11-23 22:00","2002","11","23","22:00","-3.6","","-5.6","","86","","21","","4","","4.8","","99.37","","","","-5","","Snow"
"2002-11-23 23:00","2002","11","23","23:00","-3.5","","-5.1","","89","","","","0","","1.6","","99.28","","","","","","Snow Showers"
"2002-11-24 00:00","2002","11","24","00:00","-4.0","","-5.8","","87","","18","","6","","16.1","","99.20","","","","-7","","Snow"
"2002-11-24 01:00","2002","11","24","01:00","-1.6","","-3.0","","90","","20","","9","","4.0","","99.11","","","","-5","","Snow"
"2002-11-24 02:00","2002","11","24","02:00","-1.0","","-2.3","","91","","22","","9","","11.3","","99.10","","","","-4","","Snow"
"2002-11-24 03:00","2002","11","24","03:00","-0.5","","-1.8","","91","","24","","11","","11.3","","99.13","","","","-4","","Snow"
"2002-11-24 04:00","2002","11","24","04:00","0.5","","-1.4","","87","","24","","13","","11.3","","99.18","","","","","","Snow"
"2002-11-24 05:00","2002","11","24","05:00","1.0","","-1.0","","86","","26","","15","","12.9","","99.28","","","","","","Cloudy"
"2002-11-24 06:00","2002","11","24","06:00","1.3","","-0.9","","85","","26","","15","","16.1","","99.34","","","","","","Cloudy"
"2002-11-24 07:00","2002","11","24","07:00","1.2","","-0.8","","86","","25","","13","","16.1","","99.46","","","","","","Cloudy"
"2002-11-24 08:00","2002","11","24","08:00","1.3","","-0.6","","87","","27","","11","","16.1","","99.56","","","","","","Cloudy"
"2002-11-24 09:00","2002","11","24","09:00","2.0","","-0.8","","82","","27","","20","","16.1","","99.67","","","","","","Rain Showers"
"2002-11-24 10:00","2002","11","24","10:00","2.2","","-0.6","","82","","27","","15","","24.1","","99.77","","","","","","Mostly Cloudy"
"2002-11-24 11:00","2002","11","24","11:00","2.5","","-1.4","","75","","28","","22","","24.1","","99.83","","","","","","Cloudy"
"2002-11-24 12:00","2002","11","24","12:00","2.7","","-1.4","","74","","27","","15","","24.1","","99.88","","","","","","Cloudy"
"2002-11-24 13:00","2002","11","24","13:00","2.4","","-3.0","","67","","29","","22","","24.1","","99.94","","","","","","Cloudy"
"2002-11-24 14:00","2002","11","24","14:00","2.2","","-3.0","","68","","28","","13","","32.2","","99.99","","","","","","Cloudy"
"2002-11-24 15:00","2002","11","24","15:00","2.0","","-3.4","","67","","27","","17","","32.2","","100.07","","","","","","Cloudy"
"2002-11-24 16:00","2002","11","24","16:00","1.8","","-3.2","","69","","27","","15","","32.2","","100.13","","","","","","Mostly Cloudy"
"2002-11-24 17:00","2002","11","24","17:00","1.5","","-3.2","","71","","27","","15","","25.0","","100.23","","","","","","Cloudy"
"2002-11-24 18:00","2002","11","24","18:00","1.3","","-3.1","","72","","27","","11","","25.0","","100.27","","","","","","Mostly Cloudy"
"2002-11-24 19:00","2002","11","24","19:00","0.5","","-3.8","","73","","28","","11","","25.0","","100.35","","","","","","Mainly Clear"
"2002-11-24 20:00","2002","11","24","20:00","-0.2","","-4.2","","74","","29","","9","","25.0","","100.37","","","","-3","","Mostly Cloudy"
"2002-11-24 21:00","2002","11","24","21:00","-0.1","","-4.2","","74","","30","","11","","25.0","","100.43","","","","-4","","Mainly Clear"
"2002-11-24 22:00","2002","11","24","22:00","-0.8","","-4.0","","79","","","","0","","25.0","","100.43","","","","","","Mainly Clear"
"2002-11-24 23:00","2002","11","24","23:00","-1.6","","-4.2","","82","","28","","6","","25.0","","100.48","","","","-4","","Mostly Cloudy"
"2002-11-25 00:00","2002","11","25","00:00","-1.2","","-3.8","","82","","31","","4","","25.0","","100.44","","","","-3","","Mostly Cloudy"
"2002-11-25 01:00","2002","11","25","01:00","-1.2","","-3.4","","85","","28","","4","","25.0","","100.49","","","","-3","","Mostly Cloudy"
"2002-11-25 02:00","2002","11","25","02:00","-1.8","","-3.9","","86","","","","0","","25.0","","100.54","","","","","","Mostly Cloudy"
"2002-11-25 03:00","2002","11","25","03:00","-1.9","","-5.0","","79","","34","","6","","25.0","","100.53","","","","-4","","Mainly Clear"
"2002-11-25 04:00","2002","11","25","04:00","-2.2","","-5.6","","77","","1","","6","","25.0","","100.56","","","","-5","","Mostly Cloudy"
"2002-11-25 05:00","2002","11","25","05:00","-2.2","","-5.7","","77","","","","0","","25.0","","100.56","","","","","","Mostly Cloudy"
"2002-11-25 06:00","2002","11","25","06:00","-2.1","","-5.3","","79","","5","","6","","25.0","","100.56","","","","-4","","Snow"
"2002-11-25 07:00","2002","11","25","07:00","-2.2","","-5.7","","77","","6","","6","","32.2","","100.60","","","","-5","","Snow"
"2002-11-25 08:00","2002","11","25","08:00","-2.4","","-5.8","","77","","5","","9","","32.2","","100.63","","","","-6","","Snow"
"2002-11-25 09:00","2002","11","25","09:00","-2.1","","-6.0","","75","","6","","9","","32.2","","100.68","","","","-6","","Mostly Cloudy"
"2002-11-25 10:00","2002","11","25","10:00","-1.8","","-6.0","","73","","3","","11","","19.3","","100.71","","","","-6","","Snow"
"2002-11-25 11:00","2002","11","25","11:00","-1.4","","-5.6","","73","","9","","7","","19.3","","100.70","","","","-4","","Snow"
"2002-11-25 12:00","2002","11","25","12:00","-0.5","","-5.0","","72","","2","","7","","19.3","","100.68","","","","-3","","Snow"
"2002-11-25 13:00","2002","11","25","13:00","-0.3","","-4.9","","71","","6","","6","","19.3","","100.64","","","","-2","","Snow"
"2002-11-25 14:00","2002","11","25","14:00","0.0","","-4.7","","71","","12","","6","","24.1","","100.60","","","","-2","","Mostly Cloudy"
"2002-11-25 15:00","2002","11","25","15:00","0.1","","-4.7","","70","","11","","6","","32.2","","100.62","","","","","","Cloudy"
"2002-11-25 16:00","2002","11","25","16:00","-0.1","","-4.9","","70","","4","","4","","16.1","","100.66","","","","-1","","Snow"
"2002-11-25 17:00","2002","11","25","17:00","-0.6","","-4.4","","75","","7","","4","","12.9","","100.71","","","","-2","","Snow"
"2002-11-25 18:00","2002","11","25","18:00","-0.9","","-4.7","","75","","8","","6","","19.3","","100.75","","","","-3","","Snow"
"2002-11-25 19:00","2002","11","25","19:00","-1.1","","-5.0","","75","","","","0","","24.1","","100.80","","","","","","Snow"
"2002-11-25 20:00","2002","11","25","20:00","-1.6","","-5.1","","77","","13","","4","","24.1","","100.79","","","","-3","","Snow"
"2002-11-25 21:00","2002","11","25","21:00","-1.6","","-4.4","","81","","16","","4","","19.3","","100.76","","","","-3","","Snow"
"2002-11-25 22:00","2002","11","25","22:00","-1.4","","-3.7","","84","","16","","4","","19.3","","100.76","","","","-3","","Snow"
"2002-11-25 23:00","2002","11","25","23:00","-1.3","","-3.5","","85","","30","","4","","12.9","","100.79","","","","-3","","Snow"
"2002-11-26 00:00","2002","11","26","00:00","-1.0","","-3.2","","85","","31","","6","","14.5","","100.84","","","","-3","","Cloudy"
"2002-11-26 01:00","2002","11","26","01:00","-1.5","","-3.8","","84","","28","","7","","16.1","","100.87","","","","-4","","Mostly Cloudy"
"2002-11-26 02:00","2002","11","26","02:00","-1.0","","-3.8","","81","","31","","20","","16.1","","100.92","","","","-7","","Cloudy"
"2002-11-26 03:00","2002","11","26","03:00","-2.6","","-5.4","","81","","32","","11","","24.1","","100.97","","","","-7","","Mostly Cloudy"
"2002-11-26 04:00","2002","11","26","04:00","-2.6","","-4.7","","85","","26","","7","","24.1","","101.00","","","","-5","","Mostly Cloudy"
"2002-11-26 05:00","2002","11","26","05:00","-1.8","","-4.0","","85","","27","","9","","19.3","","101.07","","","","-5","","Snow"
"2002-11-26 06:00","2002","11","26","06:00","-1.7","","-4.0","","84","","27","","9","","19.3","","101.13","","","","-5","","Snow"
"2002-11-26 07:00","2002","11","26","07:00","-1.8","","-3.8","","86","","29","","9","","19.3","","101.18","","","","-5","","Snow"
"2002-11-26 08:00","2002","11","26","08:00","-1.9","","-4.3","","84","","29","","9","","24.1","","101.27","","","","-5","","Mostly Cloudy"
"2002-11-26 09:00","2002","11","26","09:00","-2.2","","-6.3","","73","","32","","19","","24.1","","101.30","","","","-8","","Mainly Clear"
"2002-11-26 10:00","2002","11","26","10:00","-2.2","","-7.1","","69","","33","","17","","24.1","","101.35","","","","-8","","Mainly Clear"
"2002-11-26 11:00","2002","11","26","11:00","-2.2","","-8.0","","64","","34","","20","","32.2","","101.32","","","","-8","","Clear"
"2002-11-26 12:00","2002","11","26","12:00","-1.6","","-8.1","","61","","31","","13","","32.2","","101.27","","","","-6","","Clear"
"2002-11-26 13:00","2002","11","26","13:00","-1.5","","-8.5","","59","","33","","9","","32.2","","101.24","","","","-5","","Mostly Cloudy"
"2002-11-26 14:00","2002","11","26","14:00","-1.8","","-9.0","","58","","35","","11","","32.2","","101.19","","","","-6","","Mostly Cloudy"
"2002-11-26 15:00","2002","11","26","15:00","-2.1","","-9.5","","57","","34","","9","","32.2","","101.19","","","","-6","","Mostly Cloudy"
"2002-11-26 16:00","2002","11","26","16:00","-2.9","","-9.0","","63","","34","","15","","24.1","","101.22","","","","-8","","Mostly Cloudy"
"2002-11-26 17:00","2002","11","26","17:00","-3.8","","-9.1","","67","","33","","13","","24.1","","101.25","","","","-9","","Cloudy"
"2002-11-26 18:00","2002","11","26","18:00","-4.2","","-9.8","","65","","35","","9","","24.1","","101.26","","","","-8","","Mainly Clear"
"2002-11-26 19:00","2002","11","26","19:00","-4.0","","-9.5","","66","","36","","15","","24.1","","101.22","","","","-9","","Cloudy"
"2002-11-26 20:00","2002","11","26","20:00","-4.1","","-9.6","","65","","36","","11","","24.1","","101.16","","","","-9","","Cloudy"
"2002-11-26 21:00","2002","11","26","21:00","-4.1","","-9.7","","65","","2","","13","","24.1","","101.14","","","","-9","","Cloudy"
"2002-11-26 22:00","2002","11","26","22:00","-4.3","","-9.9","","65","","2","","11","","24.1","","101.08","","","","-9","","Cloudy"
"2002-11-26 23:00","2002","11","26","23:00","-4.4","","-9.9","","65","","1","","17","","24.1","","101.04","","","","-10","","Cloudy"
"2002-11-27 00:00","2002","11","27","00:00","-4.4","","-10.1","","64","","1","","11","","24.1","","101.02","","","","-9","","Cloudy"
"2002-11-27 01:00","2002","11","27","01:00","-4.6","","-9.7","","67","","1","","15","","24.1","","101.00","","","","-10","","Cloudy"
"2002-11-27 02:00","2002","11","27","02:00","-4.6","","-7.8","","78","","1","","11","","24.1","","100.97","","","","-9","","Cloudy"
"2002-11-27 03:00","2002","11","27","03:00","-5.2","","-10.2","","68","","36","","9","","24.1","","100.97","","","","-9","","Mostly Cloudy"
"2002-11-27 04:00","2002","11","27","04:00","-5.8","","-10.4","","70","","36","","11","","24.1","","100.93","","","","-11","","Mostly Cloudy"
"2002-11-27 05:00","2002","11","27","05:00","-5.9","","-10.6","","69","","1","","17","","24.1","","100.92","","","","-12","","Mostly Cloudy"
"2002-11-27 06:00","2002","11","27","06:00","-6.5","","-11.0","","70","","11","","11","","24.1","","100.94","","","","-11","","Mainly Clear"
"2002-11-27 07:00","2002","11","27","07:00","-6.4","","-11.2","","69","","36","","13","","24.1","","100.99","","","","-12","","Mostly Cloudy"
"2002-11-27 08:00","2002","11","27","08:00","-7.3","","-12.1","","68","","35","","15","","32.2","","101.03","","","","-13","","Mainly Clear"
"2002-11-27 09:00","2002","11","27","09:00","-6.5","","-11.9","","65","","35","","13","","32.2","","101.03","","","","-12","","Mainly Clear"
"2002-11-27 10:00","2002","11","27","10:00","-5.7","","-11.7","","63","","32","","13","","32.2","","101.03","","","","-11","","Mainly Clear"
"2002-11-27 11:00","2002","11","27","11:00","-5.3","","-12.2","","58","","31","","13","","32.2","","101.00","","","","-10","","Clear"
"2002-11-27 12:00","2002","11","27","12:00","-4.4","","-13.0","","51","","31","","19","","32.2","","100.92","","","","-11","","Clear"
"2002-11-27 13:00","2002","11","27","13:00","-3.9","","-13.1","","49","","32","","17","","32.2","","100.85","","","","-10","","Mainly Clear"
"2002-11-27 14:00","2002","11","27","14:00","-4.6","","-14.3","","47","","34","","22","","32.2","","100.83","","","","-11","","Mainly Clear"
"2002-11-27 15:00","2002","11","27","15:00","-5.0","","-14.6","","47","","32","","17","","32.2","","100.81","","","","-11","","Mostly Cloudy"
"2002-11-27 16:00","2002","11","27","16:00","-5.3","","-13.7","","52","","31","","19","","32.2","","100.83","","","","-12","","Mainly Clear"
"2002-11-27 17:00","2002","11","27","17:00","-6.7","","-14.7","","53","","33","","13","","25.0","","100.86","","","","-12","","Mainly Clear"
"2002-11-27 18:00","2002","11","27","18:00","-7.3","","-14.9","","55","","31","","7","","25.0","","100.89","","","","-11","","Clear"
"2002-11-27 19:00","2002","11","27","19:00","-7.6","","-14.7","","57","","28","","9","","24.1","","100.88","","","","-12","","Clear"
"2002-11-27 20:00","2002","11","27","20:00","-7.9","","-14.0","","62","","28","","13","","24.1","","100.87","","","","-14","","Clear"
"2002-11-27 21:00","2002","11","27","21:00","-8.4","","-13.5","","67","","24","","7","","24.1","","100.84","","","","-12","","Clear"
"2002-11-27 22:00","2002","11","27","22:00","-9.6","","-14.6","","67","","27","","7","","24.1","","100.79","","","","-14","","Clear"
"2002-11-27 23:00","2002","11","27","23:00","-9.5","","-14.4","","67","","27","","6","","24.1","","100.75","","","","-13","","Clear"
"2002-11-28 00:00","2002","11","28","00:00","-10.1","","-14.7","","69","","25","","6","","24.1","","100.74","","","","-14","","Clear"
"2002-11-28 01:00","2002","11","28","01:00","-10.3","","-14.5","","71","","25","","6","","24.1","","100.70","","","","-14","","Mostly Cloudy"
"2002-11-28 02:00","2002","11","28","02:00","-10.5","","-14.6","","72","","27","","7","","24.1","","100.69","","","","-15","","Mostly Cloudy"
"2002-11-28 03:00","2002","11","28","03:00","-9.7","","-13.3","","75","","27","","9","","24.1","","100.67","","","","-15","","Snow"
"2002-11-28 04:00","2002","11","28","04:00","-11.1","","-14.0","","79","","26","","11","","24.1","","100.61","","","","-17","","Clear"
"2002-11-28 05:00","2002","11","28","05:00","-11.0","","-13.4","","82","","26","","7","","24.1","","100.58","","","","-15","","Clear"
"2002-11-28 06:00","2002","11","28","06:00","-11.1","","-13.6","","82","","25","","4","","24.1","","100.51","","","","-14","","Clear"
"2002-11-28 07:00","2002","11","28","07:00","-11.3","","-13.8","","82","","23","","7","","24.1","","100.51","","","","-16","","Mostly Cloudy"
"2002-11-28 08:00","2002","11","28","08:00","-10.4","","-13.2","","80","","26","","11","","24.1","","100.53","","","","-16","","Mostly Cloudy"
"2002-11-28 09:00","2002","11","28","09:00","-9.3","","-12.3","","79","","26","","11","","24.1","","100.45","","","","-15","","Cloudy"
"2002-11-28 10:00","2002","11","28","10:00","-7.7","","-11.9","","72","","26","","7","","24.1","","100.36","","","","-11","","Mostly Cloudy"
"2002-11-28 11:00","2002","11","28","11:00","-6.8","","-11.5","","69","","23","","4","","24.1","","100.24","","","","-9","","Mostly Cloudy"
"2002-11-28 12:00","2002","11","28","12:00","-5.7","","-11.8","","62","","21","","9","","24.1","","100.09","","","","-10","","Mainly Clear"
"2002-11-28 13:00","2002","11","28","13:00","-5.0","","-11.3","","61","","23","","7","","24.1","","100.01","","","","-8","","Mostly Cloudy"
"2002-11-28 14:00","2002","11","28","14:00","-3.8","","-10.7","","59","","","","0","","24.1","","99.92","","","","","","Cloudy"
"2002-11-28 15:00","2002","11","28","15:00","-3.4","","-10.3","","59","","23","","19","","24.1","","99.87","","","","-9","","Mostly Cloudy"
"2002-11-28 16:00","2002","11","28","16:00","-3.9","","-8.9","","68","","21","","11","","24.1","","99.83","","","","-8","","Mostly Cloudy"
"2002-11-28 17:00","2002","11","28","17:00","-4.4","","-8.0","","76","","19","","9","","24.1","","99.76","","","","-8","","Mostly Cloudy"
"2002-11-28 18:00","2002","11","28","18:00","-4.7","","-7.9","","78","","19","","9","","24.1","","99.70","","","","-9","","Cloudy"
"2002-11-28 19:00","2002","11","28","19:00","-4.6","","-7.2","","82","","20","","7","","6.4","","99.63","","","","-8","","Snow"
"2002-11-28 20:00","2002","11","28","20:00","-4.2","","-6.3","","85","","19","","9","","4.8","","99.55","","","","-8","","Snow"
"2002-11-28 21:00","2002","11","28","21:00","-4.0","","-5.8","","87","","16","","6","","2.8","","99.44","","","","-7","","Snow"
"2002-11-28 22:00","2002","11","28","22:00","-3.6","","-5.3","","88","","18","","7","","16.1","","99.34","","","","-7","","Snow"
"2002-11-28 23:00","2002","11","28","23:00","-3.5","","-5.3","","87","","22","","7","","16.1","","99.29","","","","-6","","Snow"
"2002-11-29 00:00","2002","11","29","00:00","-2.9","","-5.3","","83","","23","","15","","12.9","","99.23","","","","-8","","Snow"
"2002-11-29 01:00","2002","11","29","01:00","-2.9","","-4.9","","86","","22","","13","","9.7","","99.17","","","","-8","","Snow"
"2002-11-29 02:00","2002","11","29","02:00","-2.9","","-4.8","","87","","21","","13","","9.7","","99.10","","","","-8","","Snow"
"2002-11-29 03:00","2002","11","29","03:00","-2.7","","-5.3","","82","","20","","9","","16.1","","98.99","","","","-6","","Snow"
"2002-11-29 04:00","2002","11","29","04:00","-2.6","","-5.7","","79","","20","","9","","16.1","","98.84","","","","-6","","Snow"
"2002-11-29 05:00","2002","11","29","05:00","-2.3","","-5.8","","77","","21","","13","","19.3","","98.77","","","","-7","","Cloudy"
"2002-11-29 06:00","2002","11","29","06:00","-1.7","","-5.9","","73","","19","","13","","19.3","","98.66","","","","-6","","Snow"
"2002-11-29 07:00","2002","11","29","07:00","-1.8","","-5.8","","74","","21","","17","","8.0","","98.58","","","","-7","","Snow"
"2002-11-29 08:00","2002","11","29","08:00","-2.6","","-4.4","","87","","16","","11","","1.2","","98.40","","","","-7","","Snow"
"2002-11-29 09:00","2002","11","29","09:00","-2.1","","-3.6","","89","","16","","19","","0.4","","98.20","","","","-8","","Heavy Snow"
"2002-11-29 10:00","2002","11","29","10:00","-2.0","","-3.5","","89","","18","","24","","0.8","","98.04","","","","-8","","Moderate Snow"
"2002-11-29 11:00","2002","11","29","11:00","-1.5","","-3.1","","89","","18","","20","","0.8","","97.92","","","","-7","","Moderate Snow"
"2002-11-29 12:00","2002","11","29","12:00","-1.3","","-2.8","","90","","18","","26","","1.2","","97.78","","","","-8","","Snow"
"2002-11-29 13:00","2002","11","29","13:00","-1.1","","-3.0","","87","","18","","30","","3.2","","97.66","","","","-8","","Snow"
"2002-11-29 14:00","2002","11","29","14:00","-0.8","","-2.7","","87","","18","","24","","4.8","","97.60","","","","-7","","Snow"
"2002-11-29 15:00","2002","11","29","15:00","-0.7","","-2.1","","90","","18","","15","","3.2","","97.53","","","","-5","","Snow Pellets"
"2002-11-29 16:00","2002","11","29","16:00","-0.1","","-1.2","","92","","17","","20","","4.0","","97.56","","","","-5","","Snow,Fog"
"2002-11-29 17:00","2002","11","29","17:00","0.5","","-0.5","","93","","18","","13","","6.4","","97.56","","","","","","Snow,Fog"
"2002-11-29 18:00","2002","11","29","18:00","1.0","","0.0","","93","","19","","17","","12.9","","97.59","","","","","","Cloudy"
"2002-11-29 19:00","2002","11","29","19:00","1.6","","0.3","","91","","20","","15","","16.1","","97.58","","","","","","Cloudy"
"2002-11-29 20:00","2002","11","29","20:00","1.9","","0.1","","88","","22","","15","","16.1","","97.56","","","","","","Rain"
"2002-11-29 21:00","2002","11","29","21:00","1.9","","0.0","","87","","20","","11","","16.1","","97.48","","","","","","Cloudy"
"2002-11-29 22:00","2002","11","29","22:00","2.1","","-0.1","","85","","20","","17","","16.1","","97.44","","","","","","Cloudy"
"2002-11-29 23:00","2002","11","29","23:00","2.5","","0.2","","85","","21","","11","","16.1","","97.43","","","","","","Cloudy"
"2002-11-30 00:00","2002","11","30","00:00","2.5","","0.5","","87","","21","","6","","19.3","","97.44","","","","","","Cloudy"
"2002-11-30 01:00","2002","11","30","01:00","2.6","","0.5","","86","","22","","9","","19.3","","97.46","","","","","","Cloudy"
"2002-11-30 02:00","2002","11","30","02:00","2.5","","0.2","","85","","20","","11","","19.3","","97.46","","","","","","Cloudy"
"2002-11-30 03:00","2002","11","30","03:00","2.3","","0.2","","86","","21","","15","","19.3","","97.47","","","","","","Mostly Cloudy"
"2002-11-30 04:00","2002","11","30","04:00","2.1","","0.1","","87","","21","","13","","19.3","","97.46","","","","","","Cloudy"
"2002-11-30 05:00","2002","11","30","05:00","2.5","","0.3","","85","","22","","13","","19.3","","97.48","","","","","","Cloudy"
"2002-11-30 06:00","2002","11","30","06:00","2.7","","0.2","","84","","22","","11","","19.3","","97.49","","","","","","Mostly Cloudy"
"2002-11-30 07:00","2002","11","30","07:00","2.4","","0.0","","84","","22","","13","","16.1","","97.53","","","","","","Cloudy"
"2002-11-30 08:00","2002","11","30","08:00","2.3","","0.3","","87","","22","","17","","8.0","","97.56","","","","","","Rain,Fog"
"2002-11-30 09:00","2002","11","30","09:00","2.1","","0.7","","90","","21","","7","","9.7","","97.57","","","","","","Fog"
"2002-11-30 10:00","2002","11","30","10:00","3.0","","0.7","","85","","22","","13","","12.9","","97.57","","","","","","Rain"
"2002-11-30 11:00","2002","11","30","11:00","3.1","","0.7","","84","","22","","15","","14.5","","97.55","","","","","","Rain"
"2002-11-30 12:00","2002","11","30","12:00","2.9","","0.8","","86","","22","","11","","19.3","","97.53","","","","","","Rain"
"2002-11-30 13:00","2002","11","30","13:00","2.7","","0.5","","85","","20","","9","","16.1","","97.50","","","","","","Cloudy"
"2002-11-30 14:00","2002","11","30","14:00","2.8","","0.5","","85","","20","","9","","16.1","","97.49","","","","","","Cloudy"
"2002-11-30 15:00","2002","11","30","15:00","2.6","","0.3","","85","","21","","11","","16.1","","97.52","","","","","","Cloudy"
"2002-11-30 16:00","2002","11","30","16:00","2.5","","0.5","","87","","20","","7","","9.7","","97.55","","","","","","Fog"
"2002-11-30 17:00","2002","11","30","17:00","0.4","","-0.9","","91","","21","","6","","6.4","","97.60","","","","","","Ice Pellet Showers,Snow Showers"
"2002-11-30 18:00","2002","11","30","18:00","0.8","","-0.5","","91","","26","","9","","16.1","","97.67","","","","","","Snow"
"2002-11-30 19:00","2002","11","30","19:00","-0.7","","-2.1","","90","","31","","33","","3.2","","97.74","","","","-8","","Snow Showers"
"2002-11-30 20:00","2002","11","30","20:00","-1.6","","-4.5","","81","","33","","28","","9.7","","97.84","","","","-8","","Snow Showers"
"2002-11-30 21:00","2002","11","30","21:00","-2.3","","-5.5","","79","","32","","26","","8.0","","97.92","","","","-9","","Snow"
"2002-11-30 22:00","2002","11","30","22:00","-3.6","","-6.3","","82","","29","","32","","6.4","","97.98","","","","-11","","Snow"
"2002-11-30 23:00","2002","11","30","23:00","-4.7","","-8.7","","74","","31","","32","","16.1","","98.10","","","","-13","","Snow"
