"Station Name","OTTAWA INTL A"
"Province","ONTARIO"
"Latitude","45.32"
"Longitude","-75.67"
"Elevation","114.90"
"Climate Identifier","6106001"
"WMO Identifier","71628"
"TC Identifier","YOW"
"All times are specified in Local Standard Time (LST). Add 1 hour to adjust for Daylight Saving Time where and when it is observed."

"Legend"
"E","Estimated"
"M","Missing"
"NA","Not Available"

"Date/Time","Year","Month","Day","Time","Temp (°C)","Temp Flag","Dew Point Temp (°C)","Dew Point Temp Flag","Rel Hum (%)","Rel Hum Flag","Wind Dir (10s deg)","Wind Dir Flag","Wind Spd (km/h)","Wind Spd Flag","Visibility (km)","Visibility Flag","Stn Press (kPa)","Stn Press Flag","Hmdx","Hmdx Flag","Wind Chill","Wind Chill Flag","Weather"
"2015-08-01 00:00","2015","08","01","00:00","17.6","","15.3","","86","","29","","5","","24.1","","99.24","","","","","","NA"
"2015-08-01 01:00","2015","08","01","01:00","16.2","","15.1","","93","","21","","9","","24.1","","99.20","","","","","","Mainly Clear"
"2015-08-01 02:00","2015","08","01","02:00","16.3","","15.7","","96","","19","","11","","24.1","","99.24","","","","","","NA"
"2015-08-01 03:00","2015","08","01","03:00","14.7","","14.2","","97","","25","","11","","24.1","","99.23","","","","","","NA"
"2015-08-01 04:00","2015","08","01","04:00","14.2","","13.9","","98","","25","","9","","24.1","","99.26","","","","","","Clear"
"2015-08-01 05:00","2015","08","01","05:00","14.5","","13.6","","94","","27","","13","","24.1","","99.29","","","","","","NA"
"2015-08-01 06:00","2015","08","01","06:00","16.8","","14.1","","84","","30","","12","","24.1","","99.33","","","","","","NA"
"2015-08-01 07:00","2015","08","01","07:00","17.9","","13.3","","74","","28","","20","","24.1","","99.38","","","","","","Mostly Cloudy"
"2015-08-01 08:00","2015","08","01","08:00","19.2","","14.1","","72","","27","","25","","24.1","","99.40","","","","","","NA"
"2015-08-01 09:00","2015","08","01","09:00","20.2","","14.0","","67","","29","","18","","24.1","","99.41","","","","","","NA"
"2015-08-01 10:00","2015","08","01","10:00","22.3","","13.5","","57","","29","","19","","24.1","","99.41","","25","","","","Mainly Clear"
"2015-08-01 11:00","2015","08","01","11:00","23.9","","14.5","","55","","31","","21","","24.1","","99.41","","28","","","","NA"
"2015-08-01 12:00","2015","08","01","12:00","24.6","","14.0","","51","","27","","19","","24.1","","99.41","","28","","","","NA"
"2015-08-01 13:00","2015","08","01","13:00","26.2","","13.2","","44","","30","","17","","24.1","","99.34","","29","","","","Mostly Cloudy"
"2015-08-01 14:00","2015","08","01","14:00","24.9","","13.9","","50","","20","","22","","24.1","","99.32","","28","","","","NA"
"2015-08-01 15:00","2015","08","01","15:00","23.4","","12.6","","50","","23","","15","","24.1","","99.34","","26","","","","NA"
"2015-08-01 16:00","2015","08","01","16:00","22.9","","12.1","","50","","26","","15","","24.1","","99.33","","25","","","","Mostly Cloudy"
"2015-08-01 17:00","2015","08","01","17:00","21.2","","13.5","","61","","24","","8","","24.1","","99.40","","","","","","NA"
"2015-08-01 18:00","2015","08","01","18:00","19.6","","13.8","","69","","23","","6","","24.1","","99.44","","","","","","NA"
"2015-08-01 19:00","2015","08","01","19:00","19.0","","13.9","","72","","23","","7","","24.1","","99.41","","","","","","Mostly Cloudy"
"2015-08-01 20:00","2015","08","01","20:00","17.5","","13.9","","79","","21","","10","","24.1","","99.53","","","","","","NA"
"2015-08-01 21:00","2015","08","01","21:00","16.5","","14.4","","87","","21","","11","","24.1","","99.54","","","","","","NA"
"2015-08-01 22:00","2015","08","01","22:00","15.8","","14.7","","93","","20","","10","","24.1","","99.53","","","","","","Mainly Clear"
"2015-08-01 23:00","2015","08","01","23:00","14.9","","14.3","","96","","17","","9","","24.1","","99.54","","","","","","NA"
"2015-08-02 00:00","2015","08","02","00:00","14.8","","14.2","","96","","18","","9","","24.1","","99.52","","","","","","NA"
"2015-08-02 01:00","2015","08","02","01:00","14.8","","14.5","","98","","19","","10","","24.1","","99.50","","","","","","Mainly Clear"
"2015-08-02 02:00","2015","08","02","02:00","14.3","","14.2","","99","","21","","11","","24.1","","99.50","","","","","","NA"
"2015-08-02 03:00","2015","08","02","03:00","14.1","","13.6","","97","","22","","10","","24.1","","99.50","","","","","","NA"
"2015-08-02 04:00","2015","08","02","04:00","14.1","","13.5","","96","","22","","12","","24.1","","99.51","","","","","","Mainly Clear"
"2015-08-02 05:00","2015","08","02","05:00","13.9","","13.4","","97","","23","","10","","24.1","","99.54","","","","","","NA"
"2015-08-02 06:00","2015","08","02","06:00","14.6","","13.7","","94","","19","","10","","24.1","","99.57","","","","","","NA"
"2015-08-02 07:00","2015","08","02","07:00","16.7","","15.1","","90","","22","","13","","24.1","","99.63","","","","","","Mostly Cloudy"
"2015-08-02 08:00","2015","08","02","08:00","19.3","","15.0","","76","","21","","17","","24.1","","99.65","","","","","","NA"
"2015-08-02 09:00","2015","08","02","09:00","21.8","","14.8","","64","","20","","14","","24.1","","99.60","","26","","","","NA"
"2015-08-02 10:00","2015","08","02","10:00","24.3","","14.6","","54","","22","","14","","24.1","","99.58","","28","","","","Mostly Cloudy"
"2015-08-02 11:00","2015","08","02","11:00","25.2","","14.2","","50","","22","","16","","24.1","","99.54","","29","","","","NA"
"2015-08-02 12:00","2015","08","02","12:00","26.0","","15.6","","52","","19","","22","","24.1","","99.49","","30","","","","NA"
"2015-08-02 13:00","2015","08","02","13:00","27.4","","14.6","","45","","21","","26","","24.1","","99.44","","31","","","","Mostly Cloudy"
"2015-08-02 14:00","2015","08","02","14:00","27.6","","14.8","","45","","21","","28","","24.1","","99.37","","31","","","","NA"
"2015-08-02 15:00","2015","08","02","15:00","26.2","","16.3","","54","","19","","25","","24.1","","99.35","","31","","","","NA"
"2015-08-02 16:00","2015","08","02","16:00","26.7","","15.9","","51","","20","","28","","24.1","","99.30","","31","","","","Mostly Cloudy"
"2015-08-02 17:00","2015","08","02","17:00","26.2","","13.5","","45","","20","","26","","24.1","","99.28","","29","","","","NA"
"2015-08-02 18:00","2015","08","02","18:00","24.6","","14.0","","51","","19","","21","","24.1","","99.26","","28","","","","NA"
"2015-08-02 19:00","2015","08","02","19:00","23.8","","14.6","","56","","19","","22","","24.1","","99.20","","28","","","","Rain Showers"
"2015-08-02 20:00","2015","08","02","20:00","23.2","","14.4","","57","","18","","16","","24.1","","99.06","","27","","","","Rain Showers"
"2015-08-02 21:00","2015","08","02","21:00","22.6","","14.1","","58","","22","","28","","24.1","","99.07","","26","","","","NA"
"2015-08-02 22:00","2015","08","02","22:00","20.8","","14.1","","65","","24","","16","","24.1","","99.08","","","","","","Mainly Clear"
"2015-08-02 23:00","2015","08","02","23:00","20.4","","14.6","","69","","22","","16","","24.1","","99.07","","","","","","NA"
"2015-08-03 00:00","2015","08","03","00:00","18.3","","16.5","","89","","28","","18","","24.1","","99.11","","","","","","Rain Showers"
"2015-08-03 01:00","2015","08","03","01:00","17.4","","16.9","","97","","15","","13","","16.1","","98.95","","","","","","Cloudy"
"2015-08-03 02:00","2015","08","03","02:00","17.5","","16.9","","96","","15","","16","","24.1","","98.78","","","","","","NA"
"2015-08-03 03:00","2015","08","03","03:00","18.2","","16.9","","92","","23","","12","","24.1","","98.87","","","","","","NA"
"2015-08-03 04:00","2015","08","03","04:00","17.9","","16.9","","94","","20","","10","","24.1","","98.84","","","","","","Cloudy"
"2015-08-03 05:00","2015","08","03","05:00","17.9","","17.1","","95","","21","","11","","24.1","","98.91","","","","","","Rain Showers"
"2015-08-03 06:00","2015","08","03","06:00","18.2","","17.2","","94","","22","","14","","16.1","","98.96","","","","","","Rain"
"2015-08-03 07:00","2015","08","03","07:00","18.3","","17.3","","94","","23","","13","","16.1","","99.01","","","","","","Rain"
"2015-08-03 08:00","2015","08","03","08:00","18.7","","17.9","","95","","22","","14","","16.1","","99.06","","","","","","Rain"
"2015-08-03 09:00","2015","08","03","09:00","19.4","","17.9","","91","","22","","12","","24.1","","99.09","","","","","","NA"
"2015-08-03 10:00","2015","08","03","10:00","19.8","","17.8","","88","","20","","14","","24.1","","99.12","","","","","","Mostly Cloudy"
"2015-08-03 11:00","2015","08","03","11:00","20.2","","17.5","","84","","20","","16","","16.1","","99.16","","26","","","","Rain"
"2015-08-03 12:00","2015","08","03","12:00","21.5","","18.4","","82","","20","","17","","24.1","","99.17","","28","","","","NA"
"2015-08-03 13:00","2015","08","03","13:00","22.6","","17.4","","72","","21","","24","","24.1","","99.18","","28","","","","Mostly Cloudy"
"2015-08-03 14:00","2015","08","03","14:00","23.2","","18.2","","73","","18","","22","","24.1","","99.10","","29","","","","NA"
"2015-08-03 15:00","2015","08","03","15:00","22.9","","17.2","","70","","19","","20","","24.1","","99.11","","28","","","","NA"
"2015-08-03 16:00","2015","08","03","16:00","22.0","","17.0","","73","","22","","21","","24.1","","99.11","","27","","","","Mostly Cloudy"
"2015-08-03 17:00","2015","08","03","17:00","22.7","","17.7","","73","","20","","28","","24.1","","99.12","","28","","","","NA"
"2015-08-03 18:00","2015","08","03","18:00","22.2","","15.7","","66","","22","","21","","24.1","","99.13","","27","","","","NA"
"2015-08-03 19:00","2015","08","03","19:00","21.3","","16.1","","72","","21","","20","","24.1","","99.15","","26","","","","Mainly Clear"
"2015-08-03 20:00","2015","08","03","20:00","19.5","","17.0","","85","","21","","10","","24.1","","99.23","","","","","","NA"
"2015-08-03 21:00","2015","08","03","21:00","18.9","","16.9","","88","","36","","3","","24.1","","99.31","","","","","","NA"
"2015-08-03 22:00","2015","08","03","22:00","17.3","","16.7","","96","","19","","5","","24.1","","99.32","","","","","","Mainly Clear"
"2015-08-03 23:00","2015","08","03","23:00","16.3","","15.5","","95","","21","","8","","24.1","","99.34","","","","","","NA"
"2015-08-04 00:00","2015","08","04","00:00","15.8","","14.5","","92","","22","","9","","24.1","","99.37","","","","","","NA"
"2015-08-04 01:00","2015","08","04","01:00","15.9","","14.1","","89","","19","","9","","24.1","","99.36","","","","","","Mainly Clear"
"2015-08-04 02:00","2015","08","04","02:00","15.9","","13.9","","88","","19","","8","","24.1","","99.39","","","","","","NA"
"2015-08-04 03:00","2015","08","04","03:00","15.7","","13.9","","89","","19","","9","","24.1","","99.41","","","","","","NA"
"2015-08-04 04:00","2015","08","04","04:00","14.7","","13.3","","91","","21","","9","","24.1","","99.44","","","","","","Mostly Cloudy"
"2015-08-04 05:00","2015","08","04","05:00","14.8","","13.2","","90","","23","","8","","24.1","","99.47","","","","","","NA"
"2015-08-04 06:00","2015","08","04","06:00","16.5","","14.4","","87","","24","","8","","24.1","","99.54","","","","","","NA"
"2015-08-04 07:00","2015","08","04","07:00","18.1","","14.5","","79","","24","","15","","24.1","","99.57","","","","","","Mainly Clear"
"2015-08-04 08:00","2015","08","04","08:00","20.4","","13.7","","65","","27","","17","","24.1","","99.54","","","","","","NA"
"2015-08-04 09:00","2015","08","04","09:00","21.0","","13.6","","62","","24","","21","","24.1","","99.57","","","","","","NA"
"2015-08-04 10:00","2015","08","04","10:00","21.8","","13.0","","57","","26","","25","","24.1","","99.59","","25","","","","Mainly Clear"
"2015-08-04 11:00","2015","08","04","11:00","23.0","","12.5","","51","","24","","25","","24.1","","99.58","","26","","","","NA"
"2015-08-04 12:00","2015","08","04","12:00","24.4","","12.9","","48","","26","","21","","24.1","","99.60","","27","","","","NA"
"2015-08-04 13:00","2015","08","04","13:00","24.4","","11.9","","45","","25","","26","","24.1","","99.61","","27","","","","Mostly Cloudy"
"2015-08-04 14:00","2015","08","04","14:00","24.5","","11.6","","44","","28","","23","","24.1","","99.59","","27","","","","NA"
"2015-08-04 15:00","2015","08","04","15:00","24.9","","12.0","","44","","28","","22","","24.1","","99.58","","27","","","","NA"
"2015-08-04 16:00","2015","08","04","16:00","25.2","","11.6","","42","","27","","26","","24.1","","99.57","","27","","","","Mainly Clear"
"2015-08-04 17:00","2015","08","04","17:00","24.4","","11.6","","44","","28","","25","","24.1","","99.58","","26","","","","NA"
"2015-08-04 18:00","2015","08","04","18:00","21.1","","13.7","","62","","21","","11","","24.1","","99.60","","","","","","Moderate Rain Showers"
"2015-08-04 19:00","2015","08","04","19:00","17.1","","15.0","","87","","23","","4","","24.1","","99.65","","","","","","Mostly Cloudy"
"2015-08-04 20:00","2015","08","04","20:00","15.8","","15.0","","95","","21","","8","","24.1","","99.68","","","","","","NA"
"2015-08-04 21:00","2015","08","04","21:00","16.1","","15.5","","96","","23","","3","","24.1","","99.71","","","","","","Rain"
"2015-08-04 22:00","2015","08","04","22:00","15.4","","14.9","","97","","17","","11","","24.1","","99.71","","","","","","Mostly Cloudy"
"2015-08-04 23:00","2015","08","04","23:00","15.2","","14.7","","97","","21","","8","","24.1","","99.72","","","","","","NA"
"2015-08-05 00:00","2015","08","05","00:00","15.3","","14.7","","96","","22","","9","","24.1","","99.73","","","","","","NA"
"2015-08-05 01:00","2015","08","05","01:00","14.8","","14.2","","96","","22","","8","","24.1","","99.72","","","","","","Mainly Clear"
"2015-08-05 02:00","2015","08","05","02:00","14.0","","13.5","","97","","21","","8","","24.1","","99.72","","","","","","NA"
"2015-08-05 03:00","2015","08","05","03:00","13.2","","13.1","","99","","24","","8","","24.1","","99.70","","","","","","NA"
"2015-08-05 04:00","2015","08","05","04:00","12.8","","12.5","","98","","23","","10","","24.1","","99.71","","","","","","Mainly Clear"
"2015-08-05 05:00","2015","08","05","05:00","12.3","","12.2","","99","","24","","10","","24.1","","99.72","","","","","","NA"
"2015-08-05 06:00","2015","08","05","06:00","13.7","","13.4","","98","","27","","10","","24.1","","99.76","","","","","","NA"
"2015-08-05 07:00","2015","08","05","07:00","15.3","","14.4","","94","","27","","20","","24.1","","99.78","","","","","","Mostly Cloudy"
"2015-08-05 08:00","2015","08","05","08:00","16.5","","14.7","","89","","29","","22","","24.1","","99.80","","","","","","NA"
"2015-08-05 09:00","2015","08","05","09:00","18.8","","14.5","","76","","28","","17","","24.1","","99.80","","","","","","NA"
"2015-08-05 10:00","2015","08","05","10:00","19.9","","13.2","","65","","29","","21","","24.1","","99.83","","","","","","Mainly Clear"
"2015-08-05 11:00","2015","08","05","11:00","20.2","","13.3","","64","","27","","19","","24.1","","99.81","","","","","","NA"
"2015-08-05 12:00","2015","08","05","12:00","22.3","","12.4","","53","","29","","22","","24.1","","99.76","","25","","","","NA"
"2015-08-05 13:00","2015","08","05","13:00","21.5","","12.8","","57","","26","","29","","24.1","","99.77","","","","","","Mostly Cloudy"
"2015-08-05 14:00","2015","08","05","14:00","23.3","","11.5","","47","","28","","25","","24.1","","99.75","","25","","","","NA"
"2015-08-05 15:00","2015","08","05","15:00","23.2","","10.8","","45","","27","","30","","24.1","","99.74","","25","","","","NA"
"2015-08-05 16:00","2015","08","05","16:00","23.0","","9.9","","43","","29","","41","","24.1","","99.77","","","","","","Mainly Clear"
"2015-08-05 17:00","2015","08","05","17:00","22.5","","10.8","","47","","28","","24","","24.1","","99.78","","","","","","NA"
"2015-08-05 18:00","2015","08","05","18:00","21.5","","11.4","","52","","28","","27","","24.1","","99.78","","","","","","NA"
"2015-08-05 19:00","2015","08","05","19:00","20.7","","11.2","","54","","28","","24","","24.1","","99.85","","","","","","Mostly Cloudy"
"2015-08-05 20:00","2015","08","05","20:00","19.3","","10.9","","58","","28","","17","","24.1","","99.91","","","","","","NA"
"2015-08-05 21:00","2015","08","05","21:00","18.3","","12.4","","68","","27","","14","","24.1","","99.96","","","","","","NA"
"2015-08-05 22:00","2015","08","05","22:00","18.4","","12.7","","69","","30","","25","","24.1","","99.98","","","","","","Mostly Cloudy"
"2015-08-05 23:00","2015","08","05","23:00","17.8","","12.8","","72","","29","","19","","24.1","","99.98","","","","","","NA"
"2015-08-06 00:00","2015","08","06","00:00","15.1","","12.6","","85","","26","","12","","24.1","","99.96","","","","","","NA"
"2015-08-06 01:00","2015","08","06","01:00","14.8","","12.2","","84","","26","","12","","24.1","","99.98","","","","","","Mainly Clear"
"2015-08-06 02:00","2015","08","06","02:00","13.4","","11.8","","90","","24","","11","","24.1","","100.00","","","","","","NA"
"2015-08-06 03:00","2015","08","06","03:00","13.2","","11.9","","92","","27","","12","","24.1","","100.01","","","","","","NA"
"2015-08-06 04:00","2015","08","06","04:00","14.6","","12.3","","86","","30","","16","","24.1","","100.00","","","","","","Mainly Clear"
"2015-08-06 05:00","2015","08","06","05:00","12.2","","11.4","","95","","26","","12","","24.1","","100.03","","","","","","NA"
"2015-08-06 06:00","2015","08","06","06:00","14.6","","13.0","","90","","27","","15","","24.1","","100.07","","","","","","NA"
"2015-08-06 07:00","2015","08","06","07:00","16.7","","13.3","","80","","28","","18","","24.1","","100.08","","","","","","Clear"
"2015-08-06 08:00","2015","08","06","08:00","18.4","","12.9","","70","","29","","23","","24.1","","100.14","","","","","","NA"
"2015-08-06 09:00","2015","08","06","09:00","19.3","","12.4","","64","","28","","25","","24.1","","100.13","","","","","","NA"
"2015-08-06 10:00","2015","08","06","10:00"
"2015-08-06 11:00","2015","08","06","11:00","22.6","","11.8","","50","","28","","23","","24.1","","100.10","","25","","","","NA"
"2015-08-06 12:00","2015","08","06","12:00","21.5","","11.4","","52","","29","","25","","24.1","","100.07","","","","","","NA"
"2015-08-06 13:00","2015","08","06","13:00","22.8","","11.1","","47","","29","","26","","24.1","","100.05","","25","","","","Mostly Cloudy"
"2015-08-06 14:00","2015","08","06","14:00","23.5","","11.4","","46","","32","","26","","24.1","","100.02","","25","","","","NA"
"2015-08-06 15:00","2015","08","06","15:00","23.3","","11.2","","46","","28","","23","","24.1","","100.01","","25","","","","NA"
"2015-08-06 16:00","2015","08","06","16:00","22.6","","11.2","","48","","29","","19","","24.1","","100.01","","","","","","Mostly Cloudy"
"2015-08-06 17:00","2015","08","06","17:00","21.8","","11.7","","52","","30","","17","","24.1","","100.03","","","","","","NA"
"2015-08-06 18:00","2015","08","06","18:00","21.3","","11.5","","53","","30","","18","","24.1","","100.04","","","","","","NA"
"2015-08-06 19:00","2015","08","06","19:00","20.9","","11.7","","55","","","","","","24.1","","100.04","","","","","","Mostly Cloudy"
"2015-08-06 20:00","2015","08","06","20:00","19.9","","11.8","","59","","33","","10","","24.1","","100.05","","","","","","NA"
"2015-08-06 21:00","2015","08","06","21:00","18.9","","12.0","","64","","36","","13","","24.1","","100.09","","","","","","NA"
"2015-08-06 22:00","2015","08","06","22:00","17.9","","11.8","","67","","34","","7","","24.1","","100.13","","","","","","Mainly Clear"
"2015-08-06 23:00","2015","08","06","23:00","16.8","","12.2","","74","","1","","8","","24.1","","100.15","","","","","","NA"
"2015-08-07 00:00","2015","08","07","00:00","13.5","","11.9","","90","","36","","2","","24.1","","100.16","","","","","","NA"
"2015-08-07 01:00","2015","08","07","01:00","13.9","","11.6","","86","","5","","4","","24.1","","100.17","","","","","","Mostly Cloudy"
"2015-08-07 02:00","2015","08","07","02:00","14.3","","12.2","","87","","2","","4","","24.1","","100.17","","","","","","NA"
"2015-08-07 03:00","2015","08","07","03:00","12.2","","11.1","","93","","36","","2","","24.1","","100.17","","","","","","NA"
"2015-08-07 04:00","2015","08","07","04:00","14.2","","12.4","","89","","2","","4","","24.1","","100.20","","","","","","Mostly Cloudy"
"2015-08-07 05:00","2015","08","07","05:00","13.0","","11.9","","93","","1","","10","","24.1","","100.24","","","","","","NA"
"2015-08-07 06:00","2015","08","07","06:00","15.1","","12.6","","85","","36","","12","","24.1","","100.25","","","","","","NA"
"2015-08-07 07:00","2015","08","07","07:00","16.6","","12.6","","77","","1","","14","","24.1","","100.30","","","","","","Mainly Clear"
"2015-08-07 08:00","2015","08","07","08:00","19.1","","12.0","","63","","1","","6","","24.1","","100.31","","","","","","NA"
"2015-08-07 09:00","2015","08","07","09:00","19.5","","9.8","","53","","5","","7","","24.1","","100.32","","","","","","NA"
"2015-08-07 10:00","2015","08","07","10:00","19.7","","10.8","","56","","35","","6","","24.1","","100.29","","","","","","Mostly Cloudy"
"2015-08-07 11:00","2015","08","07","11:00","20.7","","11.2","","54","","5","","5","","24.1","","100.29","","","","","","NA"
"2015-08-07 12:00","2015","08","07","12:00","20.9","","11.4","","54","","9","","8","","24.1","","100.27","","","","","","NA"
"2015-08-07 13:00","2015","08","07","13:00","21.9","","11.5","","51","","17","","5","","24.1","","100.24","","","","","","Mostly Cloudy"
"2015-08-07 14:00","2015","08","07","14:00","22.2","","11.1","","49","","36","","8","","24.1","","100.28","","","","","","NA"
"2015-08-07 15:00","2015","08","07","15:00","22.3","","11.5","","50","","4","","14","","24.1","","100.25","","","","","","NA"
"2015-08-07 16:00","2015","08","07","16:00","22.6","","11.2","","48","","33","","11","","24.1","","100.23","","","","","","Mostly Cloudy"
"2015-08-07 17:00","2015","08","07","17:00","22.4","","12.5","","53","","5","","14","","24.1","","100.23","","25","","","","NA"
"2015-08-07 18:00","2015","08","07","18:00","21.1","","12.6","","58","","10","","12","","24.1","","100.22","","","","","","NA"
"2015-08-07 19:00","2015","08","07","19:00","19.1","","12.7","","66","","10","","8","","24.1","","100.23","","","","","","Mainly Clear"
"2015-08-07 20:00","2015","08","07","20:00","18.1","","12.6","","70","","7","","8","","24.1","","100.26","","","","","","NA"
"2015-08-07 21:00","2015","08","07","21:00","15.4","","11.2","","76","","9","","5","","24.1","","100.29","","","","","","NA"
"2015-08-07 22:00","2015","08","07","22:00","14.3","","11.8","","85","","2","","7","","24.1","","100.31","","","","","","Mainly Clear"
"2015-08-07 23:00","2015","08","07","23:00","12.9","","11.5","","91","","6","","3","","24.1","","100.30","","","","","","NA"
"2015-08-08 00:00","2015","08","08","00:00","13.4","","11.3","","87","","36","","3","","24.1","","100.34","","","","","","NA"
"2015-08-08 01:00","2015","08","08","01:00","13.0","","12.2","","95","","36","","2","","24.1","","100.34","","","","","","Mainly Clear"
"2015-08-08 02:00","2015","08","08","02:00","14.1","","12.2","","88","","36","","8","","24.1","","100.35","","","","","","NA"
"2015-08-08 03:00","2015","08","08","03:00","14.4","","12.3","","87","","35","","12","","24.1","","100.36","","","","","","NA"
"2015-08-08 04:00","2015","08","08","04:00","13.8","","12.4","","91","","35","","10","","24.1","","100.38","","","","","","Mostly Cloudy"
"2015-08-08 05:00","2015","08","08","05:00","12.9","","11.8","","93","","1","","7","","24.1","","100.41","","","","","","NA"
"2015-08-08 06:00","2015","08","08","06:00","14.3","","12.5","","89","","36","","14","","24.1","","100.44","","","","","","NA"
"2015-08-08 07:00","2015","08","08","07:00","16.4","","13.2","","81","","36","","9","","24.1","","100.46","","","","","","Mainly Clear"
"2015-08-08 08:00","2015","08","08","08:00","17.9","","13.1","","73","","4","","5","","24.1","","100.47","","","","","","NA"
"2015-08-08 09:00","2015","08","08","09:00","18.9","","13.2","","69","","36","","1","","24.1","","100.47","","","","","","NA"
"2015-08-08 10:00","2015","08","08","10:00","20.1","","12.7","","62","","36","","2","","24.1","","100.49","","","","","","Mostly Cloudy"
"2015-08-08 11:00","2015","08","08","11:00","20.1","","12.7","","62","","27","","4","","24.1","","100.51","","","","","","NA"
"2015-08-08 12:00","2015","08","08","12:00","22.0","","12.4","","54","","16","","8","","24.1","","100.49","","","","","","NA"
"2015-08-08 13:00","2015","08","08","13:00","21.9","","12.3","","54","","17","","10","","24.1","","100.48","","","","","","Mostly Cloudy"
"2015-08-08 14:00","2015","08","08","14:00","23.9","","12.4","","48","","15","","8","","24.1","","100.45","","26","","","","NA"
"2015-08-08 15:00","2015","08","08","15:00","22.7","","13.1","","54","","18","","7","","24.1","","100.41","","26","","","","NA"
"2015-08-08 16:00","2015","08","08","16:00","22.8","","12.3","","51","","7","","8","","24.1","","100.43","","25","","","","Mostly Cloudy"
"2015-08-08 17:00","2015","08","08","17:00","22.6","","12.1","","51","","11","","7","","24.1","","100.41","","25","","","","NA"
"2015-08-08 18:00","2015","08","08","18:00","20.8","","13.8","","64","","18","","7","","24.1","","100.44","","","","","","NA"
"2015-08-08 19:00","2015","08","08","19:00","19.6","","12.9","","65","","15","","7","","24.1","","100.47","","","","","","Mostly Cloudy"
"2015-08-08 20:00","2015","08","08","20:00","17.1","","12.1","","72","","19","","5","","24.1","","100.49","","","","","","NA"
"2015-08-08 21:00","2015","08","08","21:00","16.5","","12.9","","79","","21","","4","","24.1","","100.50","","","","","","NA"
"2015-08-08 22:00","2015","08","08","22:00","16.7","","13.3","","80","","27","","5","","24.1","","100.49","","","","","","Mainly Clear"
"2015-08-08 23:00","2015","08","08","23:00","17.0","","13.0","","77","","30","","6","","24.1","","100.49","","","","","","NA"
"2015-08-09 00:00","2015","08","09","00:00","14.9","","12.6","","86","","1","","9","","24.1","","100.50","","","","","","NA"
"2015-08-09 01:00","2015","08","09","01:00","15.9","","12.9","","82","","36","","10","","24.1","","100.47","","","","","","Clear"
"2015-08-09 02:00","2015","08","09","02:00","13.6","","11.7","","88","","2","","8","","24.1","","100.45","","","","","","NA"
"2015-08-09 03:00","2015","08","09","03:00","14.4","","12.5","","88","","1","","5","","24.1","","100.47","","","","","","NA"
"2015-08-09 04:00","2015","08","09","04:00","14.3","","12.2","","87","","36","","6","","24.1","","100.49","","","","","","Clear"
"2015-08-09 05:00","2015","08","09","05:00","11.7","","10.9","","95","","2","","5","","24.1","","100.53","","","","","","NA"
"2015-08-09 06:00","2015","08","09","06:00","15.2","","12.6","","84","","35","","12","","24.1","","100.56","","","","","","NA"
"2015-08-09 07:00","2015","08","09","07:00","16.9","","13.7","","81","","5","","14","","24.1","","100.59","","","","","","Clear"
"2015-08-09 08:00","2015","08","09","08:00","18.6","","14.4","","76","","9","","11","","24.1","","100.60","","","","","","NA"
"2015-08-09 09:00","2015","08","09","09:00","20.4","","15.3","","72","","8","","9","","24.1","","100.57","","25","","","","NA"
"2015-08-09 10:00","2015","08","09","10:00","22.0","","14.7","","63","","2","","3","","24.1","","100.52","","26","","","","Clear"
"2015-08-09 11:00","2015","08","09","11:00","22.7","","14.1","","58","","35","","8","","24.1","","100.47","","26","","","","NA"
"2015-08-09 12:00","2015","08","09","12:00","25.3","","12.7","","45","","3","","12","","24.1","","100.43","","28","","","","NA"
"2015-08-09 13:00","2015","08","09","13:00","25.3","","13.4","","47","","8","","13","","24.1","","100.39","","28","","","","Mostly Cloudy"
"2015-08-09 14:00","2015","08","09","14:00","25.1","","12.2","","44","","10","","12","","24.1","","100.37","","27","","","","NA"
"2015-08-09 15:00","2015","08","09","15:00","24.2","","12.4","","47","","17","","9","","24.1","","100.33","","27","","","","NA"
"2015-08-09 16:00","2015","08","09","16:00","25.8","","13.2","","45","","9","","9","","24.1","","100.31","","29","","","","Mainly Clear"
"2015-08-09 17:00","2015","08","09","17:00","25.7","","12.7","","44","","18","","10","","24.1","","100.30","","28","","","","NA"
"2015-08-09 18:00","2015","08","09","18:00","24.4","","14.1","","52","","14","","10","","24.1","","100.28","","28","","","","NA"
"2015-08-09 19:00","2015","08","09","19:00","20.6","","14.6","","68","","14","","8","","24.1","","100.29","","","","","","Clear"
"2015-08-09 20:00","2015","08","09","20:00","19.1","","14.0","","72","","13","","7","","24.1","","100.29","","","","","","NA"
"2015-08-09 21:00","2015","08","09","21:00","18.2","","14.2","","77","","13","","8","","24.1","","100.29","","","","","","NA"
"2015-08-09 22:00","2015","08","09","22:00","17.3","","13.7","","79","","14","","7","","24.1","","100.28","","","","","","Clear"
"2015-08-09 23:00","2015","08","09","23:00","17.0","","13.8","","81","","11","","9","","24.1","","100.26","","","","","","NA"
"2015-08-10 00:00","2015","08","10","00:00","15.6","","13.3","","86","","16","","4","","24.1","","100.27","","","","","","NA"
"2015-08-10 01:00","2015","08","10","01:00","15.2","","13.6","","90","","36","","3","","24.1","","100.21","","","","","","Clear"
"2015-08-10 02:00","2015","08","10","02:00","13.5","","12.2","","92","","2","","4","","24.1","","100.21","","","","","","NA"
"2015-08-10 03:00","2015","08","10","03:00","13.2","","11.6","","90","","5","","5","","24.1","","100.20","","","","","","NA"
"2015-08-10 04:00","2015","08","10","04:00","12.2","","11.6","","96","","8","","7","","24.1","","100.17","","","","","","Mainly Clear"
"2015-08-10 05:00","2015","08","10","05:00","13.2","","12.9","","98","","7","","5","","16.1","","100.19","","","","","","NA"
"2015-08-10 06:00","2015","08","10","06:00","14.9","","14.6","","98","","5","","8","","24.1","","100.21","","","","","","NA"
"2015-08-10 07:00","2015","08","10","07:00","17.3","","16.2","","93","","5","","14","","16.1","","100.17","","","","","","Mostly Cloudy"
"2015-08-10 08:00","2015","08","10","08:00","19.0","","16.1","","83","","8","","10","","16.1","","100.15","","","","","","NA"
"2015-08-10 09:00","2015","08","10","09:00","21.2","","16.7","","75","","11","","10","","24.1","","100.13","","26","","","","NA"
"2015-08-10 10:00","2015","08","10","10:00","23.2","","16.8","","67","","8","","9","","24.1","","100.11","","28","","","","Mainly Clear"
"2015-08-10 11:00","2015","08","10","11:00","24.0","","15.1","","57","","8","","10","","24.1","","100.06","","28","","","","NA"
"2015-08-10 12:00","2015","08","10","12:00","26.3","","13.3","","44","","7","","16","","24.1","","99.98","","29","","","","NA"
"2015-08-10 13:00","2015","08","10","13:00","26.9","","14.5","","46","","9","","8","","24.1","","99.93","","31","","","","Mainly Clear"
"2015-08-10 14:00","2015","08","10","14:00","26.5","","14.8","","48","","11","","3","","24.1","","99.88","","30","","","","NA"
"2015-08-10 15:00","2015","08","10","15:00","27.3","","15.9","","49","","9","","7","","24.1","","99.79","","32","","","","NA"
"2015-08-10 16:00","2015","08","10","16:00","26.7","","15.9","","51","","14","","9","","24.1","","99.72","","31","","","","Mostly Cloudy"
"2015-08-10 17:00","2015","08","10","17:00","25.9","","16.3","","55","","13","","11","","24.1","","99.70","","31","","","","NA"
"2015-08-10 18:00","2015","08","10","18:00","25.0","","16.6","","59","","10","","10","","24.1","","99.67","","30","","","","NA"
"2015-08-10 19:00","2015","08","10","19:00","24.0","","17.4","","66","","13","","18","","24.1","","99.60","","30","","","","Cloudy"
"2015-08-10 20:00","2015","08","10","20:00","21.8","","18.1","","79","","18","","12","","24.1","","99.65","","28","","","","NA"
"2015-08-10 21:00","2015","08","10","21:00","19.8","","18.7","","93","","18","","18","","9.7","","99.72","","","","","","Rain"
"2015-08-10 22:00","2015","08","10","22:00","19.2","","18.7","","97","","20","","8","","16.1","","99.70","","","","","","Rain"
"2015-08-10 23:00","2015","08","10","23:00","18.4","","17.8","","96","","17","","4","","24.1","","99.63","","","","","","Rain"
"2015-08-11 00:00","2015","08","11","00:00","18.7","","18.4","","98","","13","","11","","16.1","","99.58","","","","","","Rain"
"2015-08-11 01:00","2015","08","11","01:00","18.8","","18.5","","98","","14","","12","","16.1","","99.51","","","","","","Rain"
"2015-08-11 02:00","2015","08","11","02:00","18.7","","18.4","","98","","14","","12","","12.9","","99.46","","","","","","Rain"
"2015-08-11 03:00","2015","08","11","03:00","18.7","","18.4","","98","","12","","12","","12.9","","99.38","","","","","","Rain"
"2015-08-11 04:00","2015","08","11","04:00","18.6","","18.3","","98","","13","","10","","9.7","","99.33","","","","","","Rain"
"2015-08-11 05:00","2015","08","11","05:00","18.5","","18.3","","99","","10","","10","","4.8","","99.28","","","","","","Rain,Fog"
"2015-08-11 06:00","2015","08","11","06:00","18.5","","18.3","","99","","11","","11","","4.8","","99.23","","","","","","Rain,Fog"
"2015-08-11 07:00","2015","08","11","07:00","18.6","","18.3","","98","","11","","11","","16.1","","99.24","","","","","","Rain"
"2015-08-11 08:00","2015","08","11","08:00","18.9","","18.6","","98","","13","","8","","12.9","","99.23","","","","","","NA"
"2015-08-11 09:00","2015","08","11","09:00","19.2","","18.7","","97","","14","","6","","16.1","","99.23","","","","","","NA"
"2015-08-11 10:00","2015","08","11","10:00","19.6","","18.8","","95","","29","","3","","12.9","","99.23","","","","","","Cloudy"
"2015-08-11 11:00","2015","08","11","11:00","21.8","","19.2","","85","","34","","7","","16.1","","99.25","","29","","","","NA"
"2015-08-11 12:00","2015","08","11","12:00","21.7","","19.5","","87","","1","","12","","16.1","","99.26","","29","","","","NA"
"2015-08-11 13:00","2015","08","11","13:00","22.2","","18.5","","79","","30","","12","","24.1","","99.26","","29","","","","Cloudy"
"2015-08-11 14:00","2015","08","11","14:00","22.7","","18.7","","78","","34","","21","","24.1","","99.25","","29","","","","NA"
"2015-08-11 15:00","2015","08","11","15:00","23.5","","18.9","","75","","34","","13","","24.1","","99.26","","30","","","","NA"
"2015-08-11 16:00","2015","08","11","16:00","22.6","","20.0","","85","","4","","10","","24.1","","99.27","","30","","","","Mostly Cloudy"
"2015-08-11 17:00","2015","08","11","17:00","23.9","","18.2","","70","","36","","7","","24.1","","99.26","","30","","","","NA"
"2015-08-11 18:00","2015","08","11","18:00","20.9","","18.7","","87","","5","","10","","24.1","","99.32","","27","","","","Rain"
"2015-08-11 19:00","2015","08","11","19:00","18.9","","17.3","","90","","29","","20","","11.3","","99.40","","","","","","Thunderstorms,Rain Showers"
"2015-08-11 20:00","2015","08","11","20:00","18.4","","17.8","","96","","34","","11","","24.1","","99.36","","","","","","Rain"
"2015-08-11 21:00","2015","08","11","21:00","18.2","","17.4","","95","","31","","12","","24.1","","99.40","","","","","","NA"
"2015-08-11 22:00","2015","08","11","22:00","17.6","","17.3","","98","","27","","14","","24.1","","99.49","","","","","","Mostly Cloudy"
"2015-08-11 23:00","2015","08","11","23:00","17.8","","17.3","","97","","29","","13","","24.1","","99.53","","","","","","Rain"
"2015-08-12 00:00","2015","08","12","00:00","17.8","","17.3","","97","","30","","14","","16.1","","99.52","","","","","","NA"
"2015-08-12 01:00","2015","08","12","01:00","17.7","","17.1","","96","","29","","15","","16.1","","99.51","","","","","","Cloudy"
"2015-08-12 02:00","2015","08","12","02:00","17.5","","16.7","","95","","30","","17","","24.1","","99.50","","","","","","NA"
"2015-08-12 03:00","2015","08","12","03:00","17.4","","16.4","","94","","30","","16","","24.1","","99.53","","","","","","NA"
"2015-08-12 04:00","2015","08","12","04:00","17.6","","16.6","","94","","28","","10","","16.1","","99.58","","","","","","Cloudy"
"2015-08-12 05:00","2015","08","12","05:00","17.5","","16.4","","93","","29","","12","","24.1","","99.60","","","","","","NA"
"2015-08-12 06:00","2015","08","12","06:00","17.2","","16.4","","95","","27","","17","","24.1","","99.66","","","","","","NA"
"2015-08-12 07:00","2015","08","12","07:00","17.9","","16.4","","91","","28","","18","","24.1","","99.69","","","","","","Cloudy"
"2015-08-12 08:00","2015","08","12","08:00","17.3","","15.3","","88","","27","","22","","16.1","","99.73","","","","","","NA"
"2015-08-12 09:00","2015","08","12","09:00","17.2","","14.7","","85","","28","","24","","24.1","","99.79","","","","","","Drizzle"
"2015-08-12 10:00","2015","08","12","10:00","17.6","","14.5","","82","","28","","22","","24.1","","99.82","","","","","","Cloudy"
"2015-08-12 11:00","2015","08","12","11:00","18.0","","14.2","","78","","29","","24","","24.1","","99.83","","","","","","NA"
"2015-08-12 12:00","2015","08","12","12:00","19.2","","14.3","","73","","28","","24","","24.1","","99.81","","","","","","NA"
"2015-08-12 13:00","2015","08","12","13:00","19.4","","13.9","","70","","28","","24","","24.1","","99.82","","","","","","Cloudy"
"2015-08-12 14:00","2015","08","12","14:00","20.6","","13.9","","65","","28","","19","","24.1","","99.83","","","","","","NA"
"2015-08-12 15:00","2015","08","12","15:00","20.6","","14.1","","66","","31","","18","","24.1","","99.81","","","","","","NA"
"2015-08-12 16:00","2015","08","12","16:00","20.2","","14.6","","70","","28","","17","","24.1","","99.83","","","","","","Mostly Cloudy"
"2015-08-12 17:00","2015","08","12","17:00","19.9","","14.4","","70","","29","","28","","24.1","","99.87","","","","","","NA"
"2015-08-12 18:00","2015","08","12","18:00","18.4","","13.8","","74","","31","","23","","24.1","","99.91","","","","","","NA"
"2015-08-12 19:00","2015","08","12","19:00","17.7","","12.7","","72","","30","","16","","24.1","","99.98","","","","","","Mostly Cloudy"
"2015-08-12 20:00","2015","08","12","20:00","17.3","","13.1","","76","","30","","13","","24.1","","100.03","","","","","","NA"
"2015-08-12 21:00","2015","08","12","21:00","16.9","","12.9","","77","","32","","18","","24.1","","100.04","","","","","","NA"
"2015-08-12 22:00","2015","08","12","22:00","16.4","","13.0","","80","","32","","13","","24.1","","100.05","","","","","","Mostly Cloudy"
"2015-08-12 23:00","2015","08","12","23:00","15.4","","12.6","","83","","31","","10","","24.1","","100.04","","","","","","NA"
"2015-08-13 00:00","2015","08","13","00:00","14.9","","12.6","","86","","29","","10","","24.1","","100.06","","","","","","NA"
"2015-08-13 01:00","2015","08","13","01:00","13.8","","12.0","","89","","30","","9","","24.1","","100.08","","","","","","Mostly Cloudy"
"2015-08-13 02:00","2015","08","13","02:00","14.0","","12.6","","91","","29","","6","","24.1","","100.10","","","","","","NA"
"2015-08-13 03:00","2015","08","13","03:00","14.2","","12.4","","89","","25","","5","","24.1","","100.12","","","","","","NA"
"2015-08-13 04:00","2015","08","13","04:00","13.6","","12.8","","95","","25","","8","","24.1","","100.12","","","","","","Mostly Cloudy"
"2015-08-13 05:00","2015","08","13","05:00","12.8","","12.0","","95","","25","","10","","24.1","","100.10","","","","","","NA"
"2015-08-13 06:00","2015","08","13","06:00","14.3","","12.7","","90","","24","","5","","24.1","","100.15","","","","","","NA"
"2015-08-13 07:00","2015","08","13","07:00","15.7","","13.2","","85","","24","","7","","24.1","","100.20","","","","","","Mainly Clear"
"2015-08-13 08:00","2015","08","13","08:00","17.6","","13.6","","77","","27","","7","","24.1","","100.26","","","","","","NA"
"2015-08-13 09:00","2015","08","13","09:00","19.9","","12.8","","63","","26","","15","","24.1","","100.28","","","","","","NA"
"2015-08-13 10:00","2015","08","13","10:00","20.7","","13.0","","61","","26","","16","","24.1","","100.30","","","","","","Mostly Cloudy"
"2015-08-13 11:00","2015","08","13","11:00","21.3","","12.3","","56","","28","","17","","24.1","","100.30","","","","","","NA"
"2015-08-13 12:00","2015","08","13","12:00","22.8","","12.9","","53","","22","","7","","24.1","","100.27","","26","","","","NA"
"2015-08-13 13:00","2015","08","13","13:00","23.2","","12.4","","50","","27","","5","","24.1","","100.23","","26","","","","Mostly Cloudy"
"2015-08-13 14:00","2015","08","13","14:00","24.2","","12.4","","47","","28","","8","","24.1","","100.20","","27","","","","NA"
"2015-08-13 15:00","2015","08","13","15:00","25.2","","11.9","","43","","22","","13","","24.1","","100.12","","27","","","","NA"
"2015-08-13 16:00","2015","08","13","16:00","25.7","","11.3","","40","","22","","16","","24.1","","100.11","","28","","","","Mainly Clear"
"2015-08-13 17:00","2015","08","13","17:00","25.4","","12.1","","43","","23","","13","","24.1","","100.10","","28","","","","NA"
"2015-08-13 18:00","2015","08","13","18:00","23.8","","14.1","","54","","18","","12","","24.1","","100.11","","27","","","","NA"
"2015-08-13 19:00","2015","08","13","19:00","21.6","","15.5","","68","","19","","14","","24.1","","100.13","","26","","","","Clear"
"2015-08-13 20:00","2015","08","13","20:00","20.2","","15.1","","72","","19","","14","","24.1","","100.19","","","","","","NA"
"2015-08-13 21:00","2015","08","13","21:00","18.8","","14.1","","74","","19","","12","","24.1","","100.24","","","","","","NA"
"2015-08-13 22:00","2015","08","13","22:00","17.6","","13.2","","75","","18","","9","","24.1","","100.25","","","","","","Mostly Cloudy"
"2015-08-13 23:00","2015","08","13","23:00","17.1","","13.3","","78","","19","","9","","24.1","","100.27","","","","","","NA"
"2015-08-14 00:00","2015","08","14","00:00","16.8","","13.4","","80","","18","","10","","24.1","","100.23","","","","","","NA"
"2015-08-14 01:00","2015","08","14","01:00","17.0","","13.6","","80","","18","","14","","24.1","","100.20","","","","","","Mostly Cloudy"
"2015-08-14 02:00","2015","08","14","02:00","17.4","","13.2","","76","","18","","12","","24.1","","100.13","","","","","","NA"
"2015-08-14 03:00","2015","08","14","03:00","16.6","","13.4","","81","","17","","8","","24.1","","100.09","","","","","","NA"
"2015-08-14 04:00","2015","08","14","04:00","17.1","","14.2","","83","","20","","4","","24.1","","100.13","","","","","","Mostly Cloudy"
"2015-08-14 05:00","2015","08","14","05:00","17.3","","15.0","","86","","24","","4","","24.1","","100.15","","","","","","NA"
"2015-08-14 06:00","2015","08","14","06:00","17.1","","16.3","","95","","14","","5","","24.1","","100.13","","","","","","NA"
"2015-08-14 07:00","2015","08","14","07:00","18.1","","17.6","","97","","19","","10","","16.1","","100.18","","","","","","Cloudy"
"2015-08-14 08:00","2015","08","14","08:00","19.1","","18.5","","96","","20","","10","","12.9","","100.20","","","","","","NA"
"2015-08-14 09:00","2015","08","14","09:00","20.6","","19.5","","93","","22","","8","","16.1","","100.19","","28","","","","NA"
"2015-08-14 10:00","2015","08","14","10:00","23.6","","20.0","","80","","22","","15","","24.1","","100.21","","31","","","","Mostly Cloudy"
"2015-08-14 11:00","2015","08","14","11:00","22.3","","20.6","","90","","28","","10","","16.1","","100.23","","30","","","","Rain"
"2015-08-14 12:00","2015","08","14","12:00","21.2","","20.4","","95","","24","","7","","16.1","","100.27","","29","","","","Thunderstorms,Rain"
"2015-08-14 13:00","2015","08","14","13:00","20.9","","20.6","","98","","24","","10","","24.1","","100.28","","29","","","","Thunderstorms,Rain"
"2015-08-14 14:00","2015","08","14","14:00","23.4","","21.0","","86","","24","","5","","24.1","","100.25","","32","","","","NA"
"2015-08-14 15:00","2015","08","14","15:00","25.3","","21.3","","78","","19","","10","","24.1","","100.22","","34","","","","NA"
"2015-08-14 16:00","2015","08","14","16:00","24.7","","21.3","","81","","18","","10","","24.1","","100.20","","33","","","","Mostly Cloudy"
"2015-08-14 17:00","2015","08","14","17:00","25.4","","20.5","","74","","23","","14","","24.1","","100.20","","33","","","","NA"
"2015-08-14 18:00","2015","08","14","18:00","24.6","","21.0","","80","","21","","15","","24.1","","100.22","","33","","","","NA"
"2015-08-14 19:00","2015","08","14","19:00","22.7","","20.7","","88","","18","","10","","24.1","","100.21","","31","","","","Mostly Cloudy"
"2015-08-14 20:00","2015","08","14","20:00","21.4","","20.2","","93","","19","","7","","24.1","","100.30","","29","","","","NA"
"2015-08-14 21:00","2015","08","14","21:00","20.5","","19.7","","95","","17","","9","","24.1","","100.33","","28","","","","NA"
"2015-08-14 22:00","2015","08","14","22:00","20.0","","19.5","","97","","18","","10","","24.1","","100.35","","27","","","","Mostly Cloudy"
"2015-08-14 23:00","2015","08","14","23:00","19.6","","19.3","","98","","20","","10","","24.1","","100.37","","","","","","NA"
"2015-08-15 00:00","2015","08","15","00:00","19.0","","18.8","","99","","20","","10","","16.1","","100.33","","","","","","NA"
"2015-08-15 01:00","2015","08","15","01:00","19.1","","18.9","","99","","19","","10","","16.1","","100.34","","","","","","Mostly Cloudy"
"2015-08-15 02:00","2015","08","15","02:00","19.2","","19.2","","100","","21","","9","","3.2","","100.38","","","","","","Fog"
"2015-08-15 03:00","2015","08","15","03:00","19.2","","19.2","","100","","19","","5","","1.2","","100.38","","","","","","Fog"
"2015-08-15 04:00","2015","08","15","04:00","19.3","","19.3","","100","","20","","8","","0.4","","100.37","","","","","","Fog"
"2015-08-15 05:00","2015","08","15","05:00","19.4","","19.4","","100","","26","","4","","0.4","","100.43","","","","","","Fog"
"2015-08-15 06:00","2015","08","15","06:00","19.3","","19.3","","100","","0","","1","","0.2","","100.47","","","","","","Fog"
"2015-08-15 07:00","2015","08","15","07:00","19.4","","19.4","","100","","13","","7","","0.2","","100.51","","","","","","Fog"
"2015-08-15 08:00","2015","08","15","08:00","19.9","","19.9","","100","","17","","8","","0.2","","100.54","","","","","","Fog"
"2015-08-15 09:00","2015","08","15","09:00","20.3","","20.3","","100","","15","","5","","3.2","","100.57","","28","","","","Fog"
"2015-08-15 10:00","2015","08","15","10:00","22.2","","20.9","","92","","2","","3","","11.3","","100.58","","31","","","","Mostly Cloudy"
"2015-08-15 11:00","2015","08","15","11:00","24.2","","20.6","","80","","34","","10","","16.1","","100.60","","32","","","","NA"
"2015-08-15 12:00","2015","08","15","12:00","25.2","","20.8","","76","","35","","7","","16.1","","100.58","","33","","","","NA"
"2015-08-15 13:00","2015","08","15","13:00","26.6","","20.6","","69","","36","","2","","16.1","","100.52","","35","","","","Mostly Cloudy"
"2015-08-15 14:00","2015","08","15","14:00","26.7","","20.4","","68","","31","","7","","16.1","","100.49","","35","","","","NA"
"2015-08-15 15:00","2015","08","15","15:00","27.1","","21.0","","69","","11","","7","","16.1","","100.42","","36","","","","NA"
"2015-08-15 16:00","2015","08","15","16:00","27.1","","20.8","","68","","9","","3","","24.1","","100.43","","35","","","","Mostly Cloudy"
"2015-08-15 17:00","2015","08","15","17:00","26.9","","21.1","","70","","9","","5","","24.1","","100.42","","35","","","","NA"
"2015-08-15 18:00","2015","08","15","18:00","26.4","","21.3","","73","","16","","8","","24.1","","100.41","","35","","","","NA"
"2015-08-15 19:00","2015","08","15","19:00","24.2","","21.6","","85","","15","","4","","24.1","","100.46","","33","","","","Mainly Clear"
"2015-08-15 20:00","2015","08","15","20:00","23.2","","21.1","","88","","0","","1","","24.1","","100.57","","32","","","","NA"
"2015-08-15 21:00","2015","08","15","21:00","22.3","","21.0","","92","","17","","8","","24.1","","100.51","","31","","","","NA"
"2015-08-15 22:00","2015","08","15","22:00","21.0","","20.0","","94","","19","","5","","24.1","","100.54","","29","","","","Clear"
"2015-08-15 23:00","2015","08","15","23:00","20.8","","20.2","","96","","22","","7","","24.1","","100.56","","29","","","","NA"
"2015-08-16 00:00","2015","08","16","00:00","19.7","","19.4","","98","","16","","9","","24.1","","100.53","","","","","","NA"
"2015-08-16 01:00","2015","08","16","01:00","19.4","","19.2","","99","","19","","6","","24.1","","100.58","","","","","","Clear"
"2015-08-16 02:00","2015","08","16","02:00","19.1","","18.9","","99","","19","","8","","16.1","","100.61","","","","","","NA"
"2015-08-16 03:00","2015","08","16","03:00","18.4","","18.4","","100","","20","","7","","16.1","","100.56","","","","","","NA"
"2015-08-16 04:00","2015","08","16","04:00","18.3","","18.3","","100","","19","","9","","3.2","","100.50","","","","","","Fog"
"2015-08-16 05:00","2015","08","16","05:00","17.4","","17.4","","100","","16","","3","","4.0","","100.52","","","","","","Fog"
"2015-08-16 06:00","2015","08","16","06:00","18.0","","18.0","","100","","19","","14","","0.2","","100.53","","","","","","Fog"
"2015-08-16 07:00","2015","08","16","07:00","19.0","","19.0","","100","","22","","7","","0.8","","100.56","","","","","","Fog"
"2015-08-16 08:00","2015","08","16","08:00","20.0","","20.0","","100","","24","","8","","4.8","","100.56","","28","","","","Fog"
"2015-08-16 09:00","2015","08","16","09:00","23.5","","21.1","","86","","21","","10","","24.1","","100.58","","32","","","","NA"
"2015-08-16 10:00","2015","08","16","10:00","26.3","","21.4","","74","","24","","13","","24.1","","100.60","","35","","","","Mainly Clear"
"2015-08-16 11:00","2015","08","16","11:00","28.4","","21.8","","67","","26","","3","","24.1","","100.62","","38","","","","NA"
"2015-08-16 12:00","2015","08","16","12:00","28.1","","20.6","","63","","23","","4","","24.1","","100.54","","36","","","","NA"
"2015-08-16 13:00","2015","08","16","13:00","29.2","","20.3","","58","","1","","3","","24.1","","100.45","","37","","","","Mainly Clear"
"2015-08-16 14:00","2015","08","16","14:00","30.4","","20.0","","53","","21","","10","","24.1","","100.37","","38","","","","NA"
"2015-08-16 15:00","2015","08","16","15:00","31.0","","19.0","","48","","22","","12","","24.1","","100.29","","38","","","","NA"
"2015-08-16 16:00","2015","08","16","16:00","30.1","","20.8","","57","","18","","19","","24.1","","100.24","","38","","","","Mostly Cloudy"
"2015-08-16 17:00","2015","08","16","17:00","29.3","","20.9","","60","","19","","16","","24.1","","100.22","","38","","","","NA"
"2015-08-16 18:00","2015","08","16","18:00","27.7","","21.9","","70","","19","","20","","24.1","","100.23","","37","","","","NA"
"2015-08-16 19:00","2015","08","16","19:00","25.7","","21.0","","75","","20","","15","","24.1","","100.23","","34","","","","Mainly Clear"
"2015-08-16 20:00","2015","08","16","20:00","24.1","","20.5","","80","","20","","15","","24.1","","100.24","","32","","","","NA"
"2015-08-16 21:00","2015","08","16","21:00","23.2","","20.2","","83","","21","","16","","24.1","","100.28","","31","","","","NA"
"2015-08-16 22:00","2015","08","16","22:00","22.4","","20.0","","86","","21","","14","","24.1","","100.28","","30","","","","Clear"
"2015-08-16 23:00","2015","08","16","23:00","21.9","","19.5","","86","","21","","13","","24.1","","100.28","","29","","","","NA"
"2015-08-17 00:00","2015","08","17","00:00","21.5","","19.1","","86","","22","","12","","24.1","","100.29","","28","","","","NA"
"2015-08-17 01:00","2015","08","17","01:00","21.0","","18.8","","87","","22","","10","","24.1","","100.26","","28","","","","Clear"
"2015-08-17 02:00","2015","08","17","02:00","19.7","","18.4","","92","","17","","10","","24.1","","100.24","","","","","","NA"
"2015-08-17 03:00","2015","08","17","03:00","19.1","","18.1","","94","","20","","12","","24.1","","100.26","","","","","","NA"
"2015-08-17 04:00","2015","08","17","04:00","19.1","","18.1","","94","","20","","9","","24.1","","100.27","","","","","","Mainly Clear"
"2015-08-17 05:00","2015","08","17","05:00","18.9","","18.1","","95","","19","","9","","24.1","","100.28","","","","","","NA"
"2015-08-17 06:00","2015","08","17","06:00","19.7","","18.7","","94","","20","","11","","24.1","","100.30","","","","","","NA"
"2015-08-17 07:00","2015","08","17","07:00","21.5","","19.6","","89","","21","","14","","24.1","","100.33","","29","","","","Mainly Clear"
"2015-08-17 08:00","2015","08","17","08:00","23.3","","20.3","","83","","19","","15","","24.1","","100.31","","31","","","","NA"
"2015-08-17 09:00","2015","08","17","09:00","25.9","","21.6","","77","","21","","15","","24.1","","100.27","","35","","","","NA"
"2015-08-17 10:00","2015","08","17","10:00","28.1","","21.8","","68","","21","","16","","24.1","","100.24","","37","","","","Mainly Clear"
"2015-08-17 11:00","2015","08","17","11:00","29.0","","23.1","","70","","19","","16","","24.1","","100.21","","39","","","","NA"
"2015-08-17 12:00","2015","08","17","12:00","30.0","","21.3","","59","","22","","22","","24.1","","100.17","","39","","","","NA"
"2015-08-17 13:00","2015","08","17","13:00","30.5","","20.9","","56","","24","","30","","24.1","","100.15","","39","","","","Mostly Cloudy"
"2015-08-17 14:00","2015","08","17","14:00","31.2","","20.4","","52","","23","","28","","24.1","","100.13","","39","","","","NA"
"2015-08-17 15:00","2015","08","17","15:00","30.9","","21.3","","56","","22","","23","","24.1","","100.09","","40","","","","NA"
"2015-08-17 16:00","2015","08","17","16:00","31.0","","21.1","","55","","21","","17","","24.1","","100.05","","40","","","","Mostly Cloudy"
"2015-08-17 17:00","2015","08","17","17:00","30.0","","22.9","","65","","20","","21","","24.1","","100.03","","40","","","","NA"
"2015-08-17 18:00","2015","08","17","18:00","28.8","","22.7","","69","","19","","15","","24.1","","100.03","","39","","","","NA"
"2015-08-17 19:00","2015","08","17","19:00","26.8","","21.4","","72","","20","","12","","24.1","","100.03","","36","","","","Mainly Clear"
"2015-08-17 20:00","2015","08","17","20:00","25.3","","20.6","","75","","20","","13","","24.1","","100.09","","33","","","","NA"
"2015-08-17 21:00","2015","08","17","21:00","24.5","","20.7","","79","","20","","9","","24.1","","100.12","","33","","","","NA"
"2015-08-17 22:00","2015","08","17","22:00","23.7","","20.7","","83","","20","","9","","24.1","","100.13","","32","","","","Mainly Clear"
"2015-08-17 23:00","2015","08","17","23:00","23.2","","20.8","","86","","22","","9","","24.1","","100.14","","31","","","","NA"
"2015-08-18 00:00","2015","08","18","00:00","21.9","","20.6","","92","","23","","8","","24.1","","100.15","","30","","","","NA"
"2015-08-18 01:00","2015","08","18","01:00","21.6","","20.4","","93","","19","","7","","24.1","","100.15","","30","","","","Mainly Clear"
"2015-08-18 02:00","2015","08","18","02:00","21.1","","20.3","","95","","19","","11","","16.1","","100.13","","29","","","","NA"
"2015-08-18 03:00","2015","08","18","03:00","20.5","","20.2","","98","","20","","9","","16.1","","100.12","","28","","","","NA"
"2015-08-18 04:00","2015","08","18","04:00","20.2","","19.9","","98","","19","","8","","16.1","","100.12","","28","","","","Mainly Clear"
"2015-08-18 05:00","2015","08","18","05:00","20.2","","20.0","","99","","19","","7","","8.1","","100.12","","28","","","","Fog"
"2015-08-18 06:00","2015","08","18","06:00","20.5","","20.2","","98","","19","","9","","6.4","","100.17","","28","","","","Fog"
"2015-08-18 07:00","2015","08","18","07:00","22.5","","21.5","","94","","21","","6","","12.9","","100.20","","31","","","","Mainly Clear"
"2015-08-18 08:00","2015","08","18","08:00","24.6","","21.8","","84","","24","","8","","24.1","","100.19","","34","","","","NA"
"2015-08-18 09:00","2015","08","18","09:00","26.7","","22.2","","76","","20","","7","","16.1","","100.19","","36","","","","NA"
"2015-08-18 10:00","2015","08","18","10:00","27.4","","22.2","","73","","19","","7","","16.1","","100.18","","37","","","","Mostly Cloudy"
"2015-08-18 11:00","2015","08","18","11:00","28.9","","22.1","","66","","18","","12","","24.1","","100.12","","38","","","","NA"
"2015-08-18 12:00","2015","08","18","12:00","30.2","","21.8","","60","","16","","17","","16.1","","100.06","","39","","","","NA"
"2015-08-18 13:00","2015","08","18","13:00","30.3","","20.5","","55","","18","","15","","24.1","","100.03","","38","","","","Mostly Cloudy"
"2015-08-18 14:00","2015","08","18","14:00","31.0","","21.7","","57","","18","","11","","24.1","","99.98","","40","","","","NA"
"2015-08-18 15:00","2015","08","18","15:00","30.5","","21.5","","58","","18","","14","","24.1","","99.92","","39","","","","NA"
"2015-08-18 16:00","2015","08","18","16:00","29.9","","22.0","","62","","16","","11","","24.1","","99.90","","39","","","","Mostly Cloudy"
"2015-08-18 17:00","2015","08","18","17:00","29.0","","22.2","","66","","18","","9","","24.1","","99.94","","39","","","","NA"
"2015-08-18 18:00","2015","08","18","18:00","28.1","","21.5","","67","","24","","9","","24.1","","99.94","","37","","","","NA"
"2015-08-18 19:00","2015","08","18","19:00","25.4","","20.1","","72","","35","","19","","24.1","","100.01","","33","","","","Mostly Cloudy"
"2015-08-18 20:00","2015","08","18","20:00","23.3","","19.3","","78","","2","","14","","24.1","","100.10","","30","","","","NA"
"2015-08-18 21:00","2015","08","18","21:00","23.2","","19.4","","79","","4","","9","","24.1","","100.08","","30","","","","Thunderstorms,Rain"
"2015-08-18 22:00","2015","08","18","22:00","21.5","","20.3","","93","","8","","23","","24.1","","100.09","","29","","","","Thunderstorms,Rain"
"2015-08-18 23:00","2015","08","18","23:00","20.9","","20.3","","96","","11","","5","","24.1","","100.08","","29","","","","NA"
"2015-08-19 00:00","2015","08","19","00:00","21.1","","20.5","","96","","7","","7","","24.1","","100.06","","29","","","","NA"
"2015-08-19 01:00","2015","08","19","01:00","20.1","","19.9","","99","","20","","4","","24.1","","100.08","","28","","","","Cloudy"
"2015-08-19 02:00","2015","08","19","02:00","20.1","","19.9","","99","","15","","3","","24.1","","100.04","","28","","","","NA"
"2015-08-19 03:00","2015","08","19","03:00","19.3","","19.1","","99","","14","","7","","24.1","","100.00","","","","","","NA"
"2015-08-19 04:00","2015","08","19","04:00","20.0","","19.7","","98","","36","","1","","24.1","","100.03","","27","","","","Mostly Cloudy"
"2015-08-19 05:00","2015","08","19","05:00","19.9","","19.7","","99","","6","","4","","24.1","","100.08","","","","","","NA"
"2015-08-19 06:00","2015","08","19","06:00","20.2","","20.0","","99","","8","","8","","8.1","","100.11","","28","","","","Fog"
"2015-08-19 07:00","2015","08","19","07:00","20.7","","20.2","","97","","11","","9","","9.7","","100.14","","28","","","","Fog"
"2015-08-19 08:00","2015","08","19","08:00","22.2","","20.9","","92","","9","","12","","12.9","","100.11","","31","","","","NA"
"2015-08-19 09:00","2015","08","19","09:00","24.1","","21.3","","84","","9","","11","","16.1","","100.10","","33","","","","NA"
"2015-08-19 10:00","2015","08","19","10:00","26.0","","21.7","","77","","16","","12","","16.1","","100.07","","35","","","","Mostly Cloudy"
"2015-08-19 11:00","2015","08","19","11:00","27.3","","21.9","","72","","15","","15","","16.1","","100.04","","37","","","","NA"
"2015-08-19 12:00","2015","08","19","12:00","28.1","","22.0","","69","","22","","12","","16.1","","100.03","","37","","","","NA"
"2015-08-19 13:00","2015","08","19","13:00","29.0","","22.2","","66","","15","","14","","16.1","","99.98","","39","","","","Mostly Cloudy"
"2015-08-19 14:00","2015","08","19","14:00","26.4","","23.0","","81","","15","","14","","16.1","","99.98","","37","","","","Rain Showers"
"2015-08-19 15:00","2015","08","19","15:00","27.5","","23.8","","80","","15","","19","","16.1","","99.91","","39","","","","Rain Showers"
"2015-08-19 16:00","2015","08","19","16:00","27.7","","22.5","","73","","16","","19","","16.1","","99.88","","37","","","","Mostly Cloudy"
"2015-08-19 17:00","2015","08","19","17:00","26.6","","22.9","","80","","19","","12","","24.1","","99.87","","37","","","","Rain Showers"
"2015-08-19 18:00","2015","08","19","18:00","26.2","","22.4","","79","","17","","9","","24.1","","99.89","","36","","","","NA"
"2015-08-19 19:00","2015","08","19","19:00","24.8","","22.7","","88","","13","","10","","24.1","","99.90","","35","","","","Mostly Cloudy"
"2015-08-19 20:00","2015","08","19","20:00","23.4","","22.4","","94","","14","","10","","24.1","","99.91","","33","","","","NA"
"2015-08-19 21:00","2015","08","19","21:00","23.1","","21.6","","91","","15","","11","","24.1","","99.92","","32","","","","NA"
"2015-08-19 22:00","2015","08","19","22:00","22.8","","21.5","","92","","13","","10","","24.1","","99.90","","32","","","","Mostly Cloudy"
"2015-08-19 23:00","2015","08","19","23:00","22.9","","21.7","","93","","14","","12","","24.1","","99.87","","32","","","","NA"
"2015-08-20 00:00","2015","08","20","00:00","23.5","","21.4","","88","","16","","19","","24.1","","99.88","","32","","","","NA"
"2015-08-20 01:00","2015","08","20","01:00","23.1","","20.9","","87","","15","","19","","24.1","","99.86","","31","","","","Mostly Cloudy"
"2015-08-20 02:00","2015","08","20","02:00","22.7","","20.5","","87","","15","","17","","24.1","","99.83","","31","","","","NA"
"2015-08-20 03:00","2015","08","20","03:00","22.6","","20.4","","87","","16","","16","","24.1","","99.81","","31","","","","NA"
"2015-08-20 04:00","2015","08","20","04:00","22.1","","20.2","","89","","14","","16","","24.1","","99.79","","30","","","","Mainly Clear"
"2015-08-20 05:00","2015","08","20","05:00","22.2","","20.2","","88","","16","","16","","24.1","","99.80","","30","","","","NA"
"2015-08-20 06:00","2015","08","20","06:00","23.0","","20.4","","85","","16","","19","","16.1","","99.79","","31","","","","NA"
"2015-08-20 07:00","2015","08","20","07:00","23.7","","20.3","","81","","15","","24","","24.1","","99.79","","32","","","","Mostly Cloudy"
"2015-08-20 08:00","2015","08","20","08:00","24.8","","20.6","","77","","16","","22","","24.1","","99.77","","33","","","","NA"
"2015-08-20 09:00","2015","08","20","09:00","25.2","","20.1","","73","","16","","26","","24.1","","99.77","","33","","","","NA"
"2015-08-20 10:00","2015","08","20","10:00","27.2","","20.7","","67","","16","","30","","24.1","","99.74","","35","","","","Mostly Cloudy"
"2015-08-20 11:00","2015","08","20","11:00","28.1","","20.8","","64","","17","","28","","24.1","","99.71","","36","","","","NA"
"2015-08-20 12:00","2015","08","20","12:00","27.2","","20.7","","67","","17","","24","","24.1","","99.68","","35","","","","NA"
"2015-08-20 13:00","2015","08","20","13:00","27.4","","20.4","","65","","16","","28","","24.1","","99.60","","35","","","","Cloudy"
"2015-08-20 14:00","2015","08","20","14:00","27.8","","20.8","","65","","16","","28","","24.1","","99.53","","36","","","","NA"
"2015-08-20 15:00","2015","08","20","15:00","27.6","","21.1","","67","","16","","19","","24.1","","99.52","","36","","","","NA"
"2015-08-20 16:00","2015","08","20","16:00","27.3","","20.8","","67","","16","","19","","24.1","","99.48","","36","","","","Cloudy"
"2015-08-20 17:00","2015","08","20","17:00","27.0","","20.0","","65","","16","","19","","16.1","","99.46","","35","","","","NA"
"2015-08-20 18:00","2015","08","20","18:00","21.1","","20.6","","97","","24","","21","","2.4","","99.65","","29","","","","Moderate Rain Showers,Fog"
"2015-08-20 19:00","2015","08","20","19:00","21.1","","20.8","","98","","21","","9","","8.1","","99.68","","29","","","","Rain,Fog"
"2015-08-20 20:00","2015","08","20","20:00","20.5","","19.9","","96","","20","","14","","11.3","","99.75","","28","","","","Rain"
"2015-08-20 21:00","2015","08","20","21:00","20.2","","19.6","","96","","18","","9","","11.3","","99.74","","27","","","","Rain"
"2015-08-20 22:00","2015","08","20","22:00","19.7","","19.2","","97","","18","","9","","12.9","","99.78","","","","","","Cloudy"
"2015-08-20 23:00","2015","08","20","23:00","19.9","","19.6","","98","","19","","13","","16.1","","99.81","","","","","","NA"
"2015-08-21 00:00","2015","08","21","00:00","19.8","","19.3","","97","","20","","17","","16.1","","99.85","","","","","","NA"
"2015-08-21 01:00","2015","08","21","01:00","19.3","","19.0","","98","","19","","11","","16.1","","99.85","","","","","","Cloudy"
"2015-08-21 02:00","2015","08","21","02:00","18.9","","18.4","","97","","20","","13","","16.1","","99.90","","","","","","NA"
"2015-08-21 03:00","2015","08","21","03:00","18.0","","17.5","","97","","21","","10","","16.1","","99.96","","","","","","NA"
"2015-08-21 04:00","2015","08","21","04:00","16.9","","16.6","","98","","23","","4","","16.1","","100.00","","","","","","Mainly Clear"
"2015-08-21 05:00","2015","08","21","05:00","15.3","","15.2","","99","","15","","6","","24.1","","100.01","","","","","","NA"
"2015-08-21 06:00","2015","08","21","06:00","16.3","","16.3","","100","","20","","9","","16.1","","100.14","","","","","","NA"
"2015-08-21 07:00","2015","08","21","07:00","18.2","","17.2","","94","","25","","9","","24.1","","100.19","","","","","","Mainly Clear"
"2015-08-21 08:00","2015","08","21","08:00","19.5","","17.5","","88","","23","","11","","24.1","","100.21","","","","","","NA"
"2015-08-21 09:00","2015","08","21","09:00","20.3","","15.8","","75","","24","","17","","24.1","","100.24","","25","","","","NA"
"2015-08-21 10:00","2015","08","21","10:00","22.5","","15.7","","65","","21","","18","","24.1","","100.27","","27","","","","Mainly Clear"
"2015-08-21 11:00","2015","08","21","11:00","23.1","","15.5","","62","","23","","21","","24.1","","100.27","","27","","","","NA"
"2015-08-21 12:00","2015","08","21","12:00","22.5","","15.0","","62","","21","","16","","24.1","","100.27","","26","","","","NA"
"2015-08-21 13:00","2015","08","21","13:00","24.4","","16.0","","59","","19","","12","","24.1","","100.29","","29","","","","Mostly Cloudy"
"2015-08-21 14:00","2015","08","21","14:00","22.9","","14.3","","58","","22","","15","","24.1","","100.32","","26","","","","NA"
"2015-08-21 15:00","2015","08","21","15:00","23.2","","13.8","","55","","22","","16","","24.1","","100.32","","26","","","","NA"
"2015-08-21 16:00","2015","08","21","16:00","23.3","","14.4","","57","","22","","15","","24.1","","100.32","","27","","","","Mostly Cloudy"
"2015-08-21 17:00","2015","08","21","17:00","22.1","","14.4","","61","","24","","14","","24.1","","100.37","","26","","","","NA"
"2015-08-21 18:00","2015","08","21","18:00","21.3","","15.3","","68","","30","","18","","24.1","","100.40","","25","","","","NA"
"2015-08-21 19:00","2015","08","21","19:00","20.2","","14.9","","71","","28","","12","","24.1","","100.44","","","","","","Mostly Cloudy"
"2015-08-21 20:00","2015","08","21","20:00","19.9","","15.0","","73","","29","","8","","24.1","","100.49","","","","","","NA"
"2015-08-21 21:00","2015","08","21","21:00","18.6","","15.5","","82","","24","","8","","24.1","","100.53","","","","","","NA"
"2015-08-21 22:00","2015","08","21","22:00","17.4","","15.1","","86","","26","","7","","24.1","","100.55","","","","","","Mostly Cloudy"
"2015-08-21 23:00","2015","08","21","23:00","17.4","","15.4","","88","","25","","11","","24.1","","100.58","","","","","","NA"
"2015-08-22 00:00","2015","08","22","00:00","15.8","","14.7","","93","","26","","12","","24.1","","100.58","","","","","","NA"
"2015-08-22 01:00","2015","08","22","01:00","15.6","","14.7","","94","","27","","9","","24.1","","100.62","","","","","","Mostly Cloudy"
"2015-08-22 02:00","2015","08","22","02:00","15.1","","13.8","","92","","28","","7","","24.1","","100.63","","","","","","NA"
"2015-08-22 03:00","2015","08","22","03:00","14.7","","14.2","","97","","26","","7","","24.1","","100.67","","","","","","NA"
"2015-08-22 04:00","2015","08","22","04:00","13.8","","13.7","","99","","26","","8","","24.1","","100.69","","","","","","Clear"
"2015-08-22 05:00","2015","08","22","05:00","13.2","","13.2","","100","","27","","7","","24.1","","100.75","","","","","","NA"
"2015-08-22 06:00","2015","08","22","06:00","14.8","","14.8","","100","","28","","9","","24.1","","100.80","","","","","","NA"
"2015-08-22 07:00","2015","08","22","07:00","17.1","","16.1","","94","","31","","8","","24.1","","100.84","","","","","","Clear"
"2015-08-22 08:00","2015","08","22","08:00","19.7","","14.8","","73","","36","","7","","24.1","","100.87","","","","","","NA"
"2015-08-22 09:00","2015","08","22","09:00","21.4","","13.9","","62","","2","","13","","24.1","","100.86","","25","","","","NA"
"2015-08-22 10:00","2015","08","22","10:00","22.0","","13.2","","57","","21","","4","","24.1","","100.86","","25","","","","Mainly Clear"
"2015-08-22 11:00","2015","08","22","11:00","22.6","","12.7","","53","","26","","5","","24.1","","100.86","","25","","","","NA"
"2015-08-22 12:00","2015","08","22","12:00","23.9","","13.0","","50","","27","","5","","24.1","","100.83","","27","","","","NA"
"2015-08-22 13:00","2015","08","22","13:00","24.3","","13.7","","51","","36","","8","","24.1","","100.80","","27","","","","Mostly Cloudy"
"2015-08-22 14:00","2015","08","22","14:00","24.4","","13.5","","50","","3","","5","","24.1","","100.76","","27","","","","NA"
"2015-08-22 15:00","2015","08","22","15:00","24.8","","12.6","","46","","24","","9","","24.1","","100.75","","27","","","","NA"
"2015-08-22 16:00","2015","08","22","16:00","24.7","","12.5","","46","","21","","7","","24.1","","100.71","","27","","","","Mainly Clear"
"2015-08-22 17:00","2015","08","22","17:00","24.6","","12.7","","47","","25","","5","","24.1","","100.68","","27","","","","NA"
"2015-08-22 18:00","2015","08","22","18:00","22.8","","14.0","","57","","23","","9","","24.1","","100.65","","26","","","","NA"
"2015-08-22 19:00","2015","08","22","19:00","20.6","","13.9","","65","","24","","6","","24.1","","100.65","","","","","","Mainly Clear"
"2015-08-22 20:00","2015","08","22","20:00","19.5","","14.0","","70","","4","","4","","24.1","","100.68","","","","","","NA"
"2015-08-22 21:00","2015","08","22","21:00","16.5","","13.6","","83","","9","","5","","24.1","","100.67","","","","","","NA"
"2015-08-22 22:00","2015","08","22","22:00","17.2","","13.8","","80","","8","","3","","24.1","","100.68","","","","","","Clear"
"2015-08-22 23:00","2015","08","22","23:00","17.9","","13.5","","75","","36","","1","","24.1","","100.67","","","","","","NA"
"2015-08-23 00:00","2015","08","23","00:00","15.5","","13.0","","85","","5","","5","","24.1","","100.66","","","","","","NA"
"2015-08-23 01:00","2015","08","23","01:00","16.2","","14.2","","88","","5","","7","","24.1","","100.62","","","","","","Clear"
"2015-08-23 02:00","2015","08","23","02:00","15.5","","14.4","","93","","5","","7","","24.1","","100.58","","","","","","NA"
"2015-08-23 03:00","2015","08","23","03:00","14.6","","13.7","","94","","6","","7","","24.1","","100.54","","","","","","NA"
"2015-08-23 04:00","2015","08","23","04:00","14.0","","13.5","","97","","4","","6","","24.1","","100.58","","","","","","Clear"
"2015-08-23 05:00","2015","08","23","05:00","13.3","","12.5","","95","","1","","5","","24.1","","100.62","","","","","","NA"
"2015-08-23 06:00","2015","08","23","06:00","13.9","","13.3","","96","","2","","5","","24.1","","100.66","","","","","","NA"
"2015-08-23 07:00","2015","08","23","07:00","16.3","","14.5","","89","","4","","12","","24.1","","100.65","","","","","","Mostly Cloudy"
"2015-08-23 08:00","2015","08","23","08:00","17.2","","15.7","","91","","5","","13","","24.1","","100.56","","","","","","NA"
"2015-08-23 09:00","2015","08","23","09:00","19.5","","15.8","","79","","5","","9","","24.1","","100.52","","","","","","NA"
"2015-08-23 10:00","2015","08","23","10:00","21.2","","15.8","","71","","7","","8","","24.1","","100.50","","26","","","","Mostly Cloudy"
"2015-08-23 11:00","2015","08","23","11:00","23.6","","16.8","","65","","8","","9","","24.1","","100.41","","29","","","","NA"
"2015-08-23 12:00","2015","08","23","12:00","25.2","","17.0","","60","","8","","17","","24.1","","100.33","","30","","","","NA"
"2015-08-23 13:00","2015","08","23","13:00","25.8","","16.5","","56","","14","","8","","24.1","","100.26","","31","","","","Mostly Cloudy"
"2015-08-23 14:00","2015","08","23","14:00","25.4","","14.7","","51","","12","","13","","24.1","","100.25","","29","","","","NA"
"2015-08-23 15:00","2015","08","23","15:00","26.9","","14.8","","47","","9","","19","","24.1","","100.15","","31","","","","NA"
"2015-08-23 16:00","2015","08","23","16:00","25.9","","15.5","","52","","7","","13","","24.1","","100.09","","30","","","","Mostly Cloudy"
"2015-08-23 17:00","2015","08","23","17:00","25.4","","16.7","","58","","12","","14","","24.1","","100.02","","30","","","","NA"
"2015-08-23 18:00","2015","08","23","18:00","24.3","","17.7","","66","","13","","9","","24.1","","100.01","","30","","","","NA"
"2015-08-23 19:00","2015","08","23","19:00","21.0","","17.1","","78","","11","","5","","24.1","","100.00","","26","","","","Mainly Clear"
"2015-08-23 20:00","2015","08","23","20:00","21.0","","17.1","","78","","10","","7","","24.1","","99.99","","26","","","","NA"
"2015-08-23 21:00","2015","08","23","21:00","21.5","","17.2","","76","","9","","5","","24.1","","99.95","","27","","","","NA"
"2015-08-23 22:00","2015","08","23","22:00","19.6","","16.5","","82","","10","","10","","24.1","","99.89","","","","","","Mainly Clear"
"2015-08-23 23:00","2015","08","23","23:00","18.7","","15.8","","83","","11","","7","","24.1","","99.83","","","","","","NA"
"2015-08-24 00:00","2015","08","24","00:00","16.7","","15.1","","90","","13","","5","","24.1","","99.79","","","","","","NA"
"2015-08-24 01:00","2015","08","24","01:00","16.0","","15.2","","95","","24","","5","","24.1","","99.76","","","","","","Mainly Clear"
"2015-08-24 02:00","2015","08","24","02:00","17.3","","15.8","","91","","36","","1","","24.1","","99.74","","","","","","NA"
"2015-08-24 03:00","2015","08","24","03:00","16.1","","15.3","","95","","7","","6","","24.1","","99.72","","","","","","NA"
"2015-08-24 04:00","2015","08","24","04:00","16.2","","15.7","","97","","10","","9","","24.1","","99.66","","","","","","Mainly Clear"
"2015-08-24 05:00","2015","08","24","05:00","15.5","","15.0","","97","","12","","9","","24.1","","99.66","","","","","","NA"
"2015-08-24 06:00","2015","08","24","06:00","16.3","","15.2","","93","","14","","13","","24.1","","99.66","","","","","","NA"
"2015-08-24 07:00","2015","08","24","07:00","18.7","","16.0","","84","","14","","15","","24.1","","99.63","","","","","","Mostly Cloudy"
"2015-08-24 08:00","2015","08","24","08:00","21.2","","16.7","","75","","15","","18","","24.1","","99.56","","26","","","","NA"
"2015-08-24 09:00","2015","08","24","09:00","23.4","","17.5","","69","","16","","14","","24.1","","99.53","","29","","","","NA"
"2015-08-24 10:00","2015","08","24","10:00","24.2","","17.3","","65","","17","","17","","24.1","","99.53","","30","","","","Mostly Cloudy"
"2015-08-24 11:00","2015","08","24","11:00","24.3","","17.7","","66","","19","","15","","24.1","","99.50","","30","","","","NA"
"2015-08-24 12:00","2015","08","24","12:00","20.6","","18.6","","88","","22","","14","","12.9","","99.51","","27","","","","Rain"
"2015-08-24 13:00","2015","08","24","13:00","19.8","","18.8","","94","","18","","14","","8.1","","99.52","","","","","","Rain,Fog"
"2015-08-24 14:00","2015","08","24","14:00","22.1","","20.2","","89","","17","","17","","16.1","","99.48","","30","","","","NA"
"2015-08-24 15:00","2015","08","24","15:00","23.1","","19.1","","78","","15","","21","","24.1","","99.46","","30","","","","NA"
"2015-08-24 16:00","2015","08","24","16:00","24.1","","18.8","","72","","19","","16","","24.1","","99.47","","31","","","","Mainly Clear"
"2015-08-24 17:00","2015","08","24","17:00","24.2","","17.8","","67","","19","","14","","24.1","","99.49","","30","","","","NA"
"2015-08-24 18:00","2015","08","24","18:00","22.8","","14.5","","59","","22","","12","","24.1","","99.52","","26","","","","NA"
"2015-08-24 19:00","2015","08","24","19:00","20.0","","14.2","","69","","17","","7","","24.1","","99.55","","","","","","Clear"
"2015-08-24 20:00","2015","08","24","20:00","18.8","","15.5","","81","","17","","9","","24.1","","99.63","","","","","","NA"
"2015-08-24 21:00","2015","08","24","21:00","18.0","","14.9","","82","","20","","10","","24.1","","99.65","","","","","","NA"
"2015-08-24 22:00","2015","08","24","22:00","17.0","","14.1","","83","","19","","8","","24.1","","99.67","","","","","","Clear"
"2015-08-24 23:00","2015","08","24","23:00","15.7","","13.4","","86","","18","","4","","24.1","","99.67","","","","","","NA"
"2015-08-25 00:00","2015","08","25","00:00","13.8","","12.7","","93","","4","","9","","24.1","","99.64","","","","","","NA"
"2015-08-25 01:00","2015","08","25","01:00","13.7","","12.8","","94","","13","","10","","24.1","","99.66","","","","","","Mainly Clear"
"2015-08-25 02:00","2015","08","25","02:00","14.2","","12.9","","92","","15","","7","","24.1","","99.67","","","","","","NA"
"2015-08-25 03:00","2015","08","25","03:00","14.9","","13.6","","92","","17","","8","","24.1","","99.64","","","","","","NA"
"2015-08-25 04:00","2015","08","25","04:00","15.4","","13.8","","90","","18","","10","","24.1","","99.63","","","","","","Mostly Cloudy"
"2015-08-25 05:00","2015","08","25","05:00","14.7","","13.6","","93","","17","","8","","24.1","","99.66","","","","","","NA"
"2015-08-25 06:00","2015","08","25","06:00","14.7","","13.8","","94","","14","","8","","24.1","","99.67","","","","","","NA"
"2015-08-25 07:00","2015","08","25","07:00","17.3","","15.0","","86","","19","","9","","24.1","","99.73","","","","","","Mainly Clear"
"2015-08-25 08:00","2015","08","25","08:00","19.8","","15.7","","77","","19","","14","","24.1","","99.72","","","","","","NA"
"2015-08-25 09:00","2015","08","25","09:00","21.9","","16.1","","69","","20","","23","","24.1","","99.73","","27","","","","NA"
"2015-08-25 10:00","2015","08","25","10:00","21.6","","14.6","","64","","23","","12","","24.1","","99.74","","25","","","","Mostly Cloudy"
"2015-08-25 11:00","2015","08","25","11:00","21.4","","13.7","","61","","25","","17","","24.1","","99.78","","25","","","","NA"
"2015-08-25 12:00","2015","08","25","12:00","19.7","","13.3","","66","","25","","21","","24.1","","99.79","","","","","","NA"
"2015-08-25 13:00","2015","08","25","13:00","18.7","","14.0","","74","","23","","14","","24.1","","99.80","","","","","","Cloudy"
"2015-08-25 14:00","2015","08","25","14:00","19.5","","13.5","","68","","23","","22","","24.1","","99.81","","","","","","NA"
"2015-08-25 15:00","2015","08","25","15:00","19.3","","12.2","","63","","24","","22","","24.1","","99.79","","","","","","NA"
"2015-08-25 16:00","2015","08","25","16:00","19.2","","11.6","","61","","21","","14","","24.1","","99.79","","","","","","Mostly Cloudy"
"2015-08-25 17:00","2015","08","25","17:00","18.7","","12.8","","68","","20","","12","","24.1","","99.79","","","","","","NA"
"2015-08-25 18:00","2015","08","25","18:00","19.2","","14.3","","73","","18","","5","","24.1","","99.78","","","","","","NA"
"2015-08-25 19:00","2015","08","25","19:00","17.7","","13.1","","74","","22","","13","","24.1","","99.82","","","","","","Mainly Clear"
"2015-08-25 20:00","2015","08","25","20:00","16.7","","12.9","","78","","22","","12","","24.1","","99.88","","","","","","NA"
"2015-08-25 21:00","2015","08","25","21:00","16.3","","13.1","","81","","22","","11","","24.1","","99.91","","","","","","NA"
"2015-08-25 22:00","2015","08","25","22:00","13.5","","12.2","","92","","17","","10","","24.1","","99.95","","","","","","Mainly Clear"
"2015-08-25 23:00","2015","08","25","23:00","13.7","","12.4","","92","","18","","8","","24.1","","99.95","","","","","","NA"
"2015-08-26 00:00","2015","08","26","00:00","13.4","","12.3","","93","","20","","7","","24.1","","99.99","","","","","","NA"
"2015-08-26 01:00","2015","08","26","01:00","13.3","","12.2","","93","","21","","7","","24.1","","99.96","","","","","","Mostly Cloudy"
"2015-08-26 02:00","2015","08","26","02:00","13.0","","12.2","","95","","24","","8","","24.1","","99.90","","","","","","NA"
"2015-08-26 03:00","2015","08","26","03:00","13.4","","12.6","","95","","21","","8","","24.1","","99.91","","","","","","NA"
"2015-08-26 04:00","2015","08","26","04:00","13.6","","12.8","","95","","24","","10","","24.1","","99.97","","","","","","Cloudy"
"2015-08-26 05:00","2015","08","26","05:00","13.7","","12.9","","95","","19","","7","","24.1","","100.01","","","","","","NA"
"2015-08-26 06:00","2015","08","26","06:00","14.0","","13.1","","94","","24","","10","","24.1","","100.05","","","","","","NA"
"2015-08-26 07:00","2015","08","26","07:00","14.7","","13.4","","92","","36","","3","","24.1","","100.07","","","","","","Mostly Cloudy"
"2015-08-26 08:00","2015","08","26","08:00","16.3","","13.4","","83","","24","","8","","24.1","","100.12","","","","","","NA"
"2015-08-26 09:00","2015","08","26","09:00","18.1","","13.5","","74","","20","","10","","24.1","","100.12","","","","","","NA"
"2015-08-26 10:00","2015","08","26","10:00","19.3","","11.9","","62","","20","","14","","24.1","","100.14","","","","","","Mostly Cloudy"
"2015-08-26 11:00","2015","08","26","11:00","21.4","","11.6","","53","","20","","16","","24.1","","100.13","","","","","","NA"
"2015-08-26 12:00","2015","08","26","12:00","20.3","","12.6","","61","","24","","18","","24.1","","100.08","","","","","","NA"
"2015-08-26 13:00","2015","08","26","13:00","21.2","","12.7","","58","","19","","14","","24.1","","100.06","","","","","","Mostly Cloudy"
"2015-08-26 14:00","2015","08","26","14:00","21.2","","12.2","","56","","25","","16","","24.1","","100.04","","","","","","NA"
"2015-08-26 15:00","2015","08","26","15:00","21.2","","13.2","","60","","22","","12","","24.1","","100.00","","","","","","NA"
"2015-08-26 16:00","2015","08","26","16:00","19.4","","14.5","","73","","26","","34","","16.1","","100.05","","","","","","Rain Showers"
"2015-08-26 17:00","2015","08","26","17:00","18.8","","16.1","","84","","25","","7","","24.1","","100.02","","","","","","NA"
"2015-08-26 18:00","2015","08","26","18:00","18.2","","15.9","","86","","24","","6","","24.1","","100.02","","","","","","NA"
"2015-08-26 19:00","2015","08","26","19:00","17.1","","13.9","","81","","22","","7","","24.1","","100.02","","","","","","Mostly Cloudy"
"2015-08-26 20:00","2015","08","26","20:00","16.5","","14.4","","87","","25","","9","","24.1","","100.08","","","","","","NA"
"2015-08-26 21:00","2015","08","26","21:00","16.0","","14.2","","89","","23","","8","","24.1","","100.11","","","","","","NA"
"2015-08-26 22:00","2015","08","26","22:00","15.9","","13.8","","87","","27","","13","","24.1","","100.13","","","","","","Mostly Cloudy"
"2015-08-26 23:00","2015","08","26","23:00","15.5","","13.7","","89","","26","","17","","24.1","","100.14","","","","","","NA"
"2015-08-27 00:00","2015","08","27","00:00","14.9","","13.8","","93","","26","","9","","24.1","","100.19","","","","","","NA"
"2015-08-27 01:00","2015","08","27","01:00","14.6","","13.7","","94","","25","","11","","24.1","","100.18","","","","","","Cloudy"
"2015-08-27 02:00","2015","08","27","02:00","14.3","","13.0","","92","","27","","11","","24.1","","100.16","","","","","","NA"
"2015-08-27 03:00","2015","08","27","03:00","13.9","","12.6","","92","","27","","12","","16.1","","100.16","","","","","","NA"
"2015-08-27 04:00","2015","08","27","04:00","13.8","","12.5","","92","","25","","13","","16.1","","100.20","","","","","","Cloudy"
"2015-08-27 05:00","2015","08","27","05:00","13.6","","12.3","","92","","26","","15","","24.1","","100.24","","","","","","NA"
"2015-08-27 06:00","2015","08","27","06:00","13.4","","12.0","","91","","27","","18","","24.1","","100.29","","","","","","NA"
"2015-08-27 07:00","2015","08","27","07:00","14.3","","12.2","","87","","28","","16","","24.1","","100.35","","","","","","Mostly Cloudy"
"2015-08-27 08:00","2015","08","27","08:00","15.1","","12.6","","85","","29","","19","","24.1","","100.38","","","","","","NA"
"2015-08-27 09:00","2015","08","27","09:00","15.6","","13.1","","85","","29","","17","","24.1","","100.42","","","","","","NA"
"2015-08-27 10:00","2015","08","27","10:00","16.9","","13.7","","81","","28","","12","","24.1","","100.46","","","","","","Cloudy"
"2015-08-27 11:00","2015","08","27","11:00","18.8","","14.3","","75","","28","","12","","24.1","","100.45","","","","","","NA"
"2015-08-27 12:00","2015","08","27","12:00","20.2","","14.0","","67","","26","","16","","24.1","","100.44","","","","","","NA"
"2015-08-27 13:00","2015","08","27","13:00","20.0","","14.0","","68","","27","","17","","24.1","","100.45","","","","","","Mostly Cloudy"
"2015-08-27 14:00","2015","08","27","14:00","19.9","","13.9","","68","","32","","16","","24.1","","100.44","","","","","","NA"
"2015-08-27 15:00","2015","08","27","15:00","20.6","","12.9","","61","","29","","16","","24.1","","100.44","","","","","","NA"
"2015-08-27 16:00","2015","08","27","16:00","21.4","","12.9","","58","","30","","20","","24.1","","100.42","","","","","","Mostly Cloudy"
"2015-08-27 17:00","2015","08","27","17:00","21.1","","12.4","","57","","27","","19","","24.1","","100.45","","","","","","NA"
"2015-08-27 18:00","2015","08","27","18:00","20.0","","11.9","","59","","28","","16","","24.1","","100.47","","","","","","NA"
"2015-08-27 19:00","2015","08","27","19:00","18.4","","11.6","","64","","33","","18","","24.1","","100.51","","","","","","Clear"
"2015-08-27 20:00","2015","08","27","20:00","15.9","","11.1","","73","","30","","10","","24.1","","100.61","","","","","","NA"
"2015-08-27 21:00","2015","08","27","21:00","15.4","","11.0","","75","","32","","9","","24.1","","100.64","","","","","","NA"
"2015-08-27 22:00","2015","08","27","22:00","14.4","","11.6","","83","","31","","10","","24.1","","100.65","","","","","","Clear"
"2015-08-27 23:00","2015","08","27","23:00","11.7","","10.8","","94","","24","","3","","24.1","","100.68","","","","","","NA"
"2015-08-28 00:00","2015","08","28","00:00","11.2","","10.6","","96","","25","","6","","24.1","","100.73","","","","","","NA"
"2015-08-28 01:00","2015","08","28","01:00","11.7","","11.1","","96","","25","","5","","24.1","","100.73","","","","","","Clear"
"2015-08-28 02:00","2015","08","28","02:00","10.8","","10.4","","97","","24","","6","","24.1","","100.74","","","","","","NA"
"2015-08-28 03:00","2015","08","28","03:00","10.4","","10.1","","98","","26","","9","","24.1","","100.74","","","","","","NA"
"2015-08-28 04:00","2015","08","28","04:00","10.9","","10.6","","98","","30","","4","","24.1","","100.75","","","","","","Clear"
"2015-08-28 05:00","2015","08","28","05:00","9.4","","9.1","","98","","22","","8","","24.1","","100.77","","","","","","NA"
"2015-08-28 06:00","2015","08","28","06:00","10.7","","10.4","","98","","25","","6","","24.1","","100.79","","","","","","NA"
"2015-08-28 07:00","2015","08","28","07:00","12.2","","11.9","","98","","25","","7","","24.1","","100.84","","","","","","Mainly Clear"
"2015-08-28 08:00","2015","08","28","08:00","15.1","","13.2","","88","","25","","7","","24.1","","100.87","","","","","","NA"
"2015-08-28 09:00","2015","08","28","09:00","17.6","","12.8","","73","","26","","9","","24.1","","100.89","","","","","","NA"
"2015-08-28 10:00","2015","08","28","10:00","18.5","","11.9","","65","","25","","16","","24.1","","100.88","","","","","","Mostly Cloudy"
"2015-08-28 11:00","2015","08","28","11:00","19.0","","12.6","","66","","26","","16","","24.1","","100.87","","","","","","NA"
"2015-08-28 12:00","2015","08","28","12:00","19.6","","12.7","","64","","28","","13","","24.1","","100.83","","","","","","NA"
"2015-08-28 13:00","2015","08","28","13:00","20.8","","11.6","","55","","27","","10","","24.1","","100.78","","","","","","Mostly Cloudy"
"2015-08-28 14:00","2015","08","28","14:00","21.2","","13.0","","59","","25","","13","","24.1","","100.74","","","","","","NA"
"2015-08-28 15:00","2015","08","28","15:00","22.0","","13.7","","59","","26","","14","","24.1","","100.71","","25","","","","NA"
"2015-08-28 16:00","2015","08","28","16:00","21.7","","12.7","","56","","24","","20","","24.1","","100.66","","","","","","Mainly Clear"
"2015-08-28 17:00","2015","08","28","17:00","20.8","","12.6","","59","","23","","16","","24.1","","100.66","","","","","","NA"
"2015-08-28 18:00","2015","08","28","18:00","19.0","","13.0","","68","","23","","9","","24.1","","100.68","","","","","","NA"
"2015-08-28 19:00","2015","08","28","19:00","17.5","","12.7","","73","","22","","10","","24.1","","100.72","","","","","","Mainly Clear"
"2015-08-28 20:00","2015","08","28","20:00","16.8","","12.6","","76","","19","","8","","24.1","","100.76","","","","","","NA"
"2015-08-28 21:00","2015","08","28","21:00","15.7","","12.9","","83","","19","","8","","24.1","","100.75","","","","","","NA"
"2015-08-28 22:00","2015","08","28","22:00","14.6","","12.7","","88","","19","","8","","24.1","","100.74","","","","","","Mostly Cloudy"
"2015-08-28 23:00","2015","08","28","23:00","13.4","","12.3","","93","","17","","9","","24.1","","100.72","","","","","","NA"
"2015-08-29 00:00","2015","08","29","00:00","14.4","","13.5","","94","","19","","11","","24.1","","100.70","","","","","","NA"
"2015-08-29 01:00","2015","08","29","01:00","13.7","","12.8","","94","","21","","7","","24.1","","100.71","","","","","","Mostly Cloudy"
"2015-08-29 02:00","2015","08","29","02:00","13.2","","12.6","","96","","23","","5","","24.1","","100.72","","","","","","NA"
"2015-08-29 03:00","2015","08","29","03:00","12.8","","12.5","","98","","22","","8","","24.1","","100.72","","","","","","NA"
"2015-08-29 04:00","2015","08","29","04:00","12.7","","12.2","","97","","19","","10","","24.1","","100.70","","","","","","Mostly Cloudy"
"2015-08-29 05:00","2015","08","29","05:00","12.4","","11.9","","97","","17","","10","","24.1","","100.68","","","","","","NA"
"2015-08-29 06:00","2015","08","29","06:00","12.9","","12.4","","97","","19","","4","","24.1","","100.78","","","","","","NA"
"2015-08-29 07:00","2015","08","29","07:00","14.1","","13.3","","95","","18","","5","","24.1","","100.77","","","","","","Mostly Cloudy"
"2015-08-29 08:00","2015","08","29","08:00","15.9","","14.5","","91","","19","","11","","24.1","","100.74","","","","","","NA"
"2015-08-29 09:00","2015","08","29","09:00","20.1","","16.6","","80","","20","","13","","24.1","","100.69","","25","","","","NA"
"2015-08-29 10:00","2015","08","29","10:00","21.8","","16.2","","70","","19","","11","","24.1","","100.68","","27","","","","Mostly Cloudy"
"2015-08-29 11:00","2015","08","29","11:00","23.3","","15.2","","60","","21","","14","","24.1","","100.61","","27","","","","NA"
"2015-08-29 12:00","2015","08","29","12:00","22.4","","14.4","","60","","23","","17","","24.1","","100.58","","26","","","","NA"
"2015-08-29 13:00","2015","08","29","13:00","22.8","","15.0","","61","","24","","16","","24.1","","100.57","","27","","","","Mostly Cloudy"
"2015-08-29 14:00","2015","08","29","14:00","22.5","","14.0","","58","","23","","17","","24.1","","100.51","","26","","","","NA"
"2015-08-29 15:00","2015","08","29","15:00","22.2","","14.9","","63","","23","","19","","24.1","","100.50","","26","","","","NA"
"2015-08-29 16:00","2015","08","29","16:00","21.1","","15.3","","69","","23","","15","","24.1","","100.48","","25","","","","Rain Showers"
"2015-08-29 17:00","2015","08","29","17:00","19.4","","16.1","","81","","23","","8","","16.1","","100.47","","","","","","Rain Showers"
"2015-08-29 18:00","2015","08","29","18:00","18.5","","16.5","","88","","22","","11","","12.9","","100.46","","","","","","Rain"
"2015-08-29 19:00","2015","08","29","19:00","18.0","","17.0","","94","","23","","8","","24.1","","100.46","","","","","","Rain"
"2015-08-29 20:00","2015","08","29","20:00","18.0","","17.0","","94","","21","","6","","24.1","","100.48","","","","","","Rain"
"2015-08-29 21:00","2015","08","29","21:00","18.0","","17.0","","94","","23","","9","","24.1","","100.47","","","","","","NA"
"2015-08-29 22:00","2015","08","29","22:00","18.1","","17.0","","93","","24","","5","","24.1","","100.49","","","","","","Cloudy"
"2015-08-29 23:00","2015","08","29","23:00","17.5","","16.9","","96","","20","","7","","24.1","","100.44","","","","","","NA"
"2015-08-30 00:00","2015","08","30","00:00","17.1","","16.6","","97","","19","","5","","24.1","","100.41","","","","","","NA"
"2015-08-30 01:00","2015","08","30","01:00","16.3","","15.8","","97","","21","","10","","24.1","","100.39","","","","","","Mostly Cloudy"
"2015-08-30 02:00","2015","08","30","02:00","15.8","","15.3","","97","","22","","12","","24.1","","100.36","","","","","","NA"
"2015-08-30 03:00","2015","08","30","03:00","15.5","","15.0","","97","","23","","12","","12.9","","100.38","","","","","","NA"
"2015-08-30 04:00","2015","08","30","04:00","15.2","","14.7","","97","","24","","9","","9.7","","100.40","","","","","","Fog"
"2015-08-30 05:00","2015","08","30","05:00","14.2","","13.9","","98","","25","","8","","8.1","","100.43","","","","","","Fog"
"2015-08-30 06:00","2015","08","30","06:00","14.1","","13.8","","98","","15","","5","","6.4","","100.46","","","","","","Fog"
"2015-08-30 07:00","2015","08","30","07:00","15.9","","15.6","","98","","24","","5","","9.7","","100.48","","","","","","Fog"
"2015-08-30 08:00","2015","08","30","08:00","18.9","","16.5","","86","","27","","9","","12.9","","100.52","","","","","","NA"
"2015-08-30 09:00","2015","08","30","09:00","20.4","","16.5","","78","","31","","10","","16.1","","100.56","","25","","","","NA"
"2015-08-30 10:00","2015","08","30","10:00","21.2","","16.5","","74","","29","","10","","24.1","","100.54","","26","","","","Mainly Clear"
"2015-08-30 11:00","2015","08","30","11:00","22.5","","16.2","","67","","29","","11","","24.1","","100.49","","27","","","","NA"
"2015-08-30 12:00","2015","08","30","12:00","23.4","","16.3","","64","","26","","8","","24.1","","100.42","","28","","","","NA"
"2015-08-30 13:00","2015","08","30","13:00","23.3","","16.2","","64","","25","","12","","24.1","","100.38","","28","","","","Mostly Cloudy"
"2015-08-30 14:00","2015","08","30","14:00","24.1","","15.7","","59","","23","","14","","24.1","","100.34","","29","","","","NA"
"2015-08-30 15:00","2015","08","30","15:00","24.3","","16.4","","61","","25","","9","","24.1","","100.27","","29","","","","NA"
"2015-08-30 16:00","2015","08","30","16:00","23.8","","16.0","","61","","22","","10","","24.1","","100.24","","28","","","","Mostly Cloudy"
"2015-08-30 17:00","2015","08","30","17:00","23.5","","15.4","","60","","22","","13","","24.1","","100.20","","28","","","","NA"
"2015-08-30 18:00","2015","08","30","18:00","22.4","","16.1","","67","","22","","11","","24.1","","100.16","","27","","","","NA"
"2015-08-30 19:00","2015","08","30","19:00","20.9","","16.2","","74","","21","","7","","24.1","","100.19","","26","","","","Clear"
"2015-08-30 20:00","2015","08","30","20:00","19.4","","15.9","","80","","18","","8","","24.1","","100.19","","","","","","NA"
"2015-08-30 21:00","2015","08","30","21:00","18.4","","15.9","","85","","18","","7","","24.1","","100.18","","","","","","NA"
"2015-08-30 22:00","2015","08","30","22:00","18.3","","16.3","","88","","19","","8","","24.1","","100.15","","","","","","Clear"
"2015-08-30 23:00","2015","08","30","23:00","18.2","","16.7","","91","","23","","12","","24.1","","100.14","","","","","","NA"
"2015-08-31 00:00","2015","08","31","00:00","18.0","","16.9","","93","","23","","11","","24.1","","100.12","","","","","","NA"
"2015-08-31 01:00","2015","08","31","01:00","17.9","","16.9","","94","","24","","11","","24.1","","100.09","","","","","","Mainly Clear"
"2015-08-31 02:00","2015","08","31","02:00","18.4","","17.3","","93","","26","","9","","24.1","","100.08","","","","","","NA"
"2015-08-31 03:00","2015","08","31","03:00","18.1","","17.1","","94","","21","","8","","24.1","","100.01","","","","","","NA"
"2015-08-31 04:00","2015","08","31","04:00","18.1","","17.0","","93","","23","","4","","12.9","","100.00","","","","","","Mostly Cloudy"
"2015-08-31 05:00","2015","08","31","05:00","17.7","","16.7","","94","","21","","9","","8.1","","99.97","","","","","","Fog"
"2015-08-31 06:00","2015","08","31","06:00","17.2","","16.4","","95","","23","","13","","6.4","","100.02","","","","","","Fog"
"2015-08-31 07:00","2015","08","31","07:00","18.3","","17.0","","92","","22","","11","","6.4","","100.03","","","","","","Fog"
"2015-08-31 08:00","2015","08","31","08:00","19.8","","17.8","","88","","25","","11","","8.1","","100.07","","","","","","Fog"
"2015-08-31 09:00","2015","08","31","09:00","22.2","","17.4","","74","","26","","21","","12.9","","100.04","","28","","","","NA"
"2015-08-31 10:00","2015","08","31","10:00","21.6","","17.3","","76","","29","","20","","12.9","","100.12","","27","","","","Cloudy"
"2015-08-31 11:00","2015","08","31","11:00","23.4","","17.9","","71","","28","","19","","16.1","","100.13","","29","","","","NA"
"2015-08-31 12:00","2015","08","31","12:00","24.7","","18.5","","68","","28","","20","","16.1","","100.11","","31","","","","NA"
"2015-08-31 13:00","2015","08","31","13:00","23.9","","17.5","","67","","30","","22","","16.1","","100.11","","30","","","","Mostly Cloudy"
"2015-08-31 14:00","2015","08","31","14:00","24.3","","16.7","","62","","31","","27","","16.1","","100.11","","29","","","","NA"
"2015-08-31 15:00","2015","08","31","15:00","24.9","","17.3","","62","","29","","22","","16.1","","100.10","","30","","","","NA"
"2015-08-31 16:00","2015","08","31","16:00","25.0","","16.8","","60","","31","","26","","16.1","","100.09","","30","","","","Mainly Clear"
"2015-08-31 17:00","2015","08","31","17:00","23.8","","16.7","","64","","29","","21","","16.1","","100.12","","29","","","","NA"
"2015-08-31 18:00","2015","08","31","18:00","22.6","","17.0","","70","","28","","14","","24.1","","100.14","","28","","","","NA"
"2015-08-31 19:00","2015","08","31","19:00","21.5","","16.8","","74","","29","","14","","24.1","","100.17","","27","","","","Mostly Cloudy"
"2015-08-31 20:00","2015","08","31","20:00","20.4","","16.9","","80","","30","","9","","24.1","","100.21","","26","","","","NA"
"2015-08-31 21:00","2015","08","31","21:00","18.9","","16.7","","87","","22","","7","","24.1","","100.22","","","","","","NA"
"2015-08-31 22:00","2015","08","31","22:00","16.1","","15.6","","97","","27","","3","","16.1","","100.26","","","","","","Mainly Clear"
"2015-08-31 23:00","2015","08","31","23:00","17.2","","16.9","","98","","25","","5","","16.1","","100.26","","","","","","NA"
