"Station Name","OTTAWA MACDONALD-CARTIER INT'L A"
"Province","ONTARIO"
"Latitude","45.32"
"Longitude","-75.67"
"Elevation","114.00"
"Climate Identifier","6106000"
"WMO Identifier","71628"
"TC Identifier","YOW"
"All times are specified in Local Standard Time (LST). Add 1 hour to adjust for Daylight Saving Time where and when it is observed."

"Legend"
"E","Estimated"
"M","Missing"
"NA","Not Available"

"Date/Time","Year","Month","Day","Time","Temp (°C)","Temp Flag","Dew Point Temp (°C)","Dew Point Temp Flag","Rel Hum (%)","Rel Hum Flag","Wind Dir (10s deg)","Wind Dir Flag","Wind Spd (km/h)","Wind Spd Flag","Visibility (km)","Visibility Flag","Stn Press (kPa)","Stn Press Flag","Hmdx","Hmdx Flag","Wind Chill","Wind Chill Flag","Weather"
"1997-06-01 00:00","1997","06","01","00:00","17.7","","11.3","","66","","34","","4","","25.0","","100.23","","","","","","Cloudy"
"1997-06-01 01:00","1997","06","01","01:00","16.9","","11.3","","70","","35","","6","","25.0","","100.26","","","","","","Cloudy"
"1997-06-01 02:00","1997","06","01","02:00","16.4","","11.1","","71","","36","","9","","25.0","","100.23","","","","","","Cloudy"
"1997-06-01 03:00","1997","06","01","03:00","15.9","","10.8","","72","","2","","11","","25.0","","100.23","","","","","","Cloudy"
"1997-06-01 04:00","1997","06","01","04:00","15.2","","10.7","","74","","2","","9","","25.0","","100.26","","","","","","Cloudy"
"1997-06-01 05:00","1997","06","01","05:00","15.0","","10.3","","73","","4","","13","","32.2","","100.29","","","","","","Cloudy"
"1997-06-01 06:00","1997","06","01","06:00","14.9","","10.3","","74","","2","","13","","32.2","","100.36","","","","","","Cloudy"
"1997-06-01 07:00","1997","06","01","07:00","15.2","","10.3","","73","","6","","13","","32.2","","100.43","","","","","","Cloudy"
"1997-06-01 08:00","1997","06","01","08:00","15.6","","10.0","","69","","7","","11","","32.2","","100.49","","","","","","Cloudy"
"1997-06-01 09:00","1997","06","01","09:00","16.5","","8.0","","57","","9","","20","","40.2","","100.53","","","","","","Cloudy"
"1997-06-01 10:00","1997","06","01","10:00","17.0","","6.6","","50","","8","","19","","40.2","","100.49","","","","","","Cloudy"
"1997-06-01 11:00","1997","06","01","11:00","17.6","","7.3","","51","","8","","15","","40.2","","100.53","","","","","","Cloudy"
"1997-06-01 12:00","1997","06","01","12:00","18.4","","7.3","","48","","7","","17","","40.2","","100.53","","","","","","Cloudy"
"1997-06-01 13:00","1997","06","01","13:00","19.6","","8.3","","48","","7","","13","","40.2","","100.49","","","","","","Mostly Cloudy"
"1997-06-01 14:00","1997","06","01","14:00","21.3","","9.0","","45","","7","","13","","40.2","","100.43","","","","","","Mostly Cloudy"
"1997-06-01 15:00","1997","06","01","15:00","21.0","","9.0","","46","","9","","13","","40.2","","100.39","","","","","","Mostly Cloudy"
"1997-06-01 16:00","1997","06","01","16:00","21.5","","9.1","","45","","7","","11","","40.2","","100.39","","","","","","Mostly Cloudy"
"1997-06-01 17:00","1997","06","01","17:00","21.0","","9.1","","46","","9","","11","","40.2","","100.39","","","","","","Cloudy"
"1997-06-01 18:00","1997","06","01","18:00","20.3","","9.0","","48","","9","","9","","40.2","","100.36","","","","","","Cloudy"
"1997-06-01 19:00","1997","06","01","19:00","19.4","","9.4","","52","","10","","7","","40.2","","100.39","","","","","","Mostly Cloudy"
"1997-06-01 20:00","1997","06","01","20:00","18.1","","9.2","","56","","8","","7","","40.2","","100.36","","","","","","Mostly Cloudy"
"1997-06-01 21:00","1997","06","01","21:00","16.4","","9.5","","64","","7","","9","","24.1","","100.43","","","","","","Mostly Cloudy"
"1997-06-01 22:00","1997","06","01","22:00","15.5","","8.1","","61","","6","","9","","24.1","","100.46","","","","","","Mostly Cloudy"
"1997-06-01 23:00","1997","06","01","23:00","14.2","","7.5","","64","","6","","11","","24.1","","100.43","","","","","","Mostly Cloudy"
"1997-06-02 00:00","1997","06","02","00:00","13.8","","5.4","","57","","5","","4","","24.1","","100.46","","","","","","Mostly Cloudy"
"1997-06-02 01:00","1997","06","02","01:00","13.1","","4.5","","56","","7","","7","","24.1","","100.46","","","","","","Mostly Cloudy"
"1997-06-02 02:00","1997","06","02","02:00","12.1","","4.3","","59","","6","","11","","24.1","","100.46","","","","","","Mostly Cloudy"
"1997-06-02 03:00","1997","06","02","03:00","12.2","","2.9","","53","","6","","11","","24.1","","100.46","","","","","","Mostly Cloudy"
"1997-06-02 04:00","1997","06","02","04:00","11.6","","3.2","","56","","5","","13","","40.2","","100.49","","","","","","Mostly Cloudy"
"1997-06-02 05:00","1997","06","02","05:00","11.0","","4.0","","62","","5","","13","","40.2","","100.53","","","","","","Mostly Cloudy"
"1997-06-02 06:00","1997","06","02","06:00","12.3","","5.3","","62","","5","","13","","40.2","","100.63","","","","","","Mainly Clear"
"1997-06-02 07:00","1997","06","02","07:00","15.3","","4.6","","49","","7","","17","","40.2","","100.66","","","","","","Mainly Clear"
"1997-06-02 08:00","1997","06","02","08:00","16.7","","4.0","","43","","7","","19","","40.2","","100.66","","","","","","Mainly Clear"
"1997-06-02 09:00","1997","06","02","09:00","18.5","","4.4","","39","","7","","20","","40.2","","100.70","","","","","","Mainly Clear"
"1997-06-02 10:00","1997","06","02","10:00","20.0","","2.6","","32","","9","","19","","40.2","","100.70","","","","","","Mostly Cloudy"
"1997-06-02 11:00","1997","06","02","11:00","21.2","","3.4","","31","","6","","20","","40.2","","100.70","","","","","","Mostly Cloudy"
"1997-06-02 12:00","1997","06","02","12:00","22.0","","2.4","","27","","8","","19","","40.2","","100.66","","","","","","Mostly Cloudy"
"1997-06-02 13:00","1997","06","02","13:00","22.9","","1.8","","25","","8","","20","","40.2","","100.63","","","","","","Mostly Cloudy"
"1997-06-02 14:00","1997","06","02","14:00","23.1","","1.1","","23","","6","","20","","32.2","","100.56","","","","","","Mostly Cloudy"
"1997-06-02 15:00","1997","06","02","15:00","23.6","","0.2","","21","","8","","19","","32.2","","100.56","","","","","","Mostly Cloudy"
"1997-06-02 16:00","1997","06","02","16:00","23.0","","0.3","","22","","9","","19","","32.2","","100.53","","","","","","Mostly Cloudy"
"1997-06-02 17:00","1997","06","02","17:00","22.2","","0.0","","23","","9","","11","","32.2","","100.53","","","","","","Mostly Cloudy"
"1997-06-02 18:00","1997","06","02","18:00","21.4","","-0.4","","23","","11","","11","","40.2","","100.53","","","","","","Mostly Cloudy"
"1997-06-02 19:00","1997","06","02","19:00","20.4","","0.7","","27","","12","","7","","40.2","","100.53","","","","","","Mostly Cloudy"
"1997-06-02 20:00","1997","06","02","20:00","19.2","","1.3","","30","","9","","6","","40.2","","100.60","","","","","","Mostly Cloudy"
"1997-06-02 21:00","1997","06","02","21:00","16.3","","3.9","","44","","4","","7","","25.0","","100.66","","","","","","Mainly Clear"
"1997-06-02 22:00","1997","06","02","22:00","15.3","","3.3","","45","","4","","9","","25.0","","100.66","","","","","","Mainly Clear"
"1997-06-02 23:00","1997","06","02","23:00","14.3","","3.0","","47","","4","","7","","25.0","","100.66","","","","","","Mainly Clear"
"1997-06-03 00:00","1997","06","03","00:00","13.3","","3.4","","51","","4","","7","","25.0","","100.70","","","","","","Mainly Clear"
"1997-06-03 01:00","1997","06","03","01:00","12.1","","4.3","","59","","5","","9","","25.0","","100.73","","","","","","Mainly Clear"
"1997-06-03 02:00","1997","06","03","02:00","12.1","","4.3","","59","","6","","11","","25.0","","100.73","","","","","","Clear"
"1997-06-03 03:00","1997","06","03","03:00","11.3","","3.5","","59","","5","","13","","25.0","","100.73","","","","","","Mainly Clear"
"1997-06-03 04:00","1997","06","03","04:00","11.1","","3.0","","57","","5","","13","","40.2","","100.73","","","","","","Mainly Clear"
"1997-06-03 05:00","1997","06","03","05:00","11.2","","2.7","","56","","5","","11","","40.2","","100.73","","","","","","Mainly Clear"
"1997-06-03 06:00","1997","06","03","06:00","13.1","","4.2","","55","","5","","11","","40.2","","100.80","","","","","","Mostly Cloudy"
"1997-06-03 07:00","1997","06","03","07:00","15.4","","4.5","","48","","7","","17","","40.2","","100.83","","","","","","Mostly Cloudy"
"1997-06-03 08:00","1997","06","03","08:00","16.6","","4.6","","45","","7","","20","","40.2","","100.86","","","","","","Mostly Cloudy"
"1997-06-03 09:00","1997","06","03","09:00","18.5","","5.7","","43","","9","","15","","40.2","","100.83","","","","","","Mostly Cloudy"
"1997-06-03 10:00","1997","06","03","10:00","20.8","","4.9","","35","","10","","15","","40.2","","100.80","","","","","","Mostly Cloudy"
"1997-06-03 11:00","1997","06","03","11:00","22.2","","4.7","","32","","10","","17","","40.2","","100.76","","","","","","Mostly Cloudy"
"1997-06-03 12:00","1997","06","03","12:00","22.9","","4.6","","30","","7","","11","","40.2","","100.66","","","","","","Mainly Clear"
"1997-06-03 13:00","1997","06","03","13:00","23.7","","4.0","","28","","7","","13","","40.2","","100.60","","","","","","Mainly Clear"
"1997-06-03 14:00","1997","06","03","14:00","23.3","","4.1","","29","","6","","11","","40.2","","100.53","","","","","","Mainly Clear"
"1997-06-03 15:00","1997","06","03","15:00","24.6","","3.8","","26","","9","","9","","40.2","","100.53","","","","","","Mainly Clear"
"1997-06-03 16:00","1997","06","03","16:00","24.1","","4.4","","28","","9","","11","","40.2","","100.43","","","","","","Mainly Clear"
"1997-06-03 17:00","1997","06","03","17:00","23.3","","3.7","","28","","9","","13","","40.2","","100.39","","","","","","Mainly Clear"
"1997-06-03 18:00","1997","06","03","18:00","23.2","","4.6","","30","","12","","9","","40.2","","100.39","","","","","","Mainly Clear"
"1997-06-03 19:00","1997","06","03","19:00","21.8","","4.4","","32","","11","","9","","40.2","","100.43","","","","","","Mainly Clear"
"1997-06-03 20:00","1997","06","03","20:00","19.7","","4.7","","37","","10","","7","","40.2","","100.43","","","","","","Mainly Clear"
"1997-06-03 21:00","1997","06","03","21:00","18.2","","4.3","","40","","10","","6","","25.0","","100.49","","","","","","Mainly Clear"
"1997-06-03 22:00","1997","06","03","22:00","17.5","","2.8","","37","","9","","4","","25.0","","100.46","","","","","","Mainly Clear"
"1997-06-03 23:00","1997","06","03","23:00","16.2","","2.1","","39","","","","0","","25.0","","100.46","","","","","","Clear"
"1997-06-04 00:00","1997","06","04","00:00","14.5","","3.1","","46","","","","0","","25.0","","100.43","","","","","","Clear"
"1997-06-04 01:00","1997","06","04","01:00","13.1","","3.1","","51","","4","","7","","25.0","","100.36","","","","","","Clear"
"1997-06-04 02:00","1997","06","04","02:00","10.5","","4.4","","66","","5","","9","","25.0","","100.33","","","","","","Clear"
"1997-06-04 03:00","1997","06","04","03:00","11.3","","5.0","","65","","4","","4","","25.0","","100.33","","","","","","Clear"
"1997-06-04 04:00","1997","06","04","04:00","9.7","","4.3","","69","","2","","4","","32.2","","100.33","","","","","","Clear"
"1997-06-04 05:00","1997","06","04","05:00","10.5","","5.5","","71","","36","","4","","40.2","","100.36","","","","","","Clear"
"1997-06-04 06:00","1997","06","04","06:00","11.9","","6.2","","68","","5","","4","","40.2","","100.39","","","","","","Mainly Clear"
"1997-06-04 07:00","1997","06","04","07:00","14.8","","6.1","","56","","10","","11","","32.2","","100.39","","","","","","Mainly Clear"
"1997-06-04 08:00","1997","06","04","08:00","17.3","","7.3","","52","","8","","7","","32.2","","100.43","","","","","","Mainly Clear"
"1997-06-04 09:00","1997","06","04","09:00","19.1","","8.2","","49","","6","","7","","32.2","","100.39","","","","","","Clear"
"1997-06-04 10:00","1997","06","04","10:00","21.0","","7.7","","42","","8","","4","","32.2","","100.36","","","","","","Mainly Clear"
"1997-06-04 11:00","1997","06","04","11:00","22.6","","6.2","","35","","13","","6","","32.2","","100.29","","","","","","Mainly Clear"
"1997-06-04 12:00","1997","06","04","12:00","24.0","","6.8","","33","","7","","7","","32.2","","100.26","","","","","","Mostly Cloudy"
"1997-06-04 13:00","1997","06","04","13:00","23.6","","6.1","","32","","10","","7","","40.2","","100.23","","","","","","Mostly Cloudy"
"1997-06-04 14:00","1997","06","04","14:00","22.8","","6.3","","34","","7","","11","","40.2","","100.19","","","","","","Rain Showers"
"1997-06-04 15:00","1997","06","04","15:00","23.9","","5.9","","31","","3","","6","","40.2","","100.13","","","","","","Mostly Cloudy"
"1997-06-04 16:00","1997","06","04","16:00","24.6","","5.8","","30","","7","","6","","40.2","","100.13","","","","","","Mainly Clear"
"1997-06-04 17:00","1997","06","04","17:00","24.3","","4.9","","29","","8","","13","","40.2","","100.09","","","","","","Mainly Clear"
"1997-06-04 18:00","1997","06","04","18:00","23.1","","4.8","","30","","7","","13","","40.2","","100.13","","","","","","Mainly Clear"
"1997-06-04 19:00","1997","06","04","19:00","18.9","","8.4","","50","","1","","22","","32.2","","100.19","","","","","","Mostly Cloudy"
"1997-06-04 20:00","1997","06","04","20:00","18.2","","7.1","","48","","6","","15","","40.2","","100.19","","","","","","Mostly Cloudy"
"1997-06-04 21:00","1997","06","04","21:00","18.0","","7.2","","49","","","","0","","25.0","","100.19","","","","","","Rain Showers"
"1997-06-04 22:00","1997","06","04","22:00","16.9","","7.7","","55","","9","","4","","25.0","","100.19","","","","","","Mostly Cloudy"
"1997-06-04 23:00","1997","06","04","23:00","15.0","","7.6","","61","","2","","6","","25.0","","100.19","","","","","","Mostly Cloudy"
"1997-06-05 00:00","1997","06","05","00:00","13.2","","7.9","","70","","3","","7","","25.0","","100.19","","","","","","Mostly Cloudy"
"1997-06-05 01:00","1997","06","05","01:00","13.4","","8.2","","71","","4","","13","","24.1","","100.16","","","","","","Mainly Clear"
"1997-06-05 02:00","1997","06","05","02:00","12.1","","8.1","","77","","","","0","","24.1","","100.16","","","","","","Mainly Clear"
"1997-06-05 03:00","1997","06","05","03:00","10.9","","7.3","","78","","5","","13","","24.1","","100.16","","","","","","Mainly Clear"
"1997-06-05 04:00","1997","06","05","04:00","10.7","","6.7","","76","","7","","13","","32.2","","100.19","","","","","","Mostly Cloudy"
"1997-06-05 05:00","1997","06","05","05:00","10.8","","6.9","","77","","4","","11","","32.2","","100.29","","","","","","Rain Showers"
"1997-06-05 06:00","1997","06","05","06:00","11.6","","6.4","","70","","10","","17","","32.2","","100.26","","","","","","Mostly Cloudy"
"1997-06-05 07:00","1997","06","05","07:00","12.5","","6.2","","65","","11","","11","","32.2","","100.29","","","","","","Mostly Cloudy"
"1997-06-05 08:00","1997","06","05","08:00","13.6","","6.7","","63","","8","","7","","32.2","","100.36","","","","","","Mostly Cloudy"
"1997-06-05 09:00","1997","06","05","09:00","14.5","","7.3","","62","","7","","13","","32.2","","100.36","","","","","","Mostly Cloudy"
"1997-06-05 10:00","1997","06","05","10:00","17.1","","8.6","","57","","8","","9","","32.2","","100.39","","","","","","Mostly Cloudy"
"1997-06-05 11:00","1997","06","05","11:00","19.6","","9.0","","50","","10","","6","","32.2","","100.36","","","","","","Mostly Cloudy"
"1997-06-05 12:00","1997","06","05","12:00","20.9","","9.0","","46","","9","","9","","32.2","","100.36","","","","","","Mostly Cloudy"
"1997-06-05 13:00","1997","06","05","13:00","21.5","","9.2","","45","","","","0","","32.2","","100.36","","","","","","Mostly Cloudy"
"1997-06-05 14:00","1997","06","05","14:00","24.0","","8.7","","38","","15","","9","","32.2","","100.29","","25","","","","Mostly Cloudy"
"1997-06-05 15:00","1997","06","05","15:00","24.4","","8.7","","37","","12","","7","","32.2","","100.26","","25","","","","Mostly Cloudy"
"1997-06-05 16:00","1997","06","05","16:00","23.9","","8.7","","38","","11","","7","","32.2","","100.23","","25","","","","Cloudy"
"1997-06-05 17:00","1997","06","05","17:00","23.7","","8.1","","37","","13","","4","","32.2","","100.23","","","","","","Cloudy"
"1997-06-05 18:00","1997","06","05","18:00","23.4","","7.3","","36","","9","","15","","32.2","","100.23","","","","","","Cloudy"
"1997-06-05 19:00","1997","06","05","19:00","21.8","","5.9","","36","","11","","9","","32.2","","100.29","","","","","","Mostly Cloudy"
"1997-06-05 20:00","1997","06","05","20:00","20.1","","5.6","","39","","9","","9","","32.2","","100.33","","","","","","Mainly Clear"
"1997-06-05 21:00","1997","06","05","21:00","18.1","","5.7","","44","","8","","17","","24.1","","100.39","","","","","","Mostly Cloudy"
"1997-06-05 22:00","1997","06","05","22:00","17.2","","5.4","","46","","8","","13","","24.1","","100.43","","","","","","Mostly Cloudy"
"1997-06-05 23:00","1997","06","05","23:00","15.8","","5.6","","51","","7","","11","","24.1","","100.46","","","","","","Mostly Cloudy"
"1997-06-06 00:00","1997","06","06","00:00","14.9","","5.9","","55","","7","","9","","24.1","","100.53","","","","","","Mostly Cloudy"
"1997-06-06 01:00","1997","06","06","01:00","14.5","","6.0","","57","","6","","9","","24.1","","100.53","","","","","","Cloudy"
"1997-06-06 02:00","1997","06","06","02:00","13.8","","7.0","","63","","6","","13","","19.3","","100.53","","","","","","Rain Showers"
"1997-06-06 03:00","1997","06","06","03:00","12.5","","6.4","","66","","5","","13","","24.1","","100.56","","","","","","Mostly Cloudy"
"1997-06-06 04:00","1997","06","06","04:00","11.7","","6.7","","71","","6","","9","","32.2","","100.60","","","","","","Mostly Cloudy"
"1997-06-06 05:00","1997","06","06","05:00","11.2","","6.9","","75","","5","","7","","32.2","","100.63","","","","","","Mostly Cloudy"
"1997-06-06 06:00","1997","06","06","06:00","11.6","","7.0","","73","","6","","13","","40.2","","100.66","","","","","","Mostly Cloudy"
"1997-06-06 07:00","1997","06","06","07:00","13.5","","7.7","","68","","7","","13","","32.2","","100.70","","","","","","Mostly Cloudy"
"1997-06-06 08:00","1997","06","06","08:00","15.7","","8.7","","63","","7","","11","","32.2","","100.73","","","","","","Cloudy"
"1997-06-06 09:00","1997","06","06","09:00","18.0","","9.9","","59","","8","","11","","32.2","","100.73","","","","","","Cloudy"
"1997-06-06 10:00","1997","06","06","10:00","19.9","","9.6","","51","","9","","11","","32.2","","100.73","","","","","","Cloudy"
"1997-06-06 11:00","1997","06","06","11:00","21.3","","9.8","","48","","8","","13","","32.2","","100.73","","","","","","Cloudy"
"1997-06-06 12:00","1997","06","06","12:00","22.4","","9.4","","44","","8","","13","","32.2","","100.70","","","","","","Mostly Cloudy"
"1997-06-06 13:00","1997","06","06","13:00","24.5","","8.3","","36","","7","","13","","32.2","","100.66","","25","","","","Mostly Cloudy"
"1997-06-06 14:00","1997","06","06","14:00","24.9","","7.4","","33","","9","","19","","32.2","","100.63","","25","","","","Mostly Cloudy"
"1997-06-06 15:00","1997","06","06","15:00","25.9","","6.1","","28","","11","","13","","32.2","","100.60","","26","","","","Mostly Cloudy"
"1997-06-06 16:00","1997","06","06","16:00","26.2","","4.3","","24","","7","","11","","32.2","","100.53","","25","","","","Mainly Clear"
"1997-06-06 17:00","1997","06","06","17:00","25.8","","5.1","","26","","6","","15","","40.2","","100.49","","25","","","","Mainly Clear"
"1997-06-06 18:00","1997","06","06","18:00","24.9","","5.4","","28","","8","","20","","40.2","","100.53","","","","","","Mainly Clear"
"1997-06-06 19:00","1997","06","06","19:00","23.3","","5.1","","31","","7","","15","","40.2","","100.60","","","","","","Mainly Clear"
"1997-06-06 20:00","1997","06","06","20:00","21.1","","5.7","","37","","6","","9","","32.2","","100.60","","","","","","Mainly Clear"
"1997-06-06 21:00","1997","06","06","21:00","19.6","","6.3","","42","","7","","11","","25.0","","100.66","","","","","","Mainly Clear"
"1997-06-06 22:00","1997","06","06","22:00","18.5","","7.4","","48","","6","","11","","25.0","","100.73","","","","","","Mainly Clear"
"1997-06-06 23:00","1997","06","06","23:00","17.8","","7.7","","52","","7","","9","","25.0","","100.76","","","","","","Mainly Clear"
"1997-06-07 00:00","1997","06","07","00:00","16.2","","7.8","","57","","5","","11","","25.0","","100.76","","","","","","Mostly Cloudy"
"1997-06-07 01:00","1997","06","07","01:00","15.2","","8.0","","62","","6","","11","","24.1","","100.76","","","","","","Mostly Cloudy"
"1997-06-07 02:00","1997","06","07","02:00","14.1","","8.3","","68","","6","","13","","24.1","","100.76","","","","","","Mostly Cloudy"
"1997-06-07 03:00","1997","06","07","03:00","13.4","","8.4","","72","","","","0","","24.1","","100.83","","","","","","Mostly Cloudy"
"1997-06-07 04:00","1997","06","07","04:00","12.3","","8.1","","76","","5","","11","","32.2","","100.83","","","","","","Mostly Cloudy"
"1997-06-07 05:00","1997","06","07","05:00","12.6","","8.1","","74","","5","","13","","40.2","","100.83","","","","","","Cloudy"
"1997-06-07 06:00","1997","06","07","06:00","13.2","","7.9","","70","","5","","11","","40.2","","100.86","","","","","","Mostly Cloudy"
"1997-06-07 07:00","1997","06","07","07:00","14.9","","8.2","","64","","5","","15","","40.2","","100.90","","","","","","Mostly Cloudy"
"1997-06-07 08:00","1997","06","07","08:00","16.9","","8.9","","59","","7","","9","","40.2","","100.96","","","","","","Mostly Cloudy"
"1997-06-07 09:00","1997","06","07","09:00","18.9","","9.7","","55","","7","","9","","40.2","","101.00","","","","","","Mostly Cloudy"
"1997-06-07 10:00","1997","06","07","10:00","20.6","","10.1","","51","","6","","9","","40.2","","100.96","","","","","","Cloudy"
"1997-06-07 11:00","1997","06","07","11:00","22.4","","9.4","","44","","4","","13","","40.2","","100.93","","","","","","Cloudy"
"1997-06-07 12:00","1997","06","07","12:00","23.9","","10.0","","41","","","","0","","40.2","","100.90","","25","","","","Mostly Cloudy"
"1997-06-07 13:00","1997","06","07","13:00","24.5","","9.3","","38","","5","","15","","40.2","","100.83","","25","","","","Mostly Cloudy"
"1997-06-07 14:00","1997","06","07","14:00","25.1","","9.8","","38","","8","","13","","40.2","","100.76","","26","","","","Cloudy"
"1997-06-07 15:00","1997","06","07","15:00","25.1","","9.3","","37","","7","","9","","32.2","","100.73","","26","","","","Mostly Cloudy"
"1997-06-07 16:00","1997","06","07","16:00","24.9","","9.2","","37","","3","","4","","32.2","","100.66","","26","","","","Cloudy"
"1997-06-07 17:00","1997","06","07","17:00","24.6","","9.1","","37","","6","","6","","32.2","","100.63","","25","","","","Cloudy"
"1997-06-07 18:00","1997","06","07","18:00","24.1","","9.4","","39","","4","","6","","32.2","","100.66","","25","","","","Cloudy"
"1997-06-07 19:00","1997","06","07","19:00","22.1","","11.0","","49","","2","","7","","24.1","","100.70","","","","","","Cloudy"
"1997-06-07 20:00","1997","06","07","20:00","21.1","","11.2","","53","","35","","11","","24.1","","100.66","","","","","","Mostly Cloudy"
"1997-06-07 21:00","1997","06","07","21:00","19.7","","11.5","","59","","36","","6","","19.3","","100.70","","","","","","Mainly Clear"
"1997-06-07 22:00","1997","06","07","22:00","18.8","","12.0","","65","","2","","4","","19.3","","100.70","","","","","","Mainly Clear"
"1997-06-07 23:00","1997","06","07","23:00","19.0","","12.5","","66","","34","","7","","19.3","","100.66","","","","","","Mainly Clear"
"1997-06-08 00:00","1997","06","08","00:00","18.1","","11.2","","64","","34","","7","","19.3","","100.66","","","","","","Clear"
"1997-06-08 01:00","1997","06","08","01:00","17.3","","11.2","","67","","","","0","","19.3","","100.66","","","","","","Clear"
"1997-06-08 02:00","1997","06","08","02:00","15.8","","10.8","","72","","","","0","","19.3","","100.66","","","","","","Clear"
"1997-06-08 03:00","1997","06","08","03:00","14.6","","10.5","","76","","","","0","","19.3","","100.66","","","","","","Clear"
"1997-06-08 04:00","1997","06","08","04:00","13.8","","10.4","","80","","","","0","","24.1","","100.66","","","","","","Mainly Clear"
"1997-06-08 05:00","1997","06","08","05:00","14.5","","11.0","","79","","31","","6","","32.2","","100.66","","","","","","Mostly Cloudy"
"1997-06-08 06:00","1997","06","08","06:00","16.1","","11.9","","76","","33","","6","","40.2","","100.70","","","","","","Mainly Clear"
"1997-06-08 07:00","1997","06","08","07:00","18.1","","10.3","","60","","4","","6","","40.2","","100.70","","","","","","Mainly Clear"
"1997-06-08 08:00","1997","06","08","08:00","18.8","","8.3","","50","","6","","11","","40.2","","100.76","","","","","","Mainly Clear"
"1997-06-08 09:00","1997","06","08","09:00","19.8","","8.9","","49","","5","","9","","40.2","","100.76","","","","","","Mainly Clear"
"1997-06-08 10:00","1997","06","08","10:00","21.6","","9.4","","46","","7","","7","","40.2","","100.73","","","","","","Mainly Clear"
"1997-06-08 11:00","1997","06","08","11:00","23.1","","10.1","","44","","4","","6","","40.2","","100.70","","","","","","Mainly Clear"
"1997-06-08 12:00","1997","06","08","12:00","24.5","","10.9","","42","","36","","11","","40.2","","100.63","","26","","","","Mainly Clear"
"1997-06-08 13:00","1997","06","08","13:00","25.5","","10.7","","39","","9","","13","","40.2","","100.56","","27","","","","Mainly Clear"
"1997-06-08 14:00","1997","06","08","14:00","26.7","","8.6","","32","","2","","7","","40.2","","100.53","","27","","","","Mainly Clear"
"1997-06-08 15:00","1997","06","08","15:00","27.0","","6.4","","27","","9","","7","","40.2","","100.49","","27","","","","Mainly Clear"
"1997-06-08 16:00","1997","06","08","16:00","26.2","","5.8","","27","","11","","4","","40.2","","100.43","","26","","","","Mainly Clear"
"1997-06-08 17:00","1997","06","08","17:00","26.6","","5.7","","26","","9","","6","","40.2","","100.43","","26","","","","Mainly Clear"
"1997-06-08 18:00","1997","06","08","18:00","26.3","","5.7","","27","","13","","4","","40.2","","100.43","","26","","","","Clear"
"1997-06-08 19:00","1997","06","08","19:00","24.9","","6.8","","31","","15","","4","","40.2","","100.43","","25","","","","Mainly Clear"
"1997-06-08 20:00","1997","06","08","20:00","24.2","","6.5","","32","","","","0","","40.2","","100.43","","","","","","Mainly Clear"
"1997-06-08 21:00","1997","06","08","21:00","21.3","","6.3","","38","","13","","7","","25.0","","100.46","","","","","","Clear"
"1997-06-08 22:00","1997","06","08","22:00","20.5","","6.9","","41","","15","","7","","25.0","","100.49","","","","","","Clear"
"1997-06-08 23:00","1997","06","08","23:00","20.1","","7.7","","45","","18","","4","","25.0","","100.53","","","","","","Clear"
"1997-06-09 00:00","1997","06","09","00:00","19.0","","8.5","","51","","21","","4","","25.0","","100.53","","","","","","Clear"
"1997-06-09 01:00","1997","06","09","01:00","17.2","","7.9","","54","","22","","4","","25.0","","100.53","","","","","","Clear"
"1997-06-09 02:00","1997","06","09","02:00","15.7","","8.4","","62","","","","0","","25.0","","100.53","","","","","","Clear"
"1997-06-09 03:00","1997","06","09","03:00","15.1","","8.9","","66","","24","","4","","25.0","","100.53","","","","","","Clear"
"1997-06-09 04:00","1997","06","09","04:00","14.5","","9.6","","72","","24","","6","","24.1","","100.56","","","","","","Clear"
"1997-06-09 05:00","1997","06","09","05:00","14.8","","10.4","","75","","","","0","","40.2","","100.60","","","","","","Mainly Clear"
"1997-06-09 06:00","1997","06","09","06:00","15.9","","11.3","","74","","","","0","","32.2","","100.60","","","","","","Mainly Clear"
"1997-06-09 07:00","1997","06","09","07:00","17.7","","12.7","","73","","24","","4","","32.2","","100.63","","","","","","Mainly Clear"
"1997-06-09 08:00","1997","06","09","08:00","20.6","","13.7","","65","","24","","4","","32.2","","100.63","","","","","","Mostly Cloudy"
"1997-06-09 09:00","1997","06","09","09:00","22.9","","13.9","","57","","20","","6","","24.1","","100.63","","26","","","","Mostly Cloudy"
"1997-06-09 10:00","1997","06","09","10:00","24.4","","14.4","","54","","19","","7","","24.1","","100.63","","28","","","","Mostly Cloudy"
"1997-06-09 11:00","1997","06","09","11:00","26.1","","14.2","","48","","22","","6","","24.1","","100.56","","30","","","","Mainly Clear"
"1997-06-09 12:00","1997","06","09","12:00","28.5","","12.1","","36","","29","","7","","24.1","","100.53","","31","","","","Mainly Clear"
"1997-06-09 13:00","1997","06","09","13:00","29.3","","10.4","","31","","27","","11","","24.1","","100.46","","31","","","","Mostly Cloudy"
"1997-06-09 14:00","1997","06","09","14:00","28.7","","11.0","","33","","28","","15","","24.1","","100.43","","30","","","","Mostly Cloudy"
"1997-06-09 15:00","1997","06","09","15:00","29.9","","10.7","","30","","28","","15","","24.1","","100.39","","32","","","","Mostly Cloudy"
"1997-06-09 16:00","1997","06","09","16:00","29.6","","10.7","","31","","27","","13","","19.3","","100.33","","31","","","","Mostly Cloudy"
"1997-06-09 17:00","1997","06","09","17:00","29.1","","9.4","","29","","25","","9","","19.3","","100.29","","30","","","","Mostly Cloudy"
"1997-06-09 18:00","1997","06","09","18:00","28.8","","10.7","","32","","26","","9","","19.3","","100.29","","30","","","","Mainly Clear"
"1997-06-09 19:00","1997","06","09","19:00","26.8","","10.5","","36","","23","","4","","19.3","","100.26","","28","","","","Mostly Cloudy"
"1997-06-09 20:00","1997","06","09","20:00","24.6","","12.3","","46","","20","","7","","16.1","","100.29","","27","","","","Mainly Clear"
"1997-06-09 21:00","1997","06","09","21:00","22.7","","14.8","","61","","20","","7","","16.1","","100.29","","27","","","","Mainly Clear"
"1997-06-09 22:00","1997","06","09","22:00","21.8","","14.8","","64","","18","","6","","16.1","","100.33","","26","","","","Mainly Clear"
"1997-06-09 23:00","1997","06","09","23:00","21.4","","13.9","","62","","22","","7","","16.1","","100.33","","25","","","","Mainly Clear"
"1997-06-10 00:00","1997","06","10","00:00","19.9","","12.6","","63","","23","","7","","19.3","","100.33","","","","","","Mainly Clear"
"1997-06-10 01:00","1997","06","10","01:00","19.9","","13.0","","64","","24","","7","","19.3","","100.29","","","","","","Clear"
"1997-06-10 02:00","1997","06","10","02:00","20.1","","13.1","","64","","28","","13","","19.3","","100.29","","","","","","Clear"
"1997-06-10 03:00","1997","06","10","03:00","19.8","","12.8","","64","","28","","15","","19.3","","100.29","","","","","","Mainly Clear"
"1997-06-10 04:00","1997","06","10","04:00","19.1","","12.7","","66","","27","","11","","19.3","","100.33","","","","","","Mostly Cloudy"
"1997-06-10 05:00","1997","06","10","05:00","18.9","","12.5","","66","","27","","13","","19.3","","100.36","","","","","","Mostly Cloudy"
"1997-06-10 06:00","1997","06","10","06:00","19.3","","12.9","","66","","29","","9","","19.3","","100.36","","","","","","Mostly Cloudy"
"1997-06-10 07:00","1997","06","10","07:00","20.3","","13.4","","65","","30","","11","","19.3","","100.39","","","","","","Mainly Clear"
"1997-06-10 08:00","1997","06","10","08:00","22.1","","13.7","","59","","29","","11","","16.1","","100.39","","25","","","","Clear"
"1997-06-10 09:00","1997","06","10","09:00","24.7","","14.4","","53","","28","","9","","16.1","","100.33","","28","","","","Mainly Clear"
"1997-06-10 10:00","1997","06","10","10:00","26.6","","15.2","","50","","27","","9","","16.1","","100.26","","31","","","","Clear"
"1997-06-10 11:00","1997","06","10","11:00","29.5","","14.1","","39","","27","","11","","16.1","","100.23","","33","","","","Clear"
"1997-06-10 12:00","1997","06","10","12:00","30.6","","13.5","","35","","29","","17","","16.1","","100.16","","34","","","","Mostly Cloudy"
"1997-06-10 13:00","1997","06","10","13:00","31.6","","12.5","","31","","27","","20","","19.3","","100.06","","34","","","","Mainly Clear"
"1997-06-10 14:00","1997","06","10","14:00","31.9","","11.8","","29","","28","","15","","19.3","","99.96","","34","","","","Clear"
"1997-06-10 15:00","1997","06","10","15:00","32.2","","10.4","","26","","30","","24","","24.1","","99.89","","34","","","","Clear"
"1997-06-10 16:00","1997","06","10","16:00","32.7","","11.7","","28","","30","","22","","24.1","","99.86","","35","","","","Clear"
"1997-06-10 17:00","1997","06","10","17:00","32.6","","10.9","","26","","31","","20","","19.3","","99.82","","34","","","","Clear"
"1997-06-10 18:00","1997","06","10","18:00","31.9","","10.9","","28","","30","","20","","24.1","","99.79","","34","","","","Clear"
"1997-06-10 19:00","1997","06","10","19:00","30.6","","10.9","","30","","29","","15","","24.1","","99.79","","32","","","","Clear"
"1997-06-10 20:00","1997","06","10","20:00","28.8","","10.0","","31","","28","","11","","24.1","","99.82","","30","","","","Mainly Clear"
"1997-06-10 21:00","1997","06","10","21:00","25.8","","9.9","","37","","26","","9","","24.1","","99.86","","27","","","","Mainly Clear"
"1997-06-10 22:00","1997","06","10","22:00","23.6","","10.0","","42","","26","","11","","24.1","","99.89","","25","","","","Mainly Clear"
"1997-06-10 23:00","1997","06","10","23:00","23.6","","9.5","","41","","27","","9","","19.3","","99.89","","25","","","","Clear"
"1997-06-11 00:00","1997","06","11","00:00","22.8","","9.8","","44","","28","","4","","19.3","","99.93","","","","","","Clear"
"1997-06-11 01:00","1997","06","11","01:00","22.0","","10.0","","46","","23","","7","","19.3","","99.86","","","","","","Mostly Cloudy"
"1997-06-11 02:00","1997","06","11","02:00","21.4","","10.3","","49","","27","","11","","19.3","","99.86","","","","","","Clear"
"1997-06-11 03:00","1997","06","11","03:00","20.6","","10.4","","52","","29","","9","","19.3","","99.86","","","","","","Clear"
"1997-06-11 04:00","1997","06","11","04:00","19.1","","10.8","","59","","28","","6","","24.1","","99.86","","","","","","Mostly Cloudy"
"1997-06-11 05:00","1997","06","11","05:00","19.0","","10.7","","59","","29","","6","","19.3","","99.86","","","","","","Cloudy"
"1997-06-11 06:00","1997","06","11","06:00","18.8","","11.5","","63","","25","","6","","19.3","","99.93","","","","","","Cloudy"
"1997-06-11 07:00","1997","06","11","07:00","19.6","","12.3","","63","","26","","9","","24.1","","99.93","","","","","","Cloudy"
"1997-06-11 08:00","1997","06","11","08:00","20.2","","12.4","","61","","28","","6","","19.3","","99.93","","","","","","Cloudy"
"1997-06-11 09:00","1997","06","11","09:00","21.6","","13.7","","61","","26","","7","","19.3","","99.89","","25","","","","Cloudy"
"1997-06-11 10:00","1997","06","11","10:00","23.8","","14.5","","56","","23","","9","","19.3","","99.86","","27","","","","Cloudy"
"1997-06-11 11:00","1997","06","11","11:00","25.5","","14.8","","52","","25","","9","","16.1","","99.82","","29","","","","Cloudy"
"1997-06-11 12:00","1997","06","11","12:00","27.0","","15.2","","48","","22","","11","","14.5","","99.79","","31","","","","Cloudy"
"1997-06-11 13:00","1997","06","11","13:00","29.2","","15.7","","44","","21","","11","","12.9","","99.69","","34","","","","Cloudy"
"1997-06-11 14:00","1997","06","11","14:00","29.8","","16.8","","46","","24","","13","","11.3","","99.62","","35","","","","Cloudy"
"1997-06-11 15:00","1997","06","11","15:00","30.9","","16.5","","42","","22","","11","","9.7","","99.59","","36","","","","Haze"
"1997-06-11 16:00","1997","06","11","16:00","30.3","","16.1","","42","","19","","13","","12.9","","99.56","","35","","","","Mostly Cloudy"
"1997-06-11 17:00","1997","06","11","17:00","29.5","","16.4","","45","","20","","9","","16.1","","99.49","","34","","","","Mostly Cloudy"
"1997-06-11 18:00","1997","06","11","18:00","28.6","","16.7","","49","","22","","9","","19.3","","99.46","","34","","","","Mostly Cloudy"
"1997-06-11 19:00","1997","06","11","19:00","26.4","","17.2","","57","","20","","7","","19.3","","99.46","","32","","","","Cloudy"
"1997-06-11 20:00","1997","06","11","20:00","24.2","","16.6","","63","","20","","11","","19.3","","99.42","","29","","","","Mostly Cloudy"
"1997-06-11 21:00","1997","06","11","21:00","22.8","","15.1","","62","","20","","6","","19.3","","99.42","","27","","","","Mostly Cloudy"
"1997-06-11 22:00","1997","06","11","22:00","21.9","","14.8","","64","","21","","6","","19.3","","99.39","","26","","","","Mostly Cloudy"
"1997-06-11 23:00","1997","06","11","23:00","20.7","","14.3","","67","","21","","7","","19.3","","99.36","","","","","","Mostly Cloudy"
"1997-06-12 00:00","1997","06","12","00:00","19.7","","13.9","","69","","22","","7","","24.1","","99.29","","","","","","Mostly Cloudy"
"1997-06-12 01:00","1997","06","12","01:00","19.5","","13.7","","69","","22","","7","","24.1","","99.29","","","","","","Mostly Cloudy"
"1997-06-12 02:00","1997","06","12","02:00","20.0","","13.4","","66","","23","","9","","24.1","","99.26","","","","","","Mostly Cloudy"
"1997-06-12 03:00","1997","06","12","03:00","18.7","","12.9","","69","","21","","6","","24.1","","99.22","","","","","","Mostly Cloudy"
"1997-06-12 04:00","1997","06","12","04:00","17.6","","12.4","","72","","22","","6","","24.1","","99.19","","","","","","Cloudy"
"1997-06-12 05:00","1997","06","12","05:00","17.0","","12.0","","72","","21","","6","","24.1","","99.19","","","","","","Cloudy"
"1997-06-12 06:00","1997","06","12","06:00","17.4","","12.3","","72","","22","","6","","24.1","","99.19","","","","","","Cloudy"
"1997-06-12 07:00","1997","06","12","07:00","19.8","","13.4","","67","","22","","7","","19.3","","99.19","","","","","","Cloudy"
"1997-06-12 08:00","1997","06","12","08:00","21.2","","13.3","","61","","24","","7","","19.3","","99.19","","","","","","Mostly Cloudy"
"1997-06-12 09:00","1997","06","12","09:00","23.2","","14.3","","57","","27","","4","","19.3","","99.15","","27","","","","Cloudy"
"1997-06-12 10:00","1997","06","12","10:00","25.3","","14.2","","50","","20","","7","","19.3","","99.09","","29","","","","Mostly Cloudy"
"1997-06-12 11:00","1997","06","12","11:00","26.8","","14.8","","48","","26","","4","","19.3","","99.02","","31","","","","Mostly Cloudy"
"1997-06-12 12:00","1997","06","12","12:00","28.6","","14.2","","41","","23","","9","","19.3","","98.99","","32","","","","Mostly Cloudy"
"1997-06-12 13:00","1997","06","12","13:00","29.2","","12.6","","36","","21","","13","","24.1","","98.89","","32","","","","Mostly Cloudy"
"1997-06-12 14:00","1997","06","12","14:00","26.3","","14.1","","47","","19","","20","","24.1","","98.82","","30","","","","Mostly Cloudy"
"1997-06-12 15:00","1997","06","12","15:00","20.0","","14.8","","72","","35","","22","","4.0","","98.75","","","","","","Thunderstorms,Heavy Rain Showers"
"1997-06-12 16:00","1997","06","12","16:00","21.8","","15.9","","69","","27","","6","","19.3","","98.72","","26","","","","Thunderstorms,Rain Showers"
"1997-06-12 17:00","1997","06","12","17:00","18.6","","14.8","","79","","16","","11","","12.9","","98.72","","","","","","Thunderstorms,Rain Showers"
"1997-06-12 18:00","1997","06","12","18:00","18.4","","14.6","","79","","22","","20","","11.3","","98.82","","","","","","Thunderstorms,Moderate Rain Showers"
"1997-06-12 19:00","1997","06","12","19:00","18.5","","14.8","","79","","26","","6","","19.3","","98.75","","","","","","Thunderstorms,Rain Showers"
"1997-06-12 20:00","1997","06","12","20:00","19.0","","14.8","","77","","31","","9","","16.1","","98.79","","","","","","Cloudy"
"1997-06-12 21:00","1997","06","12","21:00","18.7","","15.5","","82","","","","0","","19.3","","98.79","","","","","","Mostly Cloudy"
"1997-06-12 22:00","1997","06","12","22:00","17.5","","15.0","","85","","1","","4","","16.1","","98.75","","","","","","Cloudy"
"1997-06-12 23:00","1997","06","12","23:00","17.9","","15.6","","86","","","","0","","16.1","","98.79","","","","","","Cloudy"
"1997-06-13 00:00","1997","06","13","00:00","17.3","","15.3","","88","","","","0","","19.3","","98.72","","","","","","Cloudy"
"1997-06-13 01:00","1997","06","13","01:00","17.0","","14.7","","86","","17","","7","","19.3","","98.65","","","","","","Mostly Cloudy"
"1997-06-13 02:00","1997","06","13","02:00","16.6","","14.3","","86","","20","","6","","19.3","","98.65","","","","","","Mainly Clear"
"1997-06-13 03:00","1997","06","13","03:00","16.2","","13.9","","86","","24","","4","","24.1","","98.62","","","","","","Mainly Clear"
"1997-06-13 04:00","1997","06","13","04:00","15.6","","13.6","","88","","23","","6","","12.9","","98.62","","","","","","Mainly Clear"
"1997-06-13 05:00","1997","06","13","05:00","16.2","","13.8","","86","","23","","4","","9.7","","98.62","","","","","","Haze"
"1997-06-13 06:00","1997","06","13","06:00","16.5","","14.4","","87","","20","","6","","9.7","","98.65","","","","","","Haze"
"1997-06-13 07:00","1997","06","13","07:00","16.9","","14.7","","87","","17","","7","","9.7","","98.62","","","","","","Rain Showers,Haze"
"1997-06-13 08:00","1997","06","13","08:00","19.3","","15.6","","79","","18","","9","","8.0","","98.62","","","","","","Haze"
"1997-06-13 09:00","1997","06","13","09:00","20.2","","16.3","","78","","21","","9","","6.4","","98.65","","25","","","","Haze"
"1997-06-13 10:00","1997","06","13","10:00","20.7","","15.8","","74","","21","","13","","9.7","","98.62","","25","","","","Haze"
"1997-06-13 11:00","1997","06","13","11:00","22.5","","15.8","","66","","24","","15","","9.7","","98.59","","27","","","","Haze"
"1997-06-13 12:00","1997","06","13","12:00","21.9","","14.9","","64","","28","","17","","9.7","","98.55","","26","","","","Haze"
"1997-06-13 13:00","1997","06","13","13:00","22.8","","15.1","","62","","30","","20","","9.7","","98.45","","27","","","","Haze"
"1997-06-13 14:00","1997","06","13","14:00","23.6","","14.7","","57","","31","","17","","12.9","","98.45","","27","","","","Mainly Clear"
"1997-06-13 15:00","1997","06","13","15:00","24.4","","13.0","","49","","27","","15","","16.1","","98.52","","27","","","","Mostly Cloudy"
"1997-06-13 16:00","1997","06","13","16:00","24.1","","11.4","","45","","16","","9","","19.3","","98.52","","26","","","","Mainly Clear"
"1997-06-13 17:00","1997","06","13","17:00","20.6","","16.2","","76","","17","","11","","19.3","","98.52","","25","","","","Mostly Cloudy"
"1997-06-13 18:00","1997","06","13","18:00","22.0","","15.9","","68","","21","","4","","24.1","","98.49","","27","","","","Mostly Cloudy"
"1997-06-13 19:00","1997","06","13","19:00","23.4","","9.6","","42","","30","","17","","32.2","","98.52","","","","","","Mainly Clear"
"1997-06-13 20:00","1997","06","13","20:00","20.7","","9.5","","49","","33","","19","","32.2","","98.62","","","","","","Mainly Clear"
"1997-06-13 21:00","1997","06","13","21:00","19.1","","8.2","","49","","34","","30","","24.1","","98.75","","","","","","Mainly Clear"
"1997-06-13 22:00","1997","06","13","22:00","17.2","","7.2","","52","","32","","17","","24.1","","98.85","","","","","","Clear"
"1997-06-13 23:00","1997","06","13","23:00","14.8","","7.0","","60","","32","","22","","24.1","","98.95","","","","","","Clear"
"1997-06-14 00:00","1997","06","14","00:00","12.7","","6.6","","66","","32","","15","","24.1","","99.09","","","","","","Clear"
"1997-06-14 01:00","1997","06","14","01:00","11.7","","5.7","","67","","32","","13","","24.1","","99.09","","","","","","Clear"
"1997-06-14 02:00","1997","06","14","02:00","11.2","","4.7","","64","","33","","15","","24.1","","99.15","","","","","","Clear"
"1997-06-14 03:00","1997","06","14","03:00","10.6","","5.0","","68","","33","","11","","24.1","","99.19","","","","","","Clear"
"1997-06-14 04:00","1997","06","14","04:00","9.8","","5.1","","73","","32","","13","","24.1","","99.26","","","","","","Mainly Clear"
"1997-06-14 05:00","1997","06","14","05:00","9.2","","4.4","","72","","33","","19","","32.2","","99.32","","","","","","Mainly Clear"
"1997-06-14 06:00","1997","06","14","06:00","9.5","","2.7","","62","","32","","19","","40.2","","99.46","","","","","","Mainly Clear"
"1997-06-14 07:00","1997","06","14","07:00","10.8","","1.9","","54","","31","","15","","40.2","","99.52","","","","","","Mainly Clear"
"1997-06-14 08:00","1997","06","14","08:00","11.9","","0.9","","47","","35","","15","","40.2","","99.59","","","","","","Mainly Clear"
"1997-06-14 09:00","1997","06","14","09:00","13.0","","1.7","","46","","30","","17","","40.2","","99.62","","","","","","Clear"
"1997-06-14 10:00","1997","06","14","10:00","14.1","","2.4","","45","","32","","19","","40.2","","99.62","","","","","","Clear"
"1997-06-14 11:00","1997","06","14","11:00","15.5","","2.5","","42","","31","","20","","40.2","","99.62","","","","","","Mostly Cloudy"
"1997-06-14 12:00","1997","06","14","12:00","16.2","","1.8","","38","","31","","26","","40.2","","99.62","","","","","","Mostly Cloudy"
"1997-06-14 13:00","1997","06","14","13:00","16.5","","1.5","","36","","30","","22","","40.2","","99.62","","","","","","Mostly Cloudy"
"1997-06-14 14:00","1997","06","14","14:00","16.9","","2.4","","38","","30","","24","","40.2","","99.62","","","","","","Mostly Cloudy"
"1997-06-14 15:00","1997","06","14","15:00","17.4","","2.6","","37","","29","","26","","40.2","","99.62","","","","","","Mainly Clear"
"1997-06-14 16:00","1997","06","14","16:00","18.8","","1.6","","32","","28","","22","","40.2","","99.59","","","","","","Mainly Clear"
"1997-06-14 17:00","1997","06","14","17:00","18.8","","1.2","","31","","28","","19","","40.2","","99.62","","","","","","Mainly Clear"
"1997-06-14 18:00","1997","06","14","18:00","17.7","","0.8","","32","","29","","24","","40.2","","99.69","","","","","","Mostly Cloudy"
"1997-06-14 19:00","1997","06","14","19:00","17.0","","0.9","","34","","31","","20","","40.2","","99.72","","","","","","Mainly Clear"
"1997-06-14 20:00","1997","06","14","20:00","15.5","","0.5","","36","","34","","15","","40.2","","99.82","","","","","","Mostly Cloudy"
"1997-06-14 21:00","1997","06","14","21:00","14.0","","0.9","","41","","36","","4","","25.0","","99.89","","","","","","Mainly Clear"
"1997-06-14 22:00","1997","06","14","22:00","13.2","","1.5","","45","","25","","2","","25.0","","99.89","","","","","","Mainly Clear"
"1997-06-14 23:00","1997","06","14","23:00","11.2","","2.2","","54","","25","","6","","25.0","","99.93","","","","","","Mostly Cloudy"
"1997-06-15 00:00","1997","06","15","00:00","11.7","","2.3","","52","","23","","6","","25.0","","99.93","","","","","","Mainly Clear"
"1997-06-15 01:00","1997","06","15","01:00","10.7","","2.3","","56","","20","","6","","25.0","","99.89","","","","","","Mainly Clear"
"1997-06-15 02:00","1997","06","15","02:00","9.7","","2.9","","63","","21","","6","","24.1","","99.93","","","","","","Mostly Cloudy"
"1997-06-15 03:00","1997","06","15","03:00","9.2","","3.5","","67","","25","","4","","24.1","","99.93","","","","","","Mostly Cloudy"
"1997-06-15 04:00","1997","06","15","04:00","8.8","","3.5","","69","","22","","7","","32.2","","99.96","","","","","","Mainly Clear"
"1997-06-15 05:00","1997","06","15","05:00","7.8","","3.5","","74","","22","","4","","40.2","","99.99","","","","","","Mainly Clear"
"1997-06-15 06:00","1997","06","15","06:00","9.5","","4.7","","72","","23","","6","","40.2","","100.03","","","","","","Mainly Clear"
"1997-06-15 07:00","1997","06","15","07:00","13.1","","5.5","","60","","26","","7","","40.2","","100.13","","","","","","Mainly Clear"
"1997-06-15 08:00","1997","06","15","08:00","14.7","","6.0","","56","","29","","11","","40.2","","100.06","","","","","","Mainly Clear"
"1997-06-15 09:00","1997","06","15","09:00","16.5","","7.3","","54","","30","","9","","40.2","","100.06","","","","","","Mainly Clear"
"1997-06-15 10:00","1997","06","15","10:00","18.3","","7.5","","49","","27","","6","","40.2","","100.09","","","","","","Mainly Clear"
"1997-06-15 11:00","1997","06","15","11:00","20.2","","7.9","","45","","29","","9","","40.2","","100.09","","","","","","Mainly Clear"
"1997-06-15 12:00","1997","06","15","12:00","22.6","","7.1","","37","","25","","7","","40.2","","100.03","","","","","","Mostly Cloudy"
"1997-06-15 13:00","1997","06","15","13:00","22.7","","6.9","","36","","24","","15","","40.2","","99.93","","","","","","Mostly Cloudy"
"1997-06-15 14:00","1997","06","15","14:00","22.5","","5.7","","34","","21","","17","","40.2","","99.82","","","","","","Mostly Cloudy"
"1997-06-15 15:00","1997","06","15","15:00","23.5","","5.7","","32","","19","","17","","40.2","","99.76","","","","","","Mostly Cloudy"
"1997-06-15 16:00","1997","06","15","16:00","23.2","","5.9","","33","","22","","15","","40.2","","99.76","","","","","","Mostly Cloudy"
"1997-06-15 17:00","1997","06","15","17:00","22.5","","6.8","","36","","21","","20","","40.2","","99.76","","","","","","Mostly Cloudy"
"1997-06-15 18:00","1997","06","15","18:00","21.4","","5.4","","35","","23","","19","","40.2","","99.69","","","","","","Mostly Cloudy"
"1997-06-15 19:00","1997","06","15","19:00","19.7","","3.9","","35","","21","","9","","40.2","","99.69","","","","","","Mostly Cloudy"
"1997-06-15 20:00","1997","06","15","20:00","17.4","","2.6","","37","","19","","9","","40.2","","99.66","","","","","","Mostly Cloudy"
"1997-06-15 21:00","1997","06","15","21:00","15.9","","3.8","","44","","18","","7","","25.0","","99.66","","","","","","Mainly Clear"
"1997-06-15 22:00","1997","06","15","22:00","15.4","","4.9","","50","","18","","9","","25.0","","99.59","","","","","","Mainly Clear"
"1997-06-15 23:00","1997","06","15","23:00","13.9","","5.9","","58","","19","","9","","25.0","","99.52","","","","","","Mainly Clear"
"1997-06-16 00:00","1997","06","16","00:00","13.4","","6.2","","62","","18","","6","","25.0","","99.49","","","","","","Mostly Cloudy"
"1997-06-16 01:00","1997","06","16","01:00","13.2","","6.2","","62","","","","0","","25.0","","99.42","","","","","","Mostly Cloudy"
"1997-06-16 02:00","1997","06","16","02:00","12.7","","6.2","","65","","16","","6","","25.0","","99.39","","","","","","Clear"
"1997-06-16 03:00","1997","06","16","03:00","12.4","","6.3","","66","","","","0","","25.0","","99.36","","","","","","Mainly Clear"
"1997-06-16 04:00","1997","06","16","04:00","12.7","","6.9","","68","","20","","9","","24.1","","99.29","","","","","","Mainly Clear"
"1997-06-16 05:00","1997","06","16","05:00","13.0","","8.2","","73","","20","","11","","32.2","","99.29","","","","","","Mostly Cloudy"
"1997-06-16 06:00","1997","06","16","06:00","14.4","","9.4","","72","","20","","15","","19.3","","99.36","","","","","","Mostly Cloudy"
"1997-06-16 07:00","1997","06","16","07:00","16.3","","10.1","","67","","20","","19","","16.1","","99.32","","","","","","Cloudy"
"1997-06-16 08:00","1997","06","16","08:00","19.4","","12.5","","64","","20","","17","","16.1","","99.26","","","","","","Mostly Cloudy"
"1997-06-16 09:00","1997","06","16","09:00","21.8","","13.0","","57","","20","","22","","12.9","","99.19","","25","","","","Mostly Cloudy"
"1997-06-16 10:00","1997","06","16","10:00","23.8","","13.3","","52","","20","","20","","12.9","","99.15","","27","","","","Mainly Clear"
"1997-06-16 11:00","1997","06","16","11:00","24.7","","13.0","","48","","20","","24","","12.9","","99.12","","27","","","","Mostly Cloudy"
"1997-06-16 12:00","1997","06","16","12:00","25.6","","12.9","","45","","20","","28","","11.3","","99.05","","28","","","","Mainly Clear"
"1997-06-16 13:00","1997","06","16","13:00","26.8","","12.8","","42","","21","","30","","9.7","","98.99","","29","","","","Haze"
"1997-06-16 14:00","1997","06","16","14:00","27.0","","13.2","","43","","22","","28","","9.7","","98.95","","30","","","","Haze"
"1997-06-16 15:00","1997","06","16","15:00","26.6","","13.3","","44","","22","","32","","8.0","","98.92","","30","","","","Haze"
"1997-06-16 16:00","1997","06","16","16:00","25.9","","13.4","","46","","21","","28","","8.0","","98.85","","29","","","","Haze"
"1997-06-16 17:00","1997","06","16","17:00","25.6","","13.3","","47","","21","","30","","9.7","","98.82","","29","","","","Haze"
"1997-06-16 18:00","1997","06","16","18:00","25.3","","13.7","","49","","20","","26","","12.9","","98.82","","28","","","","Cloudy"
"1997-06-16 19:00","1997","06","16","19:00","23.8","","15.2","","59","","24","","22","","9.7","","98.92","","28","","","","Rain Showers"
"1997-06-16 20:00","1997","06","16","20:00","20.0","","16.7","","81","","25","","19","","6.4","","99.05","","25","","","","Haze"
"1997-06-16 21:00","1997","06","16","21:00","19.4","","16.9","","85","","22","","9","","6.4","","99.09","","","","","","Fog"
"1997-06-16 22:00","1997","06","16","22:00","19.1","","17.1","","88","","21","","9","","6.4","","99.05","","","","","","Fog"
"1997-06-16 23:00","1997","06","16","23:00","18.8","","17.6","","93","","21","","6","","3.2","","99.05","","","","","","Moderate Rain Showers,Fog"
"1997-06-17 00:00","1997","06","17","00:00","17.9","","16.4","","91","","17","","7","","2.4","","99.05","","","","","","Rain,Fog"
"1997-06-17 01:00","1997","06","17","01:00","17.6","","15.9","","90","","21","","7","","4.8","","98.99","","","","","","Fog"
"1997-06-17 02:00","1997","06","17","02:00","17.6","","15.8","","89","","22","","9","","4.8","","98.99","","","","","","Rain,Fog"
"1997-06-17 03:00","1997","06","17","03:00","17.4","","15.6","","89","","23","","9","","4.0","","99.02","","","","","","Rain,Fog"
"1997-06-17 04:00","1997","06","17","04:00","17.3","","17.3","","100","","22","","6","","2.4","","99.05","","","","","","Rain,Fog"
"1997-06-17 05:00","1997","06","17","05:00","17.2","","17.2","","100","","","","0","","2.8","","99.12","","","","","","Fog"
"1997-06-17 06:00","1997","06","17","06:00","17.7","","17.7","","100","","24","","6","","3.2","","99.19","","","","","","Fog"
"1997-06-17 07:00","1997","06","17","07:00","18.6","","18.4","","99","","32","","11","","8.0","","99.29","","","","","","Fog"
"1997-06-17 08:00","1997","06","17","08:00","18.8","","17.2","","90","","30","","17","","9.7","","99.39","","","","","","Fog"
"1997-06-17 09:00","1997","06","17","09:00","18.2","","16.6","","90","","30","","19","","12.9","","99.49","","","","","","Mostly Cloudy"
"1997-06-17 10:00","1997","06","17","10:00","16.9","","14.9","","88","","32","","15","","19.3","","99.59","","","","","","Mostly Cloudy"
"1997-06-17 11:00","1997","06","17","11:00","18.4","","13.8","","75","","30","","19","","24.1","","99.66","","","","","","Mostly Cloudy"
"1997-06-17 12:00","1997","06","17","12:00","18.8","","13.2","","70","","30","","17","","32.2","","99.76","","","","","","Mostly Cloudy"
"1997-06-17 13:00","1997","06","17","13:00","19.0","","13.0","","68","","","","0","","40.2","","99.76","","","","","","Mainly Clear"
"1997-06-17 14:00","1997","06","17","14:00","20.8","","12.1","","57","","34","","11","","40.2","","99.76","","","","","","Mainly Clear"
"1997-06-17 15:00","1997","06","17","15:00","21.6","","11.8","","54","","34","","13","","40.2","","99.76","","","","","","Mainly Clear"
"1997-06-17 16:00","1997","06","17","16:00","21.8","","11.7","","53","","35","","9","","40.2","","99.79","","","","","","Mainly Clear"
"1997-06-17 17:00","1997","06","17","17:00","22.5","","11.0","","48","","35","","4","","40.2","","99.82","","","","","","Mainly Clear"
"1997-06-17 18:00","1997","06","17","18:00","21.9","","9.8","","46","","32","","9","","40.2","","99.86","","","","","","Mainly Clear"
"1997-06-17 19:00","1997","06","17","19:00","21.1","","8.7","","45","","3","","6","","40.2","","99.93","","","","","","Mainly Clear"
"1997-06-17 20:00","1997","06","17","20:00","18.1","","8.6","","54","","4","","9","","40.2","","99.96","","","","","","Mainly Clear"
"1997-06-17 21:00","1997","06","17","21:00","17.6","","7.5","","52","","6","","7","","32.2","","100.06","","","","","","Mainly Clear"
"1997-06-17 22:00","1997","06","17","22:00","15.9","","7.4","","57","","5","","9","","25.0","","100.09","","","","","","Mainly Clear"
"1997-06-17 23:00","1997","06","17","23:00","14.9","","7.2","","60","","4","","9","","25.0","","100.09","","","","","","Mainly Clear"
"1997-06-18 00:00","1997","06","18","00:00","13.9","","7.8","","67","","5","","11","","25.0","","100.13","","","","","","Mainly Clear"
"1997-06-18 01:00","1997","06","18","01:00","12.9","","7.0","","67","","5","","11","","25.0","","100.13","","","","","","Mainly Clear"
"1997-06-18 02:00","1997","06","18","02:00","12.2","","6.9","","70","","5","","11","","25.0","","100.09","","","","","","Mostly Cloudy"
"1997-06-18 03:00","1997","06","18","03:00","11.7","","6.9","","72","","5","","13","","25.0","","100.06","","","","","","Mostly Cloudy"
"1997-06-18 04:00","1997","06","18","04:00","11.2","","7.6","","78","","6","","15","","40.2","","100.06","","","","","","Mostly Cloudy"
"1997-06-18 05:00","1997","06","18","05:00","11.6","","9.3","","86","","6","","13","","40.2","","100.06","","","","","","Mostly Cloudy"
"1997-06-18 06:00","1997","06","18","06:00","13.2","","11.1","","87","","7","","15","","40.2","","100.06","","","","","","Cloudy"
"1997-06-18 07:00","1997","06","18","07:00","14.5","","12.1","","86","","7","","13","","40.2","","100.03","","","","","","Cloudy"
"1997-06-18 08:00","1997","06","18","08:00","15.3","","12.6","","84","","8","","13","","40.2","","100.03","","","","","","Cloudy"
"1997-06-18 09:00","1997","06","18","09:00","16.2","","12.7","","80","","5","","13","","40.2","","99.99","","","","","","Cloudy"
"1997-06-18 10:00","1997","06","18","10:00","17.1","","13.6","","80","","6","","13","","32.2","","99.89","","","","","","Cloudy"
"1997-06-18 11:00","1997","06","18","11:00","17.6","","14.1","","80","","9","","9","","24.1","","99.86","","","","","","Rain"
"1997-06-18 12:00","1997","06","18","12:00","17.5","","15.6","","89","","9","","9","","9.7","","99.82","","","","","","Rain,Fog"
"1997-06-18 13:00","1997","06","18","13:00","17.3","","16.1","","93","","9","","11","","6.4","","99.76","","","","","","Rain,Fog"
"1997-06-18 14:00","1997","06","18","14:00","17.7","","16.8","","94","","8","","11","","6.4","","99.69","","","","","","Rain,Fog"
"1997-06-18 15:00","1997","06","18","15:00","17.6","","17.0","","96","","8","","6","","4.0","","99.62","","","","","","Rain,Fog"
"1997-06-18 16:00","1997","06","18","16:00","18.1","","17.2","","94","","8","","7","","4.8","","99.59","","","","","","Rain,Fog"
"1997-06-18 17:00","1997","06","18","17:00","17.9","","17.2","","96","","8","","4","","3.2","","99.56","","","","","","Rain,Fog"
"1997-06-18 18:00","1997","06","18","18:00","18.0","","17.4","","96","","8","","6","","2.8","","99.49","","","","","","Rain,Fog"
"1997-06-18 19:00","1997","06","18","19:00","17.9","","17.5","","98","","5","","6","","3.2","","99.49","","","","","","Rain,Fog"
"1997-06-18 20:00","1997","06","18","20:00","17.8","","17.3","","97","","9","","2","","3.2","","99.49","","","","","","Fog"
"1997-06-18 21:00","1997","06","18","21:00","17.6","","17.2","","98","","","","0","","2.8","","99.49","","","","","","Fog"
"1997-06-18 22:00","1997","06","18","22:00","17.3","","17.0","","98","","","","0","","2.0","","99.49","","","","","","Fog"
"1997-06-18 23:00","1997","06","18","23:00","17.2","","16.9","","98","","34","","4","","2.4","","99.49","","","","","","Fog"
"1997-06-19 00:00","1997","06","19","00:00","17.3","","17.3","","100","","31","","4","","1.6","","99.49","","","","","","Fog"
"1997-06-19 01:00","1997","06","19","01:00","16.8","","16.8","","100","","","","0","","1.2","","99.49","","","","","","Fog"
"1997-06-19 02:00","1997","06","19","02:00","16.8","","16.7","","99","","26","","7","","0.6","","99.52","","","","","","Fog"
"1997-06-19 03:00","1997","06","19","03:00","16.8","","16.5","","98","","29","","9","","3.6","","99.56","","","","","","Fog"
"1997-06-19 04:00","1997","06","19","04:00","14.9","","13.8","","93","","32","","17","","32.2","","99.66","","","","","","Mostly Cloudy"
"1997-06-19 05:00","1997","06","19","05:00","14.1","","12.6","","91","","33","","13","","32.2","","99.72","","","","","","Mainly Clear"
"1997-06-19 06:00","1997","06","19","06:00","14.7","","12.6","","87","","31","","13","","32.2","","99.79","","","","","","Clear"
"1997-06-19 07:00","1997","06","19","07:00","15.9","","12.7","","81","","31","","13","","32.2","","99.89","","","","","","Mainly Clear"
"1997-06-19 08:00","1997","06","19","08:00","16.8","","12.7","","77","","35","","13","","32.2","","99.99","","","","","","Mainly Clear"
"1997-06-19 09:00","1997","06","19","09:00","17.9","","13.3","","74","","34","","7","","32.2","","99.99","","","","","","Mainly Clear"
"1997-06-19 10:00","1997","06","19","10:00","19.5","","12.2","","63","","28","","11","","32.2","","100.03","","","","","","Mainly Clear"
"1997-06-19 11:00","1997","06","19","11:00","21.0","","11.9","","56","","32","","15","","32.2","","100.06","","","","","","Mainly Clear"
"1997-06-19 12:00","1997","06","19","12:00","22.0","","10.4","","48","","29","","15","","32.2","","100.03","","","","","","Mostly Cloudy"
"1997-06-19 13:00","1997","06","19","13:00","21.5","","10.7","","50","","30","","7","","32.2","","100.03","","","","","","Mostly Cloudy"
"1997-06-19 14:00","1997","06","19","14:00","22.5","","10.9","","48","","32","","11","","32.2","","100.06","","","","","","Mostly Cloudy"
"1997-06-19 15:00","1997","06","19","15:00","22.1","","10.3","","47","","31","","11","","32.2","","100.06","","","","","","Mostly Cloudy"
"1997-06-19 16:00","1997","06","19","16:00","22.9","","10.9","","47","","28","","13","","32.2","","100.03","","25","","","","Mostly Cloudy"
"1997-06-19 17:00","1997","06","19","17:00","23.2","","10.8","","46","","27","","9","","32.2","","100.03","","25","","","","Mainly Clear"
"1997-06-19 18:00","1997","06","19","18:00","22.9","","10.8","","46","","28","","9","","40.2","","100.06","","25","","","","Mostly Cloudy"
"1997-06-19 19:00","1997","06","19","19:00","21.8","","10.1","","47","","28","","6","","40.2","","100.09","","","","","","Cloudy"
"1997-06-19 20:00","1997","06","19","20:00","19.9","","10.6","","55","","26","","6","","32.2","","100.09","","","","","","Cloudy"
"1997-06-19 21:00","1997","06","19","21:00","18.8","","10.9","","60","","27","","4","","25.0","","100.13","","","","","","Cloudy"
"1997-06-19 22:00","1997","06","19","22:00","17.6","","11.0","","65","","22","","6","","24.1","","100.13","","","","","","Cloudy"
"1997-06-19 23:00","1997","06","19","23:00","17.2","","11.1","","67","","24","","4","","24.1","","100.13","","","","","","Cloudy"
"1997-06-20 00:00","1997","06","20","00:00","17.1","","11.6","","70","","","","0","","24.1","","100.13","","","","","","Cloudy"
"1997-06-20 01:00","1997","06","20","01:00","16.2","","11.6","","74","","20","","6","","24.1","","100.13","","","","","","Cloudy"
"1997-06-20 02:00","1997","06","20","02:00","16.1","","12.0","","77","","","","0","","24.1","","100.16","","","","","","Cloudy"
"1997-06-20 03:00","1997","06","20","03:00","15.9","","12.3","","79","","","","0","","24.1","","100.16","","","","","","Mostly Cloudy"
"1997-06-20 04:00","1997","06","20","04:00","15.9","","12.0","","78","","","","0","","19.3","","100.16","","","","","","Cloudy"
"1997-06-20 05:00","1997","06","20","05:00","15.5","","12.5","","82","","","","0","","32.2","","100.16","","","","","","Mostly Cloudy"
"1997-06-20 06:00","1997","06","20","06:00","15.8","","13.2","","85","","","","0","","40.2","","100.19","","","","","","Mostly Cloudy"
"1997-06-20 07:00","1997","06","20","07:00","16.2","","14.1","","87","","","","0","","40.2","","100.19","","","","","","Mostly Cloudy"
"1997-06-20 08:00","1997","06","20","08:00","19.3","","15.9","","81","","","","0","","24.1","","100.19","","","","","","Mostly Cloudy"
"1997-06-20 09:00","1997","06","20","09:00","20.0","","16.3","","79","","12","","7","","24.1","","100.19","","25","","","","Mostly Cloudy"
"1997-06-20 10:00","1997","06","20","10:00","20.5","","14.7","","69","","19","","6","","24.1","","100.19","","","","","","Mostly Cloudy"
"1997-06-20 11:00","1997","06","20","11:00","21.4","","14.5","","65","","20","","9","","24.1","","100.13","","25","","","","Mostly Cloudy"
"1997-06-20 12:00","1997","06","20","12:00","21.6","","14.6","","64","","16","","11","","32.2","","100.09","","25","","","","Mostly Cloudy"
"1997-06-20 13:00","1997","06","20","13:00","21.8","","14.6","","64","","21","","7","","32.2","","100.06","","26","","","","Cloudy"
"1997-06-20 14:00","1997","06","20","14:00","21.2","","13.9","","63","","15","","4","","32.2","","100.03","","25","","","","Cloudy"
"1997-06-20 15:00","1997","06","20","15:00","21.4","","14.3","","64","","17","","4","","32.2","","99.99","","25","","","","Cloudy"
"1997-06-20 16:00","1997","06","20","16:00","21.6","","14.5","","64","","13","","7","","32.2","","99.86","","25","","","","Cloudy"
"1997-06-20 17:00","1997","06","20","17:00","22.3","","14.8","","63","","15","","4","","32.2","","99.82","","26","","","","Cloudy"
"1997-06-20 18:00","1997","06","20","18:00","21.9","","14.7","","64","","14","","6","","32.2","","99.76","","26","","","","Mostly Cloudy"
"1997-06-20 19:00","1997","06","20","19:00","21.4","","14.7","","66","","15","","4","","32.2","","99.79","","25","","","","Mostly Cloudy"
"1997-06-20 20:00","1997","06","20","20:00","20.9","","15.2","","70","","14","","4","","24.1","","99.72","","25","","","","Cloudy"
"1997-06-20 21:00","1997","06","20","21:00","20.7","","15.6","","73","","18","","6","","24.1","","99.72","","25","","","","Cloudy"
"1997-06-20 22:00","1997","06","20","22:00","20.1","","16.7","","81","","16","","2","","19.3","","99.69","","25","","","","Rain Showers"
"1997-06-20 23:00","1997","06","20","23:00","20.0","","17.2","","84","","","","0","","12.9","","99.66","","25","","","","Cloudy"
"1997-06-21 00:00","1997","06","21","00:00","19.8","","17.2","","85","","","","0","","11.3","","99.59","","","","","","Cloudy"
"1997-06-21 01:00","1997","06","21","01:00","19.4","","17.3","","88","","","","0","","11.3","","99.56","","","","","","Cloudy"
"1997-06-21 02:00","1997","06","21","02:00","18.8","","17.0","","89","","","","0","","9.7","","99.52","","","","","","Fog"
"1997-06-21 03:00","1997","06","21","03:00","18.7","","17.2","","91","","","","0","","6.4","","99.49","","","","","","Fog"
"1997-06-21 04:00","1997","06","21","04:00","18.8","","17.5","","92","","20","","2","","4.0","","99.46","","","","","","Fog"
"1997-06-21 05:00","1997","06","21","05:00","19.1","","18.0","","93","","","","0","","3.2","","99.42","","","","","","Fog"
"1997-06-21 06:00","1997","06","21","06:00","19.5","","18.2","","92","","23","","7","","2.0","","99.46","","","","","","Fog"
"1997-06-21 07:00","1997","06","21","07:00","20.1","","18.8","","92","","21","","6","","2.8","","99.46","","27","","","","Fog"
"1997-06-21 08:00","1997","06","21","08:00","21.4","","19.4","","88","","22","","9","","4.0","","99.49","","28","","","","Fog"
"1997-06-21 09:00","1997","06","21","09:00","22.7","","19.5","","82","","23","","13","","4.8","","99.46","","30","","","","Haze"
"1997-06-21 10:00","1997","06","21","10:00","23.1","","21.1","","89","","21","","9","","9.7","","99.46","","32","","","","Fog"
"1997-06-21 11:00","1997","06","21","11:00","24.7","","20.7","","78","","22","","13","","8.0","","99.39","","33","","","","Haze"
"1997-06-21 12:00","1997","06","21","12:00","25.5","","21.3","","78","","22","","11","","8.0","","99.36","","34","","","","Haze"
"1997-06-21 13:00","1997","06","21","13:00","27.5","","22.0","","72","","19","","13","","6.4","","99.29","","37","","","","Haze"
"1997-06-21 14:00","1997","06","21","14:00","28.9","","21.9","","66","","21","","17","","8.0","","99.29","","38","","","","Haze"
"1997-06-21 15:00","1997","06","21","15:00","28.3","","21.8","","68","","24","","15","","11.3","","99.29","","37","","","","Rain Showers"
"1997-06-21 16:00","1997","06","21","16:00","24.5","","20.5","","78","","7","","9","","19.3","","99.29","","32","","","","Mostly Cloudy"
"1997-06-21 17:00","1997","06","21","17:00","25.2","","21.1","","78","","9","","7","","19.3","","99.29","","34","","","","Mostly Cloudy"
"1997-06-21 18:00","1997","06","21","18:00","27.4","","20.1","","64","","22","","11","","12.9","","99.19","","35","","","","Mostly Cloudy"
"1997-06-21 19:00","1997","06","21","19:00","21.7","","19.3","","86","","4","","15","","19.3","","99.29","","29","","","","Mostly Cloudy"
"1997-06-21 20:00","1997","06","21","20:00","21.1","","19.1","","88","","11","","4","","16.1","","99.29","","28","","","","Cloudy"
"1997-06-21 21:00","1997","06","21","21:00","21.0","","19.0","","88","","1","","11","","16.1","","99.36","","28","","","","Mostly Cloudy"
"1997-06-21 22:00","1997","06","21","22:00","20.6","","18.9","","90","","13","","4","","16.1","","99.32","","27","","","","Rain Showers"
"1997-06-21 23:00","1997","06","21","23:00","20.3","","18.9","","92","","","","0","","12.9","","99.32","","27","","","","Rain Showers"
"1997-06-22 00:00","1997","06","22","00:00","19.8","","18.8","","94","","5","","4","","12.9","","99.26","","","","","","Rain Showers"
"1997-06-22 01:00","1997","06","22","01:00","19.7","","19.0","","96","","","","0","","4.8","","99.26","","","","","","Rain Showers,Fog"
"1997-06-22 02:00","1997","06","22","02:00","20.5","","19.9","","96","","21","","4","","4.8","","99.19","","28","","","","Rain Showers,Fog"
"1997-06-22 03:00","1997","06","22","03:00","20.5","","20.1","","98","","27","","6","","4.0","","99.19","","28","","","","Moderate Rain Showers,Fog"
"1997-06-22 04:00","1997","06","22","04:00","19.2","","18.8","","98","","31","","9","","4.8","","99.19","","","","","","Rain Showers,Fog"
"1997-06-22 05:00","1997","06","22","05:00","19.1","","18.4","","96","","26","","6","","8.0","","99.26","","","","","","Fog"
"1997-06-22 06:00","1997","06","22","06:00","19.1","","18.2","","95","","30","","15","","16.1","","99.26","","","","","","Mostly Cloudy"
"1997-06-22 07:00","1997","06","22","07:00","19.7","","18.3","","92","","28","","17","","19.3","","99.29","","","","","","Mostly Cloudy"
"1997-06-22 08:00","1997","06","22","08:00","20.1","","17.9","","87","","27","","17","","19.3","","99.36","","26","","","","Cloudy"
"1997-06-22 09:00","1997","06","22","09:00","21.5","","18.0","","80","","27","","19","","19.3","","99.42","","28","","","","Mostly Cloudy"
"1997-06-22 10:00","1997","06","22","10:00","21.4","","17.4","","78","","27","","20","","19.3","","99.49","","27","","","","Cloudy"
"1997-06-22 11:00","1997","06","22","11:00","21.9","","17.0","","74","","29","","22","","24.1","","99.52","","27","","","","Mostly Cloudy"
"1997-06-22 12:00","1997","06","22","12:00","23.2","","16.4","","66","","28","","24","","24.1","","99.56","","28","","","","Mainly Clear"
"1997-06-22 13:00","1997","06","22","13:00","24.1","","16.3","","62","","27","","26","","24.1","","99.49","","29","","","","Mainly Clear"
"1997-06-22 14:00","1997","06","22","14:00","25.2","","16.4","","58","","28","","22","","32.2","","99.49","","30","","","","Mainly Clear"
"1997-06-22 15:00","1997","06","22","15:00","26.4","","14.6","","48","","29","","30","","32.2","","99.49","","30","","","","Mainly Clear"
"1997-06-22 16:00","1997","06","22","16:00","24.2","","12.9","","49","","29","","28","","24.1","","99.59","","27","","","","Mostly Cloudy"
"1997-06-22 17:00","1997","06","22","17:00","22.0","","12.1","","53","","35","","24","","32.2","","99.69","","","","","","Mostly Cloudy"
"1997-06-22 18:00","1997","06","22","18:00","22.3","","13.6","","58","","30","","15","","32.2","","99.69","","25","","","","Mainly Clear"
"1997-06-22 19:00","1997","06","22","19:00","21.2","","13.5","","61","","32","","15","","40.2","","99.76","","","","","","Mainly Clear"
"1997-06-22 20:00","1997","06","22","20:00","20.6","","12.8","","61","","28","","11","","32.2","","99.82","","","","","","Mostly Cloudy"
"1997-06-22 21:00","1997","06","22","21:00","18.8","","13.0","","69","","27","","9","","25.0","","99.89","","","","","","Mostly Cloudy"
"1997-06-22 22:00","1997","06","22","22:00","18.0","","13.3","","74","","27","","11","","24.1","","99.96","","","","","","Mainly Clear"
"1997-06-22 23:00","1997","06","22","23:00","17.7","","13.7","","77","","28","","7","","24.1","","99.96","","","","","","Mostly Cloudy"
"1997-06-23 00:00","1997","06","23","00:00","17.9","","14.3","","79","","28","","6","","24.1","","99.96","","","","","","Mostly Cloudy"
"1997-06-23 01:00","1997","06","23","01:00"
"1997-06-23 02:00","1997","06","23","02:00","16.3","","14.2","","87","","27","","11","","24.1","","100.03","","","","","","Mainly Clear"
"1997-06-23 03:00","1997","06","23","03:00","16.3","","14.4","","89","","29","","11","","24.1","","100.06","","","","","","Mostly Cloudy"
"1997-06-23 04:00","1997","06","23","04:00","16.0","","14.2","","89","","30","","9","","32.2","","100.13","","","","","","Mostly Cloudy"
"1997-06-23 05:00","1997","06","23","05:00","15.6","","13.9","","90","","30","","11","","40.2","","100.19","","","","","","Mainly Clear"
"1997-06-23 06:00","1997","06","23","06:00","17.0","","14.7","","86","","30","","11","","40.2","","100.23","","","","","","Clear"
"1997-06-23 07:00","1997","06","23","07:00","17.9","","14.5","","81","","29","","17","","40.2","","100.33","","","","","","Clear"
"1997-06-23 08:00","1997","06","23","08:00","19.6","","13.6","","68","","33","","17","","40.2","","100.39","","","","","","Clear"
"1997-06-23 09:00","1997","06","23","09:00","20.5","","13.0","","62","","33","","13","","40.2","","100.46","","","","","","Mainly Clear"
"1997-06-23 10:00","1997","06","23","10:00","21.1","","11.0","","52","","31","","22","","40.2","","100.46","","","","","","Mainly Clear"
"1997-06-23 11:00","1997","06","23","11:00","22.1","","11.2","","50","","32","","19","","40.2","","100.43","","","","","","Mainly Clear"
"1997-06-23 12:00","1997","06","23","12:00","22.0","","11.5","","51","","30","","11","","40.2","","100.43","","","","","","Mostly Cloudy"
"1997-06-23 13:00","1997","06","23","13:00","22.6","","12.0","","51","","30","","17","","40.2","","100.49","","25","","","","Mostly Cloudy"
"1997-06-23 14:00","1997","06","23","14:00","23.8","","12.4","","49","","31","","19","","40.2","","100.49","","26","","","","Mostly Cloudy"
"1997-06-23 15:00","1997","06","23","15:00","24.0","","11.9","","47","","29","","20","","40.2","","100.49","","26","","","","Mainly Clear"
"1997-06-23 16:00","1997","06","23","16:00","23.9","","11.3","","45","","29","","19","","40.2","","100.46","","26","","","","Mostly Cloudy"
"1997-06-23 17:00","1997","06","23","17:00","23.2","","10.2","","44","","29","","19","","40.2","","100.46","","25","","","","Mostly Cloudy"
"1997-06-23 18:00","1997","06","23","18:00","22.6","","11.5","","49","","27","","13","","40.2","","100.46","","25","","","","Cloudy"
"1997-06-23 19:00","1997","06","23","19:00","22.3","","10.3","","47","","27","","13","","40.2","","100.53","","","","","","Mostly Cloudy"
"1997-06-23 20:00","1997","06","23","20:00","20.9","","9.0","","46","","28","","9","","40.2","","100.49","","","","","","Mostly Cloudy"
"1997-06-23 21:00","1997","06","23","21:00","19.8","","9.9","","53","","26","","4","","25.0","","100.53","","","","","","Cloudy"
"1997-06-23 22:00","1997","06","23","22:00","18.6","","10.8","","60","","27","","4","","25.0","","100.53","","","","","","Cloudy"
"1997-06-23 23:00","1997","06","23","23:00","18.2","","10.7","","62","","31","","4","","25.0","","100.49","","","","","","Cloudy"
"1997-06-24 00:00","1997","06","24","00:00","16.8","","9.8","","63","","23","","2","","25.0","","100.53","","","","","","Mostly Cloudy"
"1997-06-24 01:00","1997","06","24","01:00","16.4","","9.3","","63","","24","","4","","25.0","","100.49","","","","","","Mostly Cloudy"
"1997-06-24 02:00","1997","06","24","02:00","15.8","","9.3","","65","","","","0","","25.0","","100.49","","","","","","Mostly Cloudy"
"1997-06-24 03:00","1997","06","24","03:00","16.0","","11.3","","74","","24","","6","","25.0","","100.46","","","","","","Mostly Cloudy"
"1997-06-24 04:00","1997","06","24","04:00","15.2","","10.9","","75","","23","","2","","32.2","","100.49","","","","","","Mostly Cloudy"
"1997-06-24 05:00","1997","06","24","05:00","16.0","","11.2","","73","","","","0","","40.2","","100.46","","","","","","Rain Showers"
"1997-06-24 06:00","1997","06","24","06:00","15.5","","11.8","","79","","","","0","","32.2","","100.49","","","","","","Rain Showers"
"1997-06-24 07:00","1997","06","24","07:00","15.9","","11.4","","75","","","","0","","40.2","","100.46","","","","","","Mostly Cloudy"
"1997-06-24 08:00","1997","06","24","08:00","16.3","","12.7","","79","","","","0","","40.2","","100.49","","","","","","Mostly Cloudy"
"1997-06-24 09:00","1997","06","24","09:00","16.5","","13.5","","82","","19","","6","","40.2","","100.49","","","","","","Mostly Cloudy"
"1997-06-24 10:00","1997","06","24","10:00","17.6","","13.3","","76","","","","0","","32.2","","100.46","","","","","","Mostly Cloudy"
"1997-06-24 11:00","1997","06","24","11:00","18.5","","12.2","","67","","","","0","","32.2","","100.46","","","","","","Mostly Cloudy"
"1997-06-24 12:00","1997","06","24","12:00","19.2","","11.9","","63","","","","0","","32.2","","100.43","","","","","","Mostly Cloudy"
"1997-06-24 13:00","1997","06","24","13:00","19.5","","12.5","","64","","22","","4","","32.2","","100.39","","","","","","Mostly Cloudy"
"1997-06-24 14:00","1997","06","24","14:00","20.7","","12.6","","60","","","","0","","32.2","","100.33","","","","","","Mostly Cloudy"
"1997-06-24 15:00","1997","06","24","15:00","22.5","","13.4","","56","","","","0","","40.2","","100.29","","26","","","","Mostly Cloudy"
"1997-06-24 16:00","1997","06","24","16:00","23.0","","14.0","","57","","","","0","","40.2","","100.23","","26","","","","Mostly Cloudy"
"1997-06-24 17:00","1997","06","24","17:00","22.8","","14.5","","59","","","","0","","40.2","","100.19","","26","","","","Mainly Clear"
"1997-06-24 18:00","1997","06","24","18:00","22.1","","14.8","","63","","","","0","","40.2","","100.16","","26","","","","Mostly Cloudy"
"1997-06-24 19:00","1997","06","24","19:00","21.9","","15.0","","65","","","","0","","40.2","","100.16","","26","","","","Mostly Cloudy"
"1997-06-24 20:00","1997","06","24","20:00","21.1","","15.6","","71","","13","","4","","40.2","","100.13","","25","","","","Mostly Cloudy"
"1997-06-24 21:00","1997","06","24","21:00","20.4","","15.6","","74","","12","","6","","25.0","","100.13","","25","","","","Mainly Clear"
"1997-06-24 22:00","1997","06","24","22:00","19.9","","15.9","","78","","15","","4","","25.0","","100.09","","","","","","Mostly Cloudy"
"1997-06-24 23:00","1997","06","24","23:00","19.5","","16.1","","81","","15","","6","","24.1","","100.06","","","","","","Mostly Cloudy"
"1997-06-25 00:00","1997","06","25","00:00","19.2","","16.2","","83","","","","0","","24.1","","100.06","","","","","","Cloudy"
"1997-06-25 01:00","1997","06","25","01:00","19.0","","16.6","","86","","13","","6","","24.1","","99.96","","","","","","Cloudy"
"1997-06-25 02:00","1997","06","25","02:00","19.0","","16.9","","88","","14","","6","","24.1","","99.89","","","","","","Cloudy"
"1997-06-25 03:00","1997","06","25","03:00","18.9","","16.8","","88","","14","","7","","19.3","","99.79","","","","","","Cloudy"
"1997-06-25 04:00","1997","06","25","04:00","19.0","","17.1","","89","","18","","6","","19.3","","99.76","","","","","","Cloudy"
"1997-06-25 05:00","1997","06","25","05:00","19.0","","17.5","","91","","12","","9","","8.0","","99.62","","","","","","Fog"
"1997-06-25 06:00","1997","06","25","06:00","19.2","","17.8","","92","","14","","9","","6.4","","99.62","","","","","","Fog"
"1997-06-25 07:00","1997","06","25","07:00","20.1","","18.3","","89","","17","","11","","8.0","","99.52","","26","","","","Fog"
"1997-06-25 08:00","1997","06","25","08:00","21.7","","19.8","","89","","19","","13","","6.4","","99.46","","29","","","","Fog"
"1997-06-25 09:00","1997","06","25","09:00","22.8","","20.3","","86","","19","","9","","6.4","","99.36","","31","","","","Rain Showers,Haze"
"1997-06-25 10:00","1997","06","25","10:00","24.4","","20.7","","80","","20","","15","","8.0","","99.29","","33","","","","Haze"
"1997-06-25 11:00","1997","06","25","11:00","27.1","","21.6","","72","","21","","17","","8.0","","99.15","","36","","","","Haze"
"1997-06-25 12:00","1997","06","25","12:00","28.6","","21.7","","66","","22","","24","","9.7","","99.09","","38","","","","Haze"
"1997-06-25 13:00","1997","06","25","13:00","30.1","","21.9","","62","","23","","30","","9.7","","98.99","","39","","","","Haze"
"1997-06-25 14:00","1997","06","25","14:00","30.2","","21.3","","59","","23","","22","","9.7","","98.92","","39","","","","Haze"
"1997-06-25 15:00","1997","06","25","15:00","32.0","","19.8","","49","","25","","26","","12.9","","98.89","","39","","","","Mainly Clear"
"1997-06-25 16:00","1997","06","25","16:00","31.7","","18.8","","46","","25","","28","","19.3","","98.92","","38","","","","Mostly Cloudy"
"1997-06-25 17:00","1997","06","25","17:00","30.4","","18.9","","50","","25","","30","","24.1","","98.95","","37","","","","Mostly Cloudy"
"1997-06-25 18:00","1997","06","25","18:00","29.6","","18.4","","51","","26","","20","","32.2","","99.02","","36","","","","Mainly Clear"
"1997-06-25 19:00","1997","06","25","19:00","27.4","","18.7","","59","","24","","22","","32.2","","99.09","","34","","","","Mainly Clear"
"1997-06-25 20:00","1997","06","25","20:00","25.3","","17.5","","62","","24","","17","","32.2","","99.12","","31","","","","Mostly Cloudy"
"1997-06-25 21:00","1997","06","25","21:00","24.2","","17.2","","65","","24","","13","","32.2","","99.22","","30","","","","Mainly Clear"
"1997-06-25 22:00","1997","06","25","22:00","23.0","","17.0","","69","","23","","13","","24.1","","99.22","","28","","","","Mainly Clear"
"1997-06-25 23:00","1997","06","25","23:00","21.7","","16.9","","74","","24","","11","","24.1","","99.29","","27","","","","Mainly Clear"
"1997-06-26 00:00","1997","06","26","00:00","20.9","","17.1","","79","","27","","6","","24.1","","99.36","","26","","","","Mostly Cloudy"
"1997-06-26 01:00","1997","06","26","01:00","20.2","","16.7","","80","","26","","6","","24.1","","99.39","","25","","","","Mainly Clear"
"1997-06-26 02:00","1997","06","26","02:00","19.8","","16.6","","82","","23","","6","","24.1","","99.42","","","","","","Mainly Clear"
"1997-06-26 03:00","1997","06","26","03:00","18.5","","16.3","","87","","22","","7","","24.1","","99.46","","","","","","Clear"
"1997-06-26 04:00","1997","06","26","04:00","17.7","","15.9","","89","","23","","7","","40.2","","99.49","","","","","","Mainly Clear"
"1997-06-26 05:00","1997","06","26","05:00","17.7","","15.9","","89","","24","","4","","32.2","","99.56","","","","","","Mainly Clear"
"1997-06-26 06:00","1997","06","26","06:00","18.8","","16.4","","86","","25","","6","","32.2","","99.59","","","","","","Mainly Clear"
"1997-06-26 07:00","1997","06","26","07:00","20.5","","16.3","","77","","30","","13","","32.2","","99.59","","25","","","","Mainly Clear"
"1997-06-26 08:00","1997","06","26","08:00","21.5","","16.7","","74","","28","","11","","32.2","","99.59","","27","","","","Mainly Clear"
"1997-06-26 09:00","1997","06","26","09:00","23.1","","17.0","","69","","22","","11","","40.2","","99.52","","28","","","","Mostly Cloudy"
"1997-06-26 10:00","1997","06","26","10:00","24.3","","16.1","","60","","28","","17","","40.2","","99.52","","29","","","","Mostly Cloudy"
"1997-06-26 11:00","1997","06","26","11:00","25.0","","15.7","","56","","28","","19","","40.2","","99.59","","29","","","","Mainly Clear"
"1997-06-26 12:00","1997","06","26","12:00","25.7","","14.7","","51","","25","","17","","40.2","","99.56","","29","","","","Mainly Clear"
"1997-06-26 13:00","1997","06","26","13:00","26.5","","13.4","","44","","28","","17","","40.2","","99.49","","30","","","","Mainly Clear"
"1997-06-26 14:00","1997","06","26","14:00","27.0","","10.8","","36","","28","","17","","40.2","","99.46","","29","","","","Mainly Clear"
"1997-06-26 15:00","1997","06","26","15:00","28.0","","11.4","","36","","27","","24","","40.2","","99.39","","30","","","","Mainly Clear"
"1997-06-26 16:00","1997","06","26","16:00","27.9","","11.2","","35","","27","","22","","40.2","","99.39","","30","","","","Mainly Clear"
"1997-06-26 17:00","1997","06","26","17:00","27.3","","10.4","","35","","29","","24","","40.2","","99.39","","29","","","","Mainly Clear"
"1997-06-26 18:00","1997","06","26","18:00","26.6","","10.2","","36","","29","","30","","40.2","","99.46","","28","","","","Mainly Clear"
"1997-06-26 19:00","1997","06","26","19:00","23.1","","12.9","","53","","35","","24","","40.2","","99.59","","26","","","","Mainly Clear"
"1997-06-26 20:00","1997","06","26","20:00","21.1","","12.3","","57","","34","","13","","40.2","","99.72","","","","","","Mainly Clear"
"1997-06-26 21:00","1997","06","26","21:00","19.8","","12.2","","62","","32","","13","","32.2","","99.82","","","","","","Mainly Clear"
"1997-06-26 22:00","1997","06","26","22:00","19.0","","11.5","","62","","33","","13","","24.1","","99.86","","","","","","Clear"
"1997-06-26 23:00","1997","06","26","23:00","18.1","","10.9","","63","","33","","6","","24.1","","99.99","","","","","","Clear"
"1997-06-27 00:00","1997","06","27","00:00","17.3","","10.8","","66","","30","","6","","24.1","","100.06","","","","","","Clear"
"1997-06-27 01:00","1997","06","27","01:00","16.9","","10.7","","67","","32","","4","","24.1","","100.09","","","","","","Clear"
"1997-06-27 02:00","1997","06","27","02:00","15.3","","10.8","","75","","31","","4","","24.1","","100.16","","","","","","Clear"
"1997-06-27 03:00","1997","06","27","03:00","14.8","","11.2","","79","","31","","4","","40.2","","100.19","","","","","","Clear"
"1997-06-27 04:00","1997","06","27","04:00","14.1","","10.8","","81","","30","","6","","40.2","","100.29","","","","","","Clear"
"1997-06-27 05:00","1997","06","27","05:00","13.2","","10.7","","85","","","","0","","40.2","","100.39","","","","","","Clear"
"1997-06-27 06:00","1997","06","27","06:00","15.3","","11.8","","80","","34","","6","","40.2","","100.39","","","","","","Clear"
"1997-06-27 07:00","1997","06","27","07:00","17.2","","11.7","","70","","2","","6","","40.2","","100.49","","","","","","Clear"
"1997-06-27 08:00","1997","06","27","08:00","18.8","","11.0","","60","","3","","6","","40.2","","100.53","","","","","","Clear"
"1997-06-27 09:00","1997","06","27","09:00","20.2","","10.0","","52","","","","0","","40.2","","100.53","","","","","","Clear"
"1997-06-27 10:00","1997","06","27","10:00","20.8","","11.0","","53","","23","","4","","40.2","","100.53","","","","","","Clear"
"1997-06-27 11:00","1997","06","27","11:00","21.8","","11.4","","52","","30","","6","","40.2","","100.49","","","","","","Mainly Clear"
"1997-06-27 12:00","1997","06","27","12:00","23.8","","11.5","","46","","25","","11","","40.2","","100.46","","26","","","","Mainly Clear"
"1997-06-27 13:00","1997","06","27","13:00","24.6","","10.9","","42","","23","","4","","40.2","","100.43","","26","","","","Mainly Clear"
"1997-06-27 14:00","1997","06","27","14:00","25.3","","12.1","","44","","16","","9","","40.2","","100.39","","28","","","","Mainly Clear"
"1997-06-27 15:00","1997","06","27","15:00","25.8","","12.5","","44","","19","","9","","40.2","","100.36","","28","","","","Mainly Clear"
"1997-06-27 16:00","1997","06","27","16:00","27.4","","13.0","","41","","20","","13","","40.2","","100.29","","30","","","","Mainly Clear"
"1997-06-27 17:00","1997","06","27","17:00","26.9","","13.7","","44","","19","","13","","40.2","","100.29","","30","","","","Mainly Clear"
"1997-06-27 18:00","1997","06","27","18:00","25.8","","14.8","","51","","23","","13","","40.2","","100.29","","30","","","","Clear"
"1997-06-27 19:00","1997","06","27","19:00","24.8","","15.4","","56","","20","","9","","40.2","","100.29","","29","","","","Clear"
"1997-06-27 20:00","1997","06","27","20:00","22.7","","15.3","","63","","19","","9","","40.2","","100.29","","27","","","","Clear"
"1997-06-27 21:00","1997","06","27","21:00","21.0","","14.7","","67","","18","","7","","32.2","","100.33","","25","","","","Clear"
"1997-06-27 22:00","1997","06","27","22:00","20.1","","13.4","","65","","20","","6","","24.1","","100.33","","","","","","Clear"
"1997-06-27 23:00","1997","06","27","23:00","18.7","","13.2","","70","","20","","6","","24.1","","100.36","","","","","","Clear"
"1997-06-28 00:00","1997","06","28","00:00","17.5","","13.0","","75","","22","","7","","24.1","","100.36","","","","","","Clear"
"1997-06-28 01:00","1997","06","28","01:00","16.3","","13.2","","82","","21","","7","","24.1","","100.39","","","","","","Clear"
"1997-06-28 02:00","1997","06","28","02:00","16.0","","13.1","","83","","22","","9","","24.1","","100.43","","","","","","Clear"
"1997-06-28 03:00","1997","06","28","03:00","16.1","","13.4","","84","","23","","6","","24.1","","100.43","","","","","","Clear"
"1997-06-28 04:00","1997","06","28","04:00","15.7","","13.3","","86","","22","","7","","32.2","","100.46","","","","","","Clear"
"1997-06-28 05:00","1997","06","28","05:00","15.5","","13.3","","87","","21","","7","","32.2","","100.53","","","","","","Mainly Clear"
"1997-06-28 06:00","1997","06","28","06:00","16.4","","13.7","","84","","20","","7","","24.1","","100.56","","","","","","Mainly Clear"
"1997-06-28 07:00","1997","06","28","07:00","19.2","","15.1","","77","","23","","7","","24.1","","100.56","","","","","","Mainly Clear"
"1997-06-28 08:00","1997","06","28","08:00","23.6","","16.0","","62","","21","","7","","24.1","","100.53","","28","","","","Mainly Clear"
"1997-06-28 09:00","1997","06","28","09:00","24.7","","16.2","","59","","22","","6","","24.1","","100.46","","29","","","","Mostly Cloudy"
"1997-06-28 10:00","1997","06","28","10:00","26.7","","16.1","","52","","24","","13","","24.1","","100.49","","31","","","","Mainly Clear"
"1997-06-28 11:00","1997","06","28","11:00","28.2","","16.0","","48","","22","","9","","32.2","","100.39","","33","","","","Mainly Clear"
"1997-06-28 12:00","1997","06","28","12:00","28.0","","15.4","","46","","21","","15","","32.2","","100.33","","32","","","","Mainly Clear"
"1997-06-28 13:00","1997","06","28","13:00","30.1","","14.4","","38","","23","","17","","32.2","","100.29","","34","","","","Mostly Cloudy"
"1997-06-28 14:00","1997","06","28","14:00","30.0","","14.6","","39","","25","","13","","32.2","","100.23","","34","","","","Mainly Clear"
"1997-06-28 15:00","1997","06","28","15:00","30.5","","14.9","","39","","21","","11","","32.2","","100.23","","34","","","","Mainly Clear"
"1997-06-28 16:00","1997","06","28","16:00","30.3","","14.7","","39","","21","","13","","32.2","","100.16","","34","","","","Mainly Clear"
"1997-06-28 17:00","1997","06","28","17:00","29.9","","15.3","","41","","21","","15","","32.2","","100.19","","34","","","","Mainly Clear"
"1997-06-28 18:00","1997","06","28","18:00","28.3","","17.3","","51","","20","","19","","32.2","","100.23","","34","","","","Mainly Clear"
"1997-06-28 19:00","1997","06","28","19:00","26.7","","16.7","","54","","20","","13","","32.2","","100.26","","32","","","","Mainly Clear"
"1997-06-28 20:00","1997","06","28","20:00","25.0","","15.6","","56","","20","","13","","32.2","","100.26","","29","","","","Clear"
"1997-06-28 21:00","1997","06","28","21:00","23.5","","15.2","","60","","20","","9","","32.2","","100.29","","28","","","","Clear"
"1997-06-28 22:00","1997","06","28","22:00","23.4","","14.1","","56","","22","","13","","25.0","","100.29","","27","","","","Clear"
"1997-06-28 23:00","1997","06","28","23:00","22.1","","13.3","","57","","28","","7","","25.0","","100.33","","25","","","","Clear"
"1997-06-29 00:00","1997","06","29","00:00","20.6","","13.1","","62","","","","0","","25.0","","100.36","","","","","","Clear"
"1997-06-29 01:00","1997","06","29","01:00","21.0","","12.6","","59","","24","","6","","25.0","","100.36","","","","","","Clear"
"1997-06-29 02:00","1997","06","29","02:00","18.8","","12.4","","66","","21","","7","","25.0","","100.36","","","","","","Clear"
"1997-06-29 03:00","1997","06","29","03:00","17.8","","13.4","","75","","20","","6","","25.0","","100.36","","","","","","Clear"
"1997-06-29 04:00","1997","06","29","04:00","16.9","","13.0","","78","","19","","7","","32.2","","100.36","","","","","","Clear"
"1997-06-29 05:00","1997","06","29","05:00","16.7","","13.1","","79","","19","","9","","32.2","","100.36","","","","","","Clear"
"1997-06-29 06:00","1997","06","29","06:00","17.5","","13.5","","77","","19","","6","","24.1","","100.39","","","","","","Mainly Clear"
"1997-06-29 07:00","1997","06","29","07:00","20.3","","14.7","","70","","20","","7","","24.1","","100.43","","","","","","Mainly Clear"
"1997-06-29 08:00","1997","06","29","08:00","23.0","","15.6","","63","","20","","9","","19.3","","100.46","","27","","","","Mainly Clear"
"1997-06-29 09:00","1997","06","29","09:00","23.7","","15.7","","61","","22","","9","","19.3","","100.46","","28","","","","Mainly Clear"
"1997-06-29 10:00","1997","06","29","10:00","25.4","","15.5","","54","","18","","6","","19.3","","100.43","","30","","","","Mainly Clear"
"1997-06-29 11:00","1997","06","29","11:00","27.3","","16.4","","51","","22","","7","","19.3","","100.39","","32","","","","Mainly Clear"
"1997-06-29 12:00","1997","06","29","12:00","29.2","","15.0","","42","","24","","11","","19.3","","100.36","","33","","","","Mainly Clear"
"1997-06-29 13:00","1997","06","29","13:00","31.0","","12.4","","32","","24","","9","","19.3","","100.33","","33","","","","Mainly Clear"
"1997-06-29 14:00","1997","06","29","14:00","30.7","","13.2","","34","","19","","6","","19.3","","100.23","","34","","","","Mainly Clear"
"1997-06-29 15:00","1997","06","29","15:00","30.9","","15.4","","39","","20","","17","","19.3","","100.16","","35","","","","Mainly Clear"
"1997-06-29 16:00","1997","06","29","16:00","30.9","","15.3","","39","","24","","15","","19.3","","100.13","","35","","","","Mainly Clear"
"1997-06-29 17:00","1997","06","29","17:00","30.6","","15.5","","40","","22","","17","","24.1","","100.16","","35","","","","Mainly Clear"
"1997-06-29 18:00","1997","06","29","18:00","29.0","","17.0","","48","","21","","11","","24.1","","100.16","","34","","","","Mainly Clear"
"1997-06-29 19:00","1997","06","29","19:00","27.7","","16.8","","51","","20","","11","","24.1","","100.16","","33","","","","Mainly Clear"
"1997-06-29 20:00","1997","06","29","20:00","25.4","","15.8","","55","","18","","6","","24.1","","100.16","","30","","","","Clear"
"1997-06-29 21:00","1997","06","29","21:00","24.2","","15.4","","58","","18","","6","","24.1","","100.19","","28","","","","Mainly Clear"
"1997-06-29 22:00","1997","06","29","22:00","23.3","","15.0","","60","","20","","4","","24.1","","100.19","","27","","","","Clear"
"1997-06-29 23:00","1997","06","29","23:00","22.1","","15.2","","65","","21","","6","","19.3","","100.23","","26","","","","Clear"
"1997-06-30 00:00","1997","06","30","00:00","21.1","","14.6","","66","","","","0","","19.3","","100.23","","25","","","","Clear"
"1997-06-30 01:00","1997","06","30","01:00","20.9","","14.4","","66","","23","","4","","19.3","","100.26","","25","","","","Clear"
"1997-06-30 02:00","1997","06","30","02:00","19.5","","14.5","","73","","21","","6","","19.3","","100.26","","","","","","Clear"
"1997-06-30 03:00","1997","06","30","03:00","18.6","","14.6","","78","","21","","4","","19.3","","100.23","","","","","","Clear"
"1997-06-30 04:00","1997","06","30","04:00","18.1","","14.7","","81","","","","0","","19.3","","100.23","","","","","","Clear"
"1997-06-30 05:00","1997","06","30","05:00","17.8","","14.8","","83","","","","0","","19.3","","100.26","","","","","","Clear"
"1997-06-30 06:00","1997","06","30","06:00","18.8","","15.7","","82","","","","0","","19.3","","100.33","","","","","","Mainly Clear"
"1997-06-30 07:00","1997","06","30","07:00","19.7","","16.0","","79","","","","0","","16.1","","100.36","","","","","","Mainly Clear"
"1997-06-30 08:00","1997","06","30","08:00","22.4","","16.7","","70","","24","","4","","16.1","","100.36","","27","","","","Mainly Clear"
"1997-06-30 09:00","1997","06","30","09:00","25.2","","17.6","","63","","24","","7","","19.3","","100.36","","31","","","","Mainly Clear"
"1997-06-30 10:00","1997","06","30","10:00","27.0","","18.6","","60","","25","","4","","19.3","","100.33","","33","","","","Mostly Cloudy"
"1997-06-30 11:00","1997","06","30","11:00","28.4","","18.7","","56","","23","","6","","19.3","","100.33","","35","","","","Mainly Clear"
"1997-06-30 12:00","1997","06","30","12:00","29.9","","18.1","","49","","18","","11","","19.3","","100.26","","36","","","","Mainly Clear"
"1997-06-30 13:00","1997","06","30","13:00","30.8","","16.7","","43","","22","","13","","19.3","","100.19","","36","","","","Mainly Clear"
"1997-06-30 14:00","1997","06","30","14:00","31.4","","16.0","","40","","20","","13","","19.3","","100.16","","36","","","","Mainly Clear"
"1997-06-30 15:00","1997","06","30","15:00","30.9","","16.1","","41","","21","","13","","19.3","","100.13","","36","","","","Mainly Clear"
"1997-06-30 16:00","1997","06","30","16:00","31.5","","16.1","","40","","18","","15","","19.3","","100.06","","36","","","","Mostly Cloudy"
"1997-06-30 17:00","1997","06","30","17:00","30.3","","16.1","","42","","20","","15","","19.3","","100.03","","35","","","","Mostly Cloudy"
"1997-06-30 18:00","1997","06","30","18:00","29.6","","16.4","","45","","22","","9","","19.3","","99.99","","34","","","","Clear"
"1997-06-30 19:00","1997","06","30","19:00","27.7","","17.2","","53","","21","","6","","19.3","","100.03","","33","","","","Clear"
"1997-06-30 20:00","1997","06","30","20:00","26.1","","16.6","","56","","19","","4","","12.9","","100.03","","31","","","","Clear"
"1997-06-30 21:00","1997","06","30","21:00","25.0","","16.2","","58","","","","0","","19.3","","100.06","","30","","","","Clear"
"1997-06-30 22:00","1997","06","30","22:00","24.4","","16.1","","60","","20","","6","","19.3","","100.06","","29","","","","Clear"
"1997-06-30 23:00","1997","06","30","23:00","23.3","","16.1","","64","","20","","6","","19.3","","100.06","","28","","","","Clear"
