"Station Name","OTTAWA INTL A"
"Province","ONTARIO"
"Latitude","45.32"
"Longitude","-75.67"
"Elevation","114.90"
"Climate Identifier","6106001"
"WMO Identifier","71628"
"TC Identifier","YOW"
"All times are specified in Local Standard Time (LST). Add 1 hour to adjust for Daylight Saving Time where and when it is observed."

"Legend"
"E","Estimated"
"M","Missing"
"NA","Not Available"

"Date/Time","Year","Month","Day","Time","Temp (°C)","Temp Flag","Dew Point Temp (°C)","Dew Point Temp Flag","Rel Hum (%)","Rel Hum Flag","Wind Dir (10s deg)","Wind Dir Flag","Wind Spd (km/h)","Wind Spd Flag","Visibility (km)","Visibility Flag","Stn Press (kPa)","Stn Press Flag","Hmdx","Hmdx Flag","Wind Chill","Wind Chill Flag","Weather"
"2013-12-01 00:00","2013","12","01","00:00","-8.2","","-10.4","","84","","7","","12","","19.3","","100.90","","","","-14","","NA"
"2013-12-01 01:00","2013","12","01","01:00","-8.0","","-10.3","","84","","7","","12","","9.7","","100.85","","","","-13","","Snow"
"2013-12-01 02:00","2013","12","01","02:00","-7.8","","-9.8","","86","","7","","13","","11.3","","100.83","","","","-14","","Snow"
"2013-12-01 03:00","2013","12","01","03:00","-7.6","","-9.1","","89","","8","","10","","4.0","","100.78","","","","-12","","Snow"
"2013-12-01 04:00","2013","12","01","04:00","-7.3","","-8.7","","90","","6","","12","","3.2","","100.72","","","","-13","","Snow"
"2013-12-01 05:00","2013","12","01","05:00","-7.2","","-8.6","","90","","6","","10","","4.8","","100.68","","","","-12","","Snow"
"2013-12-01 06:00","2013","12","01","06:00","-7.0","","-8.2","","91","","5","","13","","8.1","","100.66","","","","-13","","Snow"
"2013-12-01 07:00","2013","12","01","07:00","-6.7","","-7.9","","91","","5","","12","","8.1","","100.67","","","","-12","","Snow"
"2013-12-01 08:00","2013","12","01","08:00","-6.2","","-7.4","","91","","5","","13","","8.1","","100.67","","","","-12","","Snow"
"2013-12-01 09:00","2013","12","01","09:00","-5.5","","-6.7","","91","","5","","14","","4.0","","100.70","","","","-11","","Snow,Fog"
"2013-12-01 10:00","2013","12","01","10:00","-4.9","","-6.3","","90","","4","","14","","8.1","","100.69","","","","-10","","Snow,Fog"
"2013-12-01 11:00","2013","12","01","11:00","-4.4","","-5.8","","90","","7","","9","","8.1","","100.66","","","","-8","","Snow,Fog"
"2013-12-01 12:00","2013","12","01","12:00","-3.7","","-5.3","","89","","6","","10","","9.7","","100.59","","","","-8","","Snow,Fog"
"2013-12-01 13:00","2013","12","01","13:00","-3.3","","-4.7","","90","","7","","10","","9.7","","100.54","","","","-7","","Snow,Fog"
"2013-12-01 14:00","2013","12","01","14:00","-3.1","","-4.4","","91","","5","","10","","9.7","","100.51","","","","-7","","Snow,Fog"
"2013-12-01 15:00","2013","12","01","15:00","-2.8","","-3.9","","92","","6","","12","","3.2","","100.50","","","","-7","","Snow"
"2013-12-01 16:00","2013","12","01","16:00","-2.7","","-3.7","","93","","7","","12","","3.2","","100.49","","","","-7","","Snow"
"2013-12-01 17:00","2013","12","01","17:00","-2.9","","-3.9","","93","","5","","14","","8.1","","100.49","","","","-8","","Snow"
"2013-12-01 18:00","2013","12","01","18:00","-2.9","","-3.7","","94","","5","","16","","4.8","","100.48","","","","-8","","Snow"
"2013-12-01 19:00","2013","12","01","19:00","-3.0","","-3.8","","94","","6","","11","","4.0","","100.49","","","","-7","","Snow"
"2013-12-01 20:00","2013","12","01","20:00","-3.1","","-4.1","","93","","6","","14","","3.2","","100.48","","","","-8","","Snow"
"2013-12-01 21:00","2013","12","01","21:00","-3.2","","-4.2","","93","","5","","12","","3.2","","100.44","","","","-8","","Snow"
"2013-12-01 22:00","2013","12","01","22:00","-3.2","","-4.0","","94","","5","","13","","3.2","","100.40","","","","-8","","Snow"
"2013-12-01 23:00","2013","12","01","23:00","-3.0","","-3.8","","94","","6","","17","","4.8","","100.37","","","","-9","","Snow"
"2013-12-02 00:00","2013","12","02","00:00","-2.9","","-3.7","","94","","6","","15","","4.8","","100.33","","","","-8","","Snow"
"2013-12-02 01:00","2013","12","02","01:00","-2.8","","-3.6","","94","","6","","13","","3.2","","100.29","","","","-7","","Snow"
"2013-12-02 02:00","2013","12","02","02:00","-2.6","","-3.4","","94","","7","","16","","4.0","","100.27","","","","-8","","Snow"
"2013-12-02 03:00","2013","12","02","03:00","-2.5","","-3.3","","94","","7","","13","","4.8","","100.24","","","","-7","","Snow"
"2013-12-02 04:00","2013","12","02","04:00","-2.4","","-3.2","","94","","6","","13","","4.8","","100.18","","","","-7","","Snow"
"2013-12-02 05:00","2013","12","02","05:00","-2.5","","-3.3","","94","","7","","12","","4.0","","100.13","","","","-7","","Snow"
"2013-12-02 06:00","2013","12","02","06:00","-2.5","","-3.3","","94","","8","","9","","4.0","","100.11","","","","-6","","Fog"
"2013-12-02 07:00","2013","12","02","07:00","-2.6","","-3.4","","94","","8","","14","","3.6","","100.11","","","","-7","","Fog"
"2013-12-02 08:00","2013","12","02","08:00","-2.6","","-3.3","","95","","8","","17","","2.4","","100.12","","","","-8","","Fog"
"2013-12-02 09:00","2013","12","02","09:00","-2.4","","-3.1","","95","","8","","18","","2.4","","100.08","","","","-8","","Snow,Fog"
"2013-12-02 10:00","2013","12","02","10:00","-2.1","","-3.1","","93","","9","","13","","4.8","","100.06","","","","-7","","Snow,Fog"
"2013-12-02 11:00","2013","12","02","11:00","-2.0","","-3.0","","93","","8","","13","","2.4","","100.04","","","","-6","","Snow,Fog"
"2013-12-02 12:00","2013","12","02","12:00","-1.6","","-2.9","","91","","9","","12","","3.2","","99.99","","","","-6","","Snow,Fog"
"2013-12-02 13:00","2013","12","02","13:00","-1.4","","-2.8","","90","","10","","15","","6.4","","99.95","","","","-6","","Snow,Fog"
"2013-12-02 14:00","2013","12","02","14:00","-1.2","","-2.5","","91","","8","","10","","6.4","","99.89","","","","-5","","Fog"
"2013-12-02 15:00","2013","12","02","15:00","-1.1","","-2.2","","92","","9","","14","","3.2","","99.88","","","","-6","","Fog"
"2013-12-02 16:00","2013","12","02","16:00","-1.1","","-1.9","","94","","8","","13","","3.2","","99.88","","","","-5","","Snow,Fog"
"2013-12-02 17:00","2013","12","02","17:00","-1.1","","-2.1","","93","","9","","11","","6.4","","99.87","","","","-5","","Fog"
"2013-12-02 18:00","2013","12","02","18:00","-1.2","","-2.0","","94","","9","","12","","6.4","","99.88","","","","-5","","Fog"
"2013-12-02 19:00","2013","12","02","19:00","-1.2","","-2.0","","94","","8","","10","","3.2","","99.91","","","","-5","","Snow,Fog"
"2013-12-02 20:00","2013","12","02","20:00","-1.3","","-2.0","","95","","7","","11","","2.8","","99.90","","","","-5","","Fog"
"2013-12-02 21:00","2013","12","02","21:00","-1.3","","-1.9","","96","","9","","9","","2.4","","99.93","","","","-5","","Fog"
"2013-12-02 22:00","2013","12","02","22:00","-1.2","","-1.8","","96","","9","","8","","2.4","","99.91","","","","-4","","Fog"
"2013-12-02 23:00","2013","12","02","23:00","-1.2","","-1.6","","97","","8","","7","","2.4","","99.90","","","","-4","","Fog"
"2013-12-03 00:00","2013","12","03","00:00","-1.3","","-1.7","","97","","7","","7","","1.6","","99.87","","","","-4","","Fog"
"2013-12-03 01:00","2013","12","03","01:00","-1.4","","-1.8","","97","","9","","7","","0.8","","99.89","","","","-4","","Fog"
"2013-12-03 02:00","2013","12","03","02:00","-1.4","","-1.7","","98","","6","","6","","0.6","","99.91","","","","-4","","Fog"
"2013-12-03 03:00","2013","12","03","03:00","-1.4","","-1.7","","98","","4","","9","","0.4","","99.91","","","","-5","","Freezing Fog"
"2013-12-03 04:00","2013","12","03","04:00","-1.4","","-1.7","","98","","12","","3","","0.4","","99.93","","","","-2","","Freezing Fog"
"2013-12-03 05:00","2013","12","03","05:00","-1.3","","-1.6","","98","","6","","1","","0.4","","99.96","","","","-2","","Freezing Fog"
"2013-12-03 06:00","2013","12","03","06:00","-1.4","","-1.7","","98","","11","","1","","0.2","","100.00","","","","-2","","Freezing Fog"
"2013-12-03 07:00","2013","12","03","07:00","-1.3","","-1.6","","98","","25","","3","","0.2","","100.00","","","","-2","","Freezing Fog"
"2013-12-03 08:00","2013","12","03","08:00","-1.8","","-2.1","","98","","18","","4","","0.2","","100.02","","","","-3","","Freezing Fog"
"2013-12-03 09:00","2013","12","03","09:00","-2.0","","-2.3","","98","","24","","4","","0.2","","100.06","","","","-3","","Freezing Fog"
"2013-12-03 10:00","2013","12","03","10:00","-0.9","","-1.3","","97","","31","","9","","6.4","","100.11","","","","-4","","Fog"
"2013-12-03 11:00","2013","12","03","11:00","-0.5","","-1.4","","94","","30","","6","","8.1","","100.12","","","","-3","","Fog"
"2013-12-03 12:00","2013","12","03","12:00","-0.2","","-1.8","","89","","26","","13","","9.7","","100.10","","","","-4","","Fog"
"2013-12-03 13:00","2013","12","03","13:00","-0.2","","-1.8","","89","","26","","8","","16.1","","100.09","","","","-3","","Cloudy"
"2013-12-03 14:00","2013","12","03","14:00","0.4","","-2.0","","84","","27","","6","","19.3","","100.09","","","","","","NA"
"2013-12-03 15:00","2013","12","03","15:00","0.1","","-2.6","","82","","29","","11","","19.3","","100.15","","","","","","NA"
"2013-12-03 16:00","2013","12","03","16:00","-0.5","","-3.4","","81","","26","","11","","24.1","","100.18","","","","-4","","Mostly Cloudy"
"2013-12-03 17:00","2013","12","03","17:00","-1.8","","-4.6","","81","","27","","8","","24.1","","100.22","","","","-5","","NA"
"2013-12-03 18:00","2013","12","03","18:00","-3.0","","-4.7","","88","","25","","7","","19.3","","100.25","","","","-6","","NA"
"2013-12-03 19:00","2013","12","03","19:00","-3.7","","-5.1","","90","","26","","10","","19.3","","100.31","","","","-8","","Mostly Cloudy"
"2013-12-03 20:00","2013","12","03","20:00","-3.5","","-4.9","","90","","25","","9","","24.1","","100.31","","","","-7","","NA"
"2013-12-03 21:00","2013","12","03","21:00","-3.1","","-4.5","","90","","27","","8","","24.1","","100.33","","","","-6","","NA"
"2013-12-03 22:00","2013","12","03","22:00","-3.4","","-4.7","","91","","25","","13","","24.1","","100.35","","","","-8","","Mostly Cloudy"
"2013-12-03 23:00","2013","12","03","23:00","-3.5","","-4.9","","90","","26","","11","","24.1","","100.34","","","","-8","","NA"
"2013-12-04 00:00","2013","12","04","00:00","-5.2","","-6.2","","93","","26","","8","","24.1","","100.33","","","","-9","","NA"
"2013-12-04 01:00","2013","12","04","01:00","-6.1","","-6.8","","95","","29","","9","","16.1","","100.37","","","","-10","","Mainly Clear"
"2013-12-04 02:00","2013","12","04","02:00","-6.3","","-6.8","","96","","27","","6","","12.9","","100.43","","","","-9","","Fog"
"2013-12-04 03:00","2013","12","04","03:00","-6.5","","-7.5","","93","","24","","7","","9.7","","100.45","","","","-10","","Fog"
"2013-12-04 04:00","2013","12","04","04:00","-7.7","","-8.4","","95","","33","","7","","12.9","","100.43","","","","-11","","Fog"
"2013-12-04 05:00","2013","12","04","05:00","-7.2","","-8.3","","92","","32","","9","","12.9","","100.50","","","","-12","","Fog"
"2013-12-04 06:00","2013","12","04","06:00","-5.9","","-6.7","","94","","31","","6","","12.9","","100.54","","","","-9","","Fog"
"2013-12-04 07:00","2013","12","04","07:00","-6.0","","-7.1","","92","","28","","8","","12.9","","100.61","","","","-10","","Fog"
"2013-12-04 08:00","2013","12","04","08:00","-4.9","","-5.6","","95","","34","","4","","12.9","","100.65","","","","-7","","Fog"
"2013-12-04 09:00","2013","12","04","09:00","-3.8","","-4.5","","95","","2","","3","","16.1","","100.65","","","","-5","","NA"
"2013-12-04 10:00","2013","12","04","10:00","-1.9","","-2.5","","96","","36","","5","","16.1","","100.73","","","","-4","","Cloudy"
"2013-12-04 11:00","2013","12","04","11:00","-1.3","","-1.9","","96","","5","","10","","16.1","","100.65","","","","-5","","Snow"
"2013-12-04 12:00","2013","12","04","12:00","-0.6","","-1.9","","91","","7","","9","","9.7","","100.61","","","","-4","","Snow"
"2013-12-04 13:00","2013","12","04","13:00","0.3","","-2.6","","81","","6","","10","","16.1","","100.57","","","","","","Snow"
"2013-12-04 14:00","2013","12","04","14:00","0.4","","-2.3","","82","","7","","10","","19.3","","100.49","","","","","","Snow"
"2013-12-04 15:00","2013","12","04","15:00","0.3","","-2.6","","81","","6","","14","","24.1","","100.53","","","","","","NA"
"2013-12-04 16:00","2013","12","04","16:00","0.3","","-2.4","","82","","4","","12","","24.1","","100.63","","","","","","Cloudy"
"2013-12-04 17:00","2013","12","04","17:00","0.1","","-2.8","","81","","5","","14","","19.3","","100.61","","","","","","NA"
"2013-12-04 18:00","2013","12","04","18:00","0.1","","-2.9","","80","","5","","13","","19.3","","100.60","","","","","","NA"
"2013-12-04 19:00","2013","12","04","19:00","-0.4","","-3.6","","79","","5","","18","","19.3","","100.57","","","","-5","","Mostly Cloudy"
"2013-12-04 20:00","2013","12","04","20:00","-0.9","","-3.9","","80","","7","","17","","24.1","","100.48","","","","-6","","NA"
"2013-12-04 21:00","2013","12","04","21:00","-1.3","","-4.2","","81","","6","","17","","24.1","","100.54","","","","-6","","NA"
"2013-12-04 22:00","2013","12","04","22:00","-1.0","","-3.9","","81","","7","","22","","16.1","","100.43","","","","-7","","Cloudy"
"2013-12-04 23:00","2013","12","04","23:00","-0.5","","-3.5","","80","","8","","29","","16.1","","100.37","","","","-7","","NA"
"2013-12-05 00:00","2013","12","05","00:00","-0.4","","-3.4","","80","","8","","28","","16.1","","100.35","","","","-7","","NA"
"2013-12-05 01:00","2013","12","05","01:00","-0.5","","-3.4","","81","","9","","27","","16.1","","100.28","","","","-7","","Cloudy"
"2013-12-05 02:00","2013","12","05","02:00","-0.5","","-3.2","","82","","8","","30","","12.9","","100.24","","","","-7","","NA"
"2013-12-05 03:00","2013","12","05","03:00","-0.5","","-3.0","","83","","8","","30","","12.9","","100.08","","","","-7","","NA"
"2013-12-05 04:00","2013","12","05","04:00","-0.4","","-2.9","","83","","8","","26","","12.9","","99.95","","","","-7","","Cloudy"
"2013-12-05 05:00","2013","12","05","05:00","-0.3","","-2.7","","84","","7","","22","","12.9","","99.90","","","","-6","","NA"
"2013-12-05 06:00","2013","12","05","06:00","-0.5","","-2.4","","87","","8","","33","","12.9","","99.74","","","","-7","","NA"
"2013-12-05 07:00","2013","12","05","07:00","-0.4","","-2.0","","89","","8","","27","","12.9","","99.67","","","","-7","","Cloudy"
"2013-12-05 08:00","2013","12","05","08:00","0.0","","-1.5","","90","","10","","24","","12.9","","99.63","","","","-6","","NA"
"2013-12-05 09:00","2013","12","05","09:00","0.2","","-0.7","","94","","9","","19","","12.9","","99.56","","","","","","Freezing Rain"
"2013-12-05 10:00","2013","12","05","10:00","0.4","","-0.5","","94","","10","","16","","9.7","","99.53","","","","","","Rain,Fog"
"2013-12-05 11:00","2013","12","05","11:00","1.4","","0.5","","94","","11","","17","","4.8","","99.41","","","","","","Fog"
"2013-12-05 12:00","2013","12","05","12:00","2.0","","1.1","","94","","10","","11","","4.8","","99.35","","","","","","Fog"
"2013-12-05 13:00","2013","12","05","13:00","2.6","","1.7","","94","","11","","14","","6.4","","99.26","","","","","","Fog"
"2013-12-05 14:00","2013","12","05","14:00","3.8","","2.8","","93","","10","","10","","9.7","","99.18","","","","","","Fog"
"2013-12-05 15:00","2013","12","05","15:00","8.6","","6.6","","87","","17","","19","","16.1","","99.09","","","","","","NA"
"2013-12-05 16:00","2013","12","05","16:00","8.6","","6.7","","88","","18","","19","","16.1","","99.12","","","","","","Cloudy"
"2013-12-05 17:00","2013","12","05","17:00","7.5","","6.3","","92","","20","","10","","16.1","","99.20","","","","","","NA"
"2013-12-05 18:00","2013","12","05","18:00","7.4","","6.7","","95","","20","","12","","12.9","","99.28","","","","","","NA"
"2013-12-05 19:00","2013","12","05","19:00","7.2","","5.0","","86","","28","","24","","12.9","","99.44","","","","","","Cloudy"
"2013-12-05 20:00","2013","12","05","20:00","4.8","","1.1","","77","","28","","20","","24.1","","99.64","","","","","","NA"
"2013-12-05 21:00","2013","12","05","21:00","3.7","","0.6","","80","","23","","14","","24.1","","99.68","","","","","","NA"
"2013-12-05 22:00","2013","12","05","22:00","3.6","","-0.8","","73","","25","","16","","24.1","","99.79","","","","","","Cloudy"
"2013-12-05 23:00","2013","12","05","23:00","3.2","","-1.2","","73","","24","","22","","24.1","","99.90","","","","","","NA"
"2013-12-06 00:00","2013","12","06","00:00","3.3","","-1.7","","70","","24","","19","","24.1","","99.89","","","","","","NA"
"2013-12-06 01:00","2013","12","06","01:00","2.8","","-1.9","","71","","25","","17","","24.1","","99.93","","","","","","Cloudy"
"2013-12-06 02:00","2013","12","06","02:00","2.7","","-2.0","","71","","23","","17","","24.1","","99.98","","","","","","NA"
"2013-12-06 03:00","2013","12","06","03:00","2.4","","-2.0","","73","","23","","14","","24.1","","100.06","","","","","","NA"
"2013-12-06 04:00","2013","12","06","04:00","2.0","","-2.2","","74","","22","","14","","24.1","","100.01","","","","","","Cloudy"
"2013-12-06 05:00","2013","12","06","05:00","1.8","","-2.3","","74","","23","","15","","24.1","","99.99","","","","","","NA"
"2013-12-06 06:00","2013","12","06","06:00","1.4","","-2.6","","75","","23","","15","","24.1","","100.09","","","","","","NA"
"2013-12-06 07:00","2013","12","06","07:00","0.9","","-3.6","","72","","24","","13","","24.1","","100.18","","","","","","Mostly Cloudy"
"2013-12-06 08:00","2013","12","06","08:00","0.3","","-4.4","","71","","27","","14","","24.1","","100.28","","","","","","NA"
"2013-12-06 09:00","2013","12","06","09:00","0.7","","-4.5","","68","","26","","14","","24.1","","100.37","","","","","","NA"
"2013-12-06 10:00","2013","12","06","10:00","0.9","","-5.0","","65","","26","","13","","24.1","","100.43","","","","","","Mostly Cloudy"
"2013-12-06 11:00","2013","12","06","11:00","1.2","","-6.0","","59","","25","","24","","24.1","","100.47","","","","","","NA"
"2013-12-06 12:00","2013","12","06","12:00","1.0","","-6.8","","56","","27","","22","","24.1","","100.50","","","","","","NA"
"2013-12-06 13:00","2013","12","06","13:00","0.7","","-6.9","","57","","30","","21","","24.1","","100.51","","","","","","Cloudy"
"2013-12-06 14:00","2013","12","06","14:00","0.4","","-6.9","","58","","28","","17","","24.1","","100.52","","","","","","NA"
"2013-12-06 15:00","2013","12","06","15:00","-0.6","","-7.7","","59","","30","","17","","24.1","","100.50","","","","-6","","NA"
"2013-12-06 16:00","2013","12","06","16:00","-1.1","","-8.1","","59","","30","","13","","24.1","","100.53","","","","-5","","Mostly Cloudy"
"2013-12-06 17:00","2013","12","06","17:00","-1.4","","-8.2","","60","","28","","9","","24.1","","100.59","","","","-5","","NA"
"2013-12-06 18:00","2013","12","06","18:00","-1.6","","-8.8","","58","","27","","9","","24.1","","100.65","","","","-5","","NA"
"2013-12-06 19:00","2013","12","06","19:00","-1.7","","-8.1","","62","","29","","5","","24.1","","100.61","","","","-4","","Mostly Cloudy"
"2013-12-06 20:00","2013","12","06","20:00","-2.2","","-8.7","","61","","27","","8","","24.1","","100.68","","","","-5","","NA"
"2013-12-06 21:00","2013","12","06","21:00","-2.6","","-8.7","","63","","26","","9","","24.1","","100.74","","","","-6","","NA"
"2013-12-06 22:00","2013","12","06","22:00","-2.2","","-9.2","","59","","28","","15","","24.1","","100.78","","","","-7","","Cloudy"
"2013-12-06 23:00","2013","12","06","23:00","-2.5","","-10.4","","55","","29","","22","","24.1","","100.85","","","","-9","","NA"
"2013-12-07 00:00","2013","12","07","00:00","-4.1","","-10.8","","60","","31","","22","","24.1","","100.81","","","","-11","","NA"
"2013-12-07 01:00","2013","12","07","01:00","-4.2","","-10.7","","61","","30","","18","","24.1","","100.88","","","","-10","","Mostly Cloudy"
"2013-12-07 02:00","2013","12","07","02:00","-4.3","","-11.0","","60","","29","","17","","24.1","","100.89","","","","-10","","NA"
"2013-12-07 03:00","2013","12","07","03:00","-4.6","","-11.5","","59","","28","","20","","24.1","","100.94","","","","-11","","NA"
"2013-12-07 04:00","2013","12","07","04:00","-6.2","","-11.8","","65","","27","","13","","24.1","","100.99","","","","-12","","Mainly Clear"
"2013-12-07 05:00","2013","12","07","05:00","-7.3","","-12.2","","68","","27","","12","","24.1","","101.05","","","","-13","","NA"
"2013-12-07 06:00","2013","12","07","06:00","-7.3","","-12.2","","68","","25","","8","","24.1","","101.08","","","","-11","","NA"
"2013-12-07 07:00","2013","12","07","07:00","-7.0","","-12.0","","68","","27","","14","","24.1","","101.15","","","","-13","","Mostly Cloudy"
"2013-12-07 08:00","2013","12","07","08:00","-8.0","","-12.7","","69","","26","","9","","24.1","","101.22","","","","-13","","NA"
"2013-12-07 09:00","2013","12","07","09:00","-6.2","","-13.0","","59","","28","","17","","24.1","","101.30","","","","-12","","NA"
"2013-12-07 10:00","2013","12","07","10:00","-5.3","","-12.6","","57","","29","","25","","24.1","","101.36","","","","-13","","Mainly Clear"
"2013-12-07 11:00","2013","12","07","11:00","-4.4","","-11.7","","57","","30","","19","","24.1","","101.37","","","","-11","","NA"
"2013-12-07 12:00","2013","12","07","12:00","-3.6","","-12.6","","50","","27","","24","","24.1","","101.34","","","","-10","","NA"
"2013-12-07 13:00","2013","12","07","13:00","-3.0","","-12.3","","49","","29","","27","","24.1","","101.31","","","","-10","","Mostly Cloudy"
"2013-12-07 14:00","2013","12","07","14:00","-3.2","","-12.0","","51","","29","","18","","24.1","","101.31","","","","-9","","NA"
"2013-12-07 15:00","2013","12","07","15:00","-3.2","","-11.7","","52","","29","","18","","24.1","","101.38","","","","-9","","NA"
"2013-12-07 16:00","2013","12","07","16:00","-4.6","","-12.1","","56","","30","","13","","24.1","","101.42","","","","-10","","Mostly Cloudy"
"2013-12-07 17:00","2013","12","07","17:00","-6.1","","-12.1","","63","","29","","9","","24.1","","101.46","","","","-10","","NA"
"2013-12-07 18:00","2013","12","07","18:00","-6.0","","-13.0","","58","","27","","11","","24.1","","101.52","","","","-11","","NA"
"2013-12-07 19:00","2013","12","07","19:00","-7.8","","-13.1","","66","","26","","11","","24.1","","101.61","","","","-13","","Mainly Clear"
"2013-12-07 20:00","2013","12","07","20:00","-6.0","","-12.4","","61","","30","","19","","24.1","","101.66","","","","-13","","NA"
"2013-12-07 21:00","2013","12","07","21:00","-6.6","","-12.5","","63","","30","","14","","24.1","","101.71","","","","-12","","NA"
"2013-12-07 22:00","2013","12","07","22:00","-6.3","","-13.1","","59","","30","","14","","24.1","","101.78","","","","-12","","Mostly Cloudy"
"2013-12-07 23:00","2013","12","07","23:00","-6.7","","-12.2","","65","","28","","6","","24.1","","101.78","","","","-10","","NA"
"2013-12-08 00:00","2013","12","08","00:00","-7.3","","-13.0","","64","","21","","7","","24.1","","101.83","","","","-11","","NA"
"2013-12-08 01:00","2013","12","08","01:00","-8.1","","-13.8","","64","","25","","7","","24.1","","101.84","","","","-12","","Clear"
"2013-12-08 02:00","2013","12","08","02:00","-9.0","","-13.2","","72","","21","","8","","24.1","","101.85","","","","-13","","NA"
"2013-12-08 03:00","2013","12","08","03:00","-9.0","","-13.0","","73","","23","","9","","24.1","","101.86","","","","-14","","NA"
"2013-12-08 04:00","2013","12","08","04:00","-9.0","","-13.5","","70","","28","","8","","24.1","","101.88","","","","-13","","Mostly Cloudy"
"2013-12-08 05:00","2013","12","08","05:00","-8.1","","-12.8","","69","","28","","8","","24.1","","101.94","","","","-12","","NA"
"2013-12-08 06:00","2013","12","08","06:00","-7.7","","-12.5","","69","","27","","8","","24.1","","101.99","","","","-12","","NA"
"2013-12-08 07:00","2013","12","08","07:00","-7.6","","-12.4","","69","","28","","9","","24.1","","102.05","","","","-12","","Mostly Cloudy"
"2013-12-08 08:00","2013","12","08","08:00","-7.6","","-11.8","","72","","31","","6","","24.1","","102.00","","","","-11","","NA"
"2013-12-08 09:00","2013","12","08","09:00","-7.0","","-11.4","","71","","25","","4","","24.1","","102.04","","","","-9","","NA"
"2013-12-08 10:00","2013","12","08","10:00","-6.0","","-11.8","","64","","23","","5","","24.1","","102.12","","","","-8","","Mainly Clear"
"2013-12-08 11:00","2013","12","08","11:00","-4.9","","-13.6","","51","","26","","9","","24.1","","102.06","","","","-9","","NA"
"2013-12-08 12:00","2013","12","08","12:00","-4.3","","-12.1","","55","","23","","5","","24.1","","102.02","","","","-6","","NA"
"2013-12-08 13:00","2013","12","08","13:00","-3.6","","-12.1","","52","","23","","5","","24.1","","101.94","","","","-6","","Mostly Cloudy"
"2013-12-08 14:00","2013","12","08","14:00","-3.3","","-11.6","","53","","16","","2","","24.1","","101.89","","","","-4","","NA"
"2013-12-08 15:00","2013","12","08","15:00","-3.4","","-11.2","","55","","5","","4","","24.1","","101.89","","","","-5","","NA"
"2013-12-08 16:00","2013","12","08","16:00","-3.6","","-12.1","","52","","12","","3","","24.1","","101.91","","","","-5","","Cloudy"
"2013-12-08 17:00","2013","12","08","17:00","-5.1","","-11.5","","61","","9","","9","","24.1","","101.90","","","","-9","","NA"
"2013-12-08 18:00","2013","12","08","18:00","-5.8","","-10.6","","69","","9","","11","","24.1","","101.85","","","","-11","","NA"
"2013-12-08 19:00","2013","12","08","19:00","-6.7","","-11.1","","71","","8","","10","","24.1","","101.80","","","","-11","","Mostly Cloudy"
"2013-12-08 20:00","2013","12","08","20:00","-6.5","","-11.1","","70","","9","","12","","24.1","","101.77","","","","-12","","NA"
"2013-12-08 21:00","2013","12","08","21:00","-6.1","","-10.7","","70","","10","","12","","24.1","","101.75","","","","-11","","NA"
"2013-12-08 22:00","2013","12","08","22:00","-5.9","","-10.9","","68","","10","","15","","24.1","","101.69","","","","-12","","Cloudy"
"2013-12-08 23:00","2013","12","08","23:00","-5.9","","-10.5","","70","","9","","14","","24.1","","101.58","","","","-11","","NA"
"2013-12-09 00:00","2013","12","09","00:00","-5.9","","-10.4","","71","","9","","15","","24.1","","101.49","","","","-12","","NA"
"2013-12-09 01:00","2013","12","09","01:00","-5.8","","-10.4","","70","","8","","18","","24.1","","101.35","","","","-12","","Cloudy"
"2013-12-09 02:00","2013","12","09","02:00","-5.7","","-9.6","","74","","8","","21","","11.3","","101.22","","","","-13","","Snow"
"2013-12-09 03:00","2013","12","09","03:00","-5.7","","-9.5","","75","","8","","23","","24.1","","101.02","","","","-13","","NA"
"2013-12-09 04:00","2013","12","09","04:00","-5.5","","-9.4","","74","","9","","22","","24.1","","100.83","","","","-13","","Cloudy"
"2013-12-09 05:00","2013","12","09","05:00","-5.7","","-8.3","","82","","8","","22","","3.2","","100.66","","","","-13","","Snow"
"2013-12-09 06:00","2013","12","09","06:00","-6.2","","-7.9","","88","","8","","31","","2.4","","100.48","","","","-15","","Snow,Blowing Snow"
"2013-12-09 07:00","2013","12","09","07:00","-6.1","","-7.6","","89","","8","","26","","2.4","","100.31","","","","-14","","Snow,Blowing Snow"
"2013-12-09 08:00","2013","12","09","08:00","-5.9","","-7.4","","89","","8","","27","","2.4","","100.13","","","","-14","","Snow,Blowing Snow"
"2013-12-09 09:00","2013","12","09","09:00","-5.8","","-7.3","","89","","6","","25","","2.4","","100.05","","","","-13","","Snow,Fog,Blowing Snow"
"2013-12-09 10:00","2013","12","09","10:00","-5.4","","-6.9","","89","","7","","20","","1.6","","99.95","","","","-12","","Snow,Fog,Blowing Snow"
"2013-12-09 11:00","2013","12","09","11:00","-4.9","","-6.3","","90","","17","","4","","2.4","","99.84","","","","-7","","Snow,Fog,Blowing Snow"
"2013-12-09 12:00","2013","12","09","12:00","-4.0","","-5.4","","90","","10","","20","","8.1","","99.61","","","","-10","","Snow,Fog,Blowing Snow"
"2013-12-09 13:00","2013","12","09","13:00","-3.1","","-4.4","","91","","10","","19","","9.7","","99.45","","","","-9","","Snow,Fog,Blowing Snow"
"2013-12-09 14:00","2013","12","09","14:00","-1.8","","-2.6","","94","","15","","8","","3.2","","99.39","","","","-5","","Snow,Fog"
"2013-12-09 15:00","2013","12","09","15:00","-0.6","","-1.3","","95","","17","","9","","9.7","","99.34","","","","-4","","Snow,Fog"
"2013-12-09 16:00","2013","12","09","16:00","1.2","","0.5","","95","","22","","19","","9.7","","99.33","","","","","","Snow,Fog"
"2013-12-09 17:00","2013","12","09","17:00","1.4","","-0.2","","89","","22","","24","","9.7","","99.36","","","","","","Rain,Fog"
"2013-12-09 18:00","2013","12","09","18:00","1.3","","-2.8","","74","","24","","35","","19.3","","99.48","","","","","","Rain"
"2013-12-09 19:00","2013","12","09","19:00","1.0","","-3.5","","72","","23","","23","","19.3","","99.56","","","","","","Cloudy"
"2013-12-09 20:00","2013","12","09","20:00","0.8","","-4.3","","69","","23","","30","","19.3","","99.61","","","","","","NA"
"2013-12-09 21:00","2013","12","09","21:00","0.5","","-4.2","","71","","22","","29","","19.3","","99.59","","","","","","NA"
"2013-12-09 22:00","2013","12","09","22:00","0.3","","-4.4","","71","","21","","24","","24.1","","99.52","","","","","","Cloudy"
"2013-12-09 23:00","2013","12","09","23:00","0.1","","-4.7","","70","","21","","22","","24.1","","99.54","","","","","","NA"
"2013-12-10 00:00","2013","12","10","00:00","-0.2","","-6.0","","65","","24","","32","","24.1","","99.57","","","","-7","","Snow"
"2013-12-10 01:00","2013","12","10","01:00","-1.8","","-9.0","","58","","24","","27","","24.1","","99.55","","","","-8","","Mainly Clear"
"2013-12-10 02:00","2013","12","10","02:00","-2.5","","-9.2","","60","","24","","40","","24.1","","99.59","","","","-11","","NA"
"2013-12-10 03:00","2013","12","10","03:00","-3.2","","-10.3","","58","","24","","31","","24.1","","99.66","","","","-11","","NA"
"2013-12-10 04:00","2013","12","10","04:00","-4.0","","-10.5","","61","","24","","26","","24.1","","99.71","","","","-11","","Mainly Clear"
"2013-12-10 05:00","2013","12","10","05:00","-4.4","","-10.2","","64","","23","","21","","24.1","","99.75","","","","-11","","NA"
"2013-12-10 06:00","2013","12","10","06:00","-4.8","","-9.8","","68","","25","","24","","24.1","","99.85","","","","-12","","Snow"
"2013-12-10 07:00","2013","12","10","07:00","-5.6","","-8.2","","82","","28","","17","","3.2","","99.85","","","","-12","","Snow"
"2013-12-10 08:00","2013","12","10","08:00","-6.0","","-7.8","","87","","30","","17","","1.6","","99.91","","","","-12","","Moderate Snow"
"2013-12-10 09:00","2013","12","10","09:00","-6.3","","-8.3","","86","","25","","17","","4.8","","99.89","","","","-13","","Snow"
"2013-12-10 10:00","2013","12","10","10:00","-7.2","","-10.1","","80","","28","","17","","16.1","","99.92","","","","-14","","Snow"
"2013-12-10 11:00","2013","12","10","11:00","-6.6","","-11.4","","69","","28","","15","","24.1","","99.86","","","","-13","","NA"
"2013-12-10 12:00","2013","12","10","12:00","-5.8","","-13.5","","55","","30","","22","","24.1","","99.77","","","","-13","","NA"
"2013-12-10 13:00","2013","12","10","13:00","-5.9","","-13.8","","54","","27","","22","","24.1","","99.71","","","","-13","","Mainly Clear"
"2013-12-10 14:00","2013","12","10","14:00","-5.8","","-13.9","","53","","26","","21","","24.1","","99.63","","","","-13","","NA"
"2013-12-10 15:00","2013","12","10","15:00","-6.2","","-13.6","","56","","28","","14","","24.1","","99.65","","","","-12","","NA"
"2013-12-10 16:00","2013","12","10","16:00","-7.1","","-13.0","","63","","25","","6","","24.1","","99.66","","","","-10","","Mostly Cloudy"
"2013-12-10 17:00","2013","12","10","17:00","-7.7","","-12.6","","68","","26","","4","","24.1","","99.70","","","","-10","","NA"
"2013-12-10 18:00","2013","12","10","18:00","-8.0","","-12.6","","70","","13","","4","","24.1","","99.69","","","","-10","","NA"
"2013-12-10 19:00","2013","12","10","19:00","-9.0","","-12.5","","76","","22","","8","","24.1","","99.76","","","","-13","","Mostly Cloudy"
"2013-12-10 20:00","2013","12","10","20:00","-8.4","","-13.5","","67","","24","","20","","24.1","","99.79","","","","-16","","NA"
"2013-12-10 21:00","2013","12","10","21:00","-8.5","","-14.0","","65","","24","","15","","24.1","","99.81","","","","-15","","NA"
"2013-12-10 22:00","2013","12","10","22:00","-9.6","","-14.8","","66","","23","","15","","24.1","","99.85","","","","-16","","Mostly Cloudy"
"2013-12-10 23:00","2013","12","10","23:00","-9.8","","-15.2","","65","","23","","15","","24.1","","99.84","","","","-16","","NA"
"2013-12-11 00:00","2013","12","11","00:00","-11.0","","-15.6","","69","","22","","9","","24.1","","99.89","","","","-16","","NA"
"2013-12-11 01:00","2013","12","11","01:00","-10.1","","-14.8","","69","","24","","12","","24.1","","99.88","","","","-16","","Mainly Clear"
"2013-12-11 02:00","2013","12","11","02:00","-10.1","","-14.2","","72","","26","","9","","24.1","","99.97","","","","-15","","NA"
"2013-12-11 03:00","2013","12","11","03:00","-10.7","","-14.2","","76","","25","","13","","24.1","","100.04","","","","-17","","NA"
"2013-12-11 04:00","2013","12","11","04:00","-9.9","","-13.4","","76","","25","","18","","16.1","","100.08","","","","-17","","Mainly Clear"
"2013-12-11 05:00","2013","12","11","05:00","-10.7","","-14.0","","77","","25","","14","","16.1","","100.15","","","","-17","","NA"
"2013-12-11 06:00","2013","12","11","06:00","-8.8","","-12.3","","76","","26","","23","","16.1","","100.22","","","","-17","","NA"
"2013-12-11 07:00","2013","12","11","07:00","-8.9","","-12.1","","78","","24","","12","","24.1","","100.29","","","","-15","","Cloudy"
"2013-12-11 08:00","2013","12","11","08:00","-8.1","","-11.5","","77","","24","","18","","24.1","","100.32","","","","-15","","NA"
"2013-12-11 09:00","2013","12","11","09:00","-8.0","","-9.8","","87","","24","","19","","1.6","","100.38","","","","-15","","Snow Showers"
"2013-12-11 10:00","2013","12","11","10:00","-7.5","","-10.9","","77","","25","","21","","12.9","","100.40","","","","-15","","Cloudy"
"2013-12-11 11:00","2013","12","11","11:00","-7.4","","-10.8","","77","","25","","23","","12.9","","100.41","","","","-15","","Snow Showers"
"2013-12-11 12:00","2013","12","11","12:00","-7.1","","-13.0","","63","","28","","29","","19.3","","100.41","","","","-16","","NA"
"2013-12-11 13:00","2013","12","11","13:00","-6.9","","-15.4","","51","","28","","28","","24.1","","100.38","","","","-15","","Mostly Cloudy"
"2013-12-11 14:00","2013","12","11","14:00","-8.0","","-14.7","","59","","30","","27","","24.1","","100.43","","","","-16","","NA"
"2013-12-11 15:00","2013","12","11","15:00","-8.8","","-16.3","","55","","29","","28","","24.1","","100.48","","","","-18","","NA"
"2013-12-11 16:00","2013","12","11","16:00","-9.4","","-16.9","","55","","29","","15","","24.1","","100.53","","","","-16","","Mostly Cloudy"
"2013-12-11 17:00","2013","12","11","17:00","-10.1","","-17.1","","57","","28","","8","","24.1","","100.59","","","","-15","","NA"
"2013-12-11 18:00","2013","12","11","18:00","-11.5","","-17.8","","60","","28","","12","","24.1","","100.63","","","","-18","","NA"
"2013-12-11 19:00","2013","12","11","19:00","-12.0","","-18.1","","61","","25","","9","","24.1","","100.69","","","","-17","","Clear"
"2013-12-11 20:00","2013","12","11","20:00","-13.6","","-18.9","","65","","28","","13","","24.1","","100.75","","","","-21","","NA"
"2013-12-11 21:00","2013","12","11","21:00","-12.5","","-19.6","","56","","28","","24","","24.1","","100.81","","","","-22","","NA"
"2013-12-11 22:00","2013","12","11","22:00","-13.0","","-19.8","","57","","29","","19","","24.1","","100.88","","","","-21","","Clear"
"2013-12-11 23:00","2013","12","11","23:00","-14.3","","-20.5","","60","","30","","18","","24.1","","100.93","","","","-23","","NA"
"2013-12-12 00:00","2013","12","12","00:00","-15.6","","-21.3","","62","","29","","9","","24.1","","100.99","","","","-22","","NA"
"2013-12-12 01:00","2013","12","12","01:00","-16.9","","-21.5","","68","","26","","8","","24.1","","100.99","","","","-23","","Clear"
"2013-12-12 02:00","2013","12","12","02:00","-17.5","","-21.3","","73","","24","","9","","24.1","","101.07","","","","-24","","NA"
"2013-12-12 03:00","2013","12","12","03:00","-18.0","","-21.6","","74","","25","","9","","24.1","","101.10","","","","-24","","NA"
"2013-12-12 04:00","2013","12","12","04:00","-19.1","","-21.9","","79","","21","","10","","24.1","","101.10","","","","-26","","Clear"
"2013-12-12 05:00","2013","12","12","05:00","-19.6","","-22.4","","79","","22","","10","","24.1","","101.12","","","","-27","","NA"
"2013-12-12 06:00","2013","12","12","06:00","-19.9","","-22.5","","80","","24","","6","","24.1","","101.14","","","","-25","","NA"
"2013-12-12 07:00","2013","12","12","07:00","-21.3","","-23.6","","82","","23","","4","","24.1","","101.15","","","","-25","","Mainly Clear"
"2013-12-12 08:00","2013","12","12","08:00","-20.0","","-22.9","","78","","21","","8","","24.1","","101.12","","","","-26","","NA"
"2013-12-12 09:00","2013","12","12","09:00","-18.4","","-22.0","","74","","19","","6","","24.1","","101.10","","","","-23","","NA"
"2013-12-12 10:00","2013","12","12","10:00","-16.6","","-20.9","","70","","19","","8","","24.1","","101.05","","","","-22","","Mostly Cloudy"
"2013-12-12 11:00","2013","12","12","11:00","-14.4","","-21.2","","57","","20","","10","","24.1","","100.94","","","","-21","","NA"
"2013-12-12 12:00","2013","12","12","12:00","-12.6","","-19.9","","55","","18","","7","","12.9","","100.77","","","","-17","","Snow"
"2013-12-12 13:00","2013","12","12","13:00","-10.7","","-19.5","","49","","16","","14","","24.1","","100.62","","","","-17","","Mostly Cloudy"
"2013-12-12 14:00","2013","12","12","14:00","-9.5","","-17.6","","52","","20","","21","","24.1","","100.46","","","","-17","","NA"
"2013-12-12 15:00","2013","12","12","15:00","-8.9","","-16.0","","57","","20","","15","","24.1","","100.36","","","","-15","","NA"
"2013-12-12 16:00","2013","12","12","16:00","-8.5","","-14.2","","64","","19","","12","","24.1","","100.27","","","","-14","","Mostly Cloudy"
"2013-12-12 17:00","2013","12","12","17:00","-9.1","","-13.3","","72","","20","","10","","24.1","","100.23","","","","-14","","NA"
"2013-12-12 18:00","2013","12","12","18:00","-8.6","","-15.7","","57","","22","","18","","24.1","","100.19","","","","-16","","NA"
"2013-12-12 19:00","2013","12","12","19:00","-9.5","","-16.3","","58","","23","","21","","24.1","","100.13","","","","-17","","Mainly Clear"
"2013-12-12 20:00","2013","12","12","20:00","-10.0","","-16.6","","59","","22","","23","","24.1","","100.05","","","","-18","","NA"
"2013-12-12 21:00","2013","12","12","21:00","-9.8","","-16.2","","60","","21","","26","","24.1","","99.92","","","","-19","","NA"
"2013-12-12 22:00","2013","12","12","22:00","-9.5","","-15.5","","62","","25","","28","","24.1","","99.89","","","","-19","","Cloudy"
"2013-12-12 23:00","2013","12","12","23:00","-10.0","","-15.4","","65","","25","","23","","24.1","","99.81","","","","-18","","NA"
"2013-12-13 00:00","2013","12","13","00:00","-10.0","","-15.0","","67","","24","","27","","24.1","","99.79","","","","-19","","NA"
"2013-12-13 01:00","2013","12","13","01:00","-10.2","","-14.9","","69","","25","","16","","24.1","","99.80","","","","-17","","Mainly Clear"
"2013-12-13 02:00","2013","12","13","02:00","-10.3","","-14.8","","70","","26","","22","","24.1","","99.88","","","","-19","","NA"
"2013-12-13 03:00","2013","12","13","03:00","-10.1","","-15.3","","66","","29","","24","","24.1","","99.93","","","","-19","","NA"
"2013-12-13 04:00","2013","12","13","04:00","-11.4","","-17.1","","63","","26","","14","","24.1","","99.90","","","","-18","","Mostly Cloudy"
"2013-12-13 05:00","2013","12","13","05:00","-11.2","","-17.1","","62","","26","","21","","24.1","","99.99","","","","-20","","Snow Showers"
"2013-12-13 06:00","2013","12","13","06:00","-11.6","","-14.9","","77","","26","","20","","4.8","","100.09","","","","-20","","Snow Showers"
"2013-12-13 07:00","2013","12","13","07:00","-12.2","","-15.5","","77","","29","","21","","16.1","","100.21","","","","-21","","Snow Showers"
"2013-12-13 08:00","2013","12","13","08:00","-14.2","","-17.6","","76","","33","","23","","6.4","","100.40","","","","-24","","Snow Showers"
"2013-12-13 09:00","2013","12","13","09:00","-14.6","","-20.2","","63","","31","","32","","24.1","","100.56","","","","-26","","NA"
"2013-12-13 10:00","2013","12","13","10:00","-15.1","","-21.6","","58","","30","","29","","24.1","","100.68","","","","-26","","Clear"
"2013-12-13 11:00","2013","12","13","11:00","-15.2","","-23.0","","52","","34","","21","","24.1","","100.73","","","","-25","","NA"
"2013-12-13 12:00","2013","12","13","12:00","-15.3","","-22.7","","54","","31","","24","","24.1","","100.78","","","","-25","","NA"
"2013-12-13 13:00","2013","12","13","13:00","-15.2","","-24.4","","46","","30","","10","","24.1","","100.84","","","","-21","","Clear"
"2013-12-13 14:00","2013","12","13","14:00","-15.2","","-24.4","","46","","29","","17","","24.1","","100.90","","","","-24","","NA"
"2013-12-13 15:00","2013","12","13","15:00","-15.6","","-24.1","","49","","30","","20","","24.1","","101.00","","","","-25","","NA"
"2013-12-13 16:00","2013","12","13","16:00","-16.4","","-23.7","","54","","28","","17","","24.1","","101.12","","","","-25","","Clear"
"2013-12-13 17:00","2013","12","13","17:00","-17.2","","-24.0","","56","","29","","16","","24.1","","101.23","","","","-26","","NA"
"2013-12-13 18:00","2013","12","13","18:00","-18.0","","-24.4","","58","","30","","17","","24.1","","101.37","","","","-27","","NA"
"2013-12-13 19:00","2013","12","13","19:00","-18.7","","-24.9","","59","","32","","14","","24.1","","101.45","","","","-27","","Clear"
"2013-12-13 20:00","2013","12","13","20:00","-18.6","","-25.2","","57","","33","","18","","24.1","","101.54","","","","-28","","NA"
"2013-12-13 21:00","2013","12","13","21:00","-19.0","","-25.2","","59","","35","","13","","24.1","","101.60","","","","-27","","NA"
"2013-12-13 22:00","2013","12","13","22:00","-19.5","","-25.6","","59","","35","","11","","24.1","","101.69","","","","-27","","Clear"
"2013-12-13 23:00","2013","12","13","23:00","-19.7","","-25.8","","59","","1","","9","","24.1","","101.75","","","","-26","","NA"
"2013-12-14 00:00","2013","12","14","00:00","-20.5","","-26.0","","62","","1","","9","","24.1","","101.84","","","","-27","","NA"
"2013-12-14 01:00","2013","12","14","01:00","-21.0","","-26.3","","63","","2","","11","","24.1","","101.92","","","","-29","","Mainly Clear"
"2013-12-14 02:00","2013","12","14","02:00","-21.0","","-26.5","","62","","1","","9","","24.1","","101.98","","","","-28","","NA"
"2013-12-14 03:00","2013","12","14","03:00","-23.4","","-27.4","","70","","3","","11","","24.1","","102.03","","","","-32","","NA"
"2013-12-14 04:00","2013","12","14","04:00","-22.6","","-26.8","","69","","5","","8","","24.1","","102.06","","","","-29","","Clear"
"2013-12-14 05:00","2013","12","14","05:00","-23.1","","-26.8","","72","","4","","9","","24.1","","102.11","","","","-30","","NA"
"2013-12-14 06:00","2013","12","14","06:00","-23.8","","-27.8","","70","","4","","9","","24.1","","102.19","","","","-31","","NA"
"2013-12-14 07:00","2013","12","14","07:00","-23.0","","-27.1","","70","","1","","10","","24.1","","102.22","","","","-31","","Mainly Clear"
"2013-12-14 08:00","2013","12","14","08:00","-22.3","","-26.5","","69","","3","","15","","24.1","","102.18","","","","-32","","NA"
"2013-12-14 09:00","2013","12","14","09:00","-22.6","","-27.0","","68","","5","","18","","24.1","","102.22","","","","-33","","NA"
"2013-12-14 10:00","2013","12","14","10:00","-21.8","","-26.2","","68","","7","","15","","24.1","","102.24","","","","-31","","Mostly Cloudy"
"2013-12-14 11:00","2013","12","14","11:00","-20.7","","-25.2","","68","","8","","12","","24.1","","102.25","","","","-29","","NA"
"2013-12-14 12:00","2013","12","14","12:00","-19.7","","-24.4","","67","","6","","15","","24.1","","102.12","","","","-29","","NA"
"2013-12-14 13:00","2013","12","14","13:00","-19.5","","-24.4","","66","","6","","14","","24.1","","102.03","","","","-28","","Cloudy"
"2013-12-14 14:00","2013","12","14","14:00","-18.7","","-23.8","","65","","5","","20","","24.1","","101.90","","","","-29","","NA"
"2013-12-14 15:00","2013","12","14","15:00","-18.9","","-23.9","","65","","5","","27","","24.1","","101.77","","","","-31","","NA"
"2013-12-14 16:00","2013","12","14","16:00","-18.9","","-23.9","","65","","7","","18","","24.1","","101.69","","","","-29","","Cloudy"
"2013-12-14 17:00","2013","12","14","17:00","-19.2","","-24.2","","65","","6","","24","","24.1","","101.52","","","","-30","","NA"
"2013-12-14 18:00","2013","12","14","18:00","-19.3","","-23.8","","68","","7","","28","","12.9","","101.38","","","","-31","","Snow"
"2013-12-14 19:00","2013","12","14","19:00","-19.3","","-23.0","","73","","6","","26","","4.8","","101.24","","","","-31","","Snow,Blowing Snow"
"2013-12-14 20:00","2013","12","14","20:00","-19.1","","-22.2","","77","","6","","29","","1.6","","101.05","","","","-31","","Snow,Blowing Snow"
"2013-12-14 21:00","2013","12","14","21:00","-18.8","","-21.9","","77","","7","","27","","1.6","","100.97","","","","-30","","Snow,Blowing Snow"
"2013-12-14 22:00","2013","12","14","22:00","-18.4","","-21.2","","79","","6","","24","","1.0","","100.76","","","","-29","","Snow,Blowing Snow"
"2013-12-14 23:00","2013","12","14","23:00","-18.1","","-20.9","","79","","6","","25","","1.2","","100.55","","","","-29","","Snow,Blowing Snow"
"2013-12-15 00:00","2013","12","15","00:00","-17.4","","-20.2","","79","","6","","33","","1.6","","100.31","","","","-30","","Snow,Blowing Snow"
"2013-12-15 01:00","2013","12","15","01:00","-16.9","","-19.6","","80","","7","","34","","1.2","","100.09","","","","-29","","Snow,Blowing Snow"
"2013-12-15 02:00","2013","12","15","02:00","-16.2","","-18.8","","81","","7","","29","","1.2","","99.97","","","","-27","","Snow,Blowing Snow"
"2013-12-15 03:00","2013","12","15","03:00","-15.3","","-17.9","","81","","6","","31","","1.2","","99.75","","","","-27","","Snow,Blowing Snow"
"2013-12-15 04:00","2013","12","15","04:00","-14.5","","-16.9","","82","","6","","32","","1.0","","99.58","","","","-26","","Snow,Blowing Snow"
"2013-12-15 05:00","2013","12","15","05:00","-14.1","","-16.4","","83","","7","","31","","1.0","","99.42","","","","-25","","Snow,Blowing Snow"
"2013-12-15 06:00","2013","12","15","06:00","-13.4","","-15.9","","82","","6","","24","","2.4","","99.37","","","","-23","","Snow,Blowing Snow"
"2013-12-15 07:00","2013","12","15","07:00","-12.9","","-15.2","","83","","7","","22","","2.4","","99.32","","","","-22","","Snow,Blowing Snow"
"2013-12-15 08:00","2013","12","15","08:00","-12.7","","-15.0","","83","","7","","17","","2.0","","99.25","","","","-21","","Snow,Blowing Snow"
"2013-12-15 09:00","2013","12","15","09:00","-12.3","","-14.8","","82","","6","","9","","16.1","","99.25","","","","-18","","Snow"
"2013-12-15 10:00","2013","12","15","10:00","-11.6","","-14.2","","81","","6","","7","","4.8","","99.21","","","","-16","","Snow"
"2013-12-15 11:00","2013","12","15","11:00","-10.8","","-13.9","","78","","2","","3","","9.7","","99.14","","","","-13","","Snow"
"2013-12-15 12:00","2013","12","15","12:00","-10.6","","-13.7","","78","","31","","7","","12.9","","99.04","","","","-15","","Snow"
"2013-12-15 13:00","2013","12","15","13:00","-10.5","","-13.5","","79","","30","","6","","9.7","","98.97","","","","-14","","Snow"
"2013-12-15 14:00","2013","12","15","14:00","-10.3","","-13.4","","78","","27","","4","","9.7","","98.96","","","","-13","","Snow"
"2013-12-15 15:00","2013","12","15","15:00","-10.4","","-13.4","","79","","25","","11","","16.1","","99.00","","","","-16","","Snow"
"2013-12-15 16:00","2013","12","15","16:00","-10.9","","-13.3","","83","","26","","13","","9.7","","99.04","","","","-17","","Snow"
"2013-12-15 17:00","2013","12","15","17:00","-11.1","","-13.4","","83","","27","","11","","9.7","","99.10","","","","-17","","Snow"
"2013-12-15 18:00","2013","12","15","18:00","-11.6","","-13.9","","83","","26","","13","","12.9","","99.13","","","","-18","","Snow"
"2013-12-15 19:00","2013","12","15","19:00","-12.9","","-14.8","","86","","25","","9","","19.3","","99.17","","","","-18","","Mostly Cloudy"
"2013-12-15 20:00","2013","12","15","20:00","-14.1","","-15.7","","88","","26","","10","","19.3","","99.18","","","","-20","","NA"
"2013-12-15 21:00","2013","12","15","21:00","-13.9","","-16.1","","84","","29","","17","","24.1","","99.19","","","","-22","","NA"
"2013-12-15 22:00","2013","12","15","22:00","-14.3","","-17.0","","80","","29","","26","","24.1","","99.26","","","","-24","","Mostly Cloudy"
"2013-12-15 23:00","2013","12","15","23:00","-14.6","","-18.0","","76","","29","","23","","16.1","","99.33","","","","-24","","Snow"
"2013-12-16 00:00","2013","12","16","00:00","-15.5","","-19.1","","74","","28","","26","","24.1","","99.39","","","","-26","","NA"
"2013-12-16 01:00","2013","12","16","01:00","-16.5","","-20.0","","75","","29","","26","","24.1","","99.47","","","","-27","","Mostly Cloudy"
"2013-12-16 02:00","2013","12","16","02:00","-18.0","","-21.3","","76","","28","","27","","24.1","","99.61","","","","-29","","NA"
"2013-12-16 03:00","2013","12","16","03:00","-19.2","","-22.4","","76","","27","","22","","24.1","","99.74","","","","-30","","NA"
"2013-12-16 04:00","2013","12","16","04:00","-20.0","","-23.1","","77","","27","","18","","24.1","","99.83","","","","-30","","Clear"
"2013-12-16 05:00","2013","12","16","05:00","-20.4","","-23.8","","75","","28","","18","","24.1","","99.91","","","","-30","","NA"
"2013-12-16 06:00","2013","12","16","06:00","-21.2","","-24.2","","77","","27","","17","","24.1","","100.01","","","","-31","","NA"
"2013-12-16 07:00","2013","12","16","07:00","-23.0","","-25.7","","79","","26","","13","","24.1","","100.08","","","","-32","","Clear"
"2013-12-16 08:00","2013","12","16","08:00","-22.7","","-25.4","","79","","24","","9","","24.1","","100.16","","","","-30","","NA"
"2013-12-16 09:00","2013","12","16","09:00","-22.4","","-25.9","","74","","26","","13","","24.1","","100.29","","","","-31","","NA"
"2013-12-16 10:00","2013","12","16","10:00","-20.1","","-24.8","","67","","27","","26","","24.1","","100.39","","","","-32","","Clear"
"2013-12-16 11:00","2013","12","16","11:00","-19.3","","-24.7","","63","","27","","22","","24.1","","100.40","","","","-30","","NA"
"2013-12-16 12:00","2013","12","16","12:00","-18.8","","-24.6","","61","","24","","22","","24.1","","100.41","","","","-29","","NA"
"2013-12-16 13:00","2013","12","16","13:00","-18.5","","-24.5","","60","","26","","20","","24.1","","100.44","","","","-29","","Clear"
"2013-12-16 14:00","2013","12","16","14:00","-17.9","","-24.3","","58","","26","","23","","24.1","","100.49","","","","-29","","NA"
"2013-12-16 15:00","2013","12","16","15:00","-17.9","","-24.3","","58","","27","","16","","24.1","","100.58","","","","-27","","NA"
"2013-12-16 16:00","2013","12","16","16:00","-18.3","","-24.3","","60","","27","","22","","24.1","","100.67","","","","-29","","Clear"
"2013-12-16 17:00","2013","12","16","17:00","-19.5","","-24.4","","66","","26","","12","","24.1","","100.74","","","","-27","","NA"
"2013-12-16 18:00","2013","12","16","18:00","-21.8","","-25.6","","72","","30","","3","","24.1","","100.81","","","","-25","","NA"
"2013-12-16 19:00","2013","12","16","19:00","-19.8","","-24.5","","67","","30","","8","","24.1","","100.86","","","","-26","","Clear"
"2013-12-16 20:00","2013","12","16","20:00","-20.9","","-24.4","","74","","26","","8","","24.1","","100.91","","","","-27","","NA"
"2013-12-16 21:00","2013","12","16","21:00","-21.6","","-24.5","","78","","22","","6","","24.1","","100.93","","","","-27","","NA"
"2013-12-16 22:00","2013","12","16","22:00","-23.0","","-25.6","","80","","26","","3","","24.1","","100.98","","","","-26","","Clear"
"2013-12-16 23:00","2013","12","16","23:00","-24.2","","-26.7","","80","","21","","12","","24.1","","101.03","","","","-33","","NA"
"2013-12-17 00:00","2013","12","17","00:00","-25.1","","-27.9","","78","","22","","6","","24.1","","101.02","","","","-31","","NA"
"2013-12-17 01:00","2013","12","17","01:00","-24.9","","-27.7","","78","","20","","3","","24.1","","100.96","","","","-28","","Clear"
"2013-12-17 02:00","2013","12","17","02:00","-24.5","","-27.2","","79","","4","","4","","24.1","","100.93","","","","-28","","NA"
"2013-12-17 03:00","2013","12","17","03:00","-27.1","","-30.4","","74","","12","","1","","24.1","","100.91","","","","-28","","NA"
"2013-12-17 04:00","2013","12","17","04:00","-26.5","","-29.6","","76","","3","","6","","24.1","","100.87","","","","-32","","Clear"
"2013-12-17 05:00","2013","12","17","05:00","-26.5","","-29.4","","77","","4","","13","","24.1","","100.84","","","","-36","","NA"
"2013-12-17 06:00","2013","12","17","06:00","-26.7","","-29.7","","76","","5","","11","","24.1","","100.82","","","","-36","","NA"
"2013-12-17 07:00","2013","12","17","07:00","-27.2","","-30.2","","76","","5","","19","","24.1","","100.72","","","","-39","","Mainly Clear"
"2013-12-17 08:00","2013","12","17","08:00","-24.9","","-27.8","","77","","5","","16","","19.3","","100.76","","","","-35","","NA"
"2013-12-17 09:00","2013","12","17","09:00","-23.9","","-26.7","","78","","5","","19","","24.1","","100.70","","","","-35","","NA"
"2013-12-17 10:00","2013","12","17","10:00","-22.1","","-24.8","","79","","6","","15","","24.1","","100.65","","","","-32","","Cloudy"
"2013-12-17 11:00","2013","12","17","11:00","-20.3","","-22.9","","80","","6","","18","","24.1","","100.52","","","","-30","","NA"
"2013-12-17 12:00","2013","12","17","12:00","-18.6","","-21.1","","81","","6","","13","","24.1","","100.45","","","","-27","","NA"
"2013-12-17 13:00","2013","12","17","13:00","-18.0","","-20.5","","81","","6","","19","","6.4","","100.32","","","","-28","","Snow"
"2013-12-17 14:00","2013","12","17","14:00","-17.2","","-19.7","","81","","6","","22","","1.6","","100.28","","","","-27","","Snow"
"2013-12-17 15:00","2013","12","17","15:00","-16.5","","-19.3","","79","","5","","18","","1.6","","100.27","","","","-26","","Snow,Blowing Snow"
"2013-12-17 16:00","2013","12","17","16:00","-16.4","","-19.2","","79","","6","","19","","1.6","","100.27","","","","-26","","Snow"
"2013-12-17 17:00","2013","12","17","17:00","-17.3","","-20.3","","78","","7","","18","","12.9","","100.21","","","","-27","","Snow"
"2013-12-17 18:00","2013","12","17","18:00","-17.5","","-20.3","","79","","7","","15","","16.1","","100.23","","","","-26","","Snow"
"2013-12-17 19:00","2013","12","17","19:00","-17.0","","-19.8","","79","","7","","10","","11.3","","100.28","","","","-24","","Snow"
"2013-12-17 20:00","2013","12","17","20:00","-16.9","","-19.7","","79","","8","","6","","11.3","","100.26","","","","-21","","Snow"
"2013-12-17 21:00","2013","12","17","21:00","-17.0","","-19.8","","79","","5","","10","","12.9","","100.24","","","","-24","","Snow"
"2013-12-17 22:00","2013","12","17","22:00","-17.0","","-19.7","","80","","7","","8","","16.1","","100.27","","","","-23","","Snow"
"2013-12-17 23:00","2013","12","17","23:00","-16.9","","-19.6","","80","","4","","9","","16.1","","100.26","","","","-23","","Snow"
"2013-12-18 00:00","2013","12","18","00:00","-17.4","","-19.9","","81","","6","","12","","24.1","","100.22","","","","-25","","Snow"
"2013-12-18 01:00","2013","12","18","01:00","-17.1","","-19.6","","81","","4","","5","","24.1","","100.21","","","","-21","","Snow"
"2013-12-18 02:00","2013","12","18","02:00","-17.0","","-19.5","","81","","4","","13","","24.1","","100.17","","","","-25","","Snow"
"2013-12-18 03:00","2013","12","18","03:00","-16.8","","-19.2","","82","","7","","11","","24.1","","100.14","","","","-24","","NA"
"2013-12-18 04:00","2013","12","18","04:00","-16.6","","-19.0","","82","","9","","9","","24.1","","100.14","","","","-23","","Cloudy"
"2013-12-18 05:00","2013","12","18","05:00","-16.5","","-18.9","","82","","5","","6","","12.9","","100.16","","","","-21","","Snow"
"2013-12-18 06:00","2013","12","18","06:00","-16.4","","-18.8","","82","","7","","7","","11.3","","100.17","","","","-21","","Snow"
"2013-12-18 07:00","2013","12","18","07:00","-16.2","","-18.5","","83","","6","","7","","12.9","","100.18","","","","-21","","Snow"
"2013-12-18 08:00","2013","12","18","08:00","-16.0","","-18.4","","82","","6","","6","","12.9","","100.17","","","","-20","","Snow"
"2013-12-18 09:00","2013","12","18","09:00","-15.4","","-17.8","","82","","6","","5","","12.9","","100.17","","","","-19","","Snow"
"2013-12-18 10:00","2013","12","18","10:00","-14.4","","-17.1","","80","","7","","4","","16.1","","100.16","","","","-17","","Snow"
"2013-12-18 11:00","2013","12","18","11:00","-13.1","","-16.5","","76","","8","","3","","16.1","","100.09","","","","-15","","NA"
"2013-12-18 12:00","2013","12","18","12:00","-12.2","","-15.6","","76","","26","","7","","16.1","","100.09","","","","-17","","NA"
"2013-12-18 13:00","2013","12","18","13:00","-11.0","","-14.4","","76","","14","","8","","16.1","","99.96","","","","-16","","Cloudy"
"2013-12-18 14:00","2013","12","18","14:00","-9.9","","-13.7","","74","","32","","1","","12.9","","99.95","","","","-10","","Snow Showers"
"2013-12-18 15:00","2013","12","18","15:00","-9.4","","-12.9","","76","","21","","2","","16.1","","99.97","","","","-11","","NA"
"2013-12-18 16:00","2013","12","18","16:00","-9.4","","-12.7","","77","","9","","5","","16.1","","100.01","","","","-12","","Cloudy"
"2013-12-18 17:00","2013","12","18","17:00","-9.9","","-13.2","","77","","6","","5","","16.1","","100.02","","","","-13","","NA"
"2013-12-18 18:00","2013","12","18","18:00","-10.2","","-13.2","","79","","7","","7","","16.1","","100.06","","","","-14","","NA"
"2013-12-18 19:00","2013","12","18","19:00","-10.1","","-12.8","","81","","33","","17","","11.3","","100.13","","","","-17","","Snow"
"2013-12-18 20:00","2013","12","18","20:00","-9.9","","-12.1","","84","","15","","2","","6.4","","100.15","","","","-11","","Snow"
"2013-12-18 21:00","2013","12","18","21:00","-9.9","","-11.8","","86","","24","","5","","11.3","","100.16","","","","-13","","Snow"
"2013-12-18 22:00","2013","12","18","22:00","-9.7","","-11.5","","87","","22","","4","","11.3","","100.17","","","","-12","","Snow"
"2013-12-18 23:00","2013","12","18","23:00","-9.2","","-11.1","","86","","22","","7","","12.9","","100.15","","","","-13","","Snow"
"2013-12-19 00:00","2013","12","19","00:00","-9.0","","-10.6","","88","","17","","6","","2.4","","100.09","","","","-12","","Snow"
"2013-12-19 01:00","2013","12","19","01:00","-8.6","","-10.0","","90","","17","","3","","2.0","","100.09","","","","-10","","Snow"
"2013-12-19 02:00","2013","12","19","02:00","-7.3","","-8.5","","91","","17","","7","","2.4","","100.03","","","","-11","","Snow"
"2013-12-19 03:00","2013","12","19","03:00","-5.6","","-6.6","","93","","16","","8","","4.8","","99.97","","","","-9","","Snow"
"2013-12-19 04:00","2013","12","19","04:00","-4.7","","-5.7","","93","","17","","9","","2.0","","99.89","","","","-9","","Snow"
"2013-12-19 05:00","2013","12","19","05:00","-4.5","","-5.6","","92","","16","","8","","16.1","","99.85","","","","-8","","NA"
"2013-12-19 06:00","2013","12","19","06:00","-4.4","","-5.5","","92","","11","","11","","16.1","","99.81","","","","-9","","NA"
"2013-12-19 07:00","2013","12","19","07:00","-4.3","","-5.3","","93","","15","","9","","16.1","","99.77","","","","-8","","Cloudy"
"2013-12-19 08:00","2013","12","19","08:00","-4.2","","-5.2","","93","","15","","9","","16.1","","99.74","","","","-8","","NA"
"2013-12-19 09:00","2013","12","19","09:00","-3.9","","-5.0","","92","","13","","1","","16.1","","99.75","","","","-4","","NA"
"2013-12-19 10:00","2013","12","19","10:00","-2.5","","-4.7","","85","","19","","8","","16.1","","99.77","","","","-6","","Cloudy"
"2013-12-19 11:00","2013","12","19","11:00","-2.0","","-4.5","","83","","23","","10","","16.1","","99.77","","","","-6","","NA"
"2013-12-19 12:00","2013","12","19","12:00","-0.9","","-4.8","","75","","23","","13","","16.1","","99.74","","","","-5","","NA"
"2013-12-19 13:00","2013","12","19","13:00","-0.4","","-5.0","","71","","21","","12","","19.3","","99.77","","","","-4","","Cloudy"
"2013-12-19 14:00","2013","12","19","14:00","0.2","","-4.6","","70","","23","","14","","19.3","","99.81","","","","","","NA"
"2013-12-19 15:00","2013","12","19","15:00","0.5","","-4.2","","71","","23","","13","","19.3","","99.91","","","","","","NA"
"2013-12-19 16:00","2013","12","19","16:00","0.4","","-3.3","","76","","24","","13","","16.1","","100.00","","","","","","Cloudy"
"2013-12-19 17:00","2013","12","19","17:00","0.1","","-3.3","","78","","23","","12","","16.1","","100.07","","","","","","NA"
"2013-12-19 18:00","2013","12","19","18:00","-0.3","","-3.5","","79","","24","","10","","19.3","","100.15","","","","-4","","NA"
"2013-12-19 19:00","2013","12","19","19:00","-0.5","","-3.5","","80","","25","","12","","16.1","","100.23","","","","-4","","Cloudy"
"2013-12-19 20:00","2013","12","19","20:00","-0.4","","-3.3","","81","","22","","12","","12.9","","100.28","","","","-4","","NA"
"2013-12-19 21:00","2013","12","19","21:00","-0.4","","-3.1","","82","","26","","12","","12.9","","100.34","","","","-4","","NA"
"2013-12-19 22:00","2013","12","19","22:00","-0.7","","-3.1","","84","","28","","7","","12.9","","100.36","","","","-3","","Cloudy"
"2013-12-19 23:00","2013","12","19","23:00","-1.5","","-3.7","","85","","32","","7","","12.9","","100.38","","","","-4","","NA"
"2013-12-20 00:00","2013","12","20","00:00","-1.5","","-3.5","","86","","36","","7","","11.3","","100.42","","","","-4","","NA"
"2013-12-20 01:00","2013","12","20","01:00","-1.7","","-4.9","","79","","3","","9","","12.9","","100.38","","","","-5","","Cloudy"
"2013-12-20 02:00","2013","12","20","02:00","-2.2","","-4.4","","85","","2","","14","","12.9","","100.37","","","","-7","","NA"
"2013-12-20 03:00","2013","12","20","03:00","-3.0","","-5.0","","86","","4","","17","","12.9","","100.33","","","","-9","","NA"
"2013-12-20 04:00","2013","12","20","04:00","-3.2","","-5.7","","83","","5","","15","","12.9","","100.27","","","","-8","","Cloudy"
"2013-12-20 05:00","2013","12","20","05:00","-4.1","","-5.7","","89","","4","","16","","2.4","","100.24","","","","-10","","Snow"
"2013-12-20 06:00","2013","12","20","06:00","-4.4","","-5.5","","92","","4","","18","","2.4","","100.20","","","","-10","","Snow"
"2013-12-20 07:00","2013","12","20","07:00","-4.3","","-5.6","","91","","4","","22","","4.0","","100.14","","","","-11","","Snow"
"2013-12-20 08:00","2013","12","20","08:00","-4.4","","-5.5","","92","","4","","24","","1.2","","100.06","","","","-11","","Snow"
"2013-12-20 09:00","2013","12","20","09:00","-4.9","","-6.3","","90","","4","","27","","0.8","","100.07","","","","-12","","Moderate Snow"
"2013-12-20 10:00","2013","12","20","10:00","-5.7","","-7.1","","90","","5","","22","","0.8","","100.12","","","","-13","","Moderate Snow,Blowing Snow"
"2013-12-20 11:00","2013","12","20","11:00","-5.1","","-6.6","","89","","5","","17","","1.6","","100.13","","","","-11","","Snow,Blowing Snow"
"2013-12-20 12:00","2013","12","20","12:00","-4.7","","-6.1","","90","","7","","8","","3.2","","100.03","","","","-8","","Snow"
"2013-12-20 13:00","2013","12","20","13:00","-4.0","","-5.4","","90","","5","","10","","2.4","","99.99","","","","-8","","Snow"
"2013-12-20 14:00","2013","12","20","14:00","-4.1","","-5.5","","90","","8","","10","","2.8","","99.96","","","","-8","","Snow"
"2013-12-20 15:00","2013","12","20","15:00","-4.9","","-6.0","","92","","10","","9","","1.2","","99.98","","","","-9","","Moderate Snow"
"2013-12-20 16:00","2013","12","20","16:00","-5.9","","-7.4","","89","","9","","14","","3.2","","100.01","","","","-11","","Snow"
"2013-12-20 17:00","2013","12","20","17:00","-6.3","","-7.5","","91","","8","","9","","4.0","","100.06","","","","-11","","Snow"
"2013-12-20 18:00","2013","12","20","18:00","-6.3","","-7.5","","91","","8","","9","","2.4","","100.05","","","","-11","","Snow"
"2013-12-20 19:00","2013","12","20","19:00","-6.3","","-7.8","","89","","7","","10","","12.9","","100.08","","","","-11","","Snow"
"2013-12-20 20:00","2013","12","20","20:00","-6.3","","-7.5","","91","","8","","5","","2.4","","100.08","","","","-9","","Snow"
"2013-12-20 21:00","2013","12","20","21:00","-6.4","","-7.8","","90","","5","","11","","4.8","","100.02","","","","-11","","Snow"
"2013-12-20 22:00","2013","12","20","22:00","-6.4","","-7.6","","91","","4","","10","","1.6","","100.01","","","","-11","","Snow"
"2013-12-20 23:00","2013","12","20","23:00","-6.2","","-7.7","","89","","7","","17","","12.9","","99.89","","","","-12","","Snow"
"2013-12-21 00:00","2013","12","21","00:00","-6.3","","-8.4","","85","","7","","17","","9.7","","99.82","","","","-13","","Snow"
"2013-12-21 01:00","2013","12","21","01:00","-6.6","","-8.4","","87","","7","","21","","4.8","","99.77","","","","-14","","Snow"
"2013-12-21 02:00","2013","12","21","02:00","-7.2","","-8.6","","90","","6","","20","","6.4","","99.69","","","","-14","","Snow"
"2013-12-21 03:00","2013","12","21","03:00","-7.3","","-8.4","","92","","7","","15","","4.8","","99.65","","","","-13","","Freezing Rain,Fog"
"2013-12-21 04:00","2013","12","21","04:00","-7.0","","-8.1","","92","","7","","18","","4.8","","99.64","","","","-14","","Freezing Rain,Fog"
"2013-12-21 05:00","2013","12","21","05:00","-7.3","","-8.4","","92","","8","","15","","8.1","","99.60","","","","-13","","Freezing Rain,Fog"
"2013-12-21 06:00","2013","12","21","06:00","-7.4","","-8.5","","92","","6","","14","","4.8","","99.69","","","","-13","","Freezing Rain,Fog"
"2013-12-21 07:00","2013","12","21","07:00","-7.1","","-8.3","","91","","5","","12","","6.4","","99.71","","","","-12","","Snow,Fog"
"2013-12-21 08:00","2013","12","21","08:00","-7.1","","-8.5","","90","","7","","13","","4.8","","99.68","","","","-13","","Freezing Rain,Fog"
"2013-12-21 09:00","2013","12","21","09:00","-6.7","","-8.2","","89","","8","","11","","16.1","","99.73","","","","-12","","NA"
"2013-12-21 10:00","2013","12","21","10:00","-6.7","","-8.1","","90","","6","","10","","16.1","","99.80","","","","-11","","Cloudy"
"2013-12-21 11:00","2013","12","21","11:00","-6.6","","-8.3","","88","","5","","11","","16.1","","99.87","","","","-12","","NA"
"2013-12-21 12:00","2013","12","21","12:00","-6.6","","-8.1","","89","","3","","9","","16.1","","99.91","","","","-11","","NA"
"2013-12-21 13:00","2013","12","21","13:00","-6.4","","-7.6","","91","","4","","5","","16.1","","99.88","","","","-9","","Cloudy"
"2013-12-21 14:00","2013","12","21","14:00","-5.9","","-7.3","","90","","1","","8","","12.9","","99.91","","","","-10","","NA"
"2013-12-21 15:00","2013","12","21","15:00","-5.7","","-6.8","","92","","7","","4","","9.7","","100.02","","","","-8","","Freezing Rain,Fog"
"2013-12-21 16:00","2013","12","21","16:00","-5.5","","-6.6","","92","","4","","10","","6.4","","100.04","","","","-10","","Ice Pellets,Fog"
"2013-12-21 17:00","2013","12","21","17:00","-5.4","","-6.5","","92","","1","","9","","12.9","","100.14","","","","-9","","Ice Pellets"
"2013-12-21 18:00","2013","12","21","18:00","-5.6","","-6.8","","91","","1","","7","","16.1","","100.16","","","","-9","","NA"
"2013-12-21 19:00","2013","12","21","19:00","-5.5","","-6.9","","90","","36","","12","","16.1","","100.26","","","","-10","","Cloudy"
"2013-12-21 20:00","2013","12","21","20:00","-5.5","","-6.9","","90","","2","","11","","16.1","","100.24","","","","-10","","Snow"
"2013-12-21 21:00","2013","12","21","21:00","-5.3","","-7.0","","88","","2","","12","","16.1","","100.29","","","","-10","","Snow"
"2013-12-21 22:00","2013","12","21","22:00","-5.5","","-6.9","","90","","3","","14","","4.0","","100.27","","","","-11","","Snow"
"2013-12-21 23:00","2013","12","21","23:00","-5.5","","-6.6","","92","","2","","12","","2.4","","100.31","","","","-10","","Snow"
"2013-12-22 00:00","2013","12","22","00:00","-5.6","","-6.7","","92","","4","","16","","2.4","","100.26","","","","-12","","Snow"
"2013-12-22 01:00","2013","12","22","01:00","-5.7","","-6.8","","92","","5","","18","","2.4","","100.12","","","","-12","","Snow"
"2013-12-22 02:00","2013","12","22","02:00","-6.1","","-7.5","","90","","7","","15","","2.4","","100.09","","","","-12","","Snow"
"2013-12-22 03:00","2013","12","22","03:00","-6.9","","-8.4","","89","","5","","25","","3.2","","100.03","","","","-15","","Snow"
"2013-12-22 04:00","2013","12","22","04:00","-7.1","","-8.5","","90","","5","","23","","1.6","","99.91","","","","-15","","Snow"
"2013-12-22 05:00","2013","12","22","05:00","-7.1","","-8.5","","90","","4","","28","","1.6","","99.67","","","","-15","","Snow"
"2013-12-22 06:00","2013","12","22","06:00","-6.8","","-8.3","","89","","4","","28","","3.2","","99.63","","","","-15","","Snow"
"2013-12-22 07:00","2013","12","22","07:00","-6.9","","-8.6","","88","","2","","29","","4.8","","99.83","","","","-15","","Snow"
"2013-12-22 08:00","2013","12","22","08:00","-6.5","","-8.3","","87","","4","","32","","4.0","","99.72","","","","-15","","Snow"
"2013-12-22 09:00","2013","12","22","09:00","-6.2","","-8.0","","87","","4","","28","","9.7","","99.81","","","","-14","","Freezing Rain,Fog"
"2013-12-22 10:00","2013","12","22","10:00","-6.0","","-7.4","","90","","5","","24","","6.4","","99.70","","","","-13","","Freezing Rain,Fog"
"2013-12-22 11:00","2013","12","22","11:00","-6.0","","-7.1","","92","","5","","17","","9.7","","99.69","","","","-12","","Freezing Rain,Fog"
"2013-12-22 12:00","2013","12","22","12:00","-5.9","","-7.6","","88","","7","","28","","2.8","","99.48","","","","-14","","Freezing Rain,Fog"
"2013-12-22 13:00","2013","12","22","13:00","-6.4","","-8.1","","88","","6","","28","","6.4","","99.47","","","","-15","","Freezing Rain,Fog"
"2013-12-22 14:00","2013","12","22","14:00","-6.7","","-8.7","","86","","7","","30","","9.7","","99.46","","","","-15","","Freezing Rain,Fog"
"2013-12-22 15:00","2013","12","22","15:00","-6.9","","-8.3","","90","","7","","24","","8.1","","99.45","","","","-15","","Freezing Rain,Fog"
"2013-12-22 16:00","2013","12","22","16:00","-6.9","","-8.3","","90","","6","","22","","9.7","","99.59","","","","-14","","Fog"
"2013-12-22 17:00","2013","12","22","17:00","-7.2","","-8.3","","92","","6","","14","","6.4","","99.69","","","","-13","","Freezing Rain,Fog"
"2013-12-22 18:00","2013","12","22","18:00","-7.4","","-8.5","","92","","8","","17","","12.9","","99.76","","","","-14","","Freezing Rain"
"2013-12-22 19:00","2013","12","22","19:00","-7.8","","-8.9","","92","","7","","9","","4.8","","99.95","","","","-12","","Freezing Drizzle,Fog"
"2013-12-22 20:00","2013","12","22","20:00","-7.8","","-8.7","","93","","10","","14","","3.2","","99.97","","","","-14","","Freezing Drizzle,Fog"
"2013-12-22 21:00","2013","12","22","21:00","-8.1","","-9.0","","93","","7","","11","","8.1","","99.99","","","","-13","","Fog"
"2013-12-22 22:00","2013","12","22","22:00","-8.2","","-9.3","","92","","11","","8","","9.7","","100.13","","","","-12","","Fog"
"2013-12-22 23:00","2013","12","22","23:00","-8.2","","-9.1","","93","","8","","9","","3.2","","100.14","","","","-13","","Freezing Drizzle,Snow,Fog"
"2013-12-23 00:00","2013","12","23","00:00","-8.4","","-9.3","","93","","9","","12","","4.8","","100.12","","","","-14","","Fog"
"2013-12-23 01:00","2013","12","23","01:00","-8.4","","-9.5","","92","","9","","12","","2.4","","100.14","","","","-14","","Fog"
"2013-12-23 02:00","2013","12","23","02:00","-8.4","","-9.5","","92","","5","","9","","1.6","","100.14","","","","-13","","Fog"
"2013-12-23 03:00","2013","12","23","03:00","-8.3","","-9.4","","92","","6","","7","","1.6","","100.19","","","","-12","","Fog"
"2013-12-23 04:00","2013","12","23","04:00","-8.2","","-9.3","","92","","5","","5","","1.2","","100.26","","","","-11","","Freezing Drizzle,Fog"
"2013-12-23 05:00","2013","12","23","05:00","-8.1","","-9.2","","92","","6","","8","","2.0","","100.25","","","","-12","","Freezing Drizzle,Fog"
"2013-12-23 06:00","2013","12","23","06:00","-8.1","","-9.2","","92","","36","","9","","2.4","","100.27","","","","-13","","Fog"
"2013-12-23 07:00","2013","12","23","07:00","-8.1","","-9.2","","92","","5","","7","","4.8","","100.31","","","","-12","","Fog"
"2013-12-23 08:00","2013","12","23","08:00","-8.1","","-9.2","","92","","4","","6","","6.4","","100.33","","","","-11","","Fog"
"2013-12-23 09:00","2013","12","23","09:00","-7.9","","-9.0","","92","","6","","4","","8.1","","100.41","","","","-10","","Fog"
"2013-12-23 10:00","2013","12","23","10:00","-7.8","","-8.9","","92","","9","","4","","9.7","","100.46","","","","-10","","Fog"
"2013-12-23 11:00","2013","12","23","11:00","-7.3","","-8.4","","92","","18","","2","","9.7","","100.46","","","","-8","","Fog"
"2013-12-23 12:00","2013","12","23","12:00","-6.7","","-7.8","","92","","28","","9","","9.7","","100.43","","","","-11","","Fog"
"2013-12-23 13:00","2013","12","23","13:00","-6.7","","-7.8","","92","","29","","14","","16.1","","100.42","","","","-12","","Cloudy"
"2013-12-23 14:00","2013","12","23","14:00","-7.1","","-8.2","","92","","26","","15","","16.1","","100.44","","","","-13","","NA"
"2013-12-23 15:00","2013","12","23","15:00","-7.4","","-8.6","","91","","27","","14","","16.1","","100.51","","","","-13","","NA"
"2013-12-23 16:00","2013","12","23","16:00","-7.8","","-9.0","","91","","27","","16","","24.1","","100.62","","","","-14","","Cloudy"
"2013-12-23 17:00","2013","12","23","17:00","-8.4","","-9.8","","90","","28","","17","","24.1","","100.69","","","","-15","","NA"
"2013-12-23 18:00","2013","12","23","18:00","-8.8","","-10.3","","89","","26","","14","","16.1","","100.75","","","","-15","","Snow"
"2013-12-23 19:00","2013","12","23","19:00","-9.2","","-11.1","","86","","28","","22","","16.1","","100.87","","","","-17","","Snow"
"2013-12-23 20:00","2013","12","23","20:00","-10.1","","-12.2","","85","","30","","24","","19.3","","100.90","","","","-19","","NA"
"2013-12-23 21:00","2013","12","23","21:00","-11.8","","-14.1","","83","","28","","21","","24.1","","100.99","","","","-20","","NA"
"2013-12-23 22:00","2013","12","23","22:00","-12.7","","-15.2","","82","","28","","23","","24.1","","101.03","","","","-22","","Clear"
"2013-12-23 23:00","2013","12","23","23:00","-13.6","","-16.4","","80","","28","","19","","24.1","","101.05","","","","-22","","NA"
"2013-12-24 00:00","2013","12","24","00:00","-14.6","","-17.6","","78","","29","","18","","24.1","","101.02","","","","-23","","NA"
"2013-12-24 01:00","2013","12","24","01:00","-15.4","","-17.8","","82","","27","","12","","24.1","","101.03","","","","-22","","Clear"
"2013-12-24 02:00","2013","12","24","02:00","-16.6","","-19.0","","82","","27","","11","","24.1","","101.07","","","","-24","","NA"
"2013-12-24 03:00","2013","12","24","03:00","-18.5","","-20.6","","84","","19","","4","","24.1","","101.14","","","","-22","","NA"
"2013-12-24 04:00","2013","12","24","04:00","-19.0","","-21.4","","82","","26","","9","","24.1","","101.17","","","","-26","","Clear"
"2013-12-24 05:00","2013","12","24","05:00","-19.2","","-21.4","","83","","27","","10","","24.1","","101.17","","","","-26","","NA"
"2013-12-24 06:00","2013","12","24","06:00","-19.0","","-21.2","","83","","29","","12","","24.1","","101.16","","","","-27","","NA"
"2013-12-24 07:00","2013","12","24","07:00","-20.8","","-23.0","","83","","27","","9","","24.1","","101.16","","","","-28","","Clear"
"2013-12-24 08:00","2013","12","24","08:00","-20.7","","-23.2","","81","","30","","14","","24.1","","101.11","","","","-30","","NA"
"2013-12-24 09:00","2013","12","24","09:00","-20.3","","-22.8","","81","","30","","14","","24.1","","101.12","","","","-29","","NA"
"2013-12-24 10:00","2013","12","24","10:00","-19.3","","-22.1","","79","","29","","8","","24.1","","101.17","","","","-25","","Clear"
"2013-12-24 11:00","2013","12","24","11:00","-17.9","","-21.3","","75","","31","","14","","24.1","","101.18","","","","-26","","NA"
"2013-12-24 12:00","2013","12","24","12:00","-17.0","","-20.6","","74","","29","","14","","24.1","","101.11","","","","-25","","NA"
"2013-12-24 13:00","2013","12","24","13:00","-16.4","","-20.0","","74","","28","","13","","24.1","","101.05","","","","-24","","Clear"
"2013-12-24 14:00","2013","12","24","14:00","-15.8","","-19.4","","74","","27","","14","","24.1","","101.08","","","","-24","","NA"
"2013-12-24 15:00","2013","12","24","15:00","-16.2","","-19.5","","76","","30","","22","","24.1","","101.11","","","","-26","","NA"
"2013-12-24 16:00","2013","12","24","16:00","-16.4","","-19.5","","77","","28","","18","","24.1","","101.18","","","","-25","","Mostly Cloudy"
"2013-12-24 17:00","2013","12","24","17:00","-16.7","","-19.8","","77","","28","","20","","24.1","","101.25","","","","-26","","NA"
"2013-12-24 18:00","2013","12","24","18:00","-17.4","","-20.7","","76","","29","","27","","24.1","","101.32","","","","-29","","NA"
"2013-12-24 19:00","2013","12","24","19:00","-17.9","","-20.9","","78","","29","","22","","24.1","","101.39","","","","-28","","Mostly Cloudy"
"2013-12-24 20:00","2013","12","24","20:00","-17.5","","-20.5","","78","","29","","22","","11.3","","101.43","","","","-28","","Snow"
"2013-12-24 21:00","2013","12","24","21:00","-17.7","","-20.7","","78","","29","","17","","24.1","","101.48","","","","-27","","NA"
"2013-12-24 22:00","2013","12","24","22:00","-18.1","","-21.4","","76","","28","","22","","24.1","","101.57","","","","-29","","Clear"
"2013-12-24 23:00","2013","12","24","23:00","-18.7","","-21.9","","76","","28","","15","","24.1","","101.62","","","","-27","","NA"
"2013-12-25 00:00","2013","12","25","00:00","-19.4","","-22.5","","77","","28","","13","","24.1","","101.66","","","","-28","","NA"
"2013-12-25 01:00","2013","12","25","01:00","-20.1","","-23.2","","77","","30","","16","","24.1","","101.67","","","","-30","","Clear"
"2013-12-25 02:00","2013","12","25","02:00","-21.8","","-24.7","","78","","31","","13","","24.1","","101.70","","","","-31","","NA"
"2013-12-25 03:00","2013","12","25","03:00","-22.4","","-25.1","","79","","24","","17","","24.1","","101.89","","","","-33","","NA"
"2013-12-25 04:00","2013","12","25","04:00","-21.6","","-24.3","","79","","28","","21","","24.1","","101.89","","","","-33","","Clear"
"2013-12-25 05:00","2013","12","25","05:00","-23.1","","-25.7","","80","","32","","9","","24.1","","101.82","","","","-30","","NA"
"2013-12-25 06:00","2013","12","25","06:00","-23.5","","-25.9","","81","","25","","8","","24.1","","101.91","","","","-30","","NA"
"2013-12-25 07:00","2013","12","25","07:00","-24.5","","-27.2","","79","","25","","12","","24.1","","101.98","","","","-33","","Clear"
"2013-12-25 08:00","2013","12","25","08:00","-24.2","","-26.6","","81","","11","","1","","24.1","","101.96","","","","-25","","NA"
"2013-12-25 09:00","2013","12","25","09:00","-23.9","","-26.2","","82","","24","","7","","24.1","","102.06","","","","-30","","NA"
"2013-12-25 10:00","2013","12","25","10:00","-22.6","","-25.6","","77","","25","","10","","24.1","","102.09","","","","-30","","Mainly Clear"
"2013-12-25 11:00","2013","12","25","11:00","-20.5","","-24.0","","74","","23","","5","","24.1","","102.07","","","","-25","","NA"
"2013-12-25 12:00","2013","12","25","12:00","-19.2","","-23.4","","70","","16","","4","","24.1","","101.94","","","","-23","","NA"
"2013-12-25 13:00","2013","12","25","13:00","-17.8","","-22.2","","69","","13","","7","","24.1","","101.89","","","","-23","","Mostly Cloudy"
"2013-12-25 14:00","2013","12","25","14:00","-17.8","","-21.9","","71","","24","","6","","24.1","","101.88","","","","-22","","NA"
"2013-12-25 15:00","2013","12","25","15:00","-17.2","","-21.1","","72","","10","","3","","24.1","","101.81","","","","-20","","NA"
"2013-12-25 16:00","2013","12","25","16:00","-17.1","","-20.4","","76","","8","","9","","24.1","","101.78","","","","-23","","Mostly Cloudy"
"2013-12-25 17:00","2013","12","25","17:00","-18.1","","-21.1","","78","","7","","10","","19.3","","101.74","","","","-25","","NA"
"2013-12-25 18:00","2013","12","25","18:00","-18.2","","-21.5","","76","","7","","11","","16.1","","101.65","","","","-25","","NA"
"2013-12-25 19:00","2013","12","25","19:00","-18.1","","-20.9","","79","","8","","15","","24.1","","101.59","","","","-27","","Cloudy"
"2013-12-25 20:00","2013","12","25","20:00","-17.8","","-20.9","","77","","8","","13","","24.1","","101.55","","","","-26","","NA"
"2013-12-25 21:00","2013","12","25","21:00","-17.5","","-20.5","","78","","9","","17","","24.1","","101.41","","","","-27","","NA"
"2013-12-25 22:00","2013","12","25","22:00","-17.1","","-19.8","","80","","7","","12","","24.1","","101.34","","","","-25","","Cloudy"
"2013-12-25 23:00","2013","12","25","23:00","-17.2","","-19.7","","81","","6","","12","","24.1","","101.26","","","","-25","","Snow"
"2013-12-26 00:00","2013","12","26","00:00","-17.1","","-19.5","","82","","6","","12","","9.7","","101.18","","","","-25","","Snow"
"2013-12-26 01:00","2013","12","26","01:00","-16.9","","-19.3","","82","","6","","16","","16.1","","101.09","","","","-26","","Snow"
"2013-12-26 02:00","2013","12","26","02:00","-16.5","","-18.9","","82","","7","","13","","16.1","","101.06","","","","-24","","Snow"
"2013-12-26 03:00","2013","12","26","03:00","-16.0","","-18.3","","83","","7","","14","","11.3","","101.00","","","","-24","","Snow"
"2013-12-26 04:00","2013","12","26","04:00","-15.6","","-17.9","","83","","7","","13","","9.7","","100.92","","","","-23","","Snow"
"2013-12-26 05:00","2013","12","26","05:00","-15.4","","-17.7","","83","","6","","12","","9.7","","100.86","","","","-22","","Snow"
"2013-12-26 06:00","2013","12","26","06:00","-15.1","","-17.4","","83","","8","","16","","12.9","","100.82","","","","-23","","Snow"
"2013-12-26 07:00","2013","12","26","07:00","-15.0","","-17.1","","84","","7","","13","","12.9","","100.76","","","","-22","","Snow"
"2013-12-26 08:00","2013","12","26","08:00","-14.8","","-17.1","","83","","7","","15","","4.0","","100.73","","","","-23","","Snow"
"2013-12-26 09:00","2013","12","26","09:00","-14.5","","-16.8","","83","","6","","14","","4.8","","100.70","","","","-22","","Snow"
"2013-12-26 10:00","2013","12","26","10:00","-13.8","","-16.2","","82","","6","","14","","4.8","","100.68","","","","-21","","Snow"
"2013-12-26 11:00","2013","12","26","11:00","-12.9","","-15.4","","82","","6","","13","","3.2","","100.64","","","","-20","","Snow"
"2013-12-26 12:00","2013","12","26","12:00","-11.9","","-14.2","","83","","7","","13","","4.8","","100.53","","","","-19","","Snow"
"2013-12-26 13:00","2013","12","26","13:00","-11.1","","-13.4","","83","","6","","12","","4.8","","100.45","","","","-17","","Snow"
"2013-12-26 14:00","2013","12","26","14:00","-10.5","","-12.7","","84","","6","","10","","4.8","","100.43","","","","-16","","Snow"
"2013-12-26 15:00","2013","12","26","15:00","-10.6","","-12.7","","85","","6","","11","","12.9","","100.43","","","","-16","","Snow"
"2013-12-26 16:00","2013","12","26","16:00","-10.7","","-12.6","","86","","5","","12","","8.1","","100.45","","","","-17","","Snow"
"2013-12-26 17:00","2013","12","26","17:00","-10.3","","-12.2","","86","","2","","7","","6.4","","100.53","","","","-14","","Snow"
"2013-12-26 18:00","2013","12","26","18:00","-9.9","","-11.7","","87","","34","","11","","4.8","","100.64","","","","-15","","Snow"
"2013-12-26 19:00","2013","12","26","19:00","-9.5","","-11.3","","87","","27","","6","","11.3","","100.74","","","","-13","","Snow"
"2013-12-26 20:00","2013","12","26","20:00","-10.1","","-11.6","","89","","24","","4","","11.3","","100.76","","","","-12","","Snow"
"2013-12-26 21:00","2013","12","26","21:00","-10.4","","-11.9","","89","","27","","9","","11.3","","100.78","","","","-15","","NA"
"2013-12-26 22:00","2013","12","26","22:00","-10.4","","-11.9","","89","","22","","3","","11.3","","100.78","","","","-12","","Mostly Cloudy"
"2013-12-26 23:00","2013","12","26","23:00","-11.4","","-12.6","","91","","27","","4","","11.3","","100.78","","","","-14","","NA"
"2013-12-27 00:00","2013","12","27","00:00","-11.2","","-12.7","","89","","22","","4","","12.9","","100.80","","","","-14","","NA"
"2013-12-27 01:00","2013","12","27","01:00","-10.7","","-12.3","","88","","30","","11","","11.3","","100.80","","","","-16","","Cloudy"
"2013-12-27 02:00","2013","12","27","02:00","-11.0","","-12.6","","88","","24","","5","","16.1","","100.77","","","","-14","","NA"
"2013-12-27 03:00","2013","12","27","03:00","-10.9","","-12.5","","88","","26","","8","","12.9","","100.81","","","","-16","","NA"
"2013-12-27 04:00","2013","12","27","04:00","-10.9","","-12.5","","88","","22","","5","","12.9","","100.80","","","","-14","","Cloudy"
"2013-12-27 05:00","2013","12","27","05:00","-10.7","","-12.3","","88","","25","","3","","6.4","","100.79","","","","-13","","Snow"
"2013-12-27 06:00","2013","12","27","06:00","-10.7","","-12.2","","89","","24","","6","","11.3","","100.82","","","","-14","","NA"
"2013-12-27 07:00","2013","12","27","07:00","-10.4","","-11.9","","89","","20","","10","","12.9","","100.82","","","","-16","","Cloudy"
"2013-12-27 08:00","2013","12","27","08:00","-11.2","","-12.8","","88","","16","","6","","12.9","","100.81","","","","-15","","NA"
"2013-12-27 09:00","2013","12","27","09:00","-9.6","","-11.1","","89","","21","","8","","8.1","","100.85","","","","-14","","Snow"
"2013-12-27 10:00","2013","12","27","10:00","-7.3","","-9.0","","88","","22","","8","","12.9","","100.83","","","","-11","","Snow"
"2013-12-27 11:00","2013","12","27","11:00","-6.6","","-8.7","","85","","26","","13","","16.1","","100.84","","","","-12","","NA"
"2013-12-27 12:00","2013","12","27","12:00","-5.1","","-8.2","","79","","28","","15","","24.1","","100.77","","","","-11","","NA"
"2013-12-27 13:00","2013","12","27","13:00","-5.0","","-8.4","","77","","25","","13","","24.1","","100.72","","","","-10","","Clear"
"2013-12-27 14:00","2013","12","27","14:00","-5.1","","-8.4","","78","","29","","14","","24.1","","100.72","","","","-10","","NA"
"2013-12-27 15:00","2013","12","27","15:00","-5.5","","-10.0","","71","","29","","15","","24.1","","100.75","","","","-11","","NA"
"2013-12-27 16:00","2013","12","27","16:00","-6.4","","-10.7","","72","","27","","9","","24.1","","100.75","","","","-11","","Mainly Clear"
"2013-12-27 17:00","2013","12","27","17:00","-6.9","","-10.5","","76","","20","","6","","24.1","","100.79","","","","-10","","NA"
"2013-12-27 18:00","2013","12","27","18:00","-6.7","","-9.9","","78","","21","","8","","24.1","","100.85","","","","-11","","NA"
"2013-12-27 19:00","2013","12","27","19:00","-6.7","","-9.9","","78","","19","","11","","24.1","","100.78","","","","-12","","Cloudy"
"2013-12-27 20:00","2013","12","27","20:00","-7.1","","-10.0","","80","","19","","11","","24.1","","100.73","","","","-12","","NA"
"2013-12-27 21:00","2013","12","27","21:00","-7.2","","-9.3","","85","","19","","12","","24.1","","100.66","","","","-13","","NA"
"2013-12-27 22:00","2013","12","27","22:00","-6.8","","-9.1","","84","","19","","10","","24.1","","100.55","","","","-11","","Mostly Cloudy"
"2013-12-27 23:00","2013","12","27","23:00","-6.4","","-8.7","","84","","18","","12","","24.1","","100.45","","","","-12","","NA"
"2013-12-28 00:00","2013","12","28","00:00","-5.8","","-8.2","","83","","18","","16","","24.1","","100.32","","","","-12","","NA"
"2013-12-28 01:00","2013","12","28","01:00","-5.4","","-7.5","","85","","18","","15","","16.1","","100.12","","","","-11","","Cloudy"
"2013-12-28 02:00","2013","12","28","02:00","-3.9","","-5.8","","87","","20","","16","","12.9","","100.03","","","","-9","","Snow"
"2013-12-28 03:00","2013","12","28","03:00","-3.1","","-4.4","","91","","20","","14","","12.9","","99.98","","","","-8","","Snow"
"2013-12-28 04:00","2013","12","28","04:00","-2.2","","-3.5","","91","","22","","16","","11.3","","99.90","","","","-7","","Snow"
"2013-12-28 05:00","2013","12","28","05:00","-1.3","","-2.4","","92","","21","","13","","11.3","","99.88","","","","-6","","Snow"
"2013-12-28 06:00","2013","12","28","06:00","-0.5","","-1.6","","92","","21","","19","","11.3","","99.85","","","","-6","","Snow"
"2013-12-28 07:00","2013","12","28","07:00","0.5","","-1.0","","90","","22","","22","","16.1","","99.88","","","","","","Snow"
"2013-12-28 08:00","2013","12","28","08:00","1.0","","-0.8","","88","","23","","21","","12.9","","99.92","","","","","","Snow"
"2013-12-28 09:00","2013","12","28","09:00","1.5","","-0.6","","86","","24","","21","","12.9","","100.01","","","","","","NA"
"2013-12-28 10:00","2013","12","28","10:00","1.6","","-0.5","","86","","23","","17","","16.1","","100.06","","","","","","Cloudy"
"2013-12-28 11:00","2013","12","28","11:00","1.6","","-0.3","","87","","23","","17","","16.1","","100.08","","","","","","NA"
"2013-12-28 12:00","2013","12","28","12:00","1.8","","-0.1","","87","","23","","17","","80.5","","100.06","","","","","","NA"
"2013-12-28 13:00","2013","12","28","13:00","1.9","","-0.2","","86","","23","","17","","16.1","","100.02","","","","","","Cloudy"
"2013-12-28 14:00","2013","12","28","14:00","1.8","","0.2","","89","","22","","19","","16.1","","100.05","","","","","","NA"
"2013-12-28 15:00","2013","12","28","15:00","1.6","","0.1","","90","","22","","17","","16.1","","99.97","","","","","","NA"
"2013-12-28 16:00","2013","12","28","16:00","1.5","","0.2","","91","","22","","14","","9.7","","100.04","","","","","","Fog"
"2013-12-28 17:00","2013","12","28","17:00","1.5","","0.0","","90","","21","","17","","9.7","","100.06","","","","","","Fog"
"2013-12-28 18:00","2013","12","28","18:00","1.1","","0.1","","93","","23","","13","","9.7","","100.13","","","","","","Fog"
"2013-12-28 19:00","2013","12","28","19:00","1.1","","0.1","","93","","22","","12","","11.3","","100.16","","","","","","Cloudy"
"2013-12-28 20:00","2013","12","28","20:00","1.2","","0.2","","93","","21","","12","","8.1","","100.21","","","","","","Fog"
"2013-12-28 21:00","2013","12","28","21:00","1.2","","0.2","","93","","21","","12","","6.4","","100.18","","","","","","Fog"
"2013-12-28 22:00","2013","12","28","22:00","1.0","","0.1","","94","","21","","9","","4.8","","100.09","","","","","","Fog"
"2013-12-28 23:00","2013","12","28","23:00","1.0","","0.1","","94","","19","","10","","4.8","","100.03","","","","","","Fog"
"2013-12-29 00:00","2013","12","29","00:00","1.1","","-0.2","","91","","20","","11","","4.8","","99.99","","","","","","Fog"
"2013-12-29 01:00","2013","12","29","01:00","1.0","","-0.2","","92","","19","","11","","4.8","","99.95","","","","","","Fog"
"2013-12-29 02:00","2013","12","29","02:00","0.9","","-0.3","","92","","20","","4","","4.8","","99.96","","","","","","Fog"
"2013-12-29 03:00","2013","12","29","03:00","0.7","","-0.3","","93","","15","","7","","4.8","","99.88","","","","","","Fog"
"2013-12-29 04:00","2013","12","29","04:00","0.6","","-0.4","","93","","15","","10","","4.8","","99.83","","","","","","Fog"
"2013-12-29 05:00","2013","12","29","05:00","0.5","","-0.4","","94","","14","","8","","4.0","","99.80","","","","","","Fog"
"2013-12-29 06:00","2013","12","29","06:00","0.6","","-0.4","","93","","12","","12","","3.6","","99.73","","","","","","Fog"
"2013-12-29 07:00","2013","12","29","07:00","0.5","","-0.4","","94","","11","","12","","4.8","","99.67","","","","","","Fog"
"2013-12-29 08:00","2013","12","29","08:00","0.6","","-0.3","","94","","10","","14","","3.2","","99.67","","","","","","Fog"
"2013-12-29 09:00","2013","12","29","09:00","0.7","","-0.2","","94","","11","","18","","4.8","","99.63","","","","","","Fog"
"2013-12-29 10:00","2013","12","29","10:00","-2.5","","-3.6","","92","","8","","22","","9.7","","99.55","","","","-9","","Fog"
"2013-12-29 11:00","2013","12","29","11:00","-3.1","","-4.2","","92","","9","","21","","12.9","","99.51","","","","-9","","NA"
"2013-12-29 12:00","2013","12","29","12:00","-4.0","","-5.1","","92","","9","","21","","12.9","","99.36","","","","-10","","NA"
"2013-12-29 13:00","2013","12","29","13:00","-4.2","","-5.6","","90","","8","","20","","16.1","","99.24","","","","-11","","Cloudy"
"2013-12-29 14:00","2013","12","29","14:00","-4.6","","-6.3","","88","","7","","15","","16.1","","99.16","","","","-10","","NA"
"2013-12-29 15:00","2013","12","29","15:00","-5.2","","-6.6","","90","","8","","18","","16.1","","99.08","","","","-11","","NA"
"2013-12-29 16:00","2013","12","29","16:00","-5.7","","-6.9","","91","","9","","12","","12.9","","99.08","","","","-11","","Cloudy"
"2013-12-29 17:00","2013","12","29","17:00","-6.4","","-7.6","","91","","9","","17","","12.9","","98.94","","","","-13","","NA"
"2013-12-29 18:00","2013","12","29","18:00","-6.9","","-8.3","","90","","5","","17","","12.9","","98.93","","","","-13","","NA"
"2013-12-29 19:00","2013","12","29","19:00","-8.4","","-9.9","","89","","6","","14","","12.9","","98.95","","","","-15","","Cloudy"
"2013-12-29 20:00","2013","12","29","20:00","-8.9","","-10.4","","89","","4","","17","","16.1","","98.92","","","","-16","","NA"
"2013-12-29 21:00","2013","12","29","21:00","-9.1","","-10.6","","89","","7","","13","","12.9","","98.85","","","","-15","","NA"
"2013-12-29 22:00","2013","12","29","22:00","-8.9","","-10.4","","89","","5","","9","","11.3","","98.82","","","","-14","","Cloudy"
"2013-12-29 23:00","2013","12","29","23:00","-8.7","","-10.2","","89","","31","","14","","9.7","","98.91","","","","-15","","Fog"
"2013-12-30 00:00","2013","12","30","00:00","-8.4","","-9.3","","93","","28","","12","","1.6","","98.98","","","","-14","","Freezing Drizzle,Snow Grains,Fog"
"2013-12-30 01:00","2013","12","30","01:00","-8.7","","-10.2","","89","","29","","28","","12.9","","99.05","","","","-18","","Cloudy"
"2013-12-30 02:00","2013","12","30","02:00","-12.1","","-14.9","","80","","29","","34","","16.1","","99.23","","","","-23","","Snow"
"2013-12-30 03:00","2013","12","30","03:00","-14.0","","-17.2","","77","","28","","35","","24.1","","99.41","","","","-25","","NA"
"2013-12-30 04:00","2013","12","30","04:00","-15.2","","-18.5","","76","","28","","30","","24.1","","99.58","","","","-26","","Mostly Cloudy"
"2013-12-30 05:00","2013","12","30","05:00","-16.1","","-20.2","","71","","29","","40","","24.1","","99.74","","","","-29","","NA"
"2013-12-30 06:00","2013","12","30","06:00","-17.4","","-21.8","","69","","29","","34","","24.1","","99.98","","","","-30","","NA"
"2013-12-30 07:00","2013","12","30","07:00","-18.5","","-22.9","","69","","28","","31","","24.1","","100.19","","","","-31","","Mainly Clear"
"2013-12-30 08:00","2013","12","30","08:00","-19.3","","-23.3","","71","","27","","26","","24.1","","100.39","","","","-31","","NA"
"2013-12-30 09:00","2013","12","30","09:00","-19.0","","-23.5","","68","","28","","24","","24.1","","100.54","","","","-30","","NA"
"2013-12-30 10:00","2013","12","30","10:00","-18.4","","-23.3","","66","","29","","31","","24.1","","100.66","","","","-31","","Clear"
"2013-12-30 11:00","2013","12","30","11:00","-17.8","","-22.9","","65","","29","","24","","24.1","","100.70","","","","-29","","NA"
"2013-12-30 12:00","2013","12","30","12:00","-17.0","","-22.3","","64","","29","","20","","24.1","","100.74","","","","-27","","NA"
"2013-12-30 13:00","2013","12","30","13:00","-16.7","","-22.4","","62","","30","","21","","24.1","","100.74","","","","-27","","Mainly Clear"
"2013-12-30 14:00","2013","12","30","14:00","-16.6","","-23.1","","58","","26","","23","","24.1","","100.83","","","","-27","","NA"
"2013-12-30 15:00","2013","12","30","15:00","-16.5","","-23.8","","54","","26","","18","","24.1","","100.87","","","","-26","","NA"
"2013-12-30 16:00","2013","12","30","16:00","-17.0","","-24.7","","52","","28","","22","","24.1","","100.89","","","","-27","","Clear"
"2013-12-30 17:00","2013","12","30","17:00","-17.9","","-24.9","","55","","28","","14","","24.1","","100.94","","","","-26","","NA"
"2013-12-30 18:00","2013","12","30","18:00","-18.1","","-24.7","","57","","29","","11","","24.1","","100.99","","","","-25","","NA"
"2013-12-30 19:00","2013","12","30","19:00","-19.3","","-25.1","","61","","29","","8","","24.1","","101.00","","","","-25","","Clear"
"2013-12-30 20:00","2013","12","30","20:00","-20.0","","-25.2","","64","","25","","8","","24.1","","101.02","","","","-26","","NA"
"2013-12-30 21:00","2013","12","30","21:00","-19.8","","-24.1","","69","","24","","6","","24.1","","101.03","","","","-25","","NA"
"2013-12-30 22:00","2013","12","30","22:00","-21.0","","-24.5","","74","","20","","6","","24.1","","100.99","","","","-26","","Mostly Cloudy"
"2013-12-30 23:00","2013","12","30","23:00","-19.8","","-24.0","","70","","23","","6","","24.1","","100.95","","","","-25","","NA"
"2013-12-31 00:00","2013","12","31","00:00","-20.0","","-23.4","","75","","23","","5","","24.1","","100.92","","","","-24","","NA"
"2013-12-31 01:00","2013","12","31","01:00","-21.0","","-24.2","","76","","18","","2","","24.1","","100.89","","","","-23","","Mostly Cloudy"
"2013-12-31 02:00","2013","12","31","02:00","-20.8","","-23.8","","77","","13","","4","","24.1","","100.87","","","","-24","","NA"
"2013-12-31 03:00","2013","12","31","03:00","-21.7","","-25.2","","74","","11","","4","","24.1","","100.81","","","","-25","","NA"
"2013-12-31 04:00","2013","12","31","04:00","-20.0","","-23.8","","72","","6","","7","","24.1","","100.70","","","","-26","","Mostly Cloudy"
"2013-12-31 05:00","2013","12","31","05:00","-20.6","","-24.4","","72","","6","","11","","24.1","","100.64","","","","-28","","NA"
"2013-12-31 06:00","2013","12","31","06:00","-20.6","","-24.3","","73","","7","","16","","24.1","","100.56","","","","-30","","NA"
"2013-12-31 07:00","2013","12","31","07:00","-20.4","","-23.9","","74","","9","","13","","24.1","","100.54","","","","-29","","Cloudy"
"2013-12-31 08:00","2013","12","31","08:00","-20.5","","-23.9","","75","","6","","15","","24.1","","100.52","","","","-30","","NA"
"2013-12-31 09:00","2013","12","31","09:00","-19.6","","-23.0","","75","","7","","18","","9.7","","100.44","","","","-29","","Snow"
"2013-12-31 10:00","2013","12","31","10:00","-18.7","","-21.9","","76","","9","","17","","11.3","","100.41","","","","-28","","Snow"
"2013-12-31 11:00","2013","12","31","11:00","-17.8","","-21.1","","76","","8","","17","","4.0","","100.33","","","","-27","","Snow"
"2013-12-31 12:00","2013","12","31","12:00","-16.8","","-20.1","","76","","8","","21","","6.4","","100.17","","","","-27","","Snow"
"2013-12-31 13:00","2013","12","31","13:00","-16.0","","-19.2","","77","","8","","12","","4.8","","100.11","","","","-23","","Snow"
"2013-12-31 14:00","2013","12","31","14:00","-15.9","","-19.1","","77","","8","","17","","6.4","","100.06","","","","-25","","Snow"
"2013-12-31 15:00","2013","12","31","15:00","-15.7","","-18.6","","79","","9","","9","","4.8","","100.09","","","","-22","","Snow"
"2013-12-31 16:00","2013","12","31","16:00","-15.9","","-18.6","","80","","8","","8","","3.2","","100.17","","","","-21","","Snow"
"2013-12-31 17:00","2013","12","31","17:00","-16.6","","-19.3","","80","","5","","7","","16.1","","100.24","","","","-22","","NA"
"2013-12-31 18:00","2013","12","31","18:00","-18.6","","-20.4","","86","","3","","9","","19.3","","100.32","","","","-25","","NA"
"2013-12-31 19:00","2013","12","31","19:00","-17.7","","-20.1","","82","","1","","12","","24.1","","100.47","","","","-25","","Snow Showers"
"2013-12-31 20:00","2013","12","31","20:00","-20.3","","-22.3","","84","","23","","4","","24.1","","100.52","","","","-24","","NA"
"2013-12-31 21:00","2013","12","31","21:00","-19.7","","-21.5","","86","","22","","6","","24.1","","100.56","","","","-25","","NA"
"2013-12-31 22:00","2013","12","31","22:00","-20.6","","-22.6","","84","","20","","6","","24.1","","100.61","","","","-26","","Mainly Clear"
"2013-12-31 23:00","2013","12","31","23:00","-20.0","","-22.2","","83","","21","","5","","8.1","","100.61","","","","-24","","Snow Showers"
