"Station Name","OTTAWA MACDONALD-CARTIER INT'L A"
"Province","ONTARIO"
"Latitude","45.32"
"Longitude","-75.67"
"Elevation","114.00"
"Climate Identifier","6106000"
"WMO Identifier","71628"
"TC Identifier","YOW"
"All times are specified in Local Standard Time (LST). Add 1 hour to adjust for Daylight Saving Time where and when it is observed."

"Legend"
"E","Estimated"
"M","Missing"
"NA","Not Available"

"Date/Time","Year","Month","Day","Time","Temp (°C)","Temp Flag","Dew Point Temp (°C)","Dew Point Temp Flag","Rel Hum (%)","Rel Hum Flag","Wind Dir (10s deg)","Wind Dir Flag","Wind Spd (km/h)","Wind Spd Flag","Visibility (km)","Visibility Flag","Stn Press (kPa)","Stn Press Flag","Hmdx","Hmdx Flag","Wind Chill","Wind Chill Flag","Weather"
"1998-10-01 00:00","1998","10","01","00:00","14.1","","12.8","","92","","21","","4","","12.9","","98.82","","","","","","Cloudy"
"1998-10-01 01:00","1998","10","01","01:00","13.6","","12.5","","93","","25","","7","","12.9","","98.79","","","","","","Rain"
"1998-10-01 02:00","1998","10","01","02:00","11.2","","10.2","","94","","33","","7","","9.7","","98.79","","","","","","Rain,Fog"
"1998-10-01 03:00","1998","10","01","03:00","10.5","","10.0","","97","","31","","6","","16.1","","98.72","","","","","","Rain"
"1998-10-01 04:00","1998","10","01","04:00","10.7","","10.1","","96","","30","","7","","19.3","","98.65","","","","","","Rain"
"1998-10-01 05:00","1998","10","01","05:00","10.3","","9.7","","96","","26","","4","","19.3","","98.62","","","","","","Rain"
"1998-10-01 06:00","1998","10","01","06:00","10.1","","9.6","","97","","28","","9","","9.7","","98.62","","","","","","Rain,Fog"
"1998-10-01 07:00","1998","10","01","07:00","10.1","","9.5","","96","","27","","13","","16.1","","98.65","","","","","","Rain"
"1998-10-01 08:00","1998","10","01","08:00","9.3","","8.5","","95","","29","","24","","9.7","","98.79","","","","","","Rain,Fog"
"1998-10-01 09:00","1998","10","01","09:00","7.8","","6.4","","91","","28","","32","","40.2","","98.92","","","","","","Mostly Cloudy"
"1998-10-01 10:00","1998","10","01","10:00","7.7","","4.6","","81","","29","","35","","40.2","","99.12","","","","","","Rain Showers"
"1998-10-01 11:00","1998","10","01","11:00","8.2","","2.5","","67","","29","","33","","40.2","","99.19","","","","","","Mostly Cloudy"
"1998-10-01 12:00","1998","10","01","12:00","8.3","","1.3","","61","","30","","30","","40.2","","99.29","","","","","","Mainly Clear"
"1998-10-01 13:00","1998","10","01","13:00","9.2","","-0.2","","52","","30","","30","","40.2","","99.39","","","","","","Mainly Clear"
"1998-10-01 14:00","1998","10","01","14:00","10.2","","-0.9","","46","","30","","28","","40.2","","99.46","","","","","","Mostly Cloudy"
"1998-10-01 15:00","1998","10","01","15:00","10.0","","-1.0","","46","","28","","24","","40.2","","99.49","","","","","","Mostly Cloudy"
"1998-10-01 16:00","1998","10","01","16:00","9.6","","-1.6","","45","","29","","22","","40.2","","99.56","","","","","","Mostly Cloudy"
"1998-10-01 17:00","1998","10","01","17:00","10.0","","-2.0","","43","","28","","19","","40.2","","99.59","","","","","","Mostly Cloudy"
"1998-10-01 18:00","1998","10","01","18:00","8.7","","-2.1","","47","","26","","9","","32.2","","99.66","","","","","","Mainly Clear"
"1998-10-01 19:00","1998","10","01","19:00","7.1","","-1.6","","54","","26","","9","","24.1","","99.66","","","","","","Clear"
"1998-10-01 20:00","1998","10","01","20:00","5.8","","-1.2","","61","","24","","6","","24.1","","99.66","","","","","","Clear"
"1998-10-01 21:00","1998","10","01","21:00","5.3","","-1.1","","63","","25","","6","","24.1","","99.69","","","","","","Mainly Clear"
"1998-10-01 22:00","1998","10","01","22:00","4.3","","-1.3","","67","","27","","7","","24.1","","99.69","","","","","","Clear"
"1998-10-01 23:00","1998","10","01","23:00","5.0","","-1.0","","65","","25","","6","","24.1","","99.69","","","","","","Mainly Clear"
"1998-10-02 00:00","1998","10","02","00:00","5.0","","-1.3","","64","","22","","4","","24.1","","99.69","","","","","","Clear"
"1998-10-02 01:00","1998","10","02","01:00","3.5","","-1.2","","71","","24","","6","","24.1","","99.69","","","","","","Clear"
"1998-10-02 02:00","1998","10","02","02:00","3.3","","-0.6","","76","","24","","7","","24.1","","99.69","","","","","","Clear"
"1998-10-02 03:00","1998","10","02","03:00","3.4","","0.1","","79","","25","","9","","24.1","","99.69","","","","","","Clear"
"1998-10-02 04:00","1998","10","02","04:00","2.7","","0.1","","83","","27","","6","","24.1","","99.72","","","","","","Clear"
"1998-10-02 05:00","1998","10","02","05:00","3.0","","0.4","","83","","26","","6","","24.1","","99.72","","","","","","Clear"
"1998-10-02 06:00","1998","10","02","06:00","2.8","","0.3","","84","","24","","6","","32.2","","99.76","","","","","","Mainly Clear"
"1998-10-02 07:00","1998","10","02","07:00","3.4","","1.1","","85","","26","","6","","40.2","","99.79","","","","","","Mainly Clear"
"1998-10-02 08:00","1998","10","02","08:00","6.1","","2.5","","78","","29","","13","","40.2","","99.82","","","","","","Mainly Clear"
"1998-10-02 09:00","1998","10","02","09:00","7.0","","2.0","","70","","28","","15","","40.2","","99.86","","","","","","Mostly Cloudy"
"1998-10-02 10:00","1998","10","02","10:00","8.2","","2.0","","65","","28","","17","","40.2","","99.86","","","","","","Mostly Cloudy"
"1998-10-02 11:00","1998","10","02","11:00","9.7","","2.0","","59","","29","","15","","40.2","","99.86","","","","","","Mostly Cloudy"
"1998-10-02 12:00","1998","10","02","12:00","10.0","","1.4","","55","","27","","22","","40.2","","99.89","","","","","","Mostly Cloudy"
"1998-10-02 13:00","1998","10","02","13:00","10.2","","1.1","","53","","29","","19","","40.2","","99.89","","","","","","Mostly Cloudy"
"1998-10-02 14:00","1998","10","02","14:00","11.0","","1.1","","50","","28","","19","","40.2","","99.89","","","","","","Mostly Cloudy"
"1998-10-02 15:00","1998","10","02","15:00","12.0","","1.0","","47","","27","","24","","40.2","","99.89","","","","","","Mainly Clear"
"1998-10-02 16:00","1998","10","02","16:00","11.4","","0.3","","46","","29","","22","","40.2","","99.96","","","","","","Mostly Cloudy"
"1998-10-02 17:00","1998","10","02","17:00","10.9","","-0.1","","47","","28","","22","","40.2","","100.03","","","","","","Mainly Clear"
"1998-10-02 18:00","1998","10","02","18:00","9.8","","0.4","","52","","26","","17","","40.2","","100.06","","","","","","Mainly Clear"
"1998-10-02 19:00","1998","10","02","19:00","9.3","","1.0","","56","","21","","4","","25.0","","100.16","","","","","","Mainly Clear"
"1998-10-02 20:00","1998","10","02","20:00","6.8","","0.4","","64","","27","","9","","25.0","","100.26","","","","","","Mainly Clear"
"1998-10-02 21:00","1998","10","02","21:00","7.0","","1.3","","67","","26","","9","","25.0","","100.33","","","","","","Mostly Cloudy"
"1998-10-02 22:00","1998","10","02","22:00","8.5","","2.6","","66","","27","","13","","25.0","","100.39","","","","","","Mostly Cloudy"
"1998-10-02 23:00","1998","10","02","23:00","8.1","","2.6","","68","","30","","17","","25.0","","100.43","","","","","","Mainly Clear"
"1998-10-03 00:00","1998","10","03","00:00","7.1","","2.6","","73","","30","","15","","25.0","","100.46","","","","","","Clear"
"1998-10-03 01:00","1998","10","03","01:00","6.6","","2.7","","76","","30","","13","","25.0","","100.49","","","","","","Clear"
"1998-10-03 02:00","1998","10","03","02:00","5.9","","3.0","","82","","27","","6","","25.0","","100.56","","","","","","Mainly Clear"
"1998-10-03 03:00","1998","10","03","03:00","5.2","","2.6","","83","","29","","9","","25.0","","100.60","","","","","","Mainly Clear"
"1998-10-03 04:00","1998","10","03","04:00","4.8","","2.3","","84","","27","","7","","25.0","","100.66","","","","","","Mainly Clear"
"1998-10-03 05:00","1998","10","03","05:00","4.4","","2.3","","86","","29","","11","","25.0","","100.73","","","","","","Clear"
"1998-10-03 06:00","1998","10","03","06:00","4.7","","3.8","","94","","30","","11","","32.2","","100.80","","","","","","Mainly Clear"
"1998-10-03 07:00","1998","10","03","07:00","5.1","","3.2","","88","","31","","11","","40.2","","100.86","","","","","","Mainly Clear"
"1998-10-03 08:00","1998","10","03","08:00","6.6","","4.0","","83","","29","","7","","40.2","","100.93","","","","","","Mainly Clear"
"1998-10-03 09:00","1998","10","03","09:00","8.2","","3.7","","73","","29","","13","","40.2","","100.96","","","","","","Mainly Clear"
"1998-10-03 10:00","1998","10","03","10:00","9.3","","4.0","","69","","31","","13","","40.2","","101.00","","","","","","Mostly Cloudy"
"1998-10-03 11:00","1998","10","03","11:00","10.2","","2.7","","60","","33","","15","","40.2","","101.00","","","","","","Mostly Cloudy"
"1998-10-03 12:00","1998","10","03","12:00","11.6","","2.4","","53","","30","","11","","40.2","","101.00","","","","","","Mainly Clear"
"1998-10-03 13:00","1998","10","03","13:00","11.8","","1.9","","51","","29","","11","","40.2","","100.90","","","","","","Mainly Clear"
"1998-10-03 14:00","1998","10","03","14:00","11.7","","1.5","","50","","32","","13","","40.2","","100.86","","","","","","Mostly Cloudy"
"1998-10-03 15:00","1998","10","03","15:00","12.5","","1.8","","48","","28","","17","","40.2","","100.90","","","","","","Mainly Clear"
"1998-10-03 16:00","1998","10","03","16:00","12.2","","1.2","","47","","29","","13","","40.2","","100.90","","","","","","Mainly Clear"
"1998-10-03 17:00","1998","10","03","17:00","11.7","","0.6","","46","","27","","9","","40.2","","100.90","","","","","","Mainly Clear"
"1998-10-03 18:00","1998","10","03","18:00","10.2","","0.3","","50","","29","","6","","40.2","","100.93","","","","","","Clear"
"1998-10-03 19:00","1998","10","03","19:00","8.6","","0.0","","55","","27","","4","","25.0","","101.00","","","","","","Clear"
"1998-10-03 20:00","1998","10","03","20:00","8.0","","1.1","","62","","31","","4","","25.0","","101.03","","","","","","Mainly Clear"
"1998-10-03 21:00","1998","10","03","21:00","7.4","","0.9","","63","","30","","6","","25.0","","101.10","","","","","","Clear"
"1998-10-03 22:00","1998","10","03","22:00","5.5","","0.3","","69","","29","","6","","25.0","","101.13","","","","","","Clear"
"1998-10-03 23:00","1998","10","03","23:00","5.6","","1.3","","74","","30","","6","","25.0","","101.16","","","","","","Clear"
"1998-10-04 00:00","1998","10","04","00:00","5.4","","1.5","","76","","30","","6","","25.0","","101.20","","","","","","Clear"
"1998-10-04 01:00","1998","10","04","01:00","4.6","","0.8","","76","","29","","4","","25.0","","101.23","","","","","","Clear"
"1998-10-04 02:00","1998","10","04","02:00","3.9","","0.8","","80","","27","","4","","25.0","","101.23","","","","","","Clear"
"1998-10-04 03:00","1998","10","04","03:00","3.1","","0.4","","82","","24","","4","","25.0","","101.23","","","","","","Clear"
"1998-10-04 04:00","1998","10","04","04:00","2.0","","0.0","","87","","27","","4","","25.0","","101.27","","","","","","Clear"
"1998-10-04 05:00","1998","10","04","05:00","2.0","","-0.3","","85","","","","0","","25.0","","101.30","","","","","","Clear"
"1998-10-04 06:00","1998","10","04","06:00","1.6","","-0.3","","87","","","","0","","40.2","","101.40","","","","","","Clear"
"1998-10-04 07:00","1998","10","04","07:00","2.7","","0.9","","88","","31","","6","","40.2","","101.43","","","","","","Clear"
"1998-10-04 08:00","1998","10","04","08:00","4.7","","3.3","","91","","30","","6","","40.2","","101.50","","","","","","Clear"
"1998-10-04 09:00","1998","10","04","09:00","7.0","","5.4","","90","","30","","4","","40.2","","101.53","","","","","","Clear"
"1998-10-04 10:00","1998","10","04","10:00","8.5","","3.9","","73","","29","","7","","40.2","","101.53","","","","","","Clear"
"1998-10-04 11:00","1998","10","04","11:00","9.7","","2.6","","61","","29","","15","","40.2","","101.50","","","","","","Clear"
"1998-10-04 12:00","1998","10","04","12:00","10.8","","3.1","","59","","31","","13","","40.2","","101.43","","","","","","Clear"
"1998-10-04 13:00","1998","10","04","13:00","11.7","","3.0","","55","","29","","13","","40.2","","101.37","","","","","","Clear"
"1998-10-04 14:00","1998","10","04","14:00","12.3","","2.6","","52","","29","","6","","40.2","","101.30","","","","","","Clear"
"1998-10-04 15:00","1998","10","04","15:00","13.1","","2.6","","49","","27","","7","","40.2","","101.27","","","","","","Clear"
"1998-10-04 16:00","1998","10","04","16:00","12.5","","3.0","","52","","28","","9","","40.2","","101.20","","","","","","Clear"
"1998-10-04 17:00","1998","10","04","17:00","11.9","","2.3","","52","","27","","9","","40.2","","101.23","","","","","","Clear"
"1998-10-04 18:00","1998","10","04","18:00","10.0","","2.2","","58","","27","","7","","40.2","","101.23","","","","","","Clear"
"1998-10-04 19:00","1998","10","04","19:00","8.5","","2.0","","64","","28","","9","","25.0","","101.27","","","","","","Clear"
"1998-10-04 20:00","1998","10","04","20:00","8.2","","2.2","","66","","30","","6","","25.0","","101.33","","","","","","Mainly Clear"
"1998-10-04 21:00","1998","10","04","21:00","8.0","","2.3","","67","","33","","6","","25.0","","101.33","","","","","","Clear"
"1998-10-04 22:00","1998","10","04","22:00","7.1","","1.4","","67","","32","","7","","25.0","","101.40","","","","","","Clear"
"1998-10-04 23:00","1998","10","04","23:00","6.7","","1.2","","68","","32","","6","","25.0","","101.40","","","","","","Clear"
"1998-10-05 00:00","1998","10","05","00:00","5.8","","0.1","","67","","","","0","","25.0","","101.40","","","","","","Clear"
"1998-10-05 01:00","1998","10","05","01:00","5.4","","0.4","","70","","","","0","","25.0","","101.40","","","","","","Clear"
"1998-10-05 02:00","1998","10","05","02:00","4.4","","0.2","","74","","","","0","","25.0","","101.40","","","","","","Clear"
"1998-10-05 03:00","1998","10","05","03:00","3.7","","0.7","","81","","24","","4","","25.0","","101.37","","","","","","Clear"
"1998-10-05 04:00","1998","10","05","04:00","2.1","","-1.1","","79","","29","","4","","25.0","","101.43","","","","","","Clear"
"1998-10-05 05:00","1998","10","05","05:00","2.3","","-0.3","","83","","27","","4","","25.0","","101.43","","","","","","Clear"
"1998-10-05 06:00","1998","10","05","06:00","1.8","","-0.2","","87","","28","","6","","32.2","","101.50","","","","","","Mainly Clear"
"1998-10-05 07:00","1998","10","05","07:00","3.6","","1.8","","88","","26","","4","","32.2","","101.53","","","","","","Mainly Clear"
"1998-10-05 08:00","1998","10","05","08:00","5.7","","4.3","","91","","27","","4","","40.2","","101.57","","","","","","Mostly Cloudy"
"1998-10-05 09:00","1998","10","05","09:00","7.8","","5.1","","83","","30","","7","","40.2","","101.60","","","","","","Mostly Cloudy"
"1998-10-05 10:00","1998","10","05","10:00","9.1","","4.5","","73","","30","","6","","40.2","","101.63","","","","","","Mostly Cloudy"
"1998-10-05 11:00","1998","10","05","11:00","11.7","","4.8","","63","","32","","11","","40.2","","101.60","","","","","","Mainly Clear"
"1998-10-05 12:00","1998","10","05","12:00","12.7","","3.7","","54","","32","","11","","40.2","","101.53","","","","","","Mainly Clear"
"1998-10-05 13:00","1998","10","05","13:00","13.3","","-0.2","","39","","33","","17","","40.2","","101.50","","","","","","Mainly Clear"
"1998-10-05 14:00","1998","10","05","14:00","13.6","","-1.2","","36","","33","","15","","40.2","","101.50","","","","","","Mainly Clear"
"1998-10-05 15:00","1998","10","05","15:00","13.4","","-0.8","","38","","33","","13","","40.2","","101.47","","","","","","Mainly Clear"
"1998-10-05 16:00","1998","10","05","16:00","13.0","","-1.6","","36","","1","","13","","40.2","","101.50","","","","","","Mainly Clear"
"1998-10-05 17:00","1998","10","05","17:00","12.0","","-2.1","","37","","2","","13","","40.2","","101.53","","","","","","Mostly Cloudy"
"1998-10-05 18:00","1998","10","05","18:00","10.3","","-2.9","","39","","1","","13","","40.2","","101.60","","","","","","Mostly Cloudy"
"1998-10-05 19:00","1998","10","05","19:00","9.3","","-2.4","","44","","1","","7","","25.0","","101.67","","","","","","Mostly Cloudy"
"1998-10-05 20:00","1998","10","05","20:00","8.8","","-2.0","","47","","2","","13","","25.0","","101.73","","","","","","Mostly Cloudy"
"1998-10-05 21:00","1998","10","05","21:00","7.9","","-1.9","","50","","4","","9","","25.0","","101.80","","","","","","Mostly Cloudy"
"1998-10-05 22:00","1998","10","05","22:00","6.5","","-1.5","","57","","4","","9","","25.0","","101.83","","","","","","Mostly Cloudy"
"1998-10-05 23:00","1998","10","05","23:00","5.5","","-2.2","","58","","7","","7","","25.0","","101.87","","","","","","Mainly Clear"
"1998-10-06 00:00","1998","10","06","00:00","4.5","","-2.7","","59","","9","","9","","25.0","","101.90","","","","","","Mainly Clear"
"1998-10-06 01:00","1998","10","06","01:00","3.3","","-2.9","","64","","8","","7","","25.0","","101.94","","","","","","Mainly Clear"
"1998-10-06 02:00","1998","10","06","02:00","1.9","","-3.4","","68","","6","","6","","25.0","","101.97","","","","","","Mainly Clear"
"1998-10-06 03:00","1998","10","06","03:00","1.5","","-3.4","","70","","5","","7","","25.0","","101.94","","","","","","Clear"
"1998-10-06 04:00","1998","10","06","04:00","1.3","","-3.3","","71","","6","","9","","25.0","","101.97","","","","","","Clear"
"1998-10-06 05:00","1998","10","06","05:00","0.8","","-3.5","","73","","7","","7","","25.0","","101.94","","","","","","Clear"
"1998-10-06 06:00","1998","10","06","06:00","0.7","","-3.2","","75","","6","","7","","32.2","","102.00","","","","","","Clear"
"1998-10-06 07:00","1998","10","06","07:00","0.8","","-2.8","","77","","7","","7","","40.2","","102.04","","","","","","Clear"
"1998-10-06 08:00","1998","10","06","08:00","3.2","","-1.1","","73","","8","","9","","40.2","","102.04","","","","","","Clear"
"1998-10-06 09:00","1998","10","06","09:00","5.6","","-1.3","","61","","9","","15","","40.2","","102.04","","","","","","Clear"
"1998-10-06 10:00","1998","10","06","10:00","7.1","","-1.5","","54","","10","","13","","40.2","","102.04","","","","","","Mainly Clear"
"1998-10-06 11:00","1998","10","06","11:00","8.3","","-1.1","","52","","10","","13","","40.2","","101.97","","","","","","Mainly Clear"
"1998-10-06 12:00","1998","10","06","12:00","10.0","","-1.0","","46","","8","","13","","40.2","","101.90","","","","","","Mainly Clear"
"1998-10-06 13:00","1998","10","06","13:00","11.8","","-0.9","","41","","10","","13","","40.2","","101.77","","","","","","Mainly Clear"
"1998-10-06 14:00","1998","10","06","14:00","12.2","","-1.2","","39","","10","","17","","32.2","","101.63","","","","","","Mainly Clear"
"1998-10-06 15:00","1998","10","06","15:00","12.6","","-1.4","","38","","10","","15","","32.2","","101.57","","","","","","Mainly Clear"
"1998-10-06 16:00","1998","10","06","16:00","12.3","","-1.9","","37","","9","","11","","32.2","","101.50","","","","","","Mainly Clear"
"1998-10-06 17:00","1998","10","06","17:00","11.4","","-2.8","","37","","10","","9","","32.2","","101.47","","","","","","Mostly Cloudy"
"1998-10-06 18:00","1998","10","06","18:00","9.4","","-2.3","","44","","9","","7","","25.0","","101.43","","","","","","Mainly Clear"
"1998-10-06 19:00","1998","10","06","19:00","8.2","","-2.1","","48","","9","","11","","25.0","","101.37","","","","","","Mainly Clear"
"1998-10-06 20:00","1998","10","06","20:00","7.4","","-1.9","","52","","9","","17","","25.0","","101.30","","","","","","Mainly Clear"
"1998-10-06 21:00","1998","10","06","21:00","7.0","","-1.1","","56","","9","","15","","25.0","","101.27","","","","","","Mainly Clear"
"1998-10-06 22:00","1998","10","06","22:00","6.6","","-0.9","","59","","9","","17","","25.0","","101.27","","","","","","Mostly Cloudy"
"1998-10-06 23:00","1998","10","06","23:00","6.0","","-0.8","","62","","9","","15","","25.0","","101.23","","","","","","Mostly Cloudy"
"1998-10-07 00:00","1998","10","07","00:00","5.5","","-1.0","","63","","9","","13","","25.0","","101.16","","","","","","Mostly Cloudy"
"1998-10-07 01:00","1998","10","07","01:00","5.0","","-0.9","","66","","10","","13","","24.1","","101.13","","","","","","Cloudy"
"1998-10-07 02:00","1998","10","07","02:00","4.9","","-0.9","","66","","9","","11","","24.1","","101.03","","","","","","Cloudy"
"1998-10-07 03:00","1998","10","07","03:00","5.2","","-0.2","","68","","9","","11","","24.1","","101.00","","","","","","Cloudy"
"1998-10-07 04:00","1998","10","07","04:00","5.6","","0.8","","71","","10","","11","","24.1","","100.93","","","","","","Cloudy"
"1998-10-07 05:00","1998","10","07","05:00","5.9","","1.4","","73","","11","","9","","24.1","","100.86","","","","","","Cloudy"
"1998-10-07 06:00","1998","10","07","06:00","6.3","","2.2","","75","","11","","11","","24.1","","100.76","","","","","","Cloudy"
"1998-10-07 07:00","1998","10","07","07:00","7.3","","3.3","","76","","11","","9","","19.3","","100.76","","","","","","Cloudy"
"1998-10-07 08:00","1998","10","07","08:00","9.8","","5.6","","75","","12","","11","","19.3","","100.73","","","","","","Cloudy"
"1998-10-07 09:00","1998","10","07","09:00","12.5","","7.7","","73","","16","","11","","19.3","","100.70","","","","","","Cloudy"
"1998-10-07 10:00","1998","10","07","10:00","15.0","","9.7","","71","","16","","13","","16.1","","100.60","","","","","","Cloudy"
"1998-10-07 11:00","1998","10","07","11:00","14.4","","10.7","","78","","20","","15","","4.8","","100.53","","","","","","Moderate Rain Showers"
"1998-10-07 12:00","1998","10","07","12:00","13.9","","12.0","","88","","17","","7","","8.0","","100.46","","","","","","Fog"
"1998-10-07 13:00","1998","10","07","13:00","14.0","","12.6","","91","","15","","7","","9.7","","100.36","","","","","","Fog"
"1998-10-07 14:00","1998","10","07","14:00","14.6","","13.7","","94","","16","","6","","8.0","","100.33","","","","","","Fog"
"1998-10-07 15:00","1998","10","07","15:00","14.7","","13.5","","93","","11","","6","","6.4","","100.26","","","","","","Rain Showers,Fog"
"1998-10-07 16:00","1998","10","07","16:00","14.8","","13.6","","93","","14","","7","","6.4","","100.19","","","","","","Rain Showers,Fog"
"1998-10-07 17:00","1998","10","07","17:00","14.5","","13.5","","94","","","","0","","3.2","","100.19","","","","","","Moderate Rain Showers,Fog"
"1998-10-07 18:00","1998","10","07","18:00","13.9","","13.1","","95","","14","","4","","2.4","","100.16","","","","","","Moderate Rain,Fog"
"1998-10-07 19:00","1998","10","07","19:00","13.9","","12.9","","94","","17","","6","","3.6","","100.13","","","","","","Rain,Fog"
"1998-10-07 20:00","1998","10","07","20:00","13.8","","13.2","","96","","19","","9","","8.0","","100.09","","","","","","Rain,Fog"
"1998-10-07 21:00","1998","10","07","21:00","13.7","","13.2","","97","","19","","7","","4.8","","100.06","","","","","","Rain,Fog"
"1998-10-07 22:00","1998","10","07","22:00","13.9","","13.4","","97","","20","","9","","4.0","","100.06","","","","","","Rain,Fog"
"1998-10-07 23:00","1998","10","07","23:00","14.3","","13.8","","97","","26","","7","","4.0","","100.09","","","","","","Rain,Fog"
"1998-10-08 00:00","1998","10","08","00:00","13.3","","13.1","","99","","28","","6","","19.3","","100.06","","","","","","Rain,Drizzle"
"1998-10-08 01:00","1998","10","08","01:00","12.9","","12.8","","99","","29","","6","","12.9","","100.06","","","","","","Rain"
"1998-10-08 02:00","1998","10","08","02:00","12.7","","12.2","","97","","32","","4","","9.7","","100.03","","","","","","Rain,Fog"
"1998-10-08 03:00","1998","10","08","03:00","12.4","","12.2","","99","","36","","6","","12.9","","100.03","","","","","","Rain"
"1998-10-08 04:00","1998","10","08","04:00","12.1","","11.7","","97","","34","","6","","11.3","","100.06","","","","","","Rain"
"1998-10-08 05:00","1998","10","08","05:00","12.0","","11.8","","99","","30","","4","","19.3","","100.09","","","","","","Rain"
"1998-10-08 06:00","1998","10","08","06:00","12.1","","11.7","","97","","30","","4","","9.7","","100.13","","","","","","Fog"
"1998-10-08 07:00","1998","10","08","07:00","12.1","","11.9","","99","","29","","6","","12.9","","100.19","","","","","","Rain"
"1998-10-08 08:00","1998","10","08","08:00","12.2","","11.7","","97","","32","","7","","16.1","","100.19","","","","","","Cloudy"
"1998-10-08 09:00","1998","10","08","09:00","12.7","","12.4","","98","","32","","6","","19.3","","100.26","","","","","","Mostly Cloudy"
"1998-10-08 10:00","1998","10","08","10:00","13.5","","12.5","","94","","34","","9","","24.1","","100.33","","","","","","Cloudy"
"1998-10-08 11:00","1998","10","08","11:00","13.9","","11.5","","85","","36","","15","","24.1","","100.36","","","","","","Mostly Cloudy"
"1998-10-08 12:00","1998","10","08","12:00","14.2","","10.6","","79","","34","","13","","32.2","","100.43","","","","","","Mostly Cloudy"
"1998-10-08 13:00","1998","10","08","13:00","14.5","","10.0","","74","","34","","15","","32.2","","100.39","","","","","","Mostly Cloudy"
"1998-10-08 14:00","1998","10","08","14:00","12.8","","9.1","","78","","1","","17","","32.2","","100.46","","","","","","Mostly Cloudy"
"1998-10-08 15:00","1998","10","08","15:00","13.8","","8.3","","69","","1","","19","","32.2","","100.46","","","","","","Mainly Clear"
"1998-10-08 16:00","1998","10","08","16:00","13.1","","7.2","","67","","35","","17","","32.2","","100.56","","","","","","Mainly Clear"
"1998-10-08 17:00","1998","10","08","17:00","12.4","","6.1","","65","","36","","13","","40.2","","100.66","","","","","","Mainly Clear"
"1998-10-08 18:00","1998","10","08","18:00","11.0","","4.7","","65","","36","","11","","32.2","","100.73","","","","","","Mainly Clear"
"1998-10-08 19:00","1998","10","08","19:00","10.3","","4.3","","66","","35","","11","","25.0","","100.76","","","","","","Mainly Clear"
"1998-10-08 20:00","1998","10","08","20:00","9.2","","4.2","","71","","1","","9","","25.0","","100.80","","","","","","Mainly Clear"
"1998-10-08 21:00","1998","10","08","21:00","8.5","","4.0","","73","","36","","7","","25.0","","100.86","","","","","","Mainly Clear"
"1998-10-08 22:00","1998","10","08","22:00","8.9","","4.2","","72","","2","","9","","25.0","","100.93","","","","","","Mostly Cloudy"
"1998-10-08 23:00","1998","10","08","23:00","8.6","","4.1","","73","","2","","9","","25.0","","100.93","","","","","","Mostly Cloudy"
"1998-10-09 00:00","1998","10","09","00:00","8.3","","3.9","","74","","2","","9","","25.0","","100.96","","","","","","Mostly Cloudy"
"1998-10-09 01:00","1998","10","09","01:00","7.8","","3.8","","76","","2","","9","","25.0","","100.96","","","","","","Mostly Cloudy"
"1998-10-09 02:00","1998","10","09","02:00","7.9","","3.7","","75","","2","","11","","25.0","","100.96","","","","","","Mostly Cloudy"
"1998-10-09 03:00","1998","10","09","03:00","6.7","","2.8","","76","","2","","9","","25.0","","100.96","","","","","","Mainly Clear"
"1998-10-09 04:00","1998","10","09","04:00","6.0","","2.6","","79","","1","","11","","25.0","","101.00","","","","","","Clear"
"1998-10-09 05:00","1998","10","09","05:00","5.1","","2.3","","82","","1","","11","","25.0","","101.00","","","","","","Mainly Clear"
"1998-10-09 06:00","1998","10","09","06:00","4.9","","2.7","","86","","36","","11","","32.2","","101.03","","","","","","Clear"
"1998-10-09 07:00","1998","10","09","07:00","5.1","","2.1","","81","","35","","13","","40.2","","101.03","","","","","","Mainly Clear"
"1998-10-09 08:00","1998","10","09","08:00","7.1","","4.5","","84","","3","","9","","40.2","","101.03","","","","","","Mostly Cloudy"
"1998-10-09 09:00","1998","10","09","09:00","9.6","","5.3","","75","","4","","11","","40.2","","101.03","","","","","","Mainly Clear"
"1998-10-09 10:00","1998","10","09","10:00","11.8","","6.2","","69","","8","","9","","40.2","","101.00","","","","","","Clear"
"1998-10-09 11:00","1998","10","09","11:00","13.0","","7.3","","68","","5","","9","","40.2","","101.00","","","","","","Clear"
"1998-10-09 12:00","1998","10","09","12:00","13.0","","7.3","","68","","4","","13","","40.2","","100.90","","","","","","Clear"
"1998-10-09 13:00","1998","10","09","13:00","15.8","","8.5","","62","","7","","9","","40.2","","100.80","","","","","","Clear"
"1998-10-09 14:00","1998","10","09","14:00","17.0","","8.6","","58","","10","","4","","40.2","","100.76","","","","","","Mainly Clear"
"1998-10-09 15:00","1998","10","09","15:00","17.2","","8.5","","57","","7","","17","","40.2","","100.73","","","","","","Mainly Clear"
"1998-10-09 16:00","1998","10","09","16:00","16.6","","8.0","","57","","10","","13","","40.2","","100.70","","","","","","Mainly Clear"
"1998-10-09 17:00","1998","10","09","17:00","14.8","","8.1","","64","","10","","11","","40.2","","100.73","","","","","","Mostly Cloudy"
"1998-10-09 18:00","1998","10","09","18:00","13.4","","7.7","","68","","9","","9","","32.2","","100.73","","","","","","Mostly Cloudy"
"1998-10-09 19:00","1998","10","09","19:00","13.1","","7.5","","69","","9","","9","","25.0","","100.73","","","","","","Mostly Cloudy"
"1998-10-09 20:00","1998","10","09","20:00","13.1","","7.3","","68","","7","","9","","25.0","","100.70","","","","","","Mostly Cloudy"
"1998-10-09 21:00","1998","10","09","21:00","12.8","","7.3","","69","","7","","11","","25.0","","100.66","","","","","","Mostly Cloudy"
"1998-10-09 22:00","1998","10","09","22:00","12.5","","7.2","","70","","7","","7","","25.0","","100.63","","","","","","Mostly Cloudy"
"1998-10-09 23:00","1998","10","09","23:00","10.8","","6.6","","75","","5","","6","","25.0","","100.56","","","","","","Mostly Cloudy"
"1998-10-10 00:00","1998","10","10","00:00","11.3","","7.4","","77","","5","","6","","25.0","","100.53","","","","","","Mostly Cloudy"
"1998-10-10 01:00","1998","10","10","01:00","11.9","","7.7","","75","","2","","6","","25.0","","100.53","","","","","","Cloudy"
"1998-10-10 02:00","1998","10","10","02:00","11.8","","7.5","","75","","2","","6","","25.0","","100.49","","","","","","Cloudy"
"1998-10-10 03:00","1998","10","10","03:00","11.4","","7.4","","76","","4","","6","","25.0","","100.49","","","","","","Mostly Cloudy"
"1998-10-10 04:00","1998","10","10","04:00","11.6","","7.7","","77","","5","","7","","25.0","","100.49","","","","","","Cloudy"
"1998-10-10 05:00","1998","10","10","05:00","11.3","","7.8","","79","","5","","6","","25.0","","100.49","","","","","","Cloudy"
"1998-10-10 06:00","1998","10","10","06:00","11.6","","8.1","","79","","2","","7","","25.0","","100.53","","","","","","Cloudy"
"1998-10-10 07:00","1998","10","10","07:00","11.9","","8.2","","78","","2","","9","","40.2","","100.53","","","","","","Cloudy"
"1998-10-10 08:00","1998","10","10","08:00","12.4","","8.8","","79","","5","","9","","40.2","","100.49","","","","","","Cloudy"
"1998-10-10 09:00","1998","10","10","09:00","12.8","","9.4","","80","","4","","9","","40.2","","100.49","","","","","","Cloudy"
"1998-10-10 10:00","1998","10","10","10:00","13.6","","10.2","","80","","4","","9","","40.2","","100.46","","","","","","Cloudy"
"1998-10-10 11:00","1998","10","10","11:00","14.7","","10.6","","76","","5","","9","","40.2","","100.43","","","","","","Cloudy"
"1998-10-10 12:00","1998","10","10","12:00","14.9","","10.7","","76","","5","","9","","40.2","","100.36","","","","","","Cloudy"
"1998-10-10 13:00","1998","10","10","13:00","15.2","","10.6","","74","","4","","6","","40.2","","100.36","","","","","","Cloudy"
"1998-10-10 14:00","1998","10","10","14:00","16.1","","10.9","","71","","4","","6","","40.2","","100.29","","","","","","Cloudy"
"1998-10-10 15:00","1998","10","10","15:00","16.9","","10.9","","68","","1","","6","","40.2","","100.26","","","","","","Mostly Cloudy"
"1998-10-10 16:00","1998","10","10","16:00","17.6","","11.1","","66","","36","","6","","40.2","","100.26","","","","","","Mostly Cloudy"
"1998-10-10 17:00","1998","10","10","17:00","17.3","","10.4","","64","","34","","9","","40.2","","100.29","","","","","","Cloudy"
"1998-10-10 18:00","1998","10","10","18:00","16.6","","10.6","","68","","","","0","","25.0","","100.29","","","","","","Mostly Cloudy"
"1998-10-10 19:00","1998","10","10","19:00","15.2","","11.2","","77","","","","0","","25.0","","100.29","","","","","","Cloudy"
"1998-10-10 20:00","1998","10","10","20:00","15.2","","11.5","","79","","","","0","","25.0","","100.33","","","","","","Mostly Cloudy"
"1998-10-10 21:00","1998","10","10","21:00","15.0","","11.2","","78","","","","0","","25.0","","100.33","","","","","","Cloudy"
"1998-10-10 22:00","1998","10","10","22:00","14.5","","11.0","","79","","","","0","","25.0","","100.36","","","","","","Mostly Cloudy"
"1998-10-10 23:00","1998","10","10","23:00","14.0","","11.2","","83","","","","0","","25.0","","100.36","","","","","","Cloudy"
"1998-10-11 00:00","1998","10","11","00:00","14.6","","11.0","","79","","33","","9","","25.0","","100.36","","","","","","Mostly Cloudy"
"1998-10-11 01:00","1998","10","11","01:00","13.7","","10.0","","78","","33","","9","","25.0","","100.36","","","","","","Mainly Clear"
"1998-10-11 02:00","1998","10","11","02:00","13.3","","10.0","","80","","35","","11","","25.0","","100.36","","","","","","Mostly Cloudy"
"1998-10-11 03:00","1998","10","11","03:00","12.8","","9.5","","80","","35","","9","","25.0","","100.39","","","","","","Mostly Cloudy"
"1998-10-11 04:00","1998","10","11","04:00","12.0","","9.3","","84","","35","","4","","25.0","","100.46","","","","","","Mainly Clear"
"1998-10-11 05:00","1998","10","11","05:00","10.0","","8.1","","88","","28","","6","","25.0","","100.53","","","","","","Clear"
"1998-10-11 06:00","1998","10","11","06:00","10.7","","8.5","","86","","34","","17","","32.2","","100.63","","","","","","Mainly Clear"
"1998-10-11 07:00","1998","10","11","07:00","10.3","","8.5","","89","","33","","13","","40.2","","100.73","","","","","","Mainly Clear"
"1998-10-11 08:00","1998","10","11","08:00","11.3","","8.8","","85","","33","","15","","40.2","","100.76","","","","","","Mainly Clear"
"1998-10-11 09:00","1998","10","11","09:00","13.2","","8.5","","73","","34","","15","","40.2","","100.83","","","","","","Clear"
"1998-10-11 10:00","1998","10","11","10:00","15.2","","8.7","","65","","35","","19","","40.2","","100.83","","","","","","Clear"
"1998-10-11 11:00","1998","10","11","11:00","16.6","","8.5","","59","","35","","20","","40.2","","100.83","","","","","","Clear"
"1998-10-11 12:00","1998","10","11","12:00","17.5","","8.3","","55","","35","","17","","40.2","","100.83","","","","","","Mainly Clear"
"1998-10-11 13:00","1998","10","11","13:00","17.8","","8.2","","53","","35","","15","","40.2","","100.80","","","","","","Mainly Clear"
"1998-10-11 14:00","1998","10","11","14:00","17.9","","8.0","","52","","36","","20","","40.2","","100.80","","","","","","Mainly Clear"
"1998-10-11 15:00","1998","10","11","15:00","18.1","","7.9","","51","","1","","17","","40.2","","100.80","","","","","","Mainly Clear"
"1998-10-11 16:00","1998","10","11","16:00","17.5","","7.9","","53","","35","","17","","40.2","","100.83","","","","","","Clear"
"1998-10-11 17:00","1998","10","11","17:00","15.9","","7.6","","58","","36","","13","","40.2","","100.86","","","","","","Clear"
"1998-10-11 18:00","1998","10","11","18:00","14.1","","7.4","","64","","35","","19","","40.2","","100.96","","","","","","Clear"
"1998-10-11 19:00","1998","10","11","19:00","13.1","","7.1","","67","","35","","13","","25.0","","101.03","","","","","","Mainly Clear"
"1998-10-11 20:00","1998","10","11","20:00","11.9","","6.8","","71","","36","","13","","25.0","","101.06","","","","","","Clear"
"1998-10-11 21:00","1998","10","11","21:00","11.3","","6.7","","73","","36","","9","","25.0","","101.06","","","","","","Clear"
"1998-10-11 22:00","1998","10","11","22:00","10.6","","6.6","","76","","35","","9","","25.0","","101.10","","","","","","Clear"
"1998-10-11 23:00","1998","10","11","23:00","9.9","","6.5","","79","","34","","7","","25.0","","101.10","","","","","","Clear"
"1998-10-12 00:00","1998","10","12","00:00","10.0","","7.0","","82","","2","","7","","25.0","","101.13","","","","","","Cloudy"
"1998-10-12 01:00","1998","10","12","01:00","10.3","","7.1","","81","","","","0","","25.0","","101.16","","","","","","Cloudy"
"1998-10-12 02:00","1998","10","12","02:00","10.3","","7.0","","80","","3","","4","","25.0","","101.13","","","","","","Cloudy"
"1998-10-12 03:00","1998","10","12","03:00","10.2","","7.3","","82","","1","","4","","25.0","","101.13","","","","","","Cloudy"
"1998-10-12 04:00","1998","10","12","04:00","10.3","","7.2","","81","","36","","4","","25.0","","101.16","","","","","","Cloudy"
"1998-10-12 05:00","1998","10","12","05:00","9.7","","7.1","","84","","32","","4","","25.0","","101.16","","","","","","Cloudy"
"1998-10-12 06:00","1998","10","12","06:00","9.6","","7.1","","84","","3","","4","","32.2","","101.23","","","","","","Cloudy"
"1998-10-12 07:00","1998","10","12","07:00","9.5","","7.1","","85","","","","0","","40.2","","101.27","","","","","","Cloudy"
"1998-10-12 08:00","1998","10","12","08:00","10.3","","7.7","","84","","6","","6","","40.2","","101.30","","","","","","Cloudy"
"1998-10-12 09:00","1998","10","12","09:00","11.0","","8.3","","83","","8","","7","","40.2","","101.30","","","","","","Cloudy"
"1998-10-12 10:00","1998","10","12","10:00","11.5","","8.5","","82","","11","","7","","40.2","","101.27","","","","","","Cloudy"
"1998-10-12 11:00","1998","10","12","11:00","11.9","","7.9","","76","","7","","4","","40.2","","101.23","","","","","","Cloudy"
"1998-10-12 12:00","1998","10","12","12:00","12.5","","7.5","","72","","9","","7","","32.2","","101.20","","","","","","Cloudy"
"1998-10-12 13:00","1998","10","12","13:00","12.2","","7.8","","74","","11","","6","","32.2","","101.13","","","","","","Cloudy"
"1998-10-12 14:00","1998","10","12","14:00","12.3","","7.6","","73","","12","","4","","24.1","","101.10","","","","","","Cloudy"
"1998-10-12 15:00","1998","10","12","15:00","12.8","","7.6","","71","","8","","4","","32.2","","101.03","","","","","","Mostly Cloudy"
"1998-10-12 16:00","1998","10","12","16:00","13.1","","7.4","","68","","10","","9","","32.2","","100.96","","","","","","Mostly Cloudy"
"1998-10-12 17:00","1998","10","12","17:00","12.5","","7.3","","71","","13","","7","","32.2","","100.93","","","","","","Mostly Cloudy"
"1998-10-12 18:00","1998","10","12","18:00","11.8","","7.0","","72","","10","","4","","24.1","","100.93","","","","","","Mostly Cloudy"
"1998-10-12 19:00","1998","10","12","19:00","10.7","","6.6","","76","","9","","4","","25.0","","100.86","","","","","","Mainly Clear"
"1998-10-12 20:00","1998","10","12","20:00","9.9","","6.2","","78","","12","","7","","25.0","","100.80","","","","","","Clear"
"1998-10-12 21:00","1998","10","12","21:00","9.4","","6.1","","80","","","","0","","25.0","","100.80","","","","","","Clear"
"1998-10-12 22:00","1998","10","12","22:00","8.8","","5.7","","81","","8","","4","","25.0","","100.73","","","","","","Mainly Clear"
"1998-10-12 23:00","1998","10","12","23:00","7.9","","5.3","","84","","8","","7","","25.0","","100.66","","","","","","Clear"
"1998-10-13 00:00","1998","10","13","00:00","7.1","","4.8","","85","","8","","7","","25.0","","100.60","","","","","","Clear"
"1998-10-13 01:00","1998","10","13","01:00","6.4","","4.5","","88","","9","","6","","24.1","","100.53","","","","","","Clear"
"1998-10-13 02:00","1998","10","13","02:00","5.5","","4.2","","91","","8","","6","","19.3","","100.46","","","","","","Clear"
"1998-10-13 03:00","1998","10","13","03:00","5.5","","4.2","","91","","8","","7","","6.4","","100.39","","","","","","Fog"
"1998-10-13 04:00","1998","10","13","04:00","4.6","","4.1","","97","","8","","4","","0.8","","100.39","","","","","","Fog"
"1998-10-13 05:00","1998","10","13","05:00","4.2","","3.5","","95","","7","","6","","0.2","","100.36","","","","","","Fog"
"1998-10-13 06:00","1998","10","13","06:00","4.0","","3.0","","93","","9","","7","","0.6","","100.33","","","","","","Fog"
"1998-10-13 07:00","1998","10","13","07:00","4.5","","4.1","","97","","8","","7","","0.6","","100.29","","","","","","Fog"
"1998-10-13 08:00","1998","10","13","08:00","5.3","","4.9","","97","","8","","7","","0.6","","100.26","","","","","","Fog"
"1998-10-13 09:00","1998","10","13","09:00","7.3","","7.1","","99","","9","","6","","0.6","","100.19","","","","","","Fog"
"1998-10-13 10:00","1998","10","13","10:00","8.5","","8.5","","100","","10","","7","","1.6","","100.13","","","","","","Fog"
"1998-10-13 11:00","1998","10","13","11:00","11.6","","11.3","","98","","9","","6","","12.9","","100.06","","","","","","Mainly Clear"
"1998-10-13 12:00","1998","10","13","12:00","15.4","","14.4","","94","","10","","6","","16.1","","99.96","","","","","","Mainly Clear"
"1998-10-13 13:00","1998","10","13","13:00","18.4","","12.0","","66","","18","","13","","40.2","","99.86","","","","","","Mostly Cloudy"
"1998-10-13 14:00","1998","10","13","14:00","19.0","","11.8","","63","","17","","15","","24.1","","99.76","","","","","","Mostly Cloudy"
"1998-10-13 15:00","1998","10","13","15:00","18.5","","10.8","","61","","16","","15","","24.1","","99.69","","","","","","Mostly Cloudy"
"1998-10-13 16:00","1998","10","13","16:00","18.2","","10.5","","61","","16","","11","","24.1","","99.66","","","","","","Mostly Cloudy"
"1998-10-13 17:00","1998","10","13","17:00","17.2","","10.1","","63","","13","","7","","24.1","","99.59","","","","","","Mostly Cloudy"
"1998-10-13 18:00","1998","10","13","18:00","16.3","","9.9","","66","","12","","7","","24.1","","99.59","","","","","","Mostly Cloudy"
"1998-10-13 19:00","1998","10","13","19:00","15.5","","9.7","","68","","9","","6","","24.1","","99.56","","","","","","Cloudy"
"1998-10-13 20:00","1998","10","13","20:00","14.8","","9.6","","71","","11","","4","","24.1","","99.56","","","","","","Cloudy"
"1998-10-13 21:00","1998","10","13","21:00","15.0","","9.6","","70","","12","","7","","24.1","","99.52","","","","","","Cloudy"
"1998-10-13 22:00","1998","10","13","22:00","14.6","","9.7","","72","","22","","7","","24.1","","99.52","","","","","","Cloudy"
"1998-10-13 23:00","1998","10","13","23:00","14.0","","10.3","","78","","22","","11","","16.1","","99.56","","","","","","Cloudy"
"1998-10-14 00:00","1998","10","14","00:00","13.1","","11.2","","88","","22","","6","","16.1","","99.56","","","","","","Cloudy"
"1998-10-14 01:00","1998","10","14","01:00","11.8","","10.3","","91","","18","","4","","6.4","","99.56","","","","","","Rain,Fog"
"1998-10-14 02:00","1998","10","14","02:00","10.3","","9.0","","92","","13","","7","","9.7","","99.52","","","","","","Rain,Fog"
"1998-10-14 03:00","1998","10","14","03:00","10.1","","9.2","","94","","12","","7","","9.7","","99.49","","","","","","Rain,Fog"
"1998-10-14 04:00","1998","10","14","04:00","10.1","","9.4","","95","","12","","9","","4.8","","99.52","","","","","","Rain,Fog"
"1998-10-14 05:00","1998","10","14","05:00","10.4","","9.8","","96","","18","","4","","4.8","","99.52","","","","","","Drizzle,Fog"
"1998-10-14 06:00","1998","10","14","06:00","10.5","","9.9","","96","","15","","7","","4.8","","99.56","","","","","","Drizzle,Fog"
"1998-10-14 07:00","1998","10","14","07:00","10.5","","10.1","","97","","16","","4","","6.4","","99.62","","","","","","Drizzle,Fog"
"1998-10-14 08:00","1998","10","14","08:00","10.6","","10.2","","97","","16","","4","","16.1","","99.66","","","","","","Cloudy"
"1998-10-14 09:00","1998","10","14","09:00","10.8","","10.1","","95","","17","","4","","12.9","","99.66","","","","","","Cloudy"
"1998-10-14 10:00","1998","10","14","10:00","10.8","","10.3","","97","","18","","4","","12.9","","99.69","","","","","","Rain"
"1998-10-14 11:00","1998","10","14","11:00","10.8","","10.5","","98","","19","","6","","16.1","","99.69","","","","","","Rain"
"1998-10-14 12:00","1998","10","14","12:00","10.1","","9.8","","98","","","","0","","16.1","","99.72","","","","","","Rain"
"1998-10-14 13:00","1998","10","14","13:00","9.3","","8.6","","95","","22","","4","","8.0","","99.72","","","","","","Rain,Fog"
"1998-10-14 14:00","1998","10","14","14:00","9.2","","8.2","","93","","24","","2","","11.3","","99.76","","","","","","Rain"
"1998-10-14 15:00","1998","10","14","15:00","9.4","","8.1","","92","","1","","6","","24.1","","99.72","","","","","","Cloudy"
"1998-10-14 16:00","1998","10","14","16:00","9.9","","8.3","","90","","1","","6","","24.1","","99.76","","","","","","Mostly Cloudy"
"1998-10-14 17:00","1998","10","14","17:00","9.4","","7.7","","89","","1","","6","","19.3","","99.76","","","","","","Mostly Cloudy"
"1998-10-14 18:00","1998","10","14","18:00","8.8","","6.4","","85","","35","","6","","24.1","","99.82","","","","","","Mostly Cloudy"
"1998-10-14 19:00","1998","10","14","19:00","8.2","","6.9","","92","","27","","4","","24.1","","99.86","","","","","","Mostly Cloudy"
"1998-10-14 20:00","1998","10","14","20:00","8.2","","7.0","","92","","27","","4","","24.1","","99.89","","","","","","Cloudy"
"1998-10-14 21:00","1998","10","14","21:00","8.4","","7.5","","94","","25","","4","","19.3","","99.93","","","","","","Cloudy"
"1998-10-14 22:00","1998","10","14","22:00","8.3","","7.4","","94","","30","","7","","9.7","","99.93","","","","","","Rain Showers,Fog"
"1998-10-14 23:00","1998","10","14","23:00","8.5","","7.9","","96","","26","","6","","12.9","","99.93","","","","","","Drizzle"
"1998-10-15 00:00","1998","10","15","00:00","8.2","","7.6","","96","","26","","7","","12.9","","99.93","","","","","","Rain"
"1998-10-15 01:00","1998","10","15","01:00","8.2","","7.8","","97","","27","","9","","16.1","","99.99","","","","","","Cloudy"
"1998-10-15 02:00","1998","10","15","02:00","8.6","","8.1","","97","","30","","7","","16.1","","100.06","","","","","","Drizzle"
"1998-10-15 03:00","1998","10","15","03:00","7.9","","7.5","","97","","29","","13","","16.1","","100.09","","","","","","Drizzle"
"1998-10-15 04:00","1998","10","15","04:00","7.2","","6.9","","98","","28","","13","","16.1","","100.16","","","","","","Cloudy"
"1998-10-15 05:00","1998","10","15","05:00","6.8","","6.4","","97","","29","","11","","16.1","","100.23","","","","","","Drizzle"
"1998-10-15 06:00","1998","10","15","06:00","6.6","","6.2","","97","","28","","9","","24.1","","100.26","","","","","","Drizzle"
"1998-10-15 07:00","1998","10","15","07:00","6.7","","6.5","","99","","28","","9","","40.2","","100.36","","","","","","Cloudy"
"1998-10-15 08:00","1998","10","15","08:00","6.8","","6.4","","97","","27","","9","","6.4","","100.49","","","","","","Drizzle,Fog"
"1998-10-15 09:00","1998","10","15","09:00","7.0","","6.8","","99","","29","","7","","24.1","","100.56","","","","","","Drizzle"
"1998-10-15 10:00","1998","10","15","10:00","7.4","","7.2","","99","","30","","13","","12.9","","100.63","","","","","","Drizzle"
"1998-10-15 11:00","1998","10","15","11:00","7.6","","7.5","","99","","29","","9","","4.8","","100.70","","","","","","Drizzle,Fog"
"1998-10-15 12:00","1998","10","15","12:00","7.8","","7.8","","100","","29","","7","","9.7","","100.73","","","","","","Drizzle,Fog"
"1998-10-15 13:00","1998","10","15","13:00","7.9","","7.9","","100","","28","","7","","3.2","","100.73","","","","","","Drizzle,Fog"
"1998-10-15 14:00","1998","10","15","14:00","8.3","","8.1","","99","","28","","7","","19.3","","100.76","","","","","","Drizzle"
"1998-10-15 15:00","1998","10","15","15:00","8.6","","8.2","","97","","28","","7","","32.2","","100.83","","","","","","Cloudy"
"1998-10-15 16:00","1998","10","15","16:00","8.9","","8.2","","95","","28","","9","","19.3","","100.90","","","","","","Rain Showers"
"1998-10-15 17:00","1998","10","15","17:00","9.0","","7.8","","92","","29","","9","","32.2","","100.96","","","","","","Mostly Cloudy"
"1998-10-15 18:00","1998","10","15","18:00","8.9","","7.2","","89","","30","","4","","24.1","","101.06","","","","","","Mostly Cloudy"
"1998-10-15 19:00","1998","10","15","19:00","8.5","","6.9","","90","","27","","7","","24.1","","101.10","","","","","","Mostly Cloudy"
"1998-10-15 20:00","1998","10","15","20:00","8.7","","7.2","","90","","31","","9","","24.1","","101.10","","","","","","Mostly Cloudy"
"1998-10-15 21:00","1998","10","15","21:00","8.8","","7.4","","91","","32","","4","","24.1","","101.13","","","","","","Cloudy"
"1998-10-15 22:00","1998","10","15","22:00","8.7","","7.4","","92","","29","","6","","24.1","","101.20","","","","","","Cloudy"
"1998-10-15 23:00","1998","10","15","23:00","8.4","","7.0","","91","","30","","7","","24.1","","101.23","","","","","","Mostly Cloudy"
"1998-10-16 00:00","1998","10","16","00:00","7.3","","6.2","","93","","31","","6","","24.1","","101.27","","","","","","Mainly Clear"
"1998-10-16 01:00","1998","10","16","01:00","6.7","","5.5","","92","","30","","6","","24.1","","101.30","","","","","","Mostly Cloudy"
"1998-10-16 02:00","1998","10","16","02:00","6.2","","5.7","","97","","30","","6","","24.1","","101.30","","","","","","Mainly Clear"
"1998-10-16 03:00","1998","10","16","03:00","6.3","","5.6","","95","","29","","7","","24.1","","101.33","","","","","","Mostly Cloudy"
"1998-10-16 04:00","1998","10","16","04:00","6.7","","6.2","","97","","31","","6","","24.1","","101.37","","","","","","Mostly Cloudy"
"1998-10-16 05:00","1998","10","16","05:00","6.5","","5.9","","96","","30","","9","","12.9","","101.47","","","","","","Mostly Cloudy"
"1998-10-16 06:00","1998","10","16","06:00","5.4","","5.1","","98","","31","","9","","0.4","","101.53","","","","","","Fog"
"1998-10-16 07:00","1998","10","16","07:00","5.5","","5.0","","97","","29","","6","","0.6","","101.60","","","","","","Fog"
"1998-10-16 08:00","1998","10","16","08:00","5.8","","5.8","","100","","29","","4","","0.0","","101.60","","","","","","Fog"
"1998-10-16 09:00","1998","10","16","09:00","6.5","","6.5","","100","","28","","4","","0.2","","101.63","","","","","","Fog"
"1998-10-16 10:00","1998","10","16","10:00","7.8","","7.8","","100","","","","0","","16.1","","101.63","","","","","","Mostly Cloudy"
"1998-10-16 11:00","1998","10","16","11:00","9.5","","9.0","","97","","27","","4","","32.2","","101.63","","","","","","Mainly Clear"
"1998-10-16 12:00","1998","10","16","12:00","11.8","","10.0","","89","","","","0","","32.2","","101.57","","","","","","Mainly Clear"
"1998-10-16 13:00","1998","10","16","13:00","12.1","","7.9","","75","","30","","6","","40.2","","101.50","","","","","","Mainly Clear"
"1998-10-16 14:00","1998","10","16","14:00","12.0","","7.2","","72","","26","","6","","40.2","","101.50","","","","","","Mostly Cloudy"
"1998-10-16 15:00","1998","10","16","15:00","13.7","","7.5","","66","","","","0","","40.2","","101.43","","","","","","Mainly Clear"
"1998-10-16 16:00","1998","10","16","16:00","12.9","","7.2","","68","","26","","4","","40.2","","101.43","","","","","","Mainly Clear"
"1998-10-16 17:00","1998","10","16","17:00","11.4","","7.1","","75","","22","","6","","40.2","","101.47","","","","","","Mainly Clear"
"1998-10-16 18:00","1998","10","16","18:00","9.8","","6.7","","81","","22","","4","","24.1","","101.47","","","","","","Clear"
"1998-10-16 19:00","1998","10","16","19:00","9.4","","6.7","","83","","","","0","","24.1","","101.43","","","","","","Clear"
"1998-10-16 20:00","1998","10","16","20:00","8.7","","6.2","","84","","18","","4","","24.1","","101.40","","","","","","Clear"
"1998-10-16 21:00","1998","10","16","21:00","8.7","","6.6","","87","","","","0","","24.1","","101.43","","","","","","Clear"
"1998-10-16 22:00","1998","10","16","22:00","8.4","","6.0","","85","","20","","4","","24.1","","101.43","","","","","","Clear"
"1998-10-16 23:00","1998","10","16","23:00","7.4","","5.9","","90","","21","","4","","24.1","","101.40","","","","","","Clear"
"1998-10-17 00:00","1998","10","17","00:00","7.3","","6.0","","91","","19","","4","","24.1","","101.30","","","","","","Mainly Clear"
"1998-10-17 01:00","1998","10","17","01:00","7.3","","6.0","","91","","","","0","","24.1","","101.30","","","","","","Clear"
"1998-10-17 02:00","1998","10","17","02:00","6.3","","4.9","","91","","","","0","","24.1","","101.33","","","","","","Clear"
"1998-10-17 03:00","1998","10","17","03:00","5.8","","4.5","","91","","","","0","","19.3","","101.30","","","","","","Clear"
"1998-10-17 04:00","1998","10","17","04:00","5.5","","4.5","","93","","10","","4","","19.3","","101.33","","","","","","Mainly Clear"
"1998-10-17 05:00","1998","10","17","05:00","5.5","","5.1","","97","","","","0","","16.1","","101.37","","","","","","Mostly Cloudy"
"1998-10-17 06:00","1998","10","17","06:00","6.0","","5.4","","96","","","","0","","16.1","","101.37","","","","","","Mostly Cloudy"
"1998-10-17 07:00","1998","10","17","07:00","5.6","","4.6","","93","","10","","7","","9.7","","101.30","","","","","","Fog"
"1998-10-17 08:00","1998","10","17","08:00","7.1","","6.4","","95","","13","","7","","9.7","","101.23","","","","","","Fog"
"1998-10-17 09:00","1998","10","17","09:00","9.2","","8.9","","98","","","","0","","16.1","","101.27","","","","","","Mostly Cloudy"
"1998-10-17 10:00","1998","10","17","10:00","11.0","","9.9","","93","","16","","4","","24.1","","101.16","","","","","","Cloudy"
"1998-10-17 11:00","1998","10","17","11:00","13.0","","10.0","","82","","18","","7","","24.1","","101.10","","","","","","Cloudy"
"1998-10-17 12:00","1998","10","17","12:00","14.1","","9.1","","72","","19","","7","","32.2","","101.03","","","","","","Cloudy"
"1998-10-17 13:00","1998","10","17","13:00","14.1","","8.8","","70","","17","","6","","32.2","","100.96","","","","","","Cloudy"
"1998-10-17 14:00","1998","10","17","14:00","14.6","","8.6","","67","","18","","7","","40.2","","100.83","","","","","","Cloudy"
"1998-10-17 15:00","1998","10","17","15:00","14.4","","8.7","","69","","18","","4","","40.2","","100.80","","","","","","Cloudy"
"1998-10-17 16:00","1998","10","17","16:00","13.8","","8.8","","72","","17","","6","","40.2","","100.70","","","","","","Cloudy"
"1998-10-17 17:00","1998","10","17","17:00","13.1","","9.3","","78","","17","","7","","32.2","","100.60","","","","","","Cloudy"
"1998-10-17 18:00","1998","10","17","18:00","13.0","","9.5","","79","","15","","4","","25.0","","100.60","","","","","","Cloudy"
"1998-10-17 19:00","1998","10","17","19:00","12.8","","9.5","","80","","16","","4","","24.1","","100.49","","","","","","Cloudy"
"1998-10-17 20:00","1998","10","17","20:00","13.0","","9.6","","80","","9","","4","","24.1","","100.46","","","","","","Cloudy"
"1998-10-17 21:00","1998","10","17","21:00","12.7","","9.7","","82","","","","0","","24.1","","100.43","","","","","","Cloudy"
"1998-10-17 22:00","1998","10","17","22:00","12.6","","9.8","","83","","","","0","","24.1","","100.43","","","","","","Cloudy"
"1998-10-17 23:00","1998","10","17","23:00","12.6","","9.7","","82","","","","0","","24.1","","100.29","","","","","","Cloudy"
"1998-10-18 00:00","1998","10","18","00:00","13.2","","9.6","","79","","18","","6","","24.1","","100.23","","","","","","Cloudy"
"1998-10-18 01:00","1998","10","18","01:00","13.6","","9.2","","75","","20","","9","","24.1","","100.19","","","","","","Mostly Cloudy"
"1998-10-18 02:00","1998","10","18","02:00","14.1","","9.6","","74","","21","","7","","24.1","","100.16","","","","","","Rain Showers"
"1998-10-18 03:00","1998","10","18","03:00","14.1","","10.5","","79","","21","","6","","24.1","","100.06","","","","","","Rain Showers"
"1998-10-18 04:00","1998","10","18","04:00","14.1","","10.7","","80","","20","","9","","24.1","","100.06","","","","","","Cloudy"
"1998-10-18 05:00","1998","10","18","05:00","13.4","","10.1","","80","","20","","7","","24.1","","99.99","","","","","","Mainly Clear"
"1998-10-18 06:00","1998","10","18","06:00","13.7","","9.9","","78","","19","","7","","24.1","","100.03","","","","","","Mostly Cloudy"
"1998-10-18 07:00","1998","10","18","07:00","14.1","","10.1","","77","","19","","9","","40.2","","99.96","","","","","","Mostly Cloudy"
"1998-10-18 08:00","1998","10","18","08:00","15.4","","10.6","","73","","18","","11","","40.2","","99.89","","","","","","Mostly Cloudy"
"1998-10-18 09:00","1998","10","18","09:00","17.4","","12.1","","71","","20","","13","","40.2","","99.86","","","","","","Mostly Cloudy"
"1998-10-18 10:00","1998","10","18","10:00","18.8","","11.5","","63","","21","","11","","40.2","","99.76","","","","","","Mostly Cloudy"
"1998-10-18 11:00","1998","10","18","11:00","20.9","","12.4","","58","","21","","19","","40.2","","99.66","","","","","","Mostly Cloudy"
"1998-10-18 12:00","1998","10","18","12:00","21.5","","11.8","","54","","21","","19","","40.2","","99.56","","","","","","Cloudy"
"1998-10-18 13:00","1998","10","18","13:00","21.2","","11.3","","53","","21","","17","","40.2","","99.49","","","","","","Cloudy"
"1998-10-18 14:00","1998","10","18","14:00","21.7","","11.8","","53","","21","","24","","40.2","","99.39","","","","","","Mostly Cloudy"
"1998-10-18 15:00","1998","10","18","15:00","21.5","","11.5","","53","","21","","24","","40.2","","99.26","","","","","","Cloudy"
"1998-10-18 16:00","1998","10","18","16:00","21.4","","11.4","","53","","21","","24","","40.2","","99.26","","","","","","Cloudy"
"1998-10-18 17:00","1998","10","18","17:00","20.2","","12.7","","62","","22","","28","","40.2","","99.12","","","","","","Mostly Cloudy"
"1998-10-18 18:00","1998","10","18","18:00","19.7","","13.6","","68","","23","","30","","24.1","","99.26","","","","","","Rain Showers"
"1998-10-18 19:00","1998","10","18","19:00","19.0","","13.0","","68","","22","","28","","24.1","","99.12","","","","","","Cloudy"
"1998-10-18 20:00","1998","10","18","20:00","18.4","","12.9","","70","","23","","22","","24.1","","99.09","","","","","","Cloudy"
"1998-10-18 21:00","1998","10","18","21:00","17.8","","12.9","","73","","23","","15","","24.1","","99.05","","","","","","Mostly Cloudy"
"1998-10-18 22:00","1998","10","18","22:00","17.4","","13.1","","76","","23","","19","","24.1","","99.02","","","","","","Mainly Clear"
"1998-10-18 23:00","1998","10","18","23:00","16.5","","10.5","","68","","27","","24","","24.1","","99.12","","","","","","Mostly Cloudy"
"1998-10-19 00:00","1998","10","19","00:00","14.8","","7.5","","62","","25","","22","","24.1","","99.15","","","","","","Mainly Clear"
"1998-10-19 01:00","1998","10","19","01:00","13.3","","5.8","","60","","27","","22","","24.1","","99.29","","","","","","Mostly Cloudy"
"1998-10-19 02:00","1998","10","19","02:00","12.6","","4.5","","58","","27","","26","","24.1","","99.39","","","","","","Cloudy"
"1998-10-19 03:00","1998","10","19","03:00","12.4","","4.6","","59","","26","","28","","24.1","","99.39","","","","","","Cloudy"
"1998-10-19 04:00","1998","10","19","04:00","12.0","","4.5","","60","","24","","20","","24.1","","99.42","","","","","","Cloudy"
"1998-10-19 05:00","1998","10","19","05:00","12.0","","5.0","","62","","26","","26","","24.1","","99.49","","","","","","Cloudy"
"1998-10-19 06:00","1998","10","19","06:00","11.1","","5.6","","69","","28","","22","","24.1","","99.62","","","","","","Rain"
"1998-10-19 07:00","1998","10","19","07:00","11.0","","4.4","","64","","27","","26","","40.2","","99.76","","","","","","Cloudy"
"1998-10-19 08:00","1998","10","19","08:00","11.1","","4.6","","64","","26","","20","","40.2","","99.86","","","","","","Mainly Clear"
"1998-10-19 09:00","1998","10","19","09:00","11.0","","4.1","","62","","28","","28","","40.2","","99.89","","","","","","Mostly Cloudy"
"1998-10-19 10:00","1998","10","19","10:00","11.1","","2.9","","57","","28","","22","","40.2","","99.96","","","","","","Mostly Cloudy"
"1998-10-19 11:00","1998","10","19","11:00","12.7","","3.5","","53","","26","","26","","40.2","","99.99","","","","","","Mostly Cloudy"
"1998-10-19 12:00","1998","10","19","12:00","12.9","","3.8","","54","","28","","24","","40.2","","99.99","","","","","","Mainly Clear"
"1998-10-19 13:00","1998","10","19","13:00","13.9","","3.3","","49","","28","","19","","40.2","","99.96","","","","","","Mainly Clear"
"1998-10-19 14:00","1998","10","19","14:00","14.3","","3.2","","47","","28","","20","","40.2","","99.93","","","","","","Clear"
"1998-10-19 15:00","1998","10","19","15:00","14.8","","3.5","","47","","28","","20","","40.2","","99.93","","","","","","Clear"
"1998-10-19 16:00","1998","10","19","16:00","15.1","","3.0","","44","","27","","13","","40.2","","99.89","","","","","","Clear"
"1998-10-19 17:00","1998","10","19","17:00","13.3","","3.0","","50","","26","","11","","40.2","","99.89","","","","","","Clear"
"1998-10-19 18:00","1998","10","19","18:00","11.8","","3.5","","57","","26","","11","","24.1","","99.93","","","","","","Mainly Clear"
"1998-10-19 19:00","1998","10","19","19:00","11.1","","3.5","","59","","25","","11","","24.1","","99.96","","","","","","Mainly Clear"
"1998-10-19 20:00","1998","10","19","20:00","10.0","","3.8","","65","","25","","9","","24.1","","99.99","","","","","","Mostly Cloudy"
"1998-10-19 21:00","1998","10","19","21:00","10.4","","4.6","","67","","24","","7","","24.1","","100.03","","","","","","Cloudy"
"1998-10-19 22:00","1998","10","19","22:00","10.8","","5.1","","68","","25","","13","","24.1","","99.99","","","","","","Cloudy"
"1998-10-19 23:00","1998","10","19","23:00","9.0","","4.2","","72","","20","","9","","24.1","","99.86","","","","","","Clear"
"1998-10-20 00:00","1998","10","20","00:00","8.4","","4.5","","76","","20","","7","","24.1","","99.76","","","","","","Mostly Cloudy"
"1998-10-20 01:00","1998","10","20","01:00","8.6","","5.0","","78","","21","","11","","12.9","","99.69","","","","","","Rain Showers"
"1998-10-20 02:00","1998","10","20","02:00","8.4","","6.0","","85","","22","","11","","24.1","","99.59","","","","","","Mostly Cloudy"
"1998-10-20 03:00","1998","10","20","03:00","9.0","","7.1","","88","","27","","20","","24.1","","99.59","","","","","","Mostly Cloudy"
"1998-10-20 04:00","1998","10","20","04:00","7.8","","4.6","","80","","27","","15","","24.1","","99.69","","","","","","Mostly Cloudy"
"1998-10-20 05:00","1998","10","20","05:00","6.2","","3.8","","85","","26","","7","","24.1","","99.66","","","","","","Clear"
"1998-10-20 06:00","1998","10","20","06:00","6.0","","3.3","","83","","25","","17","","24.1","","99.69","","","","","","Clear"
"1998-10-20 07:00","1998","10","20","07:00","6.6","","3.3","","79","","26","","13","","40.2","","99.76","","","","","","Mainly Clear"
"1998-10-20 08:00","1998","10","20","08:00","7.5","","3.7","","77","","26","","13","","40.2","","99.82","","","","","","Mainly Clear"
"1998-10-20 09:00","1998","10","20","09:00","8.6","","3.4","","70","","27","","19","","40.2","","99.86","","","","","","Mostly Cloudy"
"1998-10-20 10:00","1998","10","20","10:00","8.6","","1.8","","62","","28","","19","","40.2","","99.86","","","","","","Mostly Cloudy"
"1998-10-20 11:00","1998","10","20","11:00","8.8","","2.0","","62","","29","","19","","40.2","","99.86","","","","","","Mostly Cloudy"
"1998-10-20 12:00","1998","10","20","12:00","9.8","","2.7","","61","","27","","19","","40.2","","99.86","","","","","","Mainly Clear"
"1998-10-20 13:00","1998","10","20","13:00","10.3","","1.9","","56","","28","","24","","40.2","","99.82","","","","","","Mainly Clear"
"1998-10-20 14:00","1998","10","20","14:00","10.0","","0.2","","50","","27","","26","","40.2","","99.86","","","","","","Mostly Cloudy"
"1998-10-20 15:00","1998","10","20","15:00","9.9","","1.5","","56","","28","","24","","40.2","","99.86","","","","","","Mainly Clear"
"1998-10-20 16:00","1998","10","20","16:00","9.8","","0.7","","53","","27","","22","","40.2","","99.89","","","","","","Mainly Clear"
"1998-10-20 17:00","1998","10","20","17:00","8.9","","0.0","","54","","28","","13","","40.2","","99.96","","","","","","Mainly Clear"
"1998-10-20 18:00","1998","10","20","18:00","7.8","","-0.5","","56","","30","","19","","25.0","","100.03","","","","","","Mainly Clear"
"1998-10-20 19:00","1998","10","20","19:00","7.2","","-0.4","","58","","29","","17","","25.0","","100.06","","","","","","Mainly Clear"
"1998-10-20 20:00","1998","10","20","20:00","6.4","","-0.8","","60","","28","","22","","25.0","","100.13","","","","","","Mostly Cloudy"
"1998-10-20 21:00","1998","10","20","21:00","5.7","","-2.2","","57","","27","","9","","25.0","","100.16","","","","","","Mostly Cloudy"
"1998-10-20 22:00","1998","10","20","22:00","6.0","","-1.6","","58","","28","","9","","24.1","","100.13","","","","","","Mostly Cloudy"
"1998-10-20 23:00","1998","10","20","23:00","4.0","","-2.4","","63","","24","","7","","24.1","","100.13","","","","","","Mainly Clear"
"1998-10-21 00:00","1998","10","21","00:00","3.2","","-2.1","","68","","24","","6","","24.1","","100.13","","","","","","Mainly Clear"
"1998-10-21 01:00","1998","10","21","01:00","2.3","","-2.1","","73","","25","","6","","24.1","","100.09","","","","","","Clear"
"1998-10-21 02:00","1998","10","21","02:00","2.0","","-2.0","","75","","25","","6","","24.1","","100.06","","","","","","Clear"
"1998-10-21 03:00","1998","10","21","03:00","1.4","","-2.1","","77","","25","","7","","24.1","","100.03","","","","","","Clear"
"1998-10-21 04:00","1998","10","21","04:00","0.6","","-2.4","","80","","26","","7","","24.1","","100.03","","","","","","Clear"
"1998-10-21 05:00","1998","10","21","05:00","1.2","","-2.1","","79","","27","","7","","24.1","","100.03","","","","","","Clear"
"1998-10-21 06:00","1998","10","21","06:00","0.5","","-2.3","","81","","26","","7","","24.1","","100.06","","","","","","Clear"
"1998-10-21 07:00","1998","10","21","07:00","0.0","","-2.7","","82","","26","","9","","32.2","","100.09","","","","-3","","Clear"
"1998-10-21 08:00","1998","10","21","08:00","2.6","","-0.2","","82","","28","","11","","32.2","","100.13","","","","","","Clear"
"1998-10-21 09:00","1998","10","21","09:00","3.5","","-0.6","","74","","30","","13","","32.2","","100.16","","","","","","Mainly Clear"
"1998-10-21 10:00","1998","10","21","10:00","4.2","","-0.7","","70","","29","","13","","40.2","","100.13","","","","","","Mainly Clear"
"1998-10-21 11:00","1998","10","21","11:00","5.5","","-0.8","","64","","31","","19","","40.2","","100.09","","","","","","Mainly Clear"
"1998-10-21 12:00","1998","10","21","12:00","6.4","","-0.6","","61","","29","","17","","40.2","","100.09","","","","","","Mainly Clear"
"1998-10-21 13:00","1998","10","21","13:00","7.4","","-0.3","","58","","28","","17","","40.2","","100.06","","","","","","Mainly Clear"
"1998-10-21 14:00","1998","10","21","14:00","7.5","","-0.4","","57","","27","","20","","40.2","","100.06","","","","","","Mainly Clear"
"1998-10-21 15:00","1998","10","21","15:00","7.0","","-0.9","","57","","28","","13","","40.2","","100.06","","","","","","Mostly Cloudy"
"1998-10-21 16:00","1998","10","21","16:00","6.9","","-1.2","","56","","27","","20","","40.2","","100.09","","","","","","Mostly Cloudy"
"1998-10-21 17:00","1998","10","21","17:00","6.6","","-1.2","","57","","27","","15","","40.2","","100.16","","","","","","Mostly Cloudy"
"1998-10-21 18:00","1998","10","21","18:00","6.1","","-1.1","","60","","29","","15","","25.0","","100.19","","","","","","Mainly Clear"
"1998-10-21 19:00","1998","10","21","19:00","6.2","","-0.7","","61","","29","","15","","25.0","","100.23","","","","","","Mostly Cloudy"
"1998-10-21 20:00","1998","10","21","20:00","5.6","","-0.1","","67","","31","","13","","25.0","","100.29","","","","","","Rain Showers"
"1998-10-21 21:00","1998","10","21","21:00","5.6","","0.2","","68","","30","","13","","25.0","","100.33","","","","","","Mostly Cloudy"
"1998-10-21 22:00","1998","10","21","22:00","5.6","","0.0","","67","","29","","13","","25.0","","100.33","","","","","","Mostly Cloudy"
"1998-10-21 23:00","1998","10","21","23:00","5.4","","0.1","","69","","29","","13","","25.0","","100.36","","","","","","Cloudy"
"1998-10-22 00:00","1998","10","22","00:00","5.4","","0.3","","70","","29","","13","","25.0","","100.36","","","","","","Cloudy"
"1998-10-22 01:00","1998","10","22","01:00","5.4","","0.5","","71","","29","","19","","25.0","","100.43","","","","","","Cloudy"
"1998-10-22 02:00","1998","10","22","02:00","5.2","","0.7","","73","","29","","13","","25.0","","100.46","","","","","","Mostly Cloudy"
"1998-10-22 03:00","1998","10","22","03:00","4.8","","0.8","","75","","30","","13","","25.0","","100.49","","","","","","Mostly Cloudy"
"1998-10-22 04:00","1998","10","22","04:00","5.0","","1.2","","76","","31","","13","","25.0","","100.53","","","","","","Cloudy"
"1998-10-22 05:00","1998","10","22","05:00","4.9","","1.1","","76","","31","","15","","25.0","","100.60","","","","","","Mostly Cloudy"
"1998-10-22 06:00","1998","10","22","06:00","4.5","","0.6","","76","","32","","17","","25.0","","100.63","","","","","","Mainly Clear"
"1998-10-22 07:00","1998","10","22","07:00","4.7","","1.3","","79","","31","","11","","40.2","","100.73","","","","","","Mostly Cloudy"
"1998-10-22 08:00","1998","10","22","08:00","5.3","","1.3","","75","","33","","22","","40.2","","100.80","","","","","","Mostly Cloudy"
"1998-10-22 09:00","1998","10","22","09:00","6.1","","0.9","","69","","32","","22","","40.2","","100.90","","","","","","Mostly Cloudy"
"1998-10-22 10:00","1998","10","22","10:00","6.4","","1.0","","68","","33","","20","","40.2","","100.90","","","","","","Mostly Cloudy"
"1998-10-22 11:00","1998","10","22","11:00","7.2","","1.2","","66","","31","","15","","40.2","","100.93","","","","","","Mainly Clear"
"1998-10-22 12:00","1998","10","22","12:00","7.8","","2.0","","67","","30","","19","","40.2","","100.90","","","","","","Mostly Cloudy"
"1998-10-22 13:00","1998","10","22","13:00","8.5","","0.9","","59","","29","","20","","40.2","","100.86","","","","","","Mostly Cloudy"
"1998-10-22 14:00","1998","10","22","14:00","9.6","","1.0","","55","","28","","17","","40.2","","100.86","","","","","","Mostly Cloudy"
"1998-10-22 15:00","1998","10","22","15:00","8.8","","0.5","","56","","28","","19","","40.2","","100.86","","","","","","Mostly Cloudy"
"1998-10-22 16:00","1998","10","22","16:00","8.2","","-0.6","","54","","28","","19","","40.2","","100.86","","","","","","Mostly Cloudy"
"1998-10-22 17:00","1998","10","22","17:00","7.3","","-0.8","","56","","27","","15","","40.2","","100.86","","","","","","Mostly Cloudy"
"1998-10-22 18:00","1998","10","22","18:00","6.7","","-1.6","","55","","28","","9","","25.0","","100.86","","","","","","Mostly Cloudy"
"1998-10-22 19:00","1998","10","22","19:00","6.2","","-1.3","","59","","27","","9","","25.0","","100.90","","","","","","Mostly Cloudy"
"1998-10-22 20:00","1998","10","22","20:00","5.8","","-1.3","","60","","28","","7","","25.0","","100.90","","","","","","Mostly Cloudy"
"1998-10-22 21:00","1998","10","22","21:00","5.0","","-1.8","","61","","30","","11","","25.0","","100.93","","","","","","Mainly Clear"
"1998-10-22 22:00","1998","10","22","22:00","4.6","","-2.0","","62","","31","","13","","25.0","","100.93","","","","","","Mainly Clear"
"1998-10-22 23:00","1998","10","22","23:00","4.0","","-1.7","","66","","25","","6","","25.0","","100.90","","","","","","Mostly Cloudy"
"1998-10-23 00:00","1998","10","23","00:00","2.9","","-1.6","","72","","24","","7","","25.0","","100.93","","","","","","Mostly Cloudy"
"1998-10-23 01:00","1998","10","23","01:00","2.2","","-1.3","","78","","21","","4","","25.0","","100.90","","","","","","Mostly Cloudy"
"1998-10-23 02:00","1998","10","23","02:00","2.2","","-1.4","","77","","22","","7","","25.0","","100.86","","","","","","Mostly Cloudy"
"1998-10-23 03:00","1998","10","23","03:00","1.9","","-1.6","","78","","22","","7","","25.0","","100.83","","","","","","Mainly Clear"
"1998-10-23 04:00","1998","10","23","04:00","1.9","","-1.4","","79","","22","","13","","25.0","","100.76","","","","","","Mostly Cloudy"
"1998-10-23 05:00","1998","10","23","05:00","1.8","","-1.0","","82","","23","","9","","25.0","","100.73","","","","","","Mostly Cloudy"
"1998-10-23 06:00","1998","10","23","06:00","1.5","","-0.4","","87","","21","","9","","25.0","","100.70","","","","","","Mainly Clear"
"1998-10-23 07:00","1998","10","23","07:00","1.6","","-0.3","","87","","20","","7","","32.2","","100.66","","","","","","Clear"
"1998-10-23 08:00","1998","10","23","08:00","3.1","","1.5","","89","","20","","9","","32.2","","100.63","","","","","","Clear"
"1998-10-23 09:00","1998","10","23","09:00","6.7","","3.8","","82","","23","","13","","32.2","","100.56","","","","","","Clear"
"1998-10-23 10:00","1998","10","23","10:00","9.2","","4.4","","72","","23","","17","","32.2","","100.46","","","","","","Clear"
"1998-10-23 11:00","1998","10","23","11:00","11.7","","5.4","","65","","24","","19","","32.2","","100.43","","","","","","Clear"
"1998-10-23 12:00","1998","10","23","12:00","13.5","","6.1","","61","","23","","17","","32.2","","100.29","","","","","","Clear"
"1998-10-23 13:00","1998","10","23","13:00","15.6","","6.2","","54","","22","","17","","40.2","","100.23","","","","","","Clear"
"1998-10-23 14:00","1998","10","23","14:00","16.7","","6.4","","51","","23","","19","","40.2","","100.16","","","","","","Mainly Clear"
"1998-10-23 15:00","1998","10","23","15:00","17.5","","6.4","","48","","26","","28","","40.2","","100.13","","","","","","Mainly Clear"
"1998-10-23 16:00","1998","10","23","16:00","17.3","","6.8","","50","","25","","17","","40.2","","100.13","","","","","","Mainly Clear"
"1998-10-23 17:00","1998","10","23","17:00","16.0","","6.4","","53","","22","","9","","40.2","","100.09","","","","","","Mainly Clear"
"1998-10-23 18:00","1998","10","23","18:00","12.6","","5.9","","64","","20","","11","","25.0","","100.13","","","","","","Clear"
"1998-10-23 19:00","1998","10","23","19:00","11.6","","6.1","","69","","21","","13","","25.0","","100.16","","","","","","Clear"
"1998-10-23 20:00","1998","10","23","20:00","11.0","","6.2","","72","","22","","7","","25.0","","100.19","","","","","","Clear"
"1998-10-23 21:00","1998","10","23","21:00","9.8","","5.9","","77","","21","","6","","25.0","","100.26","","","","","","Clear"
"1998-10-23 22:00","1998","10","23","22:00","9.6","","5.7","","77","","21","","9","","25.0","","100.26","","","","","","Clear"
"1998-10-23 23:00","1998","10","23","23:00","9.0","","6.0","","81","","22","","6","","25.0","","100.26","","","","","","Clear"
"1998-10-24 00:00","1998","10","24","00:00","8.4","","5.6","","83","","22","","7","","25.0","","100.29","","","","","","Clear"
"1998-10-24 01:00","1998","10","24","01:00","8.7","","6.2","","84","","21","","9","","25.0","","100.29","","","","","","Clear"
"1998-10-24 02:00","1998","10","24","02:00","8.1","","5.7","","85","","21","","9","","25.0","","100.29","","","","","","Clear"
"1998-10-24 03:00","1998","10","24","03:00","7.6","","5.7","","88","","20","","9","","25.0","","100.26","","","","","","Clear"
"1998-10-24 04:00","1998","10","24","04:00","6.9","","5.6","","91","","21","","9","","25.0","","100.29","","","","","","Clear"
"1998-10-24 05:00","1998","10","24","05:00","7.3","","5.5","","88","","23","","9","","25.0","","100.33","","","","","","Clear"
"1998-10-24 06:00","1998","10","24","06:00","6.8","","5.9","","94","","23","","7","","25.0","","100.36","","","","","","Mainly Clear"
"1998-10-24 07:00","1998","10","24","07:00","6.8","","5.3","","90","","21","","9","","40.2","","100.36","","","","","","Mainly Clear"
"1998-10-24 08:00","1998","10","24","08:00","8.9","","7.3","","90","","22","","9","","40.2","","100.39","","","","","","Clear"
"1998-10-24 09:00","1998","10","24","09:00","12.6","","9.5","","81","","23","","15","","40.2","","100.39","","","","","","Clear"
"1998-10-24 10:00","1998","10","24","10:00","14.5","","9.0","","70","","22","","17","","40.2","","100.36","","","","","","Clear"
"1998-10-24 11:00","1998","10","24","11:00","16.4","","9.4","","63","","22","","17","","40.2","","100.29","","","","","","Clear"
"1998-10-24 12:00","1998","10","24","12:00","17.5","","9.2","","58","","22","","17","","40.2","","100.23","","","","","","Clear"
"1998-10-24 13:00","1998","10","24","13:00","18.6","","8.7","","52","","23","","22","","40.2","","100.09","","","","","","Clear"
"1998-10-24 14:00","1998","10","24","14:00","19.8","","8.5","","48","","22","","20","","40.2","","100.03","","","","","","Clear"
"1998-10-24 15:00","1998","10","24","15:00","20.6","","8.3","","45","","23","","19","","40.2","","99.99","","","","","","Mainly Clear"
"1998-10-24 16:00","1998","10","24","16:00","20.7","","7.3","","42","","25","","6","","40.2","","99.99","","","","","","Mainly Clear"
"1998-10-24 17:00","1998","10","24","17:00","18.5","","6.8","","46","","22","","7","","40.2","","100.03","","","","","","Mainly Clear"
"1998-10-24 18:00","1998","10","24","18:00","17.0","","7.3","","53","","24","","15","","24.1","","100.03","","","","","","Mostly Cloudy"
"1998-10-24 19:00","1998","10","24","19:00","15.9","","7.2","","56","","24","","11","","24.1","","100.06","","","","","","Mostly Cloudy"
"1998-10-24 20:00","1998","10","24","20:00","15.5","","6.9","","57","","24","","11","","24.1","","100.09","","","","","","Cloudy"
"1998-10-24 21:00","1998","10","24","21:00","14.7","","6.4","","57","","24","","9","","24.1","","100.16","","","","","","Mostly Cloudy"
"1998-10-24 22:00","1998","10","24","22:00","15.1","","6.4","","56","","25","","15","","24.1","","100.19","","","","","","Mainly Clear"
"1998-10-24 23:00","1998","10","24","23:00","13.4","","5.9","","60","","24","","9","","24.1","","100.23","","","","","","Mostly Cloudy"
"1998-10-25 00:00","1998","10","25","00:00","10.9","","5.4","","69","","21","","4","","24.1","","100.26","","","","","","Mostly Cloudy"
"1998-10-25 01:00","1998","10","25","01:00","10.2","","5.5","","73","","20","","6","","24.1","","100.29","","","","","","Mostly Cloudy"
"1998-10-25 02:00","1998","10","25","02:00","10.4","","5.9","","74","","23","","7","","24.1","","100.29","","","","","","Cloudy"
"1998-10-25 03:00","1998","10","25","03:00","9.5","","5.1","","74","","24","","9","","24.1","","100.36","","","","","","Mainly Clear"
"1998-10-25 04:00","1998","10","25","04:00","9.6","","5.4","","75","","24","","4","","24.1","","100.43","","","","","","Mostly Cloudy"
"1998-10-25 05:00","1998","10","25","05:00","10.9","","6.0","","72","","36","","15","","24.1","","100.53","","","","","","Mostly Cloudy"
"1998-10-25 06:00","1998","10","25","06:00","9.0","","1.8","","61","","35","","15","","24.1","","100.66","","","","","","Cloudy"
"1998-10-25 07:00","1998","10","25","07:00","8.6","","1.3","","60","","35","","17","","40.2","","100.80","","","","","","Mostly Cloudy"
"1998-10-25 08:00","1998","10","25","08:00","7.6","","1.4","","65","","35","","15","","40.2","","100.93","","","","","","Mostly Cloudy"
"1998-10-25 09:00","1998","10","25","09:00","6.3","","0.1","","64","","2","","13","","40.2","","101.00","","","","","","Mostly Cloudy"
"1998-10-25 10:00","1998","10","25","10:00","7.7","","0.1","","59","","35","","9","","40.2","","101.03","","","","","","Mainly Clear"
"1998-10-25 11:00","1998","10","25","11:00","8.2","","-1.9","","49","","1","","9","","40.2","","101.06","","","","","","Mainly Clear"
"1998-10-25 12:00","1998","10","25","12:00","9.4","","-4.2","","38","","33","","9","","40.2","","101.03","","","","","","Mainly Clear"
"1998-10-25 13:00","1998","10","25","13:00","9.7","","-5.4","","34","","33","","7","","40.2","","101.00","","","","","","Mainly Clear"
"1998-10-25 14:00","1998","10","25","14:00","10.4","","-7.6","","27","","32","","11","","40.2","","101.00","","","","","","Mainly Clear"
"1998-10-25 15:00","1998","10","25","15:00","10.2","","-7.5","","28","","30","","9","","40.2","","100.96","","","","","","Mainly Clear"
"1998-10-25 16:00","1998","10","25","16:00","9.5","","-6.6","","31","","34","","7","","40.2","","101.00","","","","","","Clear"
"1998-10-25 17:00","1998","10","25","17:00","8.2","","-7.0","","33","","32","","9","","40.2","","101.03","","","","","","Mainly Clear"
"1998-10-25 18:00","1998","10","25","18:00","7.6","","-6.7","","35","","35","","7","","25.0","","101.06","","","","","","Mainly Clear"
"1998-10-25 19:00","1998","10","25","19:00","6.3","","-6.9","","38","","2","","9","","24.1","","101.06","","","","","","Clear"
"1998-10-25 20:00","1998","10","25","20:00","5.0","","-6.5","","43","","2","","4","","24.1","","101.13","","","","","","Clear"
"1998-10-25 21:00","1998","10","25","21:00","5.1","","-6.3","","43","","3","","4","","24.1","","101.13","","","","","","Clear"
"1998-10-25 22:00","1998","10","25","22:00","4.0","","-6.7","","46","","3","","6","","24.1","","101.16","","","","","","Clear"
"1998-10-25 23:00","1998","10","25","23:00","3.7","","-6.1","","49","","3","","6","","24.1","","101.20","","","","","","Clear"
"1998-10-26 00:00","1998","10","26","00:00","2.9","","-5.6","","54","","3","","6","","24.1","","101.23","","","","","","Clear"
"1998-10-26 01:00","1998","10","26","01:00","2.2","","-5.6","","56","","2","","6","","24.1","","101.23","","","","","","Clear"
"1998-10-26 02:00","1998","10","26","02:00","1.2","","-4.9","","64","","36","","7","","24.1","","101.27","","","","","","Clear"
"1998-10-26 03:00","1998","10","26","03:00","1.0","","-4.5","","67","","36","","6","","24.1","","101.27","","","","","","Clear"
"1998-10-26 04:00","1998","10","26","04:00","0.9","","-4.6","","67","","36","","7","","24.1","","101.30","","","","","","Mainly Clear"
"1998-10-26 05:00","1998","10","26","05:00","0.1","","-5.0","","69","","3","","9","","24.1","","101.33","","","","","","Mainly Clear"
"1998-10-26 06:00","1998","10","26","06:00","0.1","","-4.7","","70","","3","","7","","24.1","","101.37","","","","","","Mostly Cloudy"
"1998-10-26 07:00","1998","10","26","07:00","0.4","","-4.0","","72","","4","","9","","40.2","","101.47","","","","","","Mostly Cloudy"
"1998-10-26 08:00","1998","10","26","08:00","1.6","","-3.1","","71","","6","","11","","40.2","","101.50","","","","","","Mostly Cloudy"
"1998-10-26 09:00","1998","10","26","09:00","3.4","","-3.8","","59","","7","","13","","40.2","","101.57","","","","","","Mainly Clear"
"1998-10-26 10:00","1998","10","26","10:00","5.6","","-3.7","","51","","8","","13","","40.2","","101.53","","","","","","Mainly Clear"
"1998-10-26 11:00","1998","10","26","11:00","7.3","","-3.8","","45","","9","","11","","40.2","","101.53","","","","","","Mainly Clear"
"1998-10-26 12:00","1998","10","26","12:00","8.6","","-3.7","","42","","10","","11","","40.2","","101.47","","","","","","Mainly Clear"
"1998-10-26 13:00","1998","10","26","13:00","9.1","","-4.1","","39","","6","","9","","40.2","","101.43","","","","","","Mainly Clear"
"1998-10-26 14:00","1998","10","26","14:00","9.6","","-3.7","","39","","6","","4","","40.2","","101.40","","","","","","Mainly Clear"
"1998-10-26 15:00","1998","10","26","15:00","9.9","","-4.1","","37","","11","","11","","40.2","","101.37","","","","","","Mainly Clear"
"1998-10-26 16:00","1998","10","26","16:00","9.0","","-4.1","","39","","8","","9","","40.2","","101.33","","","","","","Mainly Clear"
"1998-10-26 17:00","1998","10","26","17:00","7.6","","-4.5","","42","","6","","4","","40.2","","101.37","","","","","","Mostly Cloudy"
"1998-10-26 18:00","1998","10","26","18:00","6.3","","-4.7","","45","","6","","4","","25.0","","101.40","","","","","","Cloudy"
"1998-10-26 19:00","1998","10","26","19:00","6.1","","-4.2","","48","","7","","4","","25.0","","101.40","","","","","","Mostly Cloudy"
"1998-10-26 20:00","1998","10","26","20:00","5.7","","-4.0","","50","","6","","7","","25.0","","101.37","","","","","","Cloudy"
"1998-10-26 21:00","1998","10","26","21:00","5.3","","-4.2","","50","","5","","11","","25.0","","101.33","","","","","","Cloudy"
"1998-10-26 22:00","1998","10","26","22:00","5.0","","-4.3","","51","","6","","11","","25.0","","101.33","","","","","","Cloudy"
"1998-10-26 23:00","1998","10","26","23:00","4.7","","-4.6","","51","","6","","9","","25.0","","101.30","","","","","","Cloudy"
"1998-10-27 00:00","1998","10","27","00:00","4.5","","-4.5","","52","","7","","7","","25.0","","101.27","","","","","","Cloudy"
"1998-10-27 01:00","1998","10","27","01:00","4.4","","-4.2","","54","","6","","9","","24.1","","101.23","","","","","","Rain Showers"
"1998-10-27 02:00","1998","10","27","02:00","4.3","","-3.8","","56","","5","","6","","25.0","","101.20","","","","","","Cloudy"
"1998-10-27 03:00","1998","10","27","03:00","4.3","","-3.3","","58","","6","","4","","24.1","","101.20","","","","","","Rain Showers"
"1998-10-27 04:00","1998","10","27","04:00","4.4","","-3.2","","58","","3","","6","","25.0","","101.16","","","","","","Cloudy"
"1998-10-27 05:00","1998","10","27","05:00","4.4","","-3.0","","59","","7","","4","","25.0","","101.16","","","","","","Cloudy"
"1998-10-27 06:00","1998","10","27","06:00","4.3","","-2.9","","59","","6","","6","","25.0","","101.10","","","","","","Cloudy"
"1998-10-27 07:00","1998","10","27","07:00","4.0","","-3.0","","60","","9","","6","","40.2","","101.10","","","","","","Mostly Cloudy"
"1998-10-27 08:00","1998","10","27","08:00","4.6","","-1.8","","63","","7","","7","","40.2","","101.10","","","","","","Mainly Clear"
"1998-10-27 09:00","1998","10","27","09:00","6.7","","-0.3","","61","","8","","4","","40.2","","101.06","","","","","","Mainly Clear"
"1998-10-27 10:00","1998","10","27","10:00","8.9","","1.8","","61","","11","","6","","40.2","","101.03","","","","","","Mainly Clear"
"1998-10-27 11:00","1998","10","27","11:00","11.7","","5.0","","63","","18","","4","","40.2","","100.96","","","","","","Clear"
"1998-10-27 12:00","1998","10","27","12:00","12.6","","5.6","","62","","18","","4","","40.2","","100.86","","","","","","Clear"
"1998-10-27 13:00","1998","10","27","13:00","16.3","","8.2","","59","","18","","9","","40.2","","100.73","","","","","","Clear"
"1998-10-27 14:00","1998","10","27","14:00","17.8","","8.6","","55","","18","","13","","40.2","","100.60","","","","","","Clear"
"1998-10-27 15:00","1998","10","27","15:00","17.8","","8.0","","53","","19","","15","","32.2","","100.46","","","","","","Clear"
"1998-10-27 16:00","1998","10","27","16:00","16.9","","8.0","","56","","19","","15","","24.1","","100.43","","","","","","Mainly Clear"
"1998-10-27 17:00","1998","10","27","17:00","15.2","","7.4","","60","","20","","13","","19.3","","100.36","","","","","","Mainly Clear"
"1998-10-27 18:00","1998","10","27","18:00","14.3","","7.0","","61","","19","","11","","24.1","","100.29","","","","","","Mostly Cloudy"
"1998-10-27 19:00","1998","10","27","19:00","13.4","","7.2","","66","","19","","7","","19.3","","100.26","","","","","","Mostly Cloudy"
"1998-10-27 20:00","1998","10","27","20:00","12.4","","6.9","","69","","18","","7","","19.3","","100.23","","","","","","Mostly Cloudy"
"1998-10-27 21:00","1998","10","27","21:00","12.0","","7.0","","71","","18","","11","","19.3","","100.16","","","","","","Cloudy"
"1998-10-27 22:00","1998","10","27","22:00","11.8","","7.8","","76","","19","","11","","19.3","","100.16","","","","","","Mostly Cloudy"
"1998-10-27 23:00","1998","10","27","23:00","11.8","","7.8","","76","","20","","15","","25.0","","100.13","","","","","","Mainly Clear"
"1998-10-28 00:00","1998","10","28","00:00","11.9","","8.3","","79","","20","","13","","25.0","","100.06","","","","","","Mostly Cloudy"
"1998-10-28 01:00","1998","10","28","01:00","12.0","","8.4","","79","","20","","15","","25.0","","99.96","","","","","","Mostly Cloudy"
"1998-10-28 02:00","1998","10","28","02:00","12.0","","8.7","","80","","20","","15","","25.0","","99.86","","","","","","Mostly Cloudy"
"1998-10-28 03:00","1998","10","28","03:00","11.3","","8.3","","82","","19","","17","","19.3","","99.69","","","","","","Mainly Clear"
"1998-10-28 04:00","1998","10","28","04:00","11.2","","8.6","","84","","20","","19","","19.3","","99.59","","","","","","Cloudy"
"1998-10-28 05:00","1998","10","28","05:00","11.7","","9.4","","86","","20","","19","","16.1","","99.49","","","","","","Cloudy"
"1998-10-28 06:00","1998","10","28","06:00","12.0","","10.0","","88","","20","","19","","12.9","","99.39","","","","","","Rain Showers"
"1998-10-28 07:00","1998","10","28","07:00","11.7","","10.4","","92","","19","","15","","4.8","","99.32","","","","","","Rain Showers,Fog"
"1998-10-28 08:00","1998","10","28","08:00","11.1","","10.0","","93","","19","","15","","2.4","","99.29","","","","","","Rain Showers,Fog"
"1998-10-28 09:00","1998","10","28","09:00","11.1","","10.1","","94","","19","","15","","1.6","","99.15","","","","","","Rain Showers,Fog"
"1998-10-28 10:00","1998","10","28","10:00","11.6","","10.9","","95","","21","","15","","4.8","","99.12","","","","","","Rain Showers,Fog"
"1998-10-28 11:00","1998","10","28","11:00","11.9","","10.9","","94","","22","","17","","4.8","","99.09","","","","","","Rain,Fog"
"1998-10-28 12:00","1998","10","28","12:00","12.1","","11.4","","95","","25","","9","","16.1","","99.09","","","","","","Cloudy"
"1998-10-28 13:00","1998","10","28","13:00","13.6","","12.1","","91","","32","","19","","32.2","","99.05","","","","","","Mainly Clear"
"1998-10-28 14:00","1998","10","28","14:00","14.3","","7.8","","65","","33","","19","","40.2","","99.05","","","","","","Mainly Clear"
"1998-10-28 15:00","1998","10","28","15:00","14.9","","5.8","","54","","32","","15","","40.2","","99.09","","","","","","Mainly Clear"
"1998-10-28 16:00","1998","10","28","16:00","13.5","","4.9","","56","","32","","11","","40.2","","99.19","","","","","","Mostly Cloudy"
"1998-10-28 17:00","1998","10","28","17:00","12.8","","3.5","","53","","33","","17","","40.2","","99.29","","","","","","Mostly Cloudy"
"1998-10-28 18:00","1998","10","28","18:00","12.0","","3.5","","56","","33","","13","","25.0","","99.39","","","","","","Mostly Cloudy"
"1998-10-28 19:00","1998","10","28","19:00","11.0","","2.8","","57","","35","","19","","25.0","","99.52","","","","","","Cloudy"
"1998-10-28 20:00","1998","10","28","20:00","9.9","","2.4","","60","","34","","19","","25.0","","99.59","","","","","","Mostly Cloudy"
"1998-10-28 21:00","1998","10","28","21:00","8.7","","0.9","","58","","33","","20","","25.0","","99.69","","","","","","Cloudy"
"1998-10-28 22:00","1998","10","28","22:00","8.2","","1.2","","61","","35","","15","","25.0","","99.76","","","","","","Cloudy"
"1998-10-28 23:00","1998","10","28","23:00","7.8","","0.1","","58","","32","","22","","25.0","","99.76","","","","","","Cloudy"
"1998-10-29 00:00","1998","10","29","00:00","6.7","","0.4","","64","","33","","11","","25.0","","99.82","","","","","","Mainly Clear"
"1998-10-29 01:00","1998","10","29","01:00","5.9","","0.1","","66","","33","","13","","25.0","","99.82","","","","","","Mainly Clear"
"1998-10-29 02:00","1998","10","29","02:00","5.4","","0.3","","70","","33","","15","","25.0","","99.86","","","","","","Clear"
"1998-10-29 03:00","1998","10","29","03:00","4.7","","0.3","","73","","31","","11","","25.0","","99.82","","","","","","Mainly Clear"
"1998-10-29 04:00","1998","10","29","04:00","5.0","","0.5","","73","","31","","15","","25.0","","99.86","","","","","","Mainly Clear"
"1998-10-29 05:00","1998","10","29","05:00","5.3","","0.4","","71","","32","","20","","25.0","","99.96","","","","","","Mostly Cloudy"
"1998-10-29 06:00","1998","10","29","06:00","5.1","","0.2","","71","","31","","13","","25.0","","100.03","","","","","","Mostly Cloudy"
"1998-10-29 07:00","1998","10","29","07:00","4.6","","0.4","","74","","30","","9","","40.2","","100.16","","","","","","Mostly Cloudy"
"1998-10-29 08:00","1998","10","29","08:00","5.3","","1.4","","76","","29","","13","","40.2","","100.19","","","","","","Mainly Clear"
"1998-10-29 09:00","1998","10","29","09:00","7.0","","2.0","","70","","31","","19","","40.2","","100.26","","","","","","Mainly Clear"
"1998-10-29 10:00","1998","10","29","10:00","7.5","","2.2","","69","","30","","17","","40.2","","100.23","","","","","","Mostly Cloudy"
"1998-10-29 11:00","1998","10","29","11:00","8.1","","2.4","","67","","33","","20","","40.2","","100.26","","","","","","Mostly Cloudy"
"1998-10-29 12:00","1998","10","29","12:00","8.7","","2.3","","64","","32","","20","","40.2","","100.26","","","","","","Mostly Cloudy"
"1998-10-29 13:00","1998","10","29","13:00","9.3","","2.3","","62","","32","","22","","40.2","","100.23","","","","","","Mostly Cloudy"
"1998-10-29 14:00","1998","10","29","14:00","9.5","","2.1","","60","","32","","22","","40.2","","100.19","","","","","","Mostly Cloudy"
"1998-10-29 15:00","1998","10","29","15:00","10.0","","2.1","","58","","31","","20","","40.2","","100.19","","","","","","Mainly Clear"
"1998-10-29 16:00","1998","10","29","16:00","9.3","","1.6","","59","","30","","17","","40.2","","100.23","","","","","","Mostly Cloudy"
"1998-10-29 17:00","1998","10","29","17:00","8.6","","1.7","","62","","30","","17","","40.2","","100.23","","","","","","Rain Showers"
"1998-10-29 18:00","1998","10","29","18:00","7.5","","1.3","","65","","30","","11","","25.0","","100.26","","","","","","Mainly Clear"
"1998-10-29 19:00","1998","10","29","19:00","6.5","","1.6","","71","","30","","9","","25.0","","100.29","","","","","","Clear"
"1998-10-29 20:00","1998","10","29","20:00","6.5","","1.5","","70","","32","","17","","25.0","","100.26","","","","","","Clear"
"1998-10-29 21:00","1998","10","29","21:00","6.2","","0.4","","66","","33","","15","","25.0","","100.26","","","","","","Mainly Clear"
"1998-10-29 22:00","1998","10","29","22:00","6.4","","0.5","","66","","33","","15","","25.0","","100.26","","","","","","Mostly Cloudy"
"1998-10-29 23:00","1998","10","29","23:00","5.7","","-0.3","","65","","32","","19","","25.0","","100.23","","","","","","Mainly Clear"
"1998-10-30 00:00","1998","10","30","00:00","5.0","","-0.3","","69","","30","","11","","25.0","","100.19","","","","","","Mainly Clear"
"1998-10-30 01:00","1998","10","30","01:00","4.3","","-0.2","","73","","30","","13","","25.0","","100.19","","","","","","Mainly Clear"
"1998-10-30 02:00","1998","10","30","02:00","4.0","","-0.4","","73","","32","","11","","25.0","","100.16","","","","","","Clear"
"1998-10-30 03:00","1998","10","30","03:00","3.2","","-0.7","","76","","32","","11","","25.0","","100.16","","","","","","Clear"
"1998-10-30 04:00","1998","10","30","04:00","2.7","","-1.1","","76","","33","","15","","25.0","","100.16","","","","","","Mostly Cloudy"
"1998-10-30 05:00","1998","10","30","05:00","2.2","","-1.6","","76","","33","","13","","25.0","","100.16","","","","","","Clear"
"1998-10-30 06:00","1998","10","30","06:00","1.7","","-1.7","","78","","32","","13","","25.0","","100.16","","","","","","Clear"
"1998-10-30 07:00","1998","10","30","07:00","1.9","","-1.7","","77","","32","","20","","40.2","","100.16","","","","","","Mainly Clear"
"1998-10-30 08:00","1998","10","30","08:00","2.9","","-0.9","","76","","31","","15","","40.2","","100.19","","","","","","Mainly Clear"
"1998-10-30 09:00","1998","10","30","09:00","4.0","","-0.5","","72","","32","","15","","40.2","","100.16","","","","","","Mainly Clear"
"1998-10-30 10:00","1998","10","30","10:00","5.1","","-0.3","","68","","32","","19","","40.2","","100.09","","","","","","Mainly Clear"
"1998-10-30 11:00","1998","10","30","11:00","6.4","","0.3","","65","","31","","20","","40.2","","100.06","","","","","","Mainly Clear"
"1998-10-30 12:00","1998","10","30","12:00","7.0","","0.0","","61","","33","","19","","40.2","","99.96","","","","","","Mainly Clear"
"1998-10-30 13:00","1998","10","30","13:00","7.8","","-0.3","","57","","31","","22","","40.2","","99.93","","","","","","Mainly Clear"
"1998-10-30 14:00","1998","10","30","14:00","8.8","","-0.6","","52","","33","","20","","40.2","","99.89","","","","","","Clear"
"1998-10-30 15:00","1998","10","30","15:00","9.2","","-0.9","","49","","33","","22","","40.2","","99.82","","","","","","Clear"
"1998-10-30 16:00","1998","10","30","16:00","9.2","","-0.9","","49","","33","","19","","40.2","","99.86","","","","","","Mainly Clear"
"1998-10-30 17:00","1998","10","30","17:00","8.4","","-1.1","","51","","33","","22","","40.2","","99.82","","","","","","Mainly Clear"
"1998-10-30 18:00","1998","10","30","18:00","7.5","","-1.2","","54","","32","","19","","25.0","","99.89","","","","","","Clear"
"1998-10-30 19:00","1998","10","30","19:00","6.9","","-1.2","","56","","33","","17","","25.0","","99.89","","","","","","Clear"
"1998-10-30 20:00","1998","10","30","20:00","6.3","","-1.1","","59","","31","","15","","25.0","","99.89","","","","","","Clear"
"1998-10-30 21:00","1998","10","30","21:00","6.0","","-1.0","","61","","35","","9","","25.0","","99.93","","","","","","Clear"
"1998-10-30 22:00","1998","10","30","22:00","5.0","","-1.2","","64","","34","","17","","25.0","","99.96","","","","","","Clear"
"1998-10-30 23:00","1998","10","30","23:00","4.4","","-1.2","","67","","33","","15","","25.0","","99.89","","","","","","Clear"
"1998-10-31 00:00","1998","10","31","00:00","3.6","","-1.1","","71","","31","","13","","25.0","","99.89","","","","","","Clear"
"1998-10-31 01:00","1998","10","31","01:00","3.5","","-0.7","","74","","32","","11","","25.0","","99.89","","","","","","Clear"
"1998-10-31 02:00","1998","10","31","02:00","3.3","","-0.7","","75","","32","","13","","25.0","","99.93","","","","","","Clear"
"1998-10-31 03:00","1998","10","31","03:00","3.1","","-0.7","","76","","32","","13","","25.0","","99.93","","","","","","Clear"
"1998-10-31 04:00","1998","10","31","04:00","2.8","","-0.7","","78","","30","","9","","25.0","","99.96","","","","","","Clear"
"1998-10-31 05:00","1998","10","31","05:00","1.9","","-0.8","","82","","29","","9","","25.0","","100.06","","","","","","Clear"
"1998-10-31 06:00","1998","10","31","06:00","1.9","","-0.6","","83","","30","","11","","25.0","","100.09","","","","","","Clear"
"1998-10-31 07:00","1998","10","31","07:00","2.0","","-0.3","","85","","31","","11","","40.2","","100.16","","","","","","Clear"
"1998-10-31 08:00","1998","10","31","08:00","3.1","","0.6","","84","","33","","13","","40.2","","100.19","","","","","","Clear"
"1998-10-31 09:00","1998","10","31","09:00","4.7","","1.2","","78","","32","","11","","40.2","","100.23","","","","","","Clear"
"1998-10-31 10:00","1998","10","31","10:00","6.4","","1.7","","72","","32","","11","","40.2","","100.26","","","","","","Clear"
"1998-10-31 11:00","1998","10","31","11:00","8.1","","2.6","","68","","29","","11","","40.2","","100.26","","","","","","Clear"
"1998-10-31 12:00","1998","10","31","12:00","8.8","","2.7","","66","","31","","7","","40.2","","100.19","","","","","","Clear"
"1998-10-31 13:00","1998","10","31","13:00","9.5","","2.7","","62","","29","","4","","40.2","","100.19","","","","","","Mostly Cloudy"
"1998-10-31 14:00","1998","10","31","14:00","9.6","","2.8","","63","","25","","6","","40.2","","100.23","","","","","","Mainly Clear"
"1998-10-31 15:00","1998","10","31","15:00","10.8","","2.9","","58","","31","","7","","40.2","","100.26","","","","","","Mainly Clear"
"1998-10-31 16:00","1998","10","31","16:00","10.2","","1.8","","56","","31","","9","","40.2","","100.26","","","","","","Mainly Clear"
"1998-10-31 17:00","1998","10","31","17:00","9.6","","2.4","","61","","26","","11","","40.2","","100.33","","","","","","Mostly Cloudy"
"1998-10-31 18:00","1998","10","31","18:00","8.4","","2.5","","66","","28","","11","","25.0","","100.36","","","","","","Mostly Cloudy"
"1998-10-31 19:00","1998","10","31","19:00","8.2","","2.5","","67","","29","","9","","25.0","","100.36","","","","","","Cloudy"
"1998-10-31 20:00","1998","10","31","20:00","8.1","","2.8","","69","","28","","9","","25.0","","100.33","","","","","","Cloudy"
"1998-10-31 21:00","1998","10","31","21:00","8.1","","3.3","","72","","29","","7","","25.0","","100.33","","","","","","Cloudy"
"1998-10-31 22:00","1998","10","31","22:00","7.8","","3.3","","73","","30","","7","","25.0","","100.33","","","","","","Cloudy"
"1998-10-31 23:00","1998","10","31","23:00","7.7","","3.3","","74","","28","","6","","25.0","","100.33","","","","","","Cloudy"
